station_id,latitude,longitude,wind_dir_degrees,wind_speed_kt,wind_speed_mph,raw_text,observation_time,temp_c,dewpoint_c,visibility_statute_mi,altim_in_hg
CYPH,58.47,-78.08,190,6,6.904679999999999,CYPH 031732Z AUTO 19006KT 160V220 9SM SCT010 OVC025 11/09 A2923 RMK SLP902 DENSITY ALT 400FT,2024-08-03T17:32:00Z,11,9,9,29.23
PAPO,68.345,-166.807,160,15,17.261699999999998,PAPO 031731Z AUTO 16015KT 1 3/4SM -RA BR OVC003 08/08 A2979 RMK AO2 P0000,2024-08-03T17:31:00Z,8,8,1.75,29.79
KUCP,41.0228,-80.4153,250,4,4.60312,KUCP 031731Z AUTO 25004KT 10SM -RA SCT006 BKN046 OVC110 21/21 A2992 RMK AO2 LTG DSNT E-S TSE1659B05E20 PNO $,2024-08-03T17:31:00Z,21,21,10+,29.92
ZMCK,47.651,106.822,VRB,4,4.60312,ZMCK 031730Z VRB02MPS 9999 FEW033 10/10 Q1010 NOSIG RMK QFE642.6 100 NT,2024-08-03T17:30:00Z,10,10,6+,29.82
YSRI,-33.601,150.777,360,2,2.30156,YSRI 031730Z AUTO 36002KT 0900 // SCT002 03/03 Q1027 RF00.0/000.0,2024-08-03T17:30:00Z,3,3,0.56,30.32
YPXM,-10.453,105.688,140,10,11.5078,YPXM 031730Z AUTO 14010KT 9999 // BKN012 BKN016 OVC023 24/22 Q1016,2024-08-03T17:30:00Z,24,22,6+,30.00
WSSS,1.368,103.982,100,5,5.7539,WSSS 031730Z 10005KT 9999 FEW016 FEW020TCU BKN300 29/25 Q1012 NOSIG,2024-08-03T17:30:00Z,29,25,6+,29.88
WIOO,-0.151,109.404,VRB,2,2.30156,WIOO 031730Z AUTO VRB02KT 2200 BR OVC180 24/24 Q1011,2024-08-03T17:30:00Z,24,24,1.37,29.85
WIMM,3.636,98.874,100,8,9.20624,WIMM 031730Z 10008KT 1500 TSRA FEW016CB BKN017 23/23 Q1012 NOSIG RMK CB OVER THE FIELD,2024-08-03T17:30:00Z,23,23,0.93,29.88
WIII,-6.125,106.659,190,3,3.4523399999999995,WIII 031730Z 19003KT 8000 FEW020 26/23 Q1013 NOSIG,2024-08-03T17:30:00Z,26,23,4.97,29.91
WIEE,-0.783,100.283,260,4,4.60312,WIEE 031730Z 26004KT 9999 FEW018CB SCT020 25/23 Q1013 NOSIG RMK CB TO N,2024-08-03T17:30:00Z,25,23,6+,29.91
WIDN,0.923,104.532,120,2,2.30156,WIDN 031730Z 12002KT 9999 FEW017 27/26 Q1012 NOSIG,2024-08-03T17:30:00Z,27,26,6+,29.88
WIDD,1.121,104.119,60,2,2.30156,WIDD 031730Z 06002KT 9999 SCT014 28/25 Q1014 NOSIG,2024-08-03T17:30:00Z,28,25,6+,29.94
WATT,-10.172,123.671,130,7,8.05546,WATT 031730Z AUTO 13007KT 9999 NCD 25/20 Q1014,2024-08-03T17:30:00Z,25,20,6+,29.94
WARR,-7.38,112.787,90,6,6.904679999999999,WARR 031730Z 09006KT 8000 FEW020 26/24 Q1013 NOSIG,2024-08-03T17:30:00Z,26,24,4.97,29.91
WAMM,1.541,124.926,VRB,2,2.30156,WAMM 031730Z VRB02KT 8000 -RA SCT019 24/24 Q1014 NOSIG,2024-08-03T17:30:00Z,24,24,4.97,29.94
WALL,-1.268,116.894,240,3,3.4523399999999995,WALL 031730Z 24003KT 190V250 9000 FEW020 28/26 Q1011 NOSIG,2024-08-03T17:30:00Z,28,26,5.59,29.85
WAJJ,-2.573,140.514,110,4,4.60312,WAJJ 031730Z 11004KT 090V150 9999 FEW014 26/25 Q1010 NOSIG,2024-08-03T17:30:00Z,26,25,6+,29.82
WADL,-8.757,116.277,110,2,2.30156,WADL 031730Z 11002KT 7000 SCT016 24/23 Q1015 NOSIG,2024-08-03T17:30:00Z,24,23,4.35,29.97
WAAA,-5.062,119.554,30,2,2.30156,WAAA 031730Z 03002KT 8000 FEW019 21/19 Q1012 NOSIG,2024-08-03T17:30:00Z,21,19,4.97,29.88
VOML,12.961,74.89,100,3,3.4523399999999995,VOML 031730Z 10003KT 1500 R24/1800 BR SCT001 SCT012 OVC080 24/24 Q1012 BECMG 3000 BR,2024-08-03T17:30:00Z,24,24,0.93,29.88
VOHS,17.233,78.429,240,10,11.5078,VOHS 031730Z 24010KT 5000 BR SCT010 SCT015 BKN080 26/22 Q1011 NOSIG,2024-08-03T17:30:00Z,26,22,3.11,29.85
VOGA,15.7426,73.8631,250,5,5.7539,VOGA 031730Z 25005KT 2500 BR FEW005 SCT015 BKN080 25/24 Q1010 NOSIG,2024-08-03T17:30:00Z,25,24,1.55,29.82
VOCL,11.137,75.955,200,3,3.4523399999999995,VOCL 031730Z 20003KT 5000 BR FEW008 SCT012 FEW025CB BKN080 24/24 Q1012 TEMPO 3000 -RA BR,2024-08-03T17:30:00Z,24,24,3.11,29.88
VOCB,11.03,77.043,200,7,8.05546,VOCB 031730Z 20007KT 5000 BR FEW012 SCT080 25/22 Q1014 NOSIG,2024-08-03T17:30:00Z,25,22,3.11,29.94
VNKT,27.697,85.359,180,4,4.60312,VNKT 031730Z 18004KT 8000 FEW015 SCT030 BKN100 23/21 Q1013 NOSIG,2024-08-03T17:30:00Z,23,21,4.97,29.91
VILK,26.761,80.889,70,12,13.809359999999998,VILK 031730Z 07012KT 4000 BR SCT020 BKN100 29/25 Q1000 NOSIG,2024-08-03T17:30:00Z,29,25,2.49,29.53
VIJP,26.824,75.812,VRB,2,2.30156,VIJP 031730Z VRB02KT 3500 TS BR SCT030 FEW035CB SCT100 29/27 Q1004 TEMPO 3000 TS BR,2024-08-03T17:30:00Z,29,27,2.17,29.65
VIDP,28.567,77.117,120,6,6.904679999999999,VIDP 031730Z 12006KT 4000 BR SCT030 BKN100 29/27 Q1003 NOSIG,2024-08-03T17:30:00Z,29,27,2.49,29.62
VIAR,31.707,74.801,70,4,4.60312,VIAR 031730Z 07004KT 4500 BR FEW030 SCT090 30/29 Q1002 NOSIG,2024-08-03T17:30:00Z,30,29,2.8,29.59
VHHH,22.309,113.922,200,8,9.20624,VHHH 031730Z 20008KT 9999 FEW025 30/25 Q1009 NOSIG,2024-08-03T17:30:00Z,30,25,6+,29.79
VERC,23.314,85.322,200,7,8.05546,VERC 031730Z 20007KT 2000 DZ SCT008 SCT015 OVC080 23/22 Q1007 NOSIG,2024-08-03T17:30:00Z,23,22,1.24,29.73
VEPT,25.591,85.088,100,8,9.20624,VEPT 031730Z 10008G18KT 3000 BR FEW010 SCT018 BKN100 29/28 Q1002 NOSIG,2024-08-03T17:30:00Z,29,28,1.86,29.59
VEGT,26.107,91.587,0,0,0.0,VEGT 031730Z 00000KT 3000 BR SCT018 FEW025CB BKN090 27/26 Q1007 NOSIG,2024-08-03T17:30:00Z,27,26,1.86,29.73
VECC,22.651,88.445,170,8,9.20624,VECC 031730Z 17008KT 3500 HZ SCT018 SCT100 29/27 Q1004 NOSIG,2024-08-03T17:30:00Z,29,27,2.17,29.65
VAID,22.722,75.801,240,7,8.05546,VAID 031730Z 24007KT 4000 HZ SCT008 SCT018 BKN100 24/23 Q1006 NOSIG,2024-08-03T17:30:00Z,24,23,2.49,29.70
VABO,22.333,73.225,200,5,5.7539,VABO 031730Z 20005KT 2500 -RA SCT015 SCT020 OVC080 27/26 Q1003 NOSIG,2024-08-03T17:30:00Z,27,26,1.55,29.62
VABB,19.1,72.859,230,12,13.809359999999998,VABB 031730Z 23012G22KT 2500 BR FEW012 SCT018 FEW030CB OVC090 28/25 Q1006 TEMPO 1500 SHRA,2024-08-03T17:30:00Z,28,25,1.55,29.70
UBBZ,39.094,46.734,40,8,9.20624,UBBZ 031730Z AUTO 04008KT 9999 // NSC 28/15 Q1010,2024-08-03T17:30:00Z,28,15,6+,29.82
UBBN,39.189,45.458,130,12,13.809359999999998,UBBN 031730Z 13012KT 9999 FEW046CB SCT100 29/12 Q1006 NOSIG RMK QFE680,2024-08-03T17:30:00Z,29,12,6+,29.70
UBBG,40.738,46.318,VRB,2,2.30156,UBBG 031730Z VRB02KT 9999 BKN100 27/20 Q1007 NOSIG,2024-08-03T17:30:00Z,27,20,6+,29.73
UBBF,39.595,47.196,300,10,11.5078,UBBF 031730Z AUTO 30010KT 9999 // ///////// 25/16 Q1008,2024-08-03T17:30:00Z,25,16,6+,29.76
UBBB,40.469,50.061,350,8,9.20624,UBBB 031730Z 35008KT CAVOK 27/22 Q1006 NOSIG,2024-08-03T17:30:00Z,27,22,6+,29.70
TFFR,16.265,-61.532,70,12,13.809359999999998,TFFR 031730Z AUTO 07012KT //// R12///// // FEW025 SCT030 BKN039 30/24 Q1014,2024-08-03T17:30:00Z,30,24,,29.94
TFFF,14.591,-61.003,120,12,13.809359999999998,TFFF 031730Z AUTO 12012KT 070V140 9999 BKN022/// BKN027/// BKN044/// ///CB 32/26 Q1014 TEMPO 3000 SHRA,2024-08-03T17:30:00Z,32,26,6+,29.94
SPZO,-13.536,-71.939,270,9,10.357019999999999,SPZO 031730Z 27009KT 9999 NSC 19/M04 Q1030 NOSIG RMK BIRD HAZARD RWY 10/28,2024-08-03T17:30:00Z,19,-4,6+,30.41
SPJR,-7.139,-78.489,60,6,6.904679999999999,SPJR 031730Z 06006KT 020V110 9999 FEW025 23/03 Q1027,2024-08-03T17:30:00Z,23,3,6+,30.32
SOCA,4.822,-52.365,80,7,8.05546,SOCA 031730Z AUTO 08007KT 050V110 9999 FEW032/// BKN160/// ///CB 28/23 Q1011 TEMPO 4000 SHRA,2024-08-03T17:30:00Z,28,23,6+,29.85
PFWS,58.704,-157.005,130,8,9.20624,PFWS 031730Z AUTO 13008KT 10SM BKN001 09/08 A3027 RMK AO2 PNO $,2024-08-03T17:30:00Z,9,8,10+,30.27
PFCL,58.837,-158.526,140,10,11.5078,PFCL 031730Z AUTO 14010KT 10SM BKN007 11/ A3023 RMK AO2 TSNO,2024-08-03T17:30:00Z,11,,10+,30.23
PAWM,64.688,-163.41,200,15,17.261699999999998,PAWM 031730Z AUTO 20015G23KT 2SM RA BR OVC003 09/09 A2994 RMK AO2 PNO $,2024-08-03T17:30:00Z,9,9,2,29.94
OTBD,25.261,51.565,340,10,11.5078,OTBD 031730Z 34010KT CAVOK 38/11 Q0997 NOSIG,2024-08-03T17:30:00Z,38,11,6+,29.44
OPPS,33.996,71.515,130,10,11.5078,OPPS 031730Z 13010KT 5000 VCTS FEW030CB SCT040 BKN080 29/26 Q1001,2024-08-03T17:30:00Z,29,26,3.11,29.56
OPMT,30.203,71.419,0,0,0.0,OPMT 031730Z 00000KT 4000 FU SCT100 32/27 Q0998 NOSIG,2024-08-03T17:30:00Z,32,27,2.49,29.47
OPKC,24.902,67.139,250,8,9.20624,OPKC 031730Z 25008KT 4000 FU SCT030 BKN090 29/26 Q1000 NOSIG,2024-08-03T17:30:00Z,29,26,2.49,29.53
OPIS,33.551,72.827,130,8,9.20624,OPIS 031730Z 13008KT 6000 FEW040 28/25 Q1004 NOSIG,2024-08-03T17:30:00Z,28,25,3.73,29.65
OIZH,29.472,60.901,30,6,6.904679999999999,OIZH 031730Z 03006KT CAVOK 32/04 Q1007 A2976,2024-08-03T17:30:00Z,32,4,6+,29.73
OITT,38.13,46.24,80,16,18.41248,OITT 031730Z 08016KT 9999 FEW030CB 26/09 Q1011 A2988,2024-08-03T17:30:00Z,26,9,6+,29.85
OISS,29.539,52.59,0,0,0.0,OISS 031730Z 00000KT 8000 NSC 31/07 Q1008 A2978,2024-08-03T17:30:00Z,31,7,4.97,29.76
OIMM,36.236,59.639,140,6,6.904679999999999,OIMM 031730Z 14006KT CAVOK 28/14 Q1011 A2986,2024-08-03T17:30:00Z,28,14,6+,29.85
OIKB,27.218,56.378,130,4,4.60312,OIKB 031730Z 13004KT 4000 HZ SCT100 35/29 Q0995 A2939,2024-08-03T17:30:00Z,35,29,2.49,29.38
OIII,35.686,51.304,290,8,9.20624,OIII 031730Z 29008KT 7000 NSC 33/09 Q1005 A2968,2024-08-03T17:30:00Z,33,9,4.35,29.68
OIIE,35.416,51.152,330,20,23.0156,OIIE 031730Z 33020KT 8000 NSC 31/10 Q1003,2024-08-03T17:30:00Z,31,10,4.97,29.62
OIFM,32.752,51.866,100,4,4.60312,OIFM 031730Z 10004KT CAVOK 35/06 Q1007 A2975,2024-08-03T17:30:00Z,35,6,6+,29.73
OBBI,26.271,50.634,310,7,8.05546,OBBI 031730Z 31007KT CAVOK 36/23 Q0997 NOSIG,2024-08-03T17:30:00Z,36,23,6+,29.44
NWWW,-22.015,166.213,0,0,0.0,NWWW 031730Z AUTO 00000KT 9999 OVC068 15/13 Q1019 TEMPO 3000 BR,2024-08-03T17:30:00Z,15,13,6+,30.09
LZTT,49.068,20.25,40,6,6.904679999999999,LZTT 031730Z 04006KT 360V060 9999 FEW030 SCT053 16/09 Q1012,2024-08-03T17:30:00Z,16,9,6+,29.88
LZKZ,48.661,21.24,350,8,9.20624,LZKZ 031730Z 35008KT CAVOK 17/13 Q1010 NOSIG,2024-08-03T17:30:00Z,17,13,6+,29.82
LZIB,48.17,17.207,360,8,9.20624,LZIB 031730Z 36008KT CAVOK 24/12 Q1011 NOSIG,2024-08-03T17:30:00Z,24,12,6+,29.85
LUKK,46.928,28.931,VRB,3,3.4523399999999995,LUKK 031730Z VRB03G14KT 9999 FEW049CB 21/19 Q1004 TEMPO 28018G32KT 3000 TSRA BKN020CB,2024-08-03T17:30:00Z,21,19,6+,29.65
LKTB,49.151,16.694,360,4,4.60312,LKTB 031730Z 36004KT 310V050 CAVOK 24/10 Q1011 NOSIG,2024-08-03T17:30:00Z,24,10,6+,29.85
LKPR,50.101,14.26,60,3,3.4523399999999995,LKPR 031730Z 06003KT 030V110 9999 FEW048 23/16 Q1012 NOSIG,2024-08-03T17:30:00Z,23,16,6+,29.88
LKMT,49.696,18.111,50,5,5.7539,LKMT 031730Z 05005KT 9999 FEW045 20/14 Q1012 NOSIG,2024-08-03T17:30:00Z,20,14,6+,29.88
LKKV,50.202,12.91,280,5,5.7539,LKKV 031730Z 28005KT 9999 FEW036CB 22/14 Q1013,2024-08-03T17:30:00Z,22,14,6+,29.91
LHBP,47.437,19.256,330,15,17.261699999999998,LHBP 031730Z 33015KT CAVOK 24/08 Q1010 BECMG 09006KT,2024-08-03T17:30:00Z,24,8,6+,29.82
LFYR,47.32,1.688,250,4,4.60312,LFYR 031730Z AUTO 25004KT 220V300 CAVOK 24/15 Q1015,2024-08-03T17:30:00Z,24,15,6+,29.97
LFVP,46.764,-56.169,210,9,10.357019999999999,LFVP 031730Z AUTO 21009KT CAVOK 21/17 Q1014 NOSIG,2024-08-03T17:30:00Z,21,17,6+,29.94
LFTW,43.757,4.416,350,12,13.809359999999998,LFTW 031730Z AUTO 35012KT 320V020 CAVOK 32/11 Q1010 BECMG 35015G25KT,2024-08-03T17:30:00Z,32,11,6+,29.82
LFTH,43.094,6.146,150,5,5.7539,LFTH 031730Z AUTO 15005KT 120V180 CAVOK 33/18 Q1006 NOSIG,2024-08-03T17:30:00Z,33,18,6+,29.70
LFSX,47.783,6.364,330,4,4.60312,LFSX 031730Z AUTO 33004KT 310V010 CAVOK 24/15 Q1014,2024-08-03T17:30:00Z,24,15,6+,29.94
LFST,48.549,7.64,310,7,8.05546,LFST 031730Z AUTO 31007KT CAVOK 25/15 Q1013 NOSIG,2024-08-03T17:30:00Z,25,15,6+,29.91
LFSO,48.583,5.955,290,9,10.357019999999999,LFSO 031730Z AUTO 29009KT CAVOK 21/13 Q1015,2024-08-03T17:30:00Z,21,13,6+,29.97
LFSN,48.692,6.231,290,7,8.05546,LFSN 031730Z AUTO 29007KT 240V330 CAVOK 22/14 Q1015,2024-08-03T17:30:00Z,22,14,6+,29.97
LFSL,45.04,1.486,320,8,9.20624,LFSL 031730Z AUTO 32008KT 290V360 CAVOK 26/14 Q1016 NOSIG,2024-08-03T17:30:00Z,26,14,6+,30.00
LFSI,48.631,4.904,230,5,5.7539,LFSI 031730Z AUTO 23005KT 200V260 CAVOK 23/15 Q1014,2024-08-03T17:30:00Z,23,15,6+,29.94
LFSD,47.269,5.09,320,11,12.658579999999999,LFSD 031730Z AUTO 32011KT CAVOK 25/14 Q1015,2024-08-03T17:30:00Z,25,14,6+,29.97
LFSB,47.614,7.51,260,11,12.658579999999999,LFSB 031730Z AUTO 26011KT CAVOK 26/15 Q1013 TEMPO FEW050TCU,2024-08-03T17:30:00Z,26,15,6+,29.91
LFRZ,47.312,-2.163,240,13,14.960139999999999,LFRZ 031730Z AUTO 24013KT 9999 BKN018 BKN023 OVC046 21/17 Q1016 BECMG BKN013,2024-08-03T17:30:00Z,21,17,6+,30.00
LFRU,48.601,-3.814,320,3,3.4523399999999995,LFRU 031730Z AUTO 32003KT 280V350 9999 BKN024 OVC033 17/15 Q1015,2024-08-03T17:30:00Z,17,15,6+,29.97
LFRL,48.279,-4.439,330,5,5.7539,LFRL 031730Z AUTO 33005KT 9999 BKN022 BKN030 BKN230 18/15 Q1016,2024-08-03T17:30:00Z,18,15,6+,30.00
LFRG,49.365,0.154,200,6,6.904679999999999,LFRG 031730Z AUTO 20006KT 3400 -RA BR BKN007 BKN013 OVC018 19/18 Q1014 TEMPO RA,2024-08-03T17:30:00Z,19,18,2.11,29.94
LFRB,48.444,-4.412,350,6,6.904679999999999,LFRB 031730Z AUTO 35006KT 320V020 9999 FEW021 BKN033 BKN240 18/14 Q1016 NOSIG,2024-08-03T17:30:00Z,18,14,6+,30.00
LFQQ,50.562,3.089,220,7,8.05546,LFQQ 031730Z AUTO 22007KT 9999 FEW026/// SCT035/// BKN043/// ///TCU 20/18 Q1013 TEMPO SCT009 BKN014,2024-08-03T17:30:00Z,20,18,6+,29.91
LFQB,48.325,4.02,280,6,6.904679999999999,LFQB 031730Z AUTO 28006KT CAVOK 23/15 Q1015,2024-08-03T17:30:00Z,23,15,6+,29.97
LFQA,49.21,4.155,240,5,5.7539,LFQA 031730Z AUTO 24005KT 9999 FEW043 SCT049 BKN130 23/15 Q1014,2024-08-03T17:30:00Z,23,15,6+,29.94
LFPV,48.77,2.205,270,9,10.357019999999999,LFPV 031730Z AUTO 27009KT 9999 OVC041 22/14 Q1015 TEMPO 4900 -RA,2024-08-03T17:30:00Z,22,14,6+,29.97
LFPT,49.097,2.041,240,7,8.05546,LFPT 031730Z AUTO 24007KT 9999 BKN047/// ///TCU 22/15 Q1014,2024-08-03T17:30:00Z,22,15,6+,29.94
LFPO,48.717,2.384,280,10,11.5078,LFPO 031730Z AUTO 28010KT 9999 OVC048 23/14 Q1015 NOSIG,2024-08-03T17:30:00Z,23,14,6+,29.97
LFPN,48.752,2.114,280,6,6.904679999999999,LFPN 031730Z AUTO 28006KT 250V310 9999 OVC042/// ///TCU 22/15 Q1015 TEMPO 4500 -SHRA,2024-08-03T17:30:00Z,22,15,6+,29.97
LFPM,48.611,2.68,270,9,10.357019999999999,LFPM 031730Z AUTO 27009KT 9999 OVC049 23/16 Q1014,2024-08-03T17:30:00Z,23,16,6+,29.94
LFPG,49.015,2.534,260,10,11.5078,LFPG 031730Z 26010KT 9999 BKN046 24/14 Q1015 NOSIG,2024-08-03T17:30:00Z,24,14,6+,29.97
LFPB,48.967,2.428,230,9,10.357019999999999,LFPB 031730Z AUTO 23009KT 9999 OVC049 23/15 Q1014 TEMPO 4000 -SHRA SCT030TCU BKN035,2024-08-03T17:30:00Z,23,15,6+,29.94
LFOT,47.444,0.728,270,8,9.20624,LFOT 031730Z AUTO 27008KT 230V310 9999 OVC042 23/15 Q1016 NOSIG,2024-08-03T17:30:00Z,23,15,6+,30.00
LFOP,49.383,1.182,220,12,13.809359999999998,LFOP 031730Z AUTO 22012KT 9999 -RA BKN023 BKN030 BKN035 21/17 Q1014 NOSIG,2024-08-03T17:30:00Z,21,17,6+,29.94
LFOK,48.777,4.165,240,8,9.20624,LFOK 031730Z AUTO 24008KT 9999 FEW042 SCT220 BKN240 22/15 Q1015 NOSIG,2024-08-03T17:30:00Z,22,15,6+,29.97
LFOH,49.533,0.091,220,10,11.5078,LFOH 031730Z AUTO 22010KT 4700 BR OVC002 19/19 Q1014 TEMPO RADZ SCT009 BKN012 BECMG 31008KT,2024-08-03T17:30:00Z,19,19,2.92,29.94
LFOE,49.025,1.222,220,8,9.20624,LFOE 031730Z AUTO 22008KT 9999 -RA ///CB 19/17 Q1015 TEMPO 4000 -SHRA,2024-08-03T17:30:00Z,19,17,6+,29.97
LFOB,49.454,2.113,240,7,8.05546,LFOB 031730Z AUTO 24007KT 9999 BKN039 BKN045 BKN170 22/16 Q1014 TEMPO 4000 -RA,2024-08-03T17:30:00Z,22,16,6+,29.94
LFMU,43.322,3.353,300,16,18.41248,LFMU 031730Z AUTO 30016KT CAVOK 30/15 Q1011 TEMPO 31020G30KT,2024-08-03T17:30:00Z,30,15,6+,29.85
LFMT,43.577,3.963,350,11,12.658579999999999,LFMT 031730Z AUTO 35011KT 280V040 CAVOK 34/14 Q1009 NOSIG,2024-08-03T17:30:00Z,34,14,6+,29.79
LFMP,42.737,2.873,290,16,18.41248,LFMP 031730Z AUTO 29016KT 8000 NSC 29/14 Q1013 NOSIG,2024-08-03T17:30:00Z,29,14,4.97,29.91
LFMO,44.144,4.861,350,18,20.714039999999997,LFMO 031730Z AUTO 35018KT CAVOK 31/12 Q1009 BECMG 35015G30KT,2024-08-03T17:30:00Z,31,12,6+,29.79
LFMN,43.658,7.216,170,3,3.4523399999999995,LFMN 031730Z 17003KT CAVOK 30/22 Q1008 NOSIG,2024-08-03T17:30:00Z,30,22,6+,29.76
LFML,43.438,5.216,330,24,27.618719999999996,LFML 031730Z AUTO 33024KT 9999 FEW015 32/12 Q1008 BECMG 32020G30KT,2024-08-03T17:30:00Z,32,12,6+,29.76
LFMK,43.214,2.31,300,13,14.960139999999999,LFMK 031730Z AUTO 30013KT 270V330 CAVOK 28/14 Q1015 NOSIG,2024-08-03T17:30:00Z,28,14,6+,29.97
LFMI,43.516,4.935,340,19,21.864819999999998,LFMI 031730Z AUTO 34019KT CAVOK 33/11 Q1008 NOSIG,2024-08-03T17:30:00Z,33,11,6+,29.76
LFMH,45.533,4.293,360,11,12.658579999999999,LFMH 031730Z AUTO 36011KT CAVOK 25/14 Q1015,2024-08-03T17:30:00Z,25,14,6+,29.97
LFMD,43.544,6.953,VRB,1,1.15078,LFMD 031730Z AUTO VRB01KT CAVOK 31/20 Q1007 NOSIG,2024-08-03T17:30:00Z,31,20,6+,29.73
LFLY,45.726,4.938,350,13,14.960139999999999,LFLY 031730Z AUTO 35013KT 330V030 CAVOK 28/15 Q1014 NOSIG,2024-08-03T17:30:00Z,28,15,6+,29.94
LFLX,46.87,1.741,260,12,13.809359999999998,LFLX 031730Z AUTO 26012KT 9999 FEW045 24/14 Q1016 NOSIG,2024-08-03T17:30:00Z,24,14,6+,30.00
LFLW,44.899,2.421,310,9,10.357019999999999,LFLW 031730Z AUTO 31009KT 270V350 CAVOK 22/16 Q1018 NOSIG,2024-08-03T17:30:00Z,22,16,6+,30.06
LFLV,46.167,3.399,350,5,5.7539,LFLV 031730Z AUTO 35005KT 320V030 9999 FEW054 26/14 Q1015,2024-08-03T17:30:00Z,26,14,6+,29.97
LFLU,44.922,4.97,360,16,18.41248,LFLU 031730Z AUTO 36016KT CAVOK 28/14 Q1012,2024-08-03T17:30:00Z,28,14,6+,29.88
LFLS,45.363,5.329,340,11,12.658579999999999,LFLS 031730Z AUTO 34011KT 310V020 9999 FEW066 26/15 Q1014 NOSIG,2024-08-03T17:30:00Z,26,15,6+,29.94
LFLP,45.93,6.106,320,7,8.05546,LFLP 031730Z AUTO 32007KT 220V350 9999 FEW062 28/14 Q1013 NOSIG,2024-08-03T17:30:00Z,28,14,6+,29.91
LFLN,46.412,4.025,330,9,10.357019999999999,LFLN 031730Z AUTO 33009KT CAVOK 25/15 Q1015 NOSIG,2024-08-03T17:30:00Z,25,15,6+,29.97
LFLL,45.726,5.078,350,15,17.261699999999998,LFLL 031730Z 35015KT CAVOK 27/16 Q1014 NOSIG,2024-08-03T17:30:00Z,27,16,6+,29.94
LFLH,46.826,4.818,340,7,8.05546,LFLH 031730Z AUTO 34007KT 9999 FEW008 BKN054 25/17 Q1014,2024-08-03T17:30:00Z,25,17,6+,29.94
LFLC,45.787,3.169,10,9,10.357019999999999,LFLC 031730Z AUTO 01009KT 9999 BKN062 26/14 Q1015 NOSIG,2024-08-03T17:30:00Z,26,14,6+,29.97
LFLB,45.637,5.883,330,7,8.05546,LFLB 031730Z AUTO 33007KT 290V350 9999 FEW070 28/15 Q1012 NOSIG,2024-08-03T17:30:00Z,28,15,6+,29.88
LFKJ,41.924,8.803,180,8,9.20624,LFKJ 031730Z AUTO 18008KT CAVOK 30/25 Q1007 NOSIG,2024-08-03T17:30:00Z,30,25,6+,29.73
LFKF,41.501,9.098,230,10,11.5078,LFKF 031730Z AUTO 23010KT 200V260 CAVOK 31/23 Q1007 NOSIG,2024-08-03T17:30:00Z,31,23,6+,29.73
LFKC,42.531,8.793,10,5,5.7539,LFKC 031730Z AUTO 01005KT CAVOK 31/24 Q1007 NOSIG,2024-08-03T17:30:00Z,31,24,6+,29.73
LFKB,42.553,9.484,120,5,5.7539,LFKB 031730Z AUTO 12005KT CAVOK 31/23 Q1007 NOSIG,2024-08-03T17:30:00Z,31,23,6+,29.73
LFJR,47.562,-0.317,260,7,8.05546,LFJR 031730Z AUTO 26007KT 9999 OVC034 22/16 Q1016,2024-08-03T17:30:00Z,22,16,6+,30.00
LFJL,48.982,6.251,280,7,8.05546,LFJL 031730Z AUTO 28007KT CAVOK 21/15 Q1015 NOSIG,2024-08-03T17:30:00Z,21,15,6+,29.97
LFHP,45.075,3.764,330,11,12.658579999999999,LFHP 031730Z AUTO 33011KT CAVOK 23/09 Q1017,2024-08-03T17:30:00Z,23,9,6+,30.03
LFGA,48.11,7.359,300,9,10.357019999999999,LFGA 031730Z AUTO 30009KT CAVOK 25/15 Q1013,2024-08-03T17:30:00Z,25,15,6+,29.91
LFCR,44.41,2.483,300,12,13.809359999999998,LFCR 031730Z AUTO 30012KT CAVOK 23/16 Q1017 NOSIG,2024-08-03T17:30:00Z,23,16,6+,30.03
LFCK,43.556,2.289,290,12,13.809359999999998,LFCK 031730Z AUTO 29012KT 250V310 CAVOK 26/15 Q1016 NOSIG,2024-08-03T17:30:00Z,26,15,6+,30.00
LFBZ,43.469,-1.534,340,6,6.904679999999999,LFBZ 031730Z AUTO 34006KT 290V010 9999 NCD 23/17 Q1018 NOSIG,2024-08-03T17:30:00Z,23,17,6+,30.06
LFBY,43.69,-1.07,300,6,6.904679999999999,LFBY 031730Z AUTO 30006KT 270V350 9999 // ////// 26/17 Q1017,2024-08-03T17:30:00Z,26,17,6+,30.03
LFBX,45.196,0.815,290,9,10.357019999999999,LFBX 031730Z AUTO 29009KT CAVOK 25/14 Q1016,2024-08-03T17:30:00Z,25,14,6+,30.00
LFBP,43.385,-0.416,VRB,3,3.4523399999999995,LFBP 031730Z AUTO VRB03KT 9999 BKN046/// 24/16 Q1017 NOSIG,2024-08-03T17:30:00Z,24,16,6+,30.03
LFBO,43.621,1.379,320,12,13.809359999999998,LFBO 031730Z AUTO 32012KT CAVOK 27/14 Q1016 NOSIG,2024-08-03T17:30:00Z,27,14,6+,30.00
LFBM,43.912,-0.507,290,8,9.20624,LFBM 031730Z AUTO 29008KT CAVOK 27/15 Q1017 NOSIG,2024-08-03T17:30:00Z,27,15,6+,30.03
LFBL,45.863,1.179,300,9,10.357019999999999,LFBL 031730Z AUTO 30009KT 9999 BKN038 22/14 Q1018 NOSIG,2024-08-03T17:30:00Z,22,14,6+,30.06
LFBI,46.584,0.309,240,9,10.357019999999999,LFBI 031730Z AUTO 24009KT 9999 FEW047 23/14 Q1016 NOSIG,2024-08-03T17:30:00Z,23,14,6+,30.00
LFBH,46.178,-1.193,270,11,12.658579999999999,LFBH 031730Z AUTO 27011KT 9999 BKN043 22/15 Q1017 NOSIG,2024-08-03T17:30:00Z,22,15,6+,30.03
LFBG,45.665,-0.316,290,10,11.5078,LFBG 031730Z AUTO 29010KT 9999 SCT044 24/14 Q1017,2024-08-03T17:30:00Z,24,14,6+,30.03
LFBF,43.546,1.367,330,11,12.658579999999999,LFBF 031730Z AUTO 33011KT 300V360 CAVOK 27/14 Q1016,2024-08-03T17:30:00Z,27,14,6+,30.00
LFBE,44.826,0.516,300,10,11.5078,LFBE 031730Z AUTO 30010KT CAVOK 26/15 Q1016 NOSIG,2024-08-03T17:30:00Z,26,15,6+,30.00
LFBD,44.831,-0.691,300,10,11.5078,LFBD 031730Z AUTO 30010KT 250V330 9999 FEW041 25/15 Q1017 NOSIG,2024-08-03T17:30:00Z,25,15,6+,30.03
LFBC,44.533,-1.125,340,9,10.357019999999999,LFBC 031730Z AUTO 34009KT CAVOK 24/15 Q1017,2024-08-03T17:30:00Z,24,15,6+,30.03
LFBA,44.176,0.593,320,8,9.20624,LFBA 031730Z AUTO 32008KT 290V350 CAVOK 26/14 Q1016 NOSIG,2024-08-03T17:30:00Z,26,14,6+,30.00
LFAT,50.515,1.623,260,9,10.357019999999999,LFAT 031730Z AUTO 26009KT 3500 -RA BR OVC004/// ///TCU 18/18 Q1013 TEMPO BKN008 BKN012,2024-08-03T17:30:00Z,18,18,2.17,29.91
LFAC,50.962,1.955,240,12,13.809359999999998,LFAC 031730Z AUTO 24012KT 6000 -RA BKN008/// OVC013/// ///CB 19/18 Q1012,2024-08-03T17:30:00Z,19,18,3.73,29.88
LDZD,44.108,15.347,300,10,11.5078,LDZD 031730Z 30010KT CAVOK 27/20 Q1008 BECMG VRB02KT,2024-08-03T17:30:00Z,27,20,6+,29.76
LDZA,45.729,16.054,120,5,5.7539,LDZA 031730Z 12005KT CAVOK 26/16 Q1011 NOSIG,2024-08-03T17:30:00Z,26,16,6+,29.85
LDSP,43.539,16.301,90,5,5.7539,LDSP 031730Z 09005KT 040V170 CAVOK 28/19 Q1008 RETS NOSIG,2024-08-03T17:30:00Z,28,19,6+,29.76
LDSB,43.286,16.68,290,9,10.357019999999999,LDSB 031730Z 29009KT 260V330 9999 VCTS VCSH FEW037CB SCT050 25/18 Q1011,2024-08-03T17:30:00Z,25,18,6+,29.85
LDRI,45.218,14.573,150,6,6.904679999999999,LDRI 031730Z 15006KT 110V210 9999 FEW040 29/13 Q1009,2024-08-03T17:30:00Z,29,13,6+,29.79
LDPL,44.894,13.922,90,6,6.904679999999999,LDPL 031730Z 09006KT CAVOK 28/17 Q1009 NOSIG,2024-08-03T17:30:00Z,28,17,6+,29.79
LDOS,45.463,18.81,310,7,8.05546,LDOS 031730Z 31007KT CAVOK 26/13 Q1010,2024-08-03T17:30:00Z,26,13,6+,29.82
LDLO,44.569,14.394,20,12,13.809359999999998,LDLO 031730Z 02012KT CAVOK 28/16 Q1008,2024-08-03T17:30:00Z,28,16,6+,29.76
LDDU,42.56,18.269,300,11,12.658579999999999,LDDU 031730Z 30011KT CAVOK 28/15 Q1008 NOSIG,2024-08-03T17:30:00Z,28,15,6+,29.76
LCPH,34.715,32.479,310,6,6.904679999999999,LCPH 031730Z 31006KT 260V320 9999 SCT018 28/24 Q1004 NOSIG,2024-08-03T17:30:00Z,28,24,6+,29.65
LCLK,34.874,33.617,220,11,12.658579999999999,LCLK 031730Z 22011KT CAVOK 28/24 Q1003 NOSIG,2024-08-03T17:30:00Z,28,24,6+,29.62
LBWN,43.232,27.825,260,7,8.05546,LBWN 031730Z AUTO 26007KT 9999 -SHRA NSC 23/19 Q1006 TEMPO 5000 TSRA,2024-08-03T17:30:00Z,23,19,6+,29.70
LBSF,42.694,23.414,20,5,5.7539,LBSF 031730Z AUTO 02005KT 340V050 9999 NCD 27/13 Q1009 NOSIG,2024-08-03T17:30:00Z,27,13,6+,29.79
LBPD,42.064,24.86,180,7,8.05546,LBPD 031730Z AUTO 18007KT 160V220 9999 VCTS //////CB 30/16 Q1006 TEMPO 5000 TSRA FEW030CB,2024-08-03T17:30:00Z,30,16,6+,29.70
LBGO,43.151,25.713,150,8,9.20624,LBGO 031730Z AUTO 15008KT 110V170 9999 NCD 24/19 Q1006,2024-08-03T17:30:00Z,24,19,6+,29.70
LBBG,42.569,27.514,270,10,11.5078,LBBG 031730Z AUTO 27010KT 9000 +SHRA VCTS //////CB 24/20 Q1008 TEMPO 5000 SHRA,2024-08-03T17:30:00Z,24,20,5.59,29.76
KSUT,33.9292,-78.0722,190,11,12.658579999999999,KSUT 031730Z AUTO 19011G15KT 10SM CLR 31/26 A3003 RMK AO2 T03140256,2024-08-03T17:30:00Z,31.4,25.6,10+,30.03
KRCZ,34.8955,-79.7576,180,10,11.5078,KRCZ 031730Z AUTO 18010G14KT 10SM SCT033 SCT043 32/24 A2995 RMK AO2 T03200238,2024-08-03T17:30:00Z,32,23.8,10+,29.95
KQFX,-99.99,-99.99,110,1,1.15078,KQFX 031730Z AUTO 11001KT 3200 BR BKN002 26/25 A2978 RMK A02 TSNO,2024-08-03T17:30:00Z,26,25,1.99,29.78
KQFV,-99.99,-99.99,0,0,0.0,KQFV 031730Z AUTO 00000KT 6000 SCT004 24/24 A2987 RMK A02 TSNO,2024-08-03T17:30:00Z,24,24,3.73,29.87
KQFU,-99.99,-99.99,200,1,1.15078,KQFU 031730Z AUTO 20001KT 9999 CLR 26/25 A2984 RMK A02 TSNO,2024-08-03T17:30:00Z,26,25,6+,29.84
KQFT,-99.99,-99.99,330,1,1.15078,KQFT 031730Z AUTO 33001KT 8000 FEW005 26/25 A2978 RMK A02 TSNO,2024-08-03T17:30:00Z,26,25,4.97,29.78
KQFB,-99.99,-99.99,60,2,2.30156,KQFB 031730Z AUTO 06002KT 9999 CLR 28/27 A2984 RMK A02 TSNO,2024-08-03T17:30:00Z,28,27,6+,29.84
KQEX,-99.99,-99.99,10,3,3.4523399999999995,KQEX 031730Z AUTO 01003KT 9000 CLR 28/26 A2971 RMK A02 TSNO,2024-08-03T17:30:00Z,28,26,5.59,29.71
KQEW,-99.99,-99.99,270,1,1.15078,KQEW 031730Z AUTO 27001KT / // CLR 29/29 / RMK A02 TSNO,2024-08-03T17:30:00Z,29,29,,
KQEV,-99.99,-99.99,250,1,1.15078,KQEV 031730Z AUTO 25001KT 9999 CLR 26/25 A2975 RMK A02 TSNO,2024-08-03T17:30:00Z,26,25,6+,29.75
KQEQ,-99.99,-99.99,30,1,1.15078,KQEQ 031730Z AUTO 03001KT 4000 BR CLR 25/25 A2982 RMK A02 TSNO,2024-08-03T17:30:00Z,25,25,2.49,29.82
KQEP,-99.99,-99.99,130,1,1.15078,KQEP 031730Z AUTO 13001KT 9000 CLR 27/26 A2981 RMK A02 TSNO,2024-08-03T17:30:00Z,27,26,5.59,29.81
KQEJ,-99.99,-99.99,0,0,0.0,KQEJ 031730Z AUTO 00000KT 6000 BKN004 24/23 A2982 RMK A02 TSNO,2024-08-03T17:30:00Z,24,23,3.73,29.82
KQEI,-99.99,-99.99,140,2,2.30156,KQEI 031730Z AUTO 14002KT 9000 OVC006 24/24 A2983 RMK A02 TSNO,2024-08-03T17:30:00Z,24,24,5.59,29.83
KPGV,35.6374,-77.3851,200,14,16.11092,KPGV 031730Z AUTO 20014G17KT 7SM SCT036 SCT041 SCT050 33/26 A2995 RMK AO2 LTG DSNT SE,2024-08-03T17:30:00Z,33,26,7,29.95
KMWK,36.4568,-80.5548,170,8,9.20624,KMWK 031730Z AUTO 17008KT 140V240 10SM SCT020 SCT025 BKN033 27/23 A2996 RMK AO2 T02700225,2024-08-03T17:30:00Z,27,22.5,10+,29.96
KHRJ,35.3794,-78.7356,190,8,9.20624,KHRJ 031730Z AUTO 19008G15KT 10SM SCT032 BKN038 SCT047 32/25 A2995 RMK AO2 T03190250,2024-08-03T17:30:00Z,31.9,25,10+,29.95
KGWW,35.4637,-77.9604,200,11,12.658579999999999,KGWW 031730Z AUTO 20011G19KT 10SM SCT033 32/24 A2996 RMK AO2 T03220239,2024-08-03T17:30:00Z,32.2,23.9,10+,29.96
KFFA,36.0165,-75.6739,210,9,10.357019999999999,KFFA 031730Z AUTO 21009G14KT 170V240 10SM SCT035 32/24 A2996 RMK AO2 T03230235,2024-08-03T17:30:00Z,32.3,23.5,10+,29.96
KEYF,34.6042,-78.579,180,19,21.864819999999998,KEYF 031730Z AUTO 18019G25KT 4SM TSHZ SCT031 BKN048 BKN055 31/24 A2998 RMK AO2 LTG DSNT ALQDS P0001 T03080242,2024-08-03T17:30:00Z,30.8,24.2,4,29.98
KEDE,36.0286,-76.5668,210,12,13.809359999999998,KEDE 031730Z AUTO 21012KT 10SM CLR 34/28 A2996 RMK AO2 T03360281,2024-08-03T17:30:00Z,33.6,28.1,10+,29.96
KCGS,38.9806,-76.9251,190,9,10.357019999999999,KCGS 031730Z AUTO 19009KT 130V210 10SM CLR 33/22 A2983 RMK AO2 T03320222,2024-08-03T17:30:00Z,33.2,22.2,10+,29.83
KAFP,35.0194,-80.0784,210,5,5.7539,KAFP 031730Z AUTO 21005KT 10SM SCT032 SCT039 SCT075 31/23 A2993 RMK AO2 T03130232,2024-08-03T17:30:00Z,31.3,23.2,10+,29.93
K2W6,38.315,-76.55,200,7,8.05546,K2W6 031730Z AUTO 20007G16KT 10SM BKN019 30/24 A2989 RMK AO1,2024-08-03T17:30:00Z,30,24,10+,29.89
K24A,35.3156,-83.2071,240,6,6.904679999999999,K24A 031730Z AUTO 24006KT 10SM SCT040 SCT075 27/18 A3006 RMK AO2 LTG DSNT SE T02650181,2024-08-03T17:30:00Z,26.5,18.1,10+,30.06
HRYR,-1.969,30.14,100,4,4.60312,HRYR 031730Z 10004KT 050V140 9999 FEW026 25/09 Q1020 NOSIG,2024-08-03T17:30:00Z,25,9,6+,30.12
HECA,30.133,31.405,10,12,13.809359999999998,HECA 031730Z 01012KT CAVOK 32/19 Q1006 NOSIG,2024-08-03T17:30:00Z,32,19,6+,29.70
GMTT,35.727,-5.917,320,9,10.357019999999999,GMTT 031730Z 32009KT CAVOK 29/16 Q1011 NOSIG,2024-08-03T17:30:00Z,29,16,6+,29.85
GMMX,31.607,-8.036,340,7,8.05546,GMMX 031730Z 34007KT 290V030 9999 FEW040 41/12 Q1011 NOSIG,2024-08-03T17:30:00Z,41,12,6+,29.85
GMMN,33.367,-7.59,360,15,17.261699999999998,GMMN 031730Z 36015KT CAVOK 27/19 Q1012 NOSIG,2024-08-03T17:30:00Z,27,19,6+,29.88
GMME,34.051,-6.752,10,10,11.5078,GMME 031730Z 01010KT 330V050 8000 NSC 26/21 Q1011 NOSIG,2024-08-03T17:30:00Z,26,21,4.97,29.85
GMFF,33.929,-4.976,320,7,8.05546,GMFF 031730Z 32007KT 9999 FEW033 36/04 Q1013 NOSIG,2024-08-03T17:30:00Z,36,4,6+,29.91
GMAD,30.325,-9.413,230,13,14.960139999999999,GMAD 031730Z 23013KT 8000 NSC 32/17 Q1006 NOSIG,2024-08-03T17:30:00Z,32,17,4.97,29.70
FMMI,-18.797,47.479,110,8,9.20624,FMMI 031730Z 11008KT CAVOK 14/10 Q1024 NOSIG,2024-08-03T17:30:00Z,14,10,6+,30.24
FMCZ,-12.805,45.281,170,5,5.7539,FMCZ 031730Z AUTO 17005KT CAVOK 24/19 Q1018 NOSIG,2024-08-03T17:30:00Z,24,19,6+,30.06
FCBB,-4.252,15.253,220,5,5.7539,FCBB 031730Z 22005KT 7000 NSC 28/16 Q1013 NOSIG,2024-08-03T17:30:00Z,28,16,4.35,29.91
FAOR,-26.139,28.246,310,6,6.904679999999999,FAOR 031730Z 31006KT CAVOK 17/03 Q1026 NOSIG,2024-08-03T17:30:00Z,17,3,6+,30.30
EPZG,52.137,15.779,290,6,6.904679999999999,EPZG 031730Z 29006KT 260V320 CAVOK 24/12 Q1010,2024-08-03T17:30:00Z,24,12,6+,29.82
EPWR,51.1032,16.8998,10,3,3.4523399999999995,EPWR 031730Z 01003KT CAVOK 23/14 Q1011,2024-08-03T17:30:00Z,23,14,6+,29.85
EPWA,52.163,20.961,250,5,5.7539,EPWA 031730Z 25005KT CAVOK 22/11 Q1009 NOSIG,2024-08-03T17:30:00Z,22,11,6+,29.79
EPSY,53.482,20.938,320,4,4.60312,EPSY 031730Z 32004KT CAVOK 21/12 Q1010,2024-08-03T17:30:00Z,21,12,6+,29.82
EPSC,53.585,14.902,350,3,3.4523399999999995,EPSC 031730Z 35003KT CAVOK 22/15 Q1010,2024-08-03T17:30:00Z,22,15,6+,29.82
EPRZ,50.112,22.025,290,9,10.357019999999999,EPRZ 031730Z 29009KT CAVOK 18/16 Q1010,2024-08-03T17:30:00Z,18,16,6+,29.82
EPRA,51.39,21.211,290,4,4.60312,EPRA 031730Z 29004KT 260V320 CAVOK 21/13 Q1010,2024-08-03T17:30:00Z,21,13,6+,29.82
EPPO,52.417,16.835,300,7,8.05546,EPPO 031730Z 30007KT CAVOK 23/11 Q1010,2024-08-03T17:30:00Z,23,11,6+,29.82
EPMO,52.452,20.642,310,5,5.7539,EPMO 031730Z 31005KT CAVOK 23/10 Q1009,2024-08-03T17:30:00Z,23,10,6+,29.79
EPLL,51.724,19.401,230,4,4.60312,EPLL 031730Z 23004KT 9999 FEW045 21/13 Q1010,2024-08-03T17:30:00Z,21,13,6+,29.82
EPLB,51.239,22.714,320,4,4.60312,EPLB 031730Z 32004KT CAVOK 21/12 Q1009,2024-08-03T17:30:00Z,21,12,6+,29.79
EPKT,50.478,19.085,240,4,4.60312,EPKT 031730Z 24004KT CAVOK 18/14 Q1012,2024-08-03T17:30:00Z,18,14,6+,29.88
EPKK,50.078,19.797,VRB,2,2.30156,EPKK 031730Z VRB02KT CAVOK 18/15 Q1012,2024-08-03T17:30:00Z,18,15,6+,29.88
EPGD,54.379,18.466,50,4,4.60312,EPGD 031730Z 05004KT 9999 FEW029 19/15 Q1010,2024-08-03T17:30:00Z,19,15,6+,29.82
EPBY,53.0962,17.9949,300,7,8.05546,EPBY 031730Z 30007KT 270V330 CAVOK 24/10 Q1009,2024-08-03T17:30:00Z,24,10,6+,29.79
DIAP,5.261,-3.926,210,11,12.658579999999999,DIAP 031730Z 21011KT 9999 FEW013 27/23 Q1013 NOSIG,2024-08-03T17:30:00Z,27,23,6+,29.91
CZBF,47.628,-65.746,150,8,9.20624,CZBF 031730Z AUTO 15008G17KT 120V210 9SM -TSRA SCT050 BKN060 BKN077 BKN096 24/20 A2971 RMK LTNG DIST ALQDS SLP063 DENSITY ALT 1600FT,2024-08-03T17:30:00Z,24,20,9,29.71
CYGW,55.283,-77.76,240,18,20.714039999999997,CYGW 031730Z AUTO 24018G24KT 5SM -RA BR BKN008 OVC015 10/09 A2950 RMK SLP991,2024-08-03T17:30:00Z,10,9,5,29.50
BKPR,42.576,21.03,10,11,12.658579999999999,BKPR 031730Z 01011KT 9999 -SHRA FEW030CB BKN065 19/16 Q1012 TEMPO 5000 TSRA BKN025CB,2024-08-03T17:30:00Z,19,16,6+,29.88
PFZK,60.9156,-161.488,170,12,13.809359999999998,PFZK 031729Z AUTO 17012G18KT 10SM SCT020 10/06 A3013 RMK AO2,2024-08-03T17:29:00Z,10,6,10+,30.13
PAVL,67.731,-164.548,140,12,13.809359999999998,PAVL 031729Z AUTO 14012KT 2 1/2SM BR BKN013 OVC026 09/09 A2982 RMK AO2 T00940089 TSNO,2024-08-03T17:29:00Z,9.4,8.9,2.5,29.82
PAFA,64.8031,-147.876,60,3,3.4523399999999995,PAFA 031729Z 06003KT 7SM -RA BKN008 BKN024 OVC050 11/09 A3025 RMK AO2 P0001 T01060089 $,2024-08-03T17:29:00Z,10.6,8.9,7,30.25
KRHP,35.1939,-83.8618,260,6,6.904679999999999,KRHP 031729Z AUTO 26006KT 10SM SCT038 SCT060 BKN085 28/19 A3001 RMK AO2 T02750191,2024-08-03T17:29:00Z,27.5,19.1,10+,30.01
KOAJ,34.8251,-77.6189,0,0,0.0,KOAJ 031729Z 00000KT 10SM VCTS FEW015 BKN050 OVC080 30/26 A2998 RMK AO2 LTG DSNT ALQDS TSB27RAB04E24 P0012,2024-08-03T17:29:00Z,30,26,10+,29.98
KFME,39.086,-76.757,210,8,9.20624,KFME 031729Z AUTO 21008G14KT 10SM 32/22 A2985 RMK AO1,2024-08-03T17:29:00Z,32,22,10+,29.85
KEEN,42.898,-72.2695,240,4,4.60312,KEEN 031729Z AUTO 24004KT 10SM FEW014 SCT024 BKN035 26/22 A2982 RMK AO2 $,2024-08-03T17:29:00Z,26,22,10+,29.82
KAEX,31.3346,-92.5585,260,11,12.658579999999999,KAEX 031729Z 26011G30KT 1 3/4SM VCTS +RA BR 25/23 A2998 RMK AO2 PK WND 30030/1724 RAB20 P0042 T02500228 $,2024-08-03T17:29:00Z,25,22.8,1.75,29.98
PASH,66.252,-166.084,170,8,9.20624,PASH 031728Z AUTO 17008KT 10SM OVC035 11/09 A2979 RMK AO2,2024-08-03T17:28:00Z,11,9,10+,29.79
PAKP,68.136,-151.74,200,10,11.5078,PAKP 031728Z AUTO 20010G17KT 10SM OVC029 07/02 A2970 RMK AO2 PRESRR,2024-08-03T17:28:00Z,7,2,10+,29.70
MMUN,21.038,-86.855,30,8,9.20624,MMUN 031728Z 03008KT 3SM RA BKN015CB 27/25 A2990 RMK 8/300 RAB25,2024-08-03T17:28:00Z,27,25,3,29.90
MHLC,15.737,-86.864,200,4,4.60312,MHLC 031728Z 20004KT 9999 TS FEW025CB 29/24 Q1013 A2992 NOSIG,2024-08-03T17:28:00Z,29,24,6+,29.91
KESF,31.3963,-92.2828,VRB,3,3.4523399999999995,KESF 031728Z AUTO VRB03KT 10SM SCT047 BKN060 34/23 A2996 RMK AO2 LTG DSNT SW AND W T03390233,2024-08-03T17:28:00Z,33.9,23.3,10+,29.96
KDNL,33.4668,-82.0385,VRB,5,5.7539,KDNL 031728Z AUTO VRB05KT 10SM TS SCT026 BKN035 32/24 A2996 RMK AO2 LTG DSNT N AND NE TSB22 T03170239 $,2024-08-03T17:28:00Z,31.7,23.9,10+,29.96
KBUY,36.0475,-79.4737,170,7,8.05546,KBUY 031728Z AUTO 17007KT 10SM TS FEW029 FEW043 31/23 A2992 RMK AO2 LTG DSNT NE AND SW AND W TSB22 T03110233,2024-08-03T17:28:00Z,31.1,23.3,10+,29.92
KAQW,42.6973,-73.1696,VRB,5,5.7539,KAQW 031728Z AUTO VRB05KT 10SM SCT014 OVC039 25/21 A2984 RMK AO2 T02500211,2024-08-03T17:28:00Z,25,21.1,10+,29.84
KACV,40.9784,-124.105,240,3,3.4523399999999995,KACV 031728Z AUTO 24003KT 1/2SM R32/2200VP6000FT FG OVC003 14/14 A3005 RMK AO2 T01440139,2024-08-03T17:28:00Z,14.4,13.9,0.5,30.05
K1YT,46.668,-120.457,100,8,9.20624,K1YT 031728Z AUTO 10008KT 10SM -RA FEW065 SCT100 BKN160 30/11 A2991 RMK AO2 LTG DSNT E RAB28 SLP118 $,2024-08-03T17:28:00Z,30,11,10+,29.91
PASN,57.155,-170.223,170,18,20.714039999999997,PASN 031727Z AUTO 17018KT 3SM BR OVC003 08/08 A2983 RMK AO2 RAE03 P0000 T00830078 TSNO $,2024-08-03T17:27:00Z,8.3,7.8,3,29.83
PAGL,64.548,-163.013,200,18,20.714039999999997,PAGL 031727Z AUTO 20018KT 2SM -RA BR BKN006 BKN011 OVC034 10/09 A2997 RMK AO2 CIG 004V009 P0001,2024-08-03T17:27:00Z,10,9,2,29.97
KSPG,27.7685,-82.6257,150,16,18.41248,KSPG 031727Z 15016KT 3SM VCTS BR OVC040 27/25 A2996 RMK AO2 PK WND 15036/1700 LTG DSNT N AND NW T02670250,2024-08-03T17:27:00Z,26.7,25,3,29.96
KPWT,47.4942,-122.759,VRB,4,4.60312,KPWT 031727Z AUTO VRB04KT 10SM BKN007 17/15 A3010 RMK AO2 CIG 005V009,2024-08-03T17:27:00Z,17,15,10+,30.10
KNCA,34.7062,-77.4406,180,13,14.960139999999999,KNCA 031727Z AUTO 18013G21KT 10SM FEW030 SCT041 30/26 A2999 RMK AO2 RAB07E19 TSB1658E21 P0000 T03000256,2024-08-03T17:27:00Z,30,25.6,10+,29.99
KMFD,40.8204,-82.5177,90,6,6.904679999999999,KMFD 031727Z 09006KT 10SM VCTS FEW026 SCT080 SCT100 26/21 A2994 RMK AO2 LTG DSNT SE T02560211,2024-08-03T17:27:00Z,25.6,21.1,10+,29.94
KCAK,40.9181,-81.4434,VRB,4,4.60312,KCAK 031727Z VRB04KT 10SM -RA SCT005 BKN055 OVC100 23/21 A2992 RMK AO2 LTG DSNT NE TSE25 P0001 T02280211 $,2024-08-03T17:27:00Z,22.8,21.1,10+,29.92
SUCA,-34.452,-57.768,240,7,8.05546,SUCA 031726Z 24007KT 9999 BKN016 BKN200 15/12 Q1011,2024-08-03T17:26:00Z,15,12,6+,29.85
PACZ,61.776,-166.043,200,26,29.920279999999998,PACZ 031726Z AUTO 20026G32KT 9SM OVC004 08/08 A2991 RMK AO2 PK WND 19036/1713 SLP130,2024-08-03T17:26:00Z,8,8,9,29.91
OIAW,31.343,48.751,280,8,9.20624,OIAW 031726Z 28008KT CAVOK 40/10 Q0994,2024-08-03T17:26:00Z,40,10,6+,29.35
KYNG,41.2548,-80.6736,240,7,8.05546,KYNG 031726Z 24007KT 10SM SCT005 BKN032 BKN070 OVC200 23/21 A2991 RMK AO2 LTG DSNT N AND W TSE09 T02280211 $,2024-08-03T17:26:00Z,22.8,21.1,10+,29.91
KMLB,28.0997,-80.6356,140,8,9.20624,KMLB 031726Z 14008KT 3SM -RA BR FEW025 BKN065 OVC095 27/25 A3001 RMK AO2 LTG DSNT E-S RAB13 P0006 T02720250,2024-08-03T17:26:00Z,27.2,25,3,30.01
KLHQ,39.7573,-82.6633,0,0,0.0,KLHQ 031726Z AUTO 00000KT 10SM BKN025 BKN033 26/20 A2993 RMK AO2 T02610200,2024-08-03T17:26:00Z,26.1,20,10+,29.93
KDUJ,41.1795,-78.8933,20,6,6.904679999999999,KDUJ 031726Z AUTO 02006KT 3SM VCTS -RA BR SCT030 BKN048 OVC065 21/19 A2991 RMK AO2 LTG DSNT SW AND W P0032 T02110189,2024-08-03T17:26:00Z,21.1,18.9,3,29.91
CYZE,45.885,-82.57,330,12,13.809359999999998,CYZE 031726Z AUTO 33012G20KT 2 1/2SM HZ CLR 29/15 A2987 RMK SLP112 DENSITY ALT 2500FT,2024-08-03T17:26:00Z,29,15,2.5,29.87
SBFN,-3.855,-32.423,140,17,19.56326,SBFN 031725Z AUTO 14017KT 110V170 3000 -RA SCT005 BKN013 25/23 Q1013,2024-08-03T17:25:00Z,25,23,1.86,29.91
RKJK,35.9,126.618,0,0,0.0,RKJK 031725Z AUTO 00000KT 5SM BR SCT010 28/27 A2974 RMK AO2 SLP075 $,2024-08-03T17:25:00Z,28,27,5,29.74
PWAK,19.287,166.623,140,25,28.769499999999997,PWAK 031725Z AUTO 14025KT 5SM -RA FEW006 SCT012 BKN017 BKN024 BKN029 OVC036 26/24 A2989 RMK AO2 RAB20 CIG 017V027 BKN017 V SCT SLP124,2024-08-03T17:25:00Z,26,24,5,29.89
OPLA,31.522,74.404,90,4,4.60312,OPLA 031725Z 09004KT 4000 FU SCT040 SCT100 30/25 Q1001 NOSIG RMK QFE976 A29.57,2024-08-03T17:25:00Z,30,25,2.49,29.56
KXER,27.946,-90.997,0,0,0.0,KXER 031725Z AUTO 00000KT 10SM 33/27 A3000 RMK A01,2024-08-03T17:25:00Z,33,27,10+,30.00
KW40,35.2211,-78.0404,210,8,9.20624,KW40 031725Z AUTO 21008KT 10SM BKN033 BKN055 SCT065 32/25 A2997 RMK AO2 T03230246,2024-08-03T17:25:00Z,32.3,24.6,10+,29.97
KW29,38.9777,-76.3276,180,14,16.11092,KW29 031725Z AUTO 18014KT 10SM SCT023 33/25 A2984 RMK AO2 T03270247,2024-08-03T17:25:00Z,32.7,24.7,10+,29.84
KVUJ,35.4173,-80.1508,190,9,10.357019999999999,KVUJ 031725Z AUTO 19009KT 10SM BKN031 BKN036 OVC045 31/24 A2998 RMK AO2 LTG DSNT E T03050241,2024-08-03T17:25:00Z,30.5,24.1,10+,29.98
KUKF,36.2188,-81.1002,170,7,8.05546,KUKF 031725Z AUTO 17007KT 10SM SCT026 SCT050 28/22 A3000 RMK AO2,2024-08-03T17:25:00Z,28,22,10+,30.00
KTTA,35.5762,-79.1035,180,9,10.357019999999999,KTTA 031725Z AUTO 18009KT 10SM SCT031 BKN039 BKN050 32/24 A2993 RMK AO2 T03190241,2024-08-03T17:25:00Z,31.9,24.1,10+,29.93
KTPA,27.9633,-82.54,150,17,19.56326,KTPA 031725Z 15017G33KT 8SM FEW008 SCT038 BKN048 27/23 A2997 RMK AO2 PK WND 15033/1720 WSHFT 1710 LTG DSNT ALQDS T02670233,2024-08-03T17:25:00Z,26.7,23.3,8,29.97
KTDF,36.284,-78.9884,190,7,8.05546,KTDF 031725Z AUTO 19007KT 10SM SCT030 SCT038 BKN045 30/23 A2996 RMK AO2,2024-08-03T17:25:00Z,30,23,10+,29.96
KSVH,35.7635,-80.9473,200,5,5.7539,KSVH 031725Z AUTO 20005KT 10SM SCT029 SCT034 BKN040 29/23 A2996 RMK AO2 T02900229,2024-08-03T17:25:00Z,29,22.9,10+,29.96
KSIF,36.4408,-79.8544,210,4,4.60312,KSIF 031725Z AUTO 21004KT 5SM HZ SCT023 SCT028 OVC047 29/24 A2993 RMK AO2 T02910236,2024-08-03T17:25:00Z,29.1,23.6,5,29.93
KSCR,35.7058,-79.5051,170,6,6.904679999999999,KSCR 031725Z AUTO 17006KT 10SM SCT032 BKN040 BKN050 31/25 A2994 RMK AO2 T03110247,2024-08-03T17:25:00Z,31.1,24.7,10+,29.94
KRUQ,35.6441,-80.5236,220,8,9.20624,KRUQ 031725Z AUTO 22008KT 10SM BKN031 BKN037 OVC047 29/23 A2994 RMK AO2 T02910226,2024-08-03T17:25:00Z,29.1,22.6,10+,29.94
KNBG,29.837,-90.024,20,4,4.60312,KNBG 031725Z 02004KT 10SM SCT044 BKN065 BKN250 34/25 A2994 RMK AO2 TSB04E24 FRQ LTGIC DSNT NW CB DSNT NW T1 SET T03390250 PNO $,2024-08-03T17:25:00Z,33.9,25,10+,29.94
KMRN,35.8192,-81.6097,220,5,5.7539,KMRN 031725Z AUTO 22005KT 10SM SCT028 SCT036 30/23 A2996 RMK AO2 T03030230,2024-08-03T17:25:00Z,30.3,23,10+,29.96
KMQI,35.9188,-75.6989,220,18,20.714039999999997,KMQI 031725Z AUTO 22018G23KT 10SM -RA SCT026 BKN031 OVC060 30/26 A2998 RMK AO2 T03030262,2024-08-03T17:25:00Z,30.3,26.2,10+,29.98
KMCZ,35.862,-77.178,200,11,12.658579999999999,KMCZ 031725Z AUTO 20011G19KT 10SM BKN032 BKN041 33/25 A2996 RMK AO2 T03280245,2024-08-03T17:25:00Z,32.8,24.5,10+,29.96
KLHZ,36.0229,-78.3341,200,8,9.20624,KLHZ 031725Z AUTO 20008KT 7SM SCT027 SCT036 31/25 A2996 RMK AO2,2024-08-03T17:25:00Z,31,25,7,29.96
KHBI,35.6527,-79.8942,210,10,11.5078,KHBI 031725Z AUTO 21010KT 10SM BKN032 BKN037 OVC075 30/22 A2996 RMK AO2 T03030220,2024-08-03T17:25:00Z,30.3,22,10+,29.96
KGIF,28.0614,-81.7568,180,5,5.7539,KGIF 031725Z AUTO 18005KT 10SM -RA SCT050 BKN060 BKN075 25/24 A3001 RMK AO2 LTG DSNT W AND NW TSE19 P0007 T02500239,2024-08-03T17:25:00Z,25,23.9,10+,30.01
KGHB,27.8403,-91.9878,,,,KGHB 031725Z AUTO 9SM SCT022 31/26 A3000 RMK A01,2024-08-03T17:25:00Z,31,26,9,30.00
KGEV,36.4312,-81.4206,160,3,3.4523399999999995,KGEV 031725Z AUTO 16003KT 5SM +RA SCT014 BKN023 OVC030 22/19 A3005 RMK AO2 LTG DSNT NE T02180193,2024-08-03T17:25:00Z,21.8,19.3,5,30.05
KFQD,35.43,-81.936,200,7,8.05546,KFQD 031725Z AUTO 20007KT 10SM SCT033 SCT041 30/21 A2995 RMK AO2,2024-08-03T17:25:00Z,30,21,10+,29.95
KEXX,35.7804,-80.3084,180,8,9.20624,KEXX 031725Z AUTO 18008KT 10SM BKN028 BKN036 29/24 A2993 RMK AO2 T02930236,2024-08-03T17:25:00Z,29.3,23.6,10+,29.93
KDPL,34.9994,-77.9799,180,6,6.904679999999999,KDPL 031725Z AUTO 18006G15KT 7SM SCT037 BKN046 BKN075 32/25 A2998 RMK AO2,2024-08-03T17:25:00Z,32,25,7,29.98
KDMW,39.61,-77.007,170,9,10.357019999999999,KDMW 031725Z AUTO 17009KT 10SM CLR 34/22 A2985 RMK AO2 LTG DSNT NW,2024-08-03T17:25:00Z,34,22,10+,29.85
KCTZ,34.9752,-78.3627,180,3,3.4523399999999995,KCTZ 031725Z AUTO 18003KT 10SM CLR 33/27 A2997 RMK AO2 T03270268,2024-08-03T17:25:00Z,32.7,26.8,10+,29.97
KCPC,34.2753,-78.7146,160,6,6.904679999999999,KCPC 031725Z AUTO 16006KT 7SM SCT018 SCT050 BKN095 26/20 A3000 RMK AO2 T02630200,2024-08-03T17:25:00Z,26.3,20,7,30.00
KCGE,38.5372,-76.0309,190,9,10.357019999999999,KCGE 031725Z AUTO 19009G21KT 10SM BKN023 30/25 A2987 RMK A01,2024-08-03T17:25:00Z,30,25,10+,29.87
KCBE,39.6182,-78.7598,350,6,6.904679999999999,KCBE 031725Z AUTO 35006KT 10SM SCT030 SCT065 BKN080 26/23 A2988 RMK AO2 P0001 T02640228,2024-08-03T17:25:00Z,26.4,22.8,10+,29.88
KBOW,27.9471,-81.7811,110,7,8.05546,KBOW 031725Z 11007KT 4SM VCTS BR FEW003 24/23 A3000 RA RMK TS IN VICINITY. LTG DSNT ALQDS.,2024-08-03T17:25:00Z,24,23,4,30.00
KATP,27.1956,-90.0269,,,,KATP 031725Z AUTO 10SM CLR 32/25 A2999 RMK A01,2024-08-03T17:25:00Z,32,25,10+,29.99
KASJ,36.2941,-77.1724,180,8,9.20624,KASJ 031725Z AUTO 18008G15KT 10SM SCT028 31/26 A2993 RMK AO2 T03110260,2024-08-03T17:25:00Z,31.1,26,10+,29.93
KANR,27.2264,-91.19,10,9,10.357019999999999,KANR 031725Z AUTO 01009KT 10SM SCT022 SCT032 BKN039 35/24 A3012 RMK A01,2024-08-03T17:25:00Z,35,24,10+,30.12
KACZ,34.718,-78.005,0,0,0.0,KACZ 031725Z AUTO 00000KT 2 1/2SM RA SCT015 BKN039 OVC070 26/23 A2999 RMK AO2 VIS 1V5 P0027 T02630231,2024-08-03T17:25:00Z,26.3,23.1,2.5,29.99
K7W6,35.5594,-75.955,190,15,17.261699999999998,K7W6 031725Z AUTO 19015G23KT 10SM BKN021 BKN027 BKN038 30/26 A3000 RMK AO2 T03000263,2024-08-03T17:25:00Z,30,26.3,10+,30.00
K2G4,39.5827,-79.3418,260,7,8.05546,K2G4 031725Z AUTO 26007KT 220V290 10SM FEW016 FEW026 SCT065 23/20 A2998 RMK AO2 LTG DSNT N AND SE AND S,2024-08-03T17:25:00Z,23,20,10+,29.98
K1A5,35.2228,-83.415,340,5,5.7539,K1A5 031725Z AUTO 34005KT 10SM SCT048 BKN060 OVC085 27/20 A3004 RMK AO2 T02700198,2024-08-03T17:25:00Z,27,19.8,10+,30.04
K0W3,39.566,-76.202,200,6,6.904679999999999,K0W3 031725Z AUTO 20006KT 10SM FEW024 29/25 A2985 RMK AO2 T02920251 $,2024-08-03T17:25:00Z,29.2,25.1,10+,29.85
EHWO,51.448,4.342,230,10,11.5078,EHWO 031725Z AUTO 23010KT 210V270 9999 SCT026 BKN047 BKN055 22/16 Q1011 BLU,2024-08-03T17:25:00Z,22,16,6+,29.85
EHVL,53.297,5.086,240,16,18.41248,EHVL 031725Z AUTO 24016KT 9999 FEW008 OVC025 19/17 Q1010 BLU,2024-08-03T17:25:00Z,19,17,6+,29.82
EHVK,51.658,5.707,270,5,5.7539,EHVK 031725Z AUTO 27005KT 240V310 9999 OVC045 20/18 Q1011 REDZ BLU,2024-08-03T17:25:00Z,20,18,6+,29.85
EHSC,51.926,3.67,230,24,27.618719999999996,EHSC 031725Z AUTO 23024KT 9999 ///////// 20/17 Q1011 W20/H11,2024-08-03T17:25:00Z,20,17,6+,29.85
EHSA,51.998,3.275,210,25,28.769499999999997,EHSA 031725Z AUTO 21025KT 9999 ///////// 19/17 Q1011 W19/H13,2024-08-03T17:25:00Z,19,17,6+,29.85
EHRD,51.954,4.444,240,13,14.960139999999999,EHRD 031725Z AUTO 24013KT 210V270 9999 FEW022 SCT026 BKN031 21/17 Q1011 NOSIG,2024-08-03T17:25:00Z,21,17,6+,29.85
EHPG,52.36,3.342,220,27,31.07106,EHPG 031725Z AUTO 22027KT 9999 SCT005 BKN006 19/17 Q1010,2024-08-03T17:25:00Z,19,17,6+,29.82
EHMG,53.614,4.96,240,14,16.11092,EHMG 031725Z AUTO 24014KT 9999 FEW008 SCT030 OVC047 19/17 Q1010,2024-08-03T17:25:00Z,19,17,6+,29.82
EHMA,53.492,5.942,250,11,12.658579999999999,EHMA 031725Z AUTO 25011KT //// // FEW002 SCT028 BKN042 20/16 Q1010 RE//,2024-08-03T17:25:00Z,20,16,,29.82
EHLW,53.223,5.752,240,7,8.05546,EHLW 031725Z AUTO 24007KT 200V270 6000 DZ FEW005 SCT010 BKN012 19/18 Q1010 GRN,2024-08-03T17:25:00Z,19,18,3.73,29.82
EHLE,52.456,5.522,240,9,10.357019999999999,EHLE 031725Z AUTO 24009KT 200V280 9999 BKN019/// OVC023/// 21/17 Q1010 NOSIG,2024-08-03T17:25:00Z,21,17,6+,29.82
EHKV,53.269,3.628,230,16,18.41248,EHKV 031725Z AUTO 23016KT 9999 FEW007 SCT017 BKN024 18/17 Q1010,2024-08-03T17:25:00Z,18,17,6+,29.82
EHKD,52.927,4.781,230,11,12.658579999999999,EHKD 031725Z AUTO 23011KT 200V260 9999 FEW008 SCT010 OVC013 20/17 Q1010 GRN,2024-08-03T17:25:00Z,20,17,6+,29.82
EHJR,53.218,3.22,220,15,17.261699999999998,EHJR 031725Z AUTO 22015KT //// // ///////// 18/17 Q1009 RE// W18/H6,2024-08-03T17:25:00Z,18,17,,29.79
EHJA,53.824,2.945,320,23,26.46794,EHJA 031725Z AUTO 32023KT 9999 FEW007/// SCT009/// OVC015/// 15/13 Q1010,2024-08-03T17:25:00Z,15,13,6+,29.82
EHHW,54.037,6.042,240,7,8.05546,EHHW 031725Z AUTO 24007KT 190V300 9999 FEW009/// 19/17 Q1010,2024-08-03T17:25:00Z,19,17,6+,29.82
EHGR,51.565,4.935,230,6,6.904679999999999,EHGR 031725Z AUTO 23006KT 170V270 9999 FEW024 BKN028 BKN031 22/18 Q1011 BLU,2024-08-03T17:25:00Z,22,18,6+,29.85
EHGG,53.12,6.579,270,3,3.4523399999999995,EHGG 031725Z AUTO 27003KT 9999 SCT035 20/18 Q1010 TEMPO 6000 SHRA RA FEW025CB,2024-08-03T17:25:00Z,20,18,6+,29.82
EHFS,51.441,3.596,210,20,23.0156,EHFS 031725Z AUTO 21020KT 9999 BKN026/// BKN031/// OVC036/// 22/17 Q1011,2024-08-03T17:25:00Z,22,17,6+,29.85
EHFD,54.854,4.696,290,12,13.809359999999998,EHFD 031725Z AUTO 29012KT 9999 FEW007/// OVC025/// 18/15 Q1009,2024-08-03T17:25:00Z,18,15,6+,29.79
EHEH,51.45,5.377,240,9,10.357019999999999,EHEH 031725Z AUTO 24009KT 200V290 9999 SCT052 OVC058 22/16 Q1011 BLU NOSIG RMK TREND REMOTE BY EHWX,2024-08-03T17:25:00Z,22,16,6+,29.85
EHDV,54.326,2.936,310,17,19.56326,EHDV 031725Z AUTO 31017KT 8000 -RADZ FEW013/// BKN019/// OVC023/// 16/12 Q1010,2024-08-03T17:25:00Z,16,12,4.97,29.82
EHDL,52.061,5.887,250,7,8.05546,EHDL 031725Z AUTO 25007KT 200V360 9999 FEW013 BKN016 BKN022 20/18 Q1011 RERA BLACKWHT,2024-08-03T17:25:00Z,20,18,6+,29.85
EHBK,50.905,5.762,250,8,9.20624,EHBK 031725Z AUTO 25008KT 210V310 9999 FEW025/// SCT028/// BKN031/// 21/17 Q1013 TEMPO 6000 SHRA RA FEW025CB,2024-08-03T17:25:00Z,21,17,6+,29.91
EHAM,52.315,4.79,250,18,20.714039999999997,EHAM 031725Z 25018KT 9999 FEW015 SCT022 21/16 Q1010 NOSIG,2024-08-03T17:25:00Z,21,16,6+,29.82
EHAK,55.399,3.81,310,15,17.261699999999998,EHAK 031725Z AUTO 31015KT 280V340 9999 FEW013/// BKN037/// OVC042/// 16/12 Q1009 REDZ,2024-08-03T17:25:00Z,16,12,6+,29.79
PADK,51.881,-176.644,VRB,5,5.7539,PADK 031724Z AUTO VRB05KT 3SM -RA BR SCT004 BKN009 OVC034 10/10 A2981 RMK AO2 P0001 $,2024-08-03T17:24:00Z,10,10,3,29.81
PACX,67.252,-150.204,0,0,0.0,PACX 031724Z AUTO 00000KT 2 1/2SM -RA BR OVC016 06/06 A3017 RMK AO2 P0000,2024-08-03T17:24:00Z,6,6,2.5,30.17
PAAK,52.219,-174.208,140,3,3.4523399999999995,PAAK 031724Z AUTO 14003KT 10SM BKN005 OVC011 09/09 A2986 RMK AO2 TSNO PNO $,2024-08-03T17:24:00Z,9,9,10+,29.86
KSFY,42.0454,-90.1101,260,3,3.4523399999999995,KSFY 031724Z AUTO 26003KT 10SM BKN029 BKN037 30/22 A2997 RMK AO2,2024-08-03T17:24:00Z,30,22,10+,29.97
KROA,37.3172,-79.9737,140,13,14.960139999999999,KROA 031724Z 14013KT 10SM BKN050 BKN150 31/21 A2992 RMK AO2 WSHFT 1704 LTG DSNT E AND NW T03110211,2024-08-03T17:24:00Z,31.1,21.1,10+,29.92
KDDH,42.8935,-73.2488,0,0,0.0,KDDH 031724Z AUTO 00000KT 10SM BKN017 BKN026 BKN090 26/22 A2984 RMK AO2 T02610217,2024-08-03T17:24:00Z,26.1,21.7,10+,29.84
KADW,38.8215,-76.8654,220,11,12.658579999999999,KADW 031724Z AUTO 22011KT 10SM FEW170 SCT200 33/23 A2981 RMK AO2 WSHFT 19 SLP098 $,2024-08-03T17:24:00Z,33,23,10+,29.81
CYRQ,46.358,-72.68,210,12,13.809359999999998,CYRQ 031724Z AUTO 21012KT 9SM TS CLR 31/23 A2972 RMK LTNG DIST N W NW PRESRR SLP065 DENSITY ALT 2300FT,2024-08-03T17:24:00Z,31,23,9,29.72
SBBG,-31.391,-54.112,340,19,21.864819999999998,SBBG 031723Z AUTO 34019KT CAVOK 27/14 Q1005,2024-08-03T17:23:00Z,27,14,6+,29.68
PAMH,63.889,-152.292,200,4,4.60312,PAMH 031723Z AUTO 20004KT 6SM -RA BR FEW007 OVC050 11/10 A3022 RMK AO2 TSNO PNO $,2024-08-03T17:23:00Z,11,10,6,30.22
KTIW,47.2674,-122.576,290,5,5.7539,KTIW 031723Z 29005KT 10SM SCT010 19/13 A3010 RMK AO2 T01890133,2024-08-03T17:23:00Z,18.9,13.3,10+,30.10
KMRB,39.4037,-77.975,0,0,0.0,KMRB 031723Z 00000KT 5SM TS HZ FEW033 24/21 A2983 RMK AO2 LTG DSNT ALQDS RAE11 TSE04B17 P0002 T02390206,2024-08-03T17:23:00Z,23.9,20.6,5,29.83
KFPR,27.4981,-80.3763,0,0,0.0,KFPR 031723Z 00000KT 6SM -RA BR SCT022 BKN032 BKN041 26/24 A2999 RMK AO2 LTG DSNT ALQDS RAE02B15 TSE1655 P0006 T02560239,2024-08-03T17:23:00Z,25.6,23.9,6,29.99
KFOZ,47.7832,-93.6533,80,6,6.904679999999999,KFOZ 031723Z AUTO 08006KT 7SM 19/17 A3006 RMK AO1,2024-08-03T17:23:00Z,19,17,7,30.06
CZFA,62.211,-133.385,VRB,2,2.30156,CZFA 031723Z VRB02KT 1SM RA SCT002 BKN015 OVC051 07/07 A3022 RMK ST3SC3SC2 VIS N 2 SLP259,2024-08-03T17:23:00Z,7,7,1,30.22
PAGA,64.738,-156.92,180,5,5.7539,PAGA 031722Z AUTO 18005KT 1 3/4SM -RA BR BKN017 OVC024 11/09 A3011 RMK AO2 P0002 TSNO $,2024-08-03T17:22:00Z,11,9,1.75,30.11
KPSF,42.4268,-73.2891,0,0,0.0,KPSF 031722Z AUTO 00000KT 7SM BKN014 BKN020 OVC032 23/21 A2987 RMK AO2 T02280206,2024-08-03T17:22:00Z,22.8,20.6,7,29.87
KFGN,49.318,-94.902,40,8,9.20624,KFGN 031722Z AUTO 04008KT 20/17 A2997 RMK AO2 PWINO,2024-08-03T17:22:00Z,20,17,,29.97
KCXY,40.2184,-76.8552,150,7,8.05546,KCXY 031722Z 15007G18KT 10SM TS FEW037 FEW080 BKN090CB 34/21 A2980 RMK AO2 LTG DSNT W-NE TSB17 TS W MOV NE LGT W-NE T03390211,2024-08-03T17:22:00Z,33.9,21.1,10+,29.80
KCMH,39.9907,-82.8771,VRB,3,3.4523399999999995,KCMH 031722Z VRB03KT 10SM FEW022 SCT031 BKN045 28/21 A2991 RMK AO2 T02780211,2024-08-03T17:22:00Z,27.8,21.1,10+,29.91
KBNO,43.5949,-118.958,10,5,5.7539,KBNO 031722Z AUTO 01005KT 1 3/4SM HZ OVC021 27/11 A3011 RMK AO2 T02670111,2024-08-03T17:22:00Z,26.7,11.1,1.75,30.11
CYWK,52.927,-66.874,320,6,6.904679999999999,CYWK 031722Z 32006G24KT 230V340 10SM -TSRA BKN040CB BKN100 18/14 A2961 RMK CB5AC2 SLP034 DENSITY ALT 3000FT,2024-08-03T17:22:00Z,18,14,10+,29.61
PAYA,59.512,-139.671,290,5,5.7539,PAYA 031721Z AUTO 29005KT 10SM SCT012 BKN021 16/12 A3032 RMK AO2 T01560117 TSNO,2024-08-03T17:21:00Z,15.6,11.7,10+,30.32
KTVF,48.0597,-96.1787,0,0,0.0,KTVF 031721Z AUTO 00000KT 9SM -RA FEW050 24/18 A2993 RMK AO2 LTG DSNT NE AND S AND W TSB00E15RAB18 PRESRR P0000,2024-08-03T17:21:00Z,24,18,9,29.93
KNKT,34.897,-76.881,200,14,16.11092,KNKT 031721Z 20014G22KT 10SM SCT028 31/26 A3002 RMK AO2 TSE15 T03110256,2024-08-03T17:21:00Z,31.1,25.6,10+,30.02
RKJB,34.991,126.383,280,2,2.30156,RKJB 031720Z AUTO 28002KT 2900 BR NCD 28/27 Q1008,2024-08-03T17:20:00Z,28,27,1.8,29.76
PKWA,8.72,167.724,60,5,5.7539,PKWA 031720Z AUTO 06005KT 10SM CLR 28/24 A2986 RMK AO2 T02760244,2024-08-03T17:20:00Z,27.6,24.4,10+,29.86
PFSH,64.367,-161.217,190,26,29.920279999999998,PFSH 031720Z AUTO 19026G33KT 4SM -RA BR BKN011 OVC014 11/09 A3002 RMK AO2 PK WND 20034/1709 CIG 007V012 P0000,2024-08-03T17:20:00Z,11,9,4,30.02
OIYY,31.905,54.276,110,8,9.20624,OIYY 031720Z 11008KT 6000 FEW040 40/05 Q1002,2024-08-03T17:20:00Z,40,5,3.73,29.59
NZCM,-77.85,166.667,30,13,14.960139999999999,NZCM 031720Z AUTO 03013G21KT 330V060 9999 -SN OVC019 M13/M16 A2977 RMK AO2 PK WND 02026/1700 SNE1657B1720 SLP088 T11261160 $,2024-08-03T17:20:00Z,-12.6,-16,6+,29.77
LWSK,41.952,21.627,350,10,11.5078,LWSK 031720Z 35010G24KT 310V030 9999 FEW050 SCT090 30/14 Q1007 NOSIG,2024-08-03T17:20:00Z,30,14,6+,29.73
LWOH,41.181,20.744,210,8,9.20624,LWOH 031720Z 21008KT 170V230 9999 FEW050 29/14 Q1010,2024-08-03T17:20:00Z,29,14,6+,29.82
LTFM,41.262,28.74,90,7,8.05546,LTFM 031720Z 09007KT 050V130 CAVOK 26/20 Q1006 NOSIG RMK RWY17L 10008KT RWY34L 07007KT RWY16R 10010KT RWY36 09005KT 040V110 RWY18 10008KT,2024-08-03T17:20:00Z,26,20,6+,29.70
LTFJ,40.899,29.309,30,11,12.658579999999999,LTFJ 031720Z 03011KT CAVOK 27/19 Q1005 NOSIG RMK RWY24R 02008KT RWY06R 02011KT RWY24L 02009KT,2024-08-03T17:20:00Z,27,19,6+,29.68
LTFE,37.245,27.673,70,3,3.4523399999999995,LTFE 031720Z 07003KT CAVOK 27/16 Q1004 NOSIG RMK RWY10 VRB02KT,2024-08-03T17:20:00Z,27,16,6+,29.65
LTFC,37.855,30.368,300,4,4.60312,LTFC 031720Z 30004KT 270V330 9999 FEW035 31/09 Q1008 RMK RWY23 29004KT,2024-08-03T17:20:00Z,31,9,6+,29.76
LTCS,37.445,38.904,330,5,5.7539,LTCS 031720Z 33005KT CAVOK 30/M06 Q1004 RMK RWY22 27003KT SKC,2024-08-03T17:20:00Z,30,-6,6+,29.65
LTCJ,37.93,41.117,0,0,0.0,LTCJ 031720Z 00000KT CAVOK 31/13 Q1000 NOSIG RMK RWY20 VRB01KT SKC,2024-08-03T17:20:00Z,31,13,6+,29.53
LTCG,40.995,39.782,120,5,5.7539,LTCG 031720Z 12005KT 090V180 9999 FEW035 BKN080 26/18 Q1007 NOSIG RMK RWY29 16004KT 110V180,2024-08-03T17:20:00Z,26,18,6+,29.73
LTCE,39.956,41.17,80,8,9.20624,LTCE 031720Z 08008KT 9999 TS FEW025CB SCT035 20/06 Q1013 NOSIG RMK RWY08R 06006KT RWY26R 08008KT RWY08L VRB04KT 1CB025 4CU035,2024-08-03T17:20:00Z,20,6,6+,29.91
LTCC,37.894,40.201,330,7,8.05546,LTCC 031720Z 33007KT CAVOK 31/00 Q1002 NOSIG RMK RWY16 35007KT SKC,2024-08-03T17:20:00Z,31,0,6+,29.59
LTBU,41.139,27.919,100,4,4.60312,LTBU 031720Z 10004KT CAVOK 27/15 Q1006 RMK RWY22 13003KT,2024-08-03T17:20:00Z,27,15,6+,29.70
LTBS,36.713,28.793,180,5,5.7539,LTBS 031720Z 18005KT 140V220 CAVOK 29/23 Q1003 NOSIG RMK RWY19 14008KT SKC,2024-08-03T17:20:00Z,29,23,6+,29.62
LTBR,40.255,29.562,310,7,8.05546,LTBR 031720Z 31007KT CAVOK 28/12 Q1005 NOSIG RMK RWY07 32005KT,2024-08-03T17:20:00Z,28,12,6+,29.68
LTBJ,38.285,27.155,10,10,11.5078,LTBJ 031720Z 01010KT CAVOK 32/04 Q1004 NOSIG RMK RWY16 01012KT,2024-08-03T17:20:00Z,32,4,6+,29.65
LTBA,40.982,28.821,220,3,3.4523399999999995,LTBA 031720Z 22003KT CAVOK 27/19 Q1005 RMK RWY23 04005KT,2024-08-03T17:20:00Z,27,19,6+,29.68
LTAZ,38.771,34.521,240,3,3.4523399999999995,LTAZ 031720Z 24003KT 230V350 CAVOK 29/02 Q1008 RMK RWY29 31004KT 260V020,2024-08-03T17:20:00Z,29,2,6+,29.76
LTAU,38.77,35.495,VRB,1,1.15078,LTAU 031720Z VRB01KT CAVOK 24/06 Q1009 NOSIG RMK RWY07 05002KT,2024-08-03T17:20:00Z,24,6,6+,29.79
LTAT,38.435,38.092,300,15,17.261699999999998,LTAT 031720Z 30015KT CAVOK 32/M06 Q1005 NOSIG RMK RWY03 31011KT,2024-08-03T17:20:00Z,32,-6,6+,29.68
LTAP,40.826,35.52,20,14,16.11092,LTAP 031720Z 02014KT CAVOK 26/16 Q1006 NOSIG RMK RWY23 04017KT,2024-08-03T17:20:00Z,26,16,6+,29.70
LTAJ,36.947,37.479,310,12,13.809359999999998,LTAJ 031720Z 31012KT CAVOK 31/16 Q1004 NOSIG RMK RWY10 29015KT SKC,2024-08-03T17:20:00Z,31,16,6+,29.65
LTAI,36.9,30.798,110,6,6.904679999999999,LTAI 031720Z 11006KT 9999 FEW030 30/25 Q1003 NOSIG RMK RWY18C 10004KT 070V140 RWY36R 10004KT RWY18L 10004KT 070V160,2024-08-03T17:20:00Z,30,25,6+,29.62
LTAG,37.002,35.426,210,7,8.05546,LTAG 031720Z 21007KT 9999 SCT035 29/22 Q1003 NOSIG RMK 4CU035,2024-08-03T17:20:00Z,29,22,6+,29.62
LTAF,36.989,35.293,190,6,6.904679999999999,LTAF 031720Z 19006KT 9999 FEW025 29/25 Q1003 NOSIG RMK RWY23 21007KT 2CU025,2024-08-03T17:20:00Z,29,25,6+,29.62
LTAC,40.128,32.995,250,3,3.4523399999999995,LTAC 031720Z 25003KT CAVOK 29/03 Q1008 NOSIG RMK RWY21L 26005KT RWY03L 26004KT RWY21R 26005KT,2024-08-03T17:20:00Z,29,3,6+,29.76
LSZS,46.526,9.879,10,8,9.20624,LSZS 031720Z AUTO 01008KT 340V070 9999 FEW065 17/07 Q1019,2024-08-03T17:20:00Z,17,7,6+,30.09
LSZR,47.485,9.561,70,3,3.4523399999999995,LSZR 031720Z 07003KT 030V100 9999 FEW040TCU 24/19 Q1014 RMK M,2024-08-03T17:20:00Z,24,19,6+,29.94
LSZL,46.164,8.878,VRB,2,2.30156,LSZL 031720Z AUTO VRB02KT 9999NDV NCD 30/16 Q1008 RMK,2024-08-03T17:20:00Z,30,16,,29.76
LSZH,47.48,8.536,300,7,8.05546,LSZH 031720Z 30007KT 9999 FEW048 25/14 Q1014 NOSIG,2024-08-03T17:20:00Z,25,14,6+,29.94
LSZG,47.179,7.415,320,8,9.20624,LSZG 031720Z 32008KT 290V360 CAVOK 26/13 Q1014,2024-08-03T17:20:00Z,26,13,6+,29.94
LSZC,46.972,8.392,240,4,4.60312,LSZC 031720Z AUTO 24004KT 210V300 9999 SCT060 25/17 Q1014,2024-08-03T17:20:00Z,25,17,6+,29.94
LSZB,46.914,7.497,VRB,3,3.4523399999999995,LSZB 031720Z VRB03KT 9999 FEW055 25/15 Q1014,2024-08-03T17:20:00Z,25,15,6+,29.94
LSZA,46.004,8.91,VRB,2,2.30156,LSZA 031720Z VRB02KT 9999 FEW050 31/17 Q1008,2024-08-03T17:20:00Z,31,17,6+,29.76
LSMP,46.844,6.916,10,6,6.904679999999999,LSMP 031720Z AUTO 01006KT 340V050 9999NDV NCD 26/14 Q1014 RMK,2024-08-03T17:20:00Z,26,14,,29.94
LSMM,46.743,8.11,150,5,5.7539,LSMM 031720Z AUTO 15005KT 120V180 9999NDV FEW067 23/17 Q1014 RMK,2024-08-03T17:20:00Z,23,17,,29.94
LSME,47.092,8.305,350,3,3.4523399999999995,LSME 031720Z AUTO 35003KT 9999NDV FEW051 25/17 Q1014 RMK,2024-08-03T17:20:00Z,25,17,,29.94
LSMD,47.399,8.648,330,6,6.904679999999999,LSMD 031720Z AUTO 33006KT 290V360 9999NDV FEW051 25/16 Q1014 RMK,2024-08-03T17:20:00Z,25,16,,29.94
LSMA,46.943,8.286,30,4,4.60312,LSMA 031720Z AUTO 03004KT 9999NDV SCT061 SCT070 25/17 Q1014 RMK,2024-08-03T17:20:00Z,25,17,,29.94
LSGS,46.219,7.33,240,13,14.960139999999999,LSGS 031720Z 24013KT 9999 FEW090 27/14 Q1012,2024-08-03T17:20:00Z,27,14,6+,29.88
LSGG,46.248,6.128,20,5,5.7539,LSGG 031720Z AUTO 02005KT 320V050 9999 BKN060 27/14 Q1014 NOSIG,2024-08-03T17:20:00Z,27,14,6+,29.94
LSGC,47.083,6.792,320,3,3.4523399999999995,LSGC 031720Z 32003KT 250V070 9999 SCT030 SCT041 20/13 Q1018,2024-08-03T17:20:00Z,20,13,6+,30.06
LOWW,48.117,16.582,310,6,6.904679999999999,LOWW 031720Z 31006KT 240V340 CAVOK 25/13 Q1011 NOSIG,2024-08-03T17:20:00Z,25,13,6+,29.85
LOWS,47.789,13.009,10,5,5.7539,LOWS 031720Z 01005KT 330V040 9999 FEW050 BKN100 22/15 Q1014 TEMPO TSRA,2024-08-03T17:20:00Z,22,15,6+,29.94
LOWL,48.233,14.188,290,8,9.20624,LOWL 031720Z AUTO 29008KT 9999 NCD 26/13 Q1012 NOSIG,2024-08-03T17:20:00Z,26,13,6+,29.88
LOWK,46.648,14.318,VRB,2,2.30156,LOWK 031720Z AUTO VRB02KT 9999 FEW100 25/15 Q1012 NOSIG,2024-08-03T17:20:00Z,25,15,6+,29.88
LOWI,47.26,11.344,VRB,2,2.30156,LOWI 031720Z AUTO VRB02KT 9999 FEW060 BKN110 22/17 Q1014 NOSIG,2024-08-03T17:20:00Z,22,17,6+,29.94
LOWG,46.997,15.447,VRB,2,2.30156,LOWG 031720Z AUTO VRB02KT 9999 NCD 25/14 Q1011 NOSIG,2024-08-03T17:20:00Z,25,14,6+,29.85
LLBG,32.011,34.887,340,10,11.5078,LLBG 031720Z 34010KT CAVOK 29/22 Q1005 NOSIG,2024-08-03T17:20:00Z,29,22,6+,29.68
LIRZ,43.097,12.51,340,8,9.20624,LIRZ 031720Z AUTO 34008KT 9999 NCD 25/21 Q1008,2024-08-03T17:20:00Z,25,21,6+,29.76
LIRQ,43.81,11.205,90,5,5.7539,LIRQ 031720Z 09005KT 060V140 CAVOK 31/18 Q1007,2024-08-03T17:20:00Z,31,18,6+,29.73
LIRN,40.885,14.292,190,4,4.60312,LIRN 031720Z 19004KT 160V240 CAVOK 29/20 Q1008 NOSIG,2024-08-03T17:20:00Z,29,20,6+,29.76
LIRF,41.8,12.239,180,5,5.7539,LIRF 031720Z 18005KT CAVOK 30/25 Q1007 NOSIG,2024-08-03T17:20:00Z,30,25,6+,29.73
LIRA,41.808,12.585,250,8,9.20624,LIRA 031720Z 25008KT 9999 FEW050 31/21 Q1007,2024-08-03T17:20:00Z,31,21,6+,29.73
LIPZ,45.505,12.352,150,4,4.60312,LIPZ 031720Z 15004KT 120V180 CAVOK 29/19 Q1009 NOSIG,2024-08-03T17:20:00Z,29,19,6+,29.79
LIPY,43.617,13.36,40,7,8.05546,LIPY 031720Z AUTO 04007KT 9999 NCD 25/20 Q1008,2024-08-03T17:20:00Z,25,20,6+,29.76
LIPX,45.387,10.872,120,4,4.60312,LIPX 031720Z 12004KT 080V150 CAVOK 29/20 Q1009,2024-08-03T17:20:00Z,29,20,6+,29.79
LIPR,44.02,12.612,VRB,2,2.30156,LIPR 031720Z VRB02KT CAVOK 27/20 Q1008,2024-08-03T17:20:00Z,27,20,6+,29.76
LIPQ,45.828,13.472,270,4,4.60312,LIPQ 031720Z AUTO 27004KT 9999 NCD 31/19 Q1008,2024-08-03T17:20:00Z,31,19,6+,29.76
LIPO,45.429,10.331,110,8,9.20624,LIPO 031720Z AUTO 11008KT 9999 NCD 29/22 Q1009,2024-08-03T17:20:00Z,29,22,6+,29.79
LIPH,45.648,12.194,150,5,5.7539,LIPH 031720Z 15005KT CAVOK 30/18 Q1009,2024-08-03T17:20:00Z,30,18,6+,29.79
LIPE,44.531,11.297,90,5,5.7539,LIPE 031720Z 09005KT CAVOK 27/18 Q1008,2024-08-03T17:20:00Z,27,18,6+,29.76
LIMZ,44.547,7.623,350,3,3.4523399999999995,LIMZ 031720Z AUTO 35003KT 9999 FEW089/// 30/15 Q1009,2024-08-03T17:20:00Z,30,15,6+,29.79
LIMW,45.735,7.351,80,10,11.5078,LIMW 031720Z 08010KT CAVOK 30/13 Q1010,2024-08-03T17:20:00Z,30,13,6+,29.82
LIML,45.461,9.263,110,10,11.5078,LIML 031720Z 11010KT 080V140 9999 VCTS FEW020CB SCT050 30/21 Q1008 TEMPO TSRA,2024-08-03T17:20:00Z,30,21,6+,29.76
LIMJ,44.413,8.838,190,4,4.60312,LIMJ 031720Z 19004KT 9999 FEW021 29/25 Q1007,2024-08-03T17:20:00Z,29,25,6+,29.73
LIMF,45.203,7.649,70,6,6.904679999999999,LIMF 031720Z 07006KT CAVOK 30/15 Q1009,2024-08-03T17:20:00Z,30,15,6+,29.79
LIME,45.674,9.704,50,5,5.7539,LIME 031720Z 05005KT 9999 FEW040 27/20 Q1009 NOSIG,2024-08-03T17:20:00Z,27,20,6+,29.79
LIMC,45.631,8.728,230,7,8.05546,LIMC 031720Z 23007KT CAVOK 32/13 Q1008 NOSIG,2024-08-03T17:20:00Z,32,13,6+,29.76
LIEO,40.899,9.518,VRB,2,2.30156,LIEO 031720Z VRB02KT CAVOK 34/17 Q1007,2024-08-03T17:20:00Z,34,17,6+,29.73
LIEE,39.243,9.06,340,13,14.960139999999999,LIEE 031720Z 34013KT 310V010 CAVOK 31/21 Q1007,2024-08-03T17:20:00Z,31,21,6+,29.73
LIEA,40.631,8.289,300,8,9.20624,LIEA 031720Z 30008KT 280V340 CAVOK 28/23 Q1009,2024-08-03T17:20:00Z,28,23,6+,29.79
LICR,38.072,15.654,350,18,20.714039999999997,LICR 031720Z AUTO 35018KT 9999 BKN160/// 32/19 Q1007,2024-08-03T17:20:00Z,32,19,6+,29.73
LICJ,38.176,13.091,260,6,6.904679999999999,LICJ 031720Z 26006KT CAVOK 30/24 Q1006,2024-08-03T17:20:00Z,30,24,6+,29.70
LICD,35.498,12.618,20,8,9.20624,LICD 031720Z 02008KT CAVOK 29/28 Q1007,2024-08-03T17:20:00Z,29,28,6+,29.73
LICC,37.467,15.064,VRB,2,2.30156,LICC 031720Z VRB02KT 9999 FEW030 SCT100 34/14 Q1006 RETS WS R08,2024-08-03T17:20:00Z,34,14,6+,29.70
LICB,36.994,14.606,90,4,4.60312,LICB 031720Z AUTO 09004KT 060V120 9999 FEW200/// 30/20 Q1008,2024-08-03T17:20:00Z,30,20,6+,29.76
LICA,38.908,16.242,210,9,10.357019999999999,LICA 031720Z AUTO 21009KT 9999 FEW200/// 30/22 Q1007,2024-08-03T17:20:00Z,30,22,6+,29.73
LIBR,40.658,17.951,330,6,6.904679999999999,LIBR 031720Z 33006KT 9999 FEW030 28/25 Q1007,2024-08-03T17:20:00Z,28,25,6+,29.73
LIBP,42.432,14.181,250,9,10.357019999999999,LIBP 031720Z AUTO 25009KT 220V280 9999 -RA SCT033/// BKN100/// BKN150/// 23/21 Q1010 RERA,2024-08-03T17:20:00Z,23,21,6+,29.82
LIBD,41.138,16.765,310,4,4.60312,LIBD 031720Z 31004KT 9999 -RA VCTS FEW025 FEW040CB 28/22 Q1009,2024-08-03T17:20:00Z,28,22,6+,29.79
LGZA,37.751,20.884,0,0,0.0,LGZA 031720Z 00000KT CAVOK 33/15 Q1006,2024-08-03T17:20:00Z,33,15,6+,29.70
LGTS,40.52,22.971,VRB,3,3.4523399999999995,LGTS 031720Z VRB03KT 9999 FEW030 32/19 Q1004 NOSIG,2024-08-03T17:20:00Z,32,19,6+,29.65
LGSR,36.399,25.479,270,8,9.20624,LGSR 031720Z 27008KT CAVOK 29/14 Q1005,2024-08-03T17:20:00Z,29,14,6+,29.68
LGSO,37.422,24.95,VRB,2,2.30156,LGSO 031720Z AUTO VRB02KT //// // ////// 30/10 Q1005 RE//,2024-08-03T17:20:00Z,30,10,,29.68
LGSM,37.69,26.912,300,2,2.30156,LGSM 031720Z 30002KT CAVOK 31/18 Q1003,2024-08-03T17:20:00Z,31,18,6+,29.62
LGSK,39.177,23.504,VRB,1,1.15078,LGSK 031720Z VRB01KT 9999 FEW035 30/23 Q1004,2024-08-03T17:20:00Z,30,23,6+,29.65
LGSA,35.54,24.141,280,10,11.5078,LGSA 031720Z 28010KT CAVOK 29/20 Q1006,2024-08-03T17:20:00Z,29,20,6+,29.70
LGRX,38.151,21.426,VRB,3,3.4523399999999995,LGRX 031720Z VRB03KT 9999 FEW025 30/19 Q1006,2024-08-03T17:20:00Z,30,19,6+,29.70
LGRP,36.405,28.086,240,15,17.261699999999998,LGRP 031720Z 24015KT CAVOK 28/19 Q1003 NOSIG,2024-08-03T17:20:00Z,28,19,6+,29.62
LGPZ,38.921,20.761,250,10,11.5078,LGPZ 031720Z 25010KT CAVOK 28/21 Q1006,2024-08-03T17:20:00Z,28,21,6+,29.70
LGPA,37.022,25.114,VRB,2,2.30156,LGPA 031720Z VRB02KT CAVOK 28/16 Q1005,2024-08-03T17:20:00Z,28,16,6+,29.68
LGMT,39.054,26.604,VRB,2,2.30156,LGMT 031720Z VRB02KT CAVOK 30/18 Q1004,2024-08-03T17:20:00Z,30,18,6+,29.65
LGMK,37.435,25.348,VRB,1,1.15078,LGMK 031720Z VRB01KT CAVOK 28/13 Q1005,2024-08-03T17:20:00Z,28,13,6+,29.68
LGLM,39.917,25.236,10,8,9.20624,LGLM 031720Z 01008KT CAVOK 31/19 Q1004,2024-08-03T17:20:00Z,31,19,6+,29.65
LGKZ,40.288,21.842,0,0,0.0,LGKZ 031720Z AUTO 00000KT //// // ////// 28/10 Q1009 RE//,2024-08-03T17:20:00Z,28,10,,29.79
LGKV,40.915,24.622,80,4,4.60312,LGKV 031720Z 08004KT 9999 FEW030 27/20 Q1004,2024-08-03T17:20:00Z,27,20,6+,29.65
LGKR,39.61,19.913,270,5,5.7539,LGKR 031720Z 27005KT 9999 FEW030 31/19 Q1005 NOSIG,2024-08-03T17:20:00Z,31,19,6+,29.68
LGKP,35.421,27.146,290,10,11.5078,LGKP 031720Z 29010KT CAVOK 29/24 Q1004,2024-08-03T17:20:00Z,29,24,6+,29.65
LGKO,36.801,27.091,300,10,11.5078,LGKO 031720Z 30010KT CAVOK 24/20 Q1004,2024-08-03T17:20:00Z,24,20,6+,29.65
LGKL,37.068,22.026,VRB,3,3.4523399999999995,LGKL 031720Z VRB03KT 9999 FEW080 31/19 Q1006,2024-08-03T17:20:00Z,31,19,6+,29.70
LGKF,38.12,20.5,310,6,6.904679999999999,LGKF 031720Z 31006KT CAVOK 31/18 Q1006,2024-08-03T17:20:00Z,31,18,6+,29.70
LGIR,35.337,25.173,320,7,8.05546,LGIR 031720Z 32007KT CAVOK 28/24 Q1006 NOSIG,2024-08-03T17:20:00Z,28,24,6+,29.70
LGIO,39.696,20.823,360,5,5.7539,LGIO 031720Z 36005KT 9999 FEW050 31/15 Q1009,2024-08-03T17:20:00Z,31,15,6+,29.79
LGEL,38.064,23.556,200,6,6.904679999999999,LGEL 031720Z 20006KT CAVOK 30/15 Q1005,2024-08-03T17:20:00Z,30,15,6+,29.68
LGBL,39.22,22.794,VRB,4,4.60312,LGBL 031720Z VRB04KT 9999 FEW035 SCT080 31/19 Q1004,2024-08-03T17:20:00Z,31,19,6+,29.65
LGAV,37.936,23.945,230,9,10.357019999999999,LGAV 031720Z 23009KT CAVOK 29/18 Q1005 NOSIG,2024-08-03T17:20:00Z,29,18,6+,29.68
LGAL,40.856,25.945,0,0,0.0,LGAL 031720Z 00000KT 9999 FEW030 30/19 Q1003,2024-08-03T17:20:00Z,30,19,6+,29.62
LGAD,37.923,21.287,290,6,6.904679999999999,LGAD 031720Z 29006KT 9999 FEW025 29/22 Q1006,2024-08-03T17:20:00Z,29,22,6+,29.70
LCRA,34.59,32.988,250,13,14.960139999999999,LCRA 031720Z 25013KT CAVOK 27/23 Q1003 NOSIG,2024-08-03T17:20:00Z,27,23,6+,29.62
LCEN,35.155,33.496,260,12,13.809359999999998,LCEN 031720Z 26012KT 9999 FEW020 29/21 Q1004 NOSIG RMK RWY11R 28013KT RWY29R 28015KT RWY11L 29013KT,2024-08-03T17:20:00Z,29,21,6+,29.65
LATI,41.419,19.716,330,7,8.05546,LATI 031720Z 33007KT CAVOK 29/16 Q1007 NOSIG,2024-08-03T17:20:00Z,29,16,6+,29.73
KSEM,32.3367,-86.9836,320,5,5.7539,KSEM 031720Z AUTO 32005KT 10SM SCT039 32/26 A2995 RMK AO2,2024-08-03T17:20:00Z,32,26,10+,29.95
KQFW,-99.99,-99.99,360,1,1.15078,KQFW 031720Z AUTO 36001KT 2000 BR FEW003 24/24 A2966 RMK A02 TSNO,2024-08-03T17:20:00Z,24,24,1.24,29.66
KQEY,-99.99,-99.99,140,3,3.4523399999999995,KQEY 031720Z AUTO 14003KT 9999 CLR 27/26 A2952 RMK A02 TSNO,2024-08-03T17:20:00Z,27,26,6+,29.52
KQER,-99.99,-99.99,180,1,1.15078,KQER 031720Z AUTO 18001KT 9000 CLR 25/25 A2979 RMK A02 TSNO,2024-08-03T17:20:00Z,25,25,5.59,29.79
KPMV,40.9446,-95.9124,240,5,5.7539,KPMV 031720Z AUTO 24005KT 10SM CLR 30/22 A3006 RMK AO2 T03010221,2024-08-03T17:20:00Z,30.1,22.1,10+,30.06
KOCW,35.5703,-77.05,220,13,14.960139999999999,KOCW 031720Z AUTO 22013G20KT 10SM SCT038 SCT048 33/23 A2998 RMK AO2 T03290232,2024-08-03T17:20:00Z,32.9,23.2,10+,29.98
KLSF,32.3239,-84.9826,260,5,5.7539,KLSF 031720Z AUTO 26005KT 10SM BKN037 BKN050 33/24 A2992 RMK AO2 SLP134 RVRNO FZRANO VISNO RWY33 $,2024-08-03T17:20:00Z,33,24,10+,29.92
KIPJ,35.4861,-81.1564,170,4,4.60312,KIPJ 031720Z AUTO 17004KT 10SM SCT029 SCT039 SCT055 30/24 A2995 RMK AO2 T03010240,2024-08-03T17:20:00Z,30.1,24,10+,29.95
KIKT,28.5208,-88.2889,40,10,11.5078,KIKT 031720Z AUTO 04010G16KT 10SM CLR 29/20 A2998 RMK A01,2024-08-03T17:20:00Z,29,20,10+,29.98
KGUL,27.3039,-93.5383,350,3,3.4523399999999995,KGUL 031720Z AUTO 35003KT 10SM FEW021 31/25 A3000 RMK A01,2024-08-03T17:20:00Z,31,25,10+,30.00
KETC,35.9363,-77.5416,190,7,8.05546,KETC 031720Z AUTO 19007KT 160V240 5SM HZ BKN030 BKN037 A2995 RMK AO2,2024-08-03T17:20:00Z,,,5,29.95
KEKQ,36.8576,-84.8562,270,7,8.05546,KEKQ 031720Z AUTO 27007KT 10SM BKN026 BKN033 27/22 A3000 RMK AO2 PNO $,2024-08-03T17:20:00Z,27,22,10+,30.00
KEHO,35.2556,-81.5986,220,8,9.20624,KEHO 031720Z AUTO 22008KT 10SM SCT030 SCT038 BKN100 30/22 A2994 RMK AO2 T03000221,2024-08-03T17:20:00Z,30,22.1,10+,29.94
KDSF,28.3426,-88.2649,VRB,3,3.4523399999999995,KDSF 031720Z AUTO VRB03KT 10SM CLR 32/21 A2997 RMK A01,2024-08-03T17:20:00Z,32,21,10+,29.97
KDNV,40.2032,-87.5897,290,5,5.7539,KDNV 031720Z AUTO 29005KT 7SM CLR 30/23 A2997 RMK AO2 T03000225,2024-08-03T17:20:00Z,30,22.5,7,29.97
KC75,41.0231,-89.3886,,,,KC75 031720Z AUTO 10SM SCT036 BKN042 30/21 A2997 RMK AO2 T03030214,2024-08-03T17:20:00Z,30.3,21.4,10+,29.97
K0F2,33.6011,-97.7735,0,0,0.0,K0F2 031720Z AUTO 00000KT 10SM CLR 34/16 A3005 RMK AO2 T03400164,2024-08-03T17:20:00Z,34,16.4,10+,30.05
EYVI,54.634,25.286,300,4,4.60312,EYVI 031720Z 30004KT 270V330 CAVOK 21/09 Q1008 NOSIG,2024-08-03T17:20:00Z,21,9,6+,29.76
EYSA,55.894,23.395,VRB,2,2.30156,EYSA 031720Z VRB02KT CAVOK 19/16 Q1008 NOSIG,2024-08-03T17:20:00Z,19,16,6+,29.76
EYPA,55.973,21.092,280,3,3.4523399999999995,EYPA 031720Z 28003KT 210V320 9999 FEW014 19/16 Q1009,2024-08-03T17:20:00Z,19,16,6+,29.79
EYKA,54.962,24.069,290,3,3.4523399999999995,EYKA 031720Z 29003KT 270V330 CAVOK 22/11 Q1008,2024-08-03T17:20:00Z,22,11,6+,29.76
EVVA,57.361,21.545,250,7,8.05546,EVVA 031720Z AUTO 25007KT CAVOK 19/16 Q1007,2024-08-03T17:20:00Z,19,16,6+,29.73
EVRA,56.924,23.968,0,0,0.0,EVRA 031720Z 00000KT 9999 FEW047 21/14 Q1007 NOSIG,2024-08-03T17:20:00Z,21,14,6+,29.73
EVLA,56.517,21.097,260,5,5.7539,EVLA 031720Z AUTO 26005KT 230V290 CAVOK 19/16 Q1008,2024-08-03T17:20:00Z,19,16,6+,29.76
EVGA,56.778,24.854,VRB,2,2.30156,EVGA 031720Z VRB02KT CAVOK 20/14 Q1007 NOSIG,2024-08-03T17:20:00Z,20,14,6+,29.73
ETWM,52.725,7.33,180,4,4.60312,ETWM 031720Z AUTO 18004KT //// // ////// 21/19 Q1010 ///,2024-08-03T17:20:00Z,21,19,,29.82
ETSN,48.71,11.21,270,8,9.20624,ETSN 031720Z 27008KT 9999 FEW040 SCT300 23/16 Q1013 BLU+,2024-08-03T17:20:00Z,23,16,6+,29.91
ETSL,48.185,10.861,230,7,8.05546,ETSL 031720Z AUTO 23007KT 9999 // ////// 22/16 Q1014 ///,2024-08-03T17:20:00Z,22,16,6+,29.94
ETSI,48.716,11.534,250,9,10.357019999999999,ETSI 031720Z AUTO 25009KT //// // ////// 24/15 Q1012 ///,2024-08-03T17:20:00Z,24,15,,29.88
ETSH,51.768,13.168,320,2,2.30156,ETSH 031720Z 32002KT 9999 FEW050 25/13 Q1010 BLU+,2024-08-03T17:20:00Z,25,13,6+,29.82
ETSB,50.175,7.06,270,8,9.20624,ETSB 031720Z AUTO 27008KT //// // ////// 21/13 Q1013 ///,2024-08-03T17:20:00Z,21,13,,29.91
ETNW,52.457,9.427,260,5,5.7539,ETNW 031720Z 26005KT 9999 FEW050CB SCT100 BKN160 23/18 Q1010 BLU,2024-08-03T17:20:00Z,23,18,6+,29.82
ETNT,53.548,7.667,310,3,3.4523399999999995,ETNT 031720Z AUTO 31003KT //// // ////// 23/16 Q1009 ///,2024-08-03T17:20:00Z,23,16,,29.79
ETNS,54.457,9.52,210,7,8.05546,ETNS 031720Z AUTO 21007KT //// // ////// 21/16 Q1009 ///,2024-08-03T17:20:00Z,21,16,,29.79
ETNN,50.829,6.66,260,8,9.20624,ETNN 031720Z AUTO 26008KT 9999 // ////// 23/16 Q1012 ///,2024-08-03T17:20:00Z,23,16,6+,29.88
ETNL,53.916,12.279,20,3,3.4523399999999995,ETNL 031720Z 02003KT 9999 FEW040 SCT070 BKN200 23/15 Q1010 BLU+,2024-08-03T17:20:00Z,23,15,6+,29.82
ETNH,54.312,9.538,VRB,2,2.30156,ETNH 031720Z AUTO VRB02KT //// // ////// 20/17 Q1009 ///,2024-08-03T17:20:00Z,20,17,,29.79
ETMN,53.765,8.658,280,7,8.05546,ETMN 031720Z 28007KT 9999 SCT060 BKN120 BKN210 21/18 Q1010 BLU,2024-08-03T17:20:00Z,21,18,6+,29.82
ETHS,52.918,10.184,280,5,5.7539,ETHS 031720Z AUTO 28005KT 9999 // ////// 24/12 Q1010 ///,2024-08-03T17:20:00Z,24,12,6+,29.82
ETHN,49.398,9.958,270,9,10.357019999999999,ETHN 031720Z 27009KT 9999 FEW038TCU BKN220 23/16 Q1013 BLU+,2024-08-03T17:20:00Z,23,16,6+,29.91
ETHL,48.218,9.91,300,4,4.60312,ETHL 031720Z AUTO 30004KT 9999 // ////// 23/16 Q1014 ///,2024-08-03T17:20:00Z,23,16,6+,29.94
ETHF,51.114,9.286,220,7,8.05546,ETHF 031720Z AUTO 22007KT 4100 // ////// 24/17 Q1010 ///,2024-08-03T17:20:00Z,24,17,2.55,29.82
ETHC,52.591,10.022,260,5,5.7539,ETHC 031720Z AUTO 26005KT 7000 // ////// 25/15 Q1010 ///,2024-08-03T17:20:00Z,25,15,4.35,29.82
ETHB,52.279,9.082,260,4,4.60312,ETHB 031720Z AUTO 26004KT 9999 // ////// 21/18 Q1011 ///,2024-08-03T17:20:00Z,21,18,6+,29.85
ETHA,47.834,10.867,270,6,6.904679999999999,ETHA 031720Z AUTO 27006KT 9999 // ////// 20/15 Q1015 ///,2024-08-03T17:20:00Z,20,15,6+,29.97
ETGG,54.827,9.506,210,7,8.05546,ETGG 031720Z AUTO 21007KT 9999 // ////// 19/17 Q1009 ///,2024-08-03T17:20:00Z,19,17,6+,29.79
ESUT,65.806,15.083,130,8,9.20624,ESUT 031720Z AUTO 13008KT 9999 SCT027/// OVC076/// 17/13 Q1009,2024-08-03T17:20:00Z,17,13,6+,29.79
ESUP,67.246,23.069,90,7,8.05546,ESUP 031720Z AUTO 09007KT 9999 FEW098/// BKN120/// 20/12 Q1011,2024-08-03T17:20:00Z,20,12,6+,29.85
ESTL,56.083,13.213,310,6,6.904679999999999,ESTL 031720Z AUTO 31006KT 9999 NCD 20/14 Q1009,2024-08-03T17:20:00Z,20,14,6+,29.79
ESTA,56.294,12.848,280,5,5.7539,ESTA 031720Z AUTO 28005KT 9999 BKN210/// 19/14 Q1009,2024-08-03T17:20:00Z,19,14,6+,29.79
ESSV,57.662,18.348,250,8,9.20624,ESSV 031720Z AUTO 25008KT 9999 SCT082/// 21/12 Q1007,2024-08-03T17:20:00Z,21,12,6+,29.73
ESST,60.158,12.992,0,0,0.0,ESST 031720Z AUTO 00000KT 9999 -RA SCT072/// OVC092/// 17/16 Q1007,2024-08-03T17:20:00Z,17,16,6+,29.73
ESSP,58.584,16.255,10,2,2.30156,ESSP 031720Z AUTO 01002KT 9999 -RA BKN096/// 22/14 Q1007,2024-08-03T17:20:00Z,22,14,6+,29.73
ESSL,58.406,15.681,320,5,5.7539,ESSL 031720Z AUTO 32005KT 290V360 9999 NCD 23/12 Q1007,2024-08-03T17:20:00Z,23,12,6+,29.73
ESSD,60.422,15.515,VRB,1,1.15078,ESSD 031720Z AUTO VRB01KT 9999 SCT086/// OVC098/// 21/14 Q1006,2024-08-03T17:20:00Z,21,14,6+,29.70
ESSB,59.356,17.933,80,3,3.4523399999999995,ESSB 031720Z AUTO 08003KT 9999 OVC100/// 21/15 Q1006,2024-08-03T17:20:00Z,21,15,6+,29.70
ESSA,59.664,17.92,VRB,3,3.4523399999999995,ESSA 031720Z VRB03KT CAVOK 19/14 Q1006 NOSIG,2024-08-03T17:20:00Z,19,14,6+,29.70
ESPA,65.541,22.126,60,5,5.7539,ESPA 031720Z 06005KT 020V090 9999 SCT036 19/14 Q1009,2024-08-03T17:20:00Z,19,14,6+,29.79
ESOW,59.595,16.638,310,4,4.60312,ESOW 031720Z 31004KT 250V050 9999 VCSH FEW053CB BKN098 22/12 Q1007,2024-08-03T17:20:00Z,22,12,6+,29.73
ESOK,59.442,13.342,210,7,8.05546,ESOK 031720Z 21007KT CAVOK 21/15 Q1007,2024-08-03T17:20:00Z,21,15,6+,29.73
ESOH,60.02,13.579,320,5,5.7539,ESOH 031720Z AUTO 32005KT 290V010 9999 -RA OVC074/// 18/14 Q1007 RERA,2024-08-03T17:20:00Z,18,14,6+,29.73
ESOE,59.229,15.046,240,4,4.60312,ESOE 031720Z AUTO 24004KT 210V270 9999 SCT078/// BKN150/// 21/14 Q1007,2024-08-03T17:20:00Z,21,14,6+,29.73
ESNZ,63.199,14.489,110,5,5.7539,ESNZ 031720Z AUTO 11005KT 9999 FEW086/// 18/12 Q1007,2024-08-03T17:20:00Z,18,12,6+,29.73
ESNX,65.592,19.283,80,8,9.20624,ESNX 031720Z AUTO 08008KT 9999 -RA FEW020/// BKN059/// OVC090/// 17/14 Q1010,2024-08-03T17:20:00Z,17,14,6+,29.82
ESNV,64.579,16.839,70,3,3.4523399999999995,ESNV 031720Z AUTO 07003KT 9999 -RA BKN081/// ///// Q1009,2024-08-03T17:20:00Z,,,6+,29.79
ESNU,63.789,20.285,60,9,10.357019999999999,ESNU 031720Z 06009KT 9999 FEW020 19/15 Q1007,2024-08-03T17:20:00Z,19,15,6+,29.73
ESNS,64.625,21.077,30,8,9.20624,ESNS 031720Z 03008KT 360V060 9999 FEW013 BKN034 17/17 Q1009,2024-08-03T17:20:00Z,17,17,6+,29.79
ESNQ,67.823,20.34,70,8,9.20624,ESNQ 031720Z AUTO 07008KT 9999 OVC072/// 18/09 Q1012,2024-08-03T17:20:00Z,18,9,6+,29.88
ESNO,63.412,18.98,20,3,3.4523399999999995,ESNO 031720Z AUTO 02003KT 340V050 4100 R12///// R30/P2000N +DZ ///034/// 15/14 Q1007,2024-08-03T17:20:00Z,15,14,2.55,29.73
ESNN,62.532,17.436,VRB,2,2.30156,ESNN 031720Z AUTO VRB02KT 9999 FEW100/// 18/15 Q1007,2024-08-03T17:20:00Z,18,15,6+,29.73
ESNL,64.552,18.711,60,5,5.7539,ESNL 031720Z AUTO 06005KT 360V100 9999 SCT017/// BKN022/// BKN047/// 18/14 Q1009,2024-08-03T17:20:00Z,18,14,6+,29.79
ESNK,63.047,17.766,320,4,4.60312,ESNK 031720Z AUTO 32004KT 9999 R17///// R35///// SCT028/// BKN092/// OVC120/// 18/16 Q1007,2024-08-03T17:20:00Z,18,16,6+,29.73
ESNG,67.133,20.81,90,6,6.904679999999999,ESNG 031720Z AUTO 09006KT 060V120 9999 BKN059/// OVC120/// 19/10 Q1011,2024-08-03T17:20:00Z,19,10,6+,29.85
ESND,62.047,14.416,50,8,9.20624,ESND 031720Z AUTO 05008KT 9999 FEW091/// 20/13 Q1007,2024-08-03T17:20:00Z,20,13,6+,29.73
ESMX,56.927,14.73,260,6,6.904679999999999,ESMX 031720Z AUTO 26006KT 9999 SCT046/// 22/14 Q1008,2024-08-03T17:20:00Z,22,14,6+,29.76
ESMV,57.29,14.134,250,8,9.20624,ESMV 031720Z AUTO 25008KT 9999 FEW056/// SCT240/// 21/13 Q1008,2024-08-03T17:20:00Z,21,13,6+,29.76
ESMT,56.691,12.82,270,6,6.904679999999999,ESMT 031720Z AUTO 27006KT 9999 FEW086/// 18/14 Q1009,2024-08-03T17:20:00Z,18,14,6+,29.79
ESMS,55.539,13.373,300,7,8.05546,ESMS 031720Z 30007KT CAVOK 21/13 Q1009,2024-08-03T17:20:00Z,21,13,6+,29.79
ESMQ,56.685,16.284,170,8,9.20624,ESMQ 031720Z AUTO 17008KT 9999 NCD 20/15 Q1008,2024-08-03T17:20:00Z,20,15,6+,29.76
ESMK,55.922,14.085,260,9,10.357019999999999,ESMK 031720Z AUTO 26009KT 9999 NCD 22/14 Q1008,2024-08-03T17:20:00Z,22,14,6+,29.76
ESKS,61.165,12.834,260,3,3.4523399999999995,ESKS 031720Z AUTO 26003KT 9999 OVC093/// 19/11 Q1007,2024-08-03T17:20:00Z,19,11,6+,29.73
ESKN,58.786,16.918,270,7,8.05546,ESKN 031720Z 27007KT CAVOK 22/13 Q1007,2024-08-03T17:20:00Z,22,13,6+,29.73
ESKM,60.96,14.507,150,3,3.4523399999999995,ESKM 031720Z AUTO 15003KT 9999 OVC092/// 20/15 Q1006,2024-08-03T17:20:00Z,20,15,6+,29.70
ESIB,58.431,12.71,280,8,9.20624,ESIB 031720Z AUTO 28008KT 9999 SCT220/// 20/13 Q1007,2024-08-03T17:20:00Z,20,13,6+,29.73
ESIA,58.514,14.507,210,3,3.4523399999999995,ESIA 031720Z AUTO 21003KT 170V250 9999 FEW052/// 20/14 Q1007,2024-08-03T17:20:00Z,20,14,6+,29.73
ESGT,58.314,12.347,250,10,11.5078,ESGT 031720Z AUTO 25010KT 210V280 9999 NCD 19/13 Q1008,2024-08-03T17:20:00Z,19,13,6+,29.76
ESGP,57.781,11.869,220,5,5.7539,ESGP 031720Z AUTO 22005KT 9999 SCT170/// 19/13 Q1008,2024-08-03T17:20:00Z,19,13,6+,29.76
ESGJ,57.752,14.069,210,3,3.4523399999999995,ESGJ 031720Z AUTO 21003KT 9999 FEW047/// 18/18 Q1008,2024-08-03T17:20:00Z,18,18,6+,29.76
ESGG,57.667,12.285,250,7,8.05546,ESGG 031720Z 25007KT CAVOK 17/13 Q1008,2024-08-03T17:20:00Z,17,13,6+,29.76
ESDF,56.266,15.267,190,4,4.60312,ESDF 031720Z AUTO 19004KT 9999 NCD 21/13 Q1008,2024-08-03T17:20:00Z,21,13,6+,29.76
ESCM,59.899,17.589,60,5,5.7539,ESCM 031720Z AUTO 06005KT 9999 OVC110/// 21/16 Q1006,2024-08-03T17:20:00Z,21,16,6+,29.70
ESCF,58.398,15.526,280,5,5.7539,ESCF 031720Z AUTO 28005KT 9999 NCD 23/14 Q1007,2024-08-03T17:20:00Z,23,14,6+,29.73
ENZV,58.884,5.637,160,6,6.904679999999999,ENZV 031720Z 16006KT 8000 -DZ BKN017 OVC035 17/16 Q1005 NOSIG,2024-08-03T17:20:00Z,17,16,4.97,29.68
ENWV,56.278,3.395,280,18,20.714039999999997,ENWV 031720Z AUTO 28018KT 9999NDV FEW018/// 16/12 Q1007 W///S3,2024-08-03T17:20:00Z,16,12,,29.73
ENVD,70.065,29.835,90,11,12.658579999999999,ENVD 031720Z AUTO 09011KT 9999 OVC007/// 11/09 Q1017,2024-08-03T17:20:00Z,11,9,6+,30.03
ENVA,63.46,10.931,270,3,3.4523399999999995,ENVA 031720Z 27003KT 240V300 9999 FEW058CB 25/14 Q1004 RMK WIND 670FT 06010KT,2024-08-03T17:20:00Z,25,14,6+,29.65
ENUN,-99.99,-99.99,90,16,18.41248,ENUN 031720Z AUTO 09016KT CAVOK 17/17 Q1015 W15/S3,2024-08-03T17:20:00Z,17,17,6+,29.97
ENUG,71.305,22.253,80,23,26.46794,ENUG 031720Z AUTO 08023KT 9999NDV FEW002/// 12/10 Q1013 W///S4,2024-08-03T17:20:00Z,12,10,,29.91
ENTO,59.184,10.255,170,8,9.20624,ENTO 031720Z 17008KT 9999 FEW012 18/16 Q1007 TEMPO BKN012,2024-08-03T17:20:00Z,18,16,6+,29.73
ENTC,69.675,18.916,10,13,14.960139999999999,ENTC 031720Z 01013KT 9999 FEW050 19/10 Q1011 NOSIG RMK WIND 2600FT 10007KT,2024-08-03T17:20:00Z,19,10,6+,29.85
ENSS,70.355,31.044,70,6,6.904679999999999,ENSS 031720Z AUTO 07006KT 9999 OVC007/// 11/09 Q1017 RMK WIND 0500FT 06014KT,2024-08-03T17:20:00Z,11,9,6+,30.03
ENSR,69.789,20.955,240,3,3.4523399999999995,ENSR 031720Z AUTO 24003KT 9999 NCD 20/12 Q1012 RMK WIND RWY 32 VRB02KT WIND 1119FT 12005KT,2024-08-03T17:20:00Z,20,12,6+,29.88
ENSL,58.367,1.907,310,12,13.809359999999998,ENSL 031720Z AUTO 31012KT 9999 SCT015/// BKN053/// 16/11 Q1007 W15/S3,2024-08-03T17:20:00Z,16,11,6+,29.73
ENSK,68.58,15.029,100,4,4.60312,ENSK 031720Z AUTO 10004KT 9999 NCD 22/13 Q1009,2024-08-03T17:20:00Z,22,13,6+,29.79
ENSH,68.245,14.669,70,10,11.5078,ENSH 031720Z AUTO 07010KT 9999 NCD 22/12 Q1009 RMK WIND 0150FT /////KT,2024-08-03T17:20:00Z,22,12,6+,29.79
ENSG,61.158,7.141,VRB,1,1.15078,ENSG 031720Z AUTO VRB01KT 9999 FEW053/// SCT082/// BKN108/// 18/12 Q1006 RMK WIND 3806FT VRB02KT,2024-08-03T17:20:00Z,18,12,6+,29.70
ENSF,61.25,1.85,300,17,19.56326,ENSF 031720Z AUTO 30017KT 9999 FEW012/// 16/10 Q1006 W///S3,2024-08-03T17:20:00Z,16,10,6+,29.70
ENSE,61.45,2.15,320,5,5.7539,ENSE 031720Z AUTO 32005G17KT 310V020 9999 FEW013/// 13/10 Q1005 W///S4,2024-08-03T17:20:00Z,13,10,6+,29.68
ENSD,61.829,6.104,300,6,6.904679999999999,ENSD 031720Z AUTO 30006KT 9999 -RA BKN055/// OVC086/// 18/14 Q1004 RMK WIND RWY 26 24004KT WIND 1140FT 29004KT,2024-08-03T17:20:00Z,18,14,6+,29.65
ENSB,78.246,15.466,270,5,5.7539,ENSB 031720Z 27005KT 9999 FEW004 SCT020 BKN027 11/08 Q1018 RMK WIND 1400FT 27006KT,2024-08-03T17:20:00Z,11,8,6+,30.06
ENRY,59.381,10.783,190,9,10.357019999999999,ENRY 031720Z AUTO 19009KT 9999 FEW016/// SCT019/// BKN170/// 19/M18 Q1007,2024-08-03T17:20:00Z,19,-18,6+,29.73
ENRS,67.527,12.104,70,10,11.5078,ENRS 031720Z AUTO 07010KT 9999 NCD 17/14 Q1008,2024-08-03T17:20:00Z,17,14,6+,29.76
ENRO,62.578,11.342,210,5,5.7539,ENRO 031720Z AUTO 21005KT 9999 -RA FEW014/// SCT033/// 16/12 Q1006,2024-08-03T17:20:00Z,16,12,6+,29.70
ENRM,64.835,11.141,20,6,6.904679999999999,ENRM 031720Z AUTO 02006KT 9999 NCD 22/14 Q1005,2024-08-03T17:20:00Z,22,14,6+,29.68
ENRA,66.364,14.302,100,7,8.05546,ENRA 031720Z AUTO 10007KT 070V140 9999 -RA BKN076/// BKN097/// 21/13 Q1008,2024-08-03T17:20:00Z,21,13,6+,29.76
ENQR,61.53,2.22,300,16,18.41248,ENQR 031720Z AUTO 30016KT 9999 FEW012/// 13/10 Q1005 W27/S4,2024-08-03T17:20:00Z,13,10,6+,29.68
ENQC,60.886,3.61,300,18,20.714039999999997,ENQC 031720Z AUTO 30018KT CAVOK 17/12 Q1005 W///S3,2024-08-03T17:20:00Z,17,12,6+,29.68
ENQA,60.645,3.725,320,19,21.864819999999998,ENQA 031720Z AUTO 32019KT 9999 FEW008/// SCT083/// 14/12 Q1005 W///S3,2024-08-03T17:20:00Z,14,12,6+,29.68
ENOV,62.18,6.078,VRB,2,2.30156,ENOV 031720Z AUTO VRB02KT 9999 SCT092/// BKN110/// 18/12 Q1005 RMK WIND RWY 24 00000KT WIND 2090FT 18003KT,2024-08-03T17:20:00Z,18,12,6+,29.68
ENOL,63.703,9.609,350,9,10.357019999999999,ENOL 031720Z 35009KT 9999 FEW040 21/13 Q1005 TEMPO FEW040TCU,2024-08-03T17:20:00Z,21,13,6+,29.68
ENOA,60.492,2.827,330,15,17.261699999999998,ENOA 031720Z 33015KT 9999 FEW015 14/11 Q1006 W///S3,2024-08-03T17:20:00Z,14,11,6+,29.70
ENNM,64.471,11.57,110,7,8.05546,ENNM 031720Z AUTO 11007KT 9999 NCD 24/10 Q1005,2024-08-03T17:20:00Z,24,10,6+,29.68
ENNE,66.03,8.08,100,14,16.11092,ENNE 031720Z AUTO 10014KT CAVOK 17/15 Q1006 W///S3,2024-08-03T17:20:00Z,17,15,6+,29.70
ENNA,70.059,24.971,360,8,9.20624,ENNA 031720Z AUTO 36008KT 9999 NCD 18/12 Q1014 RMK WIND 1800FT 10005KT,2024-08-03T17:20:00Z,18,12,6+,29.94
ENMS,65.784,13.218,120,3,3.4523399999999995,ENMS 031720Z AUTO 12003G16KT 9999 SCT074/// 23/12 Q1007 RMK WIND 412FT 11002KT,2024-08-03T17:20:00Z,23,12,6+,29.73
ENML,62.744,7.262,120,4,4.60312,ENML 031720Z AUTO 12004KT 080V150 9999NDV FEW060/// 20/16 Q1004,2024-08-03T17:20:00Z,20,16,,29.65
ENMH,71.029,27.829,80,9,10.357019999999999,ENMH 031720Z AUTO 08009KT 9999 NCD 11/09 Q1017,2024-08-03T17:20:00Z,11,9,6+,30.03
ENLE,56.535,3.205,270,20,23.0156,ENLE 031720Z 27020KT 9999 SCT012 17/13 Q1007 W17/S3,2024-08-03T17:20:00Z,17,13,6+,29.73
ENLA,57.111,2.846,300,19,21.864819999999998,ENLA 031720Z AUTO 30019KT 9999NDV OVC007/// 15/13 Q1006 W///S3,2024-08-03T17:20:00Z,15,13,,29.70
ENKR,69.725,29.898,70,5,5.7539,ENKR 031720Z AUTO 07005KT 040V100 9999 BKN009/// 11/09 Q1016 RMK WIND 731FT 07009KT,2024-08-03T17:20:00Z,11,9,6+,30.00
ENKB,63.109,7.816,310,5,5.7539,ENKB 031720Z 31005KT 280V360 9999 FEW054 SCT070 BKN100 18/11 Q1005 RMK WIND 745FT 33007KT,2024-08-03T17:20:00Z,18,11,6+,29.68
ENJS,58.835,2.545,320,16,18.41248,ENJS 031720Z 32016KT 9999 FEW015 BKN040 15/11 Q1006 W16/S4,2024-08-03T17:20:00Z,15,11,6+,29.70
ENHV,71.009,25.982,10,10,11.5078,ENHV 031720Z AUTO 01010KT 9999 OVC004/// 11/10 Q1017,2024-08-03T17:20:00Z,11,10,6+,30.03
ENHK,70.487,22.14,90,8,9.20624,ENHK 031720Z AUTO 09008KT 9999 NCD 21/10 Q1013,2024-08-03T17:20:00Z,21,10,6+,29.91
ENHF,70.681,23.677,60,11,12.658579999999999,ENHF 031720Z AUTO 06011KT 9999 NCD 19/11 Q1014 RMK WIND 1254FT 10015KT,2024-08-03T17:20:00Z,19,11,6+,29.94
ENHE,65.325,2.327,110,3,3.4523399999999995,ENHE 031720Z 11003KT CAVOK 18/15 Q1006 W///S3,2024-08-03T17:20:00Z,18,15,6+,29.70
ENHD,59.341,5.22,190,6,6.904679999999999,ENHD 031720Z 19006KT 160V230 5000 -RA BKN004 17/15 Q1005,2024-08-03T17:20:00Z,17,15,3.11,29.68
ENGM,60.201,11.08,220,4,4.60312,ENGM 031720Z 22004KT CAVOK 20/13 Q1007 NOSIG,2024-08-03T17:20:00Z,20,13,6+,29.73
ENGC,61.033,2.033,310,16,18.41248,ENGC 031720Z 31016KT CAVOK 13/10 Q1006 W12/S4,2024-08-03T17:20:00Z,13,10,6+,29.70
ENFL,61.582,5.02,210,4,4.60312,ENFL 031720Z AUTO 21004KT 180V240 9000NDV RA BKN034/// OVC043/// 17/15 Q1005,2024-08-03T17:20:00Z,17,15,,29.68
ENFB,61.206,1.829,280,16,18.41248,ENFB 031720Z AUTO 28016KT 9999 FEW012/// 14/10 Q1005 W///S3,2024-08-03T17:20:00Z,14,10,6+,29.68
ENEV,68.491,16.683,VRB,2,2.30156,ENEV 031720Z VRB02KT CAVOK 24/13 Q1010 RMK WIND 1400FT 11007KT,2024-08-03T17:20:00Z,24,13,6+,29.82
ENDU,69.058,18.544,100,11,12.658579999999999,ENDU 031720Z 10011KT 9999 FEW065 23/09 Q1011 RMK WIND 1100FT 09011KT WIND 2200FT 12016KT,2024-08-03T17:20:00Z,23,9,6+,29.85
ENCN,58.2,8.077,180,4,4.60312,ENCN 031720Z 18004KT 150V210 9999 SCT009 FEW020TCU BKN024 18/16 Q1007,2024-08-03T17:20:00Z,18,16,6+,29.73
ENBV,70.871,29.032,100,10,11.5078,ENBV 031720Z AUTO 10010KT 9999 OVC007/// 11/09 Q1017,2024-08-03T17:20:00Z,11,9,6+,30.03
ENBS,70.601,29.698,20,12,13.809359999999998,ENBS 031720Z AUTO 02012KT 9999 NCD 10/10 Q1016,2024-08-03T17:20:00Z,10,10,6+,30.00
ENBR,60.29,5.222,200,4,4.60312,ENBR 031720Z 20004KT 150V240 8000 -SHRA FEW002 SCT007CB BKN014 17/17 Q1005 TEMPO 4000 SHRA RMK WIND 1200FT 20013KT,2024-08-03T17:20:00Z,17,17,4.97,29.68
ENBO,67.267,14.359,100,13,14.960139999999999,ENBO 031720Z 10013KT CAVOK 21/14 Q1008 NOSIG,2024-08-03T17:20:00Z,21,14,6+,29.76
ENBN,65.458,12.216,120,7,8.05546,ENBN 031720Z AUTO 12007KT 090V150 9999NDV FEW072/// 24/15 Q1006,2024-08-03T17:20:00Z,24,15,,29.70
ENBL,61.391,5.76,VRB,2,2.30156,ENBL 031720Z AUTO VRB02KT 9999 -RA OVC051/// 16/15 Q1005,2024-08-03T17:20:00Z,16,15,6+,29.68
ENAT,69.978,23.358,130,8,9.20624,ENAT 031720Z AUTO 13008KT 9999 NCD 22/10 Q1013 RMK WIND 700FT 14012KT,2024-08-03T17:20:00Z,22,10,6+,29.91
ENAN,69.307,16.131,30,6,6.904679999999999,ENAN 031720Z AUTO 03006KT 9999 NCD 18/14 Q1010,2024-08-03T17:20:00Z,18,14,6+,29.82
ENAL,62.562,6.115,50,9,10.357019999999999,ENAL 031720Z 05009KT CAVOK 18/12 Q1005,2024-08-03T17:20:00Z,18,12,6+,29.68
ELLX,49.626,6.204,250,10,11.5078,ELLX 031720Z 25010KT 9999 FEW028 20/14 Q1014 NOSIG,2024-08-03T17:20:00Z,20,14,6+,29.94
EKYT,57.093,9.879,110,4,4.60312,EKYT 031720Z AUTO 11004KT 9999 BKN037/// BKN110/// 21/16 Q1008,2024-08-03T17:20:00Z,21,16,6+,29.76
EKVJ,55.991,8.354,210,8,9.20624,EKVJ 031720Z AUTO 21008KT 190V250 6000 FEW018/// 20/17 Q1008,2024-08-03T17:20:00Z,20,17,3.73,29.76
EKVG,62.065,-7.282,170,11,12.658579999999999,EKVG 031720Z AUTO 17011KT 9999 BKN007/// BKN024/// 13/11 Q1003 RMK SCT005/// BKN024/// WIND SKEID 17012KT,2024-08-03T17:20:00Z,13,11,6+,29.62
EKVD,55.436,9.329,210,6,6.904679999999999,EKVD 031720Z AUTO 21006KT //// ///////// 19/16 Q1009,2024-08-03T17:20:00Z,19,16,,29.79
EKSP,55.225,9.263,220,6,6.904679999999999,EKSP 031720Z 22006KT 190V260 9999 -SHRA SCT030TCU BKN110 OVC200 20/17 Q1009,2024-08-03T17:20:00Z,20,17,6+,29.79
EKSB,54.962,9.787,210,7,8.05546,EKSB 031720Z AUTO 21007KT 180V240 9999 FEW039/// OVC054/// 20/15 Q1009,2024-08-03T17:20:00Z,20,15,6+,29.79
EKRS,55.426,11.807,230,5,5.7539,EKRS 031720Z AUTO 23005KT 190V250 9999 NCD 21/15 Q1009,2024-08-03T17:20:00Z,21,15,6+,29.79
EKRN,55.068,14.749,270,11,12.658579999999999,EKRN 031720Z AUTO 27011KT 9999 NCD 20/16 Q1009,2024-08-03T17:20:00Z,20,16,6+,29.79
EKRK,55.587,12.136,120,1,1.15078,EKRK 031720Z AUTO 12001KT 9999 FEW049/// 21/15 Q1009,2024-08-03T17:20:00Z,21,15,6+,29.79
EKKA,56.293,9.114,150,3,3.4523399999999995,EKKA 031720Z AUTO 15003KT 9999 FEW036/// BKN072/// 19/17 Q1008,2024-08-03T17:20:00Z,19,17,6+,29.76
EKEB,55.528,8.563,180,7,8.05546,EKEB 031720Z AUTO 18007KT 5000 BKN008/// BKN011/// 19/18 Q1008,2024-08-03T17:20:00Z,19,18,3.11,29.76
EKCH,55.618,12.656,130,3,3.4523399999999995,EKCH 031720Z AUTO 13003KT 9999 FEW046/// 21/14 Q1010 NOSIG,2024-08-03T17:20:00Z,21,14,6+,29.82
EKBI,55.74,9.152,200,6,6.904679999999999,EKBI 031720Z AUTO 20006KT 160V230 9999 FEW064/// FEW079/// FEW095/// 21/15 Q1009,2024-08-03T17:20:00Z,21,15,6+,29.79
EKAH,56.3,10.619,180,3,3.4523399999999995,EKAH 031720Z AUTO 18003KT 9999 OVC170/// 21/16 Q1009,2024-08-03T17:20:00Z,21,16,6+,29.79
EGYP,-51.82,-58.448,160,26,29.920279999999998,EGYP 031720Z 16026KT 4000 SCT007 BKN009 02/01 Q0983 TEMPO 2500 -RASN BKN003,2024-08-03T17:20:00Z,2,1,2.49,29.03
EGWU,51.549,-0.417,280,9,10.357019999999999,EGWU 031720Z 28009KT 9999 FEW048 SCT200 23/11 Q1011 NOSIG RMK BLU BLU,2024-08-03T17:20:00Z,23,11,6+,29.85
EGVN,51.758,-1.578,300,7,8.05546,EGVN 031720Z 30007KT CAVOK 21/07 Q1012 NOSIG RMK BLU BLU,2024-08-03T17:20:00Z,21,7,6+,29.88
EGTK,51.838,-1.317,290,8,9.20624,EGTK 031720Z 29008KT 270V330 CAVOK 21/08 Q1012,2024-08-03T17:20:00Z,21,8,6+,29.88
EGTE,50.737,-3.406,320,9,10.357019999999999,EGTE 031720Z 32009KT 290V350 9999 FEW045 19/10 Q1014,2024-08-03T17:20:00Z,19,10,6+,29.94
EGSY,51.406,-3.434,270,16,18.41248,EGSY 031720Z AUTO 27016KT 9999 NCD 18/11 Q1013,2024-08-03T17:20:00Z,18,11,6+,29.91
EGSS,51.881,0.223,280,4,4.60312,EGSS 031720Z AUTO 28004KT 240V320 9999 BKN046 22/12 Q1011,2024-08-03T17:20:00Z,22,12,6+,29.85
EGSH,52.676,1.283,340,5,5.7539,EGSH 031720Z 34005KT 290V020 9999 FEW013 19/14 Q1011,2024-08-03T17:20:00Z,19,14,6+,29.85
EGQS,57.711,-3.324,260,14,16.11092,EGQS 031720Z 26014KT 9999 FEW045 SCT065 BKN110 15/09 Q1007 TEMPO 7000 -SHRA RMK BLU TEMPO WHT,2024-08-03T17:20:00Z,15,9,6+,29.73
EGPO,58.215,-6.329,190,9,10.357019999999999,EGPO 031720Z 19009KT 9999 VCSH FEW020CB BKN038 15/11 Q1006,2024-08-03T17:20:00Z,15,11,6+,29.70
EGPL,57.475,-7.364,230,15,17.261699999999998,EGPL 031720Z 23015KT 9999 FEW020 15/11 Q1006,2024-08-03T17:20:00Z,15,11,6+,29.70
EGPK,55.509,-4.587,240,12,13.809359999999998,EGPK 031720Z 24012KT 9999 SCT030 17/11 Q1009,2024-08-03T17:20:00Z,17,11,6+,29.79
EGPI,55.681,-6.25,260,5,5.7539,EGPI 031720Z AUTO 26005KT 9999 NCD 15/12 Q1009,2024-08-03T17:20:00Z,15,12,6+,29.79
EGPH,55.952,-3.36,270,12,13.809359999999998,EGPH 031720Z 27012KT 9999 FEW044 17/09 Q1008,2024-08-03T17:20:00Z,17,9,6+,29.76
EGPF,55.867,-4.433,230,11,12.658579999999999,EGPF 031720Z AUTO 23011KT 9999 NCD 17/11 Q1009,2024-08-03T17:20:00Z,17,11,6+,29.79
EGPE,57.538,-4.053,220,11,12.658579999999999,EGPE 031720Z 22011KT 9999 FEW019 SCT036 16/10 Q1007,2024-08-03T17:20:00Z,16,10,6+,29.73
EGPD,57.205,-2.205,250,5,5.7539,EGPD 031720Z AUTO 25005KT 200V310 9999 //////CB 18/08 Q1007,2024-08-03T17:20:00Z,18,8,6+,29.73
EGPC,58.459,-3.093,90,3,3.4523399999999995,EGPC 031720Z AUTO 09003KT 9999 NCD 15/11 Q1006,2024-08-03T17:20:00Z,15,11,6+,29.70
EGPB,59.88,-1.296,240,5,5.7539,EGPB 031720Z AUTO 24005KT 9999 NCD 15/11 Q1007,2024-08-03T17:20:00Z,15,11,6+,29.73
EGPA,58.958,-2.905,230,5,5.7539,EGPA 031720Z AUTO 23005KT 9999 NCD 15/10 Q1007,2024-08-03T17:20:00Z,15,10,6+,29.73
EGNX,52.833,-1.333,330,8,9.20624,EGNX 031720Z 33008KT 9999 BKN047 19/08 Q1011,2024-08-03T17:20:00Z,19,8,6+,29.85
EGNV,54.511,-1.418,270,9,10.357019999999999,EGNV 031720Z 27009KT 230V300 9999 FEW044 18/09 Q1010,2024-08-03T17:20:00Z,18,9,6+,29.82
EGNT,55.037,-1.702,290,13,14.960139999999999,EGNT 031720Z 29013KT 9999 FEW047 18/08 Q1010,2024-08-03T17:20:00Z,18,8,6+,29.82
EGNS,54.085,-4.632,220,9,10.357019999999999,EGNS 031720Z 22009KT 9999 SCT038 16/13 Q1011 NOSIG,2024-08-03T17:20:00Z,16,13,6+,29.85
EGNM,53.862,-1.665,280,13,14.960139999999999,EGNM 031720Z 28013KT 9999 SCT036 17/08 Q1011,2024-08-03T17:20:00Z,17,8,6+,29.85
EGNJ,53.58,-0.341,300,12,13.809359999999998,EGNJ 031720Z AUTO 30012KT 270V340 9999 NCD 21/09 Q1011,2024-08-03T17:20:00Z,21,9,6+,29.85
EGNH,53.774,-3.039,280,12,13.809359999999998,EGNH 031720Z 28012KT 9999 FEW030 18/10 Q1012,2024-08-03T17:20:00Z,18,10,6+,29.88
EGMD,50.956,0.939,230,11,12.658579999999999,EGMD 031720Z 23011KT 210V330 9999 FEW007 BKN045 18/17 Q1012,2024-08-03T17:20:00Z,18,17,6+,29.88
EGMC,51.571,0.696,250,12,13.809359999999998,EGMC 031720Z 25012KT CAVOK 24/09 Q1010,2024-08-03T17:20:00Z,24,9,6+,29.82
EGLL,51.477,-0.461,260,10,11.5078,EGLL 031720Z AUTO 26010KT 230V290 9999 NCD 23/09 Q1011,2024-08-03T17:20:00Z,23,9,6+,29.85
EGLF,51.28,-0.773,240,10,11.5078,EGLF 031720Z AUTO 24010KT 9999 NCD 22/09 Q1011,2024-08-03T17:20:00Z,22,9,6+,29.85
EGLC,51.505,0.055,240,11,12.658579999999999,EGLC 031720Z AUTO 24011KT 210V280 9999 NCD 23/09 Q1011,2024-08-03T17:20:00Z,23,9,6+,29.85
EGKK,51.148,-0.19,220,8,9.20624,EGKK 031720Z 22008KT 9999 SCT034 20/15 Q1011,2024-08-03T17:20:00Z,20,15,6+,29.85
EGKB,51.33,0.033,240,7,8.05546,EGKB 031720Z 24007KT 200V280 9999 FEW030 20/12 Q1012,2024-08-03T17:20:00Z,20,12,6+,29.88
EGKA,50.836,-0.294,250,11,12.658579999999999,EGKA 031720Z 25011KT 220V280 9999 FEW034 20/16 Q1012,2024-08-03T17:20:00Z,20,16,6+,29.88
EGJJ,49.21,-2.194,310,8,9.20624,EGJJ 031720Z 31008KT 250V360 9999 FEW011 17/16 Q1014,2024-08-03T17:20:00Z,17,16,6+,29.94
EGJB,49.433,-2.598,290,9,10.357019999999999,EGJB 031720Z 29009KT 9999 FEW034 17/13 Q1015,2024-08-03T17:20:00Z,17,13,6+,29.97
EGJA,49.706,-2.215,280,10,11.5078,EGJA 031720Z 28010KT 9999 FEW040 17/13 Q1014,2024-08-03T17:20:00Z,17,13,6+,29.94
EGHQ,50.438,-4.998,290,12,13.809359999999998,EGHQ 031720Z 29012KT 9999 FEW028 17/11 Q1015,2024-08-03T17:20:00Z,17,11,6+,29.97
EGHI,50.944,-1.358,260,7,8.05546,EGHI 031720Z 26007KT 220V300 9999 FEW048 20/08 Q1012,2024-08-03T17:20:00Z,20,8,6+,29.88
EGHH,50.779,-1.836,300,9,10.357019999999999,EGHH 031720Z 30009KT 270V340 CAVOK 21/08 Q1012,2024-08-03T17:20:00Z,21,8,6+,29.88
EGGW,51.875,-0.368,270,11,12.658579999999999,EGGW 031720Z AUTO 27011KT 230V310 9999 NCD 21/10 Q1011,2024-08-03T17:20:00Z,21,10,6+,29.85
EGGP,53.334,-2.85,300,8,9.20624,EGGP 031720Z 30008KT 260V330 9999 FEW048 19/08 Q1012,2024-08-03T17:20:00Z,19,8,6+,29.88
EGGD,51.383,-2.719,260,13,14.960139999999999,EGGD 031720Z 26013KT 9999 FEW036 17/11 Q1013,2024-08-03T17:20:00Z,17,11,6+,29.91
EGFF,51.397,-3.343,280,13,14.960139999999999,EGFF 031720Z AUTO 28013KT 9999 NCD 18/11 Q1014,2024-08-03T17:20:00Z,18,11,6+,29.94
EGCK,53.104,-4.34,230,15,17.261699999999998,EGCK 031720Z AUTO 23015KT 9999 NCD 18/11 Q1013,2024-08-03T17:20:00Z,18,11,6+,29.91
EGCC,53.354,-2.275,280,7,8.05546,EGCC 031720Z AUTO 28007KT 9999 FEW048 19/08 Q1012,2024-08-03T17:20:00Z,19,8,6+,29.88
EGBB,52.46,-1.758,300,9,10.357019999999999,EGBB 031720Z 30009KT CAVOK 20/08 Q1012,2024-08-03T17:20:00Z,20,8,6+,29.88
EGAC,54.614,-5.873,250,10,11.5078,EGAC 031720Z AUTO 25010KT 9999 NCD 18/10 Q1010,2024-08-03T17:20:00Z,18,10,6+,29.82
EGAA,54.654,-6.225,310,11,12.658579999999999,EGAA 031720Z AUTO 31011KT 270V330 9999 SCT027 SCT040 16/11 Q1010,2024-08-03T17:20:00Z,16,11,6+,29.82
EFVA,63.051,21.762,340,3,3.4523399999999995,EFVA 031720Z AUTO 34003KT 9999 //////CB 17/16 Q1006,2024-08-03T17:20:00Z,17,16,6+,29.70
EFUT,60.896,26.938,50,5,5.7539,EFUT 031720Z AUTO 05005KT CAVOK 17/16 Q1005,2024-08-03T17:20:00Z,17,16,6+,29.68
EFTU,60.514,22.263,330,4,4.60312,EFTU 031720Z AUTO 33004KT 280V360 CAVOK 19/16 Q1005,2024-08-03T17:20:00Z,19,16,6+,29.68
EFTP,61.419,23.616,110,5,5.7539,EFTP 031720Z AUTO 11005KT 9999 SCT037 //////CB 17/15 Q1006,2024-08-03T17:20:00Z,17,15,6+,29.70
EFSI,62.693,22.83,VRB,1,1.15078,EFSI 031720Z AUTO VRB01KT 9999 FEW006 //////CB 17/17 Q1006,2024-08-03T17:20:00Z,17,17,6+,29.70
EFSA,61.943,28.945,40,4,4.60312,EFSA 031720Z AUTO 04004KT CAVOK 21/13 Q1005,2024-08-03T17:20:00Z,21,13,6+,29.68
EFRO,66.562,25.829,40,6,6.904679999999999,EFRO 031720Z AUTO 04006KT CAVOK 20/13 Q1010,2024-08-03T17:20:00Z,20,13,6+,29.82
EFPO,61.462,21.8,60,4,4.60312,EFPO 031720Z AUTO 06004KT 010V110 9999 FEW020 //////CB 20/14 Q1005,2024-08-03T17:20:00Z,20,14,6+,29.68
EFOU,64.93,25.355,60,5,5.7539,EFOU 031720Z AUTO 06005KT 9999 OVC039 19/14 Q1008,2024-08-03T17:20:00Z,19,14,6+,29.76
EFMI,61.687,27.201,VRB,1,1.15078,EFMI 031720Z AUTO VRB01KT 9999 -SHRA //////CB 18/16 Q1006,2024-08-03T17:20:00Z,18,16,6+,29.70
EFMA,60.125,19.903,330,6,6.904679999999999,EFMA 031720Z AUTO 33006KT 290V360 CAVOK 19/16 Q1006,2024-08-03T17:20:00Z,19,16,6+,29.70
EFLP,61.044,28.151,100,4,4.60312,EFLP 031720Z AUTO 10004KT 070V150 9999 //////CB 19/16 Q1005,2024-08-03T17:20:00Z,19,16,6+,29.68
EFKU,63.008,27.799,90,10,11.5078,EFKU 031720Z AUTO 09010KT 060V130 9999 SCT028 SCT050 //////CB 19/15 Q1006,2024-08-03T17:20:00Z,19,15,6+,29.70
EFKT,67.701,24.847,90,4,4.60312,EFKT 031720Z AUTO 09004KT CAVOK 21/10 Q1011,2024-08-03T17:20:00Z,21,10,6+,29.85
EFKS,65.992,29.236,80,6,6.904679999999999,EFKS 031720Z AUTO 08006KT 040V110 9999 OVC046 18/11 Q1011,2024-08-03T17:20:00Z,18,11,6+,29.85
EFKK,63.721,23.143,30,3,3.4523399999999995,EFKK 031720Z AUTO 03003KT CAVOK 17/16 Q1006,2024-08-03T17:20:00Z,17,16,6+,29.70
EFKI,64.283,27.673,60,3,3.4523399999999995,EFKI 031720Z AUTO 06003KT 9999 OVC022 17/15 Q1008,2024-08-03T17:20:00Z,17,15,6+,29.76
EFKE,65.784,24.579,40,4,4.60312,EFKE 031720Z AUTO 04004KT 9999 VCTS SCT036 //////CB 20/16 Q1009,2024-08-03T17:20:00Z,20,16,6+,29.79
EFJY,62.404,25.675,60,3,3.4523399999999995,EFJY 031720Z AUTO 06003KT 9999 //////CB 19/14 Q1006,2024-08-03T17:20:00Z,19,14,6+,29.70
EFJO,62.66,29.611,70,7,8.05546,EFJO 031720Z AUTO 07007KT 030V100 9999 FEW017 18/15 Q1006,2024-08-03T17:20:00Z,18,15,6+,29.70
EFIV,68.607,27.405,70,7,8.05546,EFIV 031720Z AUTO 07007KT CAVOK 21/09 Q1013,2024-08-03T17:20:00Z,21,9,6+,29.91
EFHK,60.327,24.957,350,3,3.4523399999999995,EFHK 031720Z 35003KT 9999 -SHRA FEW031 FEW050TCU 18/17 Q1004 BECMG CAVOK,2024-08-03T17:20:00Z,18,17,6+,29.65
EFHA,61.855,24.805,290,3,3.4523399999999995,EFHA 031720Z AUTO 29003KT 250V350 9999 SHRA //////CB 15/15 Q1006,2024-08-03T17:20:00Z,15,15,6+,29.70
EFET,68.363,23.424,80,5,5.7539,EFET 031720Z AUTO 08005KT 040V120 CAVOK 19/10 Q1012,2024-08-03T17:20:00Z,19,10,6+,29.88
EETU,58.307,26.691,270,6,6.904679999999999,EETU 031720Z AUTO 27006KT 9999 NCD 19/15 Q1005,2024-08-03T17:20:00Z,19,15,6+,29.68
EETN,59.413,24.801,310,6,6.904679999999999,EETN 031720Z 31006KT 280V350 9999 FEW020CB SCT029 19/14 Q1004 NOSIG,2024-08-03T17:20:00Z,19,14,6+,29.65
EEPU,58.419,24.473,250,6,6.904679999999999,EEPU 031720Z AUTO 25006KT 220V280 9999 -RA BKN032/// BKN037/// OVC046/// 17/16 Q1005,2024-08-03T17:20:00Z,17,16,6+,29.68
EEKE,58.23,22.509,290,6,6.904679999999999,EEKE 031720Z AUTO 29006KT 250V320 9999 SCT023/// BKN030/// OVC052/// 19/14 Q1006,2024-08-03T17:20:00Z,19,14,6+,29.70
EDVK,51.421,9.388,170,4,4.60312,EDVK 031720Z 17004KT 120V250 9999 BKN049 23/16 Q1011 RETS,2024-08-03T17:20:00Z,23,16,6+,29.85
EDVE,52.319,10.558,340,2,2.30156,EDVE 031720Z 34002KT CAVOK 24/17 Q1010,2024-08-03T17:20:00Z,24,17,6+,29.82
EDTY,49.118,9.784,290,9,10.357019999999999,EDTY 031720Z 29009KT 9999 FEW037 23/16 Q1013,2024-08-03T17:20:00Z,23,16,6+,29.91
EDTL,48.369,7.828,300,8,9.20624,EDTL 031720Z AUTO 30008KT 9999 // BKN059/// 26/15 Q1013,2024-08-03T17:20:00Z,26,15,6+,29.91
EDSB,48.779,8.081,260,4,4.60312,EDSB 031720Z 26004KT 210V310 CAVOK 24/15 Q1013,2024-08-03T17:20:00Z,24,15,6+,29.91
EDQM,50.289,11.86,270,5,5.7539,EDQM 031720Z AUTO 27005KT 240V300 9999 // SCT100/// BKN120/// 22/16 Q1013,2024-08-03T17:20:00Z,22,16,6+,29.91
EDNY,47.671,9.511,180,3,3.4523399999999995,EDNY 031720Z 18003KT 130V240 CAVOK 25/16 Q1014,2024-08-03T17:20:00Z,25,16,6+,29.94
EDMO,48.081,11.283,200,4,4.60312,EDMO 031720Z AUTO 20004KT 9999 // BKN110/// 20/16 Q1014,2024-08-03T17:20:00Z,20,16,6+,29.94
EDMA,48.425,10.932,260,4,4.60312,EDMA 031720Z 26004KT CAVOK 22/16 Q1014,2024-08-03T17:20:00Z,22,16,6+,29.94
EDLW,51.518,7.612,230,10,11.5078,EDLW 031720Z 23010KT CAVOK 22/17 Q1011,2024-08-03T17:20:00Z,22,17,6+,29.85
EDLV,51.602,6.142,220,3,3.4523399999999995,EDLV 031720Z 22003KT 200V270 CAVOK 21/19 Q1011,2024-08-03T17:20:00Z,21,19,6+,29.85
EDLP,51.614,8.616,300,8,9.20624,EDLP 031720Z 30008KT 250V350 9000 FEW024 BKN029 23/17 Q1011,2024-08-03T17:20:00Z,23,17,5.59,29.85
EDLN,51.23,6.504,270,9,10.357019999999999,EDLN 031720Z 27009G19KT 220V320 9999 SCT030 BKN035 22/15 Q1012,2024-08-03T17:20:00Z,22,15,6+,29.88
EDJA,47.989,10.239,290,9,10.357019999999999,EDJA 031720Z 29009KT CAVOK 21/16 Q1015,2024-08-03T17:20:00Z,21,16,6+,29.97
EDHL,53.805,10.719,300,12,13.809359999999998,EDHL 031720Z 30012KT CAVOK 20/15 Q1011,2024-08-03T17:20:00Z,20,15,6+,29.85
EDHK,54.376,10.143,220,6,6.904679999999999,EDHK 031720Z 22006KT 200V260 CAVOK 19/16 Q1010,2024-08-03T17:20:00Z,19,16,6+,29.82
EDHI,53.536,9.837,10,4,4.60312,EDHI 031720Z AUTO 01004KT 290V040 9999 // SCT025/// BKN045/// BKN100/// 19/17 Q1010,2024-08-03T17:20:00Z,19,17,6+,29.82
EDGS,50.708,8.083,300,8,9.20624,EDGS 031720Z 30008KT 9999 BKN019TCU 21/17 Q1013,2024-08-03T17:20:00Z,21,17,6+,29.91
EDFM,49.474,8.515,250,11,12.658579999999999,EDFM 031720Z 25011KT 9999 FEW023 SCT048 26/17 Q1012,2024-08-03T17:20:00Z,26,17,6+,29.88
EDFH,49.946,7.265,270,13,14.960139999999999,EDFH 031720Z 27013KT CAVOK 20/14 Q1013,2024-08-03T17:20:00Z,20,14,6+,29.91
EDDW,53.047,8.787,300,5,5.7539,EDDW 031720Z AUTO 30005KT CAVOK 21/18 Q1010 TEMPO 3000 SHRA SCT012 BKN025CB,2024-08-03T17:20:00Z,21,18,6+,29.82
EDDV,52.466,9.68,270,6,6.904679999999999,EDDV 031720Z AUTO 27006KT 240V300 CAVOK 22/17 Q1010 NOSIG,2024-08-03T17:20:00Z,22,17,6+,29.82
EDDS,48.69,9.222,210,1,1.15078,EDDS 031720Z AUTO 21001KT 9999 FEW030 BKN039 BKN047 24/18 Q1013 NOSIG,2024-08-03T17:20:00Z,24,18,6+,29.91
EDDR,49.213,7.108,280,13,14.960139999999999,EDDR 031720Z AUTO 28013KT CAVOK 21/14 Q1014 NOSIG,2024-08-03T17:20:00Z,21,14,6+,29.94
EDDP,51.435,12.24,80,4,4.60312,EDDP 031720Z AUTO 08004KT CAVOK 26/15 Q1011 NOSIG,2024-08-03T17:20:00Z,26,15,6+,29.85
EDDN,49.503,11.055,350,9,10.357019999999999,EDDN 031720Z AUTO 35009KT 300V020 9999 FEW047 25/17 Q1012 BECMG 30003KT,2024-08-03T17:20:00Z,25,17,6+,29.88
EDDM,48.348,11.813,270,6,6.904679999999999,EDDM 031720Z AUTO 27006KT 250V310 CAVOK 24/15 Q1013 NOSIG,2024-08-03T17:20:00Z,24,15,6+,29.91
EDDL,51.296,6.769,240,9,10.357019999999999,EDDL 031720Z AUTO 24009KT 9999 FEW018 23/17 Q1012 TEMPO SHRA SCT020CB,2024-08-03T17:20:00Z,23,17,6+,29.88
EDDK,50.865,7.157,290,9,10.357019999999999,EDDK 031720Z AUTO 29009KT 260V330 9999 FEW031 23/16 Q1012 NOSIG,2024-08-03T17:20:00Z,23,16,6+,29.88
EDDH,53.633,9.988,20,3,3.4523399999999995,EDDH 031720Z AUTO 02003KT 340V070 9999 -SHRA SCT049 FEW///CB 18/17 Q1010 RETSRA TEMPO 3000 SHRA SCT012 BKN025CB,2024-08-03T17:20:00Z,18,17,6+,29.82
EDDG,52.135,7.697,240,10,11.5078,EDDG 031720Z AUTO 24010KT CAVOK 23/18 Q1011 TEMPO SHRA SCT030CB,2024-08-03T17:20:00Z,23,18,6+,29.85
EDDF,50.045,8.598,VRB,2,2.30156,EDDF 031720Z AUTO VRB02KT 9999 SHGRRA VCTS FEW038 FEW///CB 25/18 Q1011 TEMPO TSRA,2024-08-03T17:20:00Z,25,18,6+,29.85
EDDE,50.983,10.961,310,3,3.4523399999999995,EDDE 031720Z AUTO 31003KT CAVOK 24/16 Q1011 NOSIG,2024-08-03T17:20:00Z,24,16,6+,29.85
EDDC,51.128,13.7543,330,4,4.60312,EDDC 031720Z AUTO 33004KT 300V360 CAVOK 24/14 Q1011 NOSIG,2024-08-03T17:20:00Z,24,14,6+,29.85
EDDB,52.3807,13.5306,230,3,3.4523399999999995,EDDB 031720Z AUTO 23003KT 200V260 CAVOK 25/13 Q1010 NOSIG,2024-08-03T17:20:00Z,25,13,6+,29.82
EDBC,51.856,11.42,VRB,2,2.30156,EDBC 031720Z AUTO VRB02KT 9999 // FEW001/// SCT053/// 25/14 Q1011,2024-08-03T17:20:00Z,25,14,6+,29.85
EDAH,53.879,14.152,50,4,4.60312,EDAH 031720Z 05004KT 020V080 9999 FEW044 22/16 Q1010,2024-08-03T17:20:00Z,22,16,6+,29.82
EDAC,50.982,12.506,30,4,4.60312,EDAC 031720Z AUTO 03004KT 360V120 9999 // NCD 25/15 Q1011,2024-08-03T17:20:00Z,25,15,6+,29.85
EBOS,51.199,2.862,230,10,11.5078,EBOS 031720Z 23010KT 9999 -RA FEW010 SCT015 BKN025 19/18 Q1012 TEMPO 4500 RADZ BKN014,2024-08-03T17:20:00Z,19,18,6+,29.88
EBLG,50.637,5.443,280,12,13.809359999999998,EBLG 031720Z 28012KT 250V310 9999 VCSH FEW018 20/16 Q1014 NOSIG,2024-08-03T17:20:00Z,20,16,6+,29.94
EBCI,50.459,4.454,230,9,10.357019999999999,EBCI 031720Z 23009KT 9999 FEW035 21/16 Q1014 NOSIG,2024-08-03T17:20:00Z,21,16,6+,29.94
EBBR,50.896,4.526,230,8,9.20624,EBBR 031720Z 23008KT 200V260 9999 SCT028 22/17 Q1013 NOSIG,2024-08-03T17:20:00Z,22,17,6+,29.91
EBAW,51.189,4.46,240,10,11.5078,EBAW 031720Z 24010KT 200V260 9999 SCT030 23/16 Q1012 NOSIG,2024-08-03T17:20:00Z,23,16,6+,29.88
CYGP,48.777,-64.478,90,3,3.4523399999999995,CYGP 031720Z 09003KT 060V140 12SM SCT045CB SCT075 SCT250 27/22 A2964 RMK CB3AC1CI1 CI TR HAZY DIST SH E QUAD CC ASOCTD SLP040 DENSITY ALT 1900FT,2024-08-03T17:20:00Z,27,22,12,29.64
CWSA,43.933,-60.002,,,,CWSA 031720Z AUTO /////KT 3/8SM FG VV002 21/20 A2995 RMK WIND MISG SLP143 DENSITY ALT 800FT,2024-08-03T17:20:00Z,21,20,0.38,29.95
PHNG,21.45,-157.763,80,5,5.7539,PHNG 031719Z 08005KT 7SM SCT019 BKN031 BKN050 27/22 A3007 RMK AO2 T02720222,2024-08-03T17:19:00Z,27.2,22.2,7,30.07
PABL,65.979,-161.146,140,13,14.960139999999999,PABL 031719Z AUTO 14013KT 10SM BKN025 OVC055 11/09 A2993 RMK AO2,2024-08-03T17:19:00Z,11,9,10+,29.93
KHIB,47.3804,-92.8325,140,8,9.20624,KHIB 031719Z AUTO 14008KT 3SM VCTS +RA BR FEW027 SCT048 BKN100 18/17 A2999 RMK AO2 LTG DSNT N-E TSE13 P0009 T01830172,2024-08-03T17:19:00Z,18.3,17.2,3,29.99
K2V6,40.1047,-102.713,0,0,0.0,K2V6 031719Z AUTO 00000KT 10SM CLR 29/11 A3020 RMK AO2,2024-08-03T17:19:00Z,29,11,10+,30.20
CYRJ,48.523,-72.266,100,4,4.60312,CYRJ 031719Z 10004KT 060V130 25SM -SHRA FEW045 BKN110 BKN130 BKN240 25/20 A2968 RMK CU2AC3AC1CI1 SLP052 DENSITY ALT 2200FT,2024-08-03T17:19:00Z,25,20,25,29.68
PAOM,64.5111,-165.44,180,18,20.714039999999997,PAOM 031718Z 18018KT 2SM -RA BR OVC004 09/08 A2989 RMK AO2 PK WND 17027/1659 P0006 T00890083 $,2024-08-03T17:18:00Z,8.9,8.3,2,29.89
KGGP,40.7127,-86.3673,0,0,0.0,KGGP 031718Z AUTO 00000KT 10SM SCT034 29/21 A2996 RMK AO2,2024-08-03T17:18:00Z,29,21,10+,29.96
KDUB,43.5485,-109.684,110,7,8.05546,KDUB 031718Z AUTO 11007KT 10SM CLR 28/M02 A3041 RMK AO2,2024-08-03T17:18:00Z,28,-2,10+,30.41
UWGG,56.225,43.786,280,6,6.904679999999999,UWGG 031717Z 28003MPS 9999 TS BKN040CB 17/17 Q1002 R36R/290050 NOSIG,2024-08-03T17:17:00Z,17,17,6+,29.59
PFEL,64.616,-162.272,200,23,26.46794,PFEL 031717Z AUTO 20023G31KT 6SM -RA BR OVC006 11/09 A2995 RMK AO2 PK WND 20031/1709 CIG 003V010 PNO $,2024-08-03T17:17:00Z,11,9,6,29.95
PAKU,70.331,-149.613,130,8,9.20624,PAKU 031717Z 13008KT 10SM R06/P6000FT BKN210 BKN230 08/08 A3001,2024-08-03T17:17:00Z,8,8,10+,30.01
PAHX,62.688,-159.566,210,7,8.05546,PAHX 031717Z AUTO 21007KT 10SM OVC013 10/09 A3016 RMK AO2,2024-08-03T17:17:00Z,10,9,10+,30.16
MMMY,25.774,-100.104,110,6,6.904679999999999,MMMY 031717Z 11006KT 10SM FEW030 32/20 A3007 RMK 8/100,2024-08-03T17:17:00Z,32,20,10+,30.07
LTCF,40.562,43.115,60,14,16.11092,LTCF 031717Z 06014KT 9999 TS FEW025CB SCT035 20/12 Q1015 NOSIG RMK RWY24 03009KT,2024-08-03T17:17:00Z,20,12,6+,29.97
KMUI,40.4381,-76.5643,180,6,6.904679999999999,KMUI 031717Z AUTO 18006KT 10SM VCTS FEW060 SCT070 SCT170 BKN200 32/22 A2979 RMK AO2 TSB01E17 SLP086,2024-08-03T17:17:00Z,32,22,10+,29.79
KIZG,43.9899,-70.9501,0,0,0.0,KIZG 031717Z AUTO 00000KT 10SM SCT020 SCT095 26/22 A2980 RMK AO2 T02610222,2024-08-03T17:17:00Z,26.1,22.2,10+,29.80
CYOD,54.41,-110.287,190,5,5.7539,CYOD 031717Z 19005KT 12SM -SHRA OVC120 18/12 A3015 RMK AC8 DENSITY ALT 2513FT SLP217,2024-08-03T17:17:00Z,18,12,12,30.15
KYKM,46.564,-120.535,50,6,6.904679999999999,KYKM 031716Z 05006KT 10SM VCTS CLR 29/13 A2994 RMK AO2 T02940128,2024-08-03T17:16:00Z,29.4,12.8,10+,29.94
KSFB,28.7795,-81.2436,180,6,6.904679999999999,KSFB 031716Z 18006G15KT 9SM -TSRA SCT015 BKN070 OVC095 26/23 A3000 RMK AO2 LTG DSNT W P0042 T02560233,2024-08-03T17:16:00Z,25.6,23.3,9,30.00
KISM,28.2924,-81.4371,160,9,10.357019999999999,KISM 031716Z 16009KT 10SM -RA CLR 27/24 A3000 RMK AO2 LTG DSNT SW-N TSE10RAB00 P0000 $,2024-08-03T17:16:00Z,27,24,10+,30.00
KI69,39.078,-84.21,360,3,3.4523399999999995,KI69 031716Z AUTO 36003KT 10SM SCT026 BKN047 OVC060 26/20 A2995 RMK AO1 T02620200,2024-08-03T17:16:00Z,26.2,20,10+,29.95
KGKT,35.8568,-83.5333,VRB,6,6.904679999999999,KGKT 031716Z AUTO VRB06G12KT 10SM FEW033 SCT080 29/22 A2996 RMK A01,2024-08-03T17:16:00Z,29,22,10+,29.96
KFKL,41.3806,-79.8603,40,3,3.4523399999999995,KFKL 031716Z AUTO 04003KT 10SM CLR 23/22 A2992 RMK AO2 LTG DSNT E-S TSE1653B1655E10,2024-08-03T17:16:00Z,23,22,10+,29.92
KBTP,40.7765,-79.9568,290,10,11.5078,KBTP 031716Z AUTO 29010KT 8SM -RA SCT009 BKN033 OVC050 22/22 A2991 RMK AO2 RAB01 P0001 TSNO,2024-08-03T17:16:00Z,22,22,8,29.91
KBBB,45.331,-95.6469,150,8,9.20624,KBBB 031716Z AUTO 15008KT 10SM CLR 29/21 A2997 RMK AO2,2024-08-03T17:16:00Z,29,21,10+,29.97
KAGI,27.5461,-92.4434,350,3,3.4523399999999995,KAGI 031716Z AUTO 35003KT 10SM CLR 34/24 A2999 RMK AO2 T03400238,2024-08-03T17:16:00Z,34,23.8,10+,29.99
KAEL,43.6823,-93.3722,0,0,0.0,KAEL 031716Z AUTO 00000KT 10SM CLR 27/15 A3004 RMK AO2,2024-08-03T17:16:00Z,27,15,10+,30.04
K40B,46.616,-69.533,200,6,6.904679999999999,K40B 031716Z AUTO 20006KT 160V270 30/18 A2975 RMK AO1 SLP060 T02980177 58014,2024-08-03T17:16:00Z,29.8,17.7,,29.75
CYRB,74.713,-94.982,330,7,8.05546,CYRB 031716Z 33007KT 3SM BR SCT002 BKN120 03/03 A2996 RMK ST3AC4 VIS INCREASING RPDLY SLP153,2024-08-03T17:16:00Z,3,3,3,29.96
TJPS,18.011,-66.567,140,12,13.809359999999998,TJPS 031715Z AUTO 14012G19KT 10SM FEW046 33/26 A2998 RMK AO2 PWINO,2024-08-03T17:15:00Z,33,26,10+,29.98
PAUT,54.145,-165.604,140,12,13.809359999999998,PAUT 031715Z AUTO 14012KT 10SM OVC021 09/08 A3005 RMK AO2,2024-08-03T17:15:00Z,9,8,10+,30.05
PAFB,64.836,-147.614,70,4,4.60312,PAFB 031715Z AUTO 07004KT 7SM -RA BKN014 OVC024 10/09 A3025 RMK AO2 CIG 014V022 SLP251 $,2024-08-03T17:15:00Z,10,9,7,30.25
PAAD,70.136,-146.29,130,6,6.904679999999999,PAAD 031715Z AUTO 13006KT 10SM CLR 09/04 A3007 RMK AO2 T00850039,2024-08-03T17:15:00Z,8.5,3.9,10+,30.07
LMML,35.858,14.477,260,9,10.357019999999999,LMML 031715Z 26009KT 230V290 CAVOK 32/16 Q1008 NOSIG,2024-08-03T17:15:00Z,32,16,6+,29.76
LIRP,43.684,10.393,90,9,10.357019999999999,LIRP 031715Z 09009KT CAVOK 32/22 Q1007 NOSIG,2024-08-03T17:15:00Z,32,22,6+,29.73
LHSN,47.123,20.235,40,12,13.809359999999998,LHSN 031715Z 04012KT CAVOK 19/14 Q1010 NOSIG RMK BLU,2024-08-03T17:15:00Z,19,14,6+,29.82
LHSM,46.689,17.161,30,6,6.904679999999999,LHSM 031715Z AUTO 03006KT 360V060 CAVOK 26/11 Q1010,2024-08-03T17:15:00Z,26,11,6+,29.82
LHPR,47.627,17.808,340,5,5.7539,LHPR 031715Z AUTO 34005KT 310V020 CAVOK 24/11 Q1011,2024-08-03T17:15:00Z,24,11,6+,29.85
LHPP,45.991,18.241,330,13,14.960139999999999,LHPP 031715Z AUTO 33013KT 290V360 CAVOK 25/11 Q1011,2024-08-03T17:15:00Z,25,11,6+,29.85
LHPA,47.362,17.494,30,7,8.05546,LHPA 031715Z 03007KT CAVOK 25/10 Q1011 NOSIG RMK BLU,2024-08-03T17:15:00Z,25,10,6+,29.85
LHNY,47.985,21.692,350,9,10.357019999999999,LHNY 031715Z AUTO 35009KT 310V020 9999 ////// 17/14 Q1010,2024-08-03T17:15:00Z,17,14,6+,29.82
LHKE,46.917,19.749,40,9,10.357019999999999,LHKE 031715Z 04009KT 010V070 CAVOK 21/14 Q1010 NOSIG RMK BLU,2024-08-03T17:15:00Z,21,14,6+,29.82
LHDC,47.489,21.615,350,8,9.20624,LHDC 031715Z AUTO 35008KT 320V020 9999 -SHRA BKN019 BKN046 17/15 Q1009 RESHRA NOSIG,2024-08-03T17:15:00Z,17,15,6+,29.79
KZPH,28.2268,-82.1564,110,9,10.357019999999999,KZPH 031715Z AUTO 11009KT 7SM -VCTSRA SCT034 SCT048 BKN120 32/24 A2998 RMK A02 LTG DSNT NE THRU SW T03160243,2024-08-03T17:15:00Z,31.6,24.3,7,29.98
KZER,40.7072,-76.371,170,6,6.904679999999999,KZER 031715Z AUTO 17006KT 1SM +TSRA BKN004 BKN013 OVC026 21/20 A2991 RMK AO2 VIS 1/4V4 P0038 LTG DSNT NE E AND SW,2024-08-03T17:15:00Z,21,20,1,29.91
KY70,42.9398,-85.0653,350,5,5.7539,KY70 031715Z AUTO 35005KT 10SM CLR 29/17 A2994 RMK AO2 T02910170,2024-08-03T17:15:00Z,29.1,17,10+,29.94
KY63,45.9891,-95.9946,160,14,16.11092,KY63 031715Z AUTO 16014KT 10SM CLR 28/20 A2995 RMK AO2 T02830199,2024-08-03T17:15:00Z,28.3,19.9,10+,29.95
KY51,43.5814,-90.8997,360,5,5.7539,KY51 031715Z AUTO 36005KT 10SM CLR 27/13 A3003 RMK AO2 T02720129,2024-08-03T17:15:00Z,27.2,12.9,10+,30.03
KY49,47.1599,-94.6433,140,9,10.357019999999999,KY49 031715Z AUTO 14009KT 10SM VCTS CLR 26/17 A2993 RMK AO2 LTG DSNT N AND NE T02590167,2024-08-03T17:15:00Z,25.9,16.7,10+,29.93
KY31,44.2434,-84.18,300,9,10.357019999999999,KY31 031715Z AUTO 30009KT 290V360 10SM CLR 29/12 A2992 RMK AO2 T02930123,2024-08-03T17:15:00Z,29.3,12.3,10+,29.92
KY23,45.311,-91.638,0,0,0.0,KY23 031715Z AUTO 00000KT 10SM CLR 27/15 A3003 RMK AO2 T02740148,2024-08-03T17:15:00Z,27.4,14.8,10+,30.03
KY19,46.7648,-100.894,340,17,19.56326,KY19 031715Z AUTO 34017G28KT 10SM CLR 28/21 A2999 RMK AO2,2024-08-03T17:15:00Z,28,21,10+,29.99
KXSA,37.8606,-76.9016,190,8,9.20624,KXSA 031715Z AUTO 19008G14KT 10SM BKN025 BKN030 30/24 A2990 RMK AO2 T02990243,2024-08-03T17:15:00Z,29.9,24.3,10+,29.90
KXNX,36.3745,-86.41,VRB,4,4.60312,KXNX 031715Z AUTO VRB04KT 10SM FEW033 FEW041 SCT080 29/22 A3000 RMK A01,2024-08-03T17:15:00Z,29,22,10+,30.00
KXLL,40.5704,-75.4894,170,7,8.05546,KXLL 031715Z AUTO 17007KT 150V210 10SM SCT035 32/22 A2984 RMK AO2,2024-08-03T17:15:00Z,32,22,10+,29.84
KX60,29.3524,-82.4743,150,6,6.904679999999999,KX60 031715Z AUTO 15006KT 10SM BKN042 BKN048 BKN060 32/23 A2999 RMK AO2 LTG DSNT S T03250231,2024-08-03T17:15:00Z,32.5,23.1,10+,29.99
KX26,27.813,-80.497,130,4,4.60312,KX26 031715Z AUTO 13004KT 1SM +TSRA BR BKN016 OVC027 25/23 A3003 RMK AO2 LTG DSNT ALQDS P0064 T02510235,2024-08-03T17:15:00Z,25.1,23.5,1,30.03
KWYS,44.6811,-111.124,320,5,5.7539,KWYS 031715Z AUTO 32005KT 10SM CLR 25/04 A3034 RMK AO2,2024-08-03T17:15:00Z,25,4,10+,30.34
KWDR,33.981,-83.667,0,0,0.0,KWDR 031715Z AUTO 00000KT 10SM SCT033 SCT039 30/20 A2999 RMK AO2 LTG DSNT SE,2024-08-03T17:15:00Z,30,20,10+,29.99
KWBF,26.9305,-90.5069,VRB,3,3.4523399999999995,KWBF 031715Z AUTO VRB03KT 10SM FEW022 31/32 A3000 RMK A01,2024-08-03T17:15:00Z,31,32,10+,30.00
KW99,38.9947,-79.1421,260,9,10.357019999999999,KW99 031715Z AUTO 26009KT 2 1/2SM +RA BR FEW003 SCT070 OVC095 24/22 A2989 RMK AO2 LTG DSNT N - SE AND SW RAB1655 TSE1652 P0007 T02360224,2024-08-03T17:15:00Z,23.6,22.4,2.5,29.89
KW81,37.1813,-78.0977,190,6,6.904679999999999,KW81 031715Z AUTO 19006KT 10SM OVC023 29/21 A2992 RMK AO1 T02860213,2024-08-03T17:15:00Z,28.6,21.3,10+,29.92
KW78,36.7087,-78.846,190,5,5.7539,KW78 031715Z AUTO 19005KT 10SM BKN026 BKN041 OVC075 30/23 A2993 RMK AO1 T02970232,2024-08-03T17:15:00Z,29.7,23.2,10+,29.93
KW63,36.6008,-78.5559,190,3,3.4523399999999995,KW63 031715Z AUTO 19003KT 10SM BKN028 BKN036 OVC080 30/24 A2993 RMK AO1,2024-08-03T17:15:00Z,30,24,10+,29.93
KW43,44.6607,-104.568,10,7,8.05546,KW43 031715Z AUTO 01007KT 10SM CLR 32/06 A3021 RMK AO2,2024-08-03T17:15:00Z,32,6,10+,30.21
KW22,39.001,-80.2712,200,6,6.904679999999999,KW22 031715Z AUTO 20006KT 9SM SCT020 SCT034 OVC070 23/23 A2995 RMK AO2,2024-08-03T17:15:00Z,23,23,9,29.95
KVYS,41.3517,-89.1496,270,3,3.4523399999999995,KVYS 031715Z AUTO 27003KT 10SM CLR 31/23 A2997 RMK AO2 T03090229,2024-08-03T17:15:00Z,30.9,22.9,10+,29.97
KVWU,48.1502,-94.512,160,5,5.7539,KVWU 031715Z AUTO 16005KT 10SM VCTS CLR 22/18 A2997 RMK AO2 LTG DSNT ALQDS,2024-08-03T17:15:00Z,22,18,10+,29.97
KVVV,45.2994,-96.4256,170,7,8.05546,KVVV 031715Z AUTO 17007KT 10SM SCT100 31/24 A2993 RMK AO2,2024-08-03T17:15:00Z,31,24,10+,29.93
KVVS,39.9581,-79.6575,210,10,11.5078,KVVS 031715Z AUTO 21010KT 10SM SCT020 SCT026 SCT080 27/21 A2990 RMK AO2 T02680214,2024-08-03T17:15:00Z,26.8,21.4,10+,29.90
KVTP,37.512,-105.171,300,5,5.7539,KVTP 031715Z AUTO 30005KT 10SM SCT100 18/05 A3078 RMK AO2,2024-08-03T17:15:00Z,18,5,10+,30.78
KVTI,42.2176,-92.0248,340,8,9.20624,KVTI 031715Z AUTO 34008KT 10SM CLR 29/16 A3001 RMK AO2 T02910161,2024-08-03T17:15:00Z,29.1,16.1,10+,30.01
KVPC,34.1158,-84.8507,VRB,6,6.904679999999999,KVPC 031715Z AUTO VRB06KT 10SM FEW033 FEW060 30/21 A2999 RMK AO2,2024-08-03T17:15:00Z,30,21,10+,29.99
KVNC,27.0728,-82.44,110,11,12.658579999999999,KVNC 031715Z AUTO 11011G16KT 050V140 10SM SCT037 SCT085 33/26 A2994 RMK AO2 LTG DSNT ALQDS,2024-08-03T17:15:00Z,33,26,10+,29.94
KVLL,42.543,-83.178,340,5,5.7539,KVLL 031715Z AUTO 34005G08KT 10SM CLR 29/18 A2993 RMK AO2 T02910184,2024-08-03T17:15:00Z,29.1,18.4,10+,29.93
KVKS,32.2359,-90.9269,VRB,3,3.4523399999999995,KVKS 031715Z AUTO VRB03KT 10SM CLR 33/24 A2996 RMK A01,2024-08-03T17:15:00Z,33,24,10+,29.96
KVJI,36.6871,-82.037,260,5,5.7539,KVJI 031715Z AUTO 26005KT 10SM BKN021 BKN029 BKN048 24/20 A3000 RMK AO2 T02400201,2024-08-03T17:15:00Z,24,20.1,10+,30.00
KVHN,31.0602,-104.783,110,9,10.357019999999999,KVHN 031715Z AUTO 11009G15KT 080V150 10SM CLR 33/10 A3024 RMK AO2 T03310099,2024-08-03T17:15:00Z,33.1,9.9,10+,30.24
KVGC,42.8444,-75.5637,,,,KVGC 031715Z AUTO 10SM CLR 26/18 A2989 RMK AO2,2024-08-03T17:15:00Z,26,18,10+,29.89
KVES,40.2056,-84.5346,340,5,5.7539,KVES 031715Z AUTO 34005KT 7SM SCT026 SCT040 27/21 A2994 RMK AO2,2024-08-03T17:15:00Z,27,21,7,29.94
KVDI,32.1933,-82.3642,180,4,4.60312,KVDI 031715Z AUTO 18004KT 10SM SCT031 32/24 A2999 RMK AO2,2024-08-03T17:15:00Z,32,24,10+,29.99
KVDF,28.0198,-82.3415,100,8,9.20624,KVDF 031715Z AUTO 10008KT 7SM -RA SCT016 BKN040 BKN070 31/26 A2997 RMK AO2,2024-08-03T17:15:00Z,31,26,7,29.97
KVCV,34.5933,-117.389,0,0,0.0,KVCV 031715Z AUTO 00000KT 10SM CLR 32/08 A3011 RMK AO2,2024-08-03T17:15:00Z,32,8,10+,30.11
KVAF,27.3536,-94.6253,0,0,0.0,KVAF 031715Z AUTO 00000KT 5SM HZ CLR 34/23 A3002 RMK A01,2024-08-03T17:15:00Z,34,23,5,30.02
KUYF,39.9312,-83.465,350,5,5.7539,KUYF 031715Z AUTO 35005KT 10SM SCT023 BKN031 BKN038 27/20 A2995 RMK AO2,2024-08-03T17:15:00Z,27,20,10+,29.95
KUXL,30.135,-93.3767,340,3,3.4523399999999995,KUXL 031715Z AUTO 34003KT 7SM SCT031 SCT039 SCT050 A2999 RMK AO2,2024-08-03T17:15:00Z,,,7,29.99
KUVA,29.2135,-99.743,90,4,4.60312,KUVA 031715Z AUTO 09004KT 10SM SCT047 34/21 A3005 RMK AO2 T03400214,2024-08-03T17:15:00Z,34,21.4,10+,30.05
KUUV,38.2335,-91.1609,330,4,4.60312,KUUV 031715Z AUTO 33004KT 10SM SCT033 29/20 A3007 RMK AO2,2024-08-03T17:15:00Z,29,20,10+,30.07
KUTA,34.6766,-90.344,VRB,5,5.7539,KUTA 031715Z AUTO VRB05KT 10SM FEW045 31/22 A3001 RMK AO2 T03100225 $,2024-08-03T17:15:00Z,31,22.5,10+,30.01
KUSE,41.6118,-84.1275,,,,KUSE 031715Z AUTO 10SM CLR 31/20 A2992 RMK AO2,2024-08-03T17:15:00Z,31,20,10+,29.92
KUOX,34.3851,-89.5435,VRB,5,5.7539,KUOX 031715Z AUTO VRB05KT 10SM BKN042 BKN048 30/20 A3002 RMK AO2 PWINO,2024-08-03T17:15:00Z,30,20,10+,30.02
KUNU,43.4285,-88.7017,50,4,4.60312,KUNU 031715Z AUTO 05004KT 10SM CLR 28/20 A3001 RMK AO2 T02770196,2024-08-03T17:15:00Z,27.7,19.6,10+,30.01
KUNI,39.2129,-82.2204,290,5,5.7539,KUNI 031715Z AUTO 29005KT 10SM BKN017 OVC025 24/18 A2995 RMK AO2 T02440181,2024-08-03T17:15:00Z,24.4,18.1,10+,29.95
KUMP,39.936,-86.0478,VRB,5,5.7539,KUMP 031715Z AUTO VRB05KT 10SM FEW032 SCT360 29/22 A2997 RMK AO2 T02880221,2024-08-03T17:15:00Z,28.8,22.1,10+,29.97
KULS,37.6037,-101.377,280,8,9.20624,KULS 031715Z AUTO 28008KT 10SM CLR 31/19 A3015 RMK AO2,2024-08-03T17:15:00Z,31,19,10+,30.15
KULM,44.3228,-94.5024,180,8,9.20624,KULM 031715Z AUTO 18008KT 10SM CLR 27/18 A3001 RMK AO2,2024-08-03T17:15:00Z,27,18,10+,30.01
KUKT,40.4368,-75.3802,VRB,4,4.60312,KUKT 031715Z AUTO VRB04KT 10SM CLR 32/23 A2984 RMK AO2,2024-08-03T17:15:00Z,32,23,10+,29.84
KUKL,38.3041,-95.7217,0,0,0.0,KUKL 031715Z AUTO 00000KT 10SM CLR 30/18 A3010 RMK AO2 T03000184,2024-08-03T17:15:00Z,30,18.4,10+,30.10
KUBE,45.5046,-91.978,0,0,0.0,KUBE 031715Z AUTO 00000KT 10SM CLR 26/13 A3003 RMK AO2,2024-08-03T17:15:00Z,26,13,10+,30.03
KU69,40.198,-110.387,100,7,8.05546,KU69 031715Z AUTO 10007KT 10SM CLR 31/00 A3027 RMK A01,2024-08-03T17:15:00Z,31,0,10+,30.27
KU68,44.9113,-108.447,0,0,0.0,KU68 031715Z AUTO 00000KT 10SM CLR 30/03 A3019 RMK AO2,2024-08-03T17:15:00Z,30,3,10+,30.19
KU64,37.9333,-109.34,80,6,6.904679999999999,KU64 031715Z AUTO 08006KT 9SM CLR 27/09 A3045 RMK AO2 T02750087 $,2024-08-03T17:15:00Z,27.5,8.7,9,30.45
KU52,38.232,-112.672,310,8,9.20624,KU52 031715Z AUTO 31008KT 10SM CLR 30/10 A3029 RMK AO2 PWINO,2024-08-03T17:15:00Z,30,10,10+,30.29
KU42,40.6196,-111.99,150,16,18.41248,KU42 031715Z AUTO 15016G23KT 10SM CLR 33/04 A3017 RMK AO1 T03300042,2024-08-03T17:15:00Z,33,4.2,10+,30.17
KTYQ,40.0345,-86.2488,30,5,5.7539,KTYQ 031715Z AUTO 03005KT 10SM SCT032 28/22 A2998 RMK AO2 T02760219,2024-08-03T17:15:00Z,27.6,21.9,10+,29.98
KTYL,34.4577,-110.112,40,5,5.7539,KTYL 031715Z AUTO 04005KT 10SM CLR 29/09 A3034 RMK AO2,2024-08-03T17:15:00Z,29,9,10+,30.34
KTXW,26.1824,-97.9742,130,4,4.60312,KTXW 031715Z AUTO 13004KT 10SM CLR 32/22 A3000 RMK AO2 T03240219,2024-08-03T17:15:00Z,32.4,21.9,10+,30.00
KTWT,37.5432,-87.9568,330,4,4.60312,KTWT 031715Z AUTO 33004KT 10SM SCT026 SCT030 BKN037 31/23 A2999 RMK AO2,2024-08-03T17:15:00Z,31,23,10+,29.99
KTWM,47.0192,-91.7447,170,3,3.4523399999999995,KTWM 031715Z AUTO 17003KT 10SM CLR 25/16 A3003 RMK AO2 LTG DSNT SE,2024-08-03T17:15:00Z,25,16,10+,30.03
KTVY,40.6127,-112.354,70,8,9.20624,KTVY 031715Z AUTO 07008KT 10SM CLR 33/04 A3013 RMK AO2,2024-08-03T17:15:00Z,33,4,10+,30.13
KTVK,40.6832,-92.8984,0,0,0.0,KTVK 031715Z AUTO 00000KT 30/22 A3005 RMK A01,2024-08-03T17:15:00Z,30,22,,30.05
KTVI,30.9026,-83.8826,200,7,8.05546,KTVI 031715Z AUTO 20007KT 10SM BKN033 BKN044 BKN050 32/25 A3000 RMK AO2 LTG DSNT S AND SW,2024-08-03T17:15:00Z,32,25,10+,30.00
KTTF,41.9371,-83.4332,330,4,4.60312,KTTF 031715Z AUTO 33004KT 10SM CLR 30/21 A2990 RMK AO2 T02970211,2024-08-03T17:15:00Z,29.7,21.1,10+,29.90
KTSP,35.1387,-118.442,VRB,4,4.60312,KTSP 031715Z AUTO VRB04KT 10SM CLR 29/08 A3018 RMK AO2,2024-08-03T17:15:00Z,29,8,10+,30.18
KTQV,36.007,-78.937,180,13,14.960139999999999,KTQV 031715Z AUTO 18013KT 10SM SCT034 31/23 A2993 RMK A01,2024-08-03T17:15:00Z,31,23,10+,29.93
KTQH,35.9304,-95.0025,50,5,5.7539,KTQH 031715Z AUTO 05005KT 10SM SCT050 33/18 A3007 RMK AO2,2024-08-03T17:15:00Z,33,18,10+,30.07
KTPF,27.9153,-82.4518,170,19,21.864819999999998,KTPF 031715Z AUTO 17019G27KT 10SM BKN040 BKN046 OVC090 27/22 A2999 RMK AO2,2024-08-03T17:15:00Z,27,22,10+,29.99
KTOI,31.8574,-86.0103,210,5,5.7539,KTOI 031715Z AUTO 21005KT 10SM SCT026 SCT032 BKN050 32/26 A2996 RMK AO2 T03170261,2024-08-03T17:15:00Z,31.7,26.1,10+,29.96
KTOC,34.588,-83.2974,250,5,5.7539,KTOC 031715Z AUTO 25005KT 10SM BKN036 BKN044 BKN050 31/22 A2996 RMK AO2 T03060215,2024-08-03T17:15:00Z,30.6,21.5,10+,29.96
KTOB,44.0202,-92.8295,0,0,0.0,KTOB 031715Z AUTO 00000KT 10SM CLR 27/14 A3005 RMK AO2,2024-08-03T17:15:00Z,27,14,10+,30.05
KTNU,41.6701,-93.019,30,3,3.4523399999999995,KTNU 031715Z AUTO 03003KT 10SM CLR 29/16 A3003 RMK A01,2024-08-03T17:15:00Z,29,16,10+,30.03
KTNB,36.1988,-81.6515,330,7,8.05546,KTNB 031715Z AUTO 33007KT 10SM SCT036 SCT060 BKN090 23/18 A2988 RMK AO2 T02260176,2024-08-03T17:15:00Z,22.6,17.6,10+,29.88
KTMT,39.4643,-117.197,280,7,8.05546,KTMT 031715Z AUTO 28007KT 10SM CLR 29/09 A3025 RMK AO2 T02890085,2024-08-03T17:15:00Z,28.9,8.5,10+,30.25
KTMK,45.421,-123.814,0,0,0.0,KTMK 031715Z AUTO 00000KT 10SM BKN015 17/17 A3012 RMK AO2,2024-08-03T17:15:00Z,17,17,10+,30.12
KTME,29.806,-95.903,0,0,0.0,KTME 031715Z AUTO 00000KT 10SM CLR 34/26 A3002 RMK AO2,2024-08-03T17:15:00Z,34,26,10+,30.02
KTMA,31.4229,-83.4859,160,7,8.05546,KTMA 031715Z AUTO 16007KT 120V180 10SM FEW030 32/27 A3000 RMK AO2 LTG DSNT S AND W T03230268 $,2024-08-03T17:15:00Z,32.3,26.8,10+,30.00
KTKX,36.2226,-90.0367,60,6,6.904679999999999,KTKX 031715Z AUTO 06006KT 10SM FEW046 31/23 A3000 RMK AO2,2024-08-03T17:15:00Z,31,23,10+,30.00
KTKV,45.469,-89.805,350,4,4.60312,KTKV 031715Z AUTO 35004KT 10SM CLR 27/14 A3005 RMK AO2 T02720137 PWINO,2024-08-03T17:15:00Z,27.2,13.7,10+,30.05
KTKC,44.25,-95.612,180,8,9.20624,KTKC 031715Z AUTO 18008KT 10SM CLR 30/24 A3000 RMK AO2,2024-08-03T17:15:00Z,30,24,10+,30.00
KTIP,40.291,-88.146,310,6,6.904679999999999,KTIP 031715Z AUTO 31006KT 10SM CLR 29/23 A2999 RMK AO2 T02930228,2024-08-03T17:15:00Z,29.3,22.8,10+,29.99
KTIF,41.9646,-100.569,50,3,3.4523399999999995,KTIF 031715Z AUTO 05003KT 10SM CLR 33/13 A3010 RMK AO2 T03290131,2024-08-03T17:15:00Z,32.9,13.1,10+,30.10
KTHA,35.3804,-86.2419,330,6,6.904679999999999,KTHA 031715Z AUTO 33006KT 10SM SCT031 SCT041 28/20 A2999 RMK A01,2024-08-03T17:15:00Z,28,20,10+,29.99
KTGI,37.8279,-75.9964,200,9,10.357019999999999,KTGI 031715Z AUTO 20009KT 150V210 10SM CLR 32/26 A2990 RMK AO1 T03150263,2024-08-03T17:15:00Z,31.5,26.3,10+,29.90
KTFP,27.9132,-97.2132,280,3,3.4523399999999995,KTFP 031715Z AUTO 28003KT 10SM CLR 36/23 A2999 RMK AO1 T03640234,2024-08-03T17:15:00Z,36.4,23.4,10+,29.99
KTEX,37.954,-107.909,250,3,3.4523399999999995,KTEX 031715Z AUTO 25003KT 10SM CLR 23/01 A3060 RMK AO2,2024-08-03T17:15:00Z,23,1,10+,30.60
KTEW,42.5636,-84.4222,360,5,5.7539,KTEW 031715Z AUTO 36005KT 10SM CLR 29/18 A2994 RMK AO2 T02850177,2024-08-03T17:15:00Z,28.5,17.7,10+,29.94
KTCY,37.6919,-121.444,10,5,5.7539,KTCY 031715Z AUTO 01005KT 10SM CLR 30/14 A2993 RMK A01,2024-08-03T17:15:00Z,30,14,10+,29.93
KTBR,32.48,-81.738,220,7,8.05546,KTBR 031715Z AUTO 22007KT 10SM SCT033 BKN040 32/23 A2998 RMK AO2 T03170231,2024-08-03T17:15:00Z,31.7,23.1,10+,29.98
KT89,29.2774,-103.691,VRB,5,5.7539,KT89 031715Z AUTO VRB05KT 10SM CLR 33/14 A3011 RMK A01,2024-08-03T17:15:00Z,33,14,10+,30.11
KT82,30.239,-98.904,0,0,0.0,KT82 031715Z AUTO 00000KT 1/2SM HZ VV005 32/22 A3009 RMK AO2 VIS 1/4V4 T03230219,2024-08-03T17:15:00Z,32.3,21.9,0.5,30.09
KT78,30.0754,-94.6996,0,0,0.0,KT78 031715Z AUTO 00000KT 10SM CLR 33/25 A2999 RMK AO2,2024-08-03T17:15:00Z,33,25,10+,29.99
KT74,30.5704,-97.4447,350,7,8.05546,KT74 031715Z AUTO 35007KT 10SM SCT043 34/23 A3003 RMK AO2 T03380228,2024-08-03T17:15:00Z,33.8,22.8,10+,30.03
KT69,28.0418,-97.541,210,3,3.4523399999999995,KT69 031715Z AUTO 21003KT 10SM CLR 33/24 A3000 RMK A01,2024-08-03T17:15:00Z,33,24,10+,30.00
KT41,29.6709,-95.0644,30,3,3.4523399999999995,KT41 031715Z AUTO 03003KT 10SM SCT036 SCT050 33/25 A3000 RMK AO2 T03330246,2024-08-03T17:15:00Z,33.3,24.6,10+,30.00
KT35,30.8789,-96.9704,270,5,5.7539,KT35 031715Z AUTO 27005KT 10SM CLR 34/24 A3001 RMK AO2 T03430239 PWINO,2024-08-03T17:15:00Z,34.3,23.9,10+,30.01
KT20,29.5301,-97.463,270,3,3.4523399999999995,KT20 031715Z AUTO 27003KT 10SM CLR 35/24 A3001 RMK AO2 T03490235,2024-08-03T17:15:00Z,34.9,23.5,10+,30.01
KSZY,35.2064,-88.5012,VRB,4,4.60312,KSZY 031715Z AUTO VRB04KT 10SM FEW032 SCT040 SCT047 29/21 A3000 RMK A01,2024-08-03T17:15:00Z,29,21,10+,30.00
KSZT,48.2945,-116.567,0,0,0.0,KSZT 031715Z AUTO 00000KT 10SM CLR 23/13 A3004 RMK AO2,2024-08-03T17:15:00Z,23,13,10+,30.04
KSYM,38.2199,-83.5835,VRB,4,4.60312,KSYM 031715Z AUTO VRB04KT 10SM FEW017 SCT027 BKN037 25/20 A2997 RMK AO2,2024-08-03T17:15:00Z,25,20,10+,29.97
KSYI,35.5594,-86.4406,VRB,5,5.7539,KSYI 031715Z AUTO VRB05KT 10SM FEW031 28/21 A2998 RMK A01,2024-08-03T17:15:00Z,28,21,10+,29.98
KSYF,39.7583,-101.793,130,8,9.20624,KSYF 031715Z AUTO 13008KT 10SM CLR 32/13 A3016 RMK AO2,2024-08-03T17:15:00Z,32,13,10+,30.16
KSXU,34.9355,-104.637,180,6,6.904679999999999,KSXU 031715Z AUTO 18006KT 10SM CLR 27/14 A3028 RMK AO2 T02730141,2024-08-03T17:15:00Z,27.3,14.1,10+,30.28
KSXK,42.9895,-96.1645,180,4,4.60312,KSXK 031715Z AUTO 18004KT 10SM CLR 30/20 A3002 RMK AO2,2024-08-03T17:15:00Z,30,20,10+,30.02
KSWW,32.4688,-100.467,30,7,8.05546,KSWW 031715Z AUTO 03007G14KT 10SM 36/15 A3014 RMK AO2 T03630148,2024-08-03T17:15:00Z,36.3,14.8,10+,30.14
KSVC,32.631,-108.147,130,9,10.357019999999999,KSVC 031715Z AUTO 13009KT 10SM CLR 31/09 A3031 RMK AO2 T03090092,2024-08-03T17:15:00Z,30.9,9.2,10+,30.31
KSUZ,34.5862,-92.4802,0,0,0.0,KSUZ 031715Z AUTO 00000G10KT 9SM SCT046 32/22 A3002 RMK A01,2024-08-03T17:15:00Z,32,22,9,30.02
KSUW,46.6833,-92.0926,0,0,0.0,KSUW 031715Z AUTO 00000KT 10SM CLR 27/14 A3001 RMK AO2 T02700144,2024-08-03T17:15:00Z,27,14.4,10+,30.01
KSTK,40.6133,-103.261,0,0,0.0,KSTK 031715Z AUTO 00000KT 10SM CLR 29/15 A3019 RMK AO2,2024-08-03T17:15:00Z,29,15,10+,30.19
KSTF,33.4326,-88.8506,VRB,4,4.60312,KSTF 031715Z AUTO VRB04KT 10SM FEW044 FEW050 31/21 A2997 RMK AO2,2024-08-03T17:15:00Z,31,21,10+,29.97
KSTE,44.5437,-89.5347,350,5,5.7539,KSTE 031715Z AUTO 35005KT 10SM CLR 29/13 A3002 RMK AO2 T02880132,2024-08-03T17:15:00Z,28.8,13.2,10+,30.02
KSSI,31.1527,-81.3905,160,11,12.658579999999999,KSSI 031715Z AUTO 16011KT 10SM CLR 32/27 A3000 RMK AO2,2024-08-03T17:15:00Z,32,27,10+,30.00
KSRR,33.4667,-105.528,220,6,6.904679999999999,KSRR 031715Z AUTO 22006KT 10SM SCT120 26/09 A3045 RMK AO2,2024-08-03T17:15:00Z,26,9,10+,30.45
KSRE,35.271,-96.675,40,6,6.904679999999999,KSRE 031715Z AUTO 04006KT 10SM CLR 31/18 A3007 RMK AO2,2024-08-03T17:15:00Z,31,18,10+,30.07
KSPK,40.1497,-111.677,0,0,0.0,KSPK 031715Z AUTO 00000KT 10SM CLR 31/10 A3018 RMK AO2,2024-08-03T17:15:00Z,31,10,10+,30.18
KSPF,44.4811,-103.788,350,10,11.5078,KSPF 031715Z AUTO 35010G15KT 10SM CLR 32/10 A3018 RMK AO2,2024-08-03T17:15:00Z,32,10,10+,30.18
KSOW,34.2686,-110.002,220,12,13.809359999999998,KSOW 031715Z AUTO 22012KT 10SM CLR 30/07 A3038 RMK AO2,2024-08-03T17:15:00Z,30,7,10+,30.38
KSOA,30.5853,-100.651,30,6,6.904679999999999,KSOA 031715Z AUTO 03006KT 10SM CLR 35/19 A3016 RMK AO2,2024-08-03T17:15:00Z,35,19,10+,30.16
KSNL,35.3611,-96.9445,0,0,0.0,KSNL 031715Z AUTO 00000KT 10SM CLR 33/15 A3008 RMK AO2 T03270150,2024-08-03T17:15:00Z,32.7,15,10+,30.08
KSNK,32.6917,-100.951,350,7,8.05546,KSNK 031715Z AUTO 35007KT 330V050 10SM CLR 34/16 A3013 RMK AO2 T03370159,2024-08-03T17:15:00Z,33.7,15.9,10+,30.13
KSNC,41.383,-72.506,190,8,9.20624,KSNC 031715Z AUTO 19008KT 10SM CLR 31/24 A2984 RMK AO2,2024-08-03T17:15:00Z,31,24,10+,29.84
KSMS,34.0003,-80.3582,200,9,10.357019999999999,KSMS 031715Z AUTO 20009G15KT 9SM FEW041 34/25 A2996 RMK AO2 LTG DSNT SE AND S,2024-08-03T17:15:00Z,34,25,9,29.96
KSME,37.0529,-84.6141,270,7,8.05546,KSME 031715Z AUTO 27007KT 10SM FEW020 BKN024 BKN031 26/22 A2995 RMK AO2,2024-08-03T17:15:00Z,26,22,10+,29.95
KSMD,41.144,-85.1492,0,0,0.0,KSMD 031715Z AUTO 00000KT 5SM HZ SCT043 31/21 A2995 RMK A01,2024-08-03T17:15:00Z,31,21,5,29.95
KSLR,33.1615,-95.6189,360,5,5.7539,KSLR 031715Z AUTO 36005KT 10SM CLR 33/22 A3003 RMK AO2 T03260217,2024-08-03T17:15:00Z,32.6,21.7,10+,30.03
KSLO,38.6446,-88.9612,320,5,5.7539,KSLO 031715Z AUTO 32005KT 10SM SCT038 SCT046 SCT050 30/22 A3001 RMK AO2 T03040220,2024-08-03T17:15:00Z,30.4,22,10+,30.01
KSLH,45.6523,-84.5202,340,9,10.357019999999999,KSLH 031715Z AUTO 34009KT 7SM CLR 27/13 A2994 RMK AO2,2024-08-03T17:15:00Z,27,13,7,29.94
KSLB,42.5972,-95.2399,VRB,3,3.4523399999999995,KSLB 031715Z AUTO VRB03KT CLR 31/21 A3005 RMK AO2,2024-08-03T17:15:00Z,31,21,,30.05
KSJX,45.6928,-85.5662,280,7,8.05546,KSJX 031715Z AUTO 28007KT 10SM CLR 28/15 A2996 RMK AO2 T02810151,2024-08-03T17:15:00Z,28.1,15.1,10+,29.96
KSJS,37.7489,-82.6413,0,0,0.0,KSJS 031715Z AUTO 00000KT 10SM SCT020 BKN065 OVC080 24/20 A2997 RMK AO2 T02400198,2024-08-03T17:15:00Z,24,19.8,10+,29.97
KSIK,36.9027,-89.5577,VRB,5,5.7539,KSIK 031715Z AUTO VRB05KT 9SM SCT043 SCT055 31/21 A3000 RMK AO2 T03070214,2024-08-03T17:15:00Z,30.7,21.4,9,30.00
KSHL,43.2082,-95.8354,240,6,6.904679999999999,KSHL 031715Z AUTO 24006KT 10SM CLR 30/20 A3002 RMK AO2,2024-08-03T17:15:00Z,30,20,10+,30.02
KSHD,38.2601,-78.9013,240,14,16.11092,KSHD 031715Z AUTO 24014G17KT 10SM CLR 32/19 A2991 RMK AO2 T03180188,2024-08-03T17:15:00Z,31.8,18.8,10+,29.91
KSGS,44.8601,-93.0321,180,5,5.7539,KSGS 031715Z AUTO 18005KT 10SM CLR 27/13 A3001 RMK AO2 T02680133,2024-08-03T17:15:00Z,26.8,13.3,10+,30.01
KSFQ,36.6825,-76.6013,200,11,12.658579999999999,KSFQ 031715Z AUTO 20011G17KT 10SM 32/25 A2994 RMK AO2 T03210252,2024-08-03T17:15:00Z,32.1,25.2,10+,29.94
KSEZ,34.8467,-111.788,280,5,5.7539,KSEZ 031715Z AUTO 28005KT 10SM CLR 30/13 A3025 RMK AO2,2024-08-03T17:15:00Z,30,13,10+,30.25
KSEP,32.215,-98.1793,0,0,0.0,KSEP 031715Z AUTO 00000KT 10SM SCT090 31/21 A3008 RMK AO2 T03090212,2024-08-03T17:15:00Z,30.9,21.2,10+,30.08
KSEF,27.4553,-81.3415,90,7,8.05546,KSEF 031715Z AUTO 09007KT 10SM -RA SCT033 SCT044 SCT090 26/24 A3000 RMK AO2 LTG DSNT ALQDS T02630236,2024-08-03T17:15:00Z,26.3,23.6,10+,30.00
KSDC,43.2355,-77.1201,0,0,0.0,KSDC 031715Z AUTO 00000KT 10SM SCT029 27/20 A2987 RMK AO2,2024-08-03T17:15:00Z,27,20,10+,29.87
KSDA,40.7533,-95.4112,220,4,4.60312,KSDA 031715Z AUTO 22004KT 10SM CLR 30/24 A3004 RMK AO2,2024-08-03T17:15:00Z,30,24,10+,30.04
KSCX,36.4553,-84.584,0,0,0.0,KSCX 031715Z AUTO 00000KT 3SM BR FEW028 SCT039 BKN070 23/22 A3000 RMK A01,2024-08-03T17:15:00Z,23,22,3,30.00
KSCD,33.1732,-86.2933,0,0,0.0,KSCD 031715Z AUTO 00000KT 10SM SCT048 BKN100 OVC120 31/22 A2999 RMK AO2 T03120219,2024-08-03T17:15:00Z,31.2,21.9,10+,29.99
KSBX,48.541,-111.871,140,6,6.904679999999999,KSBX 031715Z AUTO 14006G11KT 10SM CLR 27/08 A3010 RMK AO2,2024-08-03T17:15:00Z,27,8,10+,30.10
KSBS,40.5153,-106.868,250,3,3.4523399999999995,KSBS 031715Z AUTO 25003KT 10SM CLR 27/04 A3038 RMK AO1 T02700043,2024-08-03T17:15:00Z,27,4.3,10+,30.38
KSBO,32.6111,-82.3702,180,10,11.5078,KSBO 031715Z AUTO 18010G14KT 10SM SCT029 SCT036 SCT046 32/24 A2998 RMK AO2,2024-08-03T17:15:00Z,32,24,10+,29.98
KSAZ,46.3785,-94.8017,170,11,12.658579999999999,KSAZ 031715Z AUTO 17011G15KT 10SM CLR 27/17 A2997 RMK AO2,2024-08-03T17:15:00Z,27,17,10+,29.97
KSAR,38.1463,-89.7025,360,5,5.7539,KSAR 031715Z AUTO 36005KT 10SM SCT039 29/22 A3002 RMK AO2 T02930216,2024-08-03T17:15:00Z,29.3,21.6,10+,30.02
KSAA,41.447,-106.815,90,5,5.7539,KSAA 031715Z AUTO 09005KT 10SM CLR 30/M01 A3041 RMK AO2,2024-08-03T17:15:00Z,30,-1,10+,30.41
KS52,48.4282,-120.15,330,6,6.904679999999999,KS52 031715Z AUTO 33006KT 10SM 32/12 A2994 RMK AO2 T03210116,2024-08-03T17:15:00Z,32.1,11.6,10+,29.94
KS39,44.2858,-120.901,VRB,4,4.60312,KS39 031715Z AUTO VRB04KT 10SM CLR 25/12 A3012 RMK AO2,2024-08-03T17:15:00Z,25,12,10+,30.12
KS34,47.4718,-114.901,0,0,0.0,KS34 031715Z AUTO 00000KT 9SM CLR 27/13 A3000 RMK AO2,2024-08-03T17:15:00Z,27,13,9,30.00
KS33,44.6653,-121.157,0,0,0.0,KS33 031715Z AUTO 00000KT 10SM CLR 26/13 A3011 RMK AO2,2024-08-03T17:15:00Z,26,13,10+,30.11
KS32,47.424,-98.11,350,11,12.658579999999999,KS32 031715Z AUTO 35011KT 10SM 28/25 A2991 RMK AO2 TSNO,2024-08-03T17:15:00Z,28,25,10+,29.91
KS25,47.7954,-103.257,30,11,12.658579999999999,KS25 031715Z AUTO 03011KT 10SM CLR 26/17 A3010 RMK AO2,2024-08-03T17:15:00Z,26,17,10+,30.10
KS24,41.296,-83.037,330,5,5.7539,KS24 031715Z AUTO 33005KT 8SM FEW023 FEW028 28/24 A2990 RMK AO2,2024-08-03T17:15:00Z,28,24,8,29.90
KS21,43.8801,-121.454,240,4,4.60312,KS21 031715Z AUTO 24004KT 6SM HZ FEW120 21/14 A3022 RMK AO2,2024-08-03T17:15:00Z,21,14,6,30.22
KS12,44.6394,-123.058,0,0,0.0,KS12 031715Z 00000KT 10SM CLR 20/16 A3008 RMK AO2 CAUTION: LG BIRDS IN VICINITY OF AIRPORT,2024-08-03T17:15:00Z,20,16,10+,30.08
KRZT,39.4402,-83.0209,0,0,0.0,KRZT 031715Z AUTO 00000KT 10SM BKN023 BKN036 25/20 A2995 RMK AO2 PWINO,2024-08-03T17:15:00Z,25,20,10+,29.95
KRZR,35.207,-84.8005,300,3,3.4523399999999995,KRZR 031715Z AUTO 30003KT 10SM FEW031 SCT050 28/22 A2996 RMK A01,2024-08-03T17:15:00Z,28,22,10+,29.96
KRZN,45.8229,-92.3706,180,3,3.4523399999999995,KRZN 031715Z AUTO 18003KT 10SM CLR 27/13 A3004 RMK AO2 T02650125,2024-08-03T17:15:00Z,26.5,12.5,10+,30.04
KRZL,40.9488,-87.1851,340,4,4.60312,KRZL 031715Z AUTO 34004KT 10SM CLR 28/21 A2997 RMK AO2,2024-08-03T17:15:00Z,28,21,10+,29.97
KRYW,30.498,-97.969,100,3,3.4523399999999995,KRYW 031715Z AUTO 10003KT CLR 33/23 A3009 RMK AO2 T03320231 PWINO,2024-08-03T17:15:00Z,33.2,23.1,,30.09
KRWV,30.5161,-96.7051,250,3,3.4523399999999995,KRWV 031715Z AUTO 25003KT 10SM SCT033 SCT040 33/25 A3002 RMK AO2 T03310246,2024-08-03T17:15:00Z,33.1,24.6,10+,30.02
KRVL,40.6768,-77.6251,0,0,0.0,KRVL 031715Z AUTO 00000KT 10SM CLR 27/23 A2982 RMK AO2,2024-08-03T17:15:00Z,27,23,10+,29.82
KRVJ,32.059,-82.153,0,0,0.0,KRVJ 031715Z AUTO 00000KT 10SM SCT033 BKN042 32/24 A2999 RMK AO2 T03190241,2024-08-03T17:15:00Z,31.9,24.1,10+,29.99
KRVF,45.534,-112.303,210,3,3.4523399999999995,KRVF 031715Z AUTO 21003KT 10SM CLR 24/07 A3021 RMK AO2,2024-08-03T17:15:00Z,24,7,10+,30.21
KRTS,39.6658,-119.873,270,9,10.357019999999999,KRTS 031715Z AUTO 27009G15KT 10SM BKN110 26/07 A3025 RMK AO2,2024-08-03T17:15:00Z,26,7,10+,30.25
KRSN,32.5159,-92.5899,60,7,8.05546,KRSN 031715Z AUTO 06007KT 030V090 10SM A2999 RMK AO2 $,2024-08-03T17:15:00Z,,,10+,29.99
KRRT,48.9318,-95.3405,80,6,6.904679999999999,KRRT 031715Z AUTO 08006KT 10SM OVC060 21/18 A2996 RMK AO2 LTG DSNT SE AND S,2024-08-03T17:15:00Z,21,18,10+,29.96
KRQB,43.722,-85.498,320,7,8.05546,KRQB 031715Z AUTO 32007KT 10SM CLR 29/13 A2996 RMK AO2 T02900134,2024-08-03T17:15:00Z,29,13.4,10+,29.96
KRPJ,41.8906,-89.0817,0,0,0.0,KRPJ 031715Z AUTO 00000KT 10SM CLR 30/19 A2998 RMK AO2 T03000192,2024-08-03T17:15:00Z,30,19.2,10+,29.98
KRPH,33.1096,-98.5537,VRB,4,4.60312,KRPH 031715Z AUTO VRB04KT 10SM CLR 35/16 A3003 RMK AO2 T03460163,2024-08-03T17:15:00Z,34.6,16.3,10+,30.03
KRPD,45.4186,-91.7764,70,3,3.4523399999999995,KRPD 031715Z AUTO 07003KT 10SM CLR 27/13 A3004 RMK AO2 T02700132,2024-08-03T17:15:00Z,27,13.2,10+,30.04
KROX,48.856,-95.6949,90,9,10.357019999999999,KROX 031715Z AUTO 09009KT 10SM OVC060 22/18 A2994 RMK AO2,2024-08-03T17:15:00Z,22,18,10+,29.94
KROS,45.6962,-92.9543,0,0,0.0,KROS 031715Z AUTO 00000KT 10SM CLR 25/15 A3003 RMK AO2 LTG DSNT N T02470150,2024-08-03T17:15:00Z,24.7,15,10+,30.03
KRNV,33.762,-90.759,10,7,8.05546,KRNV 031715Z AUTO 01007KT 340V040 10SM CLR 31/23 A2999 RMK AO2 T03140228 $,2024-08-03T17:15:00Z,31.4,22.8,10+,29.99
KRNP,42.9937,-84.1347,330,5,5.7539,KRNP 031715Z AUTO 33005KT 10SM CLR 28/15 A2993 RMK AO2 T02810152,2024-08-03T17:15:00Z,28.1,15.2,10+,29.93
KRNC,35.6991,-85.8402,290,4,4.60312,KRNC 031715Z AUTO 29004KT 10SM FEW028 FEW033 28/20 A2999 RMK A01,2024-08-03T17:15:00Z,28,20,10+,29.99
KRMY,42.2524,-84.9526,360,3,3.4523399999999995,KRMY 031715Z AUTO 36003KT 10SM SCT029 28/20 A2994 RMK AO2 T02830201,2024-08-03T17:15:00Z,28.3,20.1,10+,29.94
KRMN,38.3941,-77.4523,240,9,10.357019999999999,KRMN 031715Z AUTO 24009KT 210V270 10SM CLR 33/20 A2985 RMK AO2 T03310201,2024-08-03T17:15:00Z,33.1,20.1,10+,29.85
KRLD,46.3086,-119.306,300,3,3.4523399999999995,KRLD 031715Z AUTO 30003KT 10SM CLR 32/14 A2991 RMK AO2 T03170141,2024-08-03T17:15:00Z,31.7,14.1,10+,29.91
KRKR,35.0187,-94.6202,60,4,4.60312,KRKR 031715Z AUTO 06004KT 10SM CLR 32/20 A3004 RMK AO2,2024-08-03T17:15:00Z,32,20,10+,30.04
KRGK,44.5927,-92.4844,0,0,0.0,KRGK 031715Z AUTO 00000KT 10SM CLR 27/16 A3000 RMK AO2,2024-08-03T17:15:00Z,27,16,10+,30.00
KRGA,37.6305,-84.329,340,6,6.904679999999999,KRGA 031715Z AUTO 34006G09KT 10SM BKN019 BKN027 OVC032 26/21 A2998 RMK AO2,2024-08-03T17:15:00Z,26,21,10+,29.98
KRFI,32.1441,-94.8539,10,7,8.05546,KRFI 031715Z AUTO 01007KT 10SM CLR 37/19 A3000 RMK AO2 T03670193 PWINO,2024-08-03T17:15:00Z,36.7,19.3,10+,30.00
KREG,30.1756,-90.9397,80,11,12.658579999999999,KREG 031715Z AUTO 08011G14KT 10SM -TSRA SCT030 BKN035 BKN043 31/24 A2996 RMK AO2 LTG DSNT ALQDS T03070235,2024-08-03T17:15:00Z,30.7,23.5,10+,29.96
KRDK,41.0107,-95.2622,VRB,4,4.60312,KRDK 031715Z AUTO VRB04KT 10SM CLR 31/23 A3005 RMK AO2,2024-08-03T17:15:00Z,31,23,10+,30.05
KRCX,45.4935,-90.9985,0,0,0.0,KRCX 031715Z AUTO 00000KT 10SM CLR 26/15 A3005 RMK AO2 T02610145,2024-08-03T17:15:00Z,26.1,14.5,10+,30.05
KRCV,37.7092,-106.355,90,4,4.60312,KRCV 031715Z AUTO 09004G09KT 10SM CLR 24/08 A3051 RMK AO2 T02380081,2024-08-03T17:15:00Z,23.8,8.1,10+,30.51
KRCR,41.0651,-86.1864,0,0,0.0,KRCR 031715Z AUTO 00000KT 10SM CLR 29/24 A2995 RMK AO2,2024-08-03T17:15:00Z,29,24,10+,29.95
KRCE,35.4971,-97.8255,20,7,8.05546,KRCE 031715Z AUTO 02007KT 360V060 10SM CLR 33/13 A3010 RMK AO2 TSNO,2024-08-03T17:15:00Z,33,13,10+,30.10
KRBW,32.921,-80.64,210,10,11.5078,KRBW 031715Z AUTO 21010G15KT 10SM CLR 32/23 A2999 RMK AO2,2024-08-03T17:15:00Z,32,23,10+,29.99
KRBO,27.7781,-97.6878,0,0,0.0,KRBO 031715Z AUTO 00000KT CLR 32/24 A3000 RMK AO2 T03240241 PWINO,2024-08-03T17:15:00Z,32.4,24.1,,30.00
KRAW,38.3484,-93.3436,0,0,0.0,KRAW 031715Z AUTO 00000KT 10SM CLR 30/19 A3008 RMK AO2,2024-08-03T17:15:00Z,30,19,10+,30.08
KRAS,27.8083,-97.0853,290,4,4.60312,KRAS 031715Z AUTO 29004KT 10SM CLR 32/21 A3002 RMK AO2 T03190215,2024-08-03T17:15:00Z,31.9,21.5,10+,30.02
KPZZ,28.4344,-91.0344,330,7,8.05546,KPZZ 031715Z AUTO 33007KT 9SM FEW025 FEW041 31/26 A2999 RMK A01,2024-08-03T17:15:00Z,31,26,9,29.99
KPZQ,45.4085,-83.812,330,10,11.5078,KPZQ 031715Z AUTO 33010G16KT 10SM CLR 27/15 A2994 RMK AO2 T02700151,2024-08-03T17:15:00Z,27,15.1,10+,29.94
KPYX,36.4103,-100.751,180,14,16.11092,KPYX 031715Z AUTO 18014G20KT 10SM CLR A3014 RMK AO2,2024-08-03T17:15:00Z,,,10+,30.14
KPXE,32.5072,-83.7656,200,8,9.20624,KPXE 031715Z AUTO 20008KT 180V240 10SM BKN029 BKN035 31/25 A2998 RMK AO2 T03130251,2024-08-03T17:15:00Z,31.3,25.1,10+,29.98
KPWD,48.7912,-104.525,30,12,13.809359999999998,KPWD 031715Z AUTO 03012KT 10SM CLR 26/09 A3014 RMK AO2,2024-08-03T17:15:00Z,26,9,10+,30.14
KPWC,46.7266,-94.3849,170,12,13.809359999999998,KPWC 031715Z AUTO 17012KT 10SM CLR 26/16 A2999 RMK AO2 LTG DSNT N AND NE,2024-08-03T17:15:00Z,26,16,10+,29.99
KPVW,34.169,-101.723,130,10,11.5078,KPVW 031715Z AUTO 13010KT 10SM CLR 32/12 A3020 RMK AO2 T03200120,2024-08-03T17:15:00Z,32,12,10+,30.20
KPVJ,34.7041,-97.2211,60,4,4.60312,KPVJ 031715Z AUTO 06004KT 10SM CLR 33/15 A3006 RMK AO2 T03250148,2024-08-03T17:15:00Z,32.5,14.8,10+,30.06
KPVF,38.7222,-120.757,190,3,3.4523399999999995,KPVF 031715Z AUTO 19003KT 10SM CLR 28/12 A3009 RMK AO1,2024-08-03T17:15:00Z,28,12,10+,30.09
KPVE,35.6592,-88.1929,0,0,0.0,KPVE 031715Z AUTO 00000KT 10SM SCT034 BKN045 29/22 A2999 RMK A01,2024-08-03T17:15:00Z,29,22,10+,29.99
KPVB,42.6909,-90.4413,340,7,8.05546,KPVB 031715Z AUTO 34007KT 10SM CLR 29/20 A3000 RMK AO1 T02850195,2024-08-03T17:15:00Z,28.5,19.5,10+,30.00
KPUJ,33.9085,-84.9369,340,5,5.7539,KPUJ 031715Z AUTO 34005KT 7SM SCT030 28/20 A3001 RMK AO2,2024-08-03T17:15:00Z,28,20,7,30.01
KPTT,37.7069,-98.7453,180,5,5.7539,KPTT 031715Z AUTO 18005KT 10SM CLR 32/15 A3014 RMK AO2 T03240145,2024-08-03T17:15:00Z,32.4,14.5,10+,30.14
KPTS,37.4512,-94.7322,50,3,3.4523399999999995,KPTS 031715Z AUTO 05003KT 10SM CLR 31/16 A3007 RMK AO2 T03060162 PWINO,2024-08-03T17:15:00Z,30.6,16.2,10+,30.07
KPTD,44.6757,-74.9469,250,7,8.05546,KPTD 031715Z AUTO 25007KT 10SM CLR 28/22 A2982 RMK AO2,2024-08-03T17:15:00Z,28,22,10+,29.82
KPTB,37.1803,-77.5081,220,8,9.20624,KPTB 031715Z AUTO 22008KT 7SM SCT028 SCT036 31/24 A2992 RMK AO2 T03100236,2024-08-03T17:15:00Z,31,23.6,7,29.92
KPSO,37.291,-107.056,200,5,5.7539,KPSO 031715Z AUTO 20005KT 10SM CLR 27/07 A3046 RMK AO2 T02660067,2024-08-03T17:15:00Z,26.6,6.7,10+,30.46
KPSN,31.7784,-95.7048,VRB,4,4.60312,KPSN 031715Z AUTO VRB04KT 9SM CLR 31/23 A2998 RMK AO2,2024-08-03T17:15:00Z,31,23,9,29.98
KPSK,37.1337,-80.6789,290,8,9.20624,KPSK 031715Z AUTO 29008KT 10SM SCT033 BKN038 BKN048 26/20 A2996 RMK AO2 LTG DSNT S T02570195,2024-08-03T17:15:00Z,25.7,19.5,10+,29.96
KPRS,29.6346,-104.358,50,7,8.05546,KPRS 031715Z AUTO 05007KT 10SM CLR 32/12 A3015 RMK AO2 T03230116,2024-08-03T17:15:00Z,32.3,11.6,10+,30.15
KPRG,39.6982,-87.6669,320,3,3.4523399999999995,KPRG 031715Z AUTO 32003KT 10SM CLR 30/22 A2999 RMK AO2 T02950218,2024-08-03T17:15:00Z,29.5,21.8,10+,29.99
KPPQ,39.6391,-90.7818,280,5,5.7539,KPPQ 031715Z AUTO 28005KT 10SM CLR 30/22 A3003 RMK AO2 T03010219,2024-08-03T17:15:00Z,30.1,21.9,10+,30.03
KPPO,41.5705,-86.7333,340,7,8.05546,KPPO 031715Z AUTO 34007KT 10SM CLR 30/20 A2996 RMK AO2,2024-08-03T17:15:00Z,30,20,10+,29.96
KPPA,35.6139,-100.997,190,12,13.809359999999998,KPPA 031715Z AUTO 19012KT 10SM CLR 33/14 A3020 RMK AO2 T03330139,2024-08-03T17:15:00Z,33.3,13.9,10+,30.20
KPOY,44.8641,-108.79,280,3,3.4523399999999995,KPOY 031715Z AUTO 28003KT 10SM CLR 30/00 A3025 RMK AO2,2024-08-03T17:15:00Z,30,0,10+,30.25
KPOV,41.209,-81.2479,160,3,3.4523399999999995,KPOV 031715Z AUTO 16003KT 1/2SM BKN006 BKN010 OVC017 20/18 A2993 RMK AO2 P0015 T01980184 PWINO,2024-08-03T17:15:00Z,19.8,18.4,0.5,29.93
KPO1,48.134,-105.162,70,11,12.658579999999999,KPO1 031715Z AUTO 07011KT 10SM CLR 27/12 A3012 RMK AO2,2024-08-03T17:15:00Z,27,12,10+,30.12
KPNT,40.9233,-88.6213,310,3,3.4523399999999995,KPNT 031715Z AUTO 31003KT 10SM SCT036 SCT046 30/22 A2998 RMK AO2 T02950218,2024-08-03T17:15:00Z,29.5,21.8,10+,29.98
KPNM,45.556,-93.608,160,5,5.7539,KPNM 031715Z AUTO 16005KT 10SM CLR 27/16 A3002 RMK AO2,2024-08-03T17:15:00Z,27,16,10+,30.02
KPNA,42.7929,-109.805,0,0,0.0,KPNA 031715Z AUTO 00000KT 10SM CLR 29/00 A3041 RMK AO2,2024-08-03T17:15:00Z,29,0,10+,30.41
KPMU,34.3656,-89.8904,0,0,0.0,KPMU 031715Z AUTO 00000KT 10SM CLR 31/21 A3000 RMK AO2,2024-08-03T17:15:00Z,31,21,10+,30.00
KPLU,47.1005,-122.285,0,0,0.0,KPLU 031715Z AUTO 00000KT 10SM FEW013 20/15 A3010 RMK AO2,2024-08-03T17:15:00Z,20,15,10+,30.10
KPLR,33.5608,-86.2463,0,0,0.0,KPLR 031715Z AUTO 00000KT 10SM FEW041 SCT050 SCT080 31/22 A2998 RMK A01,2024-08-03T17:15:00Z,31,22,10+,29.98
KPJC,40.8009,-80.1624,290,4,4.60312,KPJC 031715Z AUTO 29004KT 10SM VCTS SCT029 BKN040 BKN050 21/20 A2989 RMK AO2 P0001 LTG DSNT ALQDS,2024-08-03T17:15:00Z,21,20,10+,29.89
KPIM,32.8421,-84.8766,240,5,5.7539,KPIM 031715Z AUTO 24005KT 10SM FEW027 SCT041 SCT060 30/24 A2999 RMK AO2,2024-08-03T17:15:00Z,30,24,10+,29.99
KPHT,36.3322,-88.3871,0,0,0.0,KPHT 031715Z AUTO 00000KT 10SM FEW033 FEW044 30/21 A3000 RMK A01,2024-08-03T17:15:00Z,30,21,10+,30.00
KPHN,42.9103,-82.5332,330,7,8.05546,KPHN 031715Z AUTO 33007KT 10SM CLR 28/17 A2990 RMK AO2,2024-08-03T17:15:00Z,28,17,10+,29.90
KPEZ,28.9561,-98.5184,160,8,9.20624,KPEZ 031715Z AUTO 16008KT 130V280 10SM SCT048 35/22 A3003 RMK AO2 T03510220,2024-08-03T17:15:00Z,35.1,22,10+,30.03
KPEX,45.3725,-94.7388,190,7,8.05546,KPEX 031715Z AUTO 19007KT 10SM CLR 26/18 A2999 RMK AO2,2024-08-03T17:15:00Z,26,18,10+,29.99
KPEQ,31.382,-103.512,70,4,4.60312,KPEQ 031715Z AUTO 07004KT 10SM CLR 34/09 A3012 RMK AO2 T03440090,2024-08-03T17:15:00Z,34.4,9,10+,30.12
KPEA,41.3989,-92.9431,0,0,0.0,KPEA 031715Z AUTO 00000KT 10SM CLR 29/20 A3004 RMK AO2 T02910199,2024-08-03T17:15:00Z,29.1,19.9,10+,30.04
KPDC,43.0194,-91.1212,0,0,0.0,KPDC 031715Z AUTO 00000KT 10SM CLR 29/17 A2999 RMK AO2 T02890170,2024-08-03T17:15:00Z,28.9,17,10+,29.99
KPCZ,44.3342,-89.0203,320,3,3.4523399999999995,KPCZ 031715Z AUTO 32003KT 10SM CLR 29/13 A3000 RMK AO2 T02940125,2024-08-03T17:15:00Z,29.4,12.5,10+,30.00
KPCW,41.5188,-82.8692,350,7,8.05546,KPCW 031715Z AUTO 35007KT 7SM CLR 26/23 A2990 RMK AO2,2024-08-03T17:15:00Z,26,23,7,29.90
KPCM,28.0013,-82.1593,150,13,14.960139999999999,KPCM 031715Z AUTO 15013G18KT 10SM SCT034 SCT041 BKN050 28/24 A3001 RMK AO2,2024-08-03T17:15:00Z,28,24,10+,30.01
KPCD,37.8749,-89.8582,310,5,5.7539,KPCD 031715Z AUTO 31005KT 10SM SCT033 BKN042 30/23 A3000 RMK AO2 T03000227,2024-08-03T17:15:00Z,30,22.7,10+,30.00
KPBX,37.5587,-82.5674,290,4,4.60312,KPBX 031715Z AUTO 29004KT 10SM SCT025 SCT037 BKN045 25/20 A2996 RMK AO2 T02520195,2024-08-03T17:15:00Z,25.2,19.5,10+,29.96
KPBH,45.7064,-90.4052,330,3,3.4523399999999995,KPBH 031715Z AUTO 33003KT 10SM CLR 26/14 A3004 RMK AO2 T02570139,2024-08-03T17:15:00Z,25.7,13.9,10+,30.04
KPAN,34.2551,-111.338,VRB,4,4.60312,KPAN 031715Z AUTO VRB04KT 10SM CLR 30/10 A3029 RMK AO2 PWINO TSNO,2024-08-03T17:15:00Z,30,10,10+,30.29
KP52,34.7263,-112.034,0,0,0.0,KP52 031715Z AUTO 00000KT 10SM CLR 30/16 A3015 RMK AO2,2024-08-03T17:15:00Z,30,16,10+,30.15
KP08,32.9359,-111.427,0,0,0.0,KP08 031715Z AUTO 00000KT 10SM CLR 39/12 A2997 RMK AO2,2024-08-03T17:15:00Z,39,12,10+,29.97
KOZW,42.6327,-83.9854,310,5,5.7539,KOZW 031715Z AUTO 31005KT 10SM CLR 28/18 A2994 RMK AO2 T02790175,2024-08-03T17:15:00Z,27.9,17.5,10+,29.94
KOZS,37.9745,-92.6897,40,4,4.60312,KOZS 031715Z AUTO 04004KT 10SM SCT034 30/17 A3008 RMK AO2,2024-08-03T17:15:00Z,30,17,10+,30.08
KOZA,30.7312,-101.203,0,0,0.0,KOZA 031715Z AUTO 00000KT 10SM CLR 33/16 A3014 RMK AO2,2024-08-03T17:15:00Z,33,16,10+,30.14
KOYM,41.4118,-78.5131,0,0,0.0,KOYM 031715Z AUTO 00000KT 10SM VCTS SCT020 BKN090 OVC110 23/20 A2996 RMK AO2 LTG DSNT E THRU SW P0001,2024-08-03T17:15:00Z,23,20,10+,29.96
KOYE,28.8669,-90.4911,300,6,6.904679999999999,KOYE 031715Z AUTO 30006KT 10SM CLR 33/25 A2998 RMK A01,2024-08-03T17:15:00Z,33,25,10+,29.98
KOXV,41.2984,-93.1114,290,4,4.60312,KOXV 031715Z AUTO 29004KT 10SM CLR 30/21 A3003 RMK AO2,2024-08-03T17:15:00Z,30,21,10+,30.03
KOXI,41.3275,-86.665,340,5,5.7539,KOXI 031715Z AUTO 34005KT 10SM SCT036 30/17 A2995 RMK AO1,2024-08-03T17:15:00Z,30,17,10+,29.95
KOWP,36.1721,-96.1536,350,4,4.60312,KOWP 031715Z AUTO 35004KT 10SM CLR 34/16 A3010 RMK AO2 T03400158,2024-08-03T17:15:00Z,34,15.8,10+,30.10
KOVL,44.7792,-95.0304,170,8,9.20624,KOVL 031715Z AUTO 17008KT 10SM CLR 27/19 A2999 RMK AO2,2024-08-03T17:15:00Z,27,19,10+,29.99
KOSC,44.453,-83.396,340,11,12.658579999999999,KOSC 031715Z AUTO 34011G16KT 10SM CLR 30/18 A2990 RMK AO2 T03000178,2024-08-03T17:15:00Z,30,17.8,10+,29.90
KOSA,33.0936,-94.9601,70,8,9.20624,KOSA 031715Z AUTO 07008KT 10SM SCT034 32/24 A3000 RMK AO2 T03240244,2024-08-03T17:15:00Z,32.4,24.4,10+,30.00
KORS,48.7081,-122.909,160,5,5.7539,KORS 031715Z AUTO 16005KT 10SM CLR 17/12 A3006 RMK AO2,2024-08-03T17:15:00Z,17,12,10+,30.06
KORK,34.833,-92.2557,VRB,4,4.60312,KORK 031715Z AUTO VRB04KT 10SM FEW039 M01/M06 A3002 RMK AO2,2024-08-03T17:15:00Z,-1,-6,10+,30.02
KORG,30.068,-93.8043,330,4,4.60312,KORG 031715Z AUTO 33004KT 10SM SCT033 SCT055 34/24 A3000 RMK AO2 T03380236,2024-08-03T17:15:00Z,33.8,23.6,10+,30.00
KOQN,39.9889,-75.5803,180,5,5.7539,KOQN 031715Z AUTO 18005KT 10SM SCT027 SCT033 31/23 A2986 RMK AO2,2024-08-03T17:15:00Z,31,23,10+,29.86
KOPN,32.954,-84.2595,210,3,3.4523399999999995,KOPN 031715Z AUTO 21003KT 10SM SCT030 SCT036 SCT042 A3000 RMK AO2 LTG DSNT NE,2024-08-03T17:15:00Z,,,10+,30.00
KOOA,41.2273,-92.4919,0,0,0.0,KOOA 031715Z AUTO 00000KT 5SM CLR 30/20 A3003 RMK AO2 T03020199,2024-08-03T17:15:00Z,30.2,19.9,5,30.03
KONZ,42.0991,-83.161,60,8,9.20624,KONZ 031715Z AUTO 06008KT 7SM BKN100 BKN120 30/13 A2989 RMK AO2 T02970133,2024-08-03T17:15:00Z,29.7,13.3,7,29.89
KONP,44.5825,-124.057,340,7,8.05546,KONP 031715Z AUTO 34007KT 10SM OVC013 16/13 A3014 RMK AO2,2024-08-03T17:15:00Z,16,13,10+,30.14
KONM,34.0263,-106.904,170,4,4.60312,KONM 031715Z AUTO 17004KT 10SM CLR 31/10 A3028 RMK AO2 T03140096,2024-08-03T17:15:00Z,31.4,9.6,10+,30.28
KONL,42.4691,-98.6903,180,11,12.658579999999999,KONL 031715Z AUTO 18011G18KT 10SM CLR 33/16 A3006 RMK AO2 T03290156,2024-08-03T17:15:00Z,32.9,15.6,10+,30.06
KONA,44.076,-91.707,0,0,0.0,KONA 031715Z AUTO 00000KT 10SM CLR 27/17 A3002 RMK AO2,2024-08-03T17:15:00Z,27,17,10+,30.02
KOMH,38.2487,-78.0454,200,11,12.658579999999999,KOMH 031715Z AUTO 20011G15KT 10SM SCT037 32/22 A2987 RMK AO2,2024-08-03T17:15:00Z,32,22,10+,29.87
KOLZ,42.6831,-91.976,360,9,10.357019999999999,KOLZ 031715Z AUTO 36009KT 5SM HZ CLR 27/17 A3003 RMK A01,2024-08-03T17:15:00Z,27,17,5,30.03
KOLY,38.7213,-88.1799,350,3,3.4523399999999995,KOLY 031715Z AUTO 35003KT 10SM SCT032 30/21 A3000 RMK AO2 T02980214,2024-08-03T17:15:00Z,29.8,21.4,10+,30.00
KOLG,46.3153,-91.8183,180,5,5.7539,KOLG 031715Z AUTO 18005KT 10SM CLR 27/12 A3002 RMK AO1,2024-08-03T17:15:00Z,27,12,10+,30.02
KOLE,42.2429,-78.3721,0,0,0.0,KOLE 031715Z AUTO 00000KT 10SM -RA SCT005 BKN041 OVC085 A2994 RMK AO2 LTG DSNT S AND SW,2024-08-03T17:15:00Z,,,10+,29.94
KOKZ,32.9651,-82.8387,220,6,6.904679999999999,KOKZ 031715Z AUTO 22006KT 10SM BKN026 BKN035 BKN095 31/25 A2996 RMK AO2 LTG DSNT W AND NW T03100248,2024-08-03T17:15:00Z,31,24.8,10+,29.96
KOKV,39.1406,-78.1391,30,6,6.904679999999999,KOKV 031715Z AUTO 03006KT 10SM SCT048 SCT055 BKN085 27/20 A2983 RMK AO2 LTG DSNT SW,2024-08-03T17:15:00Z,27,20,10+,29.83
KOKM,35.6713,-95.9514,70,5,5.7539,KOKM 031715Z AUTO 07005KT 10SM CLR 33/18 A3006 RMK AO2 T03290183,2024-08-03T17:15:00Z,32.9,18.3,10+,30.06
KOJA,35.5484,-98.6702,90,4,4.60312,KOJA 031715Z AUTO 09004KT 10SM CLR 33/13 A3011 RMK AO2 T03280134,2024-08-03T17:15:00Z,32.8,13.4,10+,30.11
KOIN,39.8298,-100.538,200,8,9.20624,KOIN 031715Z AUTO 20008KT CLR 32/16 A3018 RMK AO1 T03230158 PWINO,2024-08-03T17:15:00Z,32.3,15.8,,30.18
KOIC,42.5642,-75.5269,0,0,0.0,KOIC 031715Z AUTO 00000KT 10SM SCT033 BKN045 26/19 A2991 RMK AO2 T02550193,2024-08-03T17:15:00Z,25.5,19.3,10+,29.91
KOGS,44.68,-75.4641,210,7,8.05546,KOGS 031715Z AUTO 21007KT 10SM FEW022 29/24 A2979 RMK AO2,2024-08-03T17:15:00Z,29,24,10+,29.79
KOGA,41.1164,-101.768,230,5,5.7539,KOGA 031715Z AUTO 23005KT 10SM CLR 31/17 A3014 RMK AO2 T03050166,2024-08-03T17:15:00Z,30.5,16.6,10+,30.14
KOEO,45.3108,-92.6948,0,0,0.0,KOEO 031715Z AUTO 00000KT 10SM CLR 27/17 A3005 RMK AO2 T02670166 PWINO,2024-08-03T17:15:00Z,26.7,16.6,10+,30.05
KOEL,39.1139,-100.819,190,12,13.809359999999998,KOEL 031715Z AUTO 19012G17KT 10SM CLR 30/14 A3017 RMK AO1 T03040140,2024-08-03T17:15:00Z,30.4,14,10+,30.17
KOCQ,44.8749,-87.9084,330,4,4.60312,KOCQ 031715Z AUTO 33004KT 10SM CLR 29/14 A2999 RMK AO1 T02880144,2024-08-03T17:15:00Z,28.8,14.4,10+,29.99
KOBE,27.2663,-80.8487,VRB,5,5.7539,KOBE 031715Z AUTO VRB05G11KT 10SM VCTS CLR 28/23 A2998 RMK AO2 LTG DSNT NW-E,2024-08-03T17:15:00Z,28,23,10+,29.98
KOAR,36.6815,-121.757,280,6,6.904679999999999,KOAR 031715Z AUTO 28006KT 10SM CLR 13/08 A2999 RMK AO2,2024-08-03T17:15:00Z,13,8,10+,29.99
KO86,40.9845,-122.693,0,0,0.0,KO86 031715Z AUTO 00000KT 10SM CLR 24/14 A3011 RMK A01,2024-08-03T17:15:00Z,24,14,10+,30.11
KO69,38.2601,-122.607,0,0,0.0,KO69 031715Z AUTO 00000KT 10SM CLR 21/13 A2998 RMK A01,2024-08-03T17:15:00Z,21,13,10+,29.98
KO54,40.746,-122.922,0,0,0.0,KO54 031715Z AUTO 00000KT 10SM CLR 25/13 A3009 RMK A01,2024-08-03T17:15:00Z,25,13,10+,30.09
KO32,36.6691,-119.453,200,5,5.7539,KO32 031715Z AUTO 20005KT 10SM CLR 30/18 A2994 RMK AO2 T03030179 $,2024-08-03T17:15:00Z,30.3,17.9,10+,29.94
KO22,38.03,-120.415,180,3,3.4523399999999995,KO22 031715Z AUTO 18003KT 10SM 32/12 A3003 RMK A01,2024-08-03T17:15:00Z,32,12,10+,30.03
KO05,40.2865,-121.243,0,0,0.0,KO05 031715Z AUTO 00000KT 8SM SCT110 21/09 A3023 RMK A01,2024-08-03T17:15:00Z,21,9,8,30.23
KNY0,42.999,-74.3292,220,6,6.904679999999999,KNY0 031715Z AUTO 22006KT 10SM SCT065 26/21 A2987 RMK AO2 T02590212,2024-08-03T17:15:00Z,25.9,21.2,10+,29.87
KNUQ,37.4059,-122.049,0,0,0.0,KNUQ 031715Z AUTO 00000KT 10SM CLR 21/15 A2998 RMK AO2,2024-08-03T17:15:00Z,21,15,10+,29.98
KNRN,39.8497,-99.8915,210,12,13.809359999999998,KNRN 031715Z AUTO 21012KT 10SM CLR 32/15 A3015 RMK AO2,2024-08-03T17:15:00Z,32,15,10+,30.15
KNOW,48.1394,-123.403,300,9,10.357019999999999,KNOW 031715Z AUTO 30009KT 10SM CLR 14/13 A3009 RMK AO2 T01430127,2024-08-03T17:15:00Z,14.3,12.7,10+,30.09
KN79,40.8371,-76.546,290,4,4.60312,KN79 031715Z AUTO 29004KT 10SM FEW020 SCT030 BKN037 26/22 A2983 RMK AO2 T02620224,2024-08-03T17:15:00Z,26.2,22.4,10+,29.83
KN38,41.7287,-77.3958,30,6,6.904679999999999,KN38 031715Z AUTO 03006KT 10SM VCTS SCT006 BKN009 OVC014 21/21 A2991 RMK AO2 LTG DSNT E AND SW AND W,2024-08-03T17:15:00Z,21,21,10+,29.91
KN03,42.5929,-76.2174,0,0,0.0,KN03 031715Z AUTO 00000KT 10SM CLR 25/19 A2989 RMK AO2,2024-08-03T17:15:00Z,25,19,10+,29.89
KMZZ,40.4863,-85.6859,320,4,4.60312,KMZZ 031715Z AUTO 32004KT 7SM SCT041 28/21 A2996 RMK AO2 T02780213,2024-08-03T17:15:00Z,27.8,21.3,7,29.96
KMZJ,32.5147,-111.335,150,6,6.904679999999999,KMZJ 031715Z AUTO 15006KT 10SM CLR 37/15 A3001 RMK AO2,2024-08-03T17:15:00Z,37,15,10+,30.01
KMZH,46.4163,-92.8049,150,4,4.60312,KMZH 031715Z AUTO 15004KT 10SM CLR 26/15 A3002 RMK AO2 LTG DSNT N,2024-08-03T17:15:00Z,26,15,10+,30.02
KMYZ,39.8544,-96.6279,220,6,6.904679999999999,KMYZ 031715Z AUTO 22006KT 10SM CLR 32/17 A3009 RMK AO2,2024-08-03T17:15:00Z,32,17,10+,30.09
KMYP,38.4972,-106.32,0,0,0.0,KMYP 031715Z AUTO 00000KT 10SM BKN050 OVC070 15/03 A3093 RMK AO2,2024-08-03T17:15:00Z,15,3,10+,30.93
KMYJ,39.1561,-91.8129,320,3,3.4523399999999995,KMYJ 031715Z AUTO 32003KT 10SM CLR 29/22 A3005 RMK AO2,2024-08-03T17:15:00Z,29,22,10+,30.05
KMXO,42.2203,-91.1604,340,8,9.20624,KMXO 031715Z AUTO 34008KT 310V010 10SM CLR 29/23 A2998 RMK AO2,2024-08-03T17:15:00Z,29,23,10+,29.98
KMWO,39.5324,-84.3973,360,5,5.7539,KMWO 031715Z AUTO 36005KT 10SM SCT026 SCT037 BKN049 26/21 A2994 RMK AO2 T02640207,2024-08-03T17:15:00Z,26.4,20.7,10+,29.94
KMWM,43.91,-95.1073,150,6,6.904679999999999,KMWM 031715Z AUTO 15006KT 10SM CLR 29/20 A3003 RMK AO2,2024-08-03T17:15:00Z,29,20,10+,30.03
KMVH,46.838,-108.936,160,12,13.809359999999998,KMVH 031715Z AUTO 16012KT 9SM -DZ CLR 28/08 A3022 RMK AO2,2024-08-03T17:15:00Z,28,8,9,30.22
KMVE,44.9675,-95.7116,170,9,10.357019999999999,KMVE 031715Z AUTO 17009KT 10SM CLR 28/22 A2997 RMK AO2,2024-08-03T17:15:00Z,28,22,10+,29.97
KMUT,41.367,-91.1406,VRB,6,6.904679999999999,KMUT 031715Z AUTO VRB06KT 310V010 10SM CLR 30/18 A3000 RMK AO2,2024-08-03T17:15:00Z,30,18,10+,30.00
KMTV,36.6272,-80.0134,180,7,8.05546,KMTV 031715Z AUTO 18007KT 10SM BKN022 BKN028 28/21 A2996 RMK AO2 T02780213,2024-08-03T17:15:00Z,27.8,21.3,10+,29.96
KMTK,28.6967,-89.3958,350,8,9.20624,KMTK 031715Z AUTO 35008KT 10SM CLR A2997 RMK A01,2024-08-03T17:15:00Z,,,10+,29.97
KMRT,40.2237,-83.3475,100,4,4.60312,KMRT 031715Z AUTO 10004KT 10SM SCT024 SCT037 SCT043 27/22 A2993 RMK AO2 T02690219,2024-08-03T17:15:00Z,26.9,21.9,10+,29.93
KMRJ,42.8875,-90.2315,60,5,5.7539,KMRJ 031715Z AUTO 06005KT 10SM CLR 28/18 A3003 RMK AO2 PWINO,2024-08-03T17:15:00Z,28,18,10+,30.03
KMQW,32.0942,-82.882,210,10,11.5078,KMQW 031715Z AUTO 21010KT 10SM SCT050 33/25 A2998 RMK AO2 T03320246,2024-08-03T17:15:00Z,33.2,24.6,10+,29.98
KMQS,39.9773,-75.8605,VRB,3,3.4523399999999995,KMQS 031715Z AUTO VRB03KT 10SM FEW023 SCT028 BKN055 29/26 A2987 RMK AO2,2024-08-03T17:15:00Z,29,26,10+,29.87
KMQJ,39.8402,-85.894,340,9,10.357019999999999,KMQJ 031715Z AUTO 34009KT 320V020 10SM FEW320 29/21 A2997 RMK AO2 T02950214 $,2024-08-03T17:15:00Z,29.5,21.4,10+,29.97
KMQB,40.5176,-90.6481,310,6,6.904679999999999,KMQB 031715Z AUTO 31006KT 10SM SCT033 SCT039 BKN048 29/23 A3002 RMK AO2 T02920233,2024-08-03T17:15:00Z,29.2,23.3,10+,30.02
KMPZ,40.9453,-91.5122,30,4,4.60312,KMPZ 031715Z AUTO 03004KT 10SM CLR 29/23 A3001 RMK AO2,2024-08-03T17:15:00Z,29,23,10+,30.01
KMPR,38.3491,-97.6883,210,7,8.05546,KMPR 031715Z AUTO 21007KT 10SM SCT100 32/15 A3012 RMK AO2 T03170154,2024-08-03T17:15:00Z,31.7,15.4,10+,30.12
KMOX,45.5677,-95.9659,150,14,16.11092,KMOX 031715Z AUTO 15014KT 10SM CLR 28/23 A2993 RMK AO2,2024-08-03T17:15:00Z,28,23,10+,29.93
KMOR,36.1746,-83.3853,VRB,4,4.60312,KMOR 031715Z AUTO VRB04KT 7SM FEW060 SCT075 23/22 A2999 RMK A01,2024-08-03T17:15:00Z,23,22,7,29.99
KMOP,43.6229,-84.743,330,5,5.7539,KMOP 031715Z AUTO 33005KT 10SM CLR 30/13 A2993 RMK AO2 T02990127,2024-08-03T17:15:00Z,29.9,12.7,10+,29.93
KMNZ,31.6697,-98.1462,0,0,0.0,KMNZ 031715Z AUTO 00000KT 10SM CLR 32/20 A3007 RMK AO2 T03220196 TSNO,2024-08-03T17:15:00Z,32.2,19.6,10+,30.07
KMNV,35.5429,-84.3808,260,5,5.7539,KMNV 031715Z AUTO 26005KT 10SM FEW026 SCT065 BKN075 27/23 A2998 RMK A01,2024-08-03T17:15:00Z,27,23,10+,29.98
KMNI,33.5882,-80.2059,190,10,11.5078,KMNI 031715Z AUTO 19010KT 10SM SCT028 31/23 A2997 RMK AO2 LTG DSNT SE,2024-08-03T17:15:00Z,31,23,10+,29.97
KMNH,39.2232,-104.642,350,8,9.20624,KMNH 031715Z AUTO 35008G14KT 320V020 10SM CLR 28/03 A3043 RMK AO2,2024-08-03T17:15:00Z,28,3,10+,30.43
KMNE,32.6433,-93.2972,50,6,6.904679999999999,KMNE 031715Z AUTO 05006KT 10SM SCT046 32/20 A3000 RMK AO2,2024-08-03T17:15:00Z,32,20,10+,30.00
KMMI,35.3952,-84.5612,VRB,4,4.60312,KMMI 031715Z AUTO VRB04KT 10SM CLR 28/21 A3000 RMK A01,2024-08-03T17:15:00Z,28,21,10+,30.00
KMMH,37.6253,-118.838,0,0,0.0,KMMH 031715Z AUTO 00000KT 10SM SCT065 SCT075 BKN090 22/07 A3038 RMK AO2 T02190072,2024-08-03T17:15:00Z,21.9,7.2,10+,30.38
KMLJ,33.153,-83.242,VRB,5,5.7539,KMLJ 031715Z AUTO VRB05KT 10SM SCT028 SCT036 32/27 A2994 RMK AO2 LTG DSNT SE AND W,2024-08-03T17:15:00Z,32,27,10+,29.94
KMLE,41.1981,-96.1131,240,6,6.904679999999999,KMLE 031715Z AUTO 24006KT 10SM CLR 32/19 A3005 RMK AO2 T03200185,2024-08-03T17:15:00Z,32,18.5,10+,30.05
KMKS,33.1874,-80.0363,200,8,9.20624,KMKS 031715Z AUTO 20008KT 10SM CLR 32/22 A2998 RMK AO2 LTG DSNT E,2024-08-03T17:15:00Z,32,22,10+,29.98
KMKN,31.924,-98.5978,180,4,4.60312,KMKN 031715Z AUTO 18004KT CLR 36/19 A3007 RMK AO2 T03640191 PWINO,2024-08-03T17:15:00Z,36.4,19.1,,30.07
KMKJ,36.8944,-81.3449,240,7,8.05546,KMKJ 031715Z AUTO 24007KT 10SM SCT014 SCT020 SCT110 24/20 A3004 RMK AO2 LTG DSNT E AND SE T02370201,2024-08-03T17:15:00Z,23.7,20.1,10+,30.04
KMJQ,43.6496,-94.9885,150,4,4.60312,KMJQ 031715Z AUTO 15004KT 10SM CLR 28/20 A3004 RMK AO2,2024-08-03T17:15:00Z,28,20,10+,30.04
KMJD,30.494,-89.6535,VRB,4,4.60312,KMJD 031715Z AUTO VRB04KT 10SM CLR 34/27 A2994 RMK AO2,2024-08-03T17:15:00Z,34,27,10+,29.94
KMIO,36.9128,-94.8893,330,6,6.904679999999999,KMIO 031715Z AUTO 33006KT 10SM CLR 32/18 A3006 RMK AO2 PWINO,2024-08-03T17:15:00Z,32,18,10+,30.06
KMHR,38.56,-121.284,0,0,0.0,KMHR 031715Z AUTO 00000KT 10SM CLR 31/10 A2992 RMK A01,2024-08-03T17:15:00Z,31,10,10+,29.92
KMHP,32.374,-82.079,190,4,4.60312,KMHP 031715Z AUTO 19004KT 10SM SCT034 33/24 A2998 RMK AO2 LTG DSNT S T03280243,2024-08-03T17:15:00Z,32.8,24.3,10+,29.98
KMHL,39.093,-93.2024,290,4,4.60312,KMHL 031715Z AUTO 29004KT 10SM BKN037 29/22 A3007 RMK AO2,2024-08-03T17:15:00Z,29,22,10+,30.07
KMGR,31.0835,-83.8035,230,8,9.20624,KMGR 031715Z AUTO 23008KT 10SM FEW032 SCT040 SCT300 32/26 A2999 RMK AO2 LTG DSNT NW AND S T03240256 $,2024-08-03T17:15:00Z,32.4,25.6,10+,29.99
KMGN,45.4241,-84.913,360,8,9.20624,KMGN 031715Z AUTO 36008G16KT 310V030 10SM CLR 28/11 A2995 RMK AO2 T02840115,2024-08-03T17:15:00Z,28.4,11.5,10+,29.95
KMGG,45.2354,-93.9896,140,3,3.4523399999999995,KMGG 031715Z AUTO 14003KT 10SM CLR 27/16 A3002 RMK AO2 T02720161,2024-08-03T17:15:00Z,27.2,16.1,10+,30.02
KMGC,41.7048,-86.8183,340,5,5.7539,KMGC 031715Z AUTO 34005KT 10SM CLR 27/21 A2997 RMK AO2,2024-08-03T17:15:00Z,27,21,10+,29.97
KMEZ,34.5414,-94.1918,60,7,8.05546,KMEZ 031715Z AUTO 06007KT 10SM SCT049 31/20 A3004 RMK AO2 T03120200,2024-08-03T17:15:00Z,31.2,20,10+,30.04
KMEV,38.9963,-119.75,230,8,9.20624,KMEV 031715Z AUTO 23008KT 9SM BKN100 25/13 A3020 RMK AO2,2024-08-03T17:15:00Z,25,13,9,30.20
KMDZ,45.1013,-90.3064,100,3,3.4523399999999995,KMDZ 031715Z AUTO 10003KT 10SM CLR 26/14 A3005 RMK AO2 T02590143 PWINO,2024-08-03T17:15:00Z,25.9,14.3,10+,30.05
KMDS,44.0141,-97.0817,200,12,13.809359999999998,KMDS 031715Z AUTO 20012KT 10SM FEW100 29/21 A3000 RMK AO2 TSNO,2024-08-03T17:15:00Z,29,21,10+,30.00
KMDQ,34.866,-86.559,10,5,5.7539,KMDQ 031715Z AUTO 01005KT 10SM SCT043 SCT055 29/19 A3000 RMK A02 T02900191,2024-08-03T17:15:00Z,29,19.1,10+,30.00
KMDD,32.0359,-102.1,0,0,0.0,KMDD 031715Z AUTO 00000KT 10SM CLR 34/14 A3015 RMK AO2 T03390145,2024-08-03T17:15:00Z,33.9,14.5,10+,30.15
KMCD,45.866,-84.634,360,10,11.5078,KMCD 031715Z AUTO 36010KT 10SM CLR 28/12 A2995 RMK AO2 T02810124,2024-08-03T17:15:00Z,28.1,12.4,10+,29.95
KMCC,38.678,-121.403,0,0,0.0,KMCC 031715Z AUTO 00000KT 10SM CLR 29/11 A2993 RMK AO2 PWINO,2024-08-03T17:15:00Z,29,11,10+,29.93
KMBY,39.464,-92.4244,0,0,0.0,KMBY 031715Z AUTO 00000KT 10SM CLR 31/19 A3005 RMK AO2,2024-08-03T17:15:00Z,31,19,10+,30.05
KMBT,35.8767,-86.3793,VRB,5,5.7539,KMBT 031715Z AUTO VRB05G12KT 10SM CLR 30/20 A2996 RMK A01,2024-08-03T17:15:00Z,30,20,10+,29.96
KMBO,32.4385,-90.1014,0,0,0.0,KMBO 031715Z AUTO 00000KT 10SM CLR 32/26 A2998 RMK AO2,2024-08-03T17:15:00Z,32,26,10+,29.98
KMAW,36.5945,-89.9865,330,4,4.60312,KMAW 031715Z AUTO 33004KT 10SM BKN036 BKN046 BKN060 30/21 A3002 RMK AO1,2024-08-03T17:15:00Z,30,21,10+,30.02
KMAO,34.1852,-79.3341,210,9,10.357019999999999,KMAO 031715Z AUTO 21009KT 10SM SCT034 SCT070 31/28 A2997 RMK AO2 LTG DSNT S,2024-08-03T17:15:00Z,31,28,10+,29.97
KMAN,43.582,-116.521,0,0,0.0,KMAN 031715Z AUTO 00000KT 9SM CLR 31/15 A2998 RMK A01,2024-08-03T17:15:00Z,31,15,9,29.98
KM91,36.5363,-86.919,VRB,4,4.60312,KM91 031715Z AUTO VRB04KT 10SM FEW027 FEW031 SCT075 29/23 A2998 RMK A01,2024-08-03T17:15:00Z,29,23,10+,29.98
KM75,48.3686,-107.919,70,12,13.809359999999998,KM75 031715Z AUTO 07012KT 10SM CLR 26/12 A3010 RMK A01,2024-08-03T17:15:00Z,26,12,10+,30.10
KM40,33.8755,-88.4872,VRB,4,4.60312,KM40 031715Z AUTO VRB04KT 10SM FEW041 31/22 A3000 RMK AO2,2024-08-03T17:15:00Z,31,22,10+,30.00
KM30,37.1824,-88.7487,0,0,0.0,KM30 031715Z AUTO 00000KT 10SM SCT028 SCT035 SCT047 30/21 A3000 RMK AO2 T02950212,2024-08-03T17:15:00Z,29.5,21.2,10+,30.00
KM25,36.764,-88.5829,330,5,5.7539,KM25 031715Z AUTO 33005KT 10SM SCT034 BKN041 30/22 A3001 RMK AO2,2024-08-03T17:15:00Z,30,22,10+,30.01
KM21,37.2291,-87.1542,310,6,6.904679999999999,KM21 031715Z AUTO 31006KT 10SM SCT034 29/21 A2998 RMK AO2 T02860208,2024-08-03T17:15:00Z,28.6,20.8,10+,29.98
KM08,35.2155,-89.0449,310,5,5.7539,KM08 031715Z AUTO 31005KT 10SM SCT036 30/21 A3000 RMK A01,2024-08-03T17:15:00Z,30,21,10+,30.00
KM02,36.1289,-87.4283,0,0,0.0,KM02 031715Z AUTO 00000KT 10SM FEW034 29/20 A2999 RMK A01,2024-08-03T17:15:00Z,29,20,10+,29.99
KM01,35.2004,-90.0548,300,7,8.05546,KM01 031715Z AUTO 30007KT 10SM FEW036 30/22 A3000 RMK AO2 T02960223 $,2024-08-03T17:15:00Z,29.6,22.3,10+,30.00
KLYV,43.6217,-96.214,230,6,6.904679999999999,KLYV 031715Z AUTO 23006KT 10SM CLR 30/17 A3003 RMK AO2,2024-08-03T17:15:00Z,30,17,10+,30.03
KLYO,38.343,-98.2266,200,7,8.05546,KLYO 031715Z AUTO 20007KT 170V240 10SM SCT085 32/14 A3013 RMK AO2 T03160137,2024-08-03T17:15:00Z,31.6,13.7,10+,30.13
KLXY,31.6446,-96.5122,,,,KLXY 031715Z AUTO 10SM CLR 32/21 A3002 RMK AO2 T03210206 TSNO,2024-08-03T17:15:00Z,32.1,20.6,10+,30.02
KLXN,40.7915,-99.775,270,4,4.60312,KLXN 031715Z AUTO 27004KT 10SM CLR 30/19 A3012 RMK AO2 T03040187,2024-08-03T17:15:00Z,30.4,18.7,10+,30.12
KLXL,45.9509,-94.3441,130,8,9.20624,KLXL 031715Z AUTO 13008KT 10SM CLR 27/16 A2999 RMK AO2,2024-08-03T17:15:00Z,27,16,10+,29.99
KLWA,42.3476,-86.2578,280,6,6.904679999999999,KLWA 031715Z AUTO 28006KT 10SM CLR 30/23 A2995 RMK AO2 T03020232,2024-08-03T17:15:00Z,30.2,23.2,10+,29.95
KLVN,44.6252,-93.2273,0,0,0.0,KLVN 031715Z AUTO 00000KT 10SM CLR 27/16 A3003 RMK AO2,2024-08-03T17:15:00Z,27,16,10+,30.03
KLVL,36.7723,-77.7925,220,10,11.5078,KLVL 031715Z AUTO 22010KT 10SM SCT029 SCT035 32/24 A2994 RMK AO1 T03230244,2024-08-03T17:15:00Z,32.3,24.4,10+,29.94
KLUX,34.508,-81.949,180,5,5.7539,KLUX 031715Z AUTO 18005KT 10SM SCT032 SCT043 SCT070 30/22 A2995 RMK AO2,2024-08-03T17:15:00Z,30,22,10+,29.95
KLUV,32.7481,-101.913,250,3,3.4523399999999995,KLUV 031715Z AUTO 25003KT 10SM CLR 32/15 A3017 RMK AO2,2024-08-03T17:15:00Z,32,15,10+,30.17
KLUM,44.8936,-91.8665,0,0,0.0,KLUM 031715Z AUTO 00000KT 10SM CLR 27/16 A3003 RMK AO2 T02730159 PWINO,2024-08-03T17:15:00Z,27.3,15.9,10+,30.03
KLUL,31.6682,-89.1705,300,4,4.60312,KLUL 031715Z AUTO 30004KT 10SM SCT043 SCT050 SCT075 34/23 A2997 RMK A02 T03360234,2024-08-03T17:15:00Z,33.6,23.4,10+,29.97
KLUG,35.5082,-86.8055,350,6,6.904679999999999,KLUG 031715Z AUTO 35006KT 10SM FEW036 29/21 A2998 RMK A01,2024-08-03T17:15:00Z,29,21,10+,29.98
KLUD,33.2568,-97.5826,0,0,0.0,KLUD 031715Z AUTO 00000KT 7SM CLR 34/15 A3005 RMK AO2 T03390147,2024-08-03T17:15:00Z,33.9,14.7,7,30.05
KLUA,38.667,-78.501,220,13,14.960139999999999,KLUA 031715Z AUTO 22013G16KT 10SM 35/18 A2984 RMK AO2 LTG DSNT N,2024-08-03T17:15:00Z,35,18,10+,29.84
KLRY,38.6074,-94.3453,0,0,0.0,KLRY 031715Z AUTO 00000KT 10SM CLR 32/18 A3010 RMK AO2,2024-08-03T17:15:00Z,32,18,10+,30.10
KLRU,32.2884,-106.913,0,0,0.0,KLRU 031715Z AUTO 00000KT 10SM CLR 34/08 A3025 RMK AO2 T03380084,2024-08-03T17:15:00Z,33.8,8.4,10+,30.25
KLRO,32.8982,-79.7796,180,13,14.960139999999999,KLRO 031715Z AUTO 18013G19KT 7SM SCT027 SCT033 32/28 A3000 RMK AO2 LTG DSNT N AND NE,2024-08-03T17:15:00Z,32,28,7,30.00
KLRJ,42.7771,-96.195,0,0,0.0,KLRJ 031715Z AUTO 00000KT 10SM CLR 30/20 A3003 RMK AO2,2024-08-03T17:15:00Z,30,20,10+,30.03
KLQK,34.8069,-82.7047,240,7,8.05546,KLQK 031715Z AUTO 24007KT 220V280 10SM SCT040 SCT050 OVC095 32/23 A2995 RMK AO2 T03200230,2024-08-03T17:15:00Z,32,23,10+,29.95
KLOM,40.1376,-75.2684,210,6,6.904679999999999,KLOM 031715Z AUTO 21006KT 10SM SCT031 BKN075 BKN080 31/24 A2985 RMK AO2 T03140236,2024-08-03T17:15:00Z,31.4,23.6,10+,29.85
KLNP,36.9884,-82.524,230,9,10.357019999999999,KLNP 031715Z AUTO 23009KT 10SM -RA SCT025 BKN047 OVC075 21/18 A3005 RMK AO2,2024-08-03T17:15:00Z,21,18,10+,30.05
KLNN,41.6839,-81.3896,40,6,6.904679999999999,KLNN 031715Z AUTO 04006KT 10SM SCT014 SCT024 BKN043 24/23 A2990 RMK AO1 T02420229,2024-08-03T17:15:00Z,24.2,22.9,10+,29.90
KLNL,46.1515,-89.2108,80,4,4.60312,KLNL 031715Z AUTO 08004KT 10SM CLR 27/11 A3005 RMK AO2 T02660109,2024-08-03T17:15:00Z,26.6,10.9,10+,30.05
KLNC,32.5832,-96.7209,50,3,3.4523399999999995,KLNC 031715Z AUTO 05003KT 10SM CLR 33/21 A3001 RMK AO2 T03280206,2024-08-03T17:15:00Z,32.8,20.6,10+,30.01
KLNA,26.5925,-80.0848,120,12,13.809359999999998,KLNA 031715Z AUTO 12012KT 10SM CLR 31/26 A2998 RMK AO2 LTG DSNT N NE AND SW T03050255,2024-08-03T17:15:00Z,30.5,25.5,10+,29.98
KLMS,33.15,-89.063,360,6,6.904679999999999,KLMS 031715Z AUTO 36006G12KT 10SM FEW043 FEW065 31/21 A3002 RMK AO2,2024-08-03T17:15:00Z,31,21,10+,30.02
KLMO,40.1612,-105.16,0,0,0.0,KLMO 031715Z AUTO 00000KT 10SM CLR 32/08 A3027 RMK AO2 T03180076,2024-08-03T17:15:00Z,31.8,7.6,10+,30.27
KLLN,33.556,-102.375,110,8,9.20624,KLLN 031715Z AUTO 11008KT 9SM CLR 28/17 A3022 RMK AO2,2024-08-03T17:15:00Z,28,17,9,30.22
KLKU,38.0085,-77.9681,180,9,10.357019999999999,KLKU 031715Z AUTO 18009G16KT 150V220 10SM SCT029 SCT036 32/23 A2988 RMK AO2 T03160228,2024-08-03T17:15:00Z,31.6,22.8,10+,29.88
KLKR,34.7266,-80.8532,210,12,13.809359999999998,KLKR 031715Z AUTO 21012KT 9SM SCT070 SCT090 31/24 A2995 RMK AO2,2024-08-03T17:15:00Z,31,24,9,29.95
KLHM,38.9148,-121.352,0,0,0.0,KLHM 031715Z AUTO 00000KT 10SM CLR 28/11 A2994 RMK AO1,2024-08-03T17:15:00Z,28,11,10+,29.94
KLHB,30.8693,-96.6207,0,0,0.0,KLHB 031715Z AUTO 00000KT 10SM CLR 32/24 A3002 RMK AO2 T03200243,2024-08-03T17:15:00Z,32,24.3,10+,30.02
KLGC,33.0093,-85.0717,280,4,4.60312,KLGC 031715Z AUTO 28004KT 10SM SCT035 BKN043 OVC085 32/22 A2998 RMK AO2 T03150220,2024-08-03T17:15:00Z,31.5,22,10+,29.98
KLDM,43.9614,-86.4107,360,8,9.20624,KLDM 031715Z AUTO 36008KT 10SM CLR 29/15 A2996 RMK AO2 T02870148,2024-08-03T17:15:00Z,28.7,14.8,10+,29.96
KLCQ,30.1838,-82.5684,230,6,6.904679999999999,KLCQ 031715Z AUTO 23006KT 10SM SCT038 SCT050 BKN075 31/24 A3000 RMK AO2 LTG DSNT SE,2024-08-03T17:15:00Z,31,24,10+,30.00
KLCG,42.2423,-96.983,250,10,11.5078,KLCG 031715Z AUTO 25010G17KT 10SM CLR 32/20 A3004 RMK AO2 T03190195,2024-08-03T17:15:00Z,31.9,19.5,10+,30.04
KLBO,37.6449,-92.6544,30,5,5.7539,KLBO 031715Z AUTO 03005KT 10SM CLR 30/19 A3009 RMK AO2,2024-08-03T17:15:00Z,30,19,10+,30.09
KLAM,35.8789,-106.262,0,0,0.0,KLAM 031715Z AUTO 00000KT 8SM SCT110 26/10 A3043 RMK AO2 T02570097 $,2024-08-03T17:15:00Z,25.7,9.7,8,30.43
KL35,34.2626,-116.855,0,0,0.0,KL35 031715Z AUTO 00000KT 10SM CLR 23/08 A3039 RMK AO2,2024-08-03T17:15:00Z,23,8,10+,30.39
KL18,33.3551,-117.249,0,0,0.0,KL18 031715Z AUTO 00000KT 10SM CLR 29/14 A2997 RMK AO2,2024-08-03T17:15:00Z,29,14,10+,29.97
KL08,33.2604,-116.323,0,0,0.0,KL08 031715Z AUTO 00000KT 10SM CLR 41/07 A2986 RMK AO2,2024-08-03T17:15:00Z,41,7,10+,29.86
KKY8,37.953,-86.8592,310,5,5.7539,KKY8 031715Z AUTO 31005KT 9SM CLR 29/19 A2997 RMK A01,2024-08-03T17:15:00Z,29,19,9,29.97
KKNB,37.0078,-112.53,0,0,0.0,KKNB 031715Z AUTO 00000KT 10SM CLR 31/15 A3028 RMK A01,2024-08-03T17:15:00Z,31,15,10+,30.28
KK88,37.8692,-95.384,20,6,6.904679999999999,KK88 031715Z AUTO 02006KT 9SM CLR 31/18 A3007 RMK AO2,2024-08-03T17:15:00Z,31,18,9,30.07
KK83,39.9053,-95.7747,240,6,6.904679999999999,KK83 031715Z AUTO 24006KT 10SM CLR 32/17 A3010 RMK AO2 T03200168,2024-08-03T17:15:00Z,32,16.8,10+,30.10
KK82,39.7606,-98.7957,180,11,12.658579999999999,KK82 031715Z AUTO 18011KT 10SM CLR 33/18 A3011 RMK AO2 T03320175,2024-08-03T17:15:00Z,33.2,17.5,10+,30.11
KK70,25.322,-80.277,110,14,16.11092,KK70 031715Z AUTO 11014G26KT 10SM FEW021 FEW029 29/27 A2989 RMK AO2,2024-08-03T17:15:00Z,29,27,10+,29.89
KK62,38.7018,-84.3964,50,3,3.4523399999999995,KK62 031715Z AUTO 05003KT 10SM SCT024 SCT036 BKN060 26/20 A2995 RMK AO2,2024-08-03T17:15:00Z,26,20,10+,29.95
KJZP,34.4542,-84.4597,280,8,9.20624,KJZP 031715Z AUTO 28008KT 240V300 10SM SCT031 27/20 A3003 RMK AO2 T02720200,2024-08-03T17:15:00Z,27.2,20,10+,30.03
KJZI,32.7025,-80.0058,210,13,14.960139999999999,KJZI 031715Z AUTO 21013KT 10SM SCT023 SCT035 31/25 A3001 RMK AO2 LTG DSNT NE AND E,2024-08-03T17:15:00Z,31,25,10+,30.01
KJYR,40.8942,-97.6258,190,7,8.05546,KJYR 031715Z AUTO 19007KT 10SM CLR 28/19 A3009 RMK AO2,2024-08-03T17:15:00Z,28,19,10+,30.09
KJYM,41.9197,-84.5853,10,5,5.7539,KJYM 031715Z AUTO 01005KT 10SM OVC100 28/19 A2995 RMK AO2,2024-08-03T17:15:00Z,28,19,10+,29.95
KJYL,32.6459,-81.5894,230,7,8.05546,KJYL 031715Z AUTO 23007KT 200V260 CLR 33/25 A2999 RMK AO2 LTG DSNT S T03300250 PWINO,2024-08-03T17:15:00Z,33,25,,29.99
KJYG,43.9855,-94.5527,160,6,6.904679999999999,KJYG 031715Z AUTO 16006KT 10SM CLR 27/21 A3001 RMK AO2,2024-08-03T17:15:00Z,27,21,10+,30.01
KJWY,32.456,-96.914,360,4,4.60312,KJWY 031715Z AUTO 36004KT 9SM CLR 33/22 A3002 RMK AO2 T03300217 TSNO $,2024-08-03T17:15:00Z,33,21.7,9,30.02
KJWG,35.863,-98.423,160,5,5.7539,KJWG 031715Z AUTO 16005KT 10SM CLR 33/11 A3013 RMK AO2 T03280113,2024-08-03T17:15:00Z,32.8,11.3,10+,30.13
KJVY,38.3692,-85.7366,VRB,3,3.4523399999999995,KJVY 031715Z VRB03KT 10SM FEW026 BKN032 BKN041 M40/ A2994 RMK AO2 TEMP/DEW PT/DENSITY ALT UNRELIABLE. RWY 18 PREFERRED CALM WIND,2024-08-03T17:15:00Z,-40,,10+,29.94
KJVW,32.3069,-90.412,0,0,0.0,KJVW 031715Z AUTO 00000KT 10SM FEW045 33/23 A2998 RMK AO2,2024-08-03T17:15:00Z,33,23,10+,29.98
KJTC,34.1292,-109.309,180,8,9.20624,KJTC 031715Z AUTO 18008KT 10SM 27/11 A3043 RMK AO2,2024-08-03T17:15:00Z,27,11,10+,30.43
KJSY,45.3556,-117.254,0,0,0.0,KJSY 031715Z AUTO 00000KT 10SM CLR 28/10 A3014 RMK AO2 T02750104,2024-08-03T17:15:00Z,27.5,10.4,10+,30.14
KJSV,35.4381,-94.8012,0,0,0.0,KJSV 031715Z AUTO 00000KT 10SM FEW050 FEW055 33/20 A3003 RMK AO2,2024-08-03T17:15:00Z,33,20,10+,30.03
KJSO,31.869,-95.2145,0,0,0.0,KJSO 031715Z AUTO 00000KT 10SM CLR 32/23 A3003 RMK AO2 T03240228,2024-08-03T17:15:00Z,32.4,22.8,10+,30.03
KJRO,38.9861,-82.5756,240,3,3.4523399999999995,KJRO 031715Z AUTO 24003KT 10SM BKN043 25/20 A2993 RMK AO2,2024-08-03T17:15:00Z,25,20,10+,29.93
KJPX,40.9605,-72.2511,220,12,13.809359999999998,KJPX 031715Z AUTO 22012G18KT 10SM CLR 28/22 A2984 RMK AO2 T02780216,2024-08-03T17:15:00Z,27.8,21.6,10+,29.84
KJOT,41.5176,-88.179,350,3,3.4523399999999995,KJOT 031715Z AUTO 35003KT 10SM SCT044 SCT055 SCT075 32/21 A2996 RMK AO2 T03190208,2024-08-03T17:15:00Z,31.9,20.8,10+,29.96
KJMR,45.8885,-93.269,140,4,4.60312,KJMR 031715Z AUTO 14004KT 10SM CLR 25/13 A3006 RMK AO2,2024-08-03T17:15:00Z,25,13,10+,30.06
KJKJ,46.8404,-96.6545,180,13,14.960139999999999,KJKJ 031715Z AUTO 18013G17KT 10SM CLR 28/21 A2987 RMK AO2,2024-08-03T17:15:00Z,28,21,10+,29.87
KJHN,37.5782,-101.73,240,6,6.904679999999999,KJHN 031715Z AUTO 24006KT 10SM CLR 31/17 A3017 RMK AO2 T03050172,2024-08-03T17:15:00Z,30.5,17.2,10+,30.17
KJFZ,37.0634,-81.7969,250,8,9.20624,KJFZ 031715Z AUTO 25008KT 10SM SCT026 25/19 A3003 RMK AO2 T02500193,2024-08-03T17:15:00Z,25,19.3,10+,30.03
KJFX,33.9008,-87.3092,350,4,4.60312,KJFX 031715Z AUTO 35004KT 10SM FEW049 FEW060 SCT070 29/21 A3000 RMK AO2,2024-08-03T17:15:00Z,29,21,10+,30.00
KJES,31.5521,-81.8896,0,0,0.0,KJES 031715Z AUTO 00000KT 10SM SCT038 32/23 A3002 RMK AO2,2024-08-03T17:15:00Z,32,23,10+,30.02
KJDD,32.7403,-95.4945,350,3,3.4523399999999995,KJDD 031715Z AUTO 35003KT 7SM CLR 32/22 A3000 RMK AO2,2024-08-03T17:15:00Z,32,22,7,30.00
KJCA,34.1739,-83.5583,290,7,8.05546,KJCA 031715Z AUTO 29007KT 260V340 10SM SCT029 SCT035 SCT042 29/23 A2998 RMK AO2 T02920228,2024-08-03T17:15:00Z,29.2,22.8,10+,29.98
KJAS,30.8904,-94.0332,VRB,5,5.7539,KJAS 031715Z AUTO VRB05KT 9SM FEW031 33/26 RMK AO2,2024-08-03T17:15:00Z,33,26,9,
KJAQ,38.3742,-120.794,0,0,0.0,KJAQ 031715Z AUTO 00000KT 10SM CLR 30/14 A3002 RMK AO1 T03000135,2024-08-03T17:15:00Z,30,13.5,10+,30.02
KIZA,34.6059,-120.076,0,0,0.0,KIZA 031715Z AUTO 00000KT 10SM CLR 23/15 A2997 RMK AO2,2024-08-03T17:15:00Z,23,15,10+,29.97
KIYA,29.976,-92.0826,,,,KIYA 031715Z AUTO 10SM FEW029 SCT070 34/28 A2996 RMK AO2 LTG DSNT NE T03400284 $,2024-08-03T17:15:00Z,34,28.4,10+,29.96
KISQ,45.9729,-86.1728,310,7,8.05546,KISQ 031715Z AUTO 31007G18KT 10SM CLR 29/15 A2995 RMK AO2 T02920152,2024-08-03T17:15:00Z,29.2,15.2,10+,29.95
KIRS,41.8154,-85.4376,350,8,9.20624,KIRS 031715Z AUTO 35008KT 10SM FEW029 29/21 A2995 RMK AO2,2024-08-03T17:15:00Z,29,21,10+,29.95
KIOB,38.0574,-83.9829,0,0,0.0,KIOB 031715Z AUTO 00000KT 10SM SCT016 BKN025 BKN043 25/20 A2998 RMK AO2 PWINO,2024-08-03T17:15:00Z,25,20,10+,29.98
KINJ,32.0844,-97.0959,0,0,0.0,KINJ 031715Z AUTO 00000KT 10SM CLR 34/21 A3002 RMK AO2 T03390210,2024-08-03T17:15:00Z,33.9,21,10+,30.02
KINF,28.8062,-82.319,190,8,9.20624,KINF 031715Z AUTO 19008KT 7SM VCTSRA SCT032 SCT043 BKN060 30/26 A2999 RMK AO2 LTG DSNT E AND SE,2024-08-03T17:15:00Z,30,26,7,29.99
KIMS,38.7515,-85.4689,360,4,4.60312,KIMS 031715Z AUTO 36004KT 10SM SCT023 BKN028 BKN035 26/22 A2998 RMK AO2,2024-08-03T17:15:00Z,26,22,10+,29.98
KIMM,26.4321,-81.4073,110,17,19.56326,KIMM 031715Z AUTO 11017G22KT 10SM FEW034 FEW040 32/26 A2992 RMK AO2 LTG DSNT ALQDS,2024-08-03T17:15:00Z,32,26,10+,29.92
KIKW,43.6643,-84.2613,320,12,13.809359999999998,KIKW 031715Z AUTO 32012KT 10SM CLR 30/15 A2992 RMK AO2,2024-08-03T17:15:00Z,30,15,10+,29.92
KIKV,41.6878,-93.5695,VRB,4,4.60312,KIKV 031715Z AUTO VRB04KT CLR 30/20 A3004 RMK AO2,2024-08-03T17:15:00Z,30,20,,30.04
KIKK,41.0687,-87.8537,0,0,0.0,KIKK 031715Z AUTO 00000KT 10SM CLR 30/23 A2997 RMK AO2 T02990227,2024-08-03T17:15:00Z,29.9,22.7,10+,29.97
KIKG,27.5464,-98.0292,40,3,3.4523399999999995,KIKG 031715Z AUTO 04003KT 10SM CLR 32/23 A3000 RMK AO2 T03210227,2024-08-03T17:15:00Z,32.1,22.7,10+,30.00
KIJX,39.774,-90.2419,290,4,4.60312,KIJX 031715Z AUTO 29004KT 10SM CLR 29/22 A3001 RMK AO2 T02910215,2024-08-03T17:15:00Z,29.1,21.5,10+,30.01
KIIY,33.7797,-82.8135,220,6,6.904679999999999,KIIY 031715Z AUTO 22006KT 10SM SCT031 SCT042 BKN055 30/24 A2996 RMK AO2 T03010244,2024-08-03T17:15:00Z,30.1,24.4,10+,29.96
KIIB,42.4544,-91.9504,330,9,10.357019999999999,KIIB 031715Z AUTO 33009KT 10SM CLR 27/17 A3004 RMK AO2 T02680174,2024-08-03T17:15:00Z,26.8,17.4,10+,30.04
KIGQ,41.5412,-87.5282,20,4,4.60312,KIGQ 031715Z AUTO 02004KT 10SM CLR 31/23 A2996 RMK AO2 T03060230,2024-08-03T17:15:00Z,30.6,23,10+,29.96
KIFA,42.4691,-93.2651,10,3,3.4523399999999995,KIFA 031715Z AUTO 01003KT 10SM CLR 29/13 A3006 RMK AO2 T02870134,2024-08-03T17:15:00Z,28.7,13.4,10+,30.06
KIER,31.736,-93.1003,0,0,0.0,KIER 031715Z AUTO 00000KT 10SM SCT060 35/25 A2998 RMK AO2 T03530251,2024-08-03T17:15:00Z,35.3,25.1,10+,29.98
KIDP,37.1566,-95.7792,150,3,3.4523399999999995,KIDP 031715Z AUTO 15003KT 10SM CLR 32/17 A3007 RMK AO2,2024-08-03T17:15:00Z,32,17,10+,30.07
KIDI,40.6337,-79.1036,240,6,6.904679999999999,KIDI 031715Z AUTO 24006KT 10SM FEW025 28/22 A2991 RMK A01,2024-08-03T17:15:00Z,28,22,10+,29.91
KICL,40.7242,-95.0222,270,8,9.20624,KICL 031715Z AUTO 27008KT 10SM CLR 30/22 A3007 RMK AO2,2024-08-03T17:15:00Z,30,22,10+,30.07
KIBM,41.1894,-103.671,100,5,5.7539,KIBM 031715Z AUTO 10005KT 10SM CLR 33/10 A3025 RMK AO2 T03270104,2024-08-03T17:15:00Z,32.7,10.4,10+,30.25
KI95,40.6142,-83.6374,320,10,11.5078,KI95 031715Z AUTO 32010KT 6SM HZ FEW023 FEW033 SCT055 28/25 A2992 RMK A01,2024-08-03T17:15:00Z,28,25,6,29.92
KI75,41.0472,-93.6876,310,7,8.05546,KI75 031715Z AUTO 31007KT 7SM CLR 31/20 A3005 RMK AO2 T03130195,2024-08-03T17:15:00Z,31.3,19.5,7,30.05
KI74,40.1314,-83.757,20,3,3.4523399999999995,KI74 031715Z AUTO 02003KT 10SM SCT027 SCT032 SCT039 26/20 A2994 RMK AO2,2024-08-03T17:15:00Z,26,20,10+,29.94
KI68,39.4664,-84.2532,0,0,0.0,KI68 031715Z AUTO 00000KT 10SM FEW027 SCT033 BKN060 27/26 A2993 RMK AO2,2024-08-03T17:15:00Z,27,26,10+,29.93
KI67,39.2565,-84.7753,20,3,3.4523399999999995,KI67 031715Z AUTO 02003KT 10SM SCT026 BKN037 BKN042 27/21 A2993 RMK AO1,2024-08-03T17:15:00Z,27,21,10+,29.93
KI63,39.9883,-90.8023,320,4,4.60312,KI63 031715Z AUTO 32004KT 10SM SCT027 A3003 RMK AO2,2024-08-03T17:15:00Z,,,10+,30.03
KI40,40.3101,-81.8544,0,0,0.0,KI40 031715Z AUTO 00000KT 10SM SCT011 SCT022 BKN041 25/21 A2994 RMK AO2,2024-08-03T17:15:00Z,25,21,10+,29.94
KI35,36.8577,-83.3586,260,6,6.904679999999999,KI35 031715Z AUTO 26006KT 10SM BKN029 BKN040 OVC080 27/21 A2998 RMK AO2 T02690210,2024-08-03T17:15:00Z,26.9,21,10+,29.98
KI23,39.5697,-83.4239,0,0,0.0,KI23 031715Z AUTO 00000KT 10SM SCT031 SCT037 26/21 A2993 RMK AO1,2024-08-03T17:15:00Z,26,21,10+,29.93
KI16,37.5998,-81.5589,,,,KI16 031715Z AUTO 10SM SCT028 SCT044 SCT060 28/19 A3002 RMK AO2 T02750192,2024-08-03T17:15:00Z,27.5,19.2,10+,30.02
KHZX,46.6189,-93.3128,130,8,9.20624,KHZX 031715Z AUTO 13008KT 10SM CLR 26/16 A3002 RMK AO2 LTG DSNT N,2024-08-03T17:15:00Z,26,16,10+,30.02
KHZR,30.718,-91.48,350,3,3.4523399999999995,KHZR 031715Z AUTO 35003KT 10SM CLR 33/27 A2997 RMK AO2 LTG DSNT NE THRU S T03290265,2024-08-03T17:15:00Z,32.9,26.5,10+,29.97
KHZE,47.288,-101.577,350,16,18.41248,KHZE 031715Z AUTO 35016G21KT 10SM 27/18 A3005 RMK AO2,2024-08-03T17:15:00Z,27,18,10+,30.05
KHZD,36.089,-88.4654,VRB,5,5.7539,KHZD 031715Z AUTO VRB05KT 10SM FEW036 FEW042 FEW048 29/22 A2999 RMK A01,2024-08-03T17:15:00Z,29,22,10+,29.99
KHYX,43.4319,-83.8648,310,9,10.357019999999999,KHYX 031715Z AUTO 31009G17KT 10SM CLR 29/15 A2990 RMK AO2,2024-08-03T17:15:00Z,29,15,10+,29.90
KHYW,33.8256,-79.1259,150,5,5.7539,KHYW 031715Z AUTO 15005KT 10SM SCT039 SCT048 SCT120 31/24 A2999 RMK AO2 LTG DSNT S AND SW,2024-08-03T17:15:00Z,31,24,10+,29.99
KHWY,38.5876,-77.715,170,10,11.5078,KHWY 031715Z AUTO 17010G17KT 10SM CLR 34/19 A2984 RMK AO2 T03410193,2024-08-03T17:15:00Z,34.1,19.3,10+,29.84
KHVS,34.4065,-80.1198,240,7,8.05546,KHVS 031715Z AUTO 24007KT 210V280 10SM FEW035 32/24 A2995 RMK AO2 LTG DSNT E AND SW,2024-08-03T17:15:00Z,32,24,10+,29.95
KHVE,38.418,-110.704,0,0,0.0,KHVE 031715Z AUTO 00000KT 10SM CLR 34/08 A3020 RMK AO2,2024-08-03T17:15:00Z,34,8,10+,30.20
KHVC,36.8603,-87.4478,0,0,0.0,KHVC 031715Z AUTO 00000KT 10SM SCT035 29/22 A2998 RMK AO2,2024-08-03T17:15:00Z,29,22,10+,29.98
KHTH,38.5448,-118.631,40,7,8.05546,KHTH 031715Z AUTO 04007KT 10SM CLR 30/11 A3015 RMK A01,2024-08-03T17:15:00Z,30,11,10+,30.15
KHSP,37.9531,-79.8285,250,8,9.20624,KHSP 031715Z AUTO 25008KT 10SM 25/21 A3005 RMK AO2 LTG DSNT N AND SW T02490208,2024-08-03T17:15:00Z,24.9,20.8,10+,30.05
KHSG,43.7178,-108.385,140,6,6.904679999999999,KHSG 031715Z AUTO 14006KT 10SM CLR 32/04 A3023 RMK AO2 T03160044,2024-08-03T17:15:00Z,31.6,4.4,10+,30.23
KHSD,35.6018,-97.7093,40,9,10.357019999999999,KHSD 031715Z AUTO 04009KT 10SM CLR 33/14 A3009 RMK A01,2024-08-03T17:15:00Z,33,14,10+,30.09
KHSB,37.8128,-88.5449,40,4,4.60312,KHSB 031715Z AUTO 04004KT 10SM SCT033 BKN040 BKN048 29/23 A3000 RMK AO2 T02900227,2024-08-03T17:15:00Z,29,22.7,10+,30.00
KHRX,34.8628,-102.32,140,10,11.5078,KHRX 031715Z AUTO 14010G14KT 10SM SCT110 33/13 A3024 RMK AO2 T03340125 TSNO,2024-08-03T17:15:00Z,33.4,12.5,10+,30.24
KHRF,46.2575,-114.127,360,5,5.7539,KHRF 031715Z AUTO 36005KT 9SM CLR 24/12 A3008 RMK AO2,2024-08-03T17:15:00Z,24,12,9,30.08
KHQU,33.5279,-82.518,0,0,0.0,KHQU 031715Z AUTO 00000KT 10SM VCTS BKN021 BKN027 OVC032 A2996 RMK AO2 LTG DSNT N THRU SE,2024-08-03T17:15:00Z,,,10+,29.96
KHQG,37.1647,-101.371,220,6,6.904679999999999,KHQG 031715Z AUTO 22006KT 10SM CLR 30/20 A3016 RMK AO2,2024-08-03T17:15:00Z,30,20,10+,30.16
KHPT,42.7175,-93.2244,70,3,3.4523399999999995,KHPT 031715Z AUTO 07003KT CLR 27/16 A3004 RMK AO2 PWINO,2024-08-03T17:15:00Z,27,16,,30.04
KHOE,31.0561,-82.7726,140,4,4.60312,KHOE 031715Z AUTO 14004KT 10SM SCT033 SCT041 BKN049 31/24 A3000 RMK AO2 T03180245,2024-08-03T17:15:00Z,31.8,24.5,10+,30.00
KHNZ,36.3635,-78.5289,190,10,11.5078,KHNZ 031715Z AUTO 19010KT 10SM CLR 30/22 A2993 RMK AO2 T03010224,2024-08-03T17:15:00Z,30.1,22.4,10+,29.93
KHNR,41.5841,-95.3358,VRB,3,3.4523399999999995,KHNR 031715Z AUTO VRB03KT 10SM CLR A3005 RMK A01,2024-08-03T17:15:00Z,,,10+,30.05
KHMZ,40.0863,-78.5167,130,7,8.05546,KHMZ 031715Z AUTO 13007KT 10SM SCT046 29/19 A2985 RMK AO2 LTG DSNT N THRU SE T02900193,2024-08-03T17:15:00Z,29,19.3,10+,29.85
KHMT,33.7303,-117.027,0,0,0.0,KHMT 031715Z AUTO 00000KT 10SM CLR 34/11 A3000 RMK AO2,2024-08-03T17:15:00Z,34,11,10+,30.00
KHMP,33.3916,-84.3312,250,6,6.904679999999999,KHMP 031715Z AUTO 25006KT 5SM HZ SCT032 SCT038 SCT075 30/23 A3001 RMK AO2 T03050227,2024-08-03T17:15:00Z,30.5,22.7,5,30.01
KHLX,36.7637,-80.8211,170,12,13.809359999999998,KHLX 031715Z AUTO 17012G16KT 5SM +VCTSRA SCT024 BKN085 OVC110 22/18 A3000 RMK AO2 LTG DSNT ALQS P0004,2024-08-03T17:15:00Z,22,18,5,30.00
KHLB,39.3463,-85.2602,VRB,4,4.60312,KHLB 031715Z AUTO VRB04KT 10SM FEW024 FEW038 28/27 A2996 RMK A01,2024-08-03T17:15:00Z,28,27,10+,29.96
KHJH,40.1493,-97.5872,210,6,6.904679999999999,KHJH 031715Z AUTO 21006KT 10SM OVC100 30/16 A3009 RMK AO2 T03030163,2024-08-03T17:15:00Z,30.3,16.3,10+,30.09
KHHW,34.0308,-95.5401,40,6,6.904679999999999,KHHW 031715Z AUTO 04006KT 10SM SCT050 33/18 A3002 RMK AO2,2024-08-03T17:15:00Z,33,18,10+,30.02
KHHG,40.8543,-85.4543,40,4,4.60312,KHHG 031715Z AUTO 04004KT 10SM SCT034 SCT045 28/21 A2995 RMK AO2 T02840208,2024-08-03T17:15:00Z,28.4,20.8,10+,29.95
KHHF,35.8929,-100.405,200,11,12.658579999999999,KHHF 031715Z AUTO 20011G16KT 10SM CLR 33/13 A3013 RMK AO2 T03340125,2024-08-03T17:15:00Z,33.4,12.5,10+,30.13
KHFY,39.628,-86.088,0,0,0.0,KHFY 031715Z AUTO 00000KT 10SM SCT038 BKN046 29/19 A2997 RMK AO2 T02930186,2024-08-03T17:15:00Z,29.3,18.6,10+,29.97
KHFJ,36.9105,-94.0099,330,6,6.904679999999999,KHFJ 031715Z AUTO 33006KT 10SM CLR 30/17 A3009 RMK AO2,2024-08-03T17:15:00Z,30,17,10+,30.09
KHEQ,40.5715,-102.277,,,,KHEQ 031715Z AUTO 29/14 RMK AO2 TSNO PWINO,2024-08-03T17:15:00Z,29,14,,
KHEG,30.2771,-81.8087,180,4,4.60312,KHEG 031715Z AUTO 18004KT 10SM CLR 33/23 A3001 RMK AO2 TSNO,2024-08-03T17:15:00Z,33,23,10+,30.01
KHDE,40.4496,-99.3363,230,6,6.904679999999999,KHDE 031715Z AUTO 23006KT 10SM SCT120 30/20 A3011 RMK AO2 T03000195,2024-08-03T17:15:00Z,30,19.5,10+,30.11
KHDC,30.5237,-90.4176,0,0,0.0,KHDC 031715Z AUTO 00000KT 10SM SCT035 BKN050 OVC070 33/26 A2995 RMK AO2 LTG DSNT SW T03340256,2024-08-03T17:15:00Z,33.4,25.6,10+,29.95
KHCR,40.4774,-111.433,300,3,3.4523399999999995,KHCR 031715Z AUTO 30003KT 10SM FEW240 26/07 A3026 RMK AO2 T02560072,2024-08-03T17:15:00Z,25.6,7.2,10+,30.26
KHCO,48.7524,-96.9376,40,8,9.20624,KHCO 031715Z AUTO 04008KT 010V070 10SM SCT025 25/21 A2991 RMK AO2,2024-08-03T17:15:00Z,25,21,10+,29.91
KHCD,44.8597,-94.3855,170,5,5.7539,KHCD 031715Z AUTO 17005KT 10SM CLR 27/15 A3002 RMK AO2 T02690153 TSNO,2024-08-03T17:15:00Z,26.9,15.3,10+,30.02
KHAI,41.9591,-85.5933,350,5,5.7539,KHAI 031715Z AUTO 35005KT 4SM HZ SCT030 28/21 A2995 RMK AO2 T02800212,2024-08-03T17:15:00Z,28,21.2,4,29.95
KHAF,37.5136,-122.5,300,6,6.904679999999999,KHAF 031715Z AUTO 30006KT 4SM BR OVC004 14/14 A3002 RMK AO2,2024-08-03T17:15:00Z,14,14,4,30.02
KHAE,39.7262,-91.4425,10,3,3.4523399999999995,KHAE 031715Z AUTO 01003KT 10SM CLR 31/21 A3003 RMK AO2,2024-08-03T17:15:00Z,31,21,10+,30.03
KGZS,35.1533,-87.0543,0,0,0.0,KGZS 031715Z AUTO 00000KT 10SM SCT041 SCT047 30/21 A2999 RMK A01,2024-08-03T17:15:00Z,30,21,10+,29.99
KGZL,35.2913,-95.0956,VRB,6,6.904679999999999,KGZL 031715Z AUTO VRB06KT 10SM BKN050 33/20 A3014 RMK AO2,2024-08-03T17:15:00Z,33,20,10+,30.14
KGYL,44.7588,-94.0905,150,6,6.904679999999999,KGYL 031715Z AUTO 15006KT 10SM CLR 27/16 A3001 RMK AO2 T02700164,2024-08-03T17:15:00Z,27,16.4,10+,30.01
KGYI,33.7231,-96.6714,10,6,6.904679999999999,KGYI 031715Z 01006KT 10SM CLR 33/17 A3004,2024-08-03T17:15:00Z,33,17,10+,30.04
KGYF,26.1292,-94.8981,0,0,0.0,KGYF 031715Z AUTO 00000KT 10SM CLR 29/23 A3000 RMK AO2 T02930234,2024-08-03T17:15:00Z,29.3,23.4,10+,30.00
KGYB,30.1714,-96.9785,30,3,3.4523399999999995,KGYB 031715Z AUTO 03003KT SCT040 33/23 A3006 RMK AO2 T03280229 PWINO,2024-08-03T17:15:00Z,32.8,22.9,,30.06
KGWR,46.2185,-97.6396,200,10,11.5078,KGWR 031715Z AUTO 20010KT 9SM CLR 29/24 A2989 RMK A01,2024-08-03T17:15:00Z,29,24,9,29.89
KGWB,41.3061,-85.0585,50,5,5.7539,KGWB 031715Z AUTO 05005KT 10SM CLR 29/21 A2995 RMK AO2,2024-08-03T17:15:00Z,29,21,10+,29.95
KGVW,29.1303,-94.5466,20,4,4.60312,KGVW 031715Z AUTO 02004KT 10SM CLR 31/26 A3002 RMK A01,2024-08-03T17:15:00Z,31,26,10+,30.02
KGVE,38.1569,-78.1656,220,13,14.960139999999999,KGVE 031715Z AUTO 22013G18KT 10SM CLR 32/23 A2985 RMK AO1 T03190226,2024-08-03T17:15:00Z,31.9,22.6,10+,29.85
KGRN,42.8039,-102.181,0,0,0.0,KGRN 031715Z AUTO 00000KT 10SM CLR 35/09 A3011 RMK AO2 T03480092,2024-08-03T17:15:00Z,34.8,9.2,10+,30.11
KGPC,39.635,-86.816,300,4,4.60312,KGPC 031715Z AUTO 30004KT 10SM SCT031 29/22 A2998 RMK AO2 T02860217,2024-08-03T17:15:00Z,28.6,21.7,10+,29.98
KGOP,31.4208,-97.7951,0,0,0.0,KGOP 031715Z AUTO 00000KT 10SM CLR 29/24 A3005 RMK AO2,2024-08-03T17:15:00Z,29,24,10+,30.05
KGOO,39.224,-121.003,100,4,4.60312,KGOO 031715Z AUTO 10004KT 10SM CLR 27/13 A3010 RMK A01,2024-08-03T17:15:00Z,27,13,10+,30.10
KGNG,42.9155,-114.765,100,7,8.05546,KGNG 031715Z AUTO 10007KT 10SM CLR 31/10 A3008 RMK AO2,2024-08-03T17:15:00Z,31,10,10+,30.08
KGNC,32.678,-102.65,340,6,6.904679999999999,KGNC 031715Z AUTO 34006KT 10SM SCT120 32/16 A3023 RMK AO2 T03160159,2024-08-03T17:15:00Z,31.6,15.9,10+,30.23
KGNB,40.0904,-105.911,190,3,3.4523399999999995,KGNB 031715Z AUTO 19003KT 10SM CLR A3052 RMK AO2,2024-08-03T17:15:00Z,,,10+,30.52
KGMJ,36.607,-94.7369,0,0,0.0,KGMJ 031715Z AUTO 00000KT 10SM FEW045 31/20 A3006 RMK AO2 TSNO,2024-08-03T17:15:00Z,31,20,10+,30.06
KGLY,38.3572,-93.6774,VRB,3,3.4523399999999995,KGLY 031715Z AUTO VRB03KT 9SM CLR 31/20 A3007 RMK AO2,2024-08-03T17:15:00Z,31,20,9,30.07
KGLW,37.0337,-85.9523,290,5,5.7539,KGLW 031715Z AUTO 29005KT 10SM SCT024 BKN036 BKN048 27/22 A2998 RMK AO2 T02700221,2024-08-03T17:15:00Z,27,22.1,10+,29.98
KGIC,45.9411,-116.133,40,5,5.7539,KGIC 031715Z AUTO 04005KT 10SM CLR 29/12 A3008 RMK AO1,2024-08-03T17:15:00Z,29,12,10+,30.08
KGHG,42.0961,-70.6769,VRB,6,6.904679999999999,KGHG 031715Z AUTO VRB06G16KT 10SM SCT043 SCT049 BKN055 33/22 A2977 RMK AO2,2024-08-03T17:15:00Z,33,22,10+,29.77
KGGF,40.871,-101.734,250,6,6.904679999999999,KGGF 031715Z AUTO 25006KT 10SM CLR 32/15 A3015 RMK AO2,2024-08-03T17:15:00Z,32,15,10+,30.15
KGGE,33.3138,-79.3187,250,5,5.7539,KGGE 031715Z AUTO 25005KT 7SM TSRA BKN025 BKN035 OVC048 26/25 A3002 RMK AO2 LTG DSNT ALQDS P0008,2024-08-03T17:15:00Z,26,25,7,30.02
KGDK,39.6935,-83.9896,VRB,4,4.60312,KGDK 031715Z AUTO VRB04KT 10SM TS FEW029 SCT036 SCT041 28/23 A2992 RMK AO2,2024-08-03T17:15:00Z,28,23,10+,29.92
KGDB,44.7521,-95.5591,160,9,10.357019999999999,KGDB 031715Z AUTO 16009KT 10SM CLR 30/23 A2999 RMK AO2 T02990232,2024-08-03T17:15:00Z,29.9,23.2,10+,29.99
KGDA,37.3344,-88.1095,310,7,8.05546,KGDA 031715Z AUTO 31007KT 10SM SCT033 SCT047 29/20 A3001 RMK AO2 T02940195 PWINO,2024-08-03T17:15:00Z,29.4,19.5,10+,30.01
KGCY,36.1924,-82.8135,VRB,5,5.7539,KGCY 031715Z AUTO VRB05G10KT 10SM FEW021 FEW090 26/20 A2998 RMK A01,2024-08-03T17:15:00Z,26,20,10+,29.98
KGCM,36.2918,-95.4825,VRB,6,6.904679999999999,KGCM 031715Z AUTO VRB06KT 10SM CLR 32/21 A3006 RMK AO2,2024-08-03T17:15:00Z,32,21,10+,30.06
KGCD,44.4029,-118.967,240,5,5.7539,KGCD 031715Z AUTO 24005KT 10SM CLR 25/10 A3013 RMK AO2 T02540100,2024-08-03T17:15:00Z,25.4,10,10+,30.13
KGBK,27.2039,-92.2025,0,0,0.0,KGBK 031715Z AUTO 00000KT 10SM FEW024 32/25 A2999 RMK A01,2024-08-03T17:15:00Z,32,25,10+,29.99
KGBG,40.9329,-90.4334,320,5,5.7539,KGBG 031715Z AUTO 32005KT 10SM CLR 32/23 A3001 RMK AO2 T03160233,2024-08-03T17:15:00Z,31.6,23.3,10+,30.01
KGAO,29.4352,-90.2599,40,5,5.7539,KGAO 031715Z AUTO 04005KT 10SM SCT033 SCT040 33/24 A2996 RMK AO2 T03320244,2024-08-03T17:15:00Z,33.2,24.4,10+,29.96
KFZG,31.684,-83.2712,210,8,9.20624,KFZG 031715Z AUTO 21008KT 10SM SCT033 33/24 A2999 RMK AO2 T03310239,2024-08-03T17:15:00Z,33.1,23.9,10+,29.99
KFYM,35.0603,-86.5656,300,3,3.4523399999999995,KFYM 031715Z AUTO 30003KT 10SM FEW036 29/21 A3001 RMK A01,2024-08-03T17:15:00Z,29,21,10+,30.01
KFYJ,37.5224,-76.7663,0,0,0.0,KFYJ 031715Z AUTO 00000KT 10SM SCT027 SCT032 30/25 A2991 RMK AO1 T03010246,2024-08-03T17:15:00Z,30.1,24.6,10+,29.91
KFYG,38.5877,-90.9915,0,0,0.0,KFYG 031715Z AUTO 00000KT 10SM 30/26 A3002 RMK AO2,2024-08-03T17:15:00Z,30,26,10+,30.02
KFYE,35.2061,-89.3929,350,8,9.20624,KFYE 031715Z AUTO 35008KT 10SM FEW036 FEW043 30/21 A3000 RMK A01,2024-08-03T17:15:00Z,30,21,10+,30.00
KFXY,43.2323,-93.6237,0,0,0.0,KFXY 031715Z AUTO 00000KT 10SM CLR 27/15 A3005 RMK AO2,2024-08-03T17:15:00Z,27,15,10+,30.05
KFWC,38.3796,-88.4135,350,3,3.4523399999999995,KFWC 031715Z AUTO 35003KT 10SM SCT035 29/21 A3000 RMK AO2 T02910210,2024-08-03T17:15:00Z,29.1,21,10+,30.00
KFWB,36.6933,-93.4049,VRB,6,6.904679999999999,KFWB 031715Z AUTO VRB06KT 9SM CLR 31/19 A3009 RMK AO2,2024-08-03T17:15:00Z,31,19,9,30.09
KFVX,37.363,-78.4372,180,10,11.5078,KFVX 031715Z AUTO 18010G15KT 10SM BKN019 BKN028 29/24 A2990 RMK AO2 T02920242,2024-08-03T17:15:00Z,29.2,24.2,10+,29.90
KFTN,28.2111,-100.024,VRB,4,4.60312,KFTN 031715Z AUTO VRB04G25KT 8SM FEW050 FEW055 36/21 A3003 RMK A01,2024-08-03T17:15:00Z,36,21,8,30.03
KFSW,40.6615,-91.3267,270,7,8.05546,KFSW 031715Z AUTO 27007KT 10SM CLR 30/23 A3001 RMK AO2,2024-08-03T17:15:00Z,30,23,10+,30.01
KFSK,37.796,-94.7676,10,6,6.904679999999999,KFSK 031715Z AUTO 01006KT 10SM CLR 32/17 A3008 RMK AO2 T03170167,2024-08-03T17:15:00Z,31.7,16.7,10+,30.08
KFSE,47.589,-95.773,160,4,4.60312,KFSE 031715Z AUTO 16004KT 7SM -RA CLR 23/18 A2989 RMK AO2 LTG DSNT NE AND W,2024-08-03T17:15:00Z,23,18,7,29.89
KFRR,38.9169,-78.2487,180,4,4.60312,KFRR 031715Z AUTO 18004KT 10SM SCT050 SCT070 BKN120 33/21 A2983 RMK AO1,2024-08-03T17:15:00Z,33,21,10+,29.83
KFPY,30.0719,-83.5731,300,5,5.7539,KFPY 031715Z AUTO 30005KT 10SM VCTS BKN028 31/25 A3000 RMK AO2 LTG DSNT ALQS T03100250,2024-08-03T17:15:00Z,31,25,10+,30.00
KFPK,42.5764,-84.8125,VRB,5,5.7539,KFPK 031715Z AUTO VRB05KT 10SM CLR 28/19 A2993 RMK AO2,2024-08-03T17:15:00Z,28,19,10+,29.93
KFOT,40.5529,-124.134,0,0,0.0,KFOT 031715Z AUTO 00000KT 9SM SCT006 OVC011 14/14 A3007 RMK AO1,2024-08-03T17:15:00Z,14,14,9,30.07
KFOM,38.9618,-112.36,,,,KFOM 031715Z AUTO 10SM CLR 35/05 A3025 RMK AO1,2024-08-03T17:15:00Z,35,5,10+,30.25
KFMM,40.3315,-103.807,VRB,4,4.60312,KFMM 031715Z AUTO VRB04KT 10SM CLR 27/16 A3023 RMK AO2,2024-08-03T17:15:00Z,27,16,10+,30.23
KFLY,38.9439,-104.568,20,8,9.20624,KFLY 031715Z AUTO 02008G19KT 10SM CLR 30/05 A3040 RMK AO2 T03010046,2024-08-03T17:15:00Z,30.1,4.6,10+,30.40
KFKS,44.6246,-86.1985,320,8,9.20624,KFKS 031715Z AUTO 32008KT 10SM CLR 28/17 A2998 RMK AO2 T02810169,2024-08-03T17:15:00Z,28.1,16.9,10+,29.98
KFKR,40.2748,-86.5644,40,4,4.60312,KFKR 031715Z AUTO 04004KT 10SM CLR 29/24 A2996 RMK AO2,2024-08-03T17:15:00Z,29,24,10+,29.96
KFKN,36.6984,-76.9032,210,13,14.960139999999999,KFKN 031715Z AUTO 21013G19KT 10SM BKN033 BKN043 32/24 A2993 RMK AO2 T03200235,2024-08-03T17:15:00Z,32,23.5,10+,29.93
KFKA,43.677,-92.174,40,6,6.904679999999999,KFKA 031715Z AUTO 04006KT 10SM CLR 26/17 A3004 RMK AO2,2024-08-03T17:15:00Z,26,17,10+,30.04
KFHB,30.6131,-81.4623,140,12,13.809359999999998,KFHB 031715Z AUTO 14012KT 10SM CLR 31/25 A3000 RMK AO2 LTG DSNT S,2024-08-03T17:15:00Z,31,25,10+,30.00
KFGX,38.5383,-83.7467,0,0,0.0,KFGX 031715Z AUTO 00000KT 10SM SCT035 OVC049 26/19 A2997 RMK AO2 T02570189,2024-08-03T17:15:00Z,25.7,18.9,10+,29.97
KFFX,43.4417,-85.9936,320,7,8.05546,KFFX 031715Z AUTO 32007KT 10SM CLR 30/16 A2996 RMK AO2 T02970161,2024-08-03T17:15:00Z,29.7,16.1,10+,29.96
KFFM,46.2865,-96.1534,160,13,14.960139999999999,KFFM 031715Z AUTO 16013G20KT 10SM CLR 29/24 A2991 RMK AO2,2024-08-03T17:15:00Z,29,24,10+,29.91
KFFL,41.0521,-91.9834,0,0,0.0,KFFL 031715Z AUTO 00000KT 10SM CLR 29/19 A3002 RMK A01,2024-08-03T17:15:00Z,29,19,10+,30.02
KFET,41.4489,-96.5237,210,8,9.20624,KFET 031715Z AUTO 21008KT 10SM CLR 33/18 A3005 RMK AO2 T03260182,2024-08-03T17:15:00Z,32.6,18.2,10+,30.05
KFEP,42.2475,-89.581,250,3,3.4523399999999995,KFEP 031715Z AUTO 25003KT 10SM BKN055 BKN070 29/23 A3000 RMK AO2 T02890232,2024-08-03T17:15:00Z,28.9,23.2,10+,30.00
KFDW,34.3151,-81.1119,200,10,11.5078,KFDW 031715Z AUTO 20010KT 10SM SCT060 SCT075 BKN085 31/23 A2996 RMK AO1,2024-08-03T17:15:00Z,31,23,10+,29.96
KFBR,41.3941,-110.406,70,3,3.4523399999999995,KFBR 031715Z AUTO 07003KT 10SM CLR 28/M04 A3041 RMK AO2 T02801041,2024-08-03T17:15:00Z,28,-4.1,10+,30.41
KFBL,44.3298,-93.3119,0,0,0.0,KFBL 031715Z AUTO 00000KT 10SM CLR 27/16 A3004 RMK AO2,2024-08-03T17:15:00Z,27,16,10+,30.04
KF95,30.4881,-85.1148,130,4,4.60312,KF95 031715Z AUTO 13004G11KT 10SM BKN031 BKN037 33/27 A2997 RMK AO2,2024-08-03T17:15:00Z,33,27,10+,29.97
KF70,33.577,-117.126,0,0,0.0,KF70 031715Z AUTO 00000KT 10SM CLR 33/11 A2999 RMK AO2,2024-08-03T17:15:00Z,33,11,10+,29.99
KF46,32.9322,-96.4349,350,5,5.7539,KF46 031715Z AUTO 35005KT 10SM CLR 34/18 A3001 RMK AO2 T03420182,2024-08-03T17:15:00Z,34.2,18.2,10+,30.01
KF44,32.165,-95.829,0,0,0.0,KF44 031715Z AUTO 00000KT 10SM CLR 31/22 A2999 RMK AO2,2024-08-03T17:15:00Z,31,22,10+,29.99
KF17,31.8277,-94.154,330,5,5.7539,KF17 031715Z AUTO 33005KT 10SM SCT075 32/20 A3000 RMK AO2,2024-08-03T17:15:00Z,32,20,10+,30.00
KF05,34.2283,-99.2834,190,5,5.7539,KF05 031715Z AUTO 19005KT 10SM CLR 35/16 A3008 RMK AO2 T03460159,2024-08-03T17:15:00Z,34.6,15.9,10+,30.08
KF00,33.6158,-96.1809,30,6,6.904679999999999,KF00 031715Z AUTO 03006KT 10SM CLR 33/17 A3002 RMK AO2 T03310169,2024-08-03T17:15:00Z,33.1,16.9,10+,30.02
KEZZ,39.729,-94.2785,280,4,4.60312,KEZZ 031715Z AUTO 28004KT 10SM SCT040 30/21 A3008 RMK AO2 T03040211,2024-08-03T17:15:00Z,30.4,21.1,10+,30.08
KEZS,44.787,-88.5639,0,0,0.0,KEZS 031715Z AUTO 00000KT 10SM CLR 29/16 A3000 RMK AO2 T02870162,2024-08-03T17:15:00Z,28.7,16.2,10+,30.00
KEZP,28.2198,-92.7944,10,8,9.20624,KEZP 031715Z AUTO 01008KT 10SM SCT023 31/25 A3001 RMK A01,2024-08-03T17:15:00Z,31,25,10+,30.01
KEZM,32.2136,-83.1321,190,3,3.4523399999999995,KEZM 031715Z AUTO 19003KT 10SM BKN025 BKN033 BKN039 31/26 A3000 RMK AO2,2024-08-03T17:15:00Z,31,26,10+,30.00
KEZF,38.2685,-77.448,210,11,12.658579999999999,KEZF 031715Z AUTO 21011G15KT 10SM SCT031 33/22 A2984 RMK AO2 T03250219,2024-08-03T17:15:00Z,32.5,21.9,10+,29.84
KEVU,40.3524,-94.9137,260,6,6.904679999999999,KEVU 031715Z AUTO 26006KT 10SM CLR 31/21 A3007 RMK AO2 T03190218,2024-08-03T17:15:00Z,31.9,21.8,10+,30.07
KETO,28.0336,-89.1008,50,9,10.357019999999999,KETO 031715Z AUTO 05009KT 10SM FEW023 SCT030 SCT035 33/26 A2997 RMK A01,2024-08-03T17:15:00Z,33,26,10+,29.97
KETN,32.4164,-98.8113,260,4,4.60312,KETN 031715Z AUTO 26004KT 10SM CLR 33/19 A3006 RMK AO2 T03310190,2024-08-03T17:15:00Z,33.1,19,10+,30.06
KETB,43.4225,-88.1326,90,5,5.7539,KETB 031715Z AUTO 09005KT 10SM SCT050 27/16 A3000 RMK AO2,2024-08-03T17:15:00Z,27,16,10+,30.00
KERY,46.3151,-85.4568,340,9,10.357019999999999,KERY 031715Z AUTO 34009KT 10SM CLR 28/12 A2996 RMK AO2 T02810115,2024-08-03T17:15:00Z,28.1,11.5,10+,29.96
KERV,29.9779,-99.0872,150,4,4.60312,KERV 031715Z AUTO 15004KT 10SM SCT047 32/22 A3008 RMK AO2 T03230220,2024-08-03T17:15:00Z,32.3,22,10+,30.08
KEQA,37.7753,-96.8145,0,0,0.0,KEQA 031715Z AUTO 00000KT 10SM CLR 32/16 A3011 RMK AO2,2024-08-03T17:15:00Z,32,16,10+,30.11
KEOE,34.3062,-81.6413,160,6,6.904679999999999,KEOE 031715Z AUTO 16006KT 10SM SCT026 SCT032 SCT042 30/23 A2997 RMK AO2 LTG DSNT NE AND S,2024-08-03T17:15:00Z,30,23,10+,29.97
KENL,38.5095,-89.09,360,6,6.904679999999999,KENL 031715Z AUTO 36006KT 10SM CLR 30/22 A3001 RMK AO2 T02970224,2024-08-03T17:15:00Z,29.7,22.4,10+,30.01
KEMM,41.8224,-110.555,100,6,6.904679999999999,KEMM 031715Z AUTO 10006KT 10SM CLR 28/M05 A3040 RMK AO2,2024-08-03T17:15:00Z,28,-5,10+,30.40
KELO,47.8287,-91.8371,30,3,3.4523399999999995,KELO 031715Z AUTO 03003KT 7SM RA SCT012 SCT037 20/14 A3010 RMK AO2,2024-08-03T17:15:00Z,20,14,7,30.10
KELK,35.4261,-99.3926,0,0,0.0,KELK 031715Z AUTO 00000KT 10SM CLR 33/15 A3012 RMK AO2 T03290148 $,2024-08-03T17:15:00Z,32.9,14.8,10+,30.12
KELA,29.602,-96.3239,,,,KELA 031715Z AUTO 10SM CLR 33/25 A3001 RMK AO2 T03290250,2024-08-03T17:15:00Z,32.9,25,10+,30.01
KEKX,37.6924,-85.9204,320,5,5.7539,KEKX 031715Z AUTO 32005KT 10SM SCT028 BKN033 SCT042 28/21 A2996 RMK AO2 T02780205,2024-08-03T17:15:00Z,27.8,20.5,10+,29.96
KEKS,45.276,-111.65,0,0,0.0,KEKS 031715Z AUTO 00000KT 10SM CLR 27/04 A3027 RMK AO2,2024-08-03T17:15:00Z,27,4,10+,30.27
KEKM,41.7222,-86,0,0,0.0,KEKM 031715Z 00000KT 10SM CLR 30/21 A2995 RMK AO2 T02990211 $,2024-08-03T17:15:00Z,29.9,21.1,10+,29.95
KEKE,28.4971,-91.5702,290,8,9.20624,KEKE 031715Z AUTO 29008KT 10SM CLR 31/26 A2992 RMK A01,2024-08-03T17:15:00Z,31,26,10+,29.92
KEIK,40.0117,-105.05,VRB,3,3.4523399999999995,KEIK 031715Z AUTO VRB03KT 9SM CLR 31/07 A3025 RMK AO2 T03090075,2024-08-03T17:15:00Z,30.9,7.5,9,30.25
KEHY,41.725,-106.459,60,9,10.357019999999999,KEHY 031715Z AUTO 06009KT 10SM CLR A3041 RMK AO2 PWINO,2024-08-03T17:15:00Z,,,10+,30.41
KEGV,45.9309,-89.267,290,5,5.7539,KEGV 031715Z AUTO 29005KT 10SM CLR 27/11 A3004 RMK AO2 T02660110,2024-08-03T17:15:00Z,26.6,11,10+,30.04
KEGT,37.3251,-97.3901,70,4,4.60312,KEGT 031715Z AUTO 07004KT 10SM CLR 32/15 A3010 RMK AO2 T03240154,2024-08-03T17:15:00Z,32.4,15.4,10+,30.10
KEFT,42.6196,-89.5931,30,4,4.60312,KEFT 031715Z AUTO 03004KT 10SM CLR 29/21 A2998 RMK AO2 T02850210,2024-08-03T17:15:00Z,28.5,21,10+,29.98
KEFK,44.8886,-72.2296,0,0,0.0,KEFK 031715Z AUTO 00000KT 10SM SCT040 29/20 A2982 RMK AO2 T02900196,2024-08-03T17:15:00Z,29,19.6,10+,29.82
KEDU,38.53,-121.788,,,,KEDU 031715Z AUTO 10SM CLR 28/12 A2995 RMK AO1,2024-08-03T17:15:00Z,28,12,10+,29.95
KEDJ,40.3714,-83.8142,350,7,8.05546,KEDJ 031715Z AUTO 35007KT 10SM FEW020 FEW025 28/23 A2995 RMK A01,2024-08-03T17:15:00Z,28,23,10+,29.95
KEDC,30.3926,-97.5621,0,0,0.0,KEDC 031715Z AUTO 00000KT 8SM CLR 34/25 A3001 RMK AO2,2024-08-03T17:15:00Z,34,25,8,30.01
KECU,29.948,-100.174,0,0,0.0,KECU 031715Z AUTO 00000KT 10SM 32/20 A3017 RMK AO2,2024-08-03T17:15:00Z,32,20,10+,30.17
KECS,43.8845,-104.312,270,4,4.60312,KECS 031715Z AUTO 27004KT 10SM CLR 33/03 A3017 RMK AO2,2024-08-03T17:15:00Z,33,3,10+,30.17
KEBS,42.4372,-93.8725,140,3,3.4523399999999995,KEBS 031715Z AUTO 14003KT 10SM CLR A3003 RMK AO2,2024-08-03T17:15:00Z,,,10+,30.03
KEBG,26.4433,-98.1255,0,0,0.0,KEBG 031715Z AUTO 00000KT 10SM CLR 33/22 A2999 RMK AO2,2024-08-03T17:15:00Z,33,22,10+,29.99
KEBA,34.0957,-82.8121,210,8,9.20624,KEBA 031715Z AUTO 21008KT 10SM SCT028 SCT034 SCT080 30/24 A2994 RMK AO2 T03020241,2024-08-03T17:15:00Z,30.2,24.1,10+,29.94
KEAN,42.0563,-104.939,360,4,4.60312,KEAN 031715Z AUTO 36004KT 10SM CLR 33/07 A3022 RMK AO2 T03340067,2024-08-03T17:15:00Z,33.4,6.7,10+,30.22
KE77,32.634,-110.647,VRB,3,3.4523399999999995,KE77 031715Z AUTO VRB03KT 10SM CLR 33/18 A3017 RMK AO2,2024-08-03T17:15:00Z,33,18,10+,30.17
KE57,32.976,-102.843,VRB,4,4.60312,KE57 031715Z AUTO VRB04KT 10SM FEW100 FEW120 31/15 A3021 RMK AO2,2024-08-03T17:15:00Z,31,15,10+,30.21
KE42,36.2193,-101.194,170,17,19.56326,KE42 031715Z AUTO 17017KT 10SM CLR 32/17 A3017 RMK AO2 T03230167,2024-08-03T17:15:00Z,32.3,16.7,10+,30.17
KE41,31.1945,-101.473,90,5,5.7539,KE41 031715Z AUTO 09005KT 10SM CLR 33/16 A3015 RMK AO2 T03350164,2024-08-03T17:15:00Z,33.5,16.4,10+,30.15
KE38,30.3851,-103.68,100,11,12.658579999999999,KE38 031715Z AUTO 10011G15KT 10SM CLR 32/05 A3029 RMK AO2 T03230051,2024-08-03T17:15:00Z,32.3,5.1,10+,30.29
KE16,37.0797,-121.598,170,5,5.7539,KE16 031715Z AUTO 17005KT 10SM CLR 24/14 A2999 RMK AO2,2024-08-03T17:15:00Z,24,14,10+,29.99
KE11,32.3281,-102.528,280,6,6.904679999999999,KE11 031715Z AUTO 28006KT 10SM CLR 33/14 A3018 RMK AO2 T03300141,2024-08-03T17:15:00Z,33,14.1,10+,30.18
KDZJ,34.8552,-84.0014,260,3,3.4523399999999995,KDZJ 031715Z AUTO 26003KT 10SM SCT032 SCT070 27/19 A3003 RMK AO2 T02720188,2024-08-03T17:15:00Z,27.2,18.8,10+,30.03
KDZB,30.521,-98.3574,0,0,0.0,KDZB 031715Z AUTO 00000KT 10SM CLR 33/22 A3006 RMK AO2 T03280216,2024-08-03T17:15:00Z,32.8,21.6,10+,30.06
KDYT,46.7231,-92.0438,30,7,8.05546,KDYT 031715Z AUTO 03007KT 10SM CLR 25/17 A3000 RMK AO2,2024-08-03T17:15:00Z,25,17,10+,30.00
KDYB,33.062,-80.28,0,0,0.0,KDYB 031715Z AUTO 00000KT 10SM FEW036 32/26 A2997 RMK AO2 LTG DSNT NE AND E,2024-08-03T17:15:00Z,32,26,10+,29.97
KDXX,44.9839,-96.1789,180,10,11.5078,KDXX 031715Z AUTO 18010KT 10SM CLR 31/26 A2996 RMK AO2,2024-08-03T17:15:00Z,31,26,10+,29.96
KDWX,41.037,-107.5,230,4,4.60312,KDWX 031715Z AUTO 23004KT 10SM CLR 28/03 A3039 RMK AO2 T02840030,2024-08-03T17:15:00Z,28.4,3,10+,30.39
KDWA,38.5803,-121.854,VRB,4,4.60312,KDWA 031715Z AUTO VRB04KT 10SM CLR 29/13 A2996 RMK AO2,2024-08-03T17:15:00Z,29,13,10+,29.96
KDVO,38.1417,-122.555,0,0,0.0,KDVO 031715Z AUTO 00000KT 10SM CLR 23/15 A2997 RMK AO2,2024-08-03T17:15:00Z,23,15,10+,29.97
KDUX,35.8608,-102.009,170,12,13.809359999999998,KDUX 031715Z AUTO 17012G18KT 10SM CLR 31/15 A3021 RMK AO2 T03050147,2024-08-03T17:15:00Z,30.5,14.7,10+,30.21
KDUH,41.7375,-83.6493,20,5,5.7539,KDUH 031715Z AUTO 02005KT 10SM CLR 30/19 A2991 RMK AO2 T02950192,2024-08-03T17:15:00Z,29.5,19.2,10+,29.91
KDUC,34.4778,-97.9616,250,4,4.60312,KDUC 031715Z AUTO 25004KT 10SM CLR 34/14 A3008 RMK AO2,2024-08-03T17:15:00Z,34,14,10+,30.08
KDUA,33.9427,-96.3967,30,6,6.904679999999999,KDUA 031715Z AUTO 03006KT 10SM CLR 34/11 A3005 RMK AO2,2024-08-03T17:15:00Z,34,11,10+,30.05
KDTL,46.8286,-95.8857,190,13,14.960139999999999,KDTL 031715Z AUTO 19013KT 10SM CLR 28/19 A2990 RMK AO2,2024-08-03T17:15:00Z,28,19,10+,29.90
KDTA,39.3879,-112.504,160,11,12.658579999999999,KDTA 031715Z AUTO 16011G21KT 10SM CLR 32/07 A3019 RMK AO1,2024-08-03T17:15:00Z,32,7,10+,30.19
KDRP,35.1213,-90.8246,0,0,0.0,KDRP 031715Z AUTO 00000KT 10SM BKN037 BKN042 30/23 A3001 RMK AO2,2024-08-03T17:15:00Z,30,23,10+,30.01
KDRM,46.009,-83.743,330,6,6.904679999999999,KDRM 031715Z AUTO 33006KT 10SM CLR 29/14 A2991 RMK AO2 T02870135,2024-08-03T17:15:00Z,28.7,13.5,10+,29.91
KDRI,30.8344,-93.3359,VRB,5,5.7539,KDRI 031715Z AUTO VRB05KT 9SM CLR 34/26 A2999 RMK AO2 T03350263,2024-08-03T17:15:00Z,33.5,26.3,9,29.99
KDQH,31.4739,-82.8609,180,3,3.4523399999999995,KDQH 031715Z AUTO 18003KT 10SM SCT033 32/24 A3000 RMK AO2 T03210240,2024-08-03T17:15:00Z,32.1,24,10+,30.00
KDNS,41.9842,-95.38,250,4,4.60312,KDNS 031715Z AUTO 25004KT 10SM CLR A3006 RMK AO2,2024-08-03T17:15:00Z,,,10+,30.06
KDNN,34.727,-84.8733,340,4,4.60312,KDNN 031715Z AUTO 34004KT 10SM SCT036 BKN043 28/21 A2997 RMK AO2 T02850215,2024-08-03T17:15:00Z,28.5,21.5,10+,29.97
KDNA,31.875,-106.694,140,7,8.05546,KDNA 031715Z AUTO 14007KT 10SM CLR 33/07 A3022 RMK AO2,2024-08-03T17:15:00Z,33,7,10+,30.22
KDLZ,40.281,-83.114,0,0,0.0,KDLZ 031715Z AUTO 00000KT 10SM CLR 26/23 A2992 RMK AO2 LTG DSNT N,2024-08-03T17:15:00Z,26,23,10+,29.92
KDLO,35.7449,-119.239,0,0,0.0,KDLO 031715Z AUTO 00000KT 10SM CLR 30/13 A2996 RMK AO2 T02960128,2024-08-03T17:15:00Z,29.6,12.8,10+,29.96
KDLL,43.5236,-89.7736,50,5,5.7539,KDLL 031715Z AUTO 05005KT 10SM CLR 29/18 A3001 RMK AO2 T02940175,2024-08-03T17:15:00Z,29.4,17.5,10+,30.01
KDKR,31.3097,-95.4039,0,0,0.0,KDKR 031715Z AUTO 00000KT 10SM CLR 32/27 A3000 RMK AO2,2024-08-03T17:15:00Z,32,27,10+,30.00
KDKB,41.9338,-88.7066,0,0,0.0,KDKB 031715Z AUTO 00000KT 10SM CLR 30/18 A2999 RMK AO2 T03010177,2024-08-03T17:15:00Z,30.1,17.7,10+,29.99
KDEH,43.2755,-91.7433,360,6,6.904679999999999,KDEH 031715Z AUTO 36006KT 9SM CLR 27/18 A3001 RMK AO2,2024-08-03T17:15:00Z,27,18,9,30.01
KDCY,38.6953,-87.1314,330,3,3.4523399999999995,KDCY 031715Z AUTO 33003KT 10SM SCT029 29/20 A2997 RMK AO2 T02870195,2024-08-03T17:15:00Z,28.7,19.5,10+,29.97
KDCM,34.7908,-81.1987,170,7,8.05546,KDCM 031715Z AUTO 17007G15KT 140V200 10SM SCT026 BKN031 OVC055 30/23 A2996 RMK AO2 LTG DSNT E THRU SW,2024-08-03T17:15:00Z,30,23,10+,29.96
KD95,43.0675,-83.2702,300,8,9.20624,KD95 031715Z AUTO 30008G19KT 10SM CLR 29/16 A2992 RMK AO2 T02910163,2024-08-03T17:15:00Z,29.1,16.3,10+,29.92
KD73,33.7826,-83.6948,280,4,4.60312,KD73 031715Z AUTO 28004KT 10SM SCT033 SCT047 BKN065 30/22 A2998 RMK AO2 T02950223,2024-08-03T17:15:00Z,29.5,22.3,10+,29.98
KD60,48.3834,-102.898,50,13,14.960139999999999,KD60 031715Z AUTO 05013G22KT 10SM CLR 23/16 A3013 RMK AO2,2024-08-03T17:15:00Z,23,16,10+,30.13
KD57,46.814,-101.864,350,15,17.261699999999998,KD57 031715Z AUTO 35015G20KT 10SM CLR 28/17 A3002 RMK AO2,2024-08-03T17:15:00Z,28,17,10+,30.02
KD39,45.7057,-94.9308,180,8,9.20624,KD39 031715Z AUTO 18008KT 10SM SCT100 27/18 A2999 RMK AO2 T02670183,2024-08-03T17:15:00Z,26.7,18.3,10+,29.99
KD09,48.83,-100.417,50,14,16.11092,KD09 031715Z AUTO 05014G20KT 10SM CLR 23/14 A3005 RMK AO2,2024-08-03T17:15:00Z,23,14,10+,30.05
KCZL,34.45,-84.936,10,5,5.7539,KCZL 031715Z AUTO 01005KT 10SM 30/21 A2998 RMK AO2,2024-08-03T17:15:00Z,30,21,10+,29.98
KCYD,28.1694,-89.2228,60,9,10.357019999999999,KCYD 031715Z AUTO 06009KT 5SM HZ SCT032 31/24 A3000 RMK A02 T03070244,2024-08-03T17:15:00Z,30.7,24.4,5,30.00
KCXU,31.2141,-84.2358,240,7,8.05546,KCXU 031715Z AUTO 24007KT 10SM SCT004 SCT025 BKN050 32/27 A2998 RMK AO1 T03210269,2024-08-03T17:15:00Z,32.1,26.9,10+,29.98
KCXP,39.1905,-119.732,0,0,0.0,KCXP 031715Z AUTO 00000KT 10SM FEW120 27/10 A3021 RMK AO2,2024-08-03T17:15:00Z,27,10,10+,30.21
KCXE,36.7923,-78.5027,220,8,9.20624,KCXE 031715Z AUTO 22008KT 180V250 10SM SCT025 SCT032 BKN070 30/24 A2994 RMK AO1 T03000237,2024-08-03T17:15:00Z,30,23.7,10+,29.94
KCWV,32.193,-81.873,VRB,6,6.904679999999999,KCWV 031715Z AUTO VRB06KT 10SM SCT029 33/25 A2997 RMK AO2,2024-08-03T17:15:00Z,33,25,10+,29.97
KCWC,33.8629,-98.4914,60,4,4.60312,KCWC 031715Z AUTO 06004KT 10SM CLR 35/16 A3007 RMK AO2 T03460160,2024-08-03T17:15:00Z,34.6,16,10+,30.07
KCVX,45.304,-85.2689,330,3,3.4523399999999995,KCVX 031715Z AUTO 33003KT 10SM CLR 26/15 A2997 RMK AO2 T02590154,2024-08-03T17:15:00Z,25.9,15.4,10+,29.97
KCVH,36.8919,-121.41,0,0,0.0,KCVH 031715Z AUTO 00000KT 10SM CLR 24/15 A2999 RMK A01,2024-08-03T17:15:00Z,24,15,10+,29.99
KCVC,33.6312,-83.8482,0,0,0.0,KCVC 031715Z AUTO 00000KT 10SM 30/24 A2996 RMK AO2,2024-08-03T17:15:00Z,30,24,10+,29.96
KCVB,29.343,-98.8497,50,5,5.7539,KCVB 031715Z AUTO 05005KT 7SM SCT047 A3004 RMK AO2,2024-08-03T17:15:00Z,,,7,30.04
KCUH,35.949,-96.768,0,0,0.0,KCUH 031715Z AUTO 00000KT 10SM CLR 31/16 A3007 RMK AO2 T03130162,2024-08-03T17:15:00Z,31.3,16.2,10+,30.07
KCTJ,33.6313,-85.1538,350,6,6.904679999999999,KCTJ 031715Z AUTO 35006KT 10SM CLR 29/20 A3004 RMK AO2 T02900197,2024-08-03T17:15:00Z,29,19.7,10+,30.04
KCSQ,41.0188,-94.361,310,9,10.357019999999999,KCSQ 031715Z AUTO 31009KT 10SM CLR A3006 RMK AO2,2024-08-03T17:15:00Z,,,10+,30.06
KCSB,40.307,-100.162,280,4,4.60312,KCSB 031715Z AUTO 28004KT 10SM CLR 31/16 A3010 RMK AO2,2024-08-03T17:15:00Z,31,16,10+,30.10
KCRX,34.9209,-88.6071,VRB,3,3.4523399999999995,KCRX 031715Z AUTO VRB03KT 10SM FEW035 FEW042 BKN050 30/21 A3000 RMK AO2,2024-08-03T17:15:00Z,30,21,10+,30.00
KCQW,34.7128,-79.9622,240,9,10.357019999999999,KCQW 031715Z AUTO 24009KT 9SM SCT037 SCT047 33/24 A2994 RMK AO2,2024-08-03T17:15:00Z,33,24,9,29.94
KCQM,47.8199,-92.6817,0,0,0.0,KCQM 031715Z AUTO 00000KT 10SM -TSRA SCT028 SCT034 BKN070 18/17 A3006 RMK AO2 LTG DSNT ALQDS,2024-08-03T17:15:00Z,18,17,10+,30.06
KCQF,30.4618,-87.8749,310,4,4.60312,KCQF 031715Z AUTO 31004KT 10SM CLR A2996 RMK AO2,2024-08-03T17:15:00Z,,,10+,29.96
KCQB,35.7223,-96.8187,80,6,6.904679999999999,KCQB 031715Z AUTO 08006KT 10SM CLR 32/19 A3009 RMK AO2 T03160187,2024-08-03T17:15:00Z,31.6,18.7,10+,30.09
KCPW,37.464,-106.804,40,6,6.904679999999999,KCPW 031715Z AUTO 04006KT 10SM CLR 17/02 A3087 RMK AO2,2024-08-03T17:15:00Z,17,2,10+,30.87
KCPU,38.1445,-120.645,300,3,3.4523399999999995,KCPU 031715Z AUTO 30003KT 10SM CLR 33/13 A3000 RMK AO2 T03310127,2024-08-03T17:15:00Z,33.1,12.7,10+,30.00
KCPT,32.3526,-97.435,VRB,5,5.7539,KCPT 031715Z AUTO VRB05KT 10SM CLR 33/21 A3003 RMK A01,2024-08-03T17:15:00Z,33,21,10+,30.03
KCPP,33.5991,-83.1401,VRB,6,6.904679999999999,KCPP 031715Z AUTO VRB06KT 3SM -RA HZ SCT025 BKN036 BKN046 30/25 A2994 RMK AO2,2024-08-03T17:15:00Z,30,25,3,29.94
KCPK,36.6631,-76.3264,180,11,12.658579999999999,KCPK 031715Z AUTO 18011G18KT 10SM SCT028 SCT035 SCT043 32/25 A2992 RMK AO2 T03210248,2024-08-03T17:15:00Z,32.1,24.8,10+,29.92
KCPF,37.3869,-83.2593,310,5,5.7539,KCPF 031715Z AUTO 31005KT 7SM +RA SCT008 BKN022 OVC060 23/21 A2998 RMK AO2,2024-08-03T17:15:00Z,23,21,7,29.98
KCOQ,46.6986,-92.5034,0,0,0.0,KCOQ 031715Z AUTO 00000KT 10SM CLR 24/12 A3002 RMK AO2 TSNO,2024-08-03T17:15:00Z,24,12,10+,30.02
KCNI,34.31,-84.424,290,6,6.904679999999999,KCNI 031715Z AUTO 29006KT 10SM SCT034 SCT043 29/18 A3001 RMK AO2 LTG DSNT NW T02860183,2024-08-03T17:15:00Z,28.6,18.3,10+,30.01
KCNC,41.0185,-93.3608,0,0,0.0,KCNC 031715Z AUTO 00000KT 10SM CLR 30/24 A3003 RMK AO2,2024-08-03T17:15:00Z,30,24,10+,30.03
KCNB,44.7297,-96.2623,210,4,4.60312,KCNB 031715Z AUTO 21004KT 10SM SCT110 31/19 A2997 RMK AO2 T03140187,2024-08-03T17:15:00Z,31.4,18.7,10+,29.97
KCMR,35.3016,-112.197,180,7,8.05546,KCMR 031715Z AUTO 18007KT 10SM CLR 27/10 A3040 RMK AO2,2024-08-03T17:15:00Z,27,10,10+,30.40
KCMD,34.2722,-86.8583,VRB,6,6.904679999999999,KCMD 031715Z AUTO VRB06KT 10SM FEW030 SCT037 SCT045 29/22 A3002 RMK AO2,2024-08-03T17:15:00Z,29,22,10+,30.02
KCLW,27.9741,-82.7563,130,8,9.20624,KCLW 031715Z AUTO 13008KT 10SM CLR 32/23 A2996 RMK AO2,2024-08-03T17:15:00Z,32,23,10+,29.96
KCLS,46.6774,-122.986,0,0,0.0,KCLS 031715Z AUTO 00000KT 10SM CLR 18/14 A3010 RMK AO2,2024-08-03T17:15:00Z,18,14,10+,30.10
KCLI,44.6152,-88.7313,40,5,5.7539,KCLI 031715Z AUTO 04005KT 10SM CLR 28/16 A3001 RMK AO2 T02770161,2024-08-03T17:15:00Z,27.7,16.1,10+,30.01
KCKZ,40.3864,-75.2953,VRB,5,5.7539,KCKZ 031715Z AUTO VRB05KT 10SM FEW070 31/23 A2985 RMK AO2,2024-08-03T17:15:00Z,31,23,10+,29.85
KCKP,42.7304,-95.5538,260,4,4.60312,KCKP 031715Z AUTO 26004KT 10SM CLR 31/17 A3004 RMK AO2,2024-08-03T17:15:00Z,31,17,10+,30.04
KCKN,47.8404,-96.6201,270,6,6.904679999999999,KCKN 031715Z AUTO 27006KT 10SM CLR 26/18 A2989 RMK AO2 LTG DSNT S,2024-08-03T17:15:00Z,26,18,10+,29.89
KCKM,34.2945,-90.5146,320,5,5.7539,KCKM 031715Z AUTO 32005KT 10SM 31/31 A3001 RMK A01,2024-08-03T17:15:00Z,31,31,10+,30.01
KCKI,33.7187,-79.8567,160,10,11.5078,KCKI 031715Z AUTO 16010G14KT 10SM SCT033 32/22 A2997 RMK AO2 LTG DSNT E AND SE,2024-08-03T17:15:00Z,32,22,10+,29.97
KCKF,31.9889,-83.7739,240,6,6.904679999999999,KCKF 031715Z AUTO 24006KT 10SM CLR 32/23 A2998 RMK AO2 T03230228,2024-08-03T17:15:00Z,32.3,22.8,10+,29.98
KCKC,47.8366,-90.3864,0,0,0.0,KCKC 031715Z AUTO 00000KT 10SM SCT110 22/04 A3004 RMK AO2,2024-08-03T17:15:00Z,22,4,10+,30.04
KCJR,38.5261,-77.8574,190,10,11.5078,KCJR 031715Z AUTO 19010G15KT 10SM CLR 33/21 A2985 RMK AO2 T03260209,2024-08-03T17:15:00Z,32.6,20.9,10+,29.85
KCIR,37.0639,-89.2232,0,0,0.0,KCIR 031715Z AUTO 00000KT 10SM SCT029 BKN048 OVC060 30/23 A3001 RMK AO2 T02970232,2024-08-03T17:15:00Z,29.7,23.2,10+,30.01
KCIN,42.0444,-94.7888,0,0,0.0,KCIN 031715Z AUTO 00000KT 9SM CLR A3003 RMK AO2,2024-08-03T17:15:00Z,,,9,30.03
KCHK,35.0927,-97.9709,260,5,5.7539,KCHK 031715Z AUTO 26005KT 10SM CLR 33/15 A3006 RMK AO2 T03310147,2024-08-03T17:15:00Z,33.1,14.7,10+,30.06
KCGC,28.866,-82.5741,0,0,0.0,KCGC 031715Z AUTO 00000KT 10SM VCTS SCT040 SCT085 33/23 A2997 RMK AO2 LTG DSNT SE AND S,2024-08-03T17:15:00Z,33,23,10+,29.97
KCFS,43.4624,-83.4428,300,6,6.904679999999999,KCFS 031715Z AUTO 30006KT 10SM CLR 28/17 A2991 RMK AO2 T02810166,2024-08-03T17:15:00Z,28.1,16.6,10+,29.91
KCFJ,39.9767,-86.9148,10,4,4.60312,KCFJ 031715Z AUTO 01004KT 10SM CLR 27/17 A2998 RMK AO2 T02730165,2024-08-03T17:15:00Z,27.3,16.5,10+,29.98
KCFE,45.1601,-93.846,170,6,6.904679999999999,KCFE 031715Z AUTO 17006KT 10SM CLR 26/18 A3001 RMK AO2,2024-08-03T17:15:00Z,26,18,10+,30.01
KCFD,30.7171,-96.3347,,,,KCFD 031715Z AUTO 10SM CLR 32/25 A3002 RMK AO2 T03190245,2024-08-03T17:15:00Z,31.9,24.5,10+,30.02
KCEY,36.664,-88.372,0,0,0.0,KCEY 031715Z AUTO 00000KT 10SM FEW032 SCT038 30/23 A3001 RMK A01,2024-08-03T17:15:00Z,30,23,10+,30.01
KCDN,34.2815,-80.5636,220,8,9.20624,KCDN 031715Z AUTO 22008KT 9SM CLR 32/24 A2996 RMK AO2,2024-08-03T17:15:00Z,32,24,9,29.96
KCDI,39.976,-81.577,0,0,0.0,KCDI 031715Z AUTO 00000KT 10SM SCT019 OVC028 26/21 A2992 RMK AO2 T02550210,2024-08-03T17:15:00Z,25.5,21,10+,29.92
KCDH,33.619,-92.765,VRB,3,3.4523399999999995,KCDH 031715Z AUTO VRB03KT 9SM CLR 34/21 A3000 RMK AO2,2024-08-03T17:15:00Z,34,21,9,30.00
KCDA,44.5677,-72.0191,60,5,5.7539,KCDA 031715Z AUTO 06005KT 10SM SCT032 BKN039 28/21 A2984 RMK AO2 T02770214,2024-08-03T17:15:00Z,27.7,21.4,10+,29.84
KCCY,43.073,-92.6132,20,7,8.05546,KCCY 031715Z AUTO 02007KT 10SM CLR 27/16 A3003 RMK AO2,2024-08-03T17:15:00Z,27,16,10+,30.03
KCCU,39.475,-106.152,260,3,3.4523399999999995,KCCU 031715Z AUTO 26003KT 10SM CLR 20/M03 A3085 RMK AO2,2024-08-03T17:15:00Z,20,-3,10+,30.85
KCBK,39.4301,-101.051,180,9,10.357019999999999,KCBK 031715Z AUTO 18009KT 10SM CLR 29/15 A3018 RMK AO2 T02920150,2024-08-03T17:15:00Z,29.2,15,10+,30.18
KCBG,45.557,-93.264,140,4,4.60312,KCBG 031715Z AUTO 14004KT 10SM CLR 27/19 A3002 RMK AO2,2024-08-03T17:15:00Z,27,19,10+,30.02
KCBF,41.2611,-95.7604,210,5,5.7539,KCBF 031715Z AUTO 21005KT 10SM CLR A3004 RMK AO2,2024-08-03T17:15:00Z,,,10+,30.04
KCAV,42.743,-93.7592,0,0,0.0,KCAV 031715Z AUTO 00000KT 10SM CLR A3005 RMK A01,2024-08-03T17:15:00Z,,,10+,30.05
KCAD,44.2785,-85.4207,10,8,9.20624,KCAD 031715Z AUTO 01008G14KT 10SM CLR 28/15 A2998 RMK AO2,2024-08-03T17:15:00Z,28,15,10+,29.98
KC83,37.8276,-121.624,40,7,8.05546,KC83 031715Z AUTO 04007KT 9SM CLR 30/13 A2993 RMK AO2,2024-08-03T17:15:00Z,30,13,9,29.93
KC65,41.3636,-86.2998,VRB,3,3.4523399999999995,KC65 031715Z AUTO VRB03KT 10SM CLR 30/22 A2995 RMK A01,2024-08-03T17:15:00Z,30,22,10+,29.95
KC35,43.5261,-89.9809,0,0,0.0,KC35 031715Z AUTO 00000KT 10SM SCT047 SCT055 29/16 A3000 RMK AO2 T02930159 PWINO,2024-08-03T17:15:00Z,29.3,15.9,10+,30.00
KC29,43.1153,-89.5312,360,4,4.60312,KC29 031715Z AUTO 36004KT 10SM CLR 29/22 A3000 RMK AO1 T02910216,2024-08-03T17:15:00Z,29.1,21.6,10+,30.00
KC09,41.4317,-88.4152,0,0,0.0,KC09 031715Z AUTO 00000KT 10SM CLR 30/22 A2996 RMK AO2 T03020221,2024-08-03T17:15:00Z,30.2,22.1,10+,29.96
KC08,38.0138,-105.373,360,7,8.05546,KC08 031715Z AUTO 36007KT 340V040 10SM CLR 26/04 A3052 RMK AO2,2024-08-03T17:15:00Z,26,4,10+,30.52
KC07,40.3544,-106.699,0,0,0.0,KC07 031715Z AUTO 00000KT 10SM CLR 21/00 A3072 RMK AO2,2024-08-03T17:15:00Z,21,0,10+,30.72
KBYY,28.9717,-95.8584,0,0,0.0,KBYY 031715Z AUTO 00000KT 10SM SCT029 SCT035 32/25 A3001 RMK AO2 T03210253,2024-08-03T17:15:00Z,32.1,25.3,10+,30.01
KBYL,36.7954,-84.2013,300,4,4.60312,KBYL 031715Z AUTO 30004KT 10SM SCT030 SCT055 26/20 A2997 RMK AO1,2024-08-03T17:15:00Z,26,20,10+,29.97
KBXK,33.4178,-112.688,140,6,6.904679999999999,KBXK 031715Z AUTO 14006KT 10SM CLR 39/14 A2993 RMK A01,2024-08-03T17:15:00Z,39,14,10+,29.93
KBXA,30.8104,-89.8627,0,0,0.0,KBXA 031715Z AUTO 00000KT 10SM SCT034 35/M07 A2996 RMK AO2 T03491075,2024-08-03T17:15:00Z,34.9,-7.5,10+,29.96
KBWW,46.1656,-103.296,360,14,16.11092,KBWW 031715Z AUTO 36014G21KT 10SM CLR 30/11 A3010 RMK AO2,2024-08-03T17:15:00Z,30,11,10+,30.10
KBWP,46.2444,-96.6046,180,13,14.960139999999999,KBWP 031715Z AUTO 18013G18KT 10SM CLR 29/25 A2987 RMK AO2,2024-08-03T17:15:00Z,29,25,10+,29.87
KBWD,31.7898,-98.9522,0,0,0.0,KBWD 031715Z AUTO 00000KT CLR 29/20 A3007 RMK AO1 VSBY 2V5,2024-08-03T17:15:00Z,29,20,,30.07
KBVU,35.9489,-114.863,VRB,3,3.4523399999999995,KBVU 031715Z AUTO VRB03KT 10SM CLR 37/12 A2999 RMK AO2,2024-08-03T17:15:00Z,37,12,10+,29.99
KBVS,48.4696,-122.419,0,0,0.0,KBVS 031715Z AUTO 00000G10KT 10SM CLR 18/18 A3009 RMK A01,2024-08-03T17:15:00Z,18,18,10+,30.09
KBVN,41.7301,-98.0546,200,9,10.357019999999999,KBVN 031715Z AUTO 20009KT 10SM CLR 31/18 A3008 RMK AO2 T03110184,2024-08-03T17:15:00Z,31.1,18.4,10+,30.08
KBVI,40.7735,-80.3825,330,5,5.7539,KBVI 031715Z AUTO 33005KT 7SM VCTSRA SCT011 BKN029 OVC070 21/19 A2988 RMK AO2 LTG DSNT ALQS T02100191,2024-08-03T17:15:00Z,21,19.1,7,29.88
KBUU,42.6908,-88.308,10,3,3.4523399999999995,KBUU 031715Z AUTO 01003KT 10SM SCT027 28/23 A2998 RMK AO2 T02840225 PWINO,2024-08-03T17:15:00Z,28.4,22.5,10+,29.98
KBTN,45.8186,-97.7457,220,11,12.658579999999999,KBTN 031715Z AUTO 22011G17KT 10SM CLR 30/20 A2989 RMK AO2,2024-08-03T17:15:00Z,30,20,10+,29.89
KBTA,41.415,-96.109,220,3,3.4523399999999995,KBTA 031715Z AUTO 22003KT 10SM CLR 30/21 A3006 RMK AO2 T03010211,2024-08-03T17:15:00Z,30.1,21.1,10+,30.06
KBRY,37.8079,-85.5011,360,6,6.904679999999999,KBRY 031715Z AUTO 36006KT 10SM SCT022 SCT027 27/23 A2996 RMK AO2 T02720235 $,2024-08-03T17:15:00Z,27.2,23.5,10+,29.96
KBRG,34.6477,-106.833,160,3,3.4523399999999995,KBRG 031715Z AUTO 16003KT 10SM CLR 28/12 A3032 RMK AO2 T02830120,2024-08-03T17:15:00Z,28.3,12,10+,30.32
KBQP,32.7583,-91.8793,0,0,0.0,KBQP 031715Z AUTO 00000KT 10SM SCT060 32/20 A3000 RMK AO2 T03230199,2024-08-03T17:15:00Z,32.3,19.9,10+,30.00
KBQK,31.2567,-81.4754,160,7,8.05546,KBQK 031715Z AUTO 16007KT 7SM RA SCT028 SCT034 BKN055 31/25 A3000 RMK AO2 T03080253,2024-08-03T17:15:00Z,30.8,25.3,7,30.00
KBPG,32.2097,-101.525,330,4,4.60312,KBPG 031715Z AUTO 33004KT 10SM CLR 34/14 A3013 RMK AO2 T03420144,2024-08-03T17:15:00Z,34.2,14.4,10+,30.13
KBNW,42.0486,-93.8486,0,0,0.0,KBNW 031715Z AUTO 00000KT 10SM CLR A3003 RMK AO2,2024-08-03T17:15:00Z,,,10+,30.03
KBMT,30.0686,-94.2155,340,5,5.7539,KBMT 031715Z AUTO 34005KT 10SM CLR 33/24 A2999 RMK AO2 T03340243,2024-08-03T17:15:00Z,33.4,24.3,10+,29.99
KBMC,41.5463,-112.06,100,5,5.7539,KBMC 031715Z AUTO 10005KT 10SM CLR 31/02 A3015 RMK AO1 T03130024,2024-08-03T17:15:00Z,31.3,2.4,10+,30.15
KBKN,36.7431,-97.3479,VRB,4,4.60312,KBKN 031715Z AUTO VRB04KT 10SM CLR 32/16 A3009 RMK AO2,2024-08-03T17:15:00Z,32,16,10+,30.09
KBKD,32.7206,-98.8931,,,,KBKD 031715Z AUTO 7SM CLR 35/19 A3005 RMK AO2 T03500188,2024-08-03T17:15:00Z,35,18.8,7,30.05
KBJI,47.5076,-94.9279,130,7,8.05546,KBJI 031715Z AUTO 13007KT 10SM SCT095 25/17 A2995 RMK AO2 LTG DSNT N THRU E T02480166,2024-08-03T17:15:00Z,24.8,16.6,10+,29.95
KBIJ,31.4,-84.8939,190,5,5.7539,KBIJ 031715Z AUTO 19005KT 10SM CLR 32/23 A2997 RMK AO2,2024-08-03T17:15:00Z,32,23,10+,29.97
KBIE,40.3005,-96.7517,220,8,9.20624,KBIE 031715Z AUTO 22008KT 10SM CLR 33/18 A3008 RMK AO2 T03250175,2024-08-03T17:15:00Z,32.5,17.5,10+,30.08
KBHC,31.712,-82.3902,190,5,5.7539,KBHC 031715Z AUTO 19005KT 10SM SCT031 SCT039 SCT055 32/24 A2998 RMK AO2,2024-08-03T17:15:00Z,32,24,10+,29.98
KBGF,35.174,-86.0678,VRB,6,6.904679999999999,KBGF 031715Z AUTO VRB06G11KT 10SM SCT036 SCT043 28/20 A2999 RMK A01,2024-08-03T17:15:00Z,28,20,10+,29.99
KBGE,30.9709,-84.6344,210,9,10.357019999999999,KBGE 031715Z AUTO 21009KT 10SM CLR 33/26 A2997 RMK AO2 LTG DSNT SE T03310257,2024-08-03T17:15:00Z,33.1,25.7,10+,29.97
KBFA,45.166,-84.924,340,10,11.5078,KBFA 031715Z AUTO 34010KT 10SM CLR 28/14 A2995 RMK AO2,2024-08-03T17:15:00Z,28,14,10+,29.95
KBEC,37.694,-97.215,70,4,4.60312,KBEC 031715Z AUTO 07004KT 10SM CLR 31/17 A3010 RMK AO2 T03060170,2024-08-03T17:15:00Z,30.6,17,10+,30.10
KBEA,28.3692,-97.7953,0,0,0.0,KBEA 031715Z AUTO 00000KT 10SM 32/22 A3000 RMK AO2 T03220215,2024-08-03T17:15:00Z,32.2,21.5,10+,30.00
KBDU,40.0377,-105.227,0,0,0.0,KBDU 031715Z AUTO 00000KT 10SM CLR 31/04 A3028 RMK AO2,2024-08-03T17:15:00Z,31,4,10+,30.28
KBDN,44.1006,-121.198,100,4,4.60312,KBDN 031715Z AUTO 10004KT 10SM CLR 26/12 A3011 RMK AO2,2024-08-03T17:15:00Z,26,12,10+,30.11
KBDH,45.1111,-95.1258,170,11,12.658579999999999,KBDH 031715Z AUTO 17011G16KT 10SM CLR 28/20 A2998 RMK AO2,2024-08-03T17:15:00Z,28,20,10+,29.98
KBDG,37.587,-109.481,150,8,9.20624,KBDG 031715Z AUTO 15008KT 9SM CLR 29/10 A3034 RMK AO2 T02940104 $,2024-08-03T17:15:00Z,29.4,10.4,9,30.34
KBCK,44.2499,-90.85,340,6,6.904679999999999,KBCK 031715Z AUTO 34006KT 10SM CLR 28/12 A3002 RMK AO2 T02810121,2024-08-03T17:15:00Z,28.1,12.1,10+,30.02
KBCB,37.208,-80.4127,230,4,4.60312,KBCB 031715Z AUTO 23004KT 10SM SCT032 BKN042 BKN060 27/20 A2999 RMK AO2 T02700202,2024-08-03T17:15:00Z,27,20.2,10+,29.99
KBBD,31.1766,-99.3229,10,8,9.20624,KBBD 031715Z AUTO 01008G13KT 10SM CLR 32/20 A3009 RMK AO2,2024-08-03T17:15:00Z,32,20,10+,30.09
KBAX,43.7774,-82.9828,330,5,5.7539,KBAX 031715Z AUTO 33005KT 10SM CLR 28/18 A2990 RMK AO2 T02760181,2024-08-03T17:15:00Z,27.6,18.1,10+,29.90
KBAM,40.6048,-116.872,240,5,5.7539,KBAM 031715Z AUTO 24005KT 10SM CLR 32/07 A3014 RMK AO1,2024-08-03T17:15:00Z,32,7,10+,30.14
KBAC,46.9419,-98.0179,300,8,9.20624,KBAC 031715Z AUTO 30008KT 9SM CLR 30/22 A2990 RMK AO2,2024-08-03T17:15:00Z,30,22,9,29.90
KAZE,31.8792,-82.6454,210,6,6.904679999999999,KAZE 031715Z AUTO 21006KT 10SM SCT049 SCT060 BKN070 32/25 A2998 RMK AO2 T03190246,2024-08-03T17:15:00Z,31.9,24.6,10+,29.98
KAZC,36.959,-113.013,20,3,3.4523399999999995,KAZC 031715Z AUTO 02003KT 10SM CLR 35/16 A3027 RMK AO2,2024-08-03T17:15:00Z,35,16,10+,30.27
KAYS,31.2466,-82.4014,170,7,8.05546,KAYS 031715Z AUTO 17007KT CLR 33/21 A3000 RMK AO2 LTG DSNT SE AND S T03300214 PWINO,2024-08-03T17:15:00Z,33,21.4,,30.00
KAXX,36.422,-105.29,0,0,0.0,KAXX 031715Z AUTO 00000KT 10SM CLR 23/09 A3053 RMK AO2 T02300094,2024-08-03T17:15:00Z,23,9.4,10+,30.53
KAXV,40.4959,-84.2929,320,6,6.904679999999999,KAXV 031715Z AUTO 32006KT 10SM SCT023 SCT029 SCT036 27/22 A2994 RMK AO2,2024-08-03T17:15:00Z,27,22,10+,29.94
KAXS,34.6963,-99.3402,0,0,0.0,KAXS 031715Z AUTO 00000KT 10SM CLR 33/15 A3009 RMK AO2,2024-08-03T17:15:00Z,33,15,10+,30.09
KAXA,43.0796,-94.2723,170,3,3.4523399999999995,KAXA 031715Z AUTO 17003KT 10SM CLR 28/17 A3004 RMK A01,2024-08-03T17:15:00Z,28,17,10+,30.04
KAWG,41.2749,-91.6746,VRB,6,6.904679999999999,KAWG 031715Z AUTO VRB06KT 10SM CLR 30/18 A3000 RMK AO2,2024-08-03T17:15:00Z,30,18,10+,30.00
KAVQ,32.4112,-111.216,110,7,8.05546,KAVQ 031715Z AUTO 11007G12KT 10SM CLR 36/16 A3000 RMK AO2,2024-08-03T17:15:00Z,36,16,10+,30.00
KAVK,36.7765,-98.6724,170,7,8.05546,KAVK 031715Z AUTO 17007KT 10SM CLR 32/18 A3010 RMK AO2,2024-08-03T17:15:00Z,32,18,10+,30.10
KAVC,36.6854,-78.0523,190,8,9.20624,KAVC 031715Z AUTO 19008KT 10SM BKN032 31/25 A2999 RMK AO2 T03120251,2024-08-03T17:15:00Z,31.2,25.1,10+,29.99
KAUN,38.9553,-121.087,150,4,4.60312,KAUN 031715Z AUTO 15004KT 10SM CLR 31/15 A3001 RMK A01,2024-08-03T17:15:00Z,31,15,10+,30.01
KAUM,43.6688,-92.9321,0,0,0.0,KAUM 031715Z AUTO 00000KT 10SM CLR 27/15 A3005 RMK AO2,2024-08-03T17:15:00Z,27,15,10+,30.05
KAUH,40.8966,-97.9974,200,9,10.357019999999999,KAUH 031715Z AUTO 20009KT 10SM CLR 30/21 A3009 RMK AO2 T02990212,2024-08-03T17:15:00Z,29.9,21.2,10+,30.09
KATS,32.8524,-104.464,20,7,8.05546,KATS 031715Z AUTO 02007G13KT 10SM BKN120 28/15 A3022 RMK AO2,2024-08-03T17:15:00Z,28,15,10+,30.22
KATA,33.1017,-94.1937,80,8,9.20624,KATA 031715Z AUTO 08008KT 10SM CLR 32/25 A2998 RMK AO2 SLP051 T03220248 $,2024-08-03T17:15:00Z,32.2,24.8,10+,29.98
KASW,41.274,-85.842,0,0,0.0,KASW 031715Z AUTO 00000KT 10SM CLR 28/20 A2995 RMK AO2 T02880197,2024-08-03T17:15:00Z,28.8,19.7,10+,29.95
KASN,33.569,-86.0519,VRB,4,4.60312,KASN 031715Z AUTO VRB04KT 10SM FEW038 31/23 A2997 RMK AO2,2024-08-03T17:15:00Z,31,23,10+,29.97
KASL,32.5207,-94.3066,VRB,6,6.904679999999999,KASL 031715Z AUTO VRB06KT 10SM CLR 33/26 A2997 RMK AO2 T03270256 $,2024-08-03T17:15:00Z,32.7,25.6,10+,29.97
KARW,32.4104,-80.6335,190,9,10.357019999999999,KARW 031715Z AUTO 19009G15KT 10SM SCT030 BKN037 32/24 A2999 RMK AO2,2024-08-03T17:15:00Z,32,24,10+,29.99
KARM,29.2515,-96.1508,0,0,0.0,KARM 031715Z AUTO 00000KT 10SM SCT031 33/24 A3001 RMK AO2 T03260241 TSNO,2024-08-03T17:15:00Z,32.6,24.1,10+,30.01
KAQX,32.9941,-81.271,190,7,8.05546,KAQX 031715Z AUTO 19007G13KT 170V230 10SM FEW033 FEW060 33/25 A2996 RMK AO2 TSNO,2024-08-03T17:15:00Z,33,25,10+,29.96
KAQO,30.7873,-98.6608,VRB,4,4.60312,KAQO 031715Z AUTO VRB04KT 10SM CLR 33/23 A3005 RMK AO2,2024-08-03T17:15:00Z,33,23,10+,30.05
KAPY,26.969,-99.249,150,3,3.4523399999999995,KAPY 031715Z AUTO 15003KT 10SM CLR 34/22 A3001 RMK AO2 T03400220 TSNO,2024-08-03T17:15:00Z,34,22,10+,30.01
KANW,42.5748,-99.9984,180,3,3.4523399999999995,KANW 031715Z AUTO 18003KT 10SM CLR 34/13 A3007 RMK AO2 T03380131,2024-08-03T17:15:00Z,33.8,13.1,10+,30.07
KANQ,41.6404,-85.0852,VRB,3,3.4523399999999995,KANQ 031715Z AUTO VRB03KT 10SM CLR 28/22 A2995 RMK AO2,2024-08-03T17:15:00Z,28,22,10+,29.95
KANK,38.538,-106.049,0,0,0.0,KANK 031715Z AUTO 00000KT 10SM CLR 24/08 A3044 RMK AO2 T02440081 $,2024-08-03T17:15:00Z,24.4,8.1,10+,30.44
KAMN,43.3209,-84.6871,350,7,8.05546,KAMN 031715Z AUTO 35007G14KT 10SM CLR 29/17 A2993 RMK AO2,2024-08-03T17:15:00Z,29,17,10+,29.93
KALX,32.916,-85.964,240,4,4.60312,KALX 031715Z AUTO 24004KT 10SM CLR 33/22 A2997 RMK AO2 T03340218,2024-08-03T17:15:00Z,33.4,21.8,10+,29.97
KALM,32.8351,-105.994,0,0,0.0,KALM 031715Z AUTO 00000KT 10SM FEW120 25/08 A3024 RMK AO2,2024-08-03T17:15:00Z,25,8,10+,30.24
KAJR,34.5006,-83.5519,230,8,9.20624,KAJR 031715Z AUTO 23008KT 7SM SCT041 SCT050 SCT070 29/19 A2999 RMK AO2 T02880189,2024-08-03T17:15:00Z,28.8,18.9,7,29.99
KAJG,38.6093,-87.7251,310,4,4.60312,KAJG 031715Z AUTO 31004KT 10SM SCT035 SCT040 SCT047 30/22 A2999 RMK AO2 T02950223,2024-08-03T17:15:00Z,29.5,22.3,10+,29.99
KAIT,46.5483,-93.6754,160,9,10.357019999999999,KAIT 031715Z AUTO 16009KT 10SM CLR 26/16 A3000 RMK AO2 LTG DSNT N,2024-08-03T17:15:00Z,26,16,10+,30.00
KAIO,41.4059,-95.0465,320,4,4.60312,KAIO 031715Z AUTO 32004KT 10SM CLR 30/22 A3004 RMK AO2,2024-08-03T17:15:00Z,30,22,10+,30.04
KAIG,45.1566,-89.1115,10,4,4.60312,KAIG 031715Z AUTO 01004KT 10SM CLR 26/13 A3005 RMK AO2 T02600133,2024-08-03T17:15:00Z,26,13.3,10+,30.05
KAHQ,41.241,-96.594,230,7,8.05546,KAHQ 031715Z AUTO 23007KT 10SM CLR 31/20 A3006 RMK AO2 T03070196,2024-08-03T17:15:00Z,30.7,19.6,10+,30.06
KAGO,33.2266,-93.2154,VRB,4,4.60312,KAGO 031715Z AUTO VRB04KT 10SM FEW055 33/22 A2999 RMK A01,2024-08-03T17:15:00Z,33,22,10+,29.99
KAFO,42.7139,-110.944,0,0,0.0,KAFO 031715Z AUTO 00000KT 10SM CLR 22/10 A3031 RMK AO2,2024-08-03T17:15:00Z,22,10,10+,30.31
KAFK,40.6065,-95.8635,250,6,6.904679999999999,KAFK 031715Z AUTO 25006KT 10SM CLR 30/21 A3007 RMK AO2 T03000213,2024-08-03T17:15:00Z,30,21.3,10+,30.07
KAEJ,38.8116,-106.121,,,,KAEJ 031715Z AUTO 10SM CLR 23/07 A3050 RMK AO2 T02320067,2024-08-03T17:15:00Z,23.2,6.7,10+,30.50
KADU,41.6993,-94.9204,330,4,4.60312,KADU 031715Z AUTO 33004KT 10SM SCT021 BKN050 OVC075 31/22 A3006 RMK AO2,2024-08-03T17:15:00Z,31,22,10+,30.06
KADH,34.8021,-96.6701,VRB,5,5.7539,KADH 031715Z AUTO VRB05KT 10SM CLR 33/17 A3007 RMK AO2,2024-08-03T17:15:00Z,33,17,10+,30.07
KADC,46.4502,-95.2135,170,9,10.357019999999999,KADC 031715Z AUTO 17009KT 10SM CLR 27/19 A2995 RMK AO2,2024-08-03T17:15:00Z,27,19,10+,29.95
KACQ,44.0702,-93.5535,0,0,0.0,KACQ 031715Z AUTO 00000KT 10SM CLR 26/17 A3005 RMK AO2,2024-08-03T17:15:00Z,26,17,10+,30.05
KACP,30.7469,-92.687,310,5,5.7539,KACP 031715Z AUTO 31005KT 10SM SCT034 SCT042 34/24 A2998 RMK AO2,2024-08-03T17:15:00Z,34,24,10+,29.98
KACJ,32.1106,-84.1841,220,7,8.05546,KACJ 031715Z AUTO 22007KT 10SM BKN029 32/25 A2995 RMK AO2 CIG 027V032 T03170254 $,2024-08-03T17:15:00Z,31.7,25.4,10+,29.95
KACB,44.9867,-85.2022,20,7,8.05546,KACB 031715Z AUTO 02007KT 10SM CLR 28/11 A2996 RMK AO2 T02800113,2024-08-03T17:15:00Z,28,11.3,10+,29.96
KAAS,37.3569,-85.3151,0,0,0.0,KAAS 031715Z AUTO 00000KT 10SM SCT019 SCT044 BKN095 27/22 A2997 RMK AO1,2024-08-03T17:15:00Z,27,22,10+,29.97
KAAA,40.1584,-89.339,340,4,4.60312,KAAA 031715Z AUTO 34004KT 10SM CLR 30/23 A2999 RMK AO2 T03000226,2024-08-03T17:15:00Z,30,22.6,10+,29.99
KA39,32.9875,-111.922,240,4,4.60312,KA39 031715Z AUTO 24004KT 10SM BKN100 BKN120 38/15 A2997 RMK AO2,2024-08-03T17:15:00Z,38,15,10+,29.97
K9Y1,47.3941,-102.773,360,10,11.5078,K9Y1 031715Z AUTO 36010G18KT 10SM CLR 27/17 A3008 RMK AO2,2024-08-03T17:15:00Z,27,17,10+,30.08
K9V9,43.7653,-99.3163,200,5,5.7539,K9V9 031715Z AUTO 20005KT 10SM CLR 32/20 A2998 RMK AO2 T03210200,2024-08-03T17:15:00Z,32.1,20,10+,29.98
K9S9,45.4551,-119.686,220,7,8.05546,K9S9 031715Z AUTO 22007KT 10SM CLR 30/11 A3004 RMK AO2,2024-08-03T17:15:00Z,30,11,10+,30.04
K9MN,44.0198,-92.4829,0,0,0.0,K9MN 031715Z AUTO 00000KT 10SM CLR 27/11 A3005 RMK AO1 T02720109,2024-08-03T17:15:00Z,27.2,10.9,10+,30.05
K9D7,48.4816,-99.2346,,,,K9D7 031715Z AUTO 10SM CLR 24/19 A3003 RMK AO2,2024-08-03T17:15:00Z,24,19,10+,30.03
K9A5,34.6846,-85.2899,260,3,3.4523399999999995,K9A5 031715Z AUTO 26003KT 10SM SCT037 SCT046 BKN075 28/20 A2999 RMK AO2 T02810195,2024-08-03T17:15:00Z,28.1,19.5,10+,29.99
K96D,48.9402,-97.9053,10,21,24.166379999999997,K96D 031715Z AUTO 01021G26KT 9SM CLR 24/17 A2997 RMK AO2,2024-08-03T17:15:00Z,24,17,9,29.97
K8W2,38.6554,-78.7083,190,12,13.809359999999998,K8W2 031715Z AUTO 19012G22KT 170V230 10SM BKN060 BKN070 34/17 A2983 RMK AO1 T03370168,2024-08-03T17:15:00Z,33.7,16.8,10+,29.83
K8T6,28.3656,-98.1174,190,5,5.7539,K8T6 031715Z AUTO 19005KT 10SM CLR 33/25 A2999 RMK AO2,2024-08-03T17:15:00Z,33,25,10+,29.99
K8B0,44.99,-70.6624,0,0,0.0,K8B0 031715Z AUTO 00000KT 9SM FEW028 FEW065 FEW110 25/23 A2985 RMK AO2,2024-08-03T17:15:00Z,25,23,9,29.85
K8A3,36.4164,-85.3061,0,0,0.0,K8A3 031715Z AUTO 00000KT 10SM FEW024 SCT032 BKN080 26/20 A3000 RMK A01,2024-08-03T17:15:00Z,26,20,10+,30.00
K8A0,34.2316,-86.2481,VRB,6,6.904679999999999,K8A0 031715Z AUTO VRB06KT 10SM CLR 28/21 A3001 RMK AO2,2024-08-03T17:15:00Z,28,21,10+,30.01
K82V,41.151,-104.129,70,9,10.357019999999999,K82V 031715Z AUTO 07009KT 10SM 32/03 A3026 RMK AO2,2024-08-03T17:15:00Z,32,3,10+,30.26
K82C,43.8385,-90.1345,30,4,4.60312,K82C 031715Z AUTO 03004KT 10SM CLR 29/17 A3000 RMK AO2 T02850165,2024-08-03T17:15:00Z,28.5,16.5,10+,30.00
K81R,31.2321,-98.7154,0,0,0.0,K81R 031715Z AUTO 00000KT 10SM CLR 33/21 A3008 RMK AO2,2024-08-03T17:15:00Z,33,21,10+,30.08
K7W4,37.9667,-77.7453,190,5,5.7539,K7W4 031715Z AUTO 19005KT 10SM SCT027 30/23 A2988 RMK AO1 T03040234,2024-08-03T17:15:00Z,30.4,23.4,10+,29.88
K7L2,46.219,-100.245,330,10,11.5078,K7L2 031715Z AUTO 33010KT 9SM CLR 31/22 A2996 RMK AO2,2024-08-03T17:15:00Z,31,22,9,29.96
K7BM,38.799,-106.219,0,0,0.0,K7BM 031715Z AUTO 00000KT 10SM CLR 22/05 A3066 RMK AO2,2024-08-03T17:15:00Z,22,5,10+,30.66
K79S,47.845,-110.636,130,10,11.5078,K79S 031715Z AUTO 13010KT 10SM SCT280 30/10 A3004 RMK AO2 T02990101,2024-08-03T17:15:00Z,29.9,10.1,10+,30.04
K77S,43.9324,-123.006,110,3,3.4523399999999995,K77S 031715Z AUTO 11003KT 10SM CLR 20/15 A3007 RMK A01,2024-08-03T17:15:00Z,20,15,10+,30.07
K74V,40.2799,-110.05,120,5,5.7539,K74V 031715Z AUTO 12005KT 7SM CLR 30/02 A3023 RMK AO2,2024-08-03T17:15:00Z,30,2,7,30.23
K6S2,43.9838,-124.11,320,8,9.20624,K6S2 031715Z AUTO 32008KT 10SM OVC010 17/16 A3009 RMK AO2,2024-08-03T17:15:00Z,17,16,10+,30.09
K6S0,45.8063,-109.974,60,7,8.05546,K6S0 031715Z AUTO 06007KT 10SM CLR 27/06 A3023 RMK A01,2024-08-03T17:15:00Z,27,6,10+,30.23
K6R3,30.358,-95.007,0,0,0.0,K6R3 031715Z AUTO 00000KT 10SM SCT034 33/25 A3001 RMK AO2 T03340245,2024-08-03T17:15:00Z,33.4,24.5,10+,30.01
K6P9,32.4294,-98.5959,0,0,0.0,K6P9 031715Z AUTO 00000KT 10SM CLR A3007 RMK AO2,2024-08-03T17:15:00Z,,,10+,30.07
K6L4,37.8553,-81.915,220,6,6.904679999999999,K6L4 031715Z AUTO 22006KT 9SM FEW085 25/19 A2997 RMK AO2,2024-08-03T17:15:00Z,25,19,9,29.97
K6I2,37.6352,-85.2418,320,6,6.904679999999999,K6I2 031715Z AUTO 32006KT 10SM FEW013 BKN018 28/23 A2998 RMK AO2,2024-08-03T17:15:00Z,28,23,10+,29.98
K6B9,42.9141,-76.4428,0,0,0.0,K6B9 031715Z AUTO 00000KT 10SM CLR 26/22 A2988 RMK AO2,2024-08-03T17:15:00Z,26,22,10+,29.88
K6B0,43.9888,-73.0952,0,0,0.0,K6B0 031715Z AUTO 00000KT 10SM SCT020 SCT026 SCT060 28/22 A2982 RMK AO2 T02810222 TSNO,2024-08-03T17:15:00Z,28.1,22.2,10+,29.82
K6A2,33.227,-84.275,0,0,0.0,K6A2 031715Z AUTO 00000KT 10SM 30/21 A2999 RMK AO2 LTG DSNT E,2024-08-03T17:15:00Z,30,21,10+,29.99
K6A1,32.5733,-84.247,40,4,4.60312,K6A1 031715Z AUTO 04004KT 10SM BKN029 BKN040 OVC110 31/25 A2998 RMK AO2 T03120247,2024-08-03T17:15:00Z,31.2,24.7,10+,29.98
K66R,29.6382,-96.5137,0,0,0.0,K66R 031715Z AUTO 00000KT 10SM CLR 32/25 A3003 RMK AO2 T03180245,2024-08-03T17:15:00Z,31.8,24.5,10+,30.03
K65S,48.7255,-116.293,0,0,0.0,K65S 031715Z AUTO 00000KT 10SM CLR 21/13 A3000 RMK AO2,2024-08-03T17:15:00Z,21,13,10+,30.00
K63S,48.544,-117.884,0,0,0.0,K63S 031715Z AUTO 00000KT 10SM CLR 23/09 A2998 RMK A01,2024-08-03T17:15:00Z,23,9,10+,29.98
K60R,30.368,-96.113,VRB,4,4.60312,K60R 031715Z AUTO VRB04KT 10SM SCT033 SCT320 34/28 A2998 RMK AO2 SLP068 T03360277 $,2024-08-03T17:15:00Z,33.6,27.7,10+,29.98
K5T9,28.8568,-100.516,80,9,10.357019999999999,K5T9 031715Z AUTO 08009KT 5SM HZ FEW050 36/22 A3000 RMK A01,2024-08-03T17:15:00Z,36,22,5,30.00
K5SM,39.426,-107.38,290,4,4.60312,K5SM 031715Z AUTO 29004KT 10SM CLR 18/03 A3076 RMK AO2,2024-08-03T17:15:00Z,18,3,10+,30.76
K5R8,30.4368,-93.4696,300,5,5.7539,K5R8 031715Z AUTO 30005KT 10SM BKN036 BKN045 BKN065 33/24 A2999 RMK AO2 T03320244,2024-08-03T17:15:00Z,33.2,24.4,10+,29.99
K5H4,47.7906,-99.9346,10,17,19.56326,K5H4 031715Z AUTO 01017G24KT 10SM FEW021 25/25 A3001 RMK AO2,2024-08-03T17:15:00Z,25,25,10+,30.01
K5C1,29.7267,-98.6964,50,7,8.05546,K5C1 031715Z AUTO 05007KT 10SM CLR 32/20 A3007 RMK AO1,2024-08-03T17:15:00Z,32,20,10+,30.07
K57C,42.7971,-88.3655,140,5,5.7539,K57C 031715Z AUTO 14005KT 10SM SCT026 28/21 A2998 RMK AO2 T02830210,2024-08-03T17:15:00Z,28.3,21,10+,29.98
K54J,30.7312,-86.1542,170,5,5.7539,K54J 031715Z AUTO 17005KT 10SM CLR 31/23 A2999 RMK AO2 T03140227,2024-08-03T17:15:00Z,31.4,22.7,10+,29.99
K54A,26.8601,-82.2468,110,8,9.20624,K54A 031715Z AUTO 11008G14KT 10SM CLR 32/24 A2992 RMK AO2 LTG DSNT N AND SE AND S,2024-08-03T17:15:00Z,32,24,10+,29.92
K4V1,37.6941,-104.788,100,5,5.7539,K4V1 031715Z AUTO 10005KT 10SM CLR 28/11 A3033 RMK AO2,2024-08-03T17:15:00Z,28,11,10+,30.33
K4V0,40.0956,-108.762,360,3,3.4523399999999995,K4V0 031715Z AUTO 36003KT 10SM CLR 32/05 A3024 RMK AO2 T03190051,2024-08-03T17:15:00Z,31.9,5.1,10+,30.24
K4S2,45.6746,-121.535,180,3,3.4523399999999995,K4S2 031715Z AUTO 18003KT 10SM CLR 25/17 A3001 RMK AO2,2024-08-03T17:15:00Z,25,17,10+,30.01
K4S1,42.4161,-124.426,190,5,5.7539,K4S1 031715Z AUTO 19005KT 2SM BR OVC008 15/13 A3005 RMK AO2,2024-08-03T17:15:00Z,15,13,2,30.05
K4R5,46.7887,-90.7559,130,4,4.60312,K4R5 031715Z AUTO 13004KT 10SM SCT085 BKN110 26/14 A3001 RMK AO2 T02620141,2024-08-03T17:15:00Z,26.2,14.1,10+,30.01
K4O4,33.9133,-94.8546,,,,K4O4 031715Z AUTO 10SM 33/21 A3002 RMK AO2,2024-08-03T17:15:00Z,33,21,10+,30.02
K4M9,36.404,-90.647,VRB,3,3.4523399999999995,K4M9 031715Z AUTO VRB03KT 10SM CLR 31/26 A3002 RMK A01,2024-08-03T17:15:00Z,31,26,10+,30.02
K4I3,40.3268,-82.5201,280,10,11.5078,K4I3 031715Z AUTO 28010KT 7SM RA SCT008 SCT015 BKN029 23/22 A2995 RMK AO2,2024-08-03T17:15:00Z,23,22,7,29.95
K4F2,32.18,-94.2976,330,6,6.904679999999999,K4F2 031715Z AUTO 33006KT 10SM CLR 33/23 A2998 RMK AO2 T03340229,2024-08-03T17:15:00Z,33.4,22.9,10+,29.98
K4BM,39.05,-105.514,0,0,0.0,K4BM 031715Z AUTO 00000KT 10SM CLR 19/00 A3080 RMK AO2,2024-08-03T17:15:00Z,19,0,10+,30.80
K4B8,41.69,-72.865,VRB,5,5.7539,K4B8 031715Z AUTO VRB05KT 10SM FEW039 SCT310 SCT370 31/23 A2981 RMK AO2 T03080225,2024-08-03T17:15:00Z,30.8,22.5,10+,29.81
K4A9,34.4759,-85.717,360,6,6.904679999999999,K4A9 031715Z AUTO 36006KT 10SM SCT037 29/20 A2999 RMK AO2 T02850201,2024-08-03T17:15:00Z,28.5,20.1,10+,29.99
K4A6,34.688,-86.006,VRB,4,4.60312,K4A6 031715Z AUTO VRB04KT 10SM FEW035 BKN075 29/21 A2999 RMK AO2,2024-08-03T17:15:00Z,29,21,10+,29.99
K49B,44.4284,-103.38,330,16,18.41248,K49B 031715Z AUTO 33016G21KT 10SM CLR 36/09 A3009 RMK AO2,2024-08-03T17:15:00Z,36,9,10+,30.09
K49A,34.6301,-84.5271,VRB,4,4.60312,K49A 031715Z AUTO VRB04KT 10SM FEW027 28/23 A3002 RMK AO2,2024-08-03T17:15:00Z,28,23,10+,30.02
K48I,38.684,-80.649,0,0,0.0,K48I 031715Z AUTO 00000KT 7SM +RA SCT010 BKN014 BKN028 23/21 A2995 RMK AO2,2024-08-03T17:15:00Z,23,21,7,29.95
K48A,32.3993,-83.2785,180,8,9.20624,K48A 031715Z AUTO 18008KT 10SM SCT023 31/26 A2998 RMK AO2 T03130260,2024-08-03T17:15:00Z,31.3,26,10+,29.98
K46U,43.181,-111.037,250,4,4.60312,K46U 031715Z AUTO 25004KT 8SM CLR 25/07 A3027 RMK A01,2024-08-03T17:15:00Z,25,7,8,30.27
K46D,47.4509,-99.1479,360,14,16.11092,K46D 031715Z AUTO 36014KT 10SM FEW011 OVC024 28/22 A2994 RMK A01,2024-08-03T17:15:00Z,28,22,10+,29.94
K42J,29.844,-82.05,0,0,0.0,K42J 031715Z AUTO 00000KT 9SM FEW065 FEW080 32/25 A2999 RMK A01,2024-08-03T17:15:00Z,32,25,9,29.99
K42A,36.0713,-91.8287,VRB,4,4.60312,K42A 031715Z AUTO VRB04KT 10SM SCT038 SCT045 30/23 A3004 RMK AO2,2024-08-03T17:15:00Z,30,23,10+,30.04
K40U,40.986,-109.678,0,0,0.0,K40U 031715Z AUTO 00000KT 10SM CLR 27/05 A3032 RMK AO2 T02710051,2024-08-03T17:15:00Z,27.1,5.1,10+,30.32
K3W7,47.9219,-119.077,0,0,0.0,K3W7 031715Z AUTO 00000KT 6SM HZ CLR 26/13 A2995 RMK AO2,2024-08-03T17:15:00Z,26,13,6,29.95
K3T5,29.9064,-96.9478,0,0,0.0,K3T5 031715Z AUTO 00000KT 10SM FEW370 33/26 A2999 RMK AO2 T03340260 $,2024-08-03T17:15:00Z,33.4,26,10+,29.99
K3S8,42.51,-123.388,300,3,3.4523399999999995,K3S8 031715Z AUTO 30003KT 10SM CLR 24/15 A3004 RMK AO2,2024-08-03T17:15:00Z,24,15,10+,30.04
K3R7,30.2426,-92.6759,290,3,3.4523399999999995,K3R7 031715Z AUTO 29003KT 10SM SCT027 SCT034 SCT045 33/25 A2998 RMK AO2 LTG DSNT E T03310254,2024-08-03T17:15:00Z,33.1,25.4,10+,29.98
K3N8,47.26,-95.928,200,10,11.5078,K3N8 031715Z AUTO 20010KT 10SM SCT120 27/20 A2989 RMK AO2 LTG DSNT NW T02720196,2024-08-03T17:15:00Z,27.2,19.6,10+,29.89
K3LF,39.1605,-89.6742,300,5,5.7539,K3LF 031715Z AUTO 30005KT 10SM CLR 28/21 A3003 RMK AO2 T02840208,2024-08-03T17:15:00Z,28.4,20.8,10+,30.03
K3K7,38.4566,-101.353,170,5,5.7539,K3K7 031715Z AUTO 17005KT 10SM CLR 31/16 A3017 RMK AO2,2024-08-03T17:15:00Z,31,16,10+,30.17
K3K3,37.9988,-101.75,0,0,0.0,K3K3 031715Z AUTO 00000KT 10SM 33/16 A3017 RMK AO2,2024-08-03T17:15:00Z,33,16,10+,30.17
K3F3,32.0718,-93.7641,60,8,9.20624,K3F3 031715Z AUTO 06008KT 10SM BKN030 BKN080 33/26 A3002 RMK AO2 T03320261,2024-08-03T17:15:00Z,33.2,26.1,10+,30.02
K3D2,45.1348,-87.1881,10,7,8.05546,K3D2 031715Z AUTO 01007KT 10SM CLR 26/13 A2999 RMK AO2 T02570134,2024-08-03T17:15:00Z,25.7,13.4,10+,29.99
K36K,37.9707,-101.255,120,9,10.357019999999999,K36K 031715Z AUTO 12009KT 100V160 10SM CLR 31/18 A3019 RMK AO2,2024-08-03T17:15:00Z,31,18,10+,30.19
K35A,34.6849,-81.6421,230,6,6.904679999999999,K35A 031715Z AUTO 23006KT 10SM SCT027 BKN033 31/24 A2998 RMK A02 LTG DSNT S T03060241,2024-08-03T17:15:00Z,30.6,24.1,10+,29.98
K33N,39.218,-75.597,180,6,6.904679999999999,K33N 031715Z AUTO 18006KT 10SM SCT030 BKN035 BKN044 32/25 A2984 RMK A01,2024-08-03T17:15:00Z,32,25,10+,29.84
K2V5,40.1,-102.241,0,0,0.0,K2V5 031715Z AUTO 00000KT 10SM CLR 32/11 A3018 RMK AO2,2024-08-03T17:15:00Z,32,11,10+,30.18
K2R9,28.8267,-97.8676,200,4,4.60312,K2R9 031715Z AUTO 20004KT 10SM CLR 33/23 A3002 RMK AO2 T03330230,2024-08-03T17:15:00Z,33.3,23,10+,30.02
K2R2,39.7511,-86.4732,340,9,10.357019999999999,K2R2 031715Z AUTO 34009KT 10SM SCT027 28/23 A2998 RMK AO2 T02810231 $,2024-08-03T17:15:00Z,28.1,23.1,10+,29.98
K2P2,45.388,-86.924,10,4,4.60312,K2P2 031715Z AUTO 01004KT 10SM CLR 26/16 A2998 RMK AO2 T02620158,2024-08-03T17:15:00Z,26.2,15.8,10+,29.98
K2M8,35.276,-89.931,340,6,6.904679999999999,K2M8 031715Z AUTO 34006KT 10SM FEW043 30/21 A3000 RMK AO2 T03040212 $,2024-08-03T17:15:00Z,30.4,21.2,10+,30.00
K2M2,35.2372,-87.2611,,,,K2M2 031715Z AUTO 10SM CLR 29/20 A3000 RMK A01,2024-08-03T17:15:00Z,29,20,10+,30.00
K2J9,30.5987,-84.555,170,8,9.20624,K2J9 031715Z AUTO 17008KT 10SM SCT033 BKN065 BKN080 32/25 A2999 RMK AO2 LTG DSNT E AND SE,2024-08-03T17:15:00Z,32,25,10+,29.99
K2J5,32.8913,-81.9664,130,7,8.05546,K2J5 031715Z AUTO 13007KT 10SM CLR 32/24 A2997 RMK AO2 T03230245,2024-08-03T17:15:00Z,32.3,24.5,10+,29.97
K2IS,26.739,-81.0528,110,13,14.960139999999999,K2IS 031715Z AUTO 11013KT 10SM SCT022 SCT028 31/25 A2996 RMK AO2 LTG DSNT ALQDS T03060252,2024-08-03T17:15:00Z,30.6,25.2,10+,29.96
K2I0,37.3582,-87.3977,350,7,8.05546,K2I0 031715Z AUTO 35007KT 10SM SCT033 29/20 A2998 RMK AO2 T02930203,2024-08-03T17:15:00Z,29.3,20.3,10+,29.98
K2G9,40.0401,-79.0158,300,9,10.357019999999999,K2G9 031715Z AUTO 30009KT 10SM -RA SCT029 SCT043 BKN070 23/20 A2993 RMK AO2 P0001,2024-08-03T17:15:00Z,23,20,10+,29.93
K2G2,40.359,-80.7,310,10,11.5078,K2G2 031715Z AUTO 31010KT 10SM SCT020 BKN025 BKN036 26/21 A2990 RMK A01,2024-08-03T17:15:00Z,26,21,10+,29.90
K2D5,46.1739,-98.083,190,10,11.5078,K2D5 031715Z AUTO 19010KT 4SM BR CLR 31/31 A2990 RMK AO2,2024-08-03T17:15:00Z,31,31,4,29.90
K28J,29.6602,-81.6918,VRB,3,3.4523399999999995,K28J 031715Z AUTO VRB03KT 10SM SCT043 33/23 A2998 RMK AO2 LTG DSNT SE AND S,2024-08-03T17:15:00Z,33,23,10+,29.98
K24J,30.299,-83.0226,,,,K24J 031715Z AUTO 10SM FEW041 32/22 A2999 RMK A01,2024-08-03T17:15:00Z,32,22,10+,29.99
K22N,40.8116,-75.7647,0,0,0.0,K22N 031715Z AUTO 00000KT 10SM SCT038 BKN060 30/22 A2983 RMK AO2 LTG DSNT NW,2024-08-03T17:15:00Z,30,22,10+,29.83
K21D,45.0002,-92.8549,180,4,4.60312,K21D 031715Z AUTO 18004KT 10SM CLR 26/16 A3002 RMK AO2,2024-08-03T17:15:00Z,26,16,10+,30.02
K20V,40.0563,-106.374,0,0,0.0,K20V 031715Z AUTO 00000KT 10SM CLR 25/05 A3047 RMK AO2,2024-08-03T17:15:00Z,25,5,10+,30.47
K1V6,38.4256,-105.105,310,6,6.904679999999999,K1V6 031715Z AUTO 31006G10KT 10SM CLR 33/10 A3026 RMK AO2,2024-08-03T17:15:00Z,33,10,10+,30.26
K1U7,42.252,-111.337,170,5,5.7539,K1U7 031715Z AUTO 17005KT 10SM CLR 25/11 A3029 RMK A01,2024-08-03T17:15:00Z,25,11,10+,30.29
K1R8,30.8691,-87.8184,290,4,4.60312,K1R8 031715Z AUTO 29004KT 10SM FEW040 SCT047 SCT060 33/24 A2995 RMK AO2,2024-08-03T17:15:00Z,33,24,10+,29.95
K1R7,31.6057,-90.4072,0,0,0.0,K1R7 031715Z AUTO 00000KT 9SM SCT037 SCT080 33/24 A3000 RMK A01 TSNO,2024-08-03T17:15:00Z,33,24,9,30.00
K1P1,43.7771,-71.756,280,3,3.4523399999999995,K1P1 031715Z AUTO 28003KT 10SM OVC095 27/22 A2980 RMK AO2 T02720215,2024-08-03T17:15:00Z,27.2,21.5,10+,29.80
K1M5,36.5956,-86.478,VRB,4,4.60312,K1M5 031715Z AUTO VRB04KT 10SM FEW028 FEW032 SCT047 28/22 A2998 RMK A01,2024-08-03T17:15:00Z,28,22,10+,29.98
K1K8,36.543,-95.012,0,0,0.0,K1K8 031715Z AUTO 00000KT 10SM CLR 32/19 A3006 RMK AO2,2024-08-03T17:15:00Z,32,19,10+,30.06
K1H2,39.0712,-88.5293,310,6,6.904679999999999,K1H2 031715Z AUTO 31006KT 10SM BKN037 BKN049 30/21 A3001 RMK AO2 T03010212,2024-08-03T17:15:00Z,30.1,21.2,10+,30.01
K1F0,34.1508,-97.1242,30,8,9.20624,K1F0 031715Z AUTO 03008KT 10SM CLR 34/15 A3005 RMK AO2 T03420147,2024-08-03T17:15:00Z,34.2,14.7,10+,30.05
K1D8,44.86,-98.529,220,10,11.5078,K1D8 031715Z AUTO 22010KT 10SM CLR 34/22 A2993 RMK AO2,2024-08-03T17:15:00Z,34,22,10+,29.93
K1D1,45.231,-96.566,190,9,10.357019999999999,K1D1 031715Z AUTO 19009KT 10SM CLR 31/22 A2993 RMK AO2,2024-08-03T17:15:00Z,31,22,10+,29.93
K1B9,42,-71.197,270,9,10.357019999999999,K1B9 031715Z AUTO 27009KT 10SM BKN043 BKN049 BKN240 32/22 A2978 RMK AO2 T03170219 $,2024-08-03T17:15:00Z,31.7,21.9,10+,29.78
K1A9,32.4374,-86.5098,0,0,0.0,K1A9 031715Z AUTO 00000KT 10SM CLR 32/22 A2995 RMK AO2 T03190221,2024-08-03T17:15:00Z,31.9,22.1,10+,29.95
K1A6,36.6087,-83.7369,0,0,0.0,K1A6 031715Z AUTO 00000KT 10SM SCT034 SCT040 BKN048 27/19 A2997 RMK AO2 T02660193,2024-08-03T17:15:00Z,26.6,19.3,10+,29.97
K19S,37.496,-100.834,110,6,6.904679999999999,K19S 031715Z AUTO 11006KT 7SM HZ CLR 30/19 A3018 RMK AO2 T03010192,2024-08-03T17:15:00Z,30.1,19.2,7,30.18
K18H,26.1283,-92.0333,30,8,9.20624,K18H 031715Z AUTO 03008G13KT 10SM CLR 31/25 A2997 RMK A01,2024-08-03T17:15:00Z,31,25,10+,29.97
K18A,34.3418,-83.1316,280,6,6.904679999999999,K18A 031715Z AUTO 28006KT 10SM BKN036 BKN046 BKN055 30/22 A2997 RMK AO2 T02960222,2024-08-03T17:15:00Z,29.6,22.2,10+,29.97
K17J,31.0038,-84.8794,280,4,4.60312,K17J 031715Z AUTO 28004KT 10SM CLR 32/22 A2999 RMK AO2,2024-08-03T17:15:00Z,32,22,10+,29.99
K15M,34.7745,-88.1676,0,0,0.0,K15M 031715Z AUTO 00000KT 4SM HZ FEW034 SCT055 SCT380 29/22 A3000 RMK AO2 T02940223 $,2024-08-03T17:15:00Z,29.4,22.3,4,30.00
K13K,37.8519,-96.2929,70,3,3.4523399999999995,K13K 031715Z AUTO 07003KT 10SM CLR 31/18 A3011 RMK AO2 T03090182,2024-08-03T17:15:00Z,30.9,18.2,10+,30.11
K11R,30.2232,-96.3734,340,5,5.7539,K11R 031715Z AUTO 34005KT 10SM CLR 33/24 A3001 RMK AO2 T03340242,2024-08-03T17:15:00Z,33.4,24.2,10+,30.01
K10U,41.953,-116.182,230,8,9.20624,K10U 031715Z AUTO 23008KT 10SM CLR 31/02 A3019 RMK AO2,2024-08-03T17:15:00Z,31,2,10+,30.19
K10G,40.5357,-81.9531,320,7,8.05546,K10G 031715Z AUTO 32007KT 10SM SCT012 BKN031 OVC050 23/22 A2994 RMK AO2,2024-08-03T17:15:00Z,23,22,10+,29.94
K0VG,36.6576,-83.2147,200,5,5.7539,K0VG 031715Z AUTO 20005KT 10SM FEW028 FEW046 25/21 A2999 RMK AO2,2024-08-03T17:15:00Z,25,21,10+,29.99
K0V4,37.1399,-79.0171,180,10,11.5078,K0V4 031715Z AUTO 18010G15KT 10SM SCT021 SCT028 BKN065 30/24 A2992 RMK AO1,2024-08-03T17:15:00Z,30,24,10+,29.92
K0S9,48.0554,-122.812,90,5,5.7539,K0S9 031715Z AUTO 09005KT 10SM OVC010 18/15 A3008 RMK AO2,2024-08-03T17:15:00Z,18,15,10+,30.08
K0R4,31.5637,-91.5098,0,0,0.0,K0R4 031715Z AUTO 00000KT 10SM SCT029 SCT038 SCT080 33/25 A2999 RMK AO2 LTG DSNT E T03310254,2024-08-03T17:15:00Z,33.1,25.4,10+,29.99
K0E0,34.9837,-105.996,190,5,5.7539,K0E0 031715Z AUTO 19005KT 10SM CLR 28/08 A3039 RMK AO2 T02840083,2024-08-03T17:15:00Z,28.4,8.3,10+,30.39
K0D8,44.989,-99.954,230,9,10.357019999999999,K0D8 031715Z AUTO 23009G16KT 10SM CLR 33/18 A2996 RMK A01,2024-08-03T17:15:00Z,33,18,10+,29.96
K0CO,39.794,-105.764,130,6,6.904679999999999,K0CO 031715Z AUTO 13006KT CLR 15/M05 A3088 RMK AO2 PWINO,2024-08-03T17:15:00Z,15,-5,,30.88
K0A9,36.3711,-82.1768,230,7,8.05546,K0A9 031715Z AUTO 23007KT 10SM CLR 27/20 A2997 RMK AO2,2024-08-03T17:15:00Z,27,20,10+,29.97
K0A0,32.99,-106.967,VRB,3,3.4523399999999995,K0A0 031715Z AUTO VRB03KT 10SM CLR 31/10 A3026 RMK AO2,2024-08-03T17:15:00Z,31,10,10+,30.26
K06D,48.8821,-99.6217,30,21,24.166379999999997,K06D 031715Z AUTO 03021G28KT 10SM CLR 22/12 A3005 RMK AO2,2024-08-03T17:15:00Z,22,12,10+,30.05
K06C,41.9924,-88.1091,330,5,5.7539,K06C 031715Z AUTO 33005KT 10SM BKN048 BKN065 31/19 A2996 RMK AO2 T03140187,2024-08-03T17:15:00Z,31.4,18.7,10+,29.96
K05U,39.6015,-116.006,0,0,0.0,K05U 031715Z AUTO 00000KT 10SM CLR 28/08 A3028 RMK A01,2024-08-03T17:15:00Z,28,8,10+,30.28
K04W,46.0244,-92.8991,130,5,5.7539,K04W 031715Z AUTO 13005KT 10SM CLR 26/16 A3003 RMK AO2,2024-08-03T17:15:00Z,26,16,10+,30.03
K04V,38.099,-106.17,120,5,5.7539,K04V 031715Z AUTO 12005KT 10SM CLR 26/08 A3051 RMK AO2 PWINO,2024-08-03T17:15:00Z,26,8,10+,30.51
CYBX,51.442,-57.188,170,4,4.60312,CYBX 031715Z 17004KT 140V240 1/2SM FG VV002 16/16 A2977 RMK FG8 SLP084 DENSITY ALT 500FT,2024-08-03T17:15:00Z,16,16,0.5,29.77
CWPF,48.432,-123.439,170,4,4.60312,CWPF 031715Z AUTO 17004KT 15/11 RMK AO1 SLP180 T01460107 58002,2024-08-03T17:15:00Z,14.6,10.7,,
KTTD,45.551,-122.41,0,0,0.0,KTTD 031714Z AUTO 00000KT 10SM SCT012 21/15 A3008 RMK AO2 T02060150,2024-08-03T17:14:00Z,20.6,15,10+,30.08
KPEO,42.6441,-77.0528,0,0,0.0,KPEO 031714Z AUTO 00000KT 10SM SCT022 SCT100 26/19 A2988 RMK AO2 T02560189,2024-08-03T17:14:00Z,25.6,18.9,10+,29.88
KNBT,35.022,-76.463,210,18,20.714039999999997,KNBT 031714Z AUTO 21018G28KT 10SM TS FEW023 SCT029 SCT043 34/27 A3001 RMK AO2 PK WND 20028/1705 TSB13 T03390267 $,2024-08-03T17:14:00Z,33.9,26.7,10+,30.01
KC99,39.869,-105.553,330,4,4.60312,KC99 031714Z AUTO 33004KT 10SM SCT080 21/M01 A3075 RMK AO2,2024-08-03T17:14:00Z,21,-1,10+,30.75
CYPO,54.988,-85.439,300,17,19.56326,CYPO 031714Z AUTO 30017G26KT 6SM -RA BR BKN013 OVC020 11/10 A2969 RMK SLP057,2024-08-03T17:14:00Z,11,10,6,29.69
YAMB,-27.63,152.711,70,1,1.15078,YAMB 031713Z AUTO 07001KT 9999 // NCD 04/04 Q1026 RF00.0/000.0,2024-08-03T17:13:00Z,4,4,6+,30.30
PADM,61.865,-162.033,190,10,11.5078,PADM 031713Z AUTO 19010G20KT 10SM OVC017 10/08 A3015 RMK AO2,2024-08-03T17:13:00Z,10,8,10+,30.15
KXVG,46.9942,-94.206,160,13,14.960139999999999,KXVG 031713Z AUTO 16013G18KT 10SM CLR 26/16 A2996 RMK AO2 LTG DSNT NE AND NW,2024-08-03T17:13:00Z,26,16,10+,29.96
KSYN,44.474,-93.014,0,0,0.0,KSYN 031713Z AUTO 00000KT 10SM CLR 27/15 A3003 RMK AO2,2024-08-03T17:13:00Z,27,15,10+,30.03
KOWA,44.1191,-93.2569,0,0,0.0,KOWA 031713Z AUTO 00000KT 10SM CLR 27/16 A3004 RMK AO2,2024-08-03T17:13:00Z,27,16,10+,30.04
KORB,48.0171,-92.8538,0,0,0.0,KORB 031713Z AUTO 00000KT 7SM -VCTSRA 18/17 A3004 RMK AO2 LTG DSNT SW THRU NE P0001,2024-08-03T17:13:00Z,18,17,7,30.04
KETH,45.7828,-96.5461,180,10,11.5078,KETH 031713Z AUTO 18010KT 10SM CLR 30/21 A2992 RMK AO2,2024-08-03T17:13:00Z,30,21,10+,29.92
KDVP,43.9906,-95.781,200,8,9.20624,KDVP 031713Z AUTO 20008KT 10SM CLR 31/18 A3004 RMK AO2 T03050175,2024-08-03T17:13:00Z,30.5,17.5,10+,30.04
KCDD,48.2601,-92.4748,180,4,4.60312,KCDD 031713Z AUTO 18004KT 10SM RA CLR 17/16 A3001 RMK AO2 LTG DSNT S THRU NW,2024-08-03T17:13:00Z,17,16,10+,30.01
KAQP,45.2249,-96.0041,160,9,10.357019999999999,KAQP 031713Z AUTO 16009G14KT 10SM CLR 30/22 A2994 RMK AO2 TSNO,2024-08-03T17:13:00Z,30,22,10+,29.94
PARS,61.78,-161.321,190,13,14.960139999999999,PARS 031712Z AUTO 19013G18KT 150V230 10SM OVC015 10/08 A3013 RMK AO2 $,2024-08-03T17:12:00Z,10,8,10+,30.13
PAMK,63.484,-162.115,190,17,19.56326,PAMK 031712Z AUTO 19017G21KT 10SM -RA FEW015 BKN090 OVC110 10/08 A3003 RMK AO2 P0000,2024-08-03T17:12:00Z,10,8,10+,30.03
PAGS,58.425,-135.707,0,0,0.0,PAGS 031712Z AUTO 00000KT 10SM FEW009 13/12 A3030 RMK AO2 TSNO,2024-08-03T17:12:00Z,13,12,10+,30.30
KDDC,37.7711,-99.9692,340,4,4.60312,KDDC 031712Z AUTO 34004KT 7SM -RA FEW042 SCT070 OVC100 23/19 A3020 RMK AO2 LTG DSNT SW AND NW P0000 T02330194,2024-08-03T17:12:00Z,23.3,19.4,7,30.20
KBDE,48.7261,-94.6122,VRB,5,5.7539,KBDE 031712Z AUTO VRB05KT 10SM -RA BKN075 BKN085 21/17 A2997 RMK AO2 WSHFT 1643 LTG DSNT NE-SE RAB05 TSE1656 P0001 T02060172,2024-08-03T17:12:00Z,20.6,17.2,10+,29.97
KVRB,27.6553,-80.4142,160,3,3.4523399999999995,KVRB 031711Z 16003KT 10SM VCTS FEW023 SCT031 BKN060 26/24 A3000 RMK AO2 LTG DSNT ALQDS RAE1658 TSE1659 P0000 T02560244,2024-08-03T17:11:00Z,25.6,24.4,10+,30.00
KLGD,45.2906,-118.009,290,17,19.56326,KLGD 031711Z AUTO 29017KT 10SM CLR 30/09 A3004 RMK AO2 WSHFT 1651 $,2024-08-03T17:11:00Z,30,9,10+,30.04
KBJJ,40.8732,-81.8886,320,7,8.05546,KBJJ 031711Z AUTO 32007KT 10SM SCT021 BKN037 23/20 A2992 RMK AO2 LTG DSNT SW AND W T02280200,2024-08-03T17:11:00Z,22.8,20,10+,29.92
VCBI,7.181,79.884,230,7,8.05546,VCBI 031710Z 23007KT 9999 SCT016 28/25 Q1012 NOSIG,2024-08-03T17:10:00Z,28,25,6+,29.88
KWWR,36.4374,-99.5234,150,10,11.5078,KWWR 031710Z AUTO 15010KT 10SM CLR 32/14 A3016 RMK AO2,2024-08-03T17:10:00Z,32,14,10+,30.16
KUWL,39.8752,-85.3313,10,6,6.904679999999999,KUWL 031710Z AUTO 01006KT 10SM FEW026 FEW031 SCT045 28/22 A2996 RMK A01,2024-08-03T17:10:00Z,28,22,10+,29.96
KUCY,36.3778,-88.9878,VRB,3,3.4523399999999995,KUCY 031710Z AUTO VRB03KT 9SM FEW046 30/22 A2998 RMK A01,2024-08-03T17:10:00Z,30,22,9,29.98
KTQK,38.4782,-100.882,140,18,20.714039999999997,KTQK 031710Z AUTO 14018G25KT 10SM CLR 31/15 A3018 RMK AO2 T03120150,2024-08-03T17:10:00Z,31.2,15,10+,30.18
KTAZ,39.535,-89.3294,300,4,4.60312,KTAZ 031710Z AUTO 30004KT 10SM CLR 29/22 A3001 RMK AO2 T02910219,2024-08-03T17:10:00Z,29.1,21.9,10+,30.01
KSNH,35.1731,-88.2146,0,0,0.0,KSNH 031710Z AUTO 00000KT 10SM CLR 30/22 A2998 RMK A01,2024-08-03T17:10:00Z,30,22,10+,29.98
KRNH,45.1476,-92.5335,0,0,0.0,KRNH 031710Z AUTO 00000KT 10SM CLR 26/15 A3003 RMK AO2 T02580154,2024-08-03T17:10:00Z,25.8,15.4,10+,30.03
KOWI,38.5409,-95.2542,360,5,5.7539,KOWI 031710Z AUTO 36005KT 10SM CLR 33/22 A3007 RMK AO2 PWINO,2024-08-03T17:10:00Z,33,22,10+,30.07
KOPL,30.5643,-92.1021,350,7,8.05546,KOPL 031710Z AUTO 35007KT 10SM SCT034 SCT041 33/26 A2997 RMK AO2 LTG DSNT SE T03300255,2024-08-03T17:10:00Z,33,25.5,10+,29.97
KMKQ,27.5197,-90.0981,0,0,0.0,KMKQ 031710Z AUTO 00000KT 10SM SCT022 SCT046 30/23 A2999 RMK A01,2024-08-03T17:10:00Z,30,23,10+,29.99
KM54,36.1932,-86.3139,350,5,5.7539,KM54 031710Z AUTO 35005G13KT 10SM FEW046 SCT060 29/22 A2995 RMK A01,2024-08-03T17:10:00Z,29,22,10+,29.95
KM04,35.5819,-89.5858,30,4,4.60312,KM04 031710Z AUTO 03004KT 10SM SCT038 30/22 A3001 RMK A01,2024-08-03T17:10:00Z,30,22,10+,30.01
KHLG,40.1699,-80.6441,VRB,5,5.7539,KHLG 031710Z VRB05KT 10SM VCTS SCT022 BKN040 OVC070 24/19 A2991 RMK AO2 LTG DSNT NE T02440194,2024-08-03T17:10:00Z,24.4,19.4,10+,29.91
KHBV,27.3516,-98.7415,150,4,4.60312,KHBV 031710Z AUTO 15004KT 10SM SCT060 SCT070 SCT080 33/22 A3003 RMK AO2 T03280216,2024-08-03T17:10:00Z,32.8,21.6,10+,30.03
KGRY,27.6247,-90.4411,30,5,5.7539,KGRY 031710Z AUTO 03005KT 10SM CLR 29/23 A3000 RMK A01,2024-08-03T17:10:00Z,29,23,10+,30.00
KGLX,28.2347,-88.9843,20,9,10.357019999999999,KGLX 031710Z AUTO 02009KT 10SM CLR A2997 RMK A01,2024-08-03T17:10:00Z,,,10+,29.97
KFOA,38.6673,-88.4527,360,6,6.904679999999999,KFOA 031710Z AUTO 36006KT 10SM CLR 30/22 A3000 RMK AO2,2024-08-03T17:10:00Z,30,22,10+,30.00
KFCH,36.7338,-119.82,0,0,0.0,KFCH 031710Z AUTO 00000KT 7SM CLR 30/17 A2997 RMK A01,2024-08-03T17:10:00Z,30,17,7,29.97
KF45,26.8419,-80.224,90,4,4.60312,KF45 031710Z AUTO 09004KT 10SM CLR 27/27 A2997 RMK AO2 LTG DSNT NE AND SW AND NW,2024-08-03T17:10:00Z,27,27,10+,29.97
KEWN,35.0684,-77.0478,200,9,10.357019999999999,KEWN 031710Z 20009KT 10SM CLR 28/23 A3001 RMK AO2 LTG DSNT E AND SW T02780228,2024-08-03T17:10:00Z,27.8,22.8,10+,30.01
KELZ,42.1077,-77.9842,20,4,4.60312,KELZ 031710Z AUTO 02004KT 3SM RA BR BKN080 OVC095 20/19 A2994 RMK AO2 P0003 T02000194,2024-08-03T17:10:00Z,20,19.4,3,29.94
KEKN,38.8899,-79.8554,0,0,0.0,KEKN 031710Z AUTO 00000KT 10SM FEW014 BKN041 OVC049 24/22 A2996 RMK AO2 LTG DSNT S T02440222,2024-08-03T17:10:00Z,24.4,22.2,10+,29.96
KEHA,37.0011,-101.88,210,14,16.11092,KEHA 031710Z AUTO 21014G20KT 10SM CLR 32/17 A3021 RMK AO2 T03180169,2024-08-03T17:10:00Z,31.8,16.9,10+,30.21
KE01,31.5804,-102.908,0,0,0.0,KE01 031710Z AUTO 00000KT 10SM CLR 34/14 A3012 RMK AO2,2024-08-03T17:10:00Z,34,14,10+,30.12
KDVK,37.5764,-84.7641,260,4,4.60312,KDVK 031710Z AUTO 26004KT 10SM SCT018 SCT027 SCT032 26/20 A2998 RMK AO2,2024-08-03T17:10:00Z,26,20,10+,29.98
KDKX,35.9658,-83.8717,0,0,0.0,KDKX 031710Z AUTO 00000KT 6SM HZ FEW028 FEW048 FEW060 25/23 A2997 RMK A01,2024-08-03T17:10:00Z,25,23,6,29.97
KDED,29.075,-81.286,100,10,11.5078,KDED 031710Z AUTO 10010KT 10SM VCTS CLR 32/24 A2999 RMK AO2 LTG DSNT ALQDS T03210242,2024-08-03T17:10:00Z,32.1,24.2,10+,29.99
KCZT,28.5204,-99.8192,140,6,6.904679999999999,KCZT 031710Z AUTO 14006KT 10SM SCT050 36/21 A3000 RMK AO2,2024-08-03T17:10:00Z,36,21,10+,30.00
KCLE,41.4057,-81.8519,10,10,11.5078,KCLE 031710Z 01010KT 10SM SCT019 SCT024 BKN046 26/21 A2989 RMK AO2 LTG DSNT SE T02610211,2024-08-03T17:10:00Z,26.1,21.1,10+,29.89
KCCB,34.1118,-117.685,250,3,3.4523399999999995,KCCB 031710Z AUTO 25003KT 9SM CLR 30/11 A2999 RMK AO2,2024-08-03T17:10:00Z,30,11,9,29.99
K8V7,37.4547,-102.619,VRB,5,5.7539,K8V7 031710Z AUTO VRB05KT 10SM FEW120 29/14 A3024 RMK AO2,2024-08-03T17:10:00Z,29,14,10+,30.24
K3L4,29.8,-92.804,290,8,9.20624,K3L4 031710Z AUTO 29008KT 10SM CLR 34/29 A2997 RMK A01,2024-08-03T17:10:00Z,34,29,10+,29.97
K1FN,47.9,-101.67,10,16,18.41248,K1FN 031710Z AUTO 01016G20KT M M SCT015 M A2996 RMK AO2 SLPNO ALSTG ESTMD RVRNO $,2024-08-03T17:10:00Z,,,,29.96
K00U,45.7453,-107.661,VRB,5,5.7539,K00U 031710Z AUTO VRB05KT 10SM CLR 28/11 A3013 RMK A01,2024-08-03T17:10:00Z,28,11,10+,30.13
CYRA,64.115,-117.313,320,2,2.30156,CYRA 031710Z 32002KT 15SM OVC022 17/12 A3008 RMK SC8 WIND EST SLP194 DENSITY ALT 1000FT,2024-08-03T17:10:00Z,17,12,15,30.08
CYGL,53.625,-77.7,250,15,17.261699999999998,CYGL 031710Z 25015G21KT 15SM -DZ SCT008 BKN016 14/10 A2961 RMK SF3SC4 SLP036 DENSITY ALT 1000FT,2024-08-03T17:10:00Z,14,10,15,29.61
PHNL,21.3151,-157.924,0,0,0.0,PHNL 031709Z 00000KT 10SM SCT027 BKN035 BKN043 24/22 A3008 RMK AO2 T02390222 $,2024-08-03T17:09:00Z,23.9,22.2,10+,30.08
PANN,64.547,-149.087,80,3,3.4523399999999995,PANN 031709Z AUTO 08003KT 8SM -RA FEW004 BKN021 OVC060 10/09 A3023 RMK AO2 P0000 T01000094 TSNO,2024-08-03T17:09:00Z,10,9.4,8,30.23
KORL,28.5465,-81.3354,130,12,13.809359999999998,KORL 031709Z 13012KT 10SM FEW033 31/24 A2999 RMK AO1 LTG DSNT ALQDS T03060244,2024-08-03T17:09:00Z,30.6,24.4,10+,29.99
KMNN,40.6158,-83.0673,360,5,5.7539,KMNN 031709Z AUTO 36005KT 10SM VCTS -RA SCT024 BKN040 BKN050 28/21 A2992 RMK AO2 LTG DSNT NE RAB06 P0000 T02830211,2024-08-03T17:09:00Z,28.3,21.1,10+,29.92
KHTS,38.3653,-82.5548,280,6,6.904679999999999,KHTS 031709Z 28006KT 10SM SCT031 28/18 A2993 RMK AO2 T02780183,2024-08-03T17:09:00Z,27.8,18.3,10+,29.93
KDAW,43.2794,-70.9243,VRB,4,4.60312,KDAW 031709Z AUTO VRB04KT 10SM FEW011 BKN060 OVC080 28/23 RMK AO2 T02830228,2024-08-03T17:09:00Z,28.3,22.8,10+,
KSHN,47.2384,-123.142,220,10,11.5078,KSHN 031708Z AUTO 22010KT 10SM OVC005 15/13 A3008 RMK AO2 T01500128,2024-08-03T17:08:00Z,15,12.8,10+,30.08
KLOU,38.2302,-85.6629,VRB,3,3.4523399999999995,KLOU 031707Z VRB03KT 10SM FEW026 28/22 A2996 RMK AO2 T02780222,2024-08-03T17:07:00Z,27.8,22.2,10+,29.96
KCQX,41.6878,-69.9932,220,10,11.5078,KCQX 031707Z AUTO 22010G21KT 10SM SCT004 28/24 A2982 RMK AO2 T02830244,2024-08-03T17:07:00Z,28.3,24.4,10+,29.82
ETIC,49.696,11.941,300,3,3.4523399999999995,ETIC 031707Z AUTO 30003KT 9999 FEW041 SCT100 21/18 A2987 RMK AO2 RAE07 SLP114 $,2024-08-03T17:07:00Z,21,18,6+,29.87
KMPV,44.205,-72.5655,280,4,4.60312,KMPV 031706Z AUTO 28004KT 10SM SCT025 27/21 A2987 RMK AO2 T02720206,2024-08-03T17:06:00Z,27.2,20.6,10+,29.87
PFKW,60.793,-161.44,180,11,12.658579999999999,PFKW 031705Z AUTO 18011KT 10SM SCT021 10/07 A3014 RMK AO2,2024-08-03T17:05:00Z,10,7,10+,30.14
PAFR,61.263,-149.66,30,3,3.4523399999999995,PAFR 031705Z AUTO 03003KT 9SM SCT006 BKN100 OVC150 13/11 A3031 RMK AO2 SLP266 $,2024-08-03T17:05:00Z,13,11,9,30.31
PABI,63.9931,-145.721,70,4,4.60312,PABI 031705Z 07004KT 10SM BKN005 OVC055 09/08 A3029 RMK AO2 T00940083,2024-08-03T17:05:00Z,9.4,8.3,10+,30.29
KVBG,34.733,-120.583,0,0,0.0,KVBG 031705Z AUTO 00000KT 10SM SCT004 16/14 A3000 RMK AO2 SLP162 TSNO $,2024-08-03T17:05:00Z,16,14,10+,30.00
KNJM,34.694,-77.029,210,18,20.714039999999997,KNJM 031705Z AUTO 21018G25KT 6SM HZ FEW016 31/26 A3003 RMK AO2 TSE1659 T03060261,2024-08-03T17:05:00Z,30.6,26.1,6,30.03
KAFN,42.8067,-72.0013,260,4,4.60312,KAFN 031705Z AUTO 26004KT 4SM UP FEW005 BKN035 OVC047 A2986 RMK AO2 RAE04UPB04 PNO $,2024-08-03T17:05:00Z,,,4,29.86
KAFJ,40.1362,-80.2851,250,11,12.658579999999999,KAFJ 031705Z AUTO 25011KT 10SM SCT017 SCT024 26/21 A2992 RMK AO2 LTG DSNT N AND NE,2024-08-03T17:05:00Z,26,21,10+,29.92
CYAH,53.757,-73.676,260,10,11.5078,CYAH 031705Z AUTO 26010G15KT 9SM FEW024 16/14 A2955 RMK LTNG DIST SE S SLP016 DENSITY ALT 1800FT,2024-08-03T17:05:00Z,16,14,9,29.55
KMCF,27.8598,-82.5133,150,20,23.0156,KMCF 031704Z AUTO 15020G25KT 10SM -RA FEW030 SCT036 BKN046 BKN200 28/23 A2997 RMK AO2 LTG DSNT S RAB04 SLP151 FZRANO $,2024-08-03T17:04:00Z,28,23,10+,29.97
KJHW,42.1534,-79.2542,360,6,6.904679999999999,KJHW 031704Z AUTO 36006KT 10SM BKN012 23/21 A2994 RMK AO2,2024-08-03T17:04:00Z,23,21,10+,29.94
KGVQ,43.0298,-78.1665,,,,KGVQ 031704Z AUTO 10SM -RA SCT026 BKN035 OVC049 23/21 A2989 RMK AO2 LTG DSNT SW P0001 $,2024-08-03T17:04:00Z,23,21,10+,29.89
SVVL,9.34,-70.585,,,,SVVL 031703Z AUTO ///01KT NCD ///// Q////,2024-08-03T17:03:00Z,,,,
SVVA,10.154,-67.92,90,3,3.4523399999999995,SVVA 031703Z AUTO 09003KT NCD 31/19 Q1015,2024-08-03T17:03:00Z,31,19,,29.97
SVSR,7.881,-67.443,,,,SVSR 031703Z AUTO NIL,2024-08-03T17:03:00Z,,,,
SVSA,7.841,-72.441,130,7,8.05546,SVSA 031703Z AUTO 13007KT NCD 34/16 Q1012,2024-08-03T17:03:00Z,34,16,,29.88
SVPR,8.288,-62.76,60,8,9.20624,SVPR 031703Z AUTO 06008KT NCD 31/22 Q1015,2024-08-03T17:03:00Z,31,22,,29.97
SVPA,5.622,-67.605,,,,SVPA 031703Z AUTO NIL,2024-08-03T17:03:00Z,,,,
SVMT,9.748,-63.156,70,4,4.60312,SVMT 031703Z AUTO 07004KT NCD 31/32 Q1013,2024-08-03T17:03:00Z,31,32,,29.91
SVMI,10.603,-66.991,280,8,9.20624,SVMI 031703Z AUTO 28008KT NCD 31/21 Q1014,2024-08-03T17:03:00Z,31,21,,29.94
SVMG,10.913,-63.968,100,16,18.41248,SVMG 031703Z AUTO 10016KT NCD 32/25 Q1013,2024-08-03T17:03:00Z,32,25,,29.91
SVMC,10.558,-71.728,110,3,3.4523399999999995,SVMC 031703Z AUTO 11003KT NCD 35/25 Q1011,2024-08-03T17:03:00Z,35,25,,29.85
SVLO,11.805,-66.192,,,,SVLO 031703Z AUTO NIL,2024-08-03T17:03:00Z,,,,
SVJM,9.909,-67.377,290,6,6.904679999999999,SVJM 031703Z AUTO 29006KT NCD 29/22 Q1015,2024-08-03T17:03:00Z,29,22,,29.97
SVGU,9.027,-69.755,,,,SVGU 031703Z AUTO ///01KT NCD ///// Q1015,2024-08-03T17:03:00Z,,,,29.97
SVGD,7.212,-70.755,310,4,4.60312,SVGD 031703Z AUTO 31004KT NCD 32/25 Q1015,2024-08-03T17:03:00Z,32,25,,29.97
SVFM,10.487,-66.846,,,,SVFM 031703Z AUTO NIL,2024-08-03T17:03:00Z,,,,
SVCS,10.287,-66.816,,,,SVCS 031703Z AUTO NIL,2024-08-03T17:03:00Z,,,,
SVCB,8.121,-63.533,,,,SVCB 031703Z AUTO NIL,2024-08-03T17:03:00Z,,,,
SVBS,10.25,-67.649,180,5,5.7539,SVBS 031703Z AUTO 18005KT NCD 31/19 Q1017,2024-08-03T17:03:00Z,31,19,,30.03
SVBM,10.043,-69.358,290,12,13.809359999999998,SVBM 031703Z AUTO 29012KT NCD 30/18 Q1016,2024-08-03T17:03:00Z,30,18,,30.00
SVBI,8.62,-70.22,,,,SVBI 031703Z AUTO NIL,2024-08-03T17:03:00Z,,,,
SVBC,10.107,-64.689,320,7,8.05546,SVBC 031703Z AUTO 32007KT NCD 32/26 Q1014,2024-08-03T17:03:00Z,32,26,,29.94
PADL,59.04,-158.507,110,4,4.60312,PADL 031703Z 11004KT 10SM OVC006 10/09 A3025 RMK AO2,2024-08-03T17:03:00Z,10,9,10+,30.25
KVAD,30.979,-83.192,210,3,3.4523399999999995,KVAD 031703Z 21003KT 10SM FEW034 SCT200 33/24 A2997 RMK LTG DSNT N,2024-08-03T17:03:00Z,33,24,10+,29.97
KOFP,37.7093,-77.4349,220,11,12.658579999999999,KOFP 031703Z AUTO 22011G19KT 7SM SCT026 BKN031 30/23 A2991 RMK AO2 T03000233,2024-08-03T17:03:00Z,30,23.3,7,29.91
KMQY,36.0029,-86.5144,260,4,4.60312,KMQY 031703Z 26004KT 10SM SCT033 A2999 RMK AO2 $,2024-08-03T17:03:00Z,,,10+,29.99
KIPT,41.243,-76.9217,VRB,3,3.4523399999999995,KIPT 031703Z VRB03KT 10SM SCT015 BKN110 27/23 A2982 RMK AO2 T02670228,2024-08-03T17:03:00Z,26.7,22.8,10+,29.82
EQYS,37.4,14.92,VRB,3,3.4523399999999995,EQYS 031703Z AUTO VRB03G17KT 10SM CLR 35/12 A2972 RMK AO2 TSE02 PRESFR T03500122 $ ,2024-08-03T17:03:00Z,35,12.2,10+,29.72
PAOT,66.886,-162.607,140,18,20.714039999999997,PAOT 031702Z 14018G26KT 10SM BKN012 OVC050 09/09 A2986 RMK AO2 PK WND 14026/1656 T00940089 $,2024-08-03T17:02:00Z,9.4,8.9,10+,29.86
PAKN,58.683,-156.656,0,0,0.0,PAKN 031702Z 00000KT 1/4SM R12/1200V1800FT FG VV002 06/06 A3023 RMK AO2 T00610061 $,2024-08-03T17:02:00Z,6.1,6.1,0.25,30.23
KMPO,41.1368,-75.3771,200,3,3.4523399999999995,KMPO 031702Z AUTO 20003KT 10SM TS FEW028 FEW033 SCT040 26/20 A2992 RMK AO2 TSB1656 T02560200,2024-08-03T17:02:00Z,25.6,20,10+,29.92
KCRE,33.8162,-78.7204,200,9,10.357019999999999,KCRE 031702Z 20009KT 10SM CLR 28/22 A3001 RMK AO1 LTG DSNT N AND NE T02780222,2024-08-03T17:02:00Z,27.8,22.2,10+,30.01
PHTO,19.7191,-155.049,230,5,5.7539,PHTO 031701Z 23005KT 2SM -RA BR BKN016 21/21 A3011 RMK AO2 P0003 T02110206,2024-08-03T17:01:00Z,21.1,20.6,2,30.11
PAFS,63.015,-154.367,0,0,0.0,PAFS 031701Z AUTO 00000KT 10SM -RA OVC095 11/11 A3022 RMK AO2 SLP239 P0000 T01060106 $,2024-08-03T17:01:00Z,10.6,10.6,10+,30.22
ZYTX,41.639,123.485,130,4,4.60312,ZYTX 031700Z 13002MPS CAVOK 27/25 Q1006 NOSIG,2024-08-03T17:00:00Z,27,25,6+,29.70
ZYTL,38.961,121.556,100,6,6.904679999999999,ZYTL 031700Z 10003MPS 6000 FEW011 BKN033 27/26 Q1006 NOSIG,2024-08-03T17:00:00Z,27,26,3.73,29.70
ZYHB,45.628,126.259,130,4,4.60312,ZYHB 031700Z 13002MPS 100V160 CAVOK 23/21 Q1007 NOSIG,2024-08-03T17:00:00Z,23,21,6+,29.73
ZYCC,43.993,125.682,190,6,6.904679999999999,ZYCC 031700Z 19003MPS CAVOK 25/24 Q1008 NOSIG,2024-08-03T17:00:00Z,25,24,6+,29.76
ZWWW,43.907,87.474,140,4,4.60312,ZWWW 031700Z 14002MPS 090V190 CAVOK 30/10 Q1007 NOSIG,2024-08-03T17:00:00Z,30,10,6+,29.73
ZWSH,39.542,76.019,VRB,2,2.30156,ZWSH 031700Z VRB01MPS 8000 BKN040 30/15 Q1009 NOSIG,2024-08-03T17:00:00Z,30,15,4.97,29.79
ZUUU,30.576,103.95,VRB,2,2.30156,ZUUU 031700Z VRB01MPS 9999 -SHRA FEW033TCU SCT033 25/23 Q1007 NOSIG,2024-08-03T17:00:00Z,25,23,6+,29.73
ZUTF,30.304,104.436,340,6,6.904679999999999,ZUTF 031700Z 34003MPS 310V010 9999 FEW040 27/24 Q1006 NOSIG,2024-08-03T17:00:00Z,27,24,6+,29.70
ZUGY,26.538,106.801,180,4,4.60312,ZUGY 031700Z 18002MPS 9999 BKN033 22/20 Q1014 NOSIG,2024-08-03T17:00:00Z,22,20,6+,29.94
ZUCK,29.718,106.639,290,4,4.60312,ZUCK 031700Z 29002MPS 250V330 CAVOK 28/25 Q1006 NOSIG,2024-08-03T17:00:00Z,28,25,6+,29.70
ZSSS,31.209,121.337,150,6,6.904679999999999,ZSSS 031700Z 15003MPS CAVOK 32/25 Q1007 NOSIG,2024-08-03T17:00:00Z,32,25,6+,29.73
ZSQD,36.362,120.087,150,12,13.809359999999998,ZSQD 031700Z 15006MPS CAVOK 29/29 Q1006 NOSIG,2024-08-03T17:00:00Z,29,29,6+,29.70
ZSPD,31.146,121.8,130,8,9.20624,ZSPD 031700Z 13004MPS 100V160 CAVOK 30/26 Q1007 NOSIG,2024-08-03T17:00:00Z,30,26,6+,29.73
ZSOF,31.99,116.965,220,6,6.904679999999999,ZSOF 031700Z 22003MPS CAVOK 32/26 Q1005 NOSIG,2024-08-03T17:00:00Z,32,26,6+,29.68
ZSNJ,31.739,118.863,320,2,2.30156,ZSNJ 031700Z 32001MPS CAVOK 31/31 Q1005 NOSIG,2024-08-03T17:00:00Z,31,31,6+,29.68
ZSNB,29.827,121.462,160,6,6.904679999999999,ZSNB 031700Z 16003MPS CAVOK 31/25 Q1007 NOSIG,2024-08-03T17:00:00Z,31,25,6+,29.73
ZSHC,30.229,120.434,80,4,4.60312,ZSHC 031700Z 08002MPS CAVOK 32/27 Q1006 NOSIG,2024-08-03T17:00:00Z,32,27,6+,29.70
ZSFZ,25.936,119.666,0,0,0.0,ZSFZ 031700Z 00000MPS 7000 NSC 28/27 Q1007 NOSIG,2024-08-03T17:00:00Z,28,27,4.35,29.73
ZSAM,24.546,118.131,20,2,2.30156,ZSAM 031700Z 02001MPS CAVOK 29/28 Q1007 NOSIG,2024-08-03T17:00:00Z,29,28,6+,29.73
ZPPP,25.107,102.934,0,0,0.0,ZPPP 031700Z 00000MPS 9999 -SHRA FEW010 SCT016 17/17 Q1020 NOSIG,2024-08-03T17:00:00Z,17,17,6+,30.12
ZMUB,47.843,106.766,VRB,4,4.60312,ZMUB 031700Z VRB02MPS 9999 FEW033 10/08 Q1009 NOSIG RMK QFE650.4 91 NT,2024-08-03T17:00:00Z,10,8,6+,29.79
ZLXY,34.449,108.752,50,6,6.904679999999999,ZLXY 031700Z 05003MPS CAVOK 26/24 Q1006 NOSIG,2024-08-03T17:00:00Z,26,24,6+,29.70
ZLLL,36.513,103.623,310,2,2.30156,ZLLL 031700Z 31001MPS CAVOK 15/13 Q1018 NOSIG,2024-08-03T17:00:00Z,15,13,6+,30.06
ZJSY,18.303,109.412,360,4,4.60312,ZJSY 031700Z 36002MPS CAVOK 28/26 Q1009 NOSIG,2024-08-03T17:00:00Z,28,26,6+,29.79
ZJHK,19.934,110.445,230,2,2.30156,ZJHK 031700Z 23001MPS CAVOK 27/26 Q1009 NOSIG,2024-08-03T17:00:00Z,27,26,6+,29.79
ZHHH,30.783,114.205,230,2,2.30156,ZHHH 031700Z 23001MPS CAVOK 30/25 Q1005 NOSIG,2024-08-03T17:00:00Z,30,25,6+,29.68
ZHCC,34.52,113.834,190,4,4.60312,ZHCC 031700Z 19002MPS 160V230 CAVOK 31/27 Q1004 NOSIG,2024-08-03T17:00:00Z,31,27,6+,29.65
ZGSZ,22.639,113.803,180,10,11.5078,ZGSZ 031700Z 18005MPS 9999 FEW020 30/27 Q1009 NOSIG,2024-08-03T17:00:00Z,30,27,6+,29.79
ZGOW,23.55,116.505,VRB,2,2.30156,ZGOW 031700Z VRB01MPS CAVOK 29/28 Q1008 NOSIG,2024-08-03T17:00:00Z,29,28,6+,29.76
ZGNN,22.609,108.173,VRB,2,2.30156,ZGNN 031700Z VRB01MPS CAVOK 27/26 Q1009 NOSIG,2024-08-03T17:00:00Z,27,26,6+,29.79
ZGKL,25.22,110.04,190,2,2.30156,ZGKL 031700Z 19001MPS 9999 SCT046 26/26 Q1009 NOSIG,2024-08-03T17:00:00Z,26,26,6+,29.79
ZGHA,28.18,113.219,180,4,4.60312,ZGHA 031700Z 18002MPS 140V240 CAVOK 29/24 Q1007 NOSIG,2024-08-03T17:00:00Z,29,24,6+,29.73
ZGGG,23.392,113.307,VRB,2,2.30156,ZGGG 031700Z VRB01MPS CAVOK 30/27 Q1009 NOSIG,2024-08-03T17:00:00Z,30,27,6+,29.79
ZBYN,37.747,112.628,VRB,2,2.30156,ZBYN 031700Z VRB01MPS CAVOK 24/20 Q1008 NOSIG,2024-08-03T17:00:00Z,24,20,6+,29.76
ZBTJ,39.124,117.346,170,4,4.60312,ZBTJ 031700Z 17002MPS 6000 TS FEW033CB BKN040 29/28 Q1002 BECMG TL1830 TSRA,2024-08-03T17:00:00Z,29,28,3.73,29.59
ZBSJ,38.281,114.697,340,4,4.60312,ZBSJ 031700Z 34002MPS 8000 -SHRA FEW026 BKN040 26/26 Q1003 NOSIG,2024-08-03T17:00:00Z,26,26,4.97,29.62
ZBHH,40.854,111.827,120,4,4.60312,ZBHH 031700Z 12002MPS 8000 FEW040 19/18 Q1010 NOSIG,2024-08-03T17:00:00Z,19,18,4.97,29.82
ZBAD,39.501,116.412,330,4,4.60312,ZBAD 031700Z 33002MPS 280V350 7000 FEW003 27/27 Q1003 RETS NOSIG,2024-08-03T17:00:00Z,27,27,4.35,29.62
ZBAA,40.082,116.603,130,4,4.60312,ZBAA 031700Z 13002MPS 090V170 7000 -SHRA FEW018 27/26 Q1003 NOSIG,2024-08-03T17:00:00Z,27,26,4.35,29.62
YWLM,-32.794,151.836,350,2,2.30156,YWLM 031700Z AUTO 35002KT 9999 // NCD 05/04 Q1027 RF00.0/000.0,2024-08-03T17:00:00Z,5,4,6+,30.32
YSTW,-31.084,150.847,150,4,4.60312,YSTW 031700Z AUTO 15004KT 9999 // NCD 02/01 Q1026 RF00.0/000.0,2024-08-03T17:00:00Z,2,1,6+,30.30
YSSY,-33.946,151.173,320,5,5.7539,YSSY 031700Z AUTO 32005KT 9999 // NCD 08/06 Q1027 RF00.0/000.0,2024-08-03T17:00:00Z,8,6,6+,30.32
YSNF,-29.039,167.941,230,10,11.5078,YSNF 031700Z AUTO 23010KT 9999 // SCT022 SCT027 BKN031 15/12 Q1015,2024-08-03T17:00:00Z,15,12,6+,29.97
YSDU,-32.221,148.575,120,3,3.4523399999999995,YSDU 031700Z AUTO 12003KT 9999 // NCD 03/02 Q1027 RF00.0/000.0,2024-08-03T17:00:00Z,3,2,6+,30.32
YSCB,-35.309,149.2,360,4,4.60312,YSCB 031700Z AUTO 36004KT 9999 // FEW105 M01/M01 Q1027 RF00.0/000.0,2024-08-03T17:00:00Z,-1,-1,6+,30.32
YPWR,-31.156,136.805,100,6,6.904679999999999,YPWR 031700Z AUTO 10006KT 9999 // FEW059 BKN073 OVC091 13/06 Q1025,2024-08-03T17:00:00Z,13,6,6+,30.27
YPTN,-14.523,132.383,70,6,6.904679999999999,YPTN 031700Z AUTO 07006KT 9999 // OVC080 22/14 Q1015 RF00.0/000.0,2024-08-03T17:00:00Z,22,14,6+,29.97
YPPH,-31.927,115.976,340,4,4.60312,YPPH 031700Z 34004KT CAVOK 06/04 Q1025,2024-08-03T17:00:00Z,6,4,6+,30.27
YPPD,-20.372,118.632,160,6,6.904679999999999,YPPD 031700Z AUTO 16006KT 9999 // ////// 18/16 Q1018 RF00.0/000.0,2024-08-03T17:00:00Z,18,16,6+,30.06
YPLM,-22.241,114.097,210,9,10.357019999999999,YPLM 031700Z AUTO 21009KT 9999 // NCD 15/09 Q1019 RF00.0/000.0,2024-08-03T17:00:00Z,15,9,6+,30.09
YPKU,-15.781,128.71,70,3,3.4523399999999995,YPKU 031700Z AUTO 07003KT 9999 // NCD 17/15 Q1015 RF00.0/000.0,2024-08-03T17:00:00Z,17,15,6+,29.97
YPKG,-30.785,121.453,120,3,3.4523399999999995,YPKG 031700Z AUTO 12003KT 9999 // NCD 05/M01 Q1024 RF00.0/000.0,2024-08-03T17:00:00Z,5,-1,6+,30.24
YPJT,-32.101,115.879,100,3,3.4523399999999995,YPJT 031700Z AUTO 10003KT 9999 // NCD 07/04 Q1025 RF00.0/000.0,2024-08-03T17:00:00Z,7,4,6+,30.27
YPGV,-12.274,136.82,90,7,8.05546,YPGV 031700Z AUTO 09007KT 9999 // NCD 22/20 Q1014 RF00.0/000.0,2024-08-03T17:00:00Z,22,20,6+,29.94
YPEA,-31.667,116.019,0,0,0.0,YPEA 031700Z AUTO 00000KT 9999 // NCD 06/04 Q1025 RF00.0/000.0,2024-08-03T17:00:00Z,6,4,6+,30.27
YPDN,-12.424,130.893,180,6,6.904679999999999,YPDN 031700Z AUTO 18006KT 9999 // NCD 23/20 Q1015 RF00.0/000.0,2024-08-03T17:00:00Z,23,20,6+,29.97
YPCC,-12.189,96.834,100,8,9.20624,YPCC 031700Z AUTO 10008KT 9999 // NCD 26/21 Q1015 RF00.0/000.0,2024-08-03T17:00:00Z,26,21,6+,29.97
YPAD,-34.952,138.52,120,5,5.7539,YPAD 031700Z 12005KT CAVOK 10/03 Q1027,2024-08-03T17:00:00Z,10,3,6+,30.32
YMML,-37.666,144.832,360,10,11.5078,YMML 031700Z 36010KT CAVOK 04/03 Q1028,2024-08-03T17:00:00Z,4,3,6+,30.35
YMLT,-41.544,147.213,340,9,10.357019999999999,YMLT 031700Z AUTO 34009KT 9999 // OVC043 06/06 Q1023 RF00.0/000.0,2024-08-03T17:00:00Z,6,6,6+,30.21
YMHB,-42.834,147.503,350,8,9.20624,YMHB 031700Z AUTO 35008KT 9999 // BKN054 09/02 Q1019 RF00.0/000.0,2024-08-03T17:00:00Z,9,2,6+,30.09
YMAV,-38.029,144.478,0,0,0.0,YMAV 031700Z AUTO 00000KT 9999 // NCD 00/M01 Q1028 RF00.0/000.0,2024-08-03T17:00:00Z,0,-1,6+,30.35
YLHI,-31.538,159.077,130,7,8.05546,YLHI 031700Z AUTO 13007KT 110V200 9999 // FEW030 BKN059 BKN067 15/11 Q1024,2024-08-03T17:00:00Z,15,11,6+,30.24
YHID,-10.584,142.29,130,14,16.11092,YHID 031700Z AUTO 13014KT 9999 // FEW028 SCT043 24/19 Q1014,2024-08-03T17:00:00Z,24,19,6+,29.94
YGLA,-23.87,151.221,210,5,5.7539,YGLA 031700Z AUTO 21005KT 9999 // NCD 13/11 Q1025 RF00.0/000.0,2024-08-03T17:00:00Z,13,11,6+,30.27
YGEL,-28.805,114.699,120,8,9.20624,YGEL 031700Z AUTO 12008KT 9999 // NCD 10/06 Q1023 RF00.0/000.0,2024-08-03T17:00:00Z,10,6,6+,30.21
YFRT,-30.848,128.114,110,5,5.7539,YFRT 031700Z AUTO 11005KT 9999 -SHRA OVC018 09/08 Q1024 RF00.0/001.4,2024-08-03T17:00:00Z,9,8,6+,30.24
YCIN,-17.574,123.831,150,7,8.05546,YCIN 031700Z AUTO 15007KT 9999 // NCD 23/18 Q1015 RF00.0/000.0,2024-08-03T17:00:00Z,23,18,6+,29.97
YCFS,-30.317,153.119,240,4,4.60312,YCFS 031700Z AUTO 24004KT 9999 // BKN049 07/06 Q1027 RF00.0/000.0,2024-08-03T17:00:00Z,7,6,6+,30.32
YBWW,-27.558,151.793,190,3,3.4523399999999995,YBWW 031700Z AUTO 19003KT 9999 // NCD 10/07 Q1025 RF00.0/000.0,2024-08-03T17:00:00Z,10,7,6+,30.27
YBTL,-19.248,146.766,200,5,5.7539,YBTL 031700Z AUTO 20005KT 9999 // OVC047 17/12 Q1021 RF00.0/000.0,2024-08-03T17:00:00Z,17,12,6+,30.15
YBSU,-26.603,153.091,200,8,9.20624,YBSU 031700Z AUTO 20008KT 9999 // NCD 13/10 Q1025 RF00.0/000.0,2024-08-03T17:00:00Z,13,10,6+,30.27
YBRM,-17.948,122.235,230,8,9.20624,YBRM 031700Z AUTO 23008KT 9999 // SCT096 OVC110 24/21 Q1015,2024-08-03T17:00:00Z,24,21,6+,29.97
YBRK,-23.375,150.477,130,6,6.904679999999999,YBRK 031700Z AUTO 13006KT 9999 // NCD 14/12 Q1024 RF00.0/000.0,2024-08-03T17:00:00Z,14,12,6+,30.24
YBMA,-20.678,139.488,0,0,0.0,YBMA 031700Z AUTO 00000KT 9999 // NCD 07/02 Q1019 RF00.0/000.0,2024-08-03T17:00:00Z,7,2,6+,30.09
YBLN,-33.688,115.402,80,5,5.7539,YBLN 031700Z AUTO 08005KT 9999 // NCD 06/06 Q1024 RF00.0/000.0,2024-08-03T17:00:00Z,6,6,6+,30.24
YBHM,-20.357,148.949,120,20,23.0156,YBHM 031700Z AUTO 12020KT 9999 // SCT022 20/16 Q1021 RF00.0/000.0,2024-08-03T17:00:00Z,20,16,6+,30.15
YBCS,-16.874,145.745,,,,YBCS 031700Z AUTO /////KT 9999 // SCT035 BKN058 BKN066 20/15 Q1019,2024-08-03T17:00:00Z,20,15,6+,30.09
YBCG,-28.168,153.505,0,0,0.0,YBCG 031700Z AUTO 00000KT 9999 // NCD 10/09 Q1026 RF00.0/000.0,2024-08-03T17:00:00Z,10,9,6+,30.30
YBBN,-27.391,153.13,190,5,5.7539,YBBN 031700Z 19005KT CAVOK 12/10 Q1026,2024-08-03T17:00:00Z,12,10,6+,30.30
YBAS,-23.795,133.889,140,8,9.20624,YBAS 031700Z AUTO 14008KT 9999 // BKN094 15/M02 Q1020 RF00.0/000.0,2024-08-03T17:00:00Z,15,-2,6+,30.12
WSSL,1.417,103.866,130,5,5.7539,WSSL 031700Z 13005KT 100V160 9999 FEW016 FEW018TCU BKN300 29/25 Q1012,2024-08-03T17:00:00Z,29,25,6+,29.88
WSAP,1.36,103.909,100,4,4.60312,WSAP 031700Z 10004KT 9999 FEW016 BKN300 28/25 Q1013,2024-08-03T17:00:00Z,28,25,6+,29.91
WMSA,3.13,101.552,320,4,4.60312,WMSA 031700Z 32004KT 8000 FEW010 FEW017CB 26/24 Q1012,2024-08-03T17:00:00Z,26,24,4.97,29.88
WMKP,5.297,100.277,80,4,4.60312,WMKP 031700Z 08004KT 020V110 7000 FEW025 27/23 Q1011 NOSIG,2024-08-03T17:00:00Z,27,23,4.35,29.85
WMKN,5.383,103.103,210,4,4.60312,WMKN 031700Z 21004KT 160V250 9999 FEW022 26/25 Q1012,2024-08-03T17:00:00Z,26,25,6+,29.88
WMKM,2.263,102.252,VRB,2,2.30156,WMKM 031700Z VRB02KT 9999 FEW010 FEW017CB 26/24 Q1013,2024-08-03T17:00:00Z,26,24,6+,29.91
WMKL,6.33,99.729,VRB,3,3.4523399999999995,WMKL 031700Z VRB03KT 8000 -RA FEW010 FEW017CB SCT025 26/25 Q1012,2024-08-03T17:00:00Z,26,25,4.97,29.88
WMKK,2.747,101.714,0,0,0.0,WMKK 031700Z 00000KT 9999 FEW017CB 27/25 Q1012 NOSIG,2024-08-03T17:00:00Z,27,25,6+,29.88
WMKJ,1.641,103.67,0,0,0.0,WMKJ 031700Z 00000KT 8000 FEW008 24/24 Q1012,2024-08-03T17:00:00Z,24,24,4.97,29.88
WMKI,4.568,101.092,50,3,3.4523399999999995,WMKI 031700Z 05003KT 020V090 7000 -RA FEW003 SCT024 24/23 Q1012 RERA,2024-08-03T17:00:00Z,24,23,4.35,29.88
WMKE,4.537,103.427,0,0,0.0,WMKE 031700Z AUTO 00000KT //// // ////// 25/24 Q1012,2024-08-03T17:00:00Z,25,24,,29.88
WMKD,3.775,103.209,0,0,0.0,WMKD 031700Z 00000KT 9999 FEW025 24/23 Q1013 NOSIG,2024-08-03T17:00:00Z,24,23,6+,29.91
WMKC,6.167,102.293,210,4,4.60312,WMKC 031700Z 21004KT 160V250 9999 FEW020 26/23 Q1012,2024-08-03T17:00:00Z,26,23,6+,29.88
WMKB,5.466,100.391,VRB,3,3.4523399999999995,WMKB 031700Z VRB03KT 7000 FEW024 25/22 Q1011 NOSIG,2024-08-03T17:00:00Z,25,22,4.35,29.85
WMKA,6.19,100.398,VRB,3,3.4523399999999995,WMKA 031700Z VRB03KT 8000 FEW010 25/24 Q1012,2024-08-03T17:00:00Z,25,24,4.97,29.88
WMBA,4.221,100.701,50,4,4.60312,WMBA 031700Z 05004KT 320V130 8000 FEW030 24/23 Q1011,2024-08-03T17:00:00Z,24,23,4.97,29.85
WMAU,2.387,103.876,230,5,5.7539,WMAU 031700Z 23005KT 9000 FEW003 24/23 Q1012,2024-08-03T17:00:00Z,24,23,5.59,29.88
WILL,-5.242,105.179,220,2,2.30156,WILL 031700Z 22002KT 2000 BR BKN016 25/25 Q1013 NOSIG,2024-08-03T17:00:00Z,25,25,1.24,29.91
WIHH,-6.267,106.891,0,0,0.0,WIHH 031700Z 00000KT 4000 HZ FEW020 26/24 Q1013 NOSIG METAR ,2024-08-03T17:00:00Z,26,24,2.49,29.91
WIBB,0.461,101.445,190,10,11.5078,WIBB 031700Z 19010KT 5000 -TSRA SCT013 FEW015CB 25/23 Q1011 NOSIG,2024-08-03T17:00:00Z,25,23,3.11,29.85
WBSB,4.944,114.928,0,0,0.0,WBSB 031700Z 00000KT 9999 FEW004 BKN140 27/25 Q1012 NOSIG,2024-08-03T17:00:00Z,27,25,6+,29.88
WBKW,4.316,118.119,0,0,0.0,WBKW 031700Z 00000KT 9999 FEW016 24/23 Q1011,2024-08-03T17:00:00Z,24,23,6+,29.85
WBKT,6.922,116.837,VRB,2,2.30156,WBKT 031700Z AUTO VRB02KT //// // ////// 25/24 Q1011,2024-08-03T17:00:00Z,25,24,,29.85
WBKS,5.901,118.059,VRB,3,3.4523399999999995,WBKS 031700Z VRB03KT 9999 FEW016 26/25 Q1011,2024-08-03T17:00:00Z,26,25,6+,29.85
WBKL,5.301,115.25,0,0,0.0,WBKL 031700Z 00000KT 9999 FEW040 26/25 Q1011,2024-08-03T17:00:00Z,26,25,6+,29.85
WBKK,5.937,116.051,120,4,4.60312,WBKK 031700Z 12004KT 9999 FEW014 26/23 Q1011 NOSIG,2024-08-03T17:00:00Z,26,23,6+,29.85
WBGY,1.222,111.466,0,0,0.0,WBGY 031700Z AUTO 00000KT //// // ////// 25/24 Q1012,2024-08-03T17:00:00Z,25,24,,29.88
WBGS,2.264,111.983,0,0,0.0,WBGS 031700Z 00000KT 9999 SCT018 25/23 Q1011,2024-08-03T17:00:00Z,25,23,6+,29.85
WBGR,4.322,113.987,0,0,0.0,WBGR 031700Z 00000KT 9999 FEW016 27/24 Q1011,2024-08-03T17:00:00Z,27,24,6+,29.85
WBGG,1.484,110.34,0,0,0.0,WBGG 031700Z 00000KT 9999 FEW020 26/25 Q1012 NOSIG,2024-08-03T17:00:00Z,26,25,6+,29.88
WBGB,3.12,113.025,0,0,0.0,WBGB 031700Z 00000KT 9999 FEW016 25/24 Q1011,2024-08-03T17:00:00Z,25,24,6+,29.85
WAPP,-3.71,128.089,190,5,5.7539,WAPP 031700Z 19005KT 9000 -RA SCT016 26/24 Q1012 NOSIG,2024-08-03T17:00:00Z,26,24,5.59,29.88
WAOO,-3.44,114.759,150,3,3.4523399999999995,WAOO 031700Z AUTO 15003KT 9999 NCD 25/25 Q1011,2024-08-03T17:00:00Z,25,25,6+,29.85
WAHS,-6.973,110.375,130,3,3.4523399999999995,WAHS 031700Z AUTO 13003KT 090V190 7000 NCD 27/23 Q1013,2024-08-03T17:00:00Z,27,23,4.35,29.91
WADD,-8.748,115.167,100,4,4.60312,WADD 031700Z 10004KT 9999 FEW017 26/25 Q1014 NOSIG,2024-08-03T17:00:00Z,26,25,6+,29.94
WABB,-1.19,136.108,40,5,5.7539,WABB 031700Z 04005KT 230V040 9999 SCT015 27/26 Q1010 NOSIG,2024-08-03T17:00:00Z,27,26,6+,29.82
VYYY,16.906,96.137,230,4,4.60312,VYYY 031700Z 23004KT 4000 TSRA BKN014 FEW016CB OVC090 26/26 Q1010,2024-08-03T17:00:00Z,26,26,2.49,29.82
VVVD,21.118,107.414,VRB,1,1.15078,VVVD 031700Z AUTO VRB01KT 9999 NCD 27/26 Q1008 NOSIG,2024-08-03T17:00:00Z,27,26,6+,29.76
VVTS,10.817,106.667,230,4,4.60312,VVTS 031700Z 23004KT 180V250 9999 FEW027 27/25 Q1010 NOSIG,2024-08-03T17:00:00Z,27,25,6+,29.82
VVPQ,10.169,103.995,VRB,3,3.4523399999999995,VVPQ 031700Z VRB03KT 9000 SCT015 FEW017CB 28/26 Q1011 NOSIG,2024-08-03T17:00:00Z,28,26,5.59,29.85
VVPB,16.399,107.699,220,3,3.4523399999999995,VVPB 031700Z 22003KT 180V240 9999 FEW015 SCT060 26/23 Q1009 NOSIG,2024-08-03T17:00:00Z,26,23,6+,29.79
VVNB,21.218,105.805,90,5,5.7539,VVNB 031700Z 09005KT 9999 FEW039 BKN083 28/26 Q1007 NOSIG,2024-08-03T17:00:00Z,28,26,6+,29.73
VVDN,16.044,108.199,210,3,3.4523399999999995,VVDN 031700Z 21003KT 180V260 9999 FEW017 26/23 Q1009 NOSIG,2024-08-03T17:00:00Z,26,23,6+,29.79
VVCR,11.998,109.219,270,2,2.30156,VVCR 031700Z 27002KT 9999 FEW017 29/22 Q1010 NOSIG,2024-08-03T17:00:00Z,29,22,6+,29.82
VVCI,20.823,106.727,140,5,5.7539,VVCI 031700Z 14005KT 9999 BKN020 29/26 Q1007 NOSIG,2024-08-03T17:00:00Z,29,26,6+,29.73
VTUU,15.251,104.87,VRB,2,2.30156,VTUU 031700Z VRB02KT CAVOK 25/25 Q1011 NOSIG,2024-08-03T17:00:00Z,25,25,6+,29.85
VTUK,16.462,102.786,160,4,4.60312,VTUK 031700Z 16004KT 9000 -RA SCT045 BKN100 24/24 Q1011 RETSRA NOSIG,2024-08-03T17:00:00Z,24,24,5.59,29.85
VTSS,6.933,100.393,VRB,2,2.30156,VTSS 031700Z VRB02KT 9999 FEW020 SCT100 25/23 Q1012 NOSIG,2024-08-03T17:00:00Z,25,23,6+,29.88
VTSP,8.105,98.308,300,5,5.7539,VTSP 031700Z 30005KT 270V330 9999 FEW020 28/25 Q1012 NOSIG,2024-08-03T17:00:00Z,28,25,6+,29.88
VTSG,8.099,98.986,110,3,3.4523399999999995,VTSG 031700Z 11003KT 080V140 9999 FEW020 BKN100 25/25 Q1013 NOSIG,2024-08-03T17:00:00Z,25,25,6+,29.91
VTCT,19.961,99.881,190,4,4.60312,VTCT 031700Z 19004KT 9999 FEW025 26/25 Q1010 NOSIG,2024-08-03T17:00:00Z,26,25,6+,29.82
VTCC,18.771,98.963,190,3,3.4523399999999995,VTCC 031700Z 19003KT 9999 SCT035 24/23 Q1011 NOSIG,2024-08-03T17:00:00Z,24,23,6+,29.85
VTBU,12.68,101.001,320,10,11.5078,VTBU 031700Z 32010KT 3000 SHRA FEW018CB SCT035 BKN100 24/23 Q1012 TEMPO TL1800 5000 SHRA,2024-08-03T17:00:00Z,24,23,1.86,29.88
VTBS,13.686,100.767,VRB,2,2.30156,VTBS 031700Z VRB02KT 9000 -RA FEW020CB BKN100 25/23 Q1012 RETS NOSIG,2024-08-03T17:00:00Z,25,23,5.59,29.88
VTBD,13.913,100.607,150,2,2.30156,VTBD 031700Z 15002KT 9999 -RA FEW020 SCT035 25/24 Q1012 NOSIG,2024-08-03T17:00:00Z,25,24,6+,29.88
VRMM,4.192,73.529,350,4,4.60312,VRMM 031700Z 35004KT 9999 FEW018 BKN270 28/26 Q1013 NOSIG,2024-08-03T17:00:00Z,28,26,6+,29.91
VRMH,6.744,73.171,300,8,9.20624,VRMH 031700Z 30008KT 9999 FEW018TCU BKN260 29/26 Q1012,2024-08-03T17:00:00Z,29,26,6+,29.88
VRMG,-0.693,73.156,140,7,8.05546,VRMG 031700Z 14007KT 9999 FEW018TCU BKN260 28/26 Q1012 NOSIG,2024-08-03T17:00:00Z,28,26,6+,29.88
VOVZ,17.722,83.228,240,7,8.05546,VOVZ 031700Z 24007KT 4500 BR SCT016 BKN090 29/28 Q1007 TEMPO DZ,2024-08-03T17:00:00Z,29,28,2.8,29.73
VOTV,8.484,76.919,330,6,6.904679999999999,VOTV 031700Z 33006KT 4000 BR SCT015 27/23 Q1012 BECMG 3000 BR,2024-08-03T17:00:00Z,27,23,2.49,29.88
VOTR,10.765,78.71,210,6,6.904679999999999,VOTR 031700Z 21006KT 5000 HZ FEW016 SCT100 29/24 Q1010 NOSIG,2024-08-03T17:00:00Z,29,24,3.11,29.82
VORY,17.11,81.818,0,0,0.0,VORY 031700Z 00000KT 6000 SCT012 BKN090 25/24 Q1007 NOSIG,2024-08-03T17:00:00Z,25,24,3.73,29.73
VOPB,11.641,92.73,VRB,2,2.30156,VOPB 031700Z VRB02KT 5000 BR FEW012 OVC080 26/25 Q1010 NOSIG,2024-08-03T17:00:00Z,26,25,3.11,29.82
VOMM,12.994,80.18,300,10,11.5078,VOMM 031700Z 30010KT 1000 R25/1200 R07/1200 +TSRA SCT016 FEW025CB OVC080 25/23 Q1010 TEMPO 0800 +TSRA,2024-08-03T17:00:00Z,25,23,0.62,29.82
VOKN,11.917,75.547,VRB,1,1.15078,VOKN 031700Z VRB01KT 3000 -RA FEW002 SCT012 FEW025CB OVC080 24/23 Q1012 NOSIG,2024-08-03T17:00:00Z,24,23,1.86,29.88
VOGO,15.378,73.828,250,5,5.7539,VOGO 031700Z 25005KT 6000 FEW010 SCT020 OVC070 27/26 Q1010 NOSIG,2024-08-03T17:00:00Z,27,26,3.73,29.82
VOCI,10.152,76.402,280,2,2.30156,VOCI 031700Z 28002KT 4000 BR FEW008 SCT012 BKN080 25/23 Q1012 NOSIG,2024-08-03T17:00:00Z,25,23,2.49,29.88
VOBL,13.205,77.704,270,5,5.7539,VOBL 031700Z 27005KT 6000 SCT008 SCT012 BKN080 22/21 Q1016 NOSIG,2024-08-03T17:00:00Z,22,21,3.73,30.00
VOBG,12.949,77.663,240,7,8.05546,VOBG 031700Z 24007KT 6000 FEW010 SCT012 BKN080 24/22 Q1016 NOSIG,2024-08-03T17:00:00Z,24,22,3.73,30.00
VMMC,22.141,113.596,210,10,11.5078,VMMC 031700Z 21010KT 9999 FEW020 29/27 Q1009 NOSIG,2024-08-03T17:00:00Z,29,27,6+,29.79
VGHS,23.846,90.4,140,5,5.7539,VGHS 031700Z 14005KT 4000 HZ BKN012 BKN100 27/26 Q1007 NOSIG,2024-08-03T17:00:00Z,27,26,2.49,29.73
VGEG,22.249,91.814,160,4,4.60312,VGEG 031700Z 16004KT 6000 SCT016 FEW028CB BKN100 28/27 Q1007 NOSIG,2024-08-03T17:00:00Z,28,27,3.73,29.73
VERP,21.182,81.738,170,11,12.658579999999999,VERP 031700Z 17011KT 2500 BR SCT007 BKN018 OVC080 26/24 Q1005 NOSIG,2024-08-03T17:00:00Z,26,24,1.55,29.68
VEGY,24.744,84.951,80,8,9.20624,VEGY 031700Z 08008KT 3500 BR SCT018 BKN100 28/25 Q1002,2024-08-03T17:00:00Z,28,25,2.17,29.59
VEBS,20.244,85.818,200,6,6.904679999999999,VEBS 031700Z 20006KT 4000 HZ SCT018 BKN100 29/27 Q1006 NOSIG,2024-08-03T17:00:00Z,29,27,2.49,29.70
VEBN,25.452,82.859,80,15,17.261699999999998,VEBN 031700Z 08015KT 2000 BR SCT020 BKN100 28/27 Q0998 NOSIG,2024-08-03T17:00:00Z,28,27,1.24,29.47
VDSV,10.582,103.637,50,4,4.60312,VDSV 031700Z 05004KT 9000 SCT015 BKN040 26/24 Q1011,2024-08-03T17:00:00Z,26,24,5.59,29.85
VDSA,13.371,104.225,300,7,8.05546,VDSA 031700Z 30007KT 9000 SCT015 SCT040 27/24 Q1010,2024-08-03T17:00:00Z,27,24,5.59,29.82
VDPP,11.547,104.844,230,6,6.904679999999999,VDPP 031700Z 23006KT 9000 SCT015 BKN040 27/26 Q1009,2024-08-03T17:00:00Z,27,26,5.59,29.79
VANP,21.089,79.055,220,4,4.60312,VANP 031700Z 22004KT 3000 BR FEW010 SCT018 OVC080 26/25 Q1006 NOSIG,2024-08-03T17:00:00Z,26,25,1.86,29.70
VAAU,19.863,75.398,230,3,3.4523399999999995,VAAU 031700Z 23003KT 4000 HZ SCT018 BKN100 24/23 Q1008 NOSIG,2024-08-03T17:00:00Z,24,23,2.49,29.76
VAAH,23.077,72.635,180,5,5.7539,VAAH 031700Z 18005KT 2000 -RA FEW010 SCT018 FEW025TCU OVC070 27/25 Q1002 NOSIG,2024-08-03T17:00:00Z,27,25,1.24,29.59
UWWW,53.509,50.163,270,4,4.60312,UWWW 031700Z 27002MPS 210V360 9999 FEW033 20/13 Q1002 R33/CLRD63 NOSIG RMK QFE741/0988,2024-08-03T17:00:00Z,20,13,6+,29.59
UWUU,54.57,55.87,200,6,6.904679999999999,UWUU 031700Z 20003MPS 150V250 9999 SCT040 16/14 Q1000 R32L/0///60 NOSIG,2024-08-03T17:00:00Z,16,14,6+,29.53
UWSG,51.713,46.171,350,6,6.904679999999999,UWSG 031700Z 35003MPS CAVOK 23/11 Q1005 R26/CLRD70 NOSIG RMK QFE750/1001,2024-08-03T17:00:00Z,23,11,6+,29.68
UWPS,54.116,45.203,240,6,6.904679999999999,UWPS 031700Z 24003MPS CAVOK 19/14 Q1004 R20/190060 NOSIG RMK QFE735,2024-08-03T17:00:00Z,19,14,6+,29.65
UWOR,51.07,58.597,290,6,6.904679999999999,UWOR 031700Z 29003MPS 9999 BKN049CB 17/13 Q1004 R25/CLRD65 NOSIG RMK QFE730/0973,2024-08-03T17:00:00Z,17,13,6+,29.65
UWOO,51.795,55.457,VRB,2,2.30156,UWOO 031700Z VRB01MPS 9000 BKN040CB 18/18 Q1003 R26/290050 NOSIG RMK QFE742/0989,2024-08-03T17:00:00Z,18,18,5.59,29.62
UWLW,54.402,48.8,290,6,6.904679999999999,UWLW 031700Z 29003MPS CAVOK 18/16 Q1002 R20/CLRD60 NOSIG RMK QFE746/0995,2024-08-03T17:00:00Z,18,16,6+,29.59
UWLL,54.274,48.236,270,8,9.20624,UWLL 031700Z 27004MPS 9999 FEW040CB 19/13 Q1002 R20/090065 NOSIG RMK QFE742/0989,2024-08-03T17:00:00Z,19,13,6+,29.59
UWKS,56.09,47.347,300,8,9.20624,UWKS 031700Z 30004MPS 9999 FEW040CB 19/17 Q1002 R24/090060 NOSIG RMK QFE737,2024-08-03T17:00:00Z,19,17,6+,29.59
UWKE,55.566,52.1,240,8,9.20624,UWKE 031700Z 24004MPS 9999 FEW046CB 16/16 Q1000 R21/090070 NOSIG RMK QFE733/0978,2024-08-03T17:00:00Z,16,16,6+,29.53
UWKD,55.61,49.275,260,4,4.60312,UWKD 031700Z 26002MPS CAVOK 17/16 Q1001 R29/2/0060 NOSIG RMK QFE740/0986,2024-08-03T17:00:00Z,17,16,6+,29.56
UUYY,61.647,50.845,330,2,2.30156,UUYY 031700Z 33001MPS 9999 FEW030CB 19/16 Q0997 R36/29//51 TEMPO 6000 -TSRA RMK QFE739/0985,2024-08-03T17:00:00Z,19,16,6+,29.44
UUWW,55.592,37.261,260,6,6.904679999999999,UUWW 031700Z 26003MPS 9999 FEW033 20/14 Q1005 R24/000065 NOSIG,2024-08-03T17:00:00Z,20,14,6+,29.68
UUOO,51.814,39.228,340,4,4.60312,UUOO 031700Z 34002MPS CAVOK 20/11 Q1006 R30/010070 NOSIG RMK QFE741,2024-08-03T17:00:00Z,20,11,6+,29.70
UUOL,52.702,39.534,260,4,4.60312,UUOL 031700Z AUTO 26002MPS 9999 NCD 20/11 Q1006,2024-08-03T17:00:00Z,20,11,6+,29.70
UUOK,51.751,36.297,40,4,4.60312,UUOK 031700Z 04002MPS CAVOK 21/14 Q1006 R30/090060 NOSIG RMK QFE736/0982,2024-08-03T17:00:00Z,21,14,6+,29.70
UUOB,50.644,36.59,40,4,4.60312,UUOB 031700Z 04002MPS CAVOK 24/11 Q1006 R29/010070 NOSIG,2024-08-03T17:00:00Z,24,11,6+,29.70
UUEE,55.973,37.415,280,6,6.904679999999999,UUEE 031700Z 28003G08MPS 9999 FEW040 20/15 Q1005 R24L/CLRD62 R24C/CLRD62 NOSIG,2024-08-03T17:00:00Z,20,15,6+,29.68
UUDL,57.561,40.157,250,2,2.30156,UUDL 031700Z 25001MPS 9999 SCT040CB 18/17 Q1003 R23/290350 NOSIG RMK QFE744,2024-08-03T17:00:00Z,18,17,6+,29.62
UUDD,55.409,37.906,310,6,6.904679999999999,UUDD 031700Z 31003MPS CAVOK 19/15 Q1005 R32L/CLRD60 NOSIG,2024-08-03T17:00:00Z,19,15,6+,29.68
UUBW,55.553,38.15,270,6,6.904679999999999,UUBW 031700Z 27003MPS 9999 FEW033 21/14 Q1005 R30/010060 NOSIG RMK QFE743,2024-08-03T17:00:00Z,21,14,6+,29.68
UUBC,54.552,36.37,260,2,2.30156,UUBC 031700Z 26001MPS CAVOK 18/16 Q1006 R31/CLRD60 NOSIG RMK QFE737/0983,2024-08-03T17:00:00Z,18,16,6+,29.70
UTTT,41.258,69.281,340,12,13.809359999999998,UTTT 031700Z 34012KT CAVOK 31/05 Q1004 R08R/CLRD70 NOSIG,2024-08-03T17:00:00Z,31,5,6+,29.65
UTST,37.287,67.318,220,8,9.20624,UTST 031700Z 22008KT CAVOK 31/07 Q1001 R25/CLRD70 NOSIG,2024-08-03T17:00:00Z,31,7,6+,29.56
UTSS,39.7,66.974,130,8,9.20624,UTSS 031700Z 13008KT 9999 NSC 27/09 Q1006 R09/CLRD70 NOSIG,2024-08-03T17:00:00Z,27,9,6+,29.70
UTSK,38.804,65.773,300,6,6.904679999999999,UTSK 031700Z 30006KT CAVOK 26/13 Q1003 R34/CLRD70,2024-08-03T17:00:00Z,26,13,6+,29.62
UTSB,39.775,64.483,360,8,9.20624,UTSB 031700Z 36008KT CAVOK 27/08 Q1004 R01/CLRD70 NOSIG,2024-08-03T17:00:00Z,27,8,6+,29.65
UTSA,40.116,65.167,360,6,6.904679999999999,UTSA 031700Z 36006KT 9999 NSC 28/02 Q1005 R07/CLRD70 NOSIG,2024-08-03T17:00:00Z,28,2,6+,29.68
UTNU,41.584,60.642,320,2,2.30156,UTNU 031700Z 32002KT CAVOK 27/16 Q1006 R31/CLRD70 NOSIG,2024-08-03T17:00:00Z,27,16,6+,29.70
UTNN,42.488,59.623,290,2,2.30156,UTNN 031700Z 29002KT CAVOK 30/10 Q1006 R33/CLRD60 NOSIG,2024-08-03T17:00:00Z,30,10,6+,29.70
UTFN,40.983,71.573,10,2,2.30156,UTFN 031700Z 01002KT 9000 NSC 30/19 Q1003 R28/CLRD70 NOSIG,2024-08-03T17:00:00Z,30,19,5.59,29.62
UTFF,40.356,71.745,0,0,0.0,UTFF 031700Z 00000KT 9999 NSC 30/09 Q1005 R18/CLRD70,2024-08-03T17:00:00Z,30,9,6+,29.68
UTDT,37.866,68.865,70,2,2.30156,UTDT 031700Z 07001MPS 9999 FEW120 28/15 Q1001 R35/CLRD70 RMK QFE712/0949,2024-08-03T17:00:00Z,28,15,6+,29.56
UTDL,40.215,69.695,240,10,11.5078,UTDL 031700Z 24005MPS 9999 BKN086 28/11 Q1004 R26/CLRD70 NOSIG RMK QFE716/0955,2024-08-03T17:00:00Z,28,11,6+,29.65
UTDK,37.988,69.805,20,10,11.5078,UTDK 031700Z 02005MPS 9999 NSC 31/12 Q1004 R01/09//70 RMK QFE696/0928,2024-08-03T17:00:00Z,31,12,6+,29.65
UTDD,38.543,68.825,40,6,6.904679999999999,UTDD 031700Z 04003MPS 9000 NSC 29/13 Q1005 R09/D NOSIG RMK QFE686/0915,2024-08-03T17:00:00Z,29,13,5.59,29.68
UTAV,39.083,63.613,360,6,6.904679999999999,UTAV 031700Z 36006KT CAVOK 31/05 Q1004 R31/CLRD70 NOSIG,2024-08-03T17:00:00Z,31,5,6+,29.65
UTAT,41.761,59.827,350,6,6.904679999999999,UTAT 031700Z 35006KT CAVOK 31/13 Q1006 R08/CLRD70 NOSIG,2024-08-03T17:00:00Z,31,13,6+,29.70
UTAM,37.619,61.897,30,4,4.60312,UTAM 031700Z 03004KT 6000 NSC 30/14 Q1003 R88/CLRD70 NOSIG,2024-08-03T17:00:00Z,30,14,3.73,29.62
UTAK,40.054,53.007,270,8,9.20624,UTAK 031700Z 27008KT 9999 SCT050CB BKN100 27/16 Q1006 R16R/29//50 NOSIG,2024-08-03T17:00:00Z,27,16,6+,29.70
UTAA,37.975,58.371,120,6,6.904679999999999,UTAA 031700Z 12006KT 9999 FEW100 32/11 Q1003 R88/70D NOSIG,2024-08-03T17:00:00Z,32,11,6+,29.62
USTR,57.19,65.324,200,6,6.904679999999999,USTR 031700Z 20003MPS 9999 FEW///CB 16/15 Q0998 R21/090065 R30/190063 TEMPO 1000 -TSRA BR SCT005 BKN016CB,2024-08-03T17:00:00Z,16,15,6+,29.47
USSS,56.745,60.792,210,4,4.60312,USSS 031700Z 21002MPS 9999 SCT050CB 15/14 Q0998 R26L/220060 NOSIG RMK QFE728/0971,2024-08-03T17:00:00Z,15,14,6+,29.47
USRR,61.342,73.422,VRB,2,2.30156,USRR 031700Z VRB01MPS 9999 FEW040 19/19 Q0999 R25/290055 NOSIG RMK QFE744,2024-08-03T17:00:00Z,19,19,6+,29.50
USPP,57.914,56.021,220,6,6.904679999999999,USPP 031700Z 22003MPS 9999 SCT042 17/14 Q0997 R21/090060 NOSIG RMK QFE737,2024-08-03T17:00:00Z,17,14,6+,29.44
USNN,60.959,76.497,100,4,4.60312,USNN 031700Z 10002MPS 9999 FEW030CB 19/19 Q0999 R03/0///65 NOSIG RMK QFE746,2024-08-03T17:00:00Z,19,19,6+,29.50
USHH,61.029,69.086,0,0,0.0,USHH 031700Z 00000MPS 8000 MIFG NSC 19/18 Q0998 R06/010060 TEMPO 0500 FG VV002,2024-08-03T17:00:00Z,19,18,4.97,29.47
USDA,71.216,72.05,30,16,18.41248,USDA 031700Z AUTO 03008MPS 9999 ///009/// 06/06 Q1014 RMK QFE759/1013,2024-08-03T17:00:00Z,6,6,6+,29.94
USCM,53.393,58.756,0,0,0.0,USCM 031700Z 00000MPS 9999 BKN040CB 15/13 Q1002 R18/090060 TEMPO 1500 TSRA VV002 RMK QFE714,2024-08-03T17:00:00Z,15,13,6+,29.59
USCC,55.306,61.503,230,2,2.30156,USCC 031700Z 23001MPS 9999 FEW040CB 13/13 Q0999 R27/000060 NOSIG RMK QFE730,2024-08-03T17:00:00Z,13,13,6+,29.50
URWW,48.788,44.336,360,6,6.904679999999999,URWW 031700Z 36003MPS CAVOK 24/11 Q1007 R23/010070 NOSIG,2024-08-03T17:00:00Z,24,11,6+,29.73
URWI,46.374,44.331,350,10,11.5078,URWI 031700Z AUTO 35005MPS 9999 // NSC 27/04 Q1006,2024-08-03T17:00:00Z,27,4,6+,29.70
URWA,46.286,47.995,210,10,11.5078,URWA 031700Z 21005MPS CAVOK 27/17 Q1005 R27/010070 NOSIG RMK QFE756/1008,2024-08-03T17:00:00Z,27,17,6+,29.68
URSS,43.438,39.926,290,8,9.20624,URSS 031700Z 29004MPS 9999 NSC 27/19 Q1006 R02/010070 R06/010070 NOSIG RMK R06/30004G09MPS QFE753,2024-08-03T17:00:00Z,27,19,6+,29.70
URRP,47.494,39.925,240,4,4.60312,URRP 031700Z 24002MPS CAVOK 28/08 Q1006 R23/CLRD70 NOSIG RMK QFE747/0996,2024-08-03T17:00:00Z,28,8,6+,29.70
URMT,45.108,42.1,360,2,2.30156,URMT 031700Z 36001MPS CAVOK 27/07 Q1008 R07/010070 NOSIG RMK QFE716,2024-08-03T17:00:00Z,27,7,6+,29.76
URMO,43.204,44.608,VRB,2,2.30156,URMO 031700Z VRB01MPS 9999 BKN/// 23/16 Q1009 R09/010070 NOSIG RMK QFE713/0951,2024-08-03T17:00:00Z,23,16,6+,29.79
URMN,43.514,43.646,210,6,6.904679999999999,URMN 031700Z 21003MPS 9999 NSC 27/14 Q1007 R24/010070 NOSIG RMK QFE719,2024-08-03T17:00:00Z,27,14,6+,29.73
URMM,44.225,43.082,170,4,4.60312,URMM 031700Z 17002MPS 9999 NSC 28/12 Q1007 R11/090070 NOSIG RMK QFE727/0970,2024-08-03T17:00:00Z,28,12,6+,29.73
URML,42.817,47.652,210,6,6.904679999999999,URML 031700Z 21003MPS 9999 NSC 25/21 Q1007 R14/01//70 NOSIG RMK QFE755/1007,2024-08-03T17:00:00Z,25,21,6+,29.73
URMG,43.387,45.702,100,8,9.20624,URMG 031700Z 10004MPS CAVOK 29/16 Q1007 R08/090070 NOSIG RMK QFE740/0987,2024-08-03T17:00:00Z,29,16,6+,29.73
URKK,45.033,39.15,350,6,6.904679999999999,URKK 031700Z 35003MPS 9999 FEW/// 27/17 Q1006 R05R/CLRD70 NOSIG RMK QFE751,2024-08-03T17:00:00Z,27,17,6+,29.70
URKA,44.995,37.341,290,4,4.60312,URKA 031700Z 29002MPS 9999 FEW/// 24/20 Q1006 R21/010070 NOSIG RMK QFE750/1000,2024-08-03T17:00:00Z,24,20,6+,29.70
UOOO,69.308,87.322,20,19,21.864819999999998,UOOO 031700Z 02010MPS CAVOK 16/11 Q1005 R01/CLRD60 NOSIG RMK QFE739/0986,2024-08-03T17:00:00Z,16,11,6+,29.68
UNWW,53.811,86.878,190,10,11.5078,UNWW 031700Z 19005MPS 9999 SCT040CB 22/17 Q1002 R19/09//55 NOSIG RMK QFE724,2024-08-03T17:00:00Z,22,17,6+,29.59
UNTT,56.381,85.207,100,6,6.904679999999999,UNTT 031700Z 10003MPS CAVOK 21/17 Q1001 R21/////// NOSIG RMK QFE735,2024-08-03T17:00:00Z,21,17,6+,29.56
UNOO,54.964,73.32,250,4,4.60312,UNOO 031700Z 25002MPS CAVOK 18/14 Q1002 R25/CLRD60 NOSIG RMK QFE743,2024-08-03T17:00:00Z,18,14,6+,29.59
UNNT,55.013,82.651,VRB,2,2.30156,UNNT 031700Z VRB01MPS 9999 SCT040CB 21/19 Q0998 R16/090070 R25/290255 NOSIG RMK QFE739/0985,2024-08-03T17:00:00Z,21,19,6+,29.47
UNKL,56.173,92.493,0,0,0.0,UNKL 031700Z 00000MPS CAVOK 15/15 Q1004 R29/CLRD65 NOSIG RMK QFE728,2024-08-03T17:00:00Z,15,15,6+,29.65
UNEE,55.27,86.107,60,8,9.20624,UNEE 031700Z 06004MPS CAVOK 22/16 Q1000 R23/////// NOSIG RMK QFE727,2024-08-03T17:00:00Z,22,16,6+,29.53
UNBB,53.362,83.54,240,12,13.809359999999998,UNBB 031700Z 24006MPS 9999 BKN040CB 23/10 Q1001 R24/CLRD66 NOSIG RMK QFE728,2024-08-03T17:00:00Z,23,10,6+,29.56
UNAA,53.74,91.385,270,4,4.60312,UNAA 031700Z 27002MPS CAVOK 18/16 Q1002 R02/CLRD65 NOSIG RMK QFE729,2024-08-03T17:00:00Z,18,16,6+,29.59
UMMS,53.883,28.031,VRB,2,2.30156,UMMS 031700Z VRB01MPS CAVOK 21/12 Q1007 NOSIG,2024-08-03T17:00:00Z,21,12,6+,29.73
UMKK,54.885,20.583,310,8,9.20624,UMKK 031700Z 31004MPS 270V330 9999 FEW040 21/15 Q1009 R24/95D NOSIG RMK QFE756/1008,2024-08-03T17:00:00Z,21,15,6+,29.79
UMIO,54.44,30.297,10,2,2.30156,UMIO 031700Z 01001MPS CAVOK 21/15 Q1006 NOSIG RMK QFE738/0984,2024-08-03T17:00:00Z,21,15,6+,29.70
UMGG,52.525,31.015,100,4,4.60312,UMGG 031700Z 10002MPS 9999 BKN051CB BKN100 19/16 Q1007 NOSIG,2024-08-03T17:00:00Z,19,16,6+,29.73
ULWC,59.281,38.019,0,0,0.0,ULWC 031700Z 00000MPS 9999 SCT020CB 18/17 Q1003 R21/190060 NOSIG RMK QFE742/0989,2024-08-03T17:00:00Z,18,17,6+,29.62
ULPB,61.885,34.155,20,6,6.904679999999999,ULPB 031700Z 02003MPS 9999 BKN019 19/15 Q1006 R01/CLRD60 NOSIG RMK QFE750/1000,2024-08-03T17:00:00Z,19,15,6+,29.70
ULOO,57.79,28.397,230,2,2.30156,ULOO 031700Z 23001MPS 9999 SCT047 18/16 Q1005 R19/290048 NOSIG RMK QFE750,2024-08-03T17:00:00Z,18,16,6+,29.68
ULMM,68.781,32.749,40,8,9.20624,ULMM 031700Z 04004MPS 9999 BKN007 14/11 Q1016 R31/090070 NOSIG RMK OBST OBSC QFE754,2024-08-03T17:00:00Z,14,11,6+,30.00
ULLI,59.798,30.267,30,4,4.60312,ULLI 031700Z 03002MPS 360V110 9999 SCT023CB BKN040 18/15 Q1005 R88/290050 NOSIG,2024-08-03T17:00:00Z,18,15,6+,29.68
ULAA,64.599,40.712,60,6,6.904679999999999,ULAA 031700Z 06003MPS 9999 SCT026 17/16 Q1006 R08/CLRD70 NOSIG RMK QFE753/1004,2024-08-03T17:00:00Z,17,16,6+,29.70
UIUU,51.808,107.443,260,4,4.60312,UIUU 031700Z 26002MPS 9999 NSC 13/12 Q1004 R26/60D NOSIG RMK QFE709/0946,2024-08-03T17:00:00Z,13,12,6+,29.65
UIII,52.273,104.38,90,6,6.904679999999999,UIII 031700Z 09003MPS CAVOK 14/14 Q1004 R12/60D NOSIG RMK QFE711/0948,2024-08-03T17:00:00Z,14,14,6+,29.65
UIBB,56.365,101.716,310,4,4.60312,UIBB 031700Z AUTO 31002MPS 280V340 9999 // NCD 12/11 Q1004 RMK QFE711/0948,2024-08-03T17:00:00Z,12,11,6+,29.65
UIAA,52.026,113.31,40,2,2.30156,UIAA 031700Z 04001MPS 9999 FEW006 OVC015 16/16 Q1002 R29/290258 NOSIG RMK QBB180 MT OBSC QFE693/0924,2024-08-03T17:00:00Z,16,16,6+,29.59
UHWW,43.399,132.146,0,0,0.0,UHWW 031700Z 00000MPS 9999 OVC009 21/21 Q1011 R25L/0///70 NOSIG RMK MT OBSC QFE757,2024-08-03T17:00:00Z,21,21,6+,29.85
UHSS,46.887,142.719,360,16,18.41248,UHSS 031700Z 36008MPS 9999 -SHRA BKN020CB 12/11 Q1009 R01/250255 NOSIG RMK MT OBSC QFE756/1008,2024-08-03T17:00:00Z,12,11,6+,29.79
UHPP,53.175,158.444,10,8,9.20624,UHPP 031700Z 01004MPS CAVOK 13/09 Q1008 R34L/CLRD60 NOSIG RMK QFE752/1003,2024-08-03T17:00:00Z,13,9,6+,29.76
UHMM,59.911,150.725,0,0,0.0,UHMM 031700Z 00000MPS 9999 NSC M01/M01 Q1013 RMK QFE745 R28/09003MPS,2024-08-03T17:00:00Z,-1,-1,6+,29.91
UHMA,64.733,177.739,90,6,6.904679999999999,UHMA 031700Z 09003MPS 020V150 9999 -RA FEW008 BKN030 09/08 Q1001 R02/////// NOSIG RMK MID 09008G11MPS END R02/07008G11MPS MT OBSC QFE747/0996,2024-08-03T17:00:00Z,9,8,6+,29.56
UHHH,48.527,135.184,350,4,4.60312,UHHH 031700Z 35002MPS 320V040 CAVOK 16/14 Q1011 R05L/090060 NOSIG RMK QFE752/1003,2024-08-03T17:00:00Z,16,14,6+,29.85
UHBB,50.425,127.412,0,0,0.0,UHBB 031700Z 00000MPS 9999 -SHRA BKN033CB 20/18 Q1009 R36/090055 NOSIG RMK QFE739/0985,2024-08-03T17:00:00Z,20,18,6+,29.79
UGTB,41.669,44.955,60,3,3.4523399999999995,UGTB 031700Z 06003KT 9999 SCT062 27/18 Q1009 NOSIG,2024-08-03T17:00:00Z,27,18,6+,29.79
UGSB,41.61,41.6,140,5,5.7539,UGSB 031700Z 14005KT 9999 FEW026 BKN073 24/21 Q1007 NOSIG,2024-08-03T17:00:00Z,24,21,6+,29.73
UGMS,43.055,42.75,160,2,2.30156,UGMS 031700Z AUTO 16002KT //// ////// 20/13 Q1015,2024-08-03T17:00:00Z,20,13,,29.97
UGKO,42.177,42.483,240,5,5.7539,UGKO 031700Z 24005KT 9999 BKN038 24/21 Q1006 NOSIG,2024-08-03T17:00:00Z,24,21,6+,29.70
UGAM,42.527,43.135,280,4,4.60312,UGAM 031700Z AUTO 28004KT //// ////// 24/21 Q1009,2024-08-03T17:00:00Z,24,21,,29.79
UERR,62.538,114.056,VRB,2,2.30156,UERR 031700Z VRB01MPS CAVOK 12/04 Q1009 R07/CLRD60 NOSIG RMK QFE726/0969,2024-08-03T17:00:00Z,12,4,6+,29.79
UEEE,62.093,129.774,300,2,2.30156,UEEE 031700Z 30001MPS CAVOK 07/03 Q1012 R23/09//61 NOSIG RMK QFE750,2024-08-03T17:00:00Z,7,3,6+,29.88
UDYZ,40.147,44.396,40,11,12.658579999999999,UDYZ 031700Z 04011KT 9999 VCTS SCT043CB 28/10 Q1007 TEMPO 04016G26KT -TSRA,2024-08-03T17:00:00Z,28,10,6+,29.73
UDSG,40.75,43.859,70,7,8.05546,UDSG 031700Z 07007KT 030V100 9999 BKN043CB 20/13 Q1013 NOSIG,2024-08-03T17:00:00Z,20,13,6+,29.91
UCFO,40.61,72.791,170,4,4.60312,UCFO 031700Z 17002MPS 130V190 7000 FEW050CB 26/17 Q1007 NOSIG,2024-08-03T17:00:00Z,26,17,4.35,29.73
UCFM,43.061,74.478,110,6,6.904679999999999,UCFM 031700Z 11003MPS 050V180 CAVOK 25/14 Q1006 NOSIG,2024-08-03T17:00:00Z,25,14,6+,29.70
UCFL,42.585,76.702,30,4,4.60312,UCFL 031700Z 03002MPS 9999 BKN030CB 20/10 Q1017,2024-08-03T17:00:00Z,20,10,6+,30.03
UBBY,41.561,46.667,80,12,13.809359999999998,UBBY 031700Z 08012KT 9999 SCT070 25/18 Q1011 NOSIG,2024-08-03T17:00:00Z,25,18,6+,29.85
UBBQ,40.809,47.729,210,2,2.30156,UBBQ 031700Z 21002KT 9999 NSC 27/18 Q1007 NOSIG,2024-08-03T17:00:00Z,27,18,6+,29.73
UBBL,38.746,48.818,240,3,3.4523399999999995,UBBL 031700Z 24003KT 9999 NSC 23/18 Q1006 NOSIG,2024-08-03T17:00:00Z,23,18,6+,29.70
UAUU,53.215,63.553,170,6,6.904679999999999,UAUU 031700Z 17003MPS 9999 SCT050CB 16/13 Q1001 NOSIG RMK QFE735/0980,2024-08-03T17:00:00Z,16,13,6+,29.56
UATT,50.248,57.203,30,4,4.60312,UATT 031700Z 03002MPS 9999 FEW043CB 21/10 Q1004 TEMPO VRB17MPS 3100 -TSRA SQ BKN015CB RMK QFE733/0978,2024-08-03T17:00:00Z,21,10,6+,29.65
UATG,47.122,51.829,240,8,9.20624,UATG 031700Z 24004MPS 9999 SCT033CB 27/21 Q1005 NOSIG RMK QFE756/1008,2024-08-03T17:00:00Z,27,21,6+,29.68
UATE,43.86,51.092,310,6,6.904679999999999,UATE 031700Z 31003MPS CAVOK 27/13 Q1007 NOSIG RMK QFE754/1005,2024-08-03T17:00:00Z,27,13,6+,29.73
UASS,50.352,80.228,300,8,9.20624,UASS 031700Z 30004MPS CAVOK 22/14 Q1005 NOSIG RMK QFE735/0981,2024-08-03T17:00:00Z,22,14,6+,29.68
UASP,52.202,77.078,210,4,4.60312,UASP 031700Z 21002MPS CAVOK 16/16 Q1004 NOSIG RMK QFE741/0989,2024-08-03T17:00:00Z,16,16,6+,29.65
UASK,50.027,82.5,130,4,4.60312,UASK 031700Z 13002MPS 090V160 9999 SCT130 19/15 Q1005 NOSIG RMK QFE728/0971,2024-08-03T17:00:00Z,19,15,6+,29.68
UARR,51.151,51.541,10,4,4.60312,UARR 031700Z 01002MPS CAVOK 21/13 Q1004 NOSIG RMK QFE749/0999,2024-08-03T17:00:00Z,21,13,6+,29.65
UAOO,44.707,65.593,270,4,4.60312,UAOO 031700Z 27002MPS CAVOK 24/10 Q1006 NOSIG RMK QFE743/0990,2024-08-03T17:00:00Z,24,10,6+,29.70
UAKK,49.672,73.333,0,0,0.0,UAKK 031700Z 00000MPS CAVOK 13/10 Q1008 NOSIG RMK QFE710/0946,2024-08-03T17:00:00Z,13,10,6+,29.76
UAIT,43.311,68.55,40,8,9.20624,UAIT 031700Z 04004MPS CAVOK 28/04 Q1005 NOSIG RMK QFE729/0972,2024-08-03T17:00:00Z,28,4,6+,29.68
UAII,42.366,69.476,140,2,2.30156,UAII 031700Z 14001MPS CAVOK 27/10 Q1004 NOSIG RMK QFE718/0957,2024-08-03T17:00:00Z,27,10,6+,29.65
UADD,42.854,71.304,180,2,2.30156,UADD 031700Z 18001MPS 9999 NSC 25/10 Q1006 NOSIG RMK QFE697/0930,2024-08-03T17:00:00Z,25,10,6+,29.70
UACC,51.024,71.468,180,6,6.904679999999999,UACC 031700Z 18003MPS CAVOK 19/13 Q1006 NOSIG RMK QFE723/0965,2024-08-03T17:00:00Z,19,13,6+,29.70
UAAA,43.35,77.027,VRB,2,2.30156,UAAA 031700Z VRB01MPS 9999 FEW100 SCT200 24/12 Q1007 NOSIG,2024-08-03T17:00:00Z,24,12,6+,29.73
TVSA,13.156,-61.15,50,7,8.05546,TVSA 031700Z 05007KT 9999 SCT014 30/27 Q1014 NOSIG ,2024-08-03T17:00:00Z,30,27,6+,29.94
TUPJ,18.445,-64.543,100,13,14.960139999999999,TUPJ 031700Z 10013KT 10SM SCT022 31/25 A3002 RMK Q1016 VIS16KM,2024-08-03T17:00:00Z,31,25,10+,30.02
TTPP,10.593,-61.348,150,7,8.05546,TTPP 031700Z 15007KT 9999 VCSH SCT018 31/25 Q1013 TEMPO SHRA RMK VCSH NW QUAD SW QUAD,2024-08-03T17:00:00Z,31,25,6+,29.91
TTCP,11.149,-60.836,110,9,10.357019999999999,TTCP 031700Z 11009KT 9999 VCSH FEW012CB 32/26 Q1013 NOSIG RMK CB TO SE VCSH TO SE/ W,2024-08-03T17:00:00Z,32,26,6+,29.91
TRPG,16.792,-62.194,100,14,16.11092,TRPG 031700Z 10014KT 9999 FEW019 30/25 Q1016,2024-08-03T17:00:00Z,30,25,6+,30.00
TQPF,18.205,-63.055,110,18,20.714039999999997,TQPF 031700Z 11018KT 9999 FEW019 31/25 Q1015,2024-08-03T17:00:00Z,31,25,6+,29.97
TNCM,18.041,-63.109,80,14,16.11092,TNCM 031700Z 08014KT 050V120 9999 SCT018 31/25 Q1017 NOSIG ,2024-08-03T17:00:00Z,31,25,6+,30.03
TNCC,12.189,-68.96,130,17,19.56326,TNCC 031700Z AUTO 13017G27KT 090V150 9999 FEW022 34/24 Q1012,2024-08-03T17:00:00Z,34,24,6+,29.88
TNCA,12.501,-70.015,150,16,18.41248,TNCA 031700Z 15016KT 9999 FEW023 29/26 Q1012 NOSIG,2024-08-03T17:00:00Z,29,26,6+,29.88
TLPL,13.743,-60.948,90,16,18.41248,TLPL 031700Z 09016KT 9999 -SHRA FEW016CB BKN018 31/26 Q1014 NOSIG,2024-08-03T17:00:00Z,31,26,6+,29.94
TLPC,14.021,-60.993,100,4,4.60312,TLPC 031700Z 10004KT 9999 FEW016CB 28/24 Q1014 NOSIG,2024-08-03T17:00:00Z,28,24,6+,29.94
TKPN,17.205,-62.591,80,16,18.41248,TKPN 031700Z 08016KT 9999 SCT022 31/26 Q1015,2024-08-03T17:00:00Z,31,26,6+,29.97
TKPK,17.312,-62.72,70,14,16.11092,TKPK 031700Z 07014KT 9999 FEW021 31/25 Q1016,2024-08-03T17:00:00Z,31,25,6+,30.00
TGPY,12.006,-61.797,90,12,13.809359999999998,TGPY 031700Z 09012KT 9999 FEW012CB 31/26 Q1013 NOSIG RMK CB-SE/S,2024-08-03T17:00:00Z,31,26,6+,29.91
TFFJ,17.904,-62.844,90,14,16.11092,TFFJ 031700Z AUTO 09014KT 040V130 9999 BKN027 31/25 Q1015,2024-08-03T17:00:00Z,31,25,6+,29.97
TDPD,15.547,-61.299,110,3,3.4523399999999995,TDPD 031700Z 11003KT 9999 BKN016 27/26 Q1015 RERA,2024-08-03T17:00:00Z,27,26,6+,29.97
TBPB,13.075,-59.492,110,19,21.864819999999998,TBPB 031700Z 11019KT 9999 SCT020 31/26 Q1013 NOSIG,2024-08-03T17:00:00Z,31,26,6+,29.91
TAPA,17.135,-61.797,90,12,13.809359999999998,TAPA 031700Z 09012G22KT 040V150 9999 SCT021 31/25 Q1015 NOSIG,2024-08-03T17:00:00Z,31,25,6+,29.97
SYEC,6.809,-58.104,40,8,9.20624,SYEC 031700Z 04008KT 9999 FEW021CB SCT022 31/24 Q1011 NOSIG RMK CB W-NW & SE,2024-08-03T17:00:00Z,31,24,6+,29.85
SYCJ,6.499,-58.254,10,4,4.60312,SYCJ 031700Z 01004KT 9999 BKN022 32/25 Q1011 NOSIG,2024-08-03T17:00:00Z,32,25,6+,29.85
SUSO,-31.438,-57.982,200,9,10.357019999999999,SUSO 031700Z 20009KT CAVOK 18/13 Q1009,2024-08-03T17:00:00Z,18,13,6+,29.79
SUMU,-34.838,-56.031,100,4,4.60312,SUMU 031700Z 10004KT 9999 FEW010 BKN100 14/14 Q1008 NOSIG,2024-08-03T17:00:00Z,14,14,6+,29.76
SULS,-34.855,-55.094,VRB,2,2.30156,SULS 031700Z VRB02KT 3000 BR OVC004 13/12 Q1008,2024-08-03T17:00:00Z,13,12,1.86,29.76
SUAA,-34.788,-56.263,90,6,6.904679999999999,SUAA 031700Z 09006KT 9999 SCT016 BKN070 14/12 Q1008,2024-08-03T17:00:00Z,14,12,6+,29.76
SPYL,-4.577,-81.254,,,,SPYL 031700Z /////KT CAVOK 24/17 Q1015 RMK BIRD HAZARD RWY 17/35 PP000,2024-08-03T17:00:00Z,24,17,6+,29.97
SPUR,-5.206,-80.616,160,3,3.4523399999999995,SPUR 031700Z 16003KT 9999 BKN020 21/16 Q1015 RMK BIRD HAZARD RWY 19/01 PP000,2024-08-03T17:00:00Z,21,16,6+,29.97
SPTU,-12.603,-69.228,290,8,9.20624,SPTU 031700Z 29008KT 240V340 9999 FEW040 32/22 Q1011 RMK BIRD HAZARD RWY 01/19 PP000,2024-08-03T17:00:00Z,32,22,6+,29.85
SPTN,-18.049,-70.277,230,8,9.20624,SPTN 031700Z 23008KT CAVOK 19/10 Q1016 RMK PP000,2024-08-03T17:00:00Z,19,10,6+,30.00
SPST,-6.509,-76.373,290,3,3.4523399999999995,SPST 031700Z 29003KT 9999 FEW015 36/19 Q1012 RMK PP000,2024-08-03T17:00:00Z,36,19,6+,29.88
SPSO,-13.744,-76.221,280,4,4.60312,SPSO 031700Z 28004KT 250V320 5000 BR OVC012 16/14 Q1016 RMK BIRD HAZARD RWY 22/04 PP000,2024-08-03T17:00:00Z,16,14,3.11,30.00
SPRU,-8.087,-79.109,190,6,6.904679999999999,SPRU 031700Z 19006KT 160V220 8000 VCFG OVC013 18/15 Q1016 RMK PP000,2024-08-03T17:00:00Z,18,15,4.97,30.00
SPQU,-16.341,-71.583,260,8,9.20624,SPQU 031700Z 26008KT 220V290 CAVOK 18/M09 Q1027 NOSIG RMK PP000,2024-08-03T17:00:00Z,18,-9,6+,30.32
SPQT,-3.786,-73.306,20,6,6.904679999999999,SPQT 031700Z 02006KT 310V080 9999 SCT020 32/25 Q1012 NOSIG RMK BIRD HAZARD RWY 06/24 PP000,2024-08-03T17:00:00Z,32,25,6+,29.88
SPPY,-6.207,-77.853,320,8,9.20624,SPPY 031700Z 32008KT 9999 SCT020 20/07 Q1028 RMK PP000,2024-08-03T17:00:00Z,20,7,6+,30.35
SPNC,-9.879,-76.207,60,9,10.357019999999999,SPNC 031700Z 06009KT 9999 FEW040 26/12 Q1022 RMK PP000,2024-08-03T17:00:00Z,26,12,6+,30.18
SPMS,-5.895,-76.111,340,4,4.60312,SPMS 031700Z 34004KT 9999 FEW010 33/24 Q1013 RMK BIRD HAZARD RWY 09/27 PP000,2024-08-03T17:00:00Z,33,24,6+,29.91
SPME,-3.551,-80.385,300,7,8.05546,SPME 031700Z 30007KT 9999 BKN013 26/21 Q1014 RMK BIRD HAZARD RWY 32/14 PP000,2024-08-03T17:00:00Z,26,21,6+,29.94
SPLO,-17.692,-71.343,180,7,8.05546,SPLO 031700Z 18007KT 9999 FEW030 20/13 Q1016 RMK PP000,2024-08-03T17:00:00Z,20,13,6+,30.00
SPJL,-15.467,-70.158,VRB,3,3.4523399999999995,SPJL 031700Z VRB03KT CAVOK 15/M13 Q1034 RMK BIRD HAZARD RWY 12/30 PP000,2024-08-03T17:00:00Z,15,-13,6+,30.53
SPJJ,-11.783,-75.473,,,,SPJJ 031700Z /////KT CAVOK 18/05 Q1032 RMK PP000,2024-08-03T17:00:00Z,18,5,6+,30.47
SPJI,-7.169,-76.729,90,5,5.7539,SPJI 031700Z 09005KT 9999 FEW022 33/23 Q1021 RMK PP000,2024-08-03T17:00:00Z,33,23,6+,30.15
SPJE,-5.593,-78.774,,,,SPJE 031700Z /////KT CAVOK 31/19 Q1016 RMK BIRD HAZARD RWY 16/34 PP000,2024-08-03T17:00:00Z,31,19,6+,30.00
SPJC,-12.024,-77.113,170,9,10.357019999999999,SPJC 031700Z 17009KT 9999 SCT012 OVC020 18/13 Q1016 NOSIG RMK PP000,2024-08-03T17:00:00Z,18,13,6+,30.00
SPHZ,-9.347,-77.598,360,8,9.20624,SPHZ 031700Z 36008KT CAVOK 24/05 Q1026 RMK PP000,2024-08-03T17:00:00Z,24,5,6+,30.30
SPHY,-13.713,-73.352,10,8,9.20624,SPHY 031700Z 01008KT 9999 FEW020 13/03 Q1034 RMK PP000,2024-08-03T17:00:00Z,13,3,6+,30.53
SPHO,-13.155,-74.204,VRB,6,6.904679999999999,SPHO 031700Z VRB06KT 9999 SCT030 20/04 Q1028 RMK BIRD HAZARD RWY 20/02 PP000,2024-08-03T17:00:00Z,20,4,6+,30.35
SPHI,-6.787,-79.828,220,3,3.4523399999999995,SPHI 031700Z 22003KT 160V280 9999 OVC014 19/15 Q1016 RMK BIRD HAZARD RWY 19/01 PP000,2024-08-03T17:00:00Z,19,15,6+,30.00
SPGM,-9.291,-76.005,130,3,3.4523399999999995,SPGM 031700Z 13003KT 9999 FEW040 28/19 Q1016 RMK PP000,2024-08-03T17:00:00Z,28,19,6+,30.00
SPEO,-9.15,-78.526,200,7,8.05546,SPEO 031700Z 20007KT 9999 BKN015 BKN100 19/15 Q1015 RMK PP000,2024-08-03T17:00:00Z,19,15,6+,29.97
SPCL,-8.378,-74.574,360,8,9.20624,SPCL 031700Z 36008KT 9999 SCT020 33/22 Q1013 RMK BIRD HAZARD RWY 02/20 PP000,2024-08-03T17:00:00Z,33,22,6+,29.91
SMZO,5.811,-55.191,0,0,0.0,SMZO 031700Z 00000KT 9999 VCSH FEW020CB SCT025 33/23 Q1011 NOSIG,2024-08-03T17:00:00Z,33,23,6+,29.85
SMJP,5.453,-55.188,120,3,3.4523399999999995,SMJP 031700Z 12003KT 9999 VCSH FEW010 FEW018CB SCT022 33/24 Q1011 NOSIG,2024-08-03T17:00:00Z,33,24,6+,29.85
SLVR,-17.645,-63.135,330,25,28.769499999999997,SLVR 031700Z 33025G37KT 6000 SCT023 32/23 Q1009,2024-08-03T17:00:00Z,32,23,3.73,29.79
SLTR,-14.819,-64.918,300,10,11.5078,SLTR 031700Z 30010KT 5000 FU SCT030 34/22 Q1011,2024-08-03T17:00:00Z,34,22,3.11,29.85
SLTJ,-21.556,-64.701,330,4,4.60312,SLTJ 031700Z 33004KT 9999 NSC 30/00 Q1015,2024-08-03T17:00:00Z,30,0,6+,29.97
SLSV,-16.401,-61.046,360,15,17.261699999999998,SLSV 031700Z 36015G25KT 5000 FU FEW017 33/18 Q1011,2024-08-03T17:00:00Z,33,18,3.11,29.85
SLSA,-13.762,-65.435,310,16,18.41248,SLSA 031700Z 31016KT 8000 SCT027 35/20 Q1013,2024-08-03T17:00:00Z,35,20,4.97,29.91
SLRQ,-14.429,-67.503,350,3,3.4523399999999995,SLRQ 031700Z 35003KT 6000 FEW027 BKN080 30/23 Q1012,2024-08-03T17:00:00Z,30,23,3.73,29.88
SLRI,-11.007,-66.076,300,8,9.20624,SLRI 031700Z 30008KT 5000 FU SCT020 34/22 Q1013,2024-08-03T17:00:00Z,34,22,3.11,29.91
SLOR,-17.962,-67.077,330,10,11.5078,SLOR 031700Z 33010KT 300V360 9999 NSC 14/M05 Q1033,2024-08-03T17:00:00Z,14,-5,6+,30.50
SLLP,-16.511,-68.182,290,9,10.357019999999999,SLLP 031700Z 29009KT 240V330 9999 FEW017 13/M14 Q1037,2024-08-03T17:00:00Z,13,-14,6+,30.62
SLET,-17.812,-63.172,340,25,28.769499999999997,SLET 031700Z 34025G38KT 6000 SCT023 31/20 Q1009,2024-08-03T17:00:00Z,31,20,3.73,29.79
SLCP,-16.138,-62.028,360,15,17.261699999999998,SLCP 031700Z 36015KT 4000 BKN015 31/17 Q1015,2024-08-03T17:00:00Z,31,17,2.49,29.97
SLCO,-11.04,-68.782,310,8,9.20624,SLCO 031700Z 31008KT 9999 SCT037 36/23 Q1011,2024-08-03T17:00:00Z,36,23,6+,29.85
SLCB,-17.421,-66.179,100,3,3.4523399999999995,SLCB 031700Z 10003KT 9999 NSC 25/M06 Q1022,2024-08-03T17:00:00Z,25,-6,6+,30.18
SLCA,-20.006,-63.528,360,3,3.4523399999999995,SLCA 031700Z 36003KT 9999 NSC 35/10 Q1008,2024-08-03T17:00:00Z,35,10,6+,29.76
SLAL,-19.247,-65.15,320,6,6.904679999999999,SLAL 031700Z 32006KT 9999 NSC 21/M10 Q1027,2024-08-03T17:00:00Z,21,-10,6+,30.32
SKVV,4.162,-73.618,0,0,0.0,SKVV 031700Z 00000KT 9999 FEW023 30/22 Q1015,2024-08-03T17:00:00Z,30,22,6+,29.97
SKVP,10.436,-73.248,310,7,8.05546,SKVP 031700Z 31007KT 9999 FEW020TCU 35/26 Q1013 RMK TCUSE/S,2024-08-03T17:00:00Z,35,26,6+,29.91
SKUI,5.691,-76.644,230,3,3.4523399999999995,SKUI 031700Z 23003KT 9999 BKN018 28/24 Q1013,2024-08-03T17:00:00Z,28,24,6+,29.91
SKUC,7.066,-70.735,VRB,2,2.30156,SKUC 031700Z VRB02KT 9999 SCT015TCU 33/25 Q1013 RMK TCUN NW,2024-08-03T17:00:00Z,33,25,6+,29.91
SKSP,12.587,-81.704,350,7,8.05546,SKSP 031700Z 35007KT 330V050 9999 FEW020 31/26 Q1013,2024-08-03T17:00:00Z,31,26,6+,29.91
SKSM,11.12,-74.231,310,7,8.05546,SKSM 031700Z 31007KT 9999 FEW020TCU 35/26 Q1013 RMK TCUSE/S,2024-08-03T17:00:00Z,35,26,6+,29.91
SKRH,11.528,-72.918,110,11,12.658579999999999,SKRH 031700Z 11011KT 070V140 9999 FEW018 36/25 Q1010,2024-08-03T17:00:00Z,36,25,6+,29.82
SKRG,6.169,-75.426,40,6,6.904679999999999,SKRG 031700Z 04006KT 210V300 9999 SCT020 21/14 Q1027 NOSIG,2024-08-03T17:00:00Z,21,14,6+,30.32
SKPV,13.358,-81.358,VRB,4,4.60312,SKPV 031700Z VRB04KT 9999 FEW017 33/30 Q1013,2024-08-03T17:00:00Z,33,30,6+,29.91
SKPS,1.394,-77.291,360,7,8.05546,SKPS 031700Z 36007KT 320V070 9999 FEW040 24/11 Q1022,2024-08-03T17:00:00Z,24,11,6+,30.18
SKPE,4.814,-75.735,280,4,4.60312,SKPE 031700Z 28004KT 190V340 9999 SCT020TCU BKN100 25/19 Q1019 RMK TCUE/SE,2024-08-03T17:00:00Z,25,19,6+,30.09
SKPC,6.184,-67.491,320,7,8.05546,SKPC 031700Z 32007KT 270V060 9999 FEW020 32/25 Q1012,2024-08-03T17:00:00Z,32,25,6+,29.88
SKNV,2.949,-75.294,190,8,9.20624,SKNV 031700Z 19008KT 130V230 9999 FEW045 SCT100 33/15 Q1013,2024-08-03T17:00:00Z,33,15,6+,29.91
SKMZ,5.03,-75.47,290,7,8.05546,SKMZ 031700Z 29007KT 230V320 8000 VCFG BKN020 19/15 Q1028,2024-08-03T17:00:00Z,19,15,4.97,30.35
SKMU,1.117,-70.083,10,4,4.60312,SKMU 031700Z 01004KT 270V050 9999 BKN040 31/23 Q1012,2024-08-03T17:00:00Z,31,23,6+,29.88
SKMR,8.826,-75.825,200,4,4.60312,SKMR 031700Z 20004KT 150V240 9999 BKN020 27/23 Q1012,2024-08-03T17:00:00Z,27,23,6+,29.88
SKMD,6.221,-75.59,360,8,9.20624,SKMD 031700Z 36008KT 310V060 9999 SCT040 26/15 Q1021,2024-08-03T17:00:00Z,26,15,6+,30.15
SKLT,-4.196,-69.943,70,4,4.60312,SKLT 031700Z 07004KT 9999 BKN030 33/23 Q1012,2024-08-03T17:00:00Z,33,23,6+,29.88
SKLC,7.817,-76.718,210,4,4.60312,SKLC 031700Z 21004KT 150V260 9999 -DZ SCT012 BKN080 24/23 Q1013,2024-08-03T17:00:00Z,24,23,6+,29.91
SKIP,0.858,-77.677,100,11,12.658579999999999,SKIP 031700Z 10011KT 070V140 9999 SCT020 17/06 Q1031,2024-08-03T17:00:00Z,17,6,6+,30.44
SKIB,4.418,-75.13,120,8,9.20624,SKIB 031700Z 12008KT 9999 SCT030 BKN100 28/20 Q1019,2024-08-03T17:00:00Z,28,20,6+,30.09
SKEJ,7.026,-73.809,300,5,5.7539,SKEJ 031700Z 30005KT 9999 BKN015 31/24 Q1011,2024-08-03T17:00:00Z,31,24,6+,29.85
SKCL,3.543,-76.382,150,4,4.60312,SKCL 031700Z 15004KT 040V210 9999 SCT025 SCT100 29/18 Q1016 NOSIG,2024-08-03T17:00:00Z,29,18,6+,30.00
SKCG,10.447,-75.516,240,5,5.7539,SKCG 031700Z 24005KT 210V350 9999 SCT015 31/27 Q1011,2024-08-03T17:00:00Z,31,27,6+,29.85
SKCC,7.93,-72.509,150,18,20.714039999999997,SKCC 031700Z 15018KT 9999 FEW023 36/16 Q1013,2024-08-03T17:00:00Z,36,16,6+,29.91
SKBQ,10.883,-74.78,220,4,4.60312,SKBQ 031700Z 22004KT 160V270 9999 SCT015TCU 33/25 Q1011 NOSIG RMK TCUN,2024-08-03T17:00:00Z,33,25,6+,29.85
SKBO,4.706,-74.151,60,8,9.20624,SKBO 031700Z 06008KT 9999 BKN023 SCT070 17/09 Q1029 NOSIG,2024-08-03T17:00:00Z,17,9,6+,30.38
SKBG,7.127,-73.185,330,7,8.05546,SKBG 031700Z 33007KT 9999 SCT010 SCT070 25/21 Q1017,2024-08-03T17:00:00Z,25,21,6+,30.03
SKAR,4.455,-75.766,260,4,4.60312,SKAR 031700Z 26004KT 9999 BKN020 27/19 Q1018,2024-08-03T17:00:00Z,27,19,6+,30.06
SGES,-25.461,-54.849,40,11,12.658579999999999,SGES 031700Z 04011KT CAVOK 29/16 Q1011,2024-08-03T17:00:00Z,29,16,6+,29.85
SGEN,-27.221,-55.834,70,20,23.0156,SGEN 031700Z 07020KT 9999 FEW027 BKN060 26/18 Q1009,2024-08-03T17:00:00Z,26,18,6+,29.79
SGAS,-25.248,-57.519,50,12,13.809359999999998,SGAS 031700Z 05012KT 5000 FU NSC 31/17 Q1006,2024-08-03T17:00:00Z,31,17,3.11,29.70
SETN,0.979,-79.627,260,5,5.7539,SETN 031700Z 26005KT 230V330 9999 BKN026 28/23 Q1014 RMK A2394,2024-08-03T17:00:00Z,28,23,6+,29.94
SEST,-0.906,-89.619,150,9,10.357019999999999,SEST 031700Z 15009KT 9999 SCT030 24/22 Q1014 RMK A2996,2024-08-03T17:00:00Z,24,22,6+,29.94
SESM,-1.505,-78.063,50,2,2.30156,SESM 031700Z 05002KT CAVOK 27/21 Q1017 RMK A3004,2024-08-03T17:00:00Z,27,21,6+,30.03
SESA,-2.205,-80.989,240,10,11.5078,SESA 031700Z 24010KT 9999 BKN008 OVC011 24/22 Q1015 RMK A2998,2024-08-03T17:00:00Z,24,22,6+,29.97
SERO,-3.435,-79.978,320,7,8.05546,SERO 031700Z 32007KT 9999 FEW010 BKN020 27/21 Q1014,2024-08-03T17:00:00Z,27,21,6+,29.94
SEQM,-0.124,-78.354,VRB,5,5.7539,SEQM 031700Z VRB05KT 9999 FEW040 SCT300 24/03 Q1026 NOSIG RMK A3030,2024-08-03T17:00:00Z,24,3,6+,30.30
SENL,0.092,-76.869,10,1,1.15078,SENL 031700Z 01001KT 9999 FEW020 SCT100 32/21 Q1014 RMK A2995,2024-08-03T17:00:00Z,32,21,6+,29.94
SEMT,-0.946,-80.679,250,8,9.20624,SEMT 031700Z 25008KT 240V300 9999 OVC023 27/22 Q1013 RMK A2992,2024-08-03T17:00:00Z,27,22,6+,29.91
SEMC,-2.299,-78.121,80,6,6.904679999999999,SEMC 031700Z 08006KT 9999 FEW040 27/15 Q1018 RMK A3008,2024-08-03T17:00:00Z,27,15,6+,30.06
SELT,-0.921,-78.619,180,11,12.658579999999999,SELT 031700Z 18011KT 140V220 9999 FEW020 SCT300 17/02 Q1031,2024-08-03T17:00:00Z,17,2,6+,30.44
SEGU,-2.158,-79.884,210,6,6.904679999999999,SEGU 031700Z 21006KT 9999 SCT023 BKN100 30/21 Q1013 NOSIG RMK A2992,2024-08-03T17:00:00Z,30,21,6+,29.91
SEGS,-0.445,-90.269,120,12,13.809359999999998,SEGS 031700Z 12012KT 9999 FEW030 24/14 Q1017 RMK A3003,2024-08-03T17:00:00Z,24,14,6+,30.03
SECU,-2.889,-78.984,70,8,9.20624,SECU 031700Z 07008KT CAVOK 22/05 Q1027,2024-08-03T17:00:00Z,22,5,6+,30.32
SECO,-0.461,-76.988,100,3,3.4523399999999995,SECO 031700Z 10003KT 9999 FEW023 32/23 Q1014 RMK A2995,2024-08-03T17:00:00Z,32,23,6+,29.94
SECA,-3.995,-79.372,90,7,8.05546,SECA 031700Z 09007KT 030V160 CAVOK 30/09 Q1018 RMK A3007,2024-08-03T17:00:00Z,30,9,6+,30.06
SCVM,-32.947,-71.479,VRB,4,4.60312,SCVM 031700Z VRB04KT CAVOK 16/08 Q1020,2024-08-03T17:00:00Z,16,8,6+,30.12
SCTN,-42.933,-72.699,330,11,12.658579999999999,SCTN 031700Z 33011KT 6000 -RA BKN025 OVC040 09/08 Q1012,2024-08-03T17:00:00Z,9,8,3.73,29.88
SCTE,-41.439,-73.094,360,12,13.809359999999998,SCTE 031700Z 36012KT 9999 FEW008 OVC024 09/07 Q1014 NOSIG,2024-08-03T17:00:00Z,9,7,6+,29.94
SCSE,-29.918,-71.201,290,3,3.4523399999999995,SCSE 031700Z 29003KT 250V340 CAVOK 16/10 Q1017,2024-08-03T17:00:00Z,16,10,6+,30.03
SCRM,-62.191,-58.987,60,11,12.658579999999999,SCRM 031700Z 06011KT 9999 BKN035 OVC043 M13/M18 Q1005 NOSIG,2024-08-03T17:00:00Z,-13,-18,6+,29.68
SCRD,-33.068,-71.557,VRB,4,4.60312,SCRD 031700Z VRB04KT 9999 FEW008 16/09 Q1020,2024-08-03T17:00:00Z,16,9,6+,30.12
SCQP,-38.925,-72.648,350,11,12.658579999999999,SCQP 031700Z 35011KT 9000 -RA OVC035 10/09 Q1019,2024-08-03T17:00:00Z,10,9,5.59,30.09
SCPQ,-42.347,-73.718,310,4,4.60312,SCPQ 031700Z 31004KT 270V360 9999 FEW007 SCT020 OVC030 08/07 Q1011,2024-08-03T17:00:00Z,8,7,6+,29.85
SCPD,-33.1173,-70.6838,VRB,3,3.4523399999999995,SCPD 031700Z VRB03KT 9999 FEW015 SCT200 12/08 Q1021,2024-08-03T17:00:00Z,12,8,6+,30.15
SCNT,-51.672,-72.528,VRB,1,1.15078,SCNT 031700Z VRB01KT 9999 SCT005 OVC030 01/01 Q1005,2024-08-03T17:00:00Z,1,1,6+,29.68
SCJO,-40.605,-73.061,350,6,6.904679999999999,SCJO 031700Z 35006KT 8000 -RA BKN025 OVC030 10/08 Q1016,2024-08-03T17:00:00Z,10,8,4.97,30.00
SCIP,-27.161,-109.427,320,8,9.20624,SCIP 031700Z 32008KT CAVOK 21/14 Q1025 NOSIG,2024-08-03T17:00:00Z,21,14,6+,30.27
SCIE,-36.773,-73.063,350,8,9.20624,SCIE 031700Z 35008KT 300V020 9999 SCT015 SCT045 13/11 Q1021,2024-08-03T17:00:00Z,13,11,6+,30.15
SCIC,-34.966,-71.217,VRB,3,3.4523399999999995,SCIC 031700Z VRB03KT 9999 FEW030 15/05 Q1021,2024-08-03T17:00:00Z,15,5,6+,30.15
SCGZ,-54.932,-67.631,180,8,9.20624,SCGZ 031700Z 18008KT 140V210 4000 1500SW +SHSN BKN008 OVC020 M01/M04 Q1002,2024-08-03T17:00:00Z,-1,-4,2.49,29.59
SCGE,-37.403,-72.422,0,0,0.0,SCGE 031700Z 00000KT 9999 BKN030 OVC066 11/09 Q1021,2024-08-03T17:00:00Z,11,9,6+,30.15
SCFT,-43.189,-71.853,310,4,4.60312,SCFT 031700Z AUTO 31004KT 250V350 9999 -RA FEW011/// BKN024/// OVC035/// 05/04 Q1008,2024-08-03T17:00:00Z,5,4,6+,29.76
SCFA,-23.45,-70.441,200,13,14.960139999999999,SCFA 031700Z 20013KT 9999 SCT009 16/12 Q1016 NOSIG,2024-08-03T17:00:00Z,16,12,6+,30.00
SCEL,-33.393,-70.786,VRB,3,3.4523399999999995,SCEL 031700Z VRB03KT CAVOK 12/05 Q1021 NOSIG,2024-08-03T17:00:00Z,12,5,6+,30.15
SCDA,-20.535,-70.181,230,10,11.5078,SCDA 031700Z 23010KT 200V260 9999 BKN027 17/11 Q1016,2024-08-03T17:00:00Z,17,11,6+,30.00
SCCI,-53.003,-70.855,20,9,10.357019999999999,SCCI 031700Z 02009KT 9999 -SN SCT025 OVC040 02/M02 Q1001 NOSIG,2024-08-03T17:00:00Z,2,-2,6+,29.56
SCCH,-36.583,-72.031,20,12,13.809359999999998,SCCH 031700Z 02012KT 9999 SCT020 BKN060 12/08 Q1021,2024-08-03T17:00:00Z,12,8,6+,30.15
SCCF,-22.496,-68.905,290,17,19.56326,SCCF 031700Z 29017KT CAVOK 21/M12 Q1025,2024-08-03T17:00:00Z,21,-12,6+,30.27
SCBA,-45.913,-71.694,300,21,24.166379999999997,SCBA 031700Z 30021KT 9999 SCT040 07/00 Q1001,2024-08-03T17:00:00Z,7,0,6+,29.56
SCAT,-27.262,-70.774,200,9,10.357019999999999,SCAT 031700Z 20009KT 160V240 CAVOK 18/10 Q1016,2024-08-03T17:00:00Z,18,10,6+,30.00
SBYS,-21.982,-47.34,20,9,10.357019999999999,SBYS 031700Z 02009KT 350V070 CAVOK 29/08 Q1021,2024-08-03T17:00:00Z,29,8,6+,30.15
SBVT,-20.258,-40.286,60,6,6.904679999999999,SBVT 031700Z 06006KT 030V090 9999 VCSH FEW009 SCT017 24/22 Q1022,2024-08-03T17:00:00Z,24,22,6+,30.18
SBVH,-12.694,-60.098,30,14,16.11092,SBVH 031700Z 03014KT 9999 SCT040 32/13 Q1015,2024-08-03T17:00:00Z,32,13,6+,29.97
SBUY,-4.884,-65.354,150,2,2.30156,SBUY 031700Z 15002KT 9999 SCT025 32/25 Q1011,2024-08-03T17:00:00Z,32,25,6+,29.85
SBUR,-19.765,-47.965,60,7,8.05546,SBUR 031700Z 06007KT CAVOK 26/12 Q1022,2024-08-03T17:00:00Z,26,12,6+,30.18
SBUL,-18.883,-48.226,30,11,12.658579999999999,SBUL 031700Z 03011KT 9999 SCT040 24/11 Q1023,2024-08-03T17:00:00Z,24,11,6+,30.21
SBUF,-9.4,-38.25,130,16,18.41248,SBUF 031700Z AUTO 13016KT CAVOK 29/15 Q1016,2024-08-03T17:00:00Z,29,15,6+,30.00
SBUA,-0.15,-66.987,240,4,4.60312,SBUA 031700Z 24004KT 9999 SCT030 31/26 Q1012,2024-08-03T17:00:00Z,31,26,6+,29.88
SBTU,-3.786,-49.72,,,,SBTU 031700Z AUTO /////KT ///V/// //// // ///////// ///// Q////,2024-08-03T17:00:00Z,,,,
SBTT,-4.254,-69.939,300,5,5.7539,SBTT 031700Z 30005KT 9999 BKN020 FEW033TCU 32/24 Q1013,2024-08-03T17:00:00Z,32,24,6+,29.91
SBTF,-3.383,-64.724,350,5,5.7539,SBTF 031700Z 35005KT 9999 FEW020 BKN100 33/24 Q1012,2024-08-03T17:00:00Z,33,24,6+,29.88
SBTE,-5.06,-42.824,120,8,9.20624,SBTE 031700Z 12008KT CAVOK 34/15 Q1011,2024-08-03T17:00:00Z,34,15,6+,29.85
SBTC,-15.355,-38.999,100,7,8.05546,SBTC 031700Z 10007KT 9999 SCT020 27/21 Q1020,2024-08-03T17:00:00Z,27,21,6+,30.12
SBTA,-23.04,-45.516,40,6,6.904679999999999,SBTA 031700Z 04006KT 360V080 CAVOK 27/11 Q1022,2024-08-03T17:00:00Z,27,11,6+,30.18
SBSV,-12.911,-38.331,90,8,9.20624,SBSV 031700Z 09008KT 5000 -SHRA SCT015 BKN025 FEW030TCU 24/21 Q1018,2024-08-03T17:00:00Z,24,21,3.11,30.06
SBST,-23.924,-46.305,360,6,6.904679999999999,SBST 031700Z 36006KT CAVOK 22/18 Q1019,2024-08-03T17:00:00Z,22,18,6+,30.09
SBSR,-20.817,-49.407,60,12,13.809359999999998,SBSR 031700Z 06012KT 9999 SCT045 31/07 Q1019,2024-08-03T17:00:00Z,31,7,6+,30.09
SBSP,-23.627,-46.655,VRB,4,4.60312,SBSP 031700Z VRB04KT 9999 FEW040 27/10 Q1023,2024-08-03T17:00:00Z,27,10,6+,30.21
SBSN,-2.423,-54.789,90,12,13.809359999999998,SBSN 031700Z 09012KT 9999 FEW023 32/24 Q1011,2024-08-03T17:00:00Z,32,24,6+,29.85
SBSM,-29.711,-53.688,360,22,25.317159999999998,SBSM 031700Z 36022G33KT CAVOK 29/14 Q1007,2024-08-03T17:00:00Z,29,14,6+,29.73
SBSL,-2.585,-44.234,80,6,6.904679999999999,SBSL 031700Z 08006KT 9999 FEW020 32/21 Q1012,2024-08-03T17:00:00Z,32,21,6+,29.88
SBSJ,-23.229,-45.861,30,6,6.904679999999999,SBSJ 031700Z 03006KT CAVOK 28/11 Q1022,2024-08-03T17:00:00Z,28,11,6+,30.18
SBSG,-5.768,-35.376,120,11,12.658579999999999,SBSG 031700Z 12011KT 9999 SCT035 29/20 Q1014,2024-08-03T17:00:00Z,29,20,6+,29.94
SBSC,-22.932,-43.719,340,8,9.20624,SBSC 031700Z 34008KT CAVOK 31/17 Q1020,2024-08-03T17:00:00Z,31,17,6+,30.12
SBRP,-21.134,-47.774,30,5,5.7539,SBRP 031700Z 03005KT CAVOK 30/08 Q1020,2024-08-03T17:00:00Z,30,8,6+,30.12
SBRJ,-22.91,-43.163,170,7,8.05546,SBRJ 031700Z 17007KT CAVOK 26/18 Q1020,2024-08-03T17:00:00Z,26,18,6+,30.12
SBRF,-8.126,-34.923,170,14,16.11092,SBRF 031700Z 17014KT 9999 SCT025 28/20 Q1015,2024-08-03T17:00:00Z,28,20,6+,29.97
SBRB,-9.867,-67.897,340,7,8.05546,SBRB 031700Z 34007KT 9000 SCT040 34/21 Q1013,2024-08-03T17:00:00Z,34,21,5.59,29.91
SBPV,-8.708,-63.901,10,7,8.05546,SBPV 031700Z 01007KT 8000 SCT040 34/20 Q1012,2024-08-03T17:00:00Z,34,20,4.97,29.88
SBPS,-16.439,-39.081,90,11,12.658579999999999,SBPS 031700Z 09011KT 9999 SCT020 26/23 Q1020,2024-08-03T17:00:00Z,26,23,6+,30.12
SBPP,-22.55,-55.703,20,18,20.714039999999997,SBPP 031700Z 02018KT CAVOK 31/11 Q1014,2024-08-03T17:00:00Z,31,11,6+,29.94
SBPL,-9.367,-40.565,160,12,13.809359999999998,SBPL 031700Z 16012KT 9999 BKN025 31/13 Q1017,2024-08-03T17:00:00Z,31,13,6+,30.03
SBPK,-31.717,-52.328,350,16,18.41248,SBPK 031700Z 35016KT CAVOK 28/16 Q1006,2024-08-03T17:00:00Z,28,16,6+,29.70
SBPJ,-10.291,-48.357,120,10,11.5078,SBPJ 031700Z 12010KT 9999 FEW045 34/14 Q1015,2024-08-03T17:00:00Z,34,14,6+,29.97
SBPG,-25.184,-50.144,30,7,8.05546,SBPG 031700Z 03007KT CAVOK 27/12 Q1020,2024-08-03T17:00:00Z,27,12,6+,30.12
SBPF,-28.245,-52.334,40,11,12.658579999999999,SBPF 031700Z 04011G21KT CAVOK 25/13 Q1015,2024-08-03T17:00:00Z,25,13,6+,29.97
SBPB,-2.894,-41.731,220,18,20.714039999999997,SBPB 031700Z 22018KT 9999 FEW020 35/21 Q1010,2024-08-03T17:00:00Z,35,21,6+,29.82
SBOI,3.861,-51.796,120,8,9.20624,SBOI 031700Z AUTO 12008KT 040V160 9999 FEW035 29/24 Q1012,2024-08-03T17:00:00Z,29,24,6+,29.88
SBNT,-5.911,-35.248,140,19,21.864819999999998,SBNT 031700Z 14019KT 9999 FEW033 28/19 Q1014,2024-08-03T17:00:00Z,28,19,6+,29.94
SBNF,-26.88,-48.651,100,8,9.20624,SBNF 031700Z 10008KT CAVOK 21/17 Q1017,2024-08-03T17:00:00Z,21,17,6+,30.03
SBMT,-23.509,-46.638,20,6,6.904679999999999,SBMT 031700Z 02006KT CAVOK 27/09 Q1022,2024-08-03T17:00:00Z,27,9,6+,30.18
SBMS,-5.202,-37.364,140,9,10.357019999999999,SBMS 031700Z 14009KT 9999 FEW030 35/16 Q1011,2024-08-03T17:00:00Z,35,16,6+,29.85
SBMQ,0.051,-51.072,100,7,8.05546,SBMQ 031700Z 10007KT 9999 SCT020 33/24 Q1012,2024-08-03T17:00:00Z,33,24,6+,29.88
SBMO,-9.511,-35.792,120,13,14.960139999999999,SBMO 031700Z 12013KT 9999 BKN030 BKN070 25/19 Q1017,2024-08-03T17:00:00Z,25,19,6+,30.03
SBMN,-3.146,-59.986,70,5,5.7539,SBMN 031700Z 07005KT 9999 FEW030 33/23 Q1012,2024-08-03T17:00:00Z,33,23,6+,29.88
SBMK,-16.705,-43.819,110,12,13.809359999999998,SBMK 031700Z 11012KT 9999 BKN040 26/14 Q1021,2024-08-03T17:00:00Z,26,14,6+,30.15
SBMG,-23.476,-52.017,40,22,25.317159999999998,SBMG 031700Z 04022KT CAVOK 30/12 Q1015,2024-08-03T17:00:00Z,30,12,6+,29.97
SBME,-22.343,-41.766,90,6,6.904679999999999,SBME 031700Z 09006KT 2500 -RA BR OVC020 23/21 Q1022,2024-08-03T17:00:00Z,23,21,1.55,30.18
SBMA,-5.368,-49.137,40,7,8.05546,SBMA 031700Z 04007KT 9999 FEW030 37/12 Q1012,2024-08-03T17:00:00Z,37,12,6+,29.88
SBLS,-19.662,-43.896,120,7,8.05546,SBLS 031700Z 12007KT 030V130 9999 BKN035 23/14 Q1024,2024-08-03T17:00:00Z,23,14,6+,30.24
SBLO,-23.334,-51.13,50,11,12.658579999999999,SBLO 031700Z 05011KT CAVOK 31/10 Q1018,2024-08-03T17:00:00Z,31,10,6+,30.06
SBLE,-12.482,-41.277,110,9,10.357019999999999,SBLE 031700Z AUTO 11009KT 070V160 CAVOK 28/13 Q1019,2024-08-03T17:00:00Z,28,13,6+,30.09
SBLB,-22.109,-39.917,90,21,24.166379999999997,SBLB 031700Z AUTO 09021KT //// OVC044 24/// Q//// W///S4,2024-08-03T17:00:00Z,,,,
SBKP,-23.007,-47.135,20,8,9.20624,SBKP 031700Z 02008KT 350V080 9999 FEW035 28/11 Q1022,2024-08-03T17:00:00Z,28,11,6+,30.18
SBKG,-7.27,-35.895,150,13,14.960139999999999,SBKG 031700Z 15013KT 9999 SCT028 27/17 Q1017,2024-08-03T17:00:00Z,27,17,6+,30.03
SBJV,-26.224,-48.797,110,7,8.05546,SBJV 031700Z 11007KT 9999 SCT018 22/18 Q1018,2024-08-03T17:00:00Z,22,18,6+,30.06
SBJU,-7.219,-39.27,170,15,17.261699999999998,SBJU 031700Z 17015KT 9999 FEW022 32/13 Q1015,2024-08-03T17:00:00Z,32,13,6+,29.97
SBJR,-22.988,-43.37,170,6,6.904679999999999,SBJR 031700Z 17006KT CAVOK 30/20 Q1020,2024-08-03T17:00:00Z,30,20,6+,30.12
SBJP,-7.148,-34.951,130,15,17.261699999999998,SBJP 031700Z 13015KT 9999 SCT033 29/19 Q1015,2024-08-03T17:00:00Z,29,19,6+,29.97
SBJE,-2.907,-40.358,70,10,11.5078,SBJE 031700Z 07010KT 9999 FEW020 34/18 Q1011,2024-08-03T17:00:00Z,34,18,6+,29.85
SBIZ,-5.53,-47.458,130,2,2.30156,SBIZ 031700Z 13002KT CAVOK 36/21 Q1012,2024-08-03T17:00:00Z,36,21,6+,29.88
SBIP,-19.471,-42.488,VRB,2,2.30156,SBIP 031700Z AUTO VRB02KT 9999 BKN036 25/13 Q1022,2024-08-03T17:00:00Z,25,13,6+,30.18
SBIL,-14.816,-39.033,110,10,11.5078,SBIL 031700Z 11010KT 9999 SCT025 28/21 Q1019,2024-08-03T17:00:00Z,28,21,6+,30.09
SBIH,-4.242,-56.001,50,10,11.5078,SBIH 031700Z 05010KT 9999 FEW020 FEW025TCU 35/22 Q1010,2024-08-03T17:00:00Z,35,22,6+,29.82
SBHT,-3.251,-52.252,60,5,5.7539,SBHT 031700Z 06005KT 9999 BKN030 33/21 Q1012,2024-08-03T17:00:00Z,33,21,6+,29.88
SBGW,-22.792,-45.205,30,4,4.60312,SBGW 031700Z 03004KT 330V080 CAVOK 27/11 Q1022,2024-08-03T17:00:00Z,27,11,6+,30.18
SBGR,-23.432,-46.469,70,9,10.357019999999999,SBGR 031700Z 07009KT CAVOK 28/12 Q1022,2024-08-03T17:00:00Z,28,12,6+,30.18
SBGO,-16.632,-49.221,20,8,9.20624,SBGO 031700Z 02008KT 340V070 CAVOK 29/07 Q1020,2024-08-03T17:00:00Z,29,7,6+,30.12
SBGM,-10.787,-65.281,280,8,9.20624,SBGM 031700Z 28008KT 240V320 9999 FEW049 35/21 Q1012,2024-08-03T17:00:00Z,35,21,6+,29.88
SBGL,-22.815,-43.261,120,4,4.60312,SBGL 031700Z 12004KT CAVOK 27/17 Q1020,2024-08-03T17:00:00Z,27,17,6+,30.12
SBFZ,-3.776,-38.533,90,16,18.41248,SBFZ 031700Z 09016KT 9999 FEW030 30/21 Q1012,2024-08-03T17:00:00Z,30,21,6+,29.88
SBFS,-22.028,-41.069,80,12,13.809359999999998,SBFS 031700Z 08012KT 9999 VCSH SCT025 BKN070 25/19 Q1022,2024-08-03T17:00:00Z,25,19,6+,30.18
SBFL,-27.671,-48.547,350,11,12.658579999999999,SBFL 031700Z 35011KT 9999 SCT018 23/17 Q1017,2024-08-03T17:00:00Z,23,17,6+,30.03
SBFI,-25.595,-54.488,30,18,20.714039999999997,SBFI 031700Z 03018G28KT CAVOK 30/13 Q1011,2024-08-03T17:00:00Z,30,13,6+,29.85
SBES,-22.813,-42.093,70,19,21.864819999999998,SBES 031700Z 07019KT 9999 SCT020 25/21 Q1022,2024-08-03T17:00:00Z,25,21,6+,30.18
SBEG,-3.039,-60.05,VRB,4,4.60312,SBEG 031700Z VRB04KT 9999 SCT030 33/23 Q1011,2024-08-03T17:00:00Z,33,23,6+,29.85
SBDN,-22.175,-51.427,10,11,12.658579999999999,SBDN 031700Z 01011G21KT CAVOK 33/10 Q1017,2024-08-03T17:00:00Z,33,10,6+,30.03
SBCZ,-7.597,-72.774,280,10,11.5078,SBCZ 031700Z 28010KT 8000 SCT030 33/20 Q1013,2024-08-03T17:00:00Z,33,20,4.97,29.91
SBCY,-15.653,-56.116,350,10,11.5078,SBCY 031700Z 35010KT CAVOK 37/10 Q1013,2024-08-03T17:00:00Z,37,10,6+,29.91
SBCX,-29.195,-51.189,40,9,10.357019999999999,SBCX 031700Z 04009KT CAVOK 27/13 Q1015,2024-08-03T17:00:00Z,27,13,6+,29.97
SBCT,-25.529,-49.176,340,15,17.261699999999998,SBCT 031700Z 34015KT CAVOK 25/11 Q1021,2024-08-03T17:00:00Z,25,11,6+,30.15
SBCR,-19.01,-57.667,360,12,13.809359999999998,SBCR 031700Z 36012G25KT 320V050 6000 FEW030 36/12 Q1009,2024-08-03T17:00:00Z,36,12,3.73,29.79
SBCP,-21.701,-41.305,90,11,12.658579999999999,SBCP 031700Z 09011KT 5000 -RA BKN007 SCT015 BKN090 24/22 Q1022,2024-08-03T17:00:00Z,24,22,3.11,30.18
SBCO,-29.945,-51.144,350,7,8.05546,SBCO 031700Z 35007G17KT 290V020 CAVOK 32/14 Q1009,2024-08-03T17:00:00Z,32,14,6+,29.79
SBCJ,-6.118,-50.004,140,6,6.904679999999999,SBCJ 031700Z 14006KT CAVOK 32/11 Q1017,2024-08-03T17:00:00Z,32,11,6+,30.03
SBCH,-27.132,-52.662,20,20,23.0156,SBCH 031700Z 02020KT CAVOK 26/17 Q1015,2024-08-03T17:00:00Z,26,17,6+,29.97
SBCG,-20.469,-54.672,350,16,18.41248,SBCG 031700Z 35016KT CAVOK 33/09 Q1014,2024-08-03T17:00:00Z,33,9,6+,29.94
SBCF,-19.635,-43.966,40,7,8.05546,SBCF 031700Z 04007KT 9999 BKN033 23/13 Q1024,2024-08-03T17:00:00Z,23,13,6+,30.24
SBCC,-9.334,-54.965,50,10,11.5078,SBCC 031700Z 05010KT CAVOK 33/12 Q1015,2024-08-03T17:00:00Z,33,12,6+,29.97
SBCB,-22.922,-42.074,60,13,14.960139999999999,SBCB 031700Z 06013KT 9999 SCT020 SCT040 25/19 Q1022,2024-08-03T17:00:00Z,25,19,6+,30.18
SBCA,-25,-53.501,30,17,19.56326,SBCA 031700Z 03017G27KT CAVOK 26/12 Q1017,2024-08-03T17:00:00Z,26,12,6+,30.03
SBBW,-15.861,-52.389,60,7,8.05546,SBBW 031700Z 06007KT 9999 FEW020 34/12 Q1017,2024-08-03T17:00:00Z,34,12,6+,30.03
SBBV,2.846,-60.69,130,4,4.60312,SBBV 031700Z 13004KT 9999 BKN030 FEW035TCU 31/22 Q1012,2024-08-03T17:00:00Z,31,22,6+,29.88
SBBU,-22.345,-49.054,20,7,8.05546,SBBU 031700Z 02007KT 9999 FEW045 SCT060 31/09 Q1020,2024-08-03T17:00:00Z,31,9,6+,30.12
SBBR,-15.867,-47.933,80,9,10.357019999999999,SBBR 031700Z 08009G19KT 040V120 9999 SCT045 25/10 Q1022,2024-08-03T17:00:00Z,25,10,6+,30.18
SBBQ,-21.267,-43.761,120,6,6.904679999999999,SBBQ 031700Z 12006KT 080V210 9999 BKN025 21/14 Q1027,2024-08-03T17:00:00Z,21,14,6+,30.32
SBBI,-25.404,-49.232,350,17,19.56326,SBBI 031700Z 35017KT CAVOK 25/12 Q1021,2024-08-03T17:00:00Z,25,12,6+,30.15
SBBH,-19.851,-43.951,90,8,9.20624,SBBH 031700Z 09008KT 9999 BKN035 SCT070 24/14 Q1024,2024-08-03T17:00:00Z,24,14,6+,30.24
SBBE,-1.379,-48.476,110,10,11.5078,SBBE 031700Z 11010KT 9999 SCT045 33/21 Q1012,2024-08-03T17:00:00Z,33,21,6+,29.88
SBAX,-19.563,-46.96,60,9,10.357019999999999,SBAX 031700Z AUTO 06009KT 360V090 9999 FEW049 24/12 Q1023,2024-08-03T17:00:00Z,24,12,6+,30.21
SBAT,-9.872,-56.106,90,7,8.05546,SBAT 031700Z 09007KT CAVOK 37/10 Q1014,2024-08-03T17:00:00Z,37,10,6+,29.94
SBAR,-10.984,-37.07,120,12,13.809359999999998,SBAR 031700Z 12012KT 9999 SCT026 27/21 Q1017,2024-08-03T17:00:00Z,27,21,6+,30.03
SBAN,-16.229,-48.964,VRB,7,8.05546,SBAN 031700Z VRB07KT 9999 SCT045 25/08 Q1023,2024-08-03T17:00:00Z,25,8,6+,30.21
SBAF,-22.875,-43.385,50,7,8.05546,SBAF 031700Z 05007KT 9999 FEW030 28/15 Q1021,2024-08-03T17:00:00Z,28,15,6+,30.15
SAZS,-41.151,-71.157,300,23,26.46794,SAZS 031700Z 30023KT 9999 SCT016 BKN041 05/02 Q1010,2024-08-03T17:00:00Z,5,2,6+,29.82
SAZN,-38.95,-68.141,230,9,10.357019999999999,SAZN 031700Z 23009KT CAVOK 17/M01 Q1012,2024-08-03T17:00:00Z,17,-1,6+,29.88
SAZM,-37.932,-57.581,270,10,11.5078,SAZM 031700Z 27010KT CAVOK 17/07 Q1007,2024-08-03T17:00:00Z,17,7,6+,29.73
SAWH,-54.844,-68.308,160,13,14.960139999999999,SAWH 031700Z 16013KT 5000 -SN BKN015 BKN040 M01/M03 Q1002,2024-08-03T17:00:00Z,-1,-3,3.11,29.59
SAWG,-51.609,-69.306,360,4,4.60312,SAWG 031700Z 36004KT 340V040 4000 -RA BR FEW003 SCT013 02/M00 Q1001,2024-08-03T17:00:00Z,2,0,2.49,29.56
SAVC,-45.79,-67.471,260,19,21.864819999999998,SAVC 031700Z 26019KT CAVOK 14/00 Q1001,2024-08-03T17:00:00Z,14,0,6+,29.56
SASJ,-24.387,-65.098,170,10,11.5078,SASJ 031700Z 17010KT 120V210 7000 NSC 28/09 Q1010,2024-08-03T17:00:00Z,28,9,4.35,29.82
SASA,-24.856,-65.486,80,15,17.261699999999998,SASA 031700Z 08015KT CAVOK 27/04 Q1010,2024-08-03T17:00:00Z,27,4,6+,29.82
SARI,-25.737,-54.473,30,8,9.20624,SARI 031700Z 03008KT 360V080 CAVOK 28/15 Q1012,2024-08-03T17:00:00Z,28,15,6+,29.88
SARE,-27.45,-59.056,300,8,9.20624,SARE 031700Z 30008KT 250V340 8000 NSC 34/14 Q1005,2024-08-03T17:00:00Z,34,14,4.97,29.68
SAME,-32.832,-68.793,20,9,10.357019999999999,SAME 031700Z 02009KT CAVOK 18/M05 Q1015,2024-08-03T17:00:00Z,18,-5,6+,29.97
SAEZ,-34.822,-58.536,250,8,9.20624,SAEZ 031700Z 25008KT 9999 FEW021 SCT025 17/11 Q1011 NOSIG,2024-08-03T17:00:00Z,17,11,6+,29.85
SADF,-34.457,-58.593,250,9,10.357019999999999,SADF 031700Z 25009KT 9999 SCT027 16/11 Q1011,2024-08-03T17:00:00Z,16,11,6+,29.85
SACO,-31.324,-64.208,140,5,5.7539,SACO 031700Z 14005KT 060V210 CAVOK 21/02 Q1014 NOSIG,2024-08-03T17:00:00Z,21,2,6+,29.94
SABE,-34.559,-58.416,VRB,4,4.60312,SABE 031700Z VRB04KT 9999 SCT020 SCT028 17/11 Q1011 NOSIG,2024-08-03T17:00:00Z,17,11,6+,29.85
SAAR,-32.918,-60.782,180,7,8.05546,SAAR 031700Z 18007KT 140V220 9999 FEW022 SCT200 17/12 Q1012,2024-08-03T17:00:00Z,17,12,6+,29.88
RPVM,10.308,123.978,220,6,6.904679999999999,RPVM 031700Z 22006KT 9999 FEW018CB BKN100 27/25 Q1011 NOSIG RMK A2985 CB/OCNL LTG NE/SW-W,2024-08-03T17:00:00Z,27,25,6+,29.85
RPMD,7.125,125.646,360,4,4.60312,RPMD 031700Z 36004KT 9999 FEW016 SCT290 26/26 Q1011 RMK A2985,2024-08-03T17:00:00Z,26,26,6+,29.85
RPLL,14.507,121.004,310,3,3.4523399999999995,RPLL 031700Z 31003KT 260V010 9999 FEW025 28/24 Q1009 NOSIG RMK A2980,2024-08-03T17:00:00Z,28,24,6+,29.79
RPLC,15.186,120.56,140,1,1.15078,RPLC 031700Z 14001KT 8000 FEW020 25/24 Q1010 RMK A2983,2024-08-03T17:00:00Z,25,24,4.97,29.82
RPLB,14.794,120.271,60,4,4.60312,RPLB 031700Z 06004KT 9999 FEW020 BKN080 26/25 Q1010 NOSIG RMK A2983,2024-08-03T17:00:00Z,26,25,6+,29.82
ROYN,24.467,122.978,190,3,3.4523399999999995,ROYN 031700Z AUTO 19003KT 9999 NCD 28/26 Q1008,2024-08-03T17:00:00Z,28,26,6+,29.76
RORY,27.044,128.4,10,5,5.7539,RORY 031700Z AUTO 01005KT 9999 FEW016 29/27 Q1007,2024-08-03T17:00:00Z,29,27,6+,29.73
RORT,24.653,124.674,10,2,2.30156,RORT 031700Z AUTO 01002KT 9999 NCD 26/25 Q1008,2024-08-03T17:00:00Z,26,25,6+,29.76
RORS,24.827,125.145,280,3,3.4523399999999995,RORS 031700Z AUTO 28003KT 9999 FEW036 27/26 Q1008,2024-08-03T17:00:00Z,27,26,6+,29.76
RORK,25.944,131.326,20,11,12.658579999999999,RORK 031700Z AUTO 02011KT 9999 FEW021 29/25 Q1005,2024-08-03T17:00:00Z,29,25,6+,29.68
ROMY,24.782,125.295,VRB,1,1.15078,ROMY 031700Z AUTO VRB01KT 9999 SCT022 BKN027 BKN036 27/26 Q1008,2024-08-03T17:00:00Z,27,26,6+,29.76
ROMD,25.847,131.264,30,8,9.20624,ROMD 031700Z AUTO 03008KT 9999 FEW021 29/25 Q1005,2024-08-03T17:00:00Z,29,25,6+,29.68
ROIG,24.395,124.245,300,3,3.4523399999999995,ROIG 031700Z AUTO 30003KT 9999 NCD 27/27 Q1008,2024-08-03T17:00:00Z,27,27,6+,29.76
ROAH,26.196,127.646,350,6,6.904679999999999,ROAH 031700Z AUTO 35006KT 9999 FEW016 SCT031 29/27 Q1007 RMK A2975,2024-08-03T17:00:00Z,29,27,6+,29.73
RKTU,36.717,127.499,10,1,1.15078,RKTU 031700Z 01001KT CAVOK 26/25 Q1008,2024-08-03T17:00:00Z,26,25,6+,29.76
RKTN,35.894,128.659,70,1,1.15078,RKTN 031700Z 07001KT CAVOK 29/25 Q1008,2024-08-03T17:00:00Z,29,25,6+,29.76
RKSS,37.558,126.791,270,2,2.30156,RKSS 031700Z 27002KT CAVOK 26/26 Q1008 NOSIG,2024-08-03T17:00:00Z,26,26,6+,29.76
RKSI,37.469,126.451,310,2,2.30156,RKSI 031700Z 31002KT CAVOK 26/25 Q1008 NOSIG,2024-08-03T17:00:00Z,26,25,6+,29.76
RKPK,35.179,128.938,340,3,3.4523399999999995,RKPK 031700Z 34003KT 9999 FEW050 SCT100 27/26 Q1008,2024-08-03T17:00:00Z,27,26,6+,29.76
RKPC,33.511,126.493,210,1,1.15078,RKPC 031700Z 21001KT CAVOK 29/24 Q1008 NOSIG,2024-08-03T17:00:00Z,29,24,6+,29.76
RKNY,38.061,128.669,250,4,4.60312,RKNY 031700Z AUTO 25004KT 9999 NCD 26/23 Q1008,2024-08-03T17:00:00Z,26,23,6+,29.76
RJTT,35.553,139.781,190,6,6.904679999999999,RJTT 031700Z 19006KT 9999 FEW025 28/21 Q1008 NOSIG RMK 1CU025 A2978,2024-08-03T17:00:00Z,28,21,6+,29.76
RJSN,37.956,139.121,130,3,3.4523399999999995,RJSN 031700Z AUTO 13003KT 9999 NCD 27/25 Q1007,2024-08-03T17:00:00Z,27,25,6+,29.73
RJSM,40.705,141.372,260,3,3.4523399999999995,RJSM 031700Z 26003KT 9999 FEW030 BKN100 24/23 Q1008,2024-08-03T17:00:00Z,24,23,6+,29.76
RJSF,37.227,140.428,190,2,2.30156,RJSF 031700Z AUTO 19002KT 9999 NCD 23/22 Q1010,2024-08-03T17:00:00Z,23,22,6+,29.82
RJOS,34.132,134.609,110,5,5.7539,RJOS 031700Z 11005KT 9999 BKN003 28/27 Q1007,2024-08-03T17:00:00Z,28,27,6+,29.73
RJOO,34.784,135.439,280,3,3.4523399999999995,RJOO 031700Z AUTO 28003KT 210V310 9999 BKN036 30/25 Q1007 RMK A2976,2024-08-03T17:00:00Z,30,25,6+,29.73
RJOK,33.546,133.669,360,3,3.4523399999999995,RJOK 031700Z AUTO 36003KT 9999 FEW050 27/25 Q1007,2024-08-03T17:00:00Z,27,25,6+,29.73
RJOH,35.493,133.239,220,5,5.7539,RJOH 031700Z 22005KT 9999 FEW007 29/29 Q1008,2024-08-03T17:00:00Z,29,29,6+,29.76
RJOC,35.414,132.89,180,5,5.7539,RJOC 031700Z AUTO 18005KT 9999 NSC 28/27 Q1007,2024-08-03T17:00:00Z,28,27,6+,29.73
RJOA,34.436,132.919,320,2,2.30156,RJOA 031700Z AUTO 32002KT 9999 TS SCT021 BKN026 //////CB 28/25 Q1009,2024-08-03T17:00:00Z,28,25,6+,29.79
RJNK,36.394,136.407,160,3,3.4523399999999995,RJNK 031700Z 16003KT 130V190 9999 FEW050 27/26 Q1007,2024-08-03T17:00:00Z,27,26,6+,29.73
RJKI,28.321,129.928,20,6,6.904679999999999,RJKI 031700Z AUTO 02006KT 9999 FEW017 29/26 Q1007,2024-08-03T17:00:00Z,29,26,6+,29.73
RJKB,27.432,128.706,350,5,5.7539,RJKB 031700Z AUTO 35005KT 320V020 9999 FEW012 29/27 Q1007,2024-08-03T17:00:00Z,29,27,6+,29.73
RJKA,28.431,129.713,340,4,4.60312,RJKA 031700Z AUTO 34004KT 9999 FEW021 28/26 Q1007,2024-08-03T17:00:00Z,28,26,6+,29.73
RJGG,34.858,136.805,110,5,5.7539,RJGG 031700Z AUTO 11005KT 9999 NCD 28/26 Q1008 NOSIG,2024-08-03T17:00:00Z,28,26,6+,29.76
RJFR,33.846,131.035,VRB,2,2.30156,RJFR 031700Z AUTO VRB02KT 9999 SCT040 30/27 Q1007,2024-08-03T17:00:00Z,30,27,6+,29.73
RJFM,31.877,131.449,300,3,3.4523399999999995,RJFM 031700Z AUTO 30003KT 9999 NCD 29/26 Q1007,2024-08-03T17:00:00Z,29,26,6+,29.73
RJFF,33.584,130.452,310,3,3.4523399999999995,RJFF 031700Z AUTO 31003KT 280V340 9999 FEW047 30/26 Q1007 NOSIG RMK A2976,2024-08-03T17:00:00Z,30,26,6+,29.73
RJEC,43.671,142.447,160,8,9.20624,RJEC 031700Z AUTO 16008KT 9999 BKN021 OVC024 //////TCU 23/22 Q1008,2024-08-03T17:00:00Z,23,22,6+,29.76
RJDC,33.93,131.279,350,3,3.4523399999999995,RJDC 031700Z AUTO 35003KT 300V040 9999 FEW036 SCT047 30/27 Q1007,2024-08-03T17:00:00Z,30,27,6+,29.73
RJDB,33.749,129.785,230,3,3.4523399999999995,RJDB 031700Z AUTO 23003KT 210V270 9999 NCD 29/28 Q1007,2024-08-03T17:00:00Z,29,28,6+,29.73
RJCK,43.041,144.193,190,6,6.904679999999999,RJCK 031700Z AUTO 19006KT 0900 R35/1400VP2000N -RA FG OVC001 20/20 Q1008,2024-08-03T17:00:00Z,20,20,0.56,29.76
RJCH,41.77,140.822,VRB,1,1.15078,RJCH 031700Z AUTO VRB01KT 9000 BKN001 OVC023 25/24 Q1007,2024-08-03T17:00:00Z,25,24,5.59,29.73
RJCC,42.774,141.693,160,7,8.05546,RJCC 031700Z 16007KT 8000 FEW004 BKN005 BKN006 23/22 Q1008 RMK 1ST004 5ST005 7ST006 A2977,2024-08-03T17:00:00Z,23,22,4.97,29.76
RJBB,34.434,135.233,270,4,4.60312,RJBB 031700Z AUTO 27004KT 240V300 9999 BKN050 BKN060 28/26 Q1007 NOSIG,2024-08-03T17:00:00Z,28,26,6+,29.73
RJAH,36.182,140.415,140,3,3.4523399999999995,RJAH 031700Z 14003KT 9999 FEW015 BKN040 25/23 Q1008,2024-08-03T17:00:00Z,25,23,6+,29.76
RJAA,35.765,140.386,VRB,1,1.15078,RJAA 031700Z AUTO VRB01KT 9999 BKN046 OVC050 25/24 Q1008 NOSIG RMK A2978,2024-08-03T17:00:00Z,25,24,6+,29.76
RCTP,25.078,121.233,330,3,3.4523399999999995,RCTP 031700Z 33003KT 300V360 9999 FEW020 28/28 Q1008 NOSIG RMK A2978,2024-08-03T17:00:00Z,28,28,6+,29.76
RCSS,25.069,121.552,90,4,4.60312,RCSS 031700Z 09004KT 9999 FEW025 28/25 Q1008 NOSIG RMK A2977,2024-08-03T17:00:00Z,28,25,6+,29.76
RCNN,22.95,120.206,110,2,2.30156,RCNN 031700Z 11002KT 9999 FEW012 SCT060 27/25 Q1009 RMK A2980,2024-08-03T17:00:00Z,27,25,6+,29.79
RCMQ,24.265,120.621,220,4,4.60312,RCMQ 031700Z 22004KT 9999 FEW012 28/26 Q1010 RMK A2983,2024-08-03T17:00:00Z,28,26,6+,29.82
RCKH,22.577,120.35,70,3,3.4523399999999995,RCKH 031700Z 07003KT 9999 SCT018 SCT200 29/26 Q1008 NOSIG RMK A2978,2024-08-03T17:00:00Z,29,26,6+,29.76
PLCH,1.988,-157.349,110,3,3.4523399999999995,PLCH 031700Z 11003KT 9999 CT019 25/23 Q1012,2024-08-03T17:00:00Z,25,23,6+,29.88
PABT,66.9176,-151.519,120,4,4.60312,PABT 031700Z 12004KT 5SM BR FEW005 SCT012 OVC020 09/09 A3015 RMK AO2 RAE1657 P0000 T00940089 $,2024-08-03T17:00:00Z,9.4,8.9,5,30.15
OYSY,15.966,48.788,310,1,1.15078,OYSY 031700Z 31001KT CAVOK 37/13 Q1004,2024-08-03T17:00:00Z,37,13,6+,29.65
OYAA,12.829,45.029,240,17,19.56326,OYAA 031700Z 24017KT 5000 DU FEW035CB BKN080 30/23 Q1002 NOSIG,2024-08-03T17:00:00Z,30,23,3.11,29.59
OTHH,25.273,51.609,330,13,14.960139999999999,OTHH 031700Z 33013KT CAVOK 37/15 Q0996 NOSIG,2024-08-03T17:00:00Z,37,15,6+,29.41
ORSU,35.56,45.318,260,6,6.904679999999999,ORSU 031700Z 26006KT 9999 FEW045 33/05 Q1003,2024-08-03T17:00:00Z,33,5,6+,29.62
ORNI,31.99,44.405,300,8,9.20624,ORNI 031700Z 30008KT 8000 NSC 40/03 Q0998,2024-08-03T17:00:00Z,40,3,4.97,29.47
ORMM,30.549,47.662,280,10,11.5078,ORMM 031700Z 28010G20KT CAVOK 39/07 Q0996 NOSIG,2024-08-03T17:00:00Z,39,7,6+,29.41
ORER,36.232,43.951,260,7,8.05546,ORER 031700Z 26007KT 8000 NSC 35/03 Q1000,2024-08-03T17:00:00Z,35,3,4.97,29.53
ORBI,33.263,44.235,260,7,8.05546,ORBI 031700Z 26007KT CAVOK 39/07 Q0997 NOSIG,2024-08-03T17:00:00Z,39,7,6+,29.44
OPST,32.536,74.364,50,4,4.60312,OPST 031700Z 05004KT 4000 FU SCT100 31/25 Q1002 NOSIG RH72,2024-08-03T17:00:00Z,31,25,2.49,29.59
OPSK,27.722,68.792,310,6,6.904679999999999,OPSK 031700Z 31006KT 3000 TSRA SCT040 BKN100 27/27 Q0999 TEMPO TSRA,2024-08-03T17:00:00Z,27,27,1.86,29.50
OMSJ,25.329,55.517,320,3,3.4523399999999995,OMSJ 031700Z 32003KT CAVOK 36/31 Q0996 NOSIG,2024-08-03T17:00:00Z,36,31,6+,29.41
OMRK,25.613,55.939,310,4,4.60312,OMRK 031700Z 31004KT CAVOK 37/28 Q0995 A2940,2024-08-03T17:00:00Z,37,28,6+,29.38
OMFJ,25.112,56.324,150,5,5.7539,OMFJ 031700Z 15005KT 120V180 5000 HZ NSC 33/29 Q0996 A2942,2024-08-03T17:00:00Z,33,29,3.11,29.41
OMDW,24.897,55.161,280,10,11.5078,OMDW 031700Z 28010KT CAVOK 35/29 Q0996 NOSIG,2024-08-03T17:00:00Z,35,29,6+,29.41
OMDB,25.254,55.366,340,6,6.904679999999999,OMDB 031700Z 34006KT 310V030 7000 NSC 36/30 Q0995 NOSIG,2024-08-03T17:00:00Z,36,30,4.35,29.38
OMAL,24.262,55.609,290,13,14.960139999999999,OMAL 031700Z 29013G24KT CAVOK 36/26 Q0998 NOSIG,2024-08-03T17:00:00Z,36,26,6+,29.47
OMAD,24.428,54.458,300,10,11.5078,OMAD 031700Z 30010KT CAVOK 35/27 Q0996 NOSIG,2024-08-03T17:00:00Z,35,27,6+,29.41
OMAA,24.433,54.651,280,10,11.5078,OMAA 031700Z 28010KT CAVOK 35/28 Q0995 NOSIG,2024-08-03T17:00:00Z,35,28,6+,29.38
OLBA,33.82,35.491,210,8,9.20624,OLBA 031700Z 21008KT CAVOK 29/22 Q1007 NOSIG,2024-08-03T17:00:00Z,29,22,6+,29.73
OKKK,29.227,47.969,340,15,17.261699999999998,OKKK 031700Z 34015KT CAVOK 42/07 Q0997 NOSIG,2024-08-03T17:00:00Z,42,7,6+,29.44
OJAQ,29.612,35.018,190,10,11.5078,OJAQ 031700Z 19010KT CAVOK 38/12 Q1003 NOSIG,2024-08-03T17:00:00Z,38,12,6+,29.62
OJAM,31.973,35.992,320,11,12.658579999999999,OJAM 031700Z 32011KT 7000 NSC 26/13 Q1010 NOSIG,2024-08-03T17:00:00Z,26,13,4.35,29.82
OJAI,31.723,35.993,280,10,11.5078,OJAI 031700Z 28010KT 5000 HZ NSC 29/12 Q1009 NOSIG,2024-08-03T17:00:00Z,29,12,3.11,29.79
OIZJ,25.653,57.798,220,4,4.60312,OIZJ 031700Z 22004KT 5000 BR NSC 32/28 Q0995,2024-08-03T17:00:00Z,32,28,3.11,29.38
OIZI,27.236,60.72,260,12,13.809359999999998,OIZI 031700Z 26012KT 5000 SA NSC 41/17 Q0998,2024-08-03T17:00:00Z,41,17,3.11,29.47
OIZC,25.445,60.383,120,12,13.809359999999998,OIZC 031700Z 12012KT 3000 BR FEW035 29/26 Q0996 A2941,2024-08-03T17:00:00Z,29,26,1.86,29.41
OIZB,31.094,61.546,340,27,31.07106,OIZB 031700Z 34027KT CAVOK 39/06 Q0997,2024-08-03T17:00:00Z,39,6,6+,29.44
OITR,37.665,45.066,260,2,2.30156,OITR 031700Z 26002KT 9999 FEW035CB BKN040 23/15 Q1008 A2978,2024-08-03T17:00:00Z,23,15,6+,29.76
OITP,39.604,47.882,0,0,0.0,OITP 031700Z 00000KT CAVOK 30/16 Q1003,2024-08-03T17:00:00Z,30,16,6+,29.62
OITM,37.348,46.146,80,2,2.30156,OITM 031700Z 08002KT 9999 FEW035 27/08 Q1007,2024-08-03T17:00:00Z,27,8,6+,29.73
OITL,38.326,48.424,100,12,13.809359999999998,OITL 031700Z 10012KT CAVOK 19/12 Q1013,2024-08-03T17:00:00Z,19,12,6+,29.91
OISY,30.701,51.545,0,0,0.0,OISY 031700Z 00000KT CAVOK 26/06 Q1012,2024-08-03T17:00:00Z,26,6,6+,29.88
OISL,27.67,54.375,210,6,6.904679999999999,OISL 031700Z 21006KT CAVOK 39/20 Q0999 A2952,2024-08-03T17:00:00Z,39,20,6+,29.50
OISF,28.895,53.72,200,8,9.20624,OISF 031700Z 20008KT 8000 FEW035CB SCT040 BKN100 36/06 Q1006 A2971,2024-08-03T17:00:00Z,36,6,4.97,29.70
OISA,31.033,52.786,240,12,13.809359999999998,OISA 031700Z 24012KT CAVOK 32/01 Q1011 A2986,2024-08-03T17:00:00Z,32,1,6+,29.85
OINZ,36.636,53.194,210,4,4.60312,OINZ 031700Z 21004KT 9999 SCT040 OVC070 25/19 Q1006,2024-08-03T17:00:00Z,25,19,6+,29.70
OINR,36.91,50.68,210,2,2.30156,OINR 031700Z 21002KT 9999 FEW026 26/23 Q1003,2024-08-03T17:00:00Z,26,23,6+,29.62
OINN,36.663,51.465,180,2,2.30156,OINN 031700Z 18002KT 9999 FEW027 25/21 Q1003,2024-08-03T17:00:00Z,25,21,6+,29.62
OINK,37.245,55.093,180,6,6.904679999999999,OINK 031700Z 18006KT 9999 SCT030 BKN080 26/23 Q1004 A2967,2024-08-03T17:00:00Z,26,23,6+,29.65
OING,36.908,54.404,220,10,11.5078,OING 031700Z 22010KT 4000 -DZ BR OVC015 24/22 Q1007,2024-08-03T17:00:00Z,24,22,2.49,29.73
OINE,37.383,55.452,190,6,6.904679999999999,OINE 031700Z 19006KT 9999 SCT030 BKN090 26/23 Q1005,2024-08-03T17:00:00Z,26,23,6+,29.68
OINB,36.71,52.65,0,0,0.0,OINB 031700Z 00000KT 9999 SCT033 BKN090 26/22 Q1006,2024-08-03T17:00:00Z,26,22,6+,29.70
OIMN,37.488,57.303,280,16,18.41248,OIMN 031700Z 28016KT CAVOK 26/17 Q1010,2024-08-03T17:00:00Z,26,17,6+,29.82
OIMB,32.894,59.29,100,8,9.20624,OIMB 031700Z 10008KT 8000 NSC 29/M01 Q1010 A2983,2024-08-03T17:00:00Z,29,-1,4.97,29.82
OIKQ,26.755,55.902,200,4,4.60312,OIKQ 031700Z 20004KT 7000 NSC 34/30 Q0994,2024-08-03T17:00:00Z,34,30,4.35,29.35
OIKO,27.1,57.083,210,2,2.30156,OIKO 031700Z 21002KT 5000 HZ NSC 34/28 Q0995,2024-08-03T17:00:00Z,34,28,3.11,29.38
OIKK,30.251,56.964,190,6,6.904679999999999,OIKK 031700Z 19006KT 9999 FEW040 SCT100 34/02 Q1010 A2985,2024-08-03T17:00:00Z,34,2,6+,29.82
OIIP,35.776,50.827,280,16,18.41248,OIIP 031700Z 28016KT 6000 NSC 26/11 Q1005 A2970,2024-08-03T17:00:00Z,26,11,3.73,29.68
OIIK,36.243,50.045,360,4,4.60312,OIIK 031700Z 36004KT CAVOK 28/13 Q1007 A2975,2024-08-03T17:00:00Z,28,13,6+,29.73
OIHM,34.28,48.82,310,2,2.30156,OIHM 031700Z 31002KT CAVOK 29/M01 Q1010,2024-08-03T17:00:00Z,29,-1,6+,29.82
OIHH,34.869,48.553,240,6,6.904679999999999,OIHH 031700Z 24006KT CAVOK 29/M02 Q1010 A2983,2024-08-03T17:00:00Z,29,-2,6+,29.82
OIGK,34.355,47.144,120,2,2.30156,OIGK 031700Z 12002KT 9999 FEW020 19/11 Q1016,2024-08-03T17:00:00Z,19,11,6+,30.00
OIGG,37.325,49.606,0,0,0.0,OIGG 031700Z 00000KT 9999 BKN070 26/17 Q1005,2024-08-03T17:00:00Z,26,17,6+,29.68
OIFS,32.297,50.842,40,2,2.30156,OIFS 031700Z 04002KT CAVOK 27/M01 Q1013,2024-08-03T17:00:00Z,27,-1,6+,29.91
OIFK,33.895,51.577,0,0,0.0,OIFK 031700Z 00000KT 7000 NSC 37/06 Q1001 A2957,2024-08-03T17:00:00Z,37,6,4.35,29.56
OICS,35.245,47.009,170,4,4.60312,OICS 031700Z 17004KT CAVOK 32/03 Q1008 A2977,2024-08-03T17:00:00Z,32,3,6+,29.76
OICK,33.435,48.283,220,4,4.60312,OICK 031700Z 22004KT CAVOK 31/00 Q1005,2024-08-03T17:00:00Z,31,0,6+,29.68
OICI,33.588,46.397,330,4,4.60312,OICI 031700Z 33004KT CAVOK 28/03 Q1010 A2983,2024-08-03T17:00:00Z,28,3,6+,29.82
OICC,34.346,47.158,300,10,11.5078,OICC 031700Z 30010KT CAVOK 31/M00 Q1008 A2977,2024-08-03T17:00:00Z,31,0,6+,29.76
OIBP,27.38,52.738,260,4,4.60312,OIBP 031700Z 26004KT CAVOK 36/27 Q0994 A2936,2024-08-03T17:00:00Z,36,27,6+,29.35
OIBL,26.532,54.825,270,6,6.904679999999999,OIBL 031700Z 27006KT 3000 BR NSC 34/31 Q0992,2024-08-03T17:00:00Z,34,31,1.86,29.29
OIBK,26.526,53.98,310,6,6.904679999999999,OIBK 031700Z 31006KT 4000 BR NSC 34/31 Q0994,2024-08-03T17:00:00Z,34,31,2.49,29.35
OIBB,28.947,50.834,280,6,6.904679999999999,OIBB 031700Z 28006KT CAVOK 34/24 Q0994 A2938,2024-08-03T17:00:00Z,34,24,6+,29.35
OIAM,30.556,49.152,290,6,6.904679999999999,OIAM 031700Z 29006KT CAVOK 39/16 Q0994,2024-08-03T17:00:00Z,39,16,6+,29.35
OIAH,30.336,50.83,270,6,6.904679999999999,OIAH 031700Z 27006KT CAVOK 36/06 Q1002,2024-08-03T17:00:00Z,36,6,6+,29.59
OIAG,30.74,49.684,270,8,9.20624,OIAG 031700Z 27008KT CAVOK 37/07 Q0995,2024-08-03T17:00:00Z,37,7,6+,29.38
OIAA,30.366,48.23,270,8,9.20624,OIAA 031700Z 27008KT CAVOK 38/12 Q0996,2024-08-03T17:00:00Z,38,12,6+,29.41
OEYN,24.144,38.063,230,8,9.20624,OEYN 031700Z 23008KT 9999 FEW040 34/25 Q1002 NOSIG,2024-08-03T17:00:00Z,34,25,6+,29.59
OEWJ,26.199,36.476,300,6,6.904679999999999,OEWJ 031700Z 30006KT CAVOK 33/27 Q1003 NOSIG,2024-08-03T17:00:00Z,33,27,6+,29.62
OEWD,20.504,45.197,30,2,2.30156,OEWD 031700Z 03002KT CAVOK 40/00 Q1003,2024-08-03T17:00:00Z,40,0,6+,29.62
OETR,31.693,38.731,270,12,13.809359999999998,OETR 031700Z 27012KT CAVOK 32/06 Q1007 NOSIG,2024-08-03T17:00:00Z,32,6,6+,29.73
OETF,21.483,40.544,300,14,16.11092,OETF 031700Z 30014KT 9999 SCT030 26/19 Q1017 NOSIG,2024-08-03T17:00:00Z,26,19,6+,30.03
OETB,28.366,36.619,280,8,9.20624,OETB 031700Z 28008KT CAVOK 35/05 Q1008 NOSIG,2024-08-03T17:00:00Z,35,5,6+,29.76
OESK,29.785,40.1,310,12,13.809359999999998,OESK 031700Z 31012KT CAVOK 35/02 Q1008 NOSIG,2024-08-03T17:00:00Z,35,2,6+,29.76
OESH,17.467,47.121,50,4,4.60312,OESH 031700Z 05004KT 9999 SCT040 SCT080 39/08 Q1005 NOSIG,2024-08-03T17:00:00Z,39,8,6+,29.68
OERS,-99.99,-99.99,260,6,6.904679999999999,OERS 031700Z 26006KT CAVOK 34/25 Q1003 NOSIG,2024-08-03T17:00:00Z,34,25,6+,29.62
OERR,30.907,41.138,340,12,13.809359999999998,OERR 031700Z 34012KT CAVOK 35/M03 Q1004 NOSIG,2024-08-03T17:00:00Z,35,-3,6+,29.65
OERK,24.945,46.702,330,10,11.5078,OERK 031700Z 33010KT CAVOK 39/01 Q1005 NOSIG,2024-08-03T17:00:00Z,39,1,6+,29.68
OERF,29.626,43.491,280,7,8.05546,OERF 031700Z 28007KT CAVOK 36/03 Q1002 NOSIG,2024-08-03T17:00:00Z,36,3,6+,29.59
OEPA,28.335,46.125,330,8,9.20624,OEPA 031700Z 33008KT CAVOK 39/02 Q1002 NOSIG,2024-08-03T17:00:00Z,39,2,6+,29.59
OENG,17.611,44.419,60,6,6.904679999999999,OENG 031700Z 06006KT 9999 SCT030 SCT090 35/07 Q1010 NOSIG,2024-08-03T17:00:00Z,35,7,6+,29.82
OEMN,-99.99,-99.99,340,4,4.60312,OEMN 031700Z 34004KT CAVOK 34/26 Q1008,2024-08-03T17:00:00Z,34,26,6+,29.76
OEMA,24.553,39.705,310,6,6.904679999999999,OEMA 031700Z 31006KT CAVOK 38/04 Q1008 NOSIG,2024-08-03T17:00:00Z,38,4,6+,29.76
OEKM,18.301,42.798,220,10,11.5078,OEKM 031700Z 22010KT 9999 SCT022 21/16 Q1021 NOSIG,2024-08-03T17:00:00Z,21,16,6+,30.15
OEKJ,24.07,47.58,290,5,5.7539,OEKJ 031700Z 29005KT CAVOK 39/01 Q1005,2024-08-03T17:00:00Z,39,1,6+,29.68
OEJN,21.685,39.166,270,4,4.60312,OEJN 031700Z 27004KT 9999 FEW040 34/24 Q1005 NOSIG,2024-08-03T17:00:00Z,34,24,6+,29.68
OEHL,27.438,41.686,310,12,13.809359999999998,OEHL 031700Z 31012KT CAVOK 35/08 Q1010,2024-08-03T17:00:00Z,35,8,6+,29.82
OEGT,31.412,37.279,280,10,11.5078,OEGT 031700Z 28010KT CAVOK 33/05 Q1006 NOSIG,2024-08-03T17:00:00Z,33,5,6+,29.70
OEGS,26.303,43.774,340,8,9.20624,OEGS 031700Z 34008KT CAVOK 37/04 Q1005,2024-08-03T17:00:00Z,37,4,6+,29.68
OEGN,16.901,42.586,60,6,6.904679999999999,OEGN 031700Z 06006KT 9999 SCT025 FEW030CB BKN100 30/26 Q1006 NOSIG,2024-08-03T17:00:00Z,30,26,6+,29.70
OEDR,26.265,50.152,10,4,4.60312,OEDR 031700Z 01004KT CAVOK 37/08 Q0996,2024-08-03T17:00:00Z,37,8,6+,29.41
OEDM,24.45,44.121,360,7,8.05546,OEDM 031700Z 36007KT CAVOK 36/01 Q1008,2024-08-03T17:00:00Z,36,1,6+,29.76
OEDF,26.45,49.817,30,2,2.30156,OEDF 031700Z 03002KT CAVOK 37/05 Q0996 NOSIG,2024-08-03T17:00:00Z,37,5,6+,29.41
OEBH,19.984,42.621,300,4,4.60312,OEBH 031700Z 30004KT 9999 SCT030 34/08 Q1010 NOSIG,2024-08-03T17:00:00Z,34,8,6+,29.82
OEBA,20.296,41.634,300,20,23.0156,OEBA 031700Z 30020KT 9999 FEW025CB SCT030 27/15 Q1017 NOSIG,2024-08-03T17:00:00Z,27,15,6+,30.03
OEAO,26.483,38.117,280,12,13.809359999999998,OEAO 031700Z 28012KT CAVOK 37/08 Q1007 NOSIG,2024-08-03T17:00:00Z,37,8,6+,29.73
OEAH,25.285,49.485,10,6,6.904679999999999,OEAH 031700Z 01006KT CAVOK 39/M01 Q0999 NOSIG,2024-08-03T17:00:00Z,39,-1,6+,29.50
OEAB,18.24,42.657,200,7,8.05546,OEAB 031700Z 20007KT 9999 FEW020 20/17 Q1021 NOSIG,2024-08-03T17:00:00Z,20,17,6+,30.15
NZWN,-41.331,174.806,20,4,4.60312,NZWN 031700Z AUTO 02004KT 9999 NCD 03/01 Q1023,2024-08-03T17:00:00Z,3,1,6+,30.21
NZQN,-45.021,168.739,30,6,6.904679999999999,NZQN 031700Z AUTO 03006KT 9999 NCD M03/M05 Q1022,2024-08-03T17:00:00Z,-3,-5,6+,30.18
NZCH,-43.489,172.528,240,3,3.4523399999999995,NZCH 031700Z AUTO 24003KT 9999 NCD M05/M05 Q1022,2024-08-03T17:00:00Z,-5,-5,6+,30.18
NZAA,-37.008,174.792,130,9,10.357019999999999,NZAA 031700Z AUTO 13009KT 9999 FEW044/// BKN050/// 08/05 Q1020,2024-08-03T17:00:00Z,8,5,6+,30.12
NVVV,-17.695,168.313,150,6,6.904679999999999,NVVV 031700Z 15006KT 100V170 9999 -RA FEW008 BKN015 OVC090 20/19 Q1016 INTER 1700/1900 8000 SHRA FEW010 BKN015 OVC038,2024-08-03T17:00:00Z,20,19,6+,30.00
NVSS,-15.505,167.22,170,10,11.5078,NVSS 031700Z AUTO 17010KT //// // NCD 24/21 Q1013,2024-08-03T17:00:00Z,24,21,,29.91
NTAA,-17.554,-149.607,180,6,6.904679999999999,NTAA 031700Z AUTO 18006KT 9999 FEW043 21/16 Q1017 NOSIG,2024-08-03T17:00:00Z,21,16,6+,30.03
NSFA,-13.829,-171.993,110,5,5.7539,NSFA 031700Z 11005KT 9999 FEW022 BKN045 24/22 Q1013,2024-08-03T17:00:00Z,24,22,6+,29.91
NLWW,-13.238,-176.199,100,3,3.4523399999999995,NLWW 031700Z AUTO 10003KT 060V120 9999 FEW019/// 25/23 Q1012 NOSIG,2024-08-03T17:00:00Z,25,23,6+,29.88
NIUE,-19.079,-169.926,80,4,4.60312,NIUE 031700Z AUTO 08004KT 9999 OVC055/// 21/20 Q1015,2024-08-03T17:00:00Z,21,20,6+,29.97
NGTA,1.381,173.147,110,5,5.7539,NGTA 031700Z 11005KT 9999 FEW019 28/25 Q1010,2024-08-03T17:00:00Z,28,25,6+,29.82
NFTV,-18.585,-173.963,20,8,9.20624,NFTV 031700Z 02008KT 9999 FEW018 22/20 Q1015,2024-08-03T17:00:00Z,22,20,6+,29.97
NFTF,-21.241,-175.15,340,10,11.5078,NFTF 031700Z 34010KT 9999 FEW010 SCT015TCU 24/22 Q1013,2024-08-03T17:00:00Z,24,22,6+,29.91
NFNA,-18.043,178.559,0,0,0.0,NFNA 031700Z 00000KT 9999 FEW020 SCT045 22/21 Q1013,2024-08-03T17:00:00Z,22,21,6+,29.91
NFFN,-17.755,177.443,130,5,5.7539,NFFN 031700Z 13005KT 9999 FEW030 20/19 Q1014 NOSIG,2024-08-03T17:00:00Z,20,19,6+,29.94
NCSW,-99.99,-99.99,,,,NCSW 031700Z AUTO NIL,2024-08-03T17:00:00Z,,,,
NCRK,-10.032,-161.101,,,,NCRK 031700Z AUTO NIL,2024-08-03T17:00:00Z,,,,
NCRG,-21.203,-159.806,170,1,1.15078,NCRG 031700Z AUTO 17001KT 9999 OVC047/// 19/16 Q1019,2024-08-03T17:00:00Z,19,16,6+,30.09
NCPY,-9.01,-158.034,130,5,5.7539,NCPY 031700Z AUTO 13005KT //// ////// 27/24 Q1012,2024-08-03T17:00:00Z,27,24,,29.88
NCPL,1.98,-157.48,,,,NCPL 031700Z AUTO NIL,2024-08-03T17:00:00Z,,,,
NCPK,-10.915,-165.839,,,,NCPK 031700Z AUTO NIL,2024-08-03T17:00:00Z,,,,
NCNS,-99.99,-99.99,,,,NCNS 031700Z AUTO NIL,2024-08-03T17:00:00Z,,,,
NCMR,-19.842,-157.703,130,2,2.30156,NCMR 031700Z AUTO 13002KT //// ////// 22/14 Q1017,2024-08-03T17:00:00Z,22,14,,30.03
NCMK,-20.137,-157.344,140,1,1.15078,NCMK 031700Z AUTO 14001KT //// ////// 20/16 Q1016,2024-08-03T17:00:00Z,20,16,,30.00
NCMH,-10.374,-161.004,140,4,4.60312,NCMH 031700Z AUTO 14004KT //// ////// 28/23 Q1012,2024-08-03T17:00:00Z,28,23,,29.88
NCMG,-21.896,-157.907,80,3,3.4523399999999995,NCMG 031700Z AUTO 08003KT //// ////// 17/15 Q1013,2024-08-03T17:00:00Z,17,15,,29.91
NCAT,-19.968,-158.119,,,,NCAT 031700Z AUTO NIL,2024-08-03T17:00:00Z,,,,
NCAI,-18.829,-159.766,100,8,9.20624,NCAI 031700Z AUTO 10008KT //// ////// 22/16 Q1018,2024-08-03T17:00:00Z,22,16,,30.06
MZBZ,17.538,-88.309,300,5,5.7539,MZBZ 031700Z 30005KT 9999 FEW022 30/25 A2993 Q1013 NOSIG,2024-08-03T17:00:00Z,30,25,6+,29.91
MYNN,25.04,-77.467,150,19,21.864819999999998,MYNN 031700Z 15019KT 9999 FEW015CB SCT022 BKN220 32/25 A3000 CB/LTG DSNT W,2024-08-03T17:00:00Z,32,25,6+,30.00
MYGF,26.555,-78.698,130,11,12.658579999999999,MYGF 031700Z 13011KT 9999 VCSH FEW020TCU BKN180 BKN200 29/26 A2999 RETS TSE50 RESH RAE26,2024-08-03T17:00:00Z,29,26,6+,29.99
MYCB,24.315,-75.452,120,17,19.56326,MYCB 031700Z AUTO 12017KT 9999 // BKN022 //////TCU 31/26 A3002,2024-08-03T17:00:00Z,31,26,6+,30.02
MYAF,24.689,-77.796,130,15,17.261699999999998,MYAF 031700Z AUTO 13015KT 9999 SCT017 30/26 A2998,2024-08-03T17:00:00Z,30,26,6+,29.98
MWCR,19.294,-81.357,200,14,16.11092,MWCR 031700Z 20014KT 9999 FEW018 SCT035 30/23 Q1012,2024-08-03T17:00:00Z,30,23,6+,29.88
MWCB,19.688,-79.879,170,12,13.809359999999998,MWCB 031700Z 17012KT 9999 BKN016CB 30/25 Q1013,2024-08-03T17:00:00Z,30,25,6+,29.91
MTPP,18.577,-72.305,110,12,13.809359999999998,MTPP 031700Z 11012G24KT 9999 SCT026CB 35/23 Q1014 A2994 RMK/CB/S/SE/SW,2024-08-03T17:00:00Z,35,23,6+,29.94
MSSS,13.704,-89.123,130,4,4.60312,MSSS 031700Z 13004KT 050V180 9999 SCT023 27/21 Q1016 A3001,2024-08-03T17:00:00Z,27,21,6+,30.00
MSLP,13.438,-89.056,VRB,1,1.15078,MSLP 031700Z VRB01KT 9999 SCT023 FEW027TCU 32/23 Q1012 A2988 NOSIG RMK TCU NW,2024-08-03T17:00:00Z,32,23,6+,29.88
MRPV,9.957,-84.141,80,9,10.357019999999999,MRPV 031700Z 08009KT 9999 FEW030 BKN200 25/17 A3008 NOSIG,2024-08-03T17:00:00Z,25,17,6+,30.08
MROC,9.991,-84.218,100,8,9.20624,MROC 031700Z 10008KT 9999 FEW040 BKN200 27/18 A3003 NOSIG,2024-08-03T17:00:00Z,27,18,6+,30.03
MRLM,9.961,-83.026,300,4,4.60312,MRLM 031700Z 30004KT CAVOK 30/25 A2991,2024-08-03T17:00:00Z,30,25,6+,29.91
MRLB,10.589,-85.552,130,8,9.20624,MRLB 031700Z 13008KT 9999 FEW025 SCT250 30/23 A2985,2024-08-03T17:00:00Z,30,23,6+,29.85
MPTO,9.056,-79.391,150,7,8.05546,MPTO 031700Z 15007KT 9999 SCT018TCU 31/25 Q1012 NOSIG,2024-08-03T17:00:00Z,31,25,6+,29.88
MPPA,8.909,-79.597,200,4,4.60312,MPPA 031700Z 20004KT 9999 SCT018TCU 30/27 Q1012,2024-08-03T17:00:00Z,30,27,6+,29.88
MPMG,8.967,-79.555,VRB,5,5.7539,MPMG 031700Z VRB05KT 9999 SCT018CB 30/25 Q1013 NOSIG,2024-08-03T17:00:00Z,30,25,6+,29.91
MPDA,8.391,-82.434,VRB,4,4.60312,MPDA 031700Z VRB04KT 9999 FEW017 SCT100 31/23 Q1011,2024-08-03T17:00:00Z,31,23,6+,29.85
MPBO,9.341,-82.245,230,7,8.05546,MPBO 031700Z 23007KT 9999 SCT030 SCT080 ///// Q1013,2024-08-03T17:00:00Z,,,6+,29.91
MNRS,11.417,-85.833,80,4,4.60312,MNRS 031700Z 08004KT 9999 FEW012CB SCT014 30/25 Q2011 CB/E/SE/S,2024-08-03T17:00:00Z,30,25,6+,
MNPC,14.045,-83.388,90,6,6.904679999999999,MNPC 031700Z 09006KT 7000 FEW016 SCT300 30/25 Q1010 HZ,2024-08-03T17:00:00Z,30,25,4.35,29.82
MNMG,12.141,-86.177,100,8,9.20624,MNMG 031700Z 10008KT 9999 SCT025 SCT300 31/24 Q1011 A2988 NOSIG,2024-08-03T17:00:00Z,31,24,6+,29.85
MNJU,12.1,-85.367,90,4,4.60312,MNJU 031700Z 09004KT 9999 SCT020 SCT080 31/24 Q1011,2024-08-03T17:00:00Z,31,24,6+,29.85
MNJG,13.141,-86.019,90,6,6.904679999999999,MNJG 031700Z 09006KT 9999 SCT020 27/15 Q1015,2024-08-03T17:00:00Z,27,15,6+,29.97
MNCH,12.638,-87.136,350,4,4.60312,MNCH 031700Z 35004KT 9999 FEW025 SCT280 30/25 Q1012,2024-08-03T17:00:00Z,30,25,6+,29.88
MNBL,11.995,-83.768,260,4,4.60312,MNBL 031700Z 26004KT 8000 VCRA BKN017 27/26 Q1013 REDZ RA/SW/W/NW,2024-08-03T17:00:00Z,27,26,4.97,29.91
MKJS,18.502,-77.915,50,12,13.809359999999998,MKJS 031700Z 05012KT 9999 FEW020 31/25 Q1013,2024-08-03T17:00:00Z,31,25,6+,29.91
MKJP,17.942,-76.798,140,18,20.714039999999997,MKJP 031700Z 14018KT 9999 FEW022 33/26 Q1014,2024-08-03T17:00:00Z,33,26,6+,29.94
MHTR,15.926,-85.939,260,5,5.7539,MHTR 031700Z 26005KT 9999 SCT025TCU FEW028CB 31/25,2024-08-03T17:00:00Z,31,25,6+,
MHTG,14.06,-87.216,0,0,0.0,MHTG 031700Z 00000KT 9999 FEW032 26/18 Q1019 A3009 NOSIG,2024-08-03T17:00:00Z,26,18,6+,30.09
MHTE,15.776,-87.473,360,6,6.904679999999999,MHTE 031700Z 36006KT 9999 SCT026TCU SCT032CB 31/26 Q1012,2024-08-03T17:00:00Z,31,26,6+,29.88
MHRO,16.316,-86.523,290,9,10.357019999999999,MHRO 031700Z 29009KT 9999 TS SCT018TCU SCT022CB 30/26 Q1013 A2992 NOSIG,2024-08-03T17:00:00Z,30,26,6+,29.91
MHPR,14.382,-87.621,VRB,4,4.60312,MHPR 031700Z VRB04KT 9999 SCT044 27/19 Q1017 A3005 NOSIG,2024-08-03T17:00:00Z,27,19,6+,30.03
MHNO,14.433,-89.194,360,4,4.60312,MHNO 031700Z 36004KT 9999 FEW040 29/19,2024-08-03T17:00:00Z,29,19,6+,
MHLM,15.442,-87.934,VRB,5,5.7539,MHLM 031700Z VRB05KT 9999 SCT028TCU 31/24 Q1013 A2992 NOSIG,2024-08-03T17:00:00Z,31,24,6+,29.91
MHLE,14.291,-88.175,20,4,4.60312,MHLE 031700Z 02004KT 9999 BKN024TCU 23/16,2024-08-03T17:00:00Z,23,16,6+,
MHCH,13.318,-87.154,170,10,11.5078,MHCH 031700Z 17010KT 9999 SCT030TCU SCT070 31/24,2024-08-03T17:00:00Z,31,24,6+,
MHCA,14.875,-85.775,0,0,0.0,MHCA 031700Z 00000KT 9999 SCT026TCU FEW028CB 28/23 Q1016 CB SW,2024-08-03T17:00:00Z,28,23,6+,30.00
MGZA,14.959,-89.538,90,8,9.20624,MGZA 031700Z 09008KT 9999 FEW020 33/22 QFE988/3,2024-08-03T17:00:00Z,33,22,6+,
MGTU,-99.99,-99.99,120,4,4.60312,MGTU 031700Z 12004KT 9999 SCT018 32/25 FEW200,2024-08-03T17:00:00Z,32,25,6+,
MGRT,14.523,-91.697,270,6,6.904679999999999,MGRT 031700Z 27006KT 9999 SCT016 SCT200 32/24 Q1014 A2994 VOLC STA MARIA Y SATGO EN ACTV,2024-08-03T17:00:00Z,32,24,6+,29.94
MGQZ,14.862,-91.506,360,8,9.20624,MGQZ 031700Z 36008KT 9999 FEW016 SCT200 21/10 QFE 774/2,2024-08-03T17:00:00Z,21,10,6+,
MGPB,15.737,-88.589,360,4,4.60312,MGPB 031700Z 36004KT 9999 FEW020 31/24 Q1012 A2988,2024-08-03T17:00:00Z,31,24,6+,29.88
MGMT,-99.99,-99.99,0,0,0.0,MGMT 031700Z 00000KT CAVOK 32/28,2024-08-03T17:00:00Z,32,28,6+,
MGMM,16.914,-89.866,300,6,6.904679999999999,MGMM 031700Z 30006KT 9999 BKN018 30/24 Q1016 A3000,2024-08-03T17:00:00Z,30,24,6+,30.00
MGHT,15.317,-91.503,180,6,6.904679999999999,MGHT 031700Z 18006KT 9999 SCT020 24/13 FEW100,2024-08-03T17:00:00Z,24,13,6+,
MGGT,14.585,-90.526,20,10,11.5078,MGGT 031700Z 02010KT 9999 BKN020 25/16 Q1022 A3018 FEW200,2024-08-03T17:00:00Z,25,16,6+,30.18
MGES,14.568,-89.326,0,0,0.0,MGES 031700Z 00000KT 9999 SCT020 28/17 QFE 910.6 FEW090,2024-08-03T17:00:00Z,28,17,6+,
MGCB,15.47,-90.406,70,4,4.60312,MGCB 031700Z 07004KT 9999 SCT018 26/17 QFE 872.9,2024-08-03T17:00:00Z,26,17,6+,
MDST,19.407,-70.614,120,9,10.357019999999999,MDST 031700Z 12009KT 070V160 9999 FEW020CB FEW025 32/25 Q1016 CB/NE/SE/SW,2024-08-03T17:00:00Z,32,25,6+,30.00
MDSD,18.433,-69.667,120,7,8.05546,MDSD 031700Z 12007KT 9999 SCT022 32/26 Q1016,2024-08-03T17:00:00Z,32,26,6+,30.00
MDPP,19.759,-70.571,90,15,17.261699999999998,MDPP 031700Z 09015KT 9999 SCT022 33/26 Q1015,2024-08-03T17:00:00Z,33,26,6+,29.97
MDPC,18.566,-68.356,70,12,13.809359999999998,MDPC 031700Z 07012KT 9999 FEW022 31/25 Q1016,2024-08-03T17:00:00Z,31,25,6+,30.00
MDLR,18.451,-68.921,90,10,11.5078,MDLR 031700Z 09010KT 9999 BKN020 SCT300 33/26 Q1016,2024-08-03T17:00:00Z,33,26,6+,30.00
MDJB,18.577,-69.984,0,0,0.0,MDJB 031700Z 00000KT 9999 SCT020 33/25 Q1016,2024-08-03T17:00:00Z,33,25,6+,30.00
MDCY,19.271,-69.733,40,10,11.5078,MDCY 031700Z 04010KT 8000 VCSH FEW020CB SCT020 29/26 Q1016 CB/E/SW,2024-08-03T17:00:00Z,29,26,4.97,30.00
MDBH,18.25,-71.126,130,14,16.11092,MDBH 031700Z 13014KT 9999 FEW022CB SCT022 SCT300 33/25 Q1014 CB/NE/SE/S/SW,2024-08-03T17:00:00Z,33,25,6+,29.94
MDAB,19.2,-69.433,140,8,9.20624,MDAB 031700Z 14008KT 9999 SCT020 32/27 Q1015,2024-08-03T17:00:00Z,32,27,6+,29.97
MBPV,21.772,-72.265,110,6,6.904679999999999,MBPV 031700Z 11006KT 9999 SCT015 29/26 Q1016,2024-08-03T17:00:00Z,29,26,6+,30.00
LZZI,49.231,18.613,40,4,4.60312,LZZI 031700Z 04004KT 9999 FEW050 20/11 Q1012,2024-08-03T17:00:00Z,20,11,6+,29.88
LZPP,48.613,17.832,30,8,9.20624,LZPP 031700Z 03008KT 350V050 CAVOK 24/12 Q1011,2024-08-03T17:00:00Z,24,12,6+,29.85
LYVR,45.147,21.31,320,10,11.5078,LYVR 031700Z AUTO 32010KT CAVOK 26/13 Q1009,2024-08-03T17:00:00Z,26,13,6+,29.79
LYTV,42.405,18.723,120,4,4.60312,LYTV 031700Z 12004KT 090V150 CAVOK 31/16 Q1006 NOSIG,2024-08-03T17:00:00Z,31,16,6+,29.70
LYPG,42.359,19.252,360,10,11.5078,LYPG 031700Z 36010KT 320V030 CAVOK 29/16 Q1006 NOSIG,2024-08-03T17:00:00Z,29,16,6+,29.70
LYNI,43.338,21.863,290,7,8.05546,LYNI 031700Z 29007KT 250V330 9999 FEW050 SCT060 28/17 Q1010 NOSIG,2024-08-03T17:00:00Z,28,17,6+,29.82
LYKV,43.818,20.587,330,5,5.7539,LYKV 031700Z 33005KT 290V030 9999 BKN050 27/16 Q1010 NOSIG,2024-08-03T17:00:00Z,27,16,6+,29.82
LYBT,44.935,20.258,300,9,10.357019999999999,LYBT 031700Z 30009KT 270V330 CAVOK 27/13 Q1009 NOSIG,2024-08-03T17:00:00Z,27,13,6+,29.79
LYBE,44.824,20.291,320,13,14.960139999999999,LYBE 031700Z 32013KT CAVOK 27/12 Q1010 NOSIG,2024-08-03T17:00:00Z,27,12,6+,29.82
LRTR,45.811,21.333,320,13,14.960139999999999,LRTR 031700Z 32013KT CAVOK 26/12 Q1008,2024-08-03T17:00:00Z,26,12,6+,29.76
LRTM,46.468,24.421,40,3,3.4523399999999995,LRTM 031700Z AUTO 04003KT 9999 SCT060/// BKN085/// BKN100/// 24/19 Q1007,2024-08-03T17:00:00Z,24,19,6+,29.73
LRTC,45.065,28.716,150,8,9.20624,LRTC 031700Z AUTO 15008KT 9999 NCD 26/20 Q1003,2024-08-03T17:00:00Z,26,20,6+,29.62
LRSV,47.686,26.354,340,12,13.809359999999998,LRSV 031700Z 34012KT 9999 FEW030CB 21/18 Q1006,2024-08-03T17:00:00Z,21,18,6+,29.70
LRSM,47.703,22.886,30,3,3.4523399999999995,LRSM 031700Z AUTO 03003KT 350V060 9999 FEW041/// BKN050/// BKN080/// 18/16 Q1007 RERA,2024-08-03T17:00:00Z,18,16,6+,29.73
LRSB,45.789,24.091,290,9,10.357019999999999,LRSB 031700Z AUTO 29009KT 9999 NCD 24/12 Q1008,2024-08-03T17:00:00Z,24,12,6+,29.76
LROP,44.572,26.102,340,7,8.05546,LROP 031700Z 34007KT CAVOK 30/13 Q1003 NOSIG,2024-08-03T17:00:00Z,30,13,6+,29.62
LROD,47.036,21.896,360,11,12.658579999999999,LROD 031700Z 36011KT 9999 BKN049 19/15 Q1009,2024-08-03T17:00:00Z,19,15,6+,29.79
LRIA,47.164,27.627,150,3,3.4523399999999995,LRIA 031700Z 15003KT 100V180 CAVOK 22/19 Q1004,2024-08-03T17:00:00Z,22,19,6+,29.65
LRCV,44.31,23.867,300,14,16.11092,LRCV 031700Z 30014KT CAVOK 30/12 Q1005,2024-08-03T17:00:00Z,30,12,6+,29.68
LRCL,46.783,23.676,340,8,9.20624,LRCL 031700Z 34008KT 310V010 CAVOK 23/14 Q1007,2024-08-03T17:00:00Z,23,14,6+,29.73
LRCK,44.362,28.488,180,15,17.261699999999998,LRCK 031700Z 18015KT 9999 VCSH FEW050CB 27/19 Q1004 NOSIG,2024-08-03T17:00:00Z,27,19,6+,29.65
LRBV,45.706,25.524,280,7,8.05546,LRBV 031700Z 28007KT 240V330 9999 FEW060 25/13 Q1007,2024-08-03T17:00:00Z,25,13,6+,29.73
LRBS,44.511,26.078,280,7,8.05546,LRBS 031700Z 28007KT 240V340 CAVOK 32/15 Q1003 NOSIG,2024-08-03T17:00:00Z,32,15,6+,29.62
LRBM,47.658,23.47,VRB,1,1.15078,LRBM 031700Z AUTO VRB01KT 9999 SCT029/// BKN050/// 20/17 Q1008 RERA,2024-08-03T17:00:00Z,20,17,6+,29.76
LRBC,46.522,26.91,310,4,4.60312,LRBC 031700Z 31004KT CAVOK 26/16 Q1005,2024-08-03T17:00:00Z,26,16,6+,29.68
LRAR,46.176,21.264,320,10,11.5078,LRAR 031700Z 32010KT CAVOK 26/13 Q1008,2024-08-03T17:00:00Z,26,13,6+,29.76
LQTZ,44.461,18.728,30,8,9.20624,LQTZ 031700Z 03008KT 360V060 9999 FEW045 27/09 Q1010,2024-08-03T17:00:00Z,27,9,6+,29.82
LQSA,43.825,18.331,330,6,6.904679999999999,LQSA 031700Z 33006KT 300V360 9999 FEW065 27/13 Q1011 NOSIG,2024-08-03T17:00:00Z,27,13,6+,29.85
LQMO,43.285,17.84,330,6,6.904679999999999,LQMO 031700Z 33006KT CAVOK 29/16 Q1007,2024-08-03T17:00:00Z,29,16,6+,29.73
LQBK,44.937,17.299,290,5,5.7539,LQBK 031700Z 29005KT CAVOK 25/13 Q1011 NOSIG,2024-08-03T17:00:00Z,25,13,6+,29.85
LPPT,38.781,-9.136,320,15,17.261699999999998,LPPT 031700Z 32015KT CAVOK 27/15 Q1014,2024-08-03T17:00:00Z,27,15,6+,29.94
LPPS,33.073,-16.35,20,13,14.960139999999999,LPPS 031700Z 02013KT 9999 SCT015 25/18 Q1018,2024-08-03T17:00:00Z,25,18,6+,30.06
LPPR,41.235,-8.684,340,14,16.11092,LPPR 031700Z 34014KT CAVOK 23/17 Q1014,2024-08-03T17:00:00Z,23,17,6+,29.94
LPPD,37.741,-25.698,260,7,8.05546,LPPD 031700Z 26007KT 220V290 9999 FEW018 25/20 Q1021,2024-08-03T17:00:00Z,25,20,6+,30.15
LPOV,40.916,-8.646,340,17,19.56326,LPOV 031700Z 34017G27KT CAVOK 21/17 Q1014,2024-08-03T17:00:00Z,21,17,6+,29.94
LPMT,38.704,-9.036,320,12,13.809359999999998,LPMT 031700Z 32012KT CAVOK 28/16 Q1013,2024-08-03T17:00:00Z,28,16,6+,29.91
LPMR,39.831,-8.887,340,15,17.261699999999998,LPMR 031700Z 34015KT 310V010 9999 FEW008 22/17 Q1015,2024-08-03T17:00:00Z,22,17,6+,29.97
LPMA,32.698,-16.774,30,18,20.714039999999997,LPMA 031700Z 03018KT 9999 FEW015 26/18 Q1017,2024-08-03T17:00:00Z,26,18,6+,30.03
LPLA,38.762,-27.091,,,,LPLA 031700Z /////KT 9999 SCT025 SCT040 26/21 Q1022,2024-08-03T17:00:00Z,26,21,6+,30.18
LPHR,38.521,-28.714,240,10,11.5078,LPHR 031700Z 24010KT 9999 FEW025 27/21 Q1021,2024-08-03T17:00:00Z,27,21,6+,30.15
LPFR,37.014,-7.966,250,5,5.7539,LPFR 031700Z 25005KT 220V280 CAVOK 27/16 Q1012,2024-08-03T17:00:00Z,27,16,6+,29.88
LPFL,39.455,-31.131,VRB,4,4.60312,LPFL 031700Z VRB04KT 9999 FEW017 28/22 Q1021,2024-08-03T17:00:00Z,28,22,6+,30.15
LPCS,38.725,-9.355,350,24,27.618719999999996,LPCS 031700Z 35024KT 9999 FEW012 24/17 Q1013,2024-08-03T17:00:00Z,24,17,6+,29.91
LPBJ,38.073,-7.931,330,6,6.904679999999999,LPBJ 031700Z 33006KT 290V010 CAVOK 36/15 Q1012,2024-08-03T17:00:00Z,36,15,6+,29.88
LPAZ,36.971,-25.171,260,6,6.904679999999999,LPAZ 031700Z 26006KT 210V300 9999 SCT022 27/21 Q1021,2024-08-03T17:00:00Z,27,21,6+,30.15
LOAV,47.965,16.259,40,4,4.60312,LOAV 031700Z 04004KT 9999 SCT050 22/11 Q////,2024-08-03T17:00:00Z,22,11,6+,
LOAN,47.843,16.26,360,11,12.658579999999999,LOAN 031700Z 36011KT 9999 -SHRA SCT040 ///// Q////,2024-08-03T17:00:00Z,,,6+,
LKPD,50.016,15.74,270,4,4.60312,LKPD 031700Z 27004KT 240V300 CAVOK 24/14 Q1011 NOSIG RMK BLU BLU,2024-08-03T17:00:00Z,24,14,6+,29.85
LKNA,49.166,16.125,280,8,9.20624,LKNA 031700Z 28008KT 260V320 CAVOK 23/11 Q1012 RMK BLACK,2024-08-03T17:00:00Z,23,11,6+,29.88
LKLN,49.675,13.275,VRB,2,2.30156,LKLN 031700Z AUTO VRB02KT 9999 SCT130 23/15 Q1012,2024-08-03T17:00:00Z,23,15,6+,29.88
LKKB,50.123,14.538,10,3,3.4523399999999995,LKKB 031700Z 01003KT 320V040 CAVOK 24/13 Q1011,2024-08-03T17:00:00Z,24,13,6+,29.85
LKCV,49.94,15.382,50,3,3.4523399999999995,LKCV 031700Z 05003KT 010V070 CAVOK 24/13 Q1011 NOSIG RMK BLU BLU,2024-08-03T17:00:00Z,24,13,6+,29.85
LJPZ,45.473,13.615,VRB,9,10.357019999999999,LJPZ 031700Z VRB09KT 9999 FEW080 31/19 Q1008,2024-08-03T17:00:00Z,31,19,6+,29.76
LJMB,46.48,15.682,220,3,3.4523399999999995,LJMB 031700Z 22003KT CAVOK 26/16 Q1011,2024-08-03T17:00:00Z,26,16,6+,29.85
LJLJ,46.218,14.477,60,3,3.4523399999999995,LJLJ 031700Z 06003KT 9999 FEW045 SCT250 25/16 Q1011 NOSIG,2024-08-03T17:00:00Z,25,16,6+,29.85
LJCE,45.899,15.523,90,4,4.60312,LJCE 031700Z 09004KT CAVOK 27/17 Q1011 RMK BLU,2024-08-03T17:00:00Z,27,17,6+,29.85
LFSM,47.487,6.791,300,7,8.05546,LFSM 031700Z AUTO 30007KT 250V340 9999 FEW047 25/16 Q1014,2024-08-03T17:00:00Z,25,16,6+,29.94
LFSG,48.325,6.07,290,8,9.20624,LFSG 031700Z AUTO 29008KT 260V330 9999 FEW045 23/15 Q1015,2024-08-03T17:00:00Z,23,15,6+,29.97
LFRV,47.722,-2.727,220,7,8.05546,LFRV 031700Z AUTO 22007KT 190V270 3500 -DZ BR BKN006 OVC014 18/17 Q1016,2024-08-03T17:00:00Z,18,17,2.17,30.00
LFRT,48.536,-2.853,320,7,8.05546,LFRT 031700Z AUTO 32007KT 300V360 9000 BKN004 OVC008 17/16 Q1015,2024-08-03T17:00:00Z,17,16,5.59,29.97
LFRS,47.15,-1.609,250,9,10.357019999999999,LFRS 031700Z AUTO 25009KT 220V290 9999 SCT025 SCT031 BKN038 22/16 Q1016 NOSIG,2024-08-03T17:00:00Z,22,16,6+,30.00
LFRQ,47.975,-4.168,300,7,8.05546,LFRQ 031700Z AUTO 30007KT 9999 BKN013 BKN018 20/18 Q1015 TEMPO 24010KT 2000 RADZ VV///,2024-08-03T17:00:00Z,20,18,6+,29.97
LFRO,48.755,-3.469,300,4,4.60312,LFRO 031700Z AUTO 30004KT 270V340 9999 OVC022 17/15 Q1015,2024-08-03T17:00:00Z,17,15,6+,29.97
LFRN,48.069,-1.734,230,11,12.658579999999999,LFRN 031700Z AUTO 23011KT 200V260 9999 OVC031 22/16 Q1015 TEMPO 4000 RA BECMG BKN012,2024-08-03T17:00:00Z,22,16,6+,29.97
LFRM,47.949,0.202,240,7,8.05546,LFRM 031700Z AUTO 24007KT 200V260 9999 BKN030 OVC037 22/16 Q1015 NOSIG,2024-08-03T17:00:00Z,22,16,6+,29.97
LFRK,49.18,-0.456,230,8,9.20624,LFRK 031700Z AUTO 23008KT 9999 BKN010 OVC014 21/19 Q1014 TEMPO 3000 RA BKN012 BKN020TCU,2024-08-03T17:00:00Z,21,19,6+,29.94
LFRJ,48.527,-4.138,350,7,8.05546,LFRJ 031700Z AUTO 35007KT 310V010 9999 BKN020 OVC028 17/14 Q1016,2024-08-03T17:00:00Z,17,14,6+,30.00
LFRI,46.702,-1.379,270,8,9.20624,LFRI 031700Z AUTO 27008KT 230V300 9999 BKN030 OVC038 21/16 Q1017 NOSIG,2024-08-03T17:00:00Z,21,16,6+,30.03
LFRH,47.761,-3.44,230,13,14.960139999999999,LFRH 031700Z AUTO 23013KT 2100 1300 R25/P2000 R07/P2000 BR VV/// 19/19 Q1015 TEMPO 0600 FG,2024-08-03T17:00:00Z,19,19,1.3,29.97
LFRD,48.589,-2.075,320,10,11.5078,LFRD 031700Z AUTO 32010KT 3600 -RA BR BKN005 BKN013 BKN021 18/17 Q1015 TEMPO 2000 BR,2024-08-03T17:00:00Z,18,17,2.24,29.97
LFRC,49.65,-1.47,280,6,6.904679999999999,LFRC 031700Z AUTO 28006KT 9999 FEW005 OVC012 15/15 Q1014 BECMG BKN020,2024-08-03T17:00:00Z,15,15,6+,29.94
LFQG,46.998,3.113,280,8,9.20624,LFQG 031700Z AUTO 28008KT 260V320 9999 FEW048 SCT056 BKN066 25/16 Q1015,2024-08-03T17:00:00Z,25,16,6+,29.97
LFOZ,47.897,2.163,250,8,9.20624,LFOZ 031700Z AUTO 25008KT 9999 FEW048 OVC058 25/14 Q1015,2024-08-03T17:00:00Z,25,14,6+,29.97
LFOV,48.031,-0.746,230,10,11.5078,LFOV 031700Z AUTO 23010KT 190V260 9999 OVC028 22/16 Q1015,2024-08-03T17:00:00Z,22,16,6+,29.97
LFOJ,47.985,1.754,280,13,14.960139999999999,LFOJ 031700Z AUTO 28013KT 9999 FEW047 SCT210 24/14 Q1015 NOSIG,2024-08-03T17:00:00Z,24,14,6+,29.97
LFOA,47.052,2.642,270,11,12.658579999999999,LFOA 031700Z AUTO 27011KT 9999 BKN049 BKN062 25/15 Q1015,2024-08-03T17:00:00Z,25,15,6+,29.97
LFMY,43.604,5.108,320,14,16.11092,LFMY 031700Z AUTO 32014KT 270V360 CAVOK 32/12 Q1008 BECMG 32020G30KT,2024-08-03T17:00:00Z,32,12,6+,29.76
LFMV,43.911,4.903,350,22,25.317159999999998,LFMV 031700Z AUTO 35022KT CAVOK 32/09 Q1009 BECMG 33020G30KT,2024-08-03T17:00:00Z,32,9,6+,29.79
LFMC,43.383,6.386,110,10,11.5078,LFMC 031700Z AUTO 11010KT 9999 ////// 34/19 Q1007,2024-08-03T17:00:00Z,34,19,6+,29.73
LFKS,41.924,9.406,110,4,4.60312,LFKS 031700Z AUTO 11004KT 050V150 9999 //////CB 31/24 Q1007,2024-08-03T17:00:00Z,31,24,6+,29.73
LFGJ,47.044,5.427,360,9,10.357019999999999,LFGJ 031700Z AUTO 36009KT CAVOK 27/15 Q1014 NOSIG,2024-08-03T17:00:00Z,27,15,6+,29.94
LFBU,45.728,0.22,260,7,8.05546,LFBU 031700Z AUTO 26007KT 9999 OVC047 24/14 Q1017 NOSIG,2024-08-03T17:00:00Z,24,14,6+,30.03
LFBT,43.189,,270,6,6.904679999999999,LFBT 031700Z AUTO 27006KT 9999 OVC037 23/16 Q1018 NOSIG,2024-08-03T17:00:00Z,23,16,6+,30.06
LFAQ,49.972,2.704,VRB,2,2.30156,LFAQ 031700Z AUTO VRB02KT 9999 FEW034 OVC052 21/17 Q1013 TEMPO 4000 -RA,2024-08-03T17:00:00Z,21,17,6+,29.91
LEZL,37.418,-5.893,220,11,12.658579999999999,LEZL 031700Z 22011KT 190V250 CAVOK 35/12 Q1010 NOSIG,2024-08-03T17:00:00Z,35,12,6+,29.82
LEZG,41.661,-1.004,300,15,17.261699999999998,LEZG 031700Z 30015KT CAVOK 32/10 Q1013 NOSIG,2024-08-03T17:00:00Z,32,10,6+,29.91
LEXJ,43.429,-3.831,50,5,5.7539,LEXJ 031700Z 05005KT 340V110 9999 BKN032 23/18 Q1018,2024-08-03T17:00:00Z,23,18,6+,30.06
LEVX,42.239,-8.624,280,8,9.20624,LEVX 031700Z 28008KT 250V320 CAVOK 26/18 Q1016 NOSIG,2024-08-03T17:00:00Z,26,18,6+,30.00
LEVT,42.872,-2.733,40,10,11.5078,LEVT 031700Z 04010KT 010V080 9999 FEW035 25/16 Q1018,2024-08-03T17:00:00Z,25,16,6+,30.06
LEVS,40.371,-3.785,VRB,4,4.60312,LEVS 031700Z VRB04KT CAVOK 36/10 Q1014,2024-08-03T17:00:00Z,36,10,6+,29.94
LEVD,41.706,-4.852,330,4,4.60312,LEVD 031700Z 33004KT 270V060 CAVOK 31/07 Q1017 NOSIG,2024-08-03T17:00:00Z,31,7,6+,30.03
LEVC,39.489,-0.482,70,10,11.5078,LEVC 031700Z 07010KT 030V110 9999 FEW025 30/23 Q1012 NOSIG,2024-08-03T17:00:00Z,30,23,6+,29.88
LETU,-99.99,-99.99,340,14,16.11092,LETU 031700Z AUTO 34014KT CAVOK 30/11 Q1014,2024-08-03T17:00:00Z,30,11,6+,29.94
LETO,40.489,-3.451,260,6,6.904679999999999,LETO 031700Z 26006KT 210V300 CAVOK 36/10 Q1013 NOSIG,2024-08-03T17:00:00Z,36,10,6+,29.91
LETL,40.404,-1.218,340,9,10.357019999999999,LETL 031700Z AUTO 34009KT 310V030 CAVOK 33/07 Q1017,2024-08-03T17:00:00Z,33,7,6+,30.03
LEST,42.888,-8.411,20,9,10.357019999999999,LEST 031700Z 02009KT 320V050 CAVOK 25/17 Q1018 NOSIG,2024-08-03T17:00:00Z,25,17,6+,30.06
LESO,43.361,-1.787,20,5,5.7539,LESO 031700Z 02005KT 330V060 9999 FEW035 24/16 Q1018,2024-08-03T17:00:00Z,24,16,6+,30.06
LESB,39.599,2.703,200,13,14.960139999999999,LESB 031700Z AUTO 20013KT CAVOK 29/22 Q1012,2024-08-03T17:00:00Z,29,22,6+,29.88
LESA,40.96,-5.498,110,4,4.60312,LESA 031700Z 11004KT 060V160 CAVOK 33/11 Q1016,2024-08-03T17:00:00Z,33,11,6+,30.00
LERT,36.645,-6.349,260,10,11.5078,LERT 031700Z 26010KT 230V290 CAVOK 26/20 Q1012 NOSIG,2024-08-03T17:00:00Z,26,20,6+,29.88
LERS,41.15,1.179,220,7,8.05546,LERS 031700Z 22007KT 150V280 CAVOK 30/20 Q1012,2024-08-03T17:00:00Z,30,20,6+,29.88
LERI,37.958,-1.229,120,13,14.960139999999999,LERI 031700Z 12013KT CAVOK 33/19 Q1012 NOSIG,2024-08-03T17:00:00Z,33,19,6+,29.88
LEPP,42.777,-1.65,320,15,17.261699999999998,LEPP 031700Z 32015KT 280V340 CAVOK 24/14 Q1017,2024-08-03T17:00:00Z,24,14,6+,30.03
LEPA,39.561,2.737,210,11,12.658579999999999,LEPA 031700Z 21011KT 190V250 9999 FEW018 30/24 Q1013 NOSIG,2024-08-03T17:00:00Z,30,24,6+,29.91
LEMO,37.175,-5.616,260,9,10.357019999999999,LEMO 031700Z 26009KT 220V290 CAVOK 35/13 Q1011 NOSIG,2024-08-03T17:00:00Z,35,13,6+,29.85
LEMI,37.803,-1.125,100,10,11.5078,LEMI 031700Z 10010KT 070V160 CAVOK 30/21 Q1013,2024-08-03T17:00:00Z,30,21,6+,29.91
LEMH,39.855,4.216,20,13,14.960139999999999,LEMH 031700Z 02013KT 350V050 CAVOK 29/17 Q1013,2024-08-03T17:00:00Z,29,17,6+,29.91
LEMG,36.666,-4.482,130,9,10.357019999999999,LEMG 031700Z 13009KT 100V170 9999 FEW008 27/23 Q1012 NOSIG,2024-08-03T17:00:00Z,27,23,6+,29.88
LEMD,40.466,-3.555,300,3,3.4523399999999995,LEMD 031700Z 30003KT CAVOK 37/09 Q1013 NOSIG,2024-08-03T17:00:00Z,37,9,6+,29.91
LELO,42.452,-2.331,VRB,4,4.60312,LELO 031700Z AUTO VRB04KT CAVOK 29/11 Q1015,2024-08-03T17:00:00Z,29,11,6+,29.97
LELN,42.588,-5.651,160,6,6.904679999999999,LELN 031700Z 16006KT 110V230 CAVOK 31/07 Q1017,2024-08-03T17:00:00Z,31,7,6+,30.03
LELL,41.521,2.105,120,9,10.357019999999999,LELL 031700Z 12009KT 080V150 CAVOK 29/18 Q1012,2024-08-03T17:00:00Z,29,18,6+,29.88
LELC,37.775,-0.812,100,7,8.05546,LELC 031700Z 10007KT 060V140 9999 FEW020 29/25 Q1012 NOSIG,2024-08-03T17:00:00Z,29,25,6+,29.88
LEJR,36.751,-6.056,260,9,10.357019999999999,LEJR 031700Z 26009KT 220V280 CAVOK 33/12 Q1011,2024-08-03T17:00:00Z,33,12,6+,29.85
LEIB,38.876,1.384,220,8,9.20624,LEIB 031700Z 22008KT 180V240 9999 FEW025 29/23 Q1012 NOSIG,2024-08-03T17:00:00Z,29,23,6+,29.88
LEHC,42.082,-0.324,250,11,12.658579999999999,LEHC 031700Z 25011KT 210V290 CAVOK 33/07 Q1014,2024-08-03T17:00:00Z,33,7,6+,29.94
LEGT,40.299,-3.723,20,3,3.4523399999999995,LEGT 031700Z 02003KT CAVOK 36/09 Q1014,2024-08-03T17:00:00Z,36,9,6+,29.94
LEGR,37.19,-3.789,270,8,9.20624,LEGR 031700Z 27008KT 230V330 CAVOK 37/11 Q1013,2024-08-03T17:00:00Z,37,11,6+,29.91
LEGE,41.911,2.763,180,9,10.357019999999999,LEGE 031700Z 18009KT 150V210 9999 FEW035 29/21 Q1012 NOSIG,2024-08-03T17:00:00Z,29,21,6+,29.88
LEDA,41.734,0.538,220,6,6.904679999999999,LEDA 031700Z 22006KT 170V260 CAVOK 33/12 Q1012,2024-08-03T17:00:00Z,33,12,6+,29.88
LECV,40.696,-3.765,VRB,6,6.904679999999999,LECV 031700Z VRB06KT CAVOK 32/07 Q1017,2024-08-03T17:00:00Z,32,7,6+,30.03
LECO,43.307,-8.372,10,7,8.05546,LECO 031700Z 01007KT 290V050 CAVOK 22/17 Q1018 NOSIG,2024-08-03T17:00:00Z,22,17,6+,30.06
LECH,40.211,0.067,160,7,8.05546,LECH 031700Z AUTO 16007KT 110V180 CAVOK 28/20 Q1014,2024-08-03T17:00:00Z,28,20,6+,29.94
LEBZ,38.883,-6.814,260,3,3.4523399999999995,LEBZ 031700Z 26003KT CAVOK 38/10 Q1011,2024-08-03T17:00:00Z,38,10,6+,29.85
LEBT,39.58,-0.45,90,7,8.05546,LEBT 031700Z AUTO 09007KT 030V150 9999 FEW021 30/22 Q1012,2024-08-03T17:00:00Z,30,22,6+,29.88
LEBR,42.2,-1.43,330,13,14.960139999999999,LEBR 031700Z AUTO 33013KT 300V360 CAVOK 30/09 Q1014,2024-08-03T17:00:00Z,30,9,6+,29.94
LEBL,41.293,2.07,200,10,11.5078,LEBL 031700Z 20010KT 160V240 CAVOK 28/19 Q1012 NOSIG,2024-08-03T17:00:00Z,28,19,6+,29.88
LEBG,42.356,-3.622,50,7,8.05546,LEBG 031700Z 05007KT 010V080 CAVOK 27/07 Q1018,2024-08-03T17:00:00Z,27,7,6+,30.06
LEBB,43.298,-2.906,50,5,5.7539,LEBB 031700Z 05005KT 360V110 9999 FEW020 26/17 Q1018 NOSIG,2024-08-03T17:00:00Z,26,17,6+,30.06
LEBA,37.842,-4.849,250,7,8.05546,LEBA 031700Z 25007KT 220V290 CAVOK 39/08 Q1010,2024-08-03T17:00:00Z,39,8,6+,29.82
LEAS,43.567,-6.044,30,5,5.7539,LEAS 031700Z 03005KT 320V090 9999 FEW018 22/18 Q1018 NOSIG,2024-08-03T17:00:00Z,22,18,6+,30.06
LEAM,36.846,-2.357,200,8,9.20624,LEAM 031700Z 20008KT 170V240 CAVOK 29/25 Q1012,2024-08-03T17:00:00Z,29,25,6+,29.88
LEAL,38.282,-0.558,100,7,8.05546,LEAL 031700Z 10007KT 070V160 9999 FEW018 29/22 Q1013 NOSIG,2024-08-03T17:00:00Z,29,22,6+,29.91
LEAG,36.129,-5.441,60,8,9.20624,LEAG 031700Z AUTO 06008KT 030V090 CAVOK 24/21 Q1012,2024-08-03T17:00:00Z,24,21,6+,29.88
LEAB,38.952,-1.863,VRB,3,3.4523399999999995,LEAB 031700Z VRB03KT CAVOK 36/11 Q1014 NOSIG,2024-08-03T17:00:00Z,36,11,6+,29.94
LBPL,43.453,24.504,340,6,6.904679999999999,LBPL 031700Z 34006KT 9999 SCT100 29/18 Q1006,2024-08-03T17:00:00Z,29,18,6+,29.70
LBPG,42.289,24.714,60,2,2.30156,LBPG 031700Z 06002KT 9999 SCT050 BKN100 31/16 Q1005,2024-08-03T17:00:00Z,31,16,6+,29.68
LBIA,42.456,26.352,90,6,6.904679999999999,LBIA 031700Z 09006KT 9999 FEW030TCU BKN050 24/20 Q1007 RETSRA,2024-08-03T17:00:00Z,24,20,6+,29.73
KQVF,-99.99,-99.99,160,1,1.15078,KQVF 031700Z 16001KT 7SM CLR 31/09 A3007 RMK AO2A WND DATA ESTMD ALSTG/SLP ESTMD SLP185,2024-08-03T17:00:00Z,31,9,7,30.07
KPOB,35.175,-79.008,190,10,11.5078,KPOB 031700Z AUTO 19010G15KT 10SM SCT027 BKN036 32/25 A2994 RMK AO2 SLP139,2024-08-03T17:00:00Z,32,25,10+,29.94
KORE,42.57,-72.287,330,8,9.20624,KORE 031700Z AUTO 33008KT 10SM -RA SCT021 BKN040 OVC055 24/22 A2984 RMK AO2 P0000 T02440222,2024-08-03T17:00:00Z,24.4,22.2,10+,29.84
KNEL,40.037,-74.326,VRB,6,6.904679999999999,KNEL 031700Z AUTO VRB06KT FEW033 32/23 A2982 RMK AO2 SLP097 T03220233 $,2024-08-03T17:00:00Z,32.2,23.3,,29.82
KMHV,35.0626,-118.157,0,0,0.0,KMHV 031700Z AUTO 00000KT 10SM CLR 33/07 A3008 RMK AO2,2024-08-03T17:00:00Z,33,7,10+,30.08
KGZN,32.3682,-99.026,210,7,8.05546,KGZN 031700Z AUTO 21007KT 10SM 33/19 A3007 RMK AO2,2024-08-03T17:00:00Z,33,19,10+,30.07
HUEN,0.036,32.437,200,10,11.5078,HUEN 031700Z 20010KT CAVOK 23/19 Q1017,2024-08-03T17:00:00Z,23,19,6+,30.03
HKWJ,1.74,40.087,150,4,4.60312,HKWJ 031700Z 15004KT 9999 BKN032 29/16 Q1012,2024-08-03T17:00:00Z,29,16,6+,29.88
HKNK,-0.298,36.159,0,0,0.0,HKNK 031700Z 00000KT 9999 FEW022CB BKN023 19/13,2024-08-03T17:00:00Z,19,13,6+,
HKMO,-4.015,39.606,150,12,13.809359999999998,HKMO 031700Z 15012KT 9999 FEW023 25/20 Q1016 NOSIG,2024-08-03T17:00:00Z,25,20,6+,30.00
HKML,-3.229,40.102,170,10,11.5078,HKML 031700Z 17010KT 9999 FEW020 25/20 Q1016,2024-08-03T17:00:00Z,25,20,6+,30.00
HKGA,-0.464,39.649,160,8,9.20624,HKGA 031700Z 16008KT CAVOK 28/17 Q1015,2024-08-03T17:00:00Z,28,17,6+,29.97
HKEL,0.404,35.239,140,6,6.904679999999999,HKEL 031700Z 14006KT 9999 -RA SCT012 FEW016CB BKN080 14/12 Q1025,2024-08-03T17:00:00Z,14,12,6+,30.27
HETR,28.209,33.646,340,13,14.960139999999999,HETR 031700Z 34013KT 6000 NSC 39/08 Q1002,2024-08-03T17:00:00Z,39,8,3.73,29.59
HESX,30.108,30.896,360,10,11.5078,HESX 031700Z 36010KT CAVOK 31/20 Q1005 NOSIG,2024-08-03T17:00:00Z,31,20,6+,29.68
HESW,29.346,25.507,310,9,10.357019999999999,HESW 031700Z 31009KT CAVOK 36/07 Q1006,2024-08-03T17:00:00Z,36,7,6+,29.70
HESN,23.964,32.82,190,8,9.20624,HESN 031700Z 19008KT CAVOK 36/23 Q1004 NOSIG,2024-08-03T17:00:00Z,36,23,6+,29.65
HESH,27.977,34.395,90,5,5.7539,HESH 031700Z 09005KT CAVOK 35/20 Q1002 NOSIG,2024-08-03T17:00:00Z,35,20,6+,29.59
HESG,26.343,31.743,310,12,13.809359999999998,HESG 031700Z 31012KT CAVOK 38/13 Q1003 NOSIG,2024-08-03T17:00:00Z,38,13,6+,29.62
HEPS,31.279,32.238,330,13,14.960139999999999,HEPS 031700Z 33013KT CAVOK 30/24 Q1005 NOSIG,2024-08-03T17:00:00Z,30,24,6+,29.68
HEMM,31.325,27.222,250,18,20.714039999999997,HEMM 031700Z 25018KT 9999 SCT020 29/23 Q1007 NOSIG,2024-08-03T17:00:00Z,29,23,6+,29.73
HEMA,25.557,34.584,120,8,9.20624,HEMA 031700Z 12008KT 9999 SCT020 34/20 Q1004 NOSIG,2024-08-03T17:00:00Z,34,20,6+,29.65
HELX,25.671,32.706,300,2,2.30156,HELX 031700Z 30002KT 9999 SCT030 39/14 Q1003 NOSIG,2024-08-03T17:00:00Z,39,14,6+,29.62
HEGN,27.179,33.801,0,0,0.0,HEGN 031700Z 00000KT CAVOK 36/14 Q1003 NOSIG,2024-08-03T17:00:00Z,36,14,6+,29.62
HECP,30.072,31.838,360,10,11.5078,HECP 031700Z 36010KT CAVOK 32/18 Q1006 NOSIG,2024-08-03T17:00:00Z,32,18,6+,29.70
HEBL,22.376,31.612,70,9,10.357019999999999,HEBL 031700Z 07009KT 9999 SCT020 BKN025 35/24 Q1005 NOSIG,2024-08-03T17:00:00Z,35,24,6+,29.68
HEBA,30.918,29.696,310,9,10.357019999999999,HEBA 031700Z 31009KT CAVOK 28/21 Q1006 NOSIG,2024-08-03T17:00:00Z,28,21,6+,29.70
HEAT,27.049,31.014,320,4,4.60312,HEAT 031700Z 32004KT CAVOK 37/09 Q1007 NOSIG,2024-08-03T17:00:00Z,37,9,6+,29.73
HEAR,31.041,33.817,10,8,9.20624,HEAR 031700Z 01008KT CAVOK 29/22 Q1006 NOSIG,2024-08-03T17:00:00Z,29,22,6+,29.70
HBBA,-3.324,29.319,180,2,2.30156,HBBA 031700Z 18002KT 7000 FEW025 27/19 Q1014 NOSIG,2024-08-03T17:00:00Z,27,19,4.35,29.94
HAAB,8.978,38.799,350,4,4.60312,HAAB 031700Z 35004KT 9999 BKN023 BKN070 16/16 Q1025,2024-08-03T17:00:00Z,16,16,6+,30.27
GVSV,16.833,-25.055,30,12,13.809359999999998,GVSV 031700Z 03012KT 9999 FEW023 28/20 Q1007 NOSIG,2024-08-03T17:00:00Z,28,20,6+,29.73
GVNP,14.947,-23.484,110,8,9.20624,GVNP 031700Z 11008KT 9999 SCT020 BKN100 28/20 Q1008 NOSIG,2024-08-03T17:00:00Z,28,20,6+,29.76
GVBA,16.137,-22.889,VRB,3,3.4523399999999995,GVBA 031700Z VRB03KT 9999 BKN014 27/21 Q1008 NOSIG,2024-08-03T17:00:00Z,27,21,6+,29.76
GVAC,16.742,-22.949,100,7,8.05546,GVAC 031700Z 10007KT 9999 BKN013 BKN016 26/20 Q1008 NOSIG,2024-08-03T17:00:00Z,26,20,6+,29.76
GUCY,9.577,-13.612,230,12,13.809359999999998,GUCY 031700Z 23012KT 5000 -RA BKN012 OVC100 25/24 Q1012 TEMPO 8000 -RA,2024-08-03T17:00:00Z,25,24,3.11,29.88
GQPP,20.929,-17.031,250,10,11.5078,GQPP 031700Z 25010KT 6000 DRSA NSC 27/22 Q1008 NOSIG,2024-08-03T17:00:00Z,27,22,3.73,29.76
GQNO,18.31,-15.97,260,13,14.960139999999999,GQNO 031700Z 26013KT 8000 NSC 30/24 Q1008 NOSIG,2024-08-03T17:00:00Z,30,24,4.97,29.76
GOTT,13.733,-13.657,90,2,2.30156,GOTT 031700Z 09002KT 9999 TS BKN013 BKN026CB 30/25 Q1009,2024-08-03T17:00:00Z,30,25,6+,29.79
GOTK,12.572,-12.22,0,0,0.0,GOTK 031700Z 00000KT 9999 -TSRA FEW005 FEW030CB 26/24 Q1009,2024-08-03T17:00:00Z,26,24,6+,29.79
GOSS,16.051,-16.461,260,12,13.809359999999998,GOSS 031700Z 26012KT 240V290 9999 SCT013TCU 31/24 Q1009,2024-08-03T17:00:00Z,31,24,6+,29.79
GOSP,16.677,-14.964,180,2,2.30156,GOSP 031700Z 18002KT 9999 SCT015 36/24 Q1007,2024-08-03T17:00:00Z,36,24,6+,29.73
GOSM,15.597,-13.326,220,6,6.904679999999999,GOSM 031700Z 22006KT 9999 FEW013TCU FEW030CB 34/25 Q1007,2024-08-03T17:00:00Z,34,25,6+,29.73
GOOY,14.741,-17.49,160,10,11.5078,GOOY 031700Z 16010KT 120V210 9999 SCT013 30/23 Q1008,2024-08-03T17:00:00Z,30,23,6+,29.76
GOOK,14.147,-16.052,280,12,13.809359999999998,GOOK 031700Z 28012KT 9999 BKN018 SCT023TCU 32/23 Q1010,2024-08-03T17:00:00Z,32,23,6+,29.82
GOOG,15.4,-15.084,220,4,4.60312,GOOG 031700Z 22004KT 9999 SCT015 35/23 Q1005,2024-08-03T17:00:00Z,35,23,6+,29.68
GOOD,14.65,-16.23,220,10,11.5078,GOOD 031700Z 22010KT 9999 SCT013 34/24 Q1008,2024-08-03T17:00:00Z,34,24,6+,29.76
GOGS,12.389,-16.742,180,8,9.20624,GOGS 031700Z 18008KT 9999 BKN015 28/25 Q1009,2024-08-03T17:00:00Z,28,25,6+,29.79
GOGK,12.898,-14.967,220,6,6.904679999999999,GOGK 031700Z 22006KT 9999 BKN013 BKN015 27/25 Q1009,2024-08-03T17:00:00Z,27,25,6+,29.79
GOGG,12.556,-16.282,200,8,9.20624,GOGG 031700Z 20008KT 9999 BKN015 29/26 Q1010,2024-08-03T17:00:00Z,29,26,6+,29.82
GOBD,14.671,-17.067,200,11,12.658579999999999,GOBD 031700Z 20011KT 9999 SCT027 30/23 Q1009 NOSIG,2024-08-03T17:00:00Z,30,23,6+,29.79
GMTN,35.594,-5.32,50,6,6.904679999999999,GMTN 031700Z 05006KT 020V080 CAVOK 29/21 Q1011 NOSIG,2024-08-03T17:00:00Z,29,21,6+,29.85
GMTA,35.177,-3.84,350,6,6.904679999999999,GMTA 031700Z 35006KT 320V020 CAVOK 28/20 Q1011 NOSIG,2024-08-03T17:00:00Z,28,20,6+,29.85
GMMZ,30.939,-6.909,70,7,8.05546,GMMZ 031700Z 07007KT 9999 FEW040 40/M09 Q1016 NOSIG,2024-08-03T17:00:00Z,40,-9,6+,30.00
GMMW,34.993,-3.025,50,10,11.5078,GMMW 031700Z 05010KT CAVOK 30/20 Q1012 NOSIG,2024-08-03T17:00:00Z,30,20,6+,29.88
GMML,27.141,-13.23,30,23,26.46794,GMML 031700Z 03023KT 3000 SA 31/18 Q1007 NOSIG,2024-08-03T17:00:00Z,31,18,1.86,29.73
GMMI,31.406,-9.687,360,15,17.261699999999998,GMMI 031700Z AUTO 36015KT 7000 NSC 33/18 Q1009 NOSIG,2024-08-03T17:00:00Z,33,18,4.35,29.79
GMMH,23.718,-15.932,360,8,9.20624,GMMH 031700Z 36008KT 2000 BR BKN006 23/19 Q1008 NOSIG,2024-08-03T17:00:00Z,23,19,1.24,29.76
GMMD,32.403,-6.316,140,6,6.904679999999999,GMMD 031700Z 14006KT 9999 FEW030 42/05 Q1012 NOSIG,2024-08-03T17:00:00Z,42,5,6+,29.88
GMMC,33.557,-7.66,40,8,9.20624,GMMC 031700Z 04008KT 8000 FEW010 26/21 Q1012 NOSIG,2024-08-03T17:00:00Z,26,21,4.97,29.88
GMFO,34.787,-1.924,350,17,19.56326,GMFO 031700Z 35017KT CAVOK 34/05 Q1013 NOSIG,2024-08-03T17:00:00Z,34,5,6+,29.91
GMFM,33.875,-5.52,310,8,9.20624,GMFM 031700Z 31008KT 270V360 CAVOK 35/13 Q1013 NOSIG,2024-08-03T17:00:00Z,35,13,6+,29.91
GMFK,31.946,-4.399,180,11,12.658579999999999,GMFK 031700Z 18011KT 140V210 9999 FEW033 41/M09 Q1016 NOSIG,2024-08-03T17:00:00Z,41,-9,6+,30.00
GMFB,32.514,-1.978,250,12,13.809359999999998,GMFB 031700Z 25012KT 9999 FEW030 39/01 Q1016 NOSIG,2024-08-03T17:00:00Z,39,1,6+,30.00
GMAZ,30.266,-5.854,VRB,5,5.7539,GMAZ 031700Z VRB05G17KT CAVOK 42/M07 Q1013 NOSIG,2024-08-03T17:00:00Z,42,-7,6+,29.91
GMAT,28.446,-11.158,30,18,20.714039999999997,GMAT 031700Z 03018KT 8000 NSC 26/18 Q1007 NOSIG,2024-08-03T17:00:00Z,26,18,4.97,29.73
GMAG,29.031,-10.051,340,15,17.261699999999998,GMAG 031700Z 34015KT 6000 NSC 43/M01 Q1007 NOSIG,2024-08-03T17:00:00Z,43,-1,3.73,29.73
GGOV,11.895,-15.654,220,4,4.60312,GGOV 031700Z 22004KT 190V270 7000 BKN010 26/25 Q1010 NOSIG,2024-08-03T17:00:00Z,26,25,4.35,29.82
GFLL,8.616,-13.195,260,8,9.20624,GFLL 031700Z 26008KT 7000 DZ BKN009 FEW027CB 25/23 Q1011 RMK-CB-NE/SW,2024-08-03T17:00:00Z,25,23,4.35,29.85
GEML,35.278,-2.956,100,5,5.7539,GEML 031700Z 10005KT 010V150 CAVOK 28/22 Q1012,2024-08-03T17:00:00Z,28,22,6+,29.88
GECE,35.893,-5.306,350,4,4.60312,GECE 031700Z AUTO 35004KT 320V030 CAVOK 23/20 Q1012,2024-08-03T17:00:00Z,23,20,6+,29.88
GCXO,28.483,-16.342,110,8,9.20624,GCXO 031700Z 11008KT 080V150 CAVOK 29/10 Q1016 NOSIG,2024-08-03T17:00:00Z,29,10,6+,30.00
GCTS,28.047,-16.561,60,25,28.769499999999997,GCTS 031700Z 06025G36KT CAVOK 33/11 Q1010 WS R07 NOSIG,2024-08-03T17:00:00Z,33,11,6+,29.82
GCRR,28.952,-13.6,360,25,28.769499999999997,GCRR 031700Z 36025KT CAVOK 29/19 Q1010,2024-08-03T17:00:00Z,29,19,6+,29.82
GCLP,27.923,-15.389,10,28,32.22184,GCLP 031700Z 01028KT CAVOK 28/20 Q1011 NOSIG,2024-08-03T17:00:00Z,28,20,6+,29.85
GCLA,28.633,-17.755,20,14,16.11092,GCLA 031700Z 02014KT 350V060 9999 FEW023 25/21 Q1014,2024-08-03T17:00:00Z,25,21,6+,29.94
GCHI,27.819,-17.889,330,23,26.46794,GCHI 031700Z 33023KT 300V360 9999 FEW013 BKN017 24/20 Q1012,2024-08-03T17:00:00Z,24,20,6+,29.88
GCGM,28.032,-17.211,220,4,4.60312,GCGM 031700Z 22004KT 160V290 CAVOK 29/16 Q1011 RMK R09/18003KT 110V280 ARP/21003KT 150V240,2024-08-03T17:00:00Z,29,16,6+,29.85
GCFV,28.445,-13.863,30,16,18.41248,GCFV 031700Z 03016KT CAVOK 26/20 Q1010,2024-08-03T17:00:00Z,26,20,6+,29.82
GBYD,13.341,-16.653,230,7,8.05546,GBYD 031700Z 23007KT 9999 SCT012 FEW120 FEW210 30/23 Q1008,2024-08-03T17:00:00Z,30,23,6+,29.76
GAKD,14.482,-11.404,350,2,2.30156,GAKD 031700Z 35002KT 9999 SCT020 FEW030CB 34/25 Q1009,2024-08-03T17:00:00Z,34,25,6+,29.79
GABS,12.534,-7.95,240,8,9.20624,GABS 031700Z 24008KT 200V260 9999 SCT015 32/22 Q1011 NOSIG,2024-08-03T17:00:00Z,32,22,6+,29.85
FYWH,-22.481,17.47,0,0,0.0,FYWH 031700Z 00000KT CAVOK 19/M00 Q1023 NOSIG,2024-08-03T17:00:00Z,19,0,6+,30.21
FYWB,-22.98,14.645,340,6,6.904679999999999,FYWB 031700Z AUTO 34006KT //// // ////// 13/10 Q1018,2024-08-03T17:00:00Z,13,10,,30.06
FYRU,-17.956,19.724,120,3,3.4523399999999995,FYRU 031700Z AUTO 12003KT //// // ////// 26/02 Q1021,2024-08-03T17:00:00Z,26,2,,30.15
FYOG,-28.585,16.447,,,,FYOG 031700Z AUTO /////KT 9999 OVC012/// 13/10 Q1014,2024-08-03T17:00:00Z,13,10,6+,29.94
FYOA,-17.878,15.953,190,3,3.4523399999999995,FYOA 031700Z AUTO 19003KT //// // ////// 26/02 Q1015,2024-08-03T17:00:00Z,26,2,,29.97
FYLZ,-26.687,15.243,,,,FYLZ 031700Z AUTO /////KT //// // ////// 13/11 Q1015,2024-08-03T17:00:00Z,13,11,,29.97
FYKT,-26.54,18.111,10,8,9.20624,FYKT 031700Z AUTO 01008KT //// // ////// 22/M03 Q1016,2024-08-03T17:00:00Z,22,-3,,30.00
FYKM,-17.634,24.177,0,0,0.0,FYKM 031700Z AUTO 00000KT //// // ////// 22/M03 Q1018,2024-08-03T17:00:00Z,22,-3,,30.06
FYGF,-19.599,18.116,360,2,2.30156,FYGF 031700Z AUTO 36002KT //// // ////// 18/M00 Q1022,2024-08-03T17:00:00Z,18,0,,30.18
FVRG,-17.921,31.1,70,4,4.60312,FVRG 031700Z 07004KT CAVOK 18/M01 Q1026 NOSIG,2024-08-03T17:00:00Z,18,-1,6+,30.30
FTTJ,12.134,15.034,270,8,9.20624,FTTJ 031700Z 27008KT 240V300 7000 SCT030 FEW046CB 30/23 Q1009 NOSIG,2024-08-03T17:00:00Z,30,23,4.35,29.79
FTTA,9.144,18.374,0,0,0.0,FTTA 031700Z 00000KT 9999 TS FEW030 FEW050CB 24/22 Q1012,2024-08-03T17:00:00Z,24,22,6+,29.88
FSIA,-4.674,55.522,130,6,6.904679999999999,FSIA 031700Z 13006KT 070V220 9999 SCT020 26/23 Q1013 NOSIG,2024-08-03T17:00:00Z,26,23,6+,29.91
FQXA,-25.038,33.627,170,3,3.4523399999999995,FQXA 031700Z 17003KT CAVOK 20/19 Q1021,2024-08-03T17:00:00Z,20,19,6+,30.15
FQVL,-22.017,35.313,70,5,5.7539,FQVL 031700Z 07005KT CAVOK 21/19 Q1021,2024-08-03T17:00:00Z,21,19,6+,30.15
FQTT,-16.108,33.64,160,4,4.60312,FQTT 031700Z 16004KT CAVOK 26/10 Q1018,2024-08-03T17:00:00Z,26,10,6+,30.06
FQQL,-17.858,36.869,110,6,6.904679999999999,FQQL 031700Z 11006KT CAVOK 23/18 Q1020,2024-08-03T17:00:00Z,23,18,6+,30.12
FQPB,-12.989,40.525,110,9,10.357019999999999,FQPB 031700Z 11009KT 9999 FEW020 25/22 Q1019,2024-08-03T17:00:00Z,25,22,6+,30.09
FQNP,-15.106,39.282,140,11,12.658579999999999,FQNP 031700Z 14011KT CAVOK 22/16 Q1021,2024-08-03T17:00:00Z,22,16,6+,30.15
FQMA,-25.921,32.573,VRB,1,1.15078,FQMA 031700Z VRB01KT 9999 FEW025 21/18 Q1020 NOSIG,2024-08-03T17:00:00Z,21,18,6+,30.12
FQLC,-13.271,35.265,110,13,14.960139999999999,FQLC 031700Z 11013KT 5000 FU NSC 19/07 Q1025,2024-08-03T17:00:00Z,19,7,3.11,30.27
FQIN,-23.876,35.407,60,4,4.60312,FQIN 031700Z 06004KT CAVOK 22/19 Q1020,2024-08-03T17:00:00Z,22,19,6+,30.12
FQCH,-19.148,33.428,,,,FQCH 031700Z /////KT CAVOK 20/09 Q1023,2024-08-03T17:00:00Z,20,9,6+,30.21
FQBR,-19.796,34.908,140,6,6.904679999999999,FQBR 031700Z 14006KT CAVOK 20/16 Q1019,2024-08-03T17:00:00Z,20,16,6+,30.09
FNUE,-11.768,19.898,90,2,2.30156,FNUE 031700Z AUTO 09002KT 6000 ////// ///// Q////,2024-08-03T17:00:00Z,,,3.73,
FNUB,-14.925,13.575,VRB,2,2.30156,FNUB 031700Z AUTO VRB02KT 7000 // NCD 22/08 Q1024,2024-08-03T17:00:00Z,22,8,4.35,30.24
FNLU,-8.858,13.231,260,8,9.20624,FNLU 031700Z 26008KT CAVOK 21/18 Q1014 NOSIG,2024-08-03T17:00:00Z,21,18,6+,29.94
FNHU,-12.809,15.761,120,4,4.60312,FNHU 031700Z AUTO 12004KT //// // NCD 24/M03 Q1022,2024-08-03T17:00:00Z,24,-3,,30.18
FNGI,-17.044,15.684,VRB,1,1.15078,FNGI 031700Z VRB01KT CAVOK 28/00 Q1018,2024-08-03T17:00:00Z,28,0,6+,30.06
FNCT,-12.479,13.487,250,5,5.7539,FNCT 031700Z 25005KT CAVOK 20/17 Q1015,2024-08-03T17:00:00Z,20,17,6+,29.97
FNCA,-5.59,12.188,240,5,5.7539,FNCA 031700Z 24005KT 210V270 9999 FEW050 23/20 Q1015 NOSIG,2024-08-03T17:00:00Z,23,20,6+,29.97
FMSD,-25.038,46.956,0,0,0.0,FMSD 031700Z 00000KT 9999 FEW016 21/19 Q1020,2024-08-03T17:00:00Z,21,19,6+,30.12
FMNM,-15.667,46.352,270,4,4.60312,FMNM 031700Z 27004KT 240V310 CAVOK 24/20 Q1018 NOSIG,2024-08-03T17:00:00Z,24,20,6+,30.06
FMMT,-18.11,49.392,280,2,2.30156,FMMT 031700Z 28002KT 9999 FEW017 18/17 Q1020 NOSIG,2024-08-03T17:00:00Z,18,17,6+,30.12
FMEP,-21.32,55.425,50,5,5.7539,FMEP 031700Z AUTO 05005KT 010V070 CAVOK 20/15 Q1020,2024-08-03T17:00:00Z,20,15,6+,30.12
FMEE,-20.887,55.51,180,5,5.7539,FMEE 031700Z AUTO 18005KT 9999 SCT047 SCT140 BKN160 18/15 Q1020 NOSIG,2024-08-03T17:00:00Z,18,15,6+,30.12
FKYS,3.833,11.521,260,5,5.7539,FKYS 031700Z 26005KT 8000 SCT013 23/20 Q1017 NOSIG,2024-08-03T17:00:00Z,23,20,4.97,30.03
FIMP,-20.434,57.684,180,5,5.7539,FIMP 031700Z 18005KT 9999 VCSH FEW009 BKN016 21/17 Q1021,2024-08-03T17:00:00Z,21,17,6+,30.15
FDSK,-26.359,31.719,60,6,6.904679999999999,FDSK 031700Z 06006KT CAVOK 20/15 Q1021 NOSIG,2024-08-03T17:00:00Z,20,15,6+,30.15
FDPP,-25.966,31.249,80,9,10.357019999999999,FDPP 031700Z AUTO 08009KT //// // ////// 17/14 Q1025,2024-08-03T17:00:00Z,17,14,,30.27
FDOT,-26.704,31.425,90,1,1.15078,FDOT 031700Z AUTO 09001KT //// // ////// 23/13 Q1021,2024-08-03T17:00:00Z,23,13,,30.15
FDBB,-26.815,31.934,90,6,6.904679999999999,FDBB 031700Z AUTO 09006KT //// // ////// 22/17 Q1018,2024-08-03T17:00:00Z,22,17,,30.06
FAWK,-25.83,28.223,0,0,0.0,FAWK 031700Z AUTO 00000KT //// // ////// 17/02 Q1025,2024-08-03T17:00:00Z,17,2,,30.27
FAWB,-25.654,28.224,190,2,2.30156,FAWB 031700Z AUTO 19002KT //// // ////// 15/05 Q1023,2024-08-03T17:00:00Z,15,5,,30.21
FAVV,-26.566,27.961,280,6,6.904679999999999,FAVV 031700Z AUTO 28006KT //// // ////// 18/03 Q1025,2024-08-03T17:00:00Z,18,3,,30.27
FAUT,-31.546,28.673,0,0,0.0,FAUT 031700Z 00000KT CAVOK 15/06 Q1016,2024-08-03T17:00:00Z,15,6,6+,30.00
FAUP,-28.399,21.26,350,5,5.7539,FAUP 031700Z 35005KT CAVOK 19/M00 Q1015 NOSIG,2024-08-03T17:00:00Z,19,0,6+,29.97
FASI,-26.248,28.398,10,3,3.4523399999999995,FASI 031700Z AUTO 01003KT //// // ////// 16/02 Q1029,2024-08-03T17:00:00Z,16,2,,30.38
FAPP,-23.845,29.459,70,9,10.357019999999999,FAPP 031700Z 07009KT 8000 NSC 18/08 Q1026 NOSIG,2024-08-03T17:00:00Z,18,8,4.97,30.30
FAPN,-25.334,27.173,320,4,4.60312,FAPN 031700Z AUTO 32004KT //// // ////// 18/05 Q1021,2024-08-03T17:00:00Z,18,5,,30.15
FAPE,-33.985,25.617,40,4,4.60312,FAPE 031700Z 04004KT CAVOK 15/05 Q1009 NOSIG,2024-08-03T17:00:00Z,15,5,6+,29.79
FAMM,-25.798,25.548,40,6,6.904679999999999,FAMM 031700Z AUTO 04006KT //// // ////// 17/02 Q1022,2024-08-03T17:00:00Z,17,2,,30.18
FALW,-32.972,18.158,230,5,5.7539,FALW 031700Z AUTO 23005KT //// // ////// 12/09 Q1007,2024-08-03T17:00:00Z,12,9,,29.73
FALE,-29.602,31.13,10,7,8.05546,FALE 031700Z 01007KT CAVOK 19/15 Q1017 NOSIG,2024-08-03T17:00:00Z,19,15,6+,30.03
FALA,-25.939,27.926,310,3,3.4523399999999995,FALA 031700Z 31003KT CAVOK 19/03 Q1025 NOSIG,2024-08-03T17:00:00Z,19,3,6+,30.27
FAKN,-25.383,31.106,60,6,6.904679999999999,FAKN 031700Z AUTO 06006KT //// // ////// 19/12 Q1024,2024-08-03T17:00:00Z,19,12,,30.24
FAKM,-28.803,24.765,350,8,9.20624,FAKM 031700Z 35008KT CAVOK 15/07 Q1018,2024-08-03T17:00:00Z,15,7,6+,30.06
FAJB,-26.15,28,0,0,0.0,FAJB 031700Z AUTO 00000KT //// // ////// 15/03 Q1025,2024-08-03T17:00:00Z,15,3,,30.27
FAHS,-24.381,31.044,60,4,4.60312,FAHS 031700Z AUTO 06004KT //// // ////// 23/14 Q1022,2024-08-03T17:00:00Z,23,14,,30.18
FAGG,-34.006,22.379,200,3,3.4523399999999995,FAGG 031700Z 20003KT 130V260 CAVOK 13/04 Q1006,2024-08-03T17:00:00Z,13,4,6+,29.70
FAEL,-33.036,27.826,30,6,6.904679999999999,FAEL 031700Z 03006KT CAVOK 17/11 Q1012,2024-08-03T17:00:00Z,17,11,6+,29.88
FACT,-33.965,18.602,340,10,11.5078,FACT 031700Z 34010KT CAVOK 13/07 Q1008 NOSIG,2024-08-03T17:00:00Z,13,7,6+,29.76
FABL,-29.093,26.302,30,2,2.30156,FABL 031700Z 03002KT CAVOK 14/01 Q1021 NOSIG,2024-08-03T17:00:00Z,14,1,6+,30.15
EIWF,52.187,-7.087,240,8,9.20624,EIWF 031700Z 24008KT 200V300 9999 FEW040 BKN062 17/13 Q1013,2024-08-03T17:00:00Z,17,13,6+,29.91
EISG,54.28,-8.599,230,13,14.960139999999999,EISG 031700Z 23013KT 9000 NSC 15/// Q1010,2024-08-03T17:00:00Z,,,5.59,29.82
EINN,52.702,-8.925,250,14,16.11092,EINN 031700Z 25014KT 9999 -SHRA FEW022 BKN027 BKN050 17/11 Q1012 NOSIG,2024-08-03T17:00:00Z,17,11,6+,29.88
EIME,53.306,-6.442,260,11,12.658579999999999,EIME 031700Z 26011KT 9999 VCSH FEW032 BKN060 17/11 Q1011,2024-08-03T17:00:00Z,17,11,6+,29.85
EIDW,53.422,-6.298,260,9,10.357019999999999,EIDW 031700Z 26009KT 210V310 9999 FEW018 SCT032 BKN060 18/11 Q1011 NOSIG,2024-08-03T17:00:00Z,18,11,6+,29.85
EICK,51.848,-8.479,280,9,10.357019999999999,EICK 031700Z 28009KT 9999 FEW029 BKN042 16/10 Q1014 NOSIG,2024-08-03T17:00:00Z,16,10,6+,29.94
DXXX,6.166,1.254,220,12,13.809359999999998,DXXX 031700Z 22012KT 9999 FEW012 27/22 Q1014 NOSIG,2024-08-03T17:00:00Z,27,22,6+,29.94
DXNG,9.767,1.091,230,8,9.20624,DXNG 031700Z 23008KT 200V260 9999 SCT006 FEW016CB 27/20 Q1015,2024-08-03T17:00:00Z,27,20,6+,29.97
DTTZ,33.94,8.111,270,11,12.658579999999999,DTTZ 031700Z 27011KT 8000 NSC 45/05 Q1002,2024-08-03T17:00:00Z,45,5,4.97,29.59
DTTX,34.718,10.691,20,17,19.56326,DTTX 031700Z 02017KT 9999 FEW033 32/23 Q1007,2024-08-03T17:00:00Z,32,23,6+,29.73
DTTR,31.703,9.257,220,13,14.960139999999999,DTTR 031700Z 22013KT 9999 FEW023 45/03 Q1006 RMK SIROCCO,2024-08-03T17:00:00Z,45,3,6+,29.70
DTTN,36.483,8.8,340,9,10.357019999999999,DTTN 031700Z 34009KT 260V020 9999 FEW020 31/20 Q1010,2024-08-03T17:00:00Z,31,20,6+,29.82
DTTL,36.85,11.083,VRB,7,8.05546,DTTL 031700Z AUTO VRB07KT NCD 31/23 Q1008,2024-08-03T17:00:00Z,31,23,,29.76
DTTK,35.667,10.1,70,7,8.05546,DTTK 031700Z 07007KT 9999 FEW023 36/20 Q1008,2024-08-03T17:00:00Z,36,20,6+,29.76
DTTJ,33.875,10.775,100,18,20.714039999999997,DTTJ 031700Z 10018KT CAVOK 38/15 Q1003,2024-08-03T17:00:00Z,38,15,6+,29.62
DTTG,33.733,9.918,30,19,21.864819999999998,DTTG 031700Z 03019KT 5000 FEW030 34/23 Q1004 SIROCCO,2024-08-03T17:00:00Z,34,23,3.11,29.65
DTTF,34.422,8.822,30,7,8.05546,DTTF 031700Z 03007KT 360V080 9999 SCT026 42/10 Q1006,2024-08-03T17:00:00Z,42,10,6+,29.70
DTTD,32.312,10.386,230,6,6.904679999999999,DTTD 031700Z AUTO 23006KT 180V280 NCD 44/04 Q1006,2024-08-03T17:00:00Z,44,4,,29.70
DTTB,37.245,9.791,280,19,21.864819999999998,DTTB 031700Z 28019G29KT 9999 SCT020 29/23 Q1009,2024-08-03T17:00:00Z,29,23,6+,29.79
DTTA,36.851,10.227,340,7,8.05546,DTTA 031700Z 34007G17KT 280V040 8000 FEW030 34/20 Q1009,2024-08-03T17:00:00Z,34,20,4.97,29.79
DTNH,36.074,10.436,20,15,17.261699999999998,DTNH 031700Z 02015KT 010V080 9999 SCT033 33/24 Q1007,2024-08-03T17:00:00Z,33,24,6+,29.73
DTMB,35.758,10.755,40,14,16.11092,DTMB 031700Z 04014KT CAVOK 31/25 Q1008,2024-08-03T17:00:00Z,31,25,6+,29.76
DTKA,36.98,8.877,310,19,21.864819999999998,DTKA 031700Z 31019KT 9999 BKN020 28/23 Q1011,2024-08-03T17:00:00Z,28,23,6+,29.85
DRZR,13.779,8.984,260,6,6.904679999999999,DRZR 031700Z 26006KT 9999 FEW020 SCT030TCU 29/22 Q1011,2024-08-03T17:00:00Z,29,22,6+,29.85
DRZA,16.964,7.989,100,5,5.7539,DRZA 031700Z 10005KT 9999 FEW040CB SCT050 25/21 Q1009,2024-08-03T17:00:00Z,25,21,6+,29.79
DRRT,14.878,5.27,200,10,11.5078,DRRT 031700Z 20010KT 9999 TSRA SCT030 FEW040CB 22/22 Q1012,2024-08-03T17:00:00Z,22,22,6+,29.88
DRRN,13.483,2.17,300,4,4.60312,DRRN 031700Z 30004KT 6000 -TSRA FEW016 FEW023CB 24/24 Q1012 NOSIG,2024-08-03T17:00:00Z,24,24,3.73,29.88
DNMN,9.652,6.462,230,4,4.60312,DNMN 031700Z 23004KT 9999 FEW012 FEW020CB 31/23 Q1012,2024-08-03T17:00:00Z,31,23,6+,29.88
DNMM,6.577,3.321,120,9,10.357019999999999,DNMM 031700Z 12009KT 9999 SCT013 29/22 Q1014 NOSIG,2024-08-03T17:00:00Z,29,22,6+,29.94
DNKA,10.6,7.45,220,10,11.5078,DNKA 031700Z 22010KT 9999 BKN011 FEW020CB 27/22 Q1015 NOSIG,2024-08-03T17:00:00Z,27,22,6+,29.97
DNJO,9.64,8.87,260,10,11.5078,DNJO 031700Z 26010KT 9999 SCT009 22/19 Q1019,2024-08-03T17:00:00Z,22,19,6+,30.09
DNIM,5.427,7.206,210,5,5.7539,DNIM 031700Z 21005KT 9999 SCT012 31/23 Q1012,2024-08-03T17:00:00Z,31,23,6+,29.88
DNIL,8.438,4.491,210,8,9.20624,DNIL 031700Z 21008KT 9999 FEW012 30/20 Q1012,2024-08-03T17:00:00Z,30,20,6+,29.88
DNIB,7.36,3.976,180,8,9.20624,DNIB 031700Z 18008KT 9999 BKN011 28/26 Q1014,2024-08-03T17:00:00Z,28,26,6+,29.94
DNEN,6.474,7.562,240,8,9.20624,DNEN 031700Z 24008KT 9999 SCT012 FEW020CB 29/24 Q1012 TEMPO TS,2024-08-03T17:00:00Z,29,24,6+,29.88
DNBE,6.317,5.603,180,8,9.20624,DNBE 031700Z 18008KT 9999 BKN011 29/24 Q1013,2024-08-03T17:00:00Z,29,24,6+,29.91
DNAK,7.247,5.301,230,5,5.7539,DNAK 031700Z 23005KT 9999 BKN010 FEW020CB 27/23 Q1014,2024-08-03T17:00:00Z,27,23,6+,29.94
DNAA,9.007,7.263,240,5,5.7539,DNAA 031700Z 24005KT 9999 SCT013 28/23 Q1013 NOSIG,2024-08-03T17:00:00Z,28,23,6+,29.91
DIYO,6.903,-5.366,160,4,4.60312,DIYO 031700Z 16004KT 9999 FEW013 29/22 Q1013 NOSIG,2024-08-03T17:00:00Z,29,22,6+,29.91
DIBK,7.739,-5.074,200,6,6.904679999999999,DIBK 031700Z 20006KT 9999 SCT015 27/22 Q1013 NOSIG,2024-08-03T17:00:00Z,27,22,6+,29.91
DGAA,5.6,-0.17,190,12,13.809359999999998,DGAA 031700Z 19012KT 9999 FEW017 26/23 Q1014 NOSIG,2024-08-03T17:00:00Z,26,23,6+,29.94
DFOO,11.163,-4.322,180,9,10.357019999999999,DFOO 031700Z 18009KT 9999 SCT016 SCT020 29/21 Q1013,2024-08-03T17:00:00Z,29,21,6+,29.91
DFFD,12.356,-1.512,230,10,11.5078,DFFD 031700Z 23010KT 200V270 9000 BKN020 FEW033CB 31/22 Q1011 TEMPO 10025G45KT 2500 BLSA SQ TSRA,2024-08-03T17:00:00Z,31,22,5.59,29.85
DBBB,6.357,2.384,220,11,12.658579999999999,DBBB 031700Z 22011KT 9999 SCT013 27/24 Q1013 NOSIG,2024-08-03T17:00:00Z,27,24,6+,29.91
DAUZ,28.052,9.643,100,6,6.904679999999999,DAUZ 031700Z 10006KT CAVOK 40/// Q1010,2024-08-03T17:00:00Z,,,6+,29.82
DAUU,31.917,5.413,30,7,8.05546,DAUU 031700Z 03007KT 340V060 8000 NSC 46/06 Q1005,2024-08-03T17:00:00Z,46,6,4.97,29.68
DAUT,29.237,0.276,90,6,6.904679999999999,DAUT 031700Z 09006KT CAVOK 45/// Q1008,2024-08-03T17:00:00Z,,,6+,29.76
DAUO,33.513,6.782,320,17,19.56326,DAUO 031700Z 32017KT 3000 HZ NSC 44/// Q1004,2024-08-03T17:00:00Z,,,1.86,29.65
DAUL,33.764,2.928,350,10,11.5078,DAUL 031700Z 35010KT CAVOK 39/03 Q1013,2024-08-03T17:00:00Z,39,3,6+,29.91
DAUK,33.068,6.089,340,8,9.20624,DAUK 031700Z 34008KT CAVOK 44/05 Q1005,2024-08-03T17:00:00Z,44,5,6+,29.68
DAUI,27.251,2.512,80,17,19.56326,DAUI 031700Z 08017G27KT 9000 DRSA NSC 45/// Q1006,2024-08-03T17:00:00Z,,,5.59,29.70
DAUH,31.673,6.14,330,10,11.5078,DAUH 031700Z 33010KT 300V010 8000 NSC 46/// Q1005,2024-08-03T17:00:00Z,,,4.97,29.68
DAUG,32.384,3.794,330,14,16.11092,DAUG 031700Z 33014KT 290V360 8000 FEW040 44/// Q1009,2024-08-03T17:00:00Z,,,4.97,29.79
DAUE,30.571,2.86,340,7,8.05546,DAUE 031700Z 34007KT 9999 FEW040 44/// Q1009,2024-08-03T17:00:00Z,,,6+,29.79
DAUB,34.793,5.738,340,15,17.261699999999998,DAUB 031700Z 34015KT 290V010 CAVOK 43/// Q1005,2024-08-03T17:00:00Z,,,6+,29.68
DAUA,27.839,-0.186,70,14,16.11092,DAUA 031700Z 07014KT CAVOK 46/// Q1006,2024-08-03T17:00:00Z,,,6+,29.70
DATM,21.375,0.924,290,10,11.5078,DATM 031700Z 29010KT 8000 NSC 40/12 Q1006,2024-08-03T17:00:00Z,40,12,4.97,29.70
DAOV,35.208,0.147,340,13,14.960139999999999,DAOV 031700Z 34013KT CAVOK 36/11 Q1013,2024-08-03T17:00:00Z,36,11,6+,29.91
DAOR,31.65,-2.261,220,3,3.4523399999999995,DAOR 031700Z 22003KT CAVOK 43/// Q1014,2024-08-03T17:00:00Z,,,6+,29.94
DAOO,35.623,-0.624,350,10,11.5078,DAOO 031700Z 35010KT 320V020 CAVOK 30/20 Q1011,2024-08-03T17:00:00Z,30,20,6+,29.85
DAON,35.013,-1.457,330,8,9.20624,DAON 031700Z 33008KT CAVOK 33/16 Q1012,2024-08-03T17:00:00Z,33,16,6+,29.88
DAOL,35.542,-0.532,350,12,13.809359999999998,DAOL 031700Z 35012KT CAVOK 35/17 Q1011,2024-08-03T17:00:00Z,35,17,6+,29.85
DAOI,36.213,1.332,350,15,17.261699999999998,DAOI 031700Z 35015KT CAVOK 37/12 Q1011,2024-08-03T17:00:00Z,37,12,6+,29.85
DAOF,27.7,-8.167,250,3,3.4523399999999995,DAOF 031700Z 25003KT 4000 HZ NSC 44/07 Q1008,2024-08-03T17:00:00Z,44,7,2.49,29.76
DAOB,35.345,1.476,300,7,8.05546,DAOB 031700Z 30007KT CAVOK 34/03 Q1018,2024-08-03T17:00:00Z,34,3,6+,30.06
DAFH,32.93,3.312,330,12,13.809359999999998,DAFH 031700Z 33012KT CAVOK 41/02 Q1012,2024-08-03T17:00:00Z,41,2,6+,29.88
DABT,35.752,6.309,10,16,18.41248,DABT 031700Z 01016KT 9999 FEW030 30/10 Q1016,2024-08-03T17:00:00Z,30,10,6+,30.00
DABS,35.432,8.121,340,13,14.960139999999999,DABS 031700Z 34013KT 9999 SCT033 32/13 Q1014,2024-08-03T17:00:00Z,32,13,6+,29.94
DABC,36.278,6.629,20,11,12.658579999999999,DABC 031700Z 02011KT 340V070 9999 FEW030 30/14 Q1015,2024-08-03T17:00:00Z,30,14,6+,29.97
DABB,36.822,7.809,360,13,14.960139999999999,DABB 031700Z 36013KT 9999 FEW026 31/19 Q1010,2024-08-03T17:00:00Z,31,19,6+,29.82
DAAY,33.532,-0.248,320,10,11.5078,DAAY 031700Z 32010KT 9999 FEW030 38/01 Q1018,2024-08-03T17:00:00Z,38,1,6+,30.06
DAAV,36.795,5.877,330,4,4.60312,DAAV 031700Z 33004KT 9999 SCT020 29/22 Q1013,2024-08-03T17:00:00Z,29,22,6+,29.91
DAAT,22.824,5.452,320,6,6.904679999999999,DAAT 031700Z 32006KT 240V050 6000 SCT046 36/04 Q1016,2024-08-03T17:00:00Z,36,4,3.73,30.00
DAAS,36.18,5.33,350,10,11.5078,DAAS 031700Z 35010KT 320V030 9999 FEW030 27/11 Q1018,2024-08-03T17:00:00Z,27,11,6+,30.06
DAAP,26.724,8.622,60,14,16.11092,DAAP 031700Z 06014KT CAVOK 41/// Q1010,2024-08-03T17:00:00Z,,,6+,29.82
DAAJ,24.286,9.464,220,4,4.60312,DAAJ 031700Z 22004KT CAVOK 37/// Q1013,2024-08-03T17:00:00Z,,,6+,29.91
DAAG,36.691,3.215,50,13,14.960139999999999,DAAG 031700Z 05013KT 9999 FEW030 30/22 Q1013,2024-08-03T17:00:00Z,30,22,6+,29.91
DAAE,36.712,5.07,90,8,9.20624,DAAE 031700Z 09008KT 9999 FEW020 SCT090 28/23 Q1013,2024-08-03T17:00:00Z,28,23,6+,29.91
DAAD,35.333,4.206,10,15,17.261699999999998,DAAD 031700Z 01015KT 5000 DRSA NSC 37/06 Q1012,2024-08-03T17:00:00Z,37,6,3.11,29.88
CZZJ,53.583,-116.462,20,3,3.4523399999999995,CZZJ 031700Z AUTO 02003KT 19/10 RMK AO1 SLP182 T01900102 58012,2024-08-03T17:00:00Z,19,10.2,,
CZVL,53.67,-113.863,90,9,10.357019999999999,CZVL 031700Z AUTO 09009KT 060V130 9SM CLR 22/10 A3007 RMK SLP185 DENSITY ALT 3400FT,2024-08-03T17:00:00Z,22,10,9,30.07
CZTB,48.369,-89.327,310,9,10.357019999999999,CZTB 031700Z AUTO 31009KT 24/14 RMK AO1 SLP149 T02360135 58011,2024-08-03T17:00:00Z,23.6,13.5,,
CZST,55.935,-129.984,VRB,2,2.30156,CZST 031700Z VRB02KT 15SM FEW200 10/10 A3017 RMK CI1 SLP219,2024-08-03T17:00:00Z,10,10,15,30.17
CZSP,46.45,-62.576,210,12,13.809359999999998,CZSP 031700Z AUTO 21012KT 30/19 RMK AO1 PK WND 19020/1612 SLP097 T02990191 55008,2024-08-03T17:00:00Z,29.9,19.1,,
CZSM,60.026,-111.929,150,4,4.60312,CZSM 031700Z AUTO 15004KT 20/08 RMK AO1 SLP210 T01950084 58006,2024-08-03T17:00:00Z,19.5,8.4,,
CZSJ,53.063,-93.344,320,8,9.20624,CZSJ 031700Z AUTO 32008KT 300V010 9SM SCT048 SCT055 BKN070 18/09 A3003 RMK SLP175 DENSITY ALT 1400FT,2024-08-03T17:00:00Z,18,9,9,30.03
CZRP,75.377,-105.715,150,7,8.05546,CZRP 031700Z AUTO 15007KT 04/04 RMK AO1 SLP149 T00390036 53006,2024-08-03T17:00:00Z,3.9,3.6,,
CZPC,49.522,-114.005,120,6,6.904679999999999,CZPC 031700Z AUTO 12006KT 9SM SCT240 23/10 A3009 RMK SLP169 DENSITY ALT 5600FT,2024-08-03T17:00:00Z,23,10,9,30.09
CZOL,53.642,-113.364,110,3,3.4523399999999995,CZOL 031700Z AUTO 11003KT 22/11 RMK AO1 T02240111,2024-08-03T17:00:00Z,22.4,11.1,,
CZMU,53.563,-112.296,120,6,6.904679999999999,CZMU 031700Z AUTO 12006KT 20/11 RMK AO1 T01960113,2024-08-03T17:00:00Z,19.6,11.3,,
CZMT,54.023,-132.12,330,11,12.658579999999999,CZMT 031700Z 33011KT 280V340 10SM FEW110 17/12 A3021 RMK AC1 AC TR SLP233,2024-08-03T17:00:00Z,17,12,10+,30.21
CZMJ,50.332,-105.538,80,4,4.60312,CZMJ 031700Z AUTO 08004KT 21/09 RMK AO1 SLP223 T02110094 58005,2024-08-03T17:00:00Z,21.1,9.4,,
CZMD,53.439,-91.766,290,10,11.5078,CZMD 031700Z AUTO 29010G18KT 270V340 9SM BKN040 17/08 A2999 RMK SLP165 DENSITY ALT 1300FT,2024-08-03T17:00:00Z,17,8,9,29.99
CZKD,56.037,-96.51,340,10,11.5078,CZKD 031700Z AUTO 34010G16KT 16/06 RMK AO1 PK WND 33018/1604 SLP193 T01630056 57002,2024-08-03T17:00:00Z,16.3,5.6,,
CZHY,60.839,-115.781,170,10,11.5078,CZHY 031700Z AUTO 17010KT 20/10 RMK AO1 SLP173 T01950098 58008,2024-08-03T17:00:00Z,19.5,9.8,,
CZFS,61.76,-121.23,310,13,14.960139999999999,CZFS 031700Z AUTO 31013G18KT 17/11 RMK AO1 PK WND 32020/1648 SLP182 T01700109 53008,2024-08-03T17:00:00Z,17,10.9,,
CZFM,67.41,-134.871,160,4,4.60312,CZFM 031700Z 16004KT 110V220 35SM SCT019 11/06 A3021 RMK SC3 SLP235,2024-08-03T17:00:00Z,11,6,35,30.21
CZEV,68.313,-133.496,170,4,4.60312,CZEV 031700Z AUTO 17004KT 08/04 RMK AO1 SLP243 T00820042 50001,2024-08-03T17:00:00Z,8.2,4.2,,
CZEL,43.642,-80.412,260,5,5.7539,CZEL 031700Z AUTO 26005KT 26/20 RMK AO1 SLP117 T02620195 50002,2024-08-03T17:00:00Z,26.2,19.5,,
CZDB,45.422,-63.466,190,7,8.05546,CZDB 031700Z AUTO 19007KT 29/21 RMK AO1 SLP101 T02890213 56011,2024-08-03T17:00:00Z,28.9,21.3,,
CZCR,47.99,-66.334,50,5,5.7539,CZCR 031700Z AUTO 05005KT 28/24 RMK AO1 SLP047 T02770242 58017,2024-08-03T17:00:00Z,27.7,24.2,,
CYZY,55.303,-123.135,350,4,4.60312,CYZY 031700Z AUTO 35004KT 310V040 9SM CLR 17/10 A3011 RMK SLP206 DENSITY ALT 2900FT,2024-08-03T17:00:00Z,17,10,9,30.11
CYZX,44.985,-64.912,210,6,6.904679999999999,CYZX 031700Z 21006KT 12SM -SHRA BKN013 OVC040 25/23 A2984 RMK SF5SC3 DENSITY ALT 1764FT SLP103,2024-08-03T17:00:00Z,25,23,12,29.84
CYZW,60.175,-132.734,180,4,4.60312,CYZW 031700Z 18004KT 140V200 30SM SCT120 BKN170 BKN200 11/07 A3022 RMK AC4AC2CI1 SLP254,2024-08-03T17:00:00Z,11,7,30,30.22
CYZV,50.217,-66.26,150,10,11.5078,CYZV 031700Z 15010KT 20SM FEW060CB SCT140 BKN200 23/18 A2965 RMK CB1AC3CI3 SH DIST W-NW CB DIST W-NW SLP043 DENSITY ALT 1400FT,2024-08-03T17:00:00Z,23,18,20,29.65
CYZU,54.142,-115.785,120,4,4.60312,CYZU 031700Z 12004KT 060V150 15SM FEW160 BKN210 18/10 A3008 RMK AC2CI5 SLP191 DENSITY ALT 3400FT,2024-08-03T17:00:00Z,18,10,15,30.08
CYZT,50.685,-127.369,50,4,4.60312,CYZT 031700Z 05004KT 15SM SKC 16/13 A3013 RMK FG BNK OVR WTR DIST N SLP206,2024-08-03T17:00:00Z,16,13,15,30.13
CYZS,64.188,-83.351,20,30,34.523399999999995,CYZS 031700Z 02030G37KT 15SM SCT038 BKN059 08/04 A2972 RMK SC3SC4 SLP069,2024-08-03T17:00:00Z,8,4,15,29.72
CYZR,42.995,-82.307,10,8,9.20624,CYZR 031700Z AUTO 01008KT 9SM CLR 28/17 A2989 RMK SLP121 DENSITY ALT 2300FT,2024-08-03T17:00:00Z,28,17,9,29.89
CYZP,53.254,-131.814,270,7,8.05546,CYZP 031700Z AUTO 27007KT 9SM CLR 19/13 A3019 RMK SLP225,2024-08-03T17:00:00Z,19,13,9,30.19
CYZH,55.293,-114.773,80,6,6.904679999999999,CYZH 031700Z AUTO 08006KT 9SM OVC091 16/12 A3008 RMK SLP196 DENSITY ALT 2400FT,2024-08-03T17:00:00Z,16,12,9,30.08
CYZF,62.475,-114.448,150,11,12.658579999999999,CYZF 031700Z 15011KT 15SM FEW080 BKN220 18/05 A3010 RMK AC1CI7 AC TR SLP203 DENSITY ALT 1000FT,2024-08-03T17:00:00Z,18,5,15,30.10
CYYZ,43.679,-79.629,160,5,5.7539,CYYZ 031700Z 16005KT 150V210 15SM FEW035 OVC240 27/21 A2984 RMK SC1CS8 SC TR SLP104 DENSITY ALT 2200FT,2024-08-03T17:00:00Z,27,21,15,29.84
CYYY,48.609,-68.208,260,12,13.809359999999998,CYYY 031700Z 26012G17KT 30SM FEW040TCU FEW150 SCT240 28/19 A2965 RMK TCU1AC1CI2 SLP042 DENSITY ALT 2100FT,2024-08-03T17:00:00Z,28,19,30,29.65
CYYW,50.296,-88.912,310,10,11.5078,CYYW 031700Z AUTO 31010G15KT 280V340 9SM SCT046 22/12 A2994 RMK SLP131 DENSITY ALT 2100FT,2024-08-03T17:00:00Z,22,12,9,29.94
CYYU,49.416,-82.47,300,15,17.261699999999998,CYYU 031700Z 30015G23KT 15SM SCT058 BKN250 25/11 A2984 RMK CU4CI1 SLP108 DENSITY ALT 2200FT,2024-08-03T17:00:00Z,25,11,15,29.84
CYYT,47.627,-52.748,280,9,10.357019999999999,CYYT 031700Z 28009G15KT 15SM FEW170 FEW250 24/14 A2989 RMK AC1CI1 AC TR CI TR SLP126 DENSITY ALT 1700FT,2024-08-03T17:00:00Z,24,14,15,29.89
CYYR,53.32,-60.417,30,7,8.05546,CYYR 031700Z 03007KT 15SM FEW032TCU FEW140 FEW260 24/15 A2963 RMK TCU1AC1CI1 DENSITY ALT 1760FT SLP035,2024-08-03T17:00:00Z,24,15,15,29.63
CYYQ,58.745,-94.074,340,12,13.809359999999998,CYYQ 031700Z 34012G19KT 15SM FEW022 FEW250 13/07 A2999 RMK CU1CI1 SLP159,2024-08-03T17:00:00Z,13,7,15,29.99
CYYN,50.292,-107.691,100,13,14.960139999999999,CYYN 031700Z AUTO 10013KT 9SM CLR 23/10 A3015 RMK SLP202 DENSITY ALT 4100FT,2024-08-03T17:00:00Z,23,10,9,30.15
CYYL,56.863,-101.073,340,9,10.357019999999999,CYYL 031700Z AUTO 34009KT 320V040 9SM FEW055 BKN069 18/06 A3012 RMK SLP211 DENSITY ALT 1600FT,2024-08-03T17:00:00Z,18,6,9,30.12
CYYJ,48.642,-123.433,130,6,6.904679999999999,CYYJ 031700Z 13006KT 30SM FEW250 18/12 A3006 RMK CI1 CI TR SLP180 DENSITY ALT 300FT,2024-08-03T17:00:00Z,18,12,30,30.06
CYYH,69.543,-93.568,350,7,8.05546,CYYH 031700Z 35007KT 15SM FEW001 FEW025 FEW210 10/03 A3005 RMK CU1SC1CI2 CU TR SC TR SLP179,2024-08-03T17:00:00Z,10,3,15,30.05
CYYG,46.289,-63.128,190,9,10.357019999999999,CYYG 031700Z 19009KT 15SM BKN180 OVC260 26/20 A2981 RMK AC6CS2 SLP096 DENSITY ALT 1700FT,2024-08-03T17:00:00Z,26,20,15,29.81
CYYF,49.46,-119.606,350,7,8.05546,CYYF 031700Z 35007KT 15SM SKC 31/16 A2993 RMK SLP126 DENSITY ALT 3200FT,2024-08-03T17:00:00Z,31,16,15,29.93
CYYE,58.839,-122.59,330,11,12.658579999999999,CYYE 031700Z 33011G18KT 30SM FEW100 BKN200 21/05 A3008 RMK AC2CI3 SLP194 DENSITY ALT 2200FT,2024-08-03T17:00:00Z,21,5,30,30.08
CYYD,54.823,-127.185,330,4,4.60312,CYYD 031700Z 33004KT 280V350 25SM SKC 18/07 A3016 RMK OBS TAKEN +10 SLP215 DENSITY ALT 2200FT,2024-08-03T17:00:00Z,18,7,25,30.16
CYYC,51.116,-114.011,170,4,4.60312,CYYC 031700Z 17004KT 100V210 15SM FEW150 OVC250 20/10 A3008 RMK FU2ACC1CI6 ACC TR SLP180 DENSITY ALT 4800FT,2024-08-03T17:00:00Z,20,10,15,30.08
CYYB,46.365,-79.423,330,4,4.60312,CYYB 031700Z 33004KT 290V010 12SM SCT042 BKN280 28/19 A2984 RMK CU3CI2 HZ SLP101 DENSITY ALT 3100FT,2024-08-03T17:00:00Z,28,19,12,29.84
CYXZ,47.974,-84.781,260,4,4.60312,CYXZ 031700Z 26004KT 210V320 12SM FEW035 FEW180 BKN250 24/16 A2993 RMK CU1FU1CI4 HZ SLP138 DENSITY ALT 2200FT,2024-08-03T17:00:00Z,24,16,12,29.93
CYXY,60.71,-135.059,360,3,3.4523399999999995,CYXY 031700Z 36003KT 320V040 40SM FEW060 BKN100 BKN130 13/06 A3025 RMK SC1AC4AC2 SLP264,2024-08-03T17:00:00Z,13,6,40,30.25
CYXX,49.027,-122.377,220,5,5.7539,CYXX 031700Z 22005KT 30SM FEW220 21/14 A3006 RMK CI1 CI TR SLP179 DENSITY ALT 900FT,2024-08-03T17:00:00Z,21,14,30,30.06
CYXU,43.039,-81.162,300,6,6.904679999999999,CYXU 031700Z 30006KT 280V350 15SM SCT028 BKN260 28/21 A2989 RMK CU3CI4 SLP119 DENSITY ALT 2600FT,2024-08-03T17:00:00Z,28,21,15,29.89
CYXT,54.471,-128.577,310,4,4.60312,CYXT 031700Z 31004KT 290V020 20SM SKC 17/09 A3015 RMK SLP213,2024-08-03T17:00:00Z,17,9,20,30.15
CYXS,53.884,-122.677,0,0,0.0,CYXS 031700Z AUTO 00000KT 9SM CLR 18/12 A3010 RMK SLP200 DENSITY ALT 3000FT,2024-08-03T17:00:00Z,18,12,9,30.10
CYXR,47.698,-79.852,310,8,9.20624,CYXR 031700Z AUTO 31008G16KT 240V330 9SM CLR 28/12 A2982 RMK SLP098 DENSITY ALT 2600FT,2024-08-03T17:00:00Z,28,12,9,29.82
CYXQ,62.408,-140.866,150,3,3.4523399999999995,CYXQ 031700Z 15003KT 110V210 25SM FEW020 BKN100 OVC250 11/09 A3029 RMK SC1AC4CI3 SLP277,2024-08-03T17:00:00Z,11,9,25,30.29
CYXP,66.144,-65.712,260,11,12.658579999999999,CYXP 031700Z 26011KT 15SM FEW250 11/05 A2975 RMK CI1 CI TR SLP078,2024-08-03T17:00:00Z,11,5,15,29.75
CYXN,62.238,-92.597,40,17,19.56326,CYXN 031700Z 04017KT 15SM FEW033 BKN200 13/06 A2992 RMK CU1CC4 SLP135,2024-08-03T17:00:00Z,13,6,15,29.92
CYXL,50.114,-91.905,320,4,4.60312,CYXL 031700Z 32004KT 270V050 15SM BKN023 BKN050 OVC210 20/15 A3000 RMK SC5SC2CI1 SLP167 DENSITY ALT 2000FT,2024-08-03T17:00:00Z,20,15,15,30.00
CYXJ,56.247,-120.737,250,5,5.7539,CYXJ 031700Z 25005KT 60SM FEW044 SCT240 17/09 A3009 RMK CU1CI3 CU TR SLP198 DENSITY ALT 2900FT,2024-08-03T17:00:00Z,17,9,60,30.09
CYXH,50.018,-110.717,90,7,8.05546,CYXH 031700Z 09007KT 30SM FEW150 BKN270 27/13 A3005 RMK AC1CI6 SLP166 DENSITY ALT 4200FT,2024-08-03T17:00:00Z,27,13,30,30.05
CYXE,52.172,-106.695,90,6,6.904679999999999,CYXE 031700Z 09006KT 060V140 12SM BKN160 BKN200 22/09 A3017 RMK AC5CI1 CI TR FU SLP225 DENSITY ALT 2600FT,2024-08-03T17:00:00Z,22,9,12,30.17
CYXC,49.614,-115.784,50,4,4.60312,CYXC 031700Z 05004KT 360V100 4SM FU SCT120 BKN230 26/08 A3003 RMK FU2AC2CI2 SLP144 DENSITY ALT 5000FT,2024-08-03T17:00:00Z,26,8,4,30.03
CYWL,52.186,-122.066,270,5,5.7539,CYWL 031700Z 27005KT 15SM SCT120 20/09 A3011 RMK AC3 SLP187 DENSITY ALT 4200FT,2024-08-03T17:00:00Z,20,9,15,30.11
CYWJ,65.209,-123.434,320,7,8.05546,CYWJ 031700Z 32007KT 300V360 40SM FEW065 BKN090 15/11 A3012 RMK SC2AC4 SLP209,2024-08-03T17:00:00Z,15,11,40,30.12
CYWH,48.423,-123.387,170,5,5.7539,CYWH 031700Z 17005KT 160V220 15SM FEW010 16/12 A3007 RMK SC1 SLP185,2024-08-03T17:00:00Z,16,12,15,30.07
CYWG,49.916,-97.249,30,18,20.714039999999997,CYWG 031700Z 03018KT 15SM FEW035 FEW065 FEW075 BKN260 22/12 A3002 RMK CU1SC1AC1CI3 CU TR LGT FU ASOCTD ALG HRZN SLP168 DENSITY ALT 1800FT,2024-08-03T17:00:00Z,22,12,15,30.02
CYWE,64.192,-114.078,190,9,10.357019999999999,CYWE 031700Z AUTO 19009KT 9SM BKN076 OVC090 15/10 A3011 RMK SLP211,2024-08-03T17:00:00Z,15,10,9,30.11
CYVV,44.745,-81.107,280,7,8.05546,CYVV 031700Z 28007KT 230V300 15SM FEW012 SCT250 25/20 A2986 RMK CU1CI3 CU TR SLP111 DENSITY ALT 2200FT,2024-08-03T17:00:00Z,25,20,15,29.86
CYVT,55.842,-108.418,40,6,6.904679999999999,CYVT 031700Z AUTO 04006KT 020V110 9SM CLR 21/09 A3013 RMK SLP211 DENSITY ALT 2300FT,2024-08-03T17:00:00Z,21,9,9,30.13
CYVR,49.183,-123.168,150,4,4.60312,CYVR 031700Z 15004KT 080V230 20SM SKC 22/12 A3006 RMK SLP181 DENSITY ALT 700FT,2024-08-03T17:00:00Z,22,12,20,30.06
CYVQ,65.278,-126.796,280,10,11.5078,CYVQ 031700Z 28010KT 30SM FEW012 FEW025 SCT090 SCT160 OVC200 15/12 A3018 RMK SC1SC1AC1AC1CI4 SLP226,2024-08-03T17:00:00Z,15,12,30,30.18
CYVP,58.1,-68.415,160,5,5.7539,CYVP 031700Z 16005KT 130V190 15SM SCT038 BKN072 BKN280 21/12 A2949 RMK CU4AC1CI1 CI TR SLP991 DENSITY ALT 1400FT,2024-08-03T17:00:00Z,21,12,15,29.49
CYVO,48.056,-77.779,340,10,11.5078,CYVO 031700Z 34010G15KT 280V010 15SM FEW045 BKN150 26/11 A2980 RMK SC2AS3 SLP095 DENSITY ALT 2800FT,2024-08-03T17:00:00Z,26,11,15,29.80
CYVM,67.552,-64.026,30,7,8.05546,CYVM 031700Z 03007KT 15SM FEW090 BKN250 07/02 A2983 RMK AC1CC4 CONTRAILS SLP105,2024-08-03T17:00:00Z,7,2,15,29.83
CYVL,67.021,-126.129,350,8,9.20624,CYVL 031700Z AUTO 35008KT 9SM OVC014 11/07 A3017 RMK SLP233,2024-08-03T17:00:00Z,11,7,9,30.17
CYVC,55.15,-105.264,270,9,10.357019999999999,CYVC 031700Z 27009KT 15SM FEW045 22/09 A3015 RMK CU2 FU SLP221 DENSITY ALT 2100FT,2024-08-03T17:00:00Z,22,9,15,30.15
CYUY,48.209,-78.83,310,12,13.809359999999998,CYUY 031700Z 31012G20KT 270V350 15SM FEW050 FEW260 27/11 A2980 RMK CU1CI1 SLP093 DENSITY ALT 2800FT,2024-08-03T17:00:00Z,27,11,15,29.80
CYUX,68.772,-81.233,10,16,18.41248,CYUX 031700Z 01016KT 10SM BKN024 BKN220 08/03 A2992 RMK SC5CI1 CI TR SLP134,2024-08-03T17:00:00Z,8,3,10+,29.92
CYUT,66.525,-86.23,350,17,19.56326,CYUT 031700Z 35017G22KT 15SM FEW020 BKN150 10/03 A2994 RMK CU1AC4 SLP143,2024-08-03T17:00:00Z,10,3,15,29.94
CYUL,45.468,-73.742,220,10,11.5078,CYUL 031700Z 22010G15KT 15SM FEW030 FEW210 BKN250 30/22 A2976 RMK CF1CI1CI7 CF TR CI TR SLP078 DENSITY ALT 2000FT,2024-08-03T17:00:00Z,30,22,15,29.76
CYUB,69.434,-133.026,210,7,8.05546,CYUB 031700Z 21007KT 170V230 15SM BKN019 08/03 A3022 RMK SC6 SLP237,2024-08-03T17:00:00Z,8,3,15,30.22
CYTZ,43.627,-79.397,190,6,6.904679999999999,CYTZ 031700Z AUTO 19006KT 9SM CLR 25/23 A2984 RMK SLP104 DENSITY ALT 1700FT,2024-08-03T17:00:00Z,25,23,9,29.84
CYTS,48.568,-81.378,290,11,12.658579999999999,CYTS 031700Z 29011G21KT 250V310 15SM FEW062 FEW250 28/10 A2984 RMK CU1CI1 SLP105 DENSITY ALT 2800FT,2024-08-03T17:00:00Z,28,10,15,29.84
CYTR,44.115,-77.531,210,7,8.05546,CYTR 031700Z 21007KT 12SM FEW020 OVC180 27/22 A2983 RMK CU1AC7 DENSITY ALT 2157FT CU MOD SLP099,2024-08-03T17:00:00Z,27,22,12,29.83
CYTQ,58.671,-69.948,160,11,12.658579999999999,CYTQ 031700Z 16011G17KT 140V210 15SM BKN014 21/12 A2945 RMK SC5 SLP975 DENSITY ALT 1400FT,2024-08-03T17:00:00Z,21,12,15,29.45
CYTH,55.803,-97.846,320,13,14.960139999999999,CYTH 031700Z 32013G23KT 280V010 15SM SCT044 BKN075 17/06 A3010 RMK CU4AC3 SLP200,2024-08-03T17:00:00Z,17,6,15,30.10
CYTE,64.23,-76.528,60,14,16.11092,CYTE 031700Z AUTO 06014G19KT 9SM CLR 16/06 A2960 RMK SLP029 DENSITY ALT 700FT,2024-08-03T17:00:00Z,16,6,9,29.60
CYSY,71.993,-125.241,270,11,12.658579999999999,CYSY 031700Z 27011KT 15SM BKN007 02/01 A3019 RMK SC6 SLP233,2024-08-03T17:00:00Z,2,1,15,30.19
CYSP,48.759,-86.351,200,4,4.60312,CYSP 031700Z 20004KT 15SM FEW060 SCT070 SCT210 25/13 A2992 RMK SC2AC1CI1 SLP136 DENSITY ALT 2500FT,2024-08-03T17:00:00Z,25,13,15,29.92
CYSN,43.192,-79.176,230,8,9.20624,CYSN 031700Z 23008KT 15SM OVC160 24/20 A2985 RMK AC8 SLP110 DENSITY ALT 1600FT,2024-08-03T17:00:00Z,24,20,15,29.85
CYSM,60.026,-111.929,130,6,6.904679999999999,CYSM 031700Z CCA 13006KT 110V180 15SM SCT070 BKN240 20/09 A3013 RMK ACC4CI2 SLP210 DENSITY ALT 1200FT,2024-08-03T17:00:00Z,20,9,15,30.13
CYSJ,45.309,-65.886,210,9,10.357019999999999,CYSJ 031700Z 21009KT 1/4SM R23/1400V2000FT/N FG VV001 19/19 A2983 RMK FG8 SLP102 DENSITY ALT 1100FT,2024-08-03T17:00:00Z,19,19,0.25,29.83
CYSF,59.252,-105.837,,,,CYSF 031700Z AUTO /////KT 9SM BKN048 17/06 A3017 RMK WIND MISG SLP226,2024-08-03T17:00:00Z,17,6,9,30.17
CYSC,45.44,-71.692,290,8,9.20624,CYSC 031700Z AUTO 29008KT 250V320 9SM FEW037 SCT240 29/21 A2978 RMK SLP082 DENSITY ALT 2800FT,2024-08-03T17:00:00Z,29,21,9,29.78
CYSB,46.622,-80.799,330,10,11.5078,CYSB 031700Z 33010G17KT 20SM FEW060 29/14 A2985 RMK CU1 SLP108 DENSITY ALT 3100FT,2024-08-03T17:00:00Z,29,14,20,29.85
CYRV,50.958,-118.176,40,4,4.60312,CYRV 031700Z AUTO 04004KT 260V050 9SM CLR 23/13 A2995 RMK LTNG DIST W NW SLP138 DENSITY ALT 2700FT,2024-08-03T17:00:00Z,23,13,9,29.95
CYRT,62.811,-92.1,30,13,14.960139999999999,CYRT 031700Z 03013G20KT 15SM SCT035 BKN180 14/06 A2991 RMK SC3AC3 SLP133,2024-08-03T17:00:00Z,14,6,15,29.91
CYRL,51.067,-93.799,20,7,8.05546,CYRL 031700Z 02007KT 310V060 15SM FEW045 FEW100 SCT240 21/10 A3003 RMK CU1AC1CI2 AC TR SLP172 DENSITY ALT 2100FT,2024-08-03T17:00:00Z,21,10,15,30.03
CYQZ,53.027,-122.506,350,3,3.4523399999999995,CYQZ 031700Z AUTO 35003KT 300V010 9SM CLR 19/13 A3009 RMK SLP193 DENSITY ALT 2600FT,2024-08-03T17:00:00Z,19,13,9,30.09
CYQY,46.166,-60.049,190,11,12.658579999999999,CYQY 031700Z 19011G19KT 15SM FEW045 BKN250 31/19 A2983 RMK CU1CI6 CU TR SLP104 DENSITY ALT 2200FT,2024-08-03T17:00:00Z,31,19,15,29.83
CYQX,48.946,-54.576,270,10,11.5078,CYQX 031700Z 27010G17KT 20SM FEW044 FEW078 FEW150 28/17 A2982 RMK CU1AC1AC1 SLP101 DENSITY ALT 2200FT,2024-08-03T17:00:00Z,28,17,20,29.82
CYQW,52.769,-108.251,120,10,11.5078,CYQW 031700Z AUTO 12010G16KT 9SM BKN120 BKN150 20/09 A3019 RMK SLP231 DENSITY ALT 2500FT,2024-08-03T17:00:00Z,20,9,9,30.19
CYQV,51.26,-102.461,30,10,11.5078,CYQV 031700Z AUTO 03010KT 350V060 9SM FEW028 BKN150 BKN180 19/13 A3017 RMK SLP222 DENSITY ALT 2300FT,2024-08-03T17:00:00Z,19,13,9,30.17
CYQU,55.182,-118.882,330,6,6.904679999999999,CYQU 031700Z 33006KT 230V350 25SM FEW210 20/09 A3006 RMK CI2 SLP185 DENSITY ALT 3200FT,2024-08-03T17:00:00Z,20,9,25,30.06
CYQT,48.374,-89.33,310,11,12.658579999999999,CYQT 031700Z 31011KT 20SM SCT130 BKN210 24/13 A2996 RMK AC4CI3 SLP150 DENSITY ALT 1800FT,2024-08-03T17:00:00Z,24,13,20,29.96
CYQR,50.427,-104.67,90,6,6.904679999999999,CYQR 031700Z 09006KT 020V120 15SM FEW130 BKN220 23/11 A3016 RMK AC1CI4 SLP214 DENSITY ALT 3000FT,2024-08-03T17:00:00Z,23,11,15,30.16
CYQQ,49.712,-124.895,330,9,10.357019999999999,CYQQ 031700Z 33009KT 20SM SKC 22/11 A3006 RMK DENSITY ALT 874FT SLP178,2024-08-03T17:00:00Z,22,11,20,30.06
CYQM,46.107,-64.682,160,9,10.357019999999999,CYQM 031700Z 16009KT 15SM BKN150 OVC260 26/22 A2979 RMK AC7CI1 SLP088 DENSITY ALT 1800FT,2024-08-03T17:00:00Z,26,22,15,29.79
CYQL,49.627,-112.792,90,5,5.7539,CYQL 031700Z 09005KT 15SM FEW130 BKN250 23/12 A3006 RMK AC1CI5 FU SLP168 DENSITY ALT 4600FT,2024-08-03T17:00:00Z,23,12,15,30.06
CYQK,49.791,-94.361,50,6,6.904679999999999,CYQK 031700Z 05006KT 15SM FEW038 BKN065 OVC093 19/16 A3001 RMK SC1SC5AC2 SLP165 DENSITY ALT 2100FT,2024-08-03T17:00:00Z,19,16,15,30.01
CYQI,43.831,-66.088,210,9,10.357019999999999,CYQI 031700Z 21009KT 3SM -TSRA BR FEW002 FEW017 OVC090 20/20 A2981 RMK SF1SC2AC6 SF TR CB ASSOCTD PRESFR SLP098 DENSITY ALT 900FT,2024-08-03T17:00:00Z,20,20,3,29.81
CYQH,60.116,-128.832,260,4,4.60312,CYQH 031700Z 26004KT 220V300 30SM FEW030 BKN150 OVC240 12/05 A3018 RMK CU1AC4CI3 SLP236,2024-08-03T17:00:00Z,12,5,30,30.18
CYQG,42.269,-82.963,10,4,4.60312,CYQG 031700Z AUTO 01004KT 300V070 9SM CLR 29/21 A2990 RMK SLP124 DENSITY ALT 2500FT,2024-08-03T17:00:00Z,29,21,9,29.90
CYQF,52.179,-113.903,170,7,8.05546,CYQF 031700Z AUTO 17007KT 9SM CLR 21/10 A3008 RMK SLP185 DENSITY ALT 4200FT,2024-08-03T17:00:00Z,21,10,9,30.08
CYQD,53.975,-101.089,320,6,6.904679999999999,CYQD 031700Z AUTO 32006KT 9SM FEW060 20/08 A3015 RMK SLP215 DENSITY ALT 1400FT,2024-08-03T17:00:00Z,20,8,9,30.15
CYQB,46.791,-71.396,250,11,12.658579999999999,CYQB 031700Z 25011KT 10SM FEW033 FEW120 FEW210 BKN250 30/22 A2971 RMK CU1AC1CI1CI6 AC TR CI TR SLP061 DENSITY ALT 2400FT,2024-08-03T17:00:00Z,30,22,10+,29.71
CYQA,44.971,-79.303,270,7,8.05546,CYQA 031700Z AUTO 27007KT 240V320 9SM CLR 27/21 A2984 RMK SLP104 DENSITY ALT 2700FT,2024-08-03T17:00:00Z,27,21,9,29.84
CYPY,58.766,-111.117,100,8,9.20624,CYPY 031700Z AUTO 10008KT 9SM CLR 19/12 A3013 RMK SLP212 DENSITY ALT 1200FT,2024-08-03T17:00:00Z,19,12,9,30.13
CYPX,60.045,-77.281,110,12,13.809359999999998,CYPX 031700Z AUTO 11012G17KT 9SM SCT025 BKN031 BKN046 BKN081 14/10 A2927 RMK SLP915 DENSITY ALT 800FT,2024-08-03T17:00:00Z,14,10,9,29.27
CYPW,49.835,-124.499,250,6,6.904679999999999,CYPW 031700Z 25006KT 230V290 30SM SKC 21/15 A3007 RMK SLP184 DENSITY ALT 1100FT,2024-08-03T17:00:00Z,21,15,30,30.07
CYPR,54.291,-130.451,270,5,5.7539,CYPR 031700Z AUTO 27005KT 230V290 9SM SCT006 15/13 A3016 RMK SLP214,2024-08-03T17:00:00Z,15,13,9,30.16
CYPQ,44.232,-78.36,300,7,8.05546,CYPQ 031700Z AUTO 30007KT 240V340 9SM FEW027 28/22 A2983 RMK SLP102 DENSITY ALT 2500FT,2024-08-03T17:00:00Z,28,22,9,29.83
CYPL,51.449,-90.218,320,8,9.20624,CYPL 031700Z AUTO 32008G16KT 300V040 9SM FEW041 BKN055 18/08 A2998 RMK SLP157 DENSITY ALT 1900FT,2024-08-03T17:00:00Z,18,8,9,29.98
CYPG,49.903,-98.284,10,19,21.864819999999998,CYPG 031700Z 01019KT 15SM FEW032 FEW065 BKN250 23/14 A3006 RMK CF1SC1CI7 DENSITY ALT 2044FT LAST OBS /NEXT 041100 UTC SLP180,2024-08-03T17:00:00Z,23,14,15,30.06
CYPE,56.228,-117.453,70,4,4.60312,CYPE 031700Z AUTO 07004KT 020V100 9SM CLR 20/10 A3004 RMK SLP181 DENSITY ALT 2800FT,2024-08-03T17:00:00Z,20,10,9,30.04
CYPD,45.657,-61.374,180,7,8.05546,CYPD 031700Z AUTO 18007KT 160V220 9SM FEW046 BKN190 29/21 A2984 RMK SLP105 DENSITY ALT 2200FT,2024-08-03T17:00:00Z,29,21,9,29.84
CYPA,53.217,-105.679,VRB,2,2.30156,CYPA 031700Z VRB02KT 15SM SCT140 BKN270 20/10 A3018 RMK AC3CI3 SLP230 DENSITY ALT 2100FT,2024-08-03T17:00:00Z,20,10,15,30.18
CYOW,45.307,-75.66,300,5,5.7539,CYOW 031700Z 30005KT 200V320 12SM FEW040 BKN180 BKN250 31/21 A2978 RMK CU1AC4CI1 SLP085 DENSITY ALT 2500FT,2024-08-03T17:00:00Z,31,21,12,29.78
CYOO,43.921,-78.899,230,6,6.904679999999999,CYOO 031700Z AUTO 23006KT 180V240 9SM BKN220 BKN240 27/21 A2984 RMK SLP105 DENSITY ALT 2000FT,2024-08-03T17:00:00Z,27,21,9,29.84
CYOJ,58.628,-117.174,VRB,2,2.30156,CYOJ 031700Z VRB02KT 15SM FEW024 FEW110 BKN260 18/10 A3007 RMK CF1AC1CI5 CF TR SLP193 DENSITY ALT 1600FT,2024-08-03T17:00:00Z,18,10,15,30.07
CYNM,49.759,-77.793,300,13,14.960139999999999,CYNM 031700Z AUTO 30013KT 250V320 9SM FEW071 BKN095 25/11 A2974 RMK SLP075 DENSITY ALT 2600FT,2024-08-03T17:00:00Z,25,11,9,29.74
CYNE,53.958,-97.845,10,5,5.7539,CYNE 031700Z AUTO 01005G18KT 330V060 9SM BKN034 18/10 A3010 RMK SLP199 DENSITY ALT 1100FT,2024-08-03T17:00:00Z,18,10,9,30.10
CYND,45.52,-75.563,250,6,6.904679999999999,CYND 031700Z 25006KT 10SM FEW030 FEW180 BKN240 31/21 A2976 RMK CU1AC1CI5 SLP080 DENSITY ALT 2300FT,2024-08-03T17:00:00Z,31,21,10+,29.76
CYNA,50.19,-61.789,140,10,11.5078,CYNA 031700Z AUTO 14010G15KT 9SM CLR 26/20 A2969 RMK SLP056 DENSITY ALT 1600FT,2024-08-03T17:00:00Z,26,20,9,29.69
CYMX,45.68,-74.038,230,6,6.904679999999999,CYMX 031700Z 23006KT 190V300 10SM FEW060TCU BKN250 29/24 A2976 RMK TCU2CI5 SLP078 DENSITY ALT 2200FT,2024-08-03T17:00:00Z,29,24,10+,29.76
CYMU,56.538,-76.52,210,21,24.166379999999997,CYMU 031700Z 21021G27KT 1 1/4SM -RA BR OVC005 09/09 A2939 RMK ST8 CIG RAG SLP959,2024-08-03T17:00:00Z,9,9,1.25,29.39
CYMT,49.779,-74.527,240,6,6.904679999999999,CYMT 031700Z AUTO 24006KT 220V310 9SM BKN060 25/12 A2974 RMK SLP072 DENSITY ALT 2900FT,2024-08-03T17:00:00Z,25,12,9,29.74
CYMO,51.292,-80.607,300,15,17.261699999999998,CYMO 031700Z AUTO 30015G26KT 260V330 9SM SCT060 21/11 A2975 RMK SLP076 DENSITY ALT 1000FT,2024-08-03T17:00:00Z,21,11,9,29.75
CYMM,56.65,-111.221,60,4,4.60312,CYMM 031700Z AUTO 06004KT 020V100 9SM CLR 21/12 A3010 RMK SLP199 DENSITY ALT 2100FT,2024-08-03T17:00:00Z,21,12,9,30.10
CYMH,52.304,-55.833,130,12,13.809359999999998,CYMH 031700Z AUTO 13012KT 9SM BKN076 16/10 A2978 RMK SLP087 DENSITY ALT 400FT,2024-08-03T17:00:00Z,16,10,9,29.78
CYMA,63.616,-135.88,240,8,9.20624,CYMA 031700Z 24008KT 20SM FEW018 SCT065TCU BKN110 13/09 A3020 RMK SC2TCU2AC2 SLP243,2024-08-03T17:00:00Z,13,9,20,30.20
CYLW,49.953,-119.375,190,4,4.60312,CYLW 031700Z AUTO 19004KT 160V230 9SM CLR 30/12 A2995 RMK SLP134 DENSITY ALT 3400FT,2024-08-03T17:00:00Z,30,12,9,29.95
CYLU,58.708,-65.989,120,4,4.60312,CYLU 031700Z 12004KT 15SM BKN020 15/12 A2955 RMK SC7 SLP012 DENSITY ALT 700FT,2024-08-03T17:00:00Z,15,12,15,29.55
CYLL,53.312,-110.074,140,6,6.904679999999999,CYLL 031700Z 14006KT 15SM BKN085 20/10 A3015 RMK AC7 SLP217 DENSITY ALT 3100FT,2024-08-03T17:00:00Z,20,10,15,30.15
CYLK,62.419,-110.682,300,4,4.60312,CYLK 031700Z 30004KT 25SM FEW070 FEW240 17/06 A3013 RMK AC1CI1 AC TR FU SLP213 DENSITY ALT 800FT,2024-08-03T17:00:00Z,17,6,25,30.13
CYLJ,54.126,-108.519,100,3,3.4523399999999995,CYLJ 031700Z 10003KT 15SM BKN120 BKN160 19/12 A3015 RMK AC6AC1 SLP221 DENSITY ALT 2200FT,2024-08-03T17:00:00Z,19,12,15,30.15
CYLH,52.196,-87.936,310,7,8.05546,CYLH 031700Z AUTO 31007G19KT 240V340 9SM BKN045 BKN055 18/09 A2991 RMK SLP134 DENSITY ALT 1500FT,2024-08-03T17:00:00Z,18,9,9,29.91
CYLD,47.818,-83.358,280,8,9.20624,CYLD 031700Z 28008G15KT 240V330 13SM FEW045 26/09 A2992 RMK CU1 CU TR HZ SLP134 DENSITY ALT 3200FT,2024-08-03T17:00:00Z,26,9,13,29.92
CYKY,51.517,-109.175,120,9,10.357019999999999,CYKY 031700Z 12009KT 090V160 15SM FEW110 FEW150 SCT240 23/12 A3014 RMK AC2AC1CI1 AC TR SLP205 DENSITY ALT 3500FT,2024-08-03T17:00:00Z,23,12,15,30.14
CYKP,51.659,-85.901,290,10,11.5078,CYKP 031700Z AUTO 29010G21KT 270V330 9SM BKN055 21/09 A2986 RMK SLP107 DENSITY ALT 1500FT,2024-08-03T17:00:00Z,21,9,9,29.86
CYKO,60.818,-78.154,110,12,13.809359999999998,CYKO 031700Z 11012G17KT 7SM OVC018 14/11 A2930 RMK SC8 SLP926 DENSITY ALT 700FT,2024-08-03T17:00:00Z,14,11,7,29.30
CYKL,54.803,-66.804,210,8,9.20624,CYKL 031700Z AUTO 21008KT 9SM FEW038 SCT060 SCT079 SCT240 24/15 A2959 RMK SLP023 DENSITY ALT 3600FT,2024-08-03T17:00:00Z,24,15,9,29.59
CYKJ,57.256,-105.618,VRB,5,5.7539,CYKJ 031700Z AUTO VRB05KT 9SM FEW047 18/07 A3015 RMK SLP224 DENSITY ALT 2200FT,2024-08-03T17:00:00Z,18,7,9,30.15
CYKF,43.462,-80.386,230,6,6.904679999999999,CYKF 031700Z AUTO 23006KT 220V280 9SM BKN240 26/20 A2989 RMK SLP117 DENSITY ALT 2700FT,2024-08-03T17:00:00Z,26,20,9,29.89
CYKD,68.227,-135.013,170,9,10.357019999999999,CYKD 031700Z 17009KT 15SM SCT018 11/06 A3021 RMK SC4 SLP232,2024-08-03T17:00:00Z,11,6,15,30.21
CYKA,50.704,-120.444,290,8,9.20624,CYKA 031700Z 29008KT 240V320 30SM FEW120 FEW260 29/12 A2995 RMK ACC1CI1 FU SLP136 DENSITY ALT 3000FT,2024-08-03T17:00:00Z,29,12,30,29.95
CYJT,48.545,-58.564,230,9,10.357019999999999,CYJT 031700Z 23009KT 15SM SCT042 BKN085 BKN120 26/19 A2982 RMK SC3AC2AC2 SLP099 DENSITY ALT 1500FT,2024-08-03T17:00:00Z,26,19,15,29.82
CYIV,53.857,-94.655,330,8,9.20624,CYIV 031700Z AUTO 33008KT 280V340 9SM OVC086 17/10 A3004 RMK SLP179 DENSITY ALT 1100FT,2024-08-03T17:00:00Z,17,10,9,30.04
CYIO,72.694,-77.957,290,4,4.60312,CYIO 031700Z AUTO 29004KT 250V320 9SM CLR 08/04 A2993 RMK SLP142,2024-08-03T17:00:00Z,8,4,9,29.93
CYIN,51.265,-121.681,310,11,12.658579999999999,CYIN 031700Z AUTO 31011G17KT 9SM CLR 24/05 A3012 RMK SLP176 DENSITY ALT 5400FT,2024-08-03T17:00:00Z,24,5,9,30.12
CYHZ,44.8781,-63.5136,200,12,13.809359999999998,CYHZ 031700Z 20012KT 12SM FEW050 SCT150 OVC210 26/22 A2987 RMK SC1AC3CS4 SLP115 DENSITY ALT 2000FT,2024-08-03T17:00:00Z,26,22,12,29.87
CYHY,60.839,-115.781,170,10,11.5078,CYHY 031700Z 17010KT 15SM SCT120 BKN130 BKN230 20/10 A3003 RMK AC3AS2CI2 SLP175 DENSITY ALT 1100FT,2024-08-03T17:00:00Z,20,10,15,30.03
CYHU,45.516,-73.415,220,11,12.658579999999999,CYHU 031700Z AUTO 22011KT 9SM CLR 30/22 A2975 RMK SLP076 DENSITY ALT 2000FT,2024-08-03T17:00:00Z,30,22,9,29.75
CYHM,43.173,-79.936,210,6,6.904679999999999,CYHM 031700Z 21006KT 12SM FEW090 OVC190 23/23 A2989 RMK AC2AC6 SLP119 DENSITY ALT 2000FT,2024-08-03T17:00:00Z,23,23,12,29.89
CYHK,68.633,-95.851,VRB,2,2.30156,CYHK 031700Z VRB02KT 15SM FEW014 SCT020 BKN033 07/05 A3008 RMK CF1CU3SC4 SLP194,2024-08-03T17:00:00Z,7,5,15,30.08
CYHE,49.37,-121.493,270,11,12.658579999999999,CYHE 031700Z AUTO 27011KT 9SM CLR 23/17 A3002 RMK SLP168 DENSITY ALT 1000FT,2024-08-03T17:00:00Z,23,17,9,30.02
CYHD,49.83,-92.74,270,3,3.4523399999999995,CYHD 031700Z AUTO 27003KT 9SM -RA OVC055 18/15 A3002 RMK SLP171 DENSITY ALT 1900FT,2024-08-03T17:00:00Z,18,15,9,30.02
CYHA,61.048,-69.624,100,16,18.41248,CYHA 031700Z 10016G26KT 3SM -RA BR FEW004 OVC006 03/03 A2952 RMK SF2ST6 SLP001,2024-08-03T17:00:00Z,3,3,3,29.52
CYGX,56.359,-94.704,330,14,16.11092,CYGX 031700Z 33014G24KT 15SM BKN042 15/07 A3003 RMK SC7 SLP175,2024-08-03T17:00:00Z,15,7,15,30.03
CYGV,50.286,-63.606,260,6,6.904679999999999,CYGV 031700Z AUTO 26006KT 180V290 9SM CLR 26/19 A2967 RMK SLP050 DENSITY ALT 1700FT,2024-08-03T17:00:00Z,26,19,9,29.67
CYGR,47.425,-61.775,200,11,12.658579999999999,CYGR 031700Z 20011G18KT 15SM FEW140 BKN270 26/21 A2977 RMK AC2CI3 SLP083 DENSITY ALT 1600FT,2024-08-03T17:00:00Z,26,21,15,29.77
CYGK,44.223,-76.599,180,10,11.5078,CYGK 031700Z 18010KT 8SM SCT010 OVC200 28/24 A2984 RMK SF4CI4 WIND EST SLP104 DENSITY ALT 2000FT,2024-08-03T17:00:00Z,28,24,8,29.84
CYGH,66.242,-128.644,310,6,6.904679999999999,CYGH 031700Z 31006KT 270V350 20SM SCT015 BKN190 13/09 A3020 RMK SC4CI1 SLP232,2024-08-03T17:00:00Z,13,9,20,30.20
CYGE,51.3,-116.984,310,4,4.60312,CYGE 031700Z 31004KT 260V330 15SM FEW100 SCT150 24/12 A3001 RMK CI2AC1 DIST FU ALQDS SLP151 DENSITY ALT 4100FT,2024-08-03T17:00:00Z,24,12,15,30.01
CYFT,55.082,-59.189,130,15,17.261699999999998,CYFT 031700Z 13015G21KT 15SM FEW045 BKN120 15/08 A2968 RMK SC2AC3 SLP054 DENSITY ALT 600FT,2024-08-03T17:00:00Z,15,8,15,29.68
CYFS,61.76,-121.23,320,12,13.809359999999998,CYFS 031700Z 32012G19KT 15SM SCT120 SCT210 BKN250 17/11 A3005 RMK AC3CI1CI1 SLP184 DENSITY ALT 800FT,2024-08-03T17:00:00Z,17,11,15,30.05
CYFO,54.678,-101.68,10,5,5.7539,CYFO 031700Z 01005KT 270V030 6SM FU SCT062 19/06 A3015 RMK SC4 SLP217 DENSITY ALT 1500FT,2024-08-03T17:00:00Z,19,6,6,30.15
CYFC,45.873,-66.539,170,11,12.658579999999999,CYFC 031700Z AUTO 17011G16KT 9SM BKN110 BKN150 BKN210 28/23 A2976 RMK SLP078 DENSITY ALT 1900FT,2024-08-03T17:00:00Z,28,23,9,29.76
CYFB,63.75,-68.544,150,10,11.5078,CYFB 031700Z 15010KT 30SM FEW250 09/01 A2968 RMK CI1 SLP055,2024-08-03T17:00:00Z,9,1,30,29.68
CYEV,68.309,-133.5,140,7,8.05546,CYEV 031700Z 14007KT 120V190 15SM BKN016 09/04 A3022 RMK SC7 SLP242,2024-08-03T17:00:00Z,9,4,15,30.22
CYET,53.58,-116.455,30,5,5.7539,CYET 031700Z AUTO 03005KT 290V080 9SM CLR 19/10 A3008 RMK SLP185 DENSITY ALT 4100FT,2024-08-03T17:00:00Z,19,10,9,30.08
CYER,56.019,-87.675,300,15,17.261699999999998,CYER 031700Z AUTO 30015G24KT 9SM -RA OVC012 10/09 A2976 RMK SLP082,2024-08-03T17:00:00Z,10,9,9,29.76
CYEN,49.207,-102.963,50,14,16.11092,CYEN 031700Z AUTO 05014G21KT 9SM CLR 25/12 A3012 RMK SLP197 DENSITY ALT 3300FT,2024-08-03T17:00:00Z,25,12,9,30.12
CYEK,61.098,-94.072,340,18,20.714039999999997,CYEK 031700Z 34018G24KT 15SM OVC120 13/06 A2994 RMK AS8 SLP142,2024-08-03T17:00:00Z,13,6,15,29.94
CYEG,53.308,-113.592,130,10,11.5078,CYEG 031700Z 13010KT 20SM FEW080 FEW170 SCT260 22/11 A3008 RMK AC1AC1CI3 AC TR AC TR SLP185 DENSITY ALT 3600FT,2024-08-03T17:00:00Z,22,11,20,30.08
CYDQ,55.741,-120.188,VRB,2,2.30156,CYDQ 031700Z AUTO VRB02KT 9SM CLR 20/08 A3007 RMK SLP190 DENSITY ALT 3100FT,2024-08-03T17:00:00Z,20,8,9,30.07
CYDP,56.549,-61.684,90,12,13.809359999999998,CYDP 031700Z 09012KT 15SM SCT059 BKN095 BKN230 10/07 A2967 RMK SC3AC2CS2 SLP050,2024-08-03T17:00:00Z,10,7,15,29.67
CYDN,51.1,-100.057,30,13,14.960139999999999,CYDN 031700Z AUTO 03013KT 360V080 9SM SCT043 SCT050 21/12 A3014 RMK SLP211 DENSITY ALT 1700FT,2024-08-03T17:00:00Z,21,12,9,30.14
CYDL,58.426,-130.025,60,5,5.7539,CYDL 031700Z AUTO 06005KT 9SM SCT140 SCT160 10/04 A3022 RMK SLP237,2024-08-03T17:00:00Z,10,4,9,30.22
CYDF,49.212,-57.394,210,13,14.960139999999999,CYDF 031700Z 21013KT 15SM SCT220 30/14 A2978 RMK CI3 SLP087 DENSITY ALT 2000FT,2024-08-03T17:00:00Z,30,14,15,29.78
CYDC,49.468,-120.514,VRB,2,2.30156,CYDC 031700Z VRB02KT 5SM FU SKC 26/12 A3005 RMK FU4 VIS HIER N SLP152 DENSITY ALT 4000FT,2024-08-03T17:00:00Z,26,12,5,30.05
CYDB,61.37,-139.032,320,3,3.4523399999999995,CYDB 031700Z 32003KT 280V360 15SM SCT095 12/07 A3027 RMK AC3 SLP274,2024-08-03T17:00:00Z,12,7,15,30.27
CYDA,64.044,-139.127,260,4,4.60312,CYDA 031700Z 26004KT 220V350 20SM SCT031 BKN095 BKN210 12/08 A3024 RMK SC4AC3CI1 CI TR CU EMBD SLP255,2024-08-03T17:00:00Z,12,8,20,30.24
CYCY,70.484,-68.515,350,15,17.261699999999998,CYCY 031700Z AUTO 35015KT 9SM CLR 11/06 A2986 RMK SLP116,2024-08-03T17:00:00Z,11,6,9,29.86
CYCQ,55.689,-121.62,200,4,4.60312,CYCQ 031700Z 20004KT 170V250 35SM BKN240 19/10 A3008 RMK CI6 FU DIST MT W SLP194 DENSITY ALT 2800FT,2024-08-03T17:00:00Z,19,10,35,30.08
CYCP,52.129,-119.29,VRB,2,2.30156,CYCP 031700Z VRB02KT 15SM SCT120CB BKN170 BKN350 21/12 A3003 RMK CB4AC1CI1 SLP166 DENSITY ALT 3400FT,2024-08-03T17:00:00Z,21,12,15,30.03
CYCO,67.817,-115.135,350,9,10.357019999999999,CYCO 031700Z 35009KT 10SM -DZ OVC014 08/06 A3019 RMK ST8 DZ INTMT SLP225,2024-08-03T17:00:00Z,8,6,10+,30.19
CYCK,42.307,-82.085,20,7,8.05546,CYCK 031700Z AUTO 02007KT 320V040 9SM FEW028 29/22 A2989 RMK SLP118 DENSITY ALT 2500FT,2024-08-03T17:00:00Z,29,22,9,29.89
CYCG,49.295,-117.634,VRB,2,2.30156,CYCG 031700Z VRB02KT 4SM FU SKC 25/13 A2995 RMK FU3 SLP136 DENSITY ALT 3100FT,2024-08-03T17:00:00Z,25,13,4,29.95
CYCD,49.052,-123.874,30,5,5.7539,CYCD 031700Z 03005KT 360V080 30SM SKC 24/14 A3006 RMK SLP180 DENSITY ALT 1100FT,2024-08-03T17:00:00Z,24,14,30,30.06
CYCB,69.106,-105.116,180,11,12.658579999999999,CYCB 031700Z 18011KT 15SM BKN047 BKN080 BKN210 09/05 A3005 RMK SC5AC1CI1 SH DIST SW SLP180,2024-08-03T17:00:00Z,9,5,15,30.05
CYCA,53.683,-57.042,50,6,6.904679999999999,CYCA 031700Z AUTO 05006KT 360V090 9SM OVC100 18/11 A2972 RMK SLP068 DENSITY ALT 700FT,2024-08-03T17:00:00Z,18,11,9,29.72
CYBW,51.108,-114.382,110,4,4.60312,CYBW 031700Z AUTO 11004KT 060V140 9SM CLR 19/11 A3009 RMK SLP187 DENSITY ALT 5200FT,2024-08-03T17:00:00Z,19,11,9,30.09
CYBU,53.333,-104.005,180,3,3.4523399999999995,CYBU 031700Z AUTO 18003KT 150V250 9SM CLR 20/10 A3018 RMK SLP229 DENSITY ALT 1800FT,2024-08-03T17:00:00Z,20,10,9,30.18
CYBR,49.91,-99.945,40,13,14.960139999999999,CYBR 031700Z 04013G22KT 10SM FEW059 SCT250 22/13 A3008 RMK SC1CI4 SC TR SLP190 DENSITY ALT 2300FT,2024-08-03T17:00:00Z,22,13,10+,30.08
CYBQ,58.707,-98.511,340,4,4.60312,CYBQ 031700Z AUTO 34004KT 280V020 9SM OVC060 13/11 A3009 RMK PCPN 1.0MM PAST HR SLP201,2024-08-03T17:00:00Z,13,11,9,30.09
CYBL,49.951,-125.269,330,8,9.20624,CYBL 031700Z 33008KT 30SM SKC 23/12 A3006 RMK SLP182 DENSITY ALT 1200FT,2024-08-03T17:00:00Z,23,12,30,30.06
CYBK,64.306,-96.078,350,9,10.357019999999999,CYBK 031700Z 35009KT 15SM FEW028 FEW180 SCT220 14/04 A3000 RMK CU1AC1CI3 CU TR SLP161,2024-08-03T17:00:00Z,14,4,15,30.00
CYBG,48.331,-70.989,270,4,4.60312,CYBG 031700Z 27004KT 20SM FEW050TCU FEW070CB SCT250 30/21 A2968 RMK TCU1CB1CI1 DENSITY ALT 2957FT CB DIST SE MOV E TCU S QUAD MOV E SLP049,2024-08-03T17:00:00Z,30,21,20,29.68
CYBD,52.388,-126.589,280,3,3.4523399999999995,CYBD 031700Z 28003KT 250V340 15SM SKC 21/15 A3009 RMK SLP190 DENSITY ALT 700FT,2024-08-03T17:00:00Z,21,15,15,30.09
CYBC,49.135,-68.202,220,11,12.658579999999999,CYBC 031700Z AUTO 22011KT 9SM CLR 26/20 A2963 RMK SLP037 DENSITY ALT 1700FT,2024-08-03T17:00:00Z,26,20,9,29.63
CYAZ,49.08,-125.767,200,5,5.7539,CYAZ 031700Z 20005KT 2SM BR MIFG OVC003 14/14 A3009 RMK FG2ST6 VIS LWR E -SE OVR RWY APCH SLP193,2024-08-03T17:00:00Z,14,14,2,30.09
CYAY,51.39,-56.081,170,5,5.7539,CYAY 031700Z AUTO 17005KT 140V210 9SM OVC015 18/16 A2978 RMK SLP086 DENSITY ALT 700FT,2024-08-03T17:00:00Z,18,16,9,29.78
CYAT,52.927,-82.432,290,17,19.56326,CYAT 031700Z AUTO 29017G29KT 9SM BKN026 BKN035 OVC060 17/12 A2970 RMK SLP061 DENSITY ALT 600FT,2024-08-03T17:00:00Z,17,12,9,29.70
CYAS,60.026,-70.004,20,6,6.904679999999999,CYAS 031700Z 02006KT 15SM FEW009 SCT050 12/09 A2946 RMK ST2SC2 SLP985 DENSITY ALT 800FT,2024-08-03T17:00:00Z,12,9,15,29.46
CYAM,46.484,-84.504,290,10,11.5078,CYAM 031700Z 29010KT 15SM FEW270 25/14 A2994 RMK CI1 CI TR SLP139 DENSITY ALT 2000FT,2024-08-03T17:00:00Z,25,14,15,29.94
CYAB,73.003,-85.029,260,12,13.809359999999998,CYAB 031700Z 26012G22KT 210V280 15SM FEW020 BKN045 09/02 A2999 RMK SC1SC4 SLP158,2024-08-03T17:00:00Z,9,2,15,29.99
CXZV,50.217,-66.26,140,7,8.05546,CXZV 031700Z AUTO 14007KT 21/19 RMK AO1 SLP040 T02110187 58009,2024-08-03T17:00:00Z,21.1,18.7,,
CXZC,51.292,-80.618,290,7,8.05546,CXZC 031700Z AUTO 29007G15KT 22/10 RMK AO1 PK WND 27017/1608 SLP082 T02220096 51011,2024-08-03T17:00:00Z,22.2,9.6,,
CXYH,61.242,-123.742,60,4,4.60312,CXYH 031700Z AUTO 06004KT 21/10 RMK AO1 SLP180 T02110102 52006,2024-08-03T17:00:00Z,21.1,10.2,,
CXWN,49.889,-97.13,30,7,8.05546,CXWN 031700Z AUTO 03007G16KT 22/12 RMK AO1 SLP167 T02230122 53007,2024-08-03T17:00:00Z,22.3,12.2,,
CXVN,43.183,-79.4,210,6,6.904679999999999,CXVN 031700Z AUTO 21006KT 25/20 RMK AO1 SLP111 T02460203 51003,2024-08-03T17:00:00Z,24.6,20.3,,
CXVM,53.344,-110.882,140,6,6.904679999999999,CXVM 031700Z AUTO 14006KT 20/10 RMK AO1 T02020101,2024-08-03T17:00:00Z,20.2,10.1,,
CXTV,68.746,-133.502,160,6,6.904679999999999,CXTV 031700Z AUTO 16006KT 08/04 RMK AO1 SLP239 T00840044 58002,2024-08-03T17:00:00Z,8.4,4.4,,
CXTP,48.557,-53.975,250,7,8.05546,CXTP 031700Z AUTO 25007KT 29/16 RMK AO1 SLP100 T02870157 58008,2024-08-03T17:00:00Z,28.7,15.7,,
CXTO,43.667,-79.4,,,,CXTO 031700Z AUTO 26/20 RMK AO1 SLP106 T02630203 50000,2024-08-03T17:00:00Z,26.3,20.3,,
CXTN,69.199,-122.359,310,4,4.60312,CXTN 031700Z AUTO 31004KT 01/01 RMK AO1 3011 SLP260 T00070006 50002,2024-08-03T17:00:00Z,0.7,0.6,,
CXTH,53.625,-111.678,150,7,8.05546,CXTH 031700Z AUTO 15007KT 19/10 RMK AO1 T01920095,2024-08-03T17:00:00Z,19.2,9.5,,
CXTD,45.608,-61.68,210,7,8.05546,CXTD 031700Z AUTO 21007KT 29/20 RMK AO1 SLP107 T02870202 56006,2024-08-03T17:00:00Z,28.7,20.2,,
CXSH,46.564,-72.733,170,5,5.7539,CXSH 031700Z AUTO 17005KT 31/22 RMK AO1 SLP067 T03080223 58015,2024-08-03T17:00:00Z,30.8,22.3,,
CXSE,73.766,-105.296,90,4,4.60312,CXSE 031700Z AUTO 09004KT 03/01 RMK AO1 SLP149 T00270012 53003,2024-08-03T17:00:00Z,2.7,1.2,,
CXRL,54.503,-111.691,80,2,2.30156,CXRL 031700Z AUTO 08002KT 16/12 RMK AO1 T01600122,2024-08-03T17:00:00Z,16,12.2,,
CXRH,49.57,-57.878,250,8,9.20624,CXRH 031700Z AUTO 25008KT 25/16 RMK AO1 PK WND 26017/1608 SLP092 T02520163 56009,2024-08-03T17:00:00Z,25.2,16.3,,
CXRB,74.716,-94.983,320,6,6.904679999999999,CXRB 031700Z AUTO 32006KT 03/02 RMK AO1 SOG 01 2010 SLP151 T00250023,2024-08-03T17:00:00Z,2.5,2.3,,
CXPC,45.344,-80.044,,,,CXPC 031700Z AUTO 27/18 RMK AO1 SLP102 T02710175 57001,2024-08-03T17:00:00Z,27.1,17.5,,
CXOX,55.146,-105.27,270,4,4.60312,CXOX 031700Z AUTO 27004KT 21/08 RMK AO1 SLP216 T02050083 58010,2024-08-03T17:00:00Z,20.5,8.3,,
CXNP,45.76,-64.241,300,5,5.7539,CXNP 031700Z AUTO 30005KT 23/20 RMK AO1 SLP099 T02340195 56007,2024-08-03T17:00:00Z,23.4,19.5,,
CXNM,46.818,-60.673,220,10,11.5078,CXNM 031700Z AUTO 22010G16KT 27/20 RMK AO1 T02720199,2024-08-03T17:00:00Z,27.2,19.9,,
CXMY,44.984,-62.484,,,,CXMY 031700Z AUTO 26/21 RMK AO1 T02580212,2024-08-03T17:00:00Z,25.8,21.2,,
CXMM,56.649,-111.221,70,5,5.7539,CXMM 031700Z AUTO 07005KT 21/11 RMK AO1 SLP201 T02130113 56018,2024-08-03T17:00:00Z,21.3,11.3,,
CXMI,44.602,-63.534,220,11,12.658579999999999,CXMI 031700Z AUTO 22011KT 22/21 RMK AO1 SLP113 T02150207 56003,2024-08-03T17:00:00Z,21.5,20.7,,
CXMG,56.974,-117.451,120,2,2.30156,CXMG 031700Z AUTO 12002KT 17/11 RMK AO1 T01710108,2024-08-03T17:00:00Z,17.1,10.8,,
CXMD,49.188,-98.084,30,18,20.714039999999997,CXMD 031700Z AUTO 03018G24KT 23/12 RMK AO1 PK WND 02027/1634 SLP161 T02340115 52011,2024-08-03T17:00:00Z,23.4,11.5,,
CXLL,61.125,-122.851,20,4,4.60312,CXLL 031700Z AUTO 02004KT 19/12 RMK AO1 SLP196 T01870116 52010,2024-08-03T17:00:00Z,18.7,11.6,,
CXLC,63.601,-113.866,330,2,2.30156,CXLC 031700Z AUTO 33002KT 16/09 RMK AO1 SLP210 T01560088 56003,2024-08-03T17:00:00Z,15.6,8.8,,
CXLB,44.36,-64.296,170,5,5.7539,CXLB 031700Z AUTO 17005KT 20/19 RMK AO1 SLP101 T02000186 58012,2024-08-03T17:00:00Z,20,18.6,,
CXKT,45.067,-64.478,210,5,5.7539,CXKT 031700Z AUTO 21005KT 26/23 RMK AO1 SLP101 T02610228 57003,2024-08-03T17:00:00Z,26.1,22.8,,
CXKM,52.849,-111.873,120,8,9.20624,CXKM 031700Z AUTO 12008KT 21/13 RMK AO1 T02090132,2024-08-03T17:00:00Z,20.9,13.2,,
CXKI,48.15,-80,310,11,12.658579999999999,CXKI 031700Z AUTO 31011G17KT 27/12 RMK AO1 PK WND 28017/1652 SLP088 T02680124 58006,2024-08-03T17:00:00Z,26.8,12.4,,
CXKE,45.005,-75.637,220,4,4.60312,CXKE 031700Z AUTO 22004KT 30/22 RMK AO1 SLP088 T03020216 57003,2024-08-03T17:00:00Z,30.2,21.6,,
CXKA,49.405,-82.443,290,11,12.658579999999999,CXKA 031700Z AUTO 29011G20KT 24/12 RMK AO1 PK WND 28020/1657 SLP110 T02410115 54000,2024-08-03T17:00:00Z,24.1,11.5,,
CXIB,46.663,-60.406,260,4,4.60312,CXIB 031700Z AUTO 26004KT 32/19 RMK AO1 SLP088 T03220191 56009,2024-08-03T17:00:00Z,32.2,19.1,,
CXHP,55.396,-116.48,70,6,6.904679999999999,CXHP 031700Z AUTO 07006KT 19/12 RMK AO1 T01880119,2024-08-03T17:00:00Z,18.8,11.9,,
CXHM,43.286,-79.905,250,2,2.30156,CXHM 031700Z AUTO 25002KT 25/21 RMK AO1 SLP114 T02500207 51002,2024-08-03T17:00:00Z,25,20.7,,
CXHD,53.185,-112.246,130,8,9.20624,CXHD 031700Z AUTO 13008KT 22/11 RMK AO1 T02210111,2024-08-03T17:00:00Z,22.1,11.1,,
CXHA,42.033,-82.896,20,6,6.904679999999999,CXHA 031700Z AUTO 02006KT 29/20 RMK AO1 SLP121 T02860197 54000,2024-08-03T17:00:00Z,28.6,19.7,,
CXGH,50.631,-96.984,20,16,18.41248,CXGH 031700Z AUTO 02016KT 20/13 RMK AO1 PK WND 01020/1646 SLP181 T01970126 52007,2024-08-03T17:00:00Z,19.7,12.6,,
CXFR,56.081,-118.44,120,2,2.30156,CXFR 031700Z AUTO 12002KT 20/10 RMK AO1 T01970097,2024-08-03T17:00:00Z,19.7,9.7,,
CXET,44.234,-79.779,360,2,2.30156,CXET 031700Z AUTO 36002KT 27/20 RMK AO1 SLP109 T02680201 50000,2024-08-03T17:00:00Z,26.8,20.1,,
CXEG,53.307,-113.606,130,10,11.5078,CXEG 031700Z AUTO 13010KT 22/11 RMK AO1 SLP182 T02180107 57016,2024-08-03T17:00:00Z,21.8,10.7,,
CXEC,53.573,-113.517,80,8,9.20624,CXEC 031700Z AUTO 08008KT 22/09 RMK AO1 SLP182 T02240090 58018,2024-08-03T17:00:00Z,22.4,9,,
CXEA,50.631,-93.221,300,3,3.4523399999999995,CXEA 031700Z AUTO 30003KT 19/11 RMK AO1 5001 SLP170 T01920114 50004,2024-08-03T17:00:00Z,19.2,11.4,,
CXDW,49.4,-98.319,10,15,17.261699999999998,CXDW 031700Z AUTO 01015G21KT 23/14 RMK AO1 PK WND 01022/1645 SLP173 T02300135 53010,2024-08-03T17:00:00Z,23,13.5,,
CXDK,61.257,-124.468,0,0,0.0,CXDK 031700Z AUTO 00000KT 18/08 RMK AO1 SLP193 T01830080 51003,2024-08-03T17:00:00Z,18.3,8,,
CXDI,42.864,-80.545,200,3,3.4523399999999995,CXDI 031700Z AUTO 20003KT 23/20 RMK AO1 0001 SLP121 T02280200 50003,2024-08-03T17:00:00Z,22.8,20,,
CXDE,65.209,-123.434,340,8,9.20624,CXDE 031700Z AUTO 34008KT 15/10 RMK AO1 SLP210 T01480100 53010,2024-08-03T17:00:00Z,14.8,10,,
CXDB,49.048,-112.808,170,9,10.357019999999999,CXDB 031700Z AUTO 17009KT 27/08 RMK AO1 T02730078,2024-08-03T17:00:00Z,27.3,7.8,,
CXCP,50.281,-113.35,150,5,5.7539,CXCP 031700Z AUTO 15005KT 22/12 RMK AO1 T02170119,2024-08-03T17:00:00Z,21.7,11.9,,
CXCK,62.115,-136.192,280,2,2.30156,CXCK 031700Z AUTO 28002KT 12/10 RMK AO1 1004 SLP260 T01160101 50014,2024-08-03T17:00:00Z,11.6,10.1,,
CXCA,49.154,-88.344,330,5,5.7539,CXCA 031700Z AUTO 33005KT 24/12 RMK AO1 SLP139 T02400115 58009,2024-08-03T17:00:00Z,24,11.5,,
CXBO,46.837,-71.197,250,8,9.20624,CXBO 031700Z AUTO 25008KT 31/21 RMK AO1 T03060208,2024-08-03T17:00:00Z,30.6,20.8,,
CXBK,50.201,-104.71,80,6,6.904679999999999,CXBK 031700Z AUTO 08006KT 23/10 RMK AO1 SLP212 T02260095 58007,2024-08-03T17:00:00Z,22.6,9.5,,
CXBI,44.484,-79.546,290,10,11.5078,CXBI 031700Z AUTO 29010KT 27/20 RMK AO1 SLP116 T02680198 51002,2024-08-03T17:00:00Z,26.8,19.8,,
CXAT,73.006,-85.033,310,8,9.20624,CXAT 031700Z AUTO 31008KT 05/01 RMK AO1 SLP161 T00520008 52008,2024-08-03T17:00:00Z,5.2,0.8,,
CXAG,53.917,-112.279,90,4,4.60312,CXAG 031700Z AUTO 09004KT 17/12 RMK AO1 T01680123 50010,2024-08-03T17:00:00Z,16.8,12.3,,
CWZW,60.167,-132.733,190,3,3.4523399999999995,CWZW 031700Z AUTO 19003KT 11/07 RMK AO1 SLP255 T01080066 58002,2024-08-03T17:00:00Z,10.8,6.6,,
CWZV,51.936,-131.016,,,,CWZV 031700Z AUTO 14/13 RMK AO1 SLP224 T01380126 51001,2024-08-03T17:00:00Z,13.8,12.6,,
CWZQ,46.547,-61.049,210,8,9.20624,CWZQ 031700Z AUTO 21008KT 29/20 RMK AO1 SLP105 T02900200 56006,2024-08-03T17:00:00Z,29,20,,
CWZO,48.568,-123.265,170,7,8.05546,CWZO 031700Z AUTO 17007KT RMK AO1,2024-08-03T17:00:00Z,,,,
CWZN,47.368,-55.795,250,10,11.5078,CWZN 031700Z AUTO 25010KT 17/14 RMK AO1 SLP114 T01670143 58001,2024-08-03T17:00:00Z,16.7,14.3,,
CWZL,53.03,-131.602,350,14,16.11092,CWZL 031700Z AUTO 35014G19KT 19/09 RMK AO1 PK WND 34019/1658 SLP230 T01900088 58001,2024-08-03T17:00:00Z,19,8.8,,
CWZG,51.194,-115.552,220,4,4.60312,CWZG 031700Z AUTO 22004KT 21/08 RMK AO1 SLP162 T02120076 58022,2024-08-03T17:00:00Z,21.2,7.6,,
CWZA,49.244,-121.759,280,2,2.30156,CWZA 031700Z AUTO 28002KT 22/17 RMK AO1 SLP176 T02230174 58006,2024-08-03T17:00:00Z,22.3,17.4,,
CWYY,49.028,-119.441,240,2,2.30156,CWYY 031700Z AUTO 24002KT 32/12 RMK AO1 SLP112 T03230121 58014,2024-08-03T17:00:00Z,32.3,12.1,,
CWYL,51.443,-116.345,270,2,2.30156,CWYL 031700Z AUTO 27002KT 23/12 RMK AO1 SOG 01 8017 SLP168 T02340120,2024-08-03T17:00:00Z,23.4,12,,
CWYJ,48.457,-123.305,100,1,1.15078,CWYJ 031700Z AUTO 10001KT 17/11 RMK AO1 SLP184 T01740110 58001,2024-08-03T17:00:00Z,17.4,11,,
CWXL,49.734,-111.45,120,10,11.5078,CWXL 031700Z AUTO 12010G16KT 27/12 RMK AO1 SLP164 T02740123 58018,2024-08-03T17:00:00Z,27.4,12.3,,
CWXI,51.022,-57.096,220,15,17.261699999999998,CWXI 031700Z AUTO 22015KT 20/17 RMK AO1 PK WND 22022/1606 SLP083 T01980167 51004,2024-08-03T17:00:00Z,19.8,16.7,,
CWXC,48.894,-71.032,200,5,5.7539,CWXC 031700Z AUTO 20005KT 27/18 RMK AO1 SLP052 T02680181 56013,2024-08-03T17:00:00Z,26.8,18.1,,
CWXA,51.083,-115.066,290,5,5.7539,CWXA 031700Z AUTO 29005KT 24/08 RMK AO1 SLP188 T02390076 56023,2024-08-03T17:00:00Z,23.9,7.6,,
CWWZ,43.244,-79.218,200,5,5.7539,CWWZ 031700Z AUTO 20005KT 25/21 RMK AO1 SLP110 T02510207 50002,2024-08-03T17:00:00Z,25.1,20.7,,
CWWS,52.819,-97.616,330,17,19.56326,CWWS 031700Z AUTO 33017KT 19/10 RMK AO1 PK WND 33021/1630 SLP200 T01860104 50002,2024-08-03T17:00:00Z,18.6,10.4,,
CWWL,53.493,-130.638,340,16,18.41248,CWWL 031700Z AUTO 34016KT 14/12 RMK AO1 PK WND 34021/1632 SLP216 T01370120 55000,2024-08-03T17:00:00Z,13.7,12,,
CWWK,49.018,-122.784,250,3,3.4523399999999995,CWWK 031700Z AUTO 25003KT 19/13 RMK AO1 SLP188 T01920130 58001,2024-08-03T17:00:00Z,19.2,13,,
CWWF,49.695,-103.801,50,9,10.357019999999999,CWWF 031700Z AUTO 05009KT 24/10 RMK AO1 SLP207 T02420099 55000,2024-08-03T17:00:00Z,24.2,9.9,,
CWWE,43.989,-64.662,200,6,6.904679999999999,CWWE 031700Z AUTO 20006KT 15/15 RMK AO1 SLP116 T01530151 58007,2024-08-03T17:00:00Z,15.3,15.1,,
CWWB,43.302,-79.791,210,7,8.05546,CWWB 031700Z AUTO 21007KT 25/20 RMK AO1 SLP114 T02540196 51003,2024-08-03T17:00:00Z,25.4,19.6,,
CWWA,49.347,-123.193,190,1,1.15078,CWWA 031700Z AUTO 19001KT 21/12 RMK AO1 SLP183 T02130116 58002,2024-08-03T17:00:00Z,21.3,11.6,,
CWVU,44.287,-66.342,140,15,17.261699999999998,CWVU 031700Z AUTO 14015G20KT 17/17 RMK AO1 6PAST HR 8019 PK WND 13021/1647 SLP085 P0006 T01690167 50123,2024-08-03T17:00:00Z,16.9,16.7,,
CWVT,55.841,-108.421,50,5,5.7539,CWVT 031700Z AUTO 05005KT 21/08 RMK AO1 SLP228 T02130081 58012,2024-08-03T17:00:00Z,21.3,8.1,,
CWVQ,45.427,-73.929,240,8,9.20624,CWVQ 031700Z AUTO 24008KT 29/24 RMK AO1 SLP079 T02900235 56007,2024-08-03T17:00:00Z,29,23.5,,
CWVP,49.64,-109.514,120,11,12.658579999999999,CWVP 031700Z AUTO 12011G17KT 21/12 RMK AO1 PK WND 14017/1646 SLP192 T02130115 58013,2024-08-03T17:00:00Z,21.3,11.5,,
CWVN,49.058,-107.586,90,9,10.357019999999999,CWVN 031700Z AUTO 09009KT 25/09 RMK AO1 SLP199 T02500086 58005,2024-08-03T17:00:00Z,25,8.6,,
CWVI,53.505,-112.098,100,6,6.904679999999999,CWVI 031700Z AUTO 10006KT 22/11 RMK AO1 SLP196 T02160108 58012,2024-08-03T17:00:00Z,21.6,10.8,,
CWVH,68.894,-133.943,140,10,11.5078,CWVH 031700Z AUTO 14010KT 120V180 ////SM ////// ///// A////,2024-08-03T17:00:00Z,,,,
CWVF,49.106,-123.303,150,3,3.4523399999999995,CWVF 031700Z AUTO 15003KT 20/14 RMK AO1 T01970142,2024-08-03T17:00:00Z,19.7,14.2,,
CWUX,48.298,-70.92,10,3,3.4523399999999995,CWUX 031700Z AUTO 01003KT 30/20 RMK AO1 SLP053 T02990202 58012,2024-08-03T17:00:00Z,29.9,20.2,,
CWUS,49.563,-119.649,20,3,3.4523399999999995,CWUS 031700Z AUTO 02003KT 29/14 RMK AO1 SLP129 T02900143 58008,2024-08-03T17:00:00Z,29,14.3,,
CWTY,46.354,-72.516,210,9,10.357019999999999,CWTY 031700Z AUTO 21009KT 28/24 RMK AO1 SLP061 T02770235 58014,2024-08-03T17:00:00Z,27.7,23.5,,
CWTT,45.27,-72.17,260,6,6.904679999999999,CWTT 031700Z AUTO 26006KT 28/20 RMK AO1 T02830201,2024-08-03T17:00:00Z,28.3,20.1,,
CWTN,47.079,-70.781,250,5,5.7539,CWTN 031700Z AUTO 25005KT 31/22 RMK AO1 SLP053 T03090215 58013,2024-08-03T17:00:00Z,30.9,21.5,,
CWTG,49.317,-67.381,270,8,9.20624,CWTG 031700Z AUTO 27008KT 17/15 RMK AO1 SLP037 T01720153 58014,2024-08-03T17:00:00Z,17.2,15.3,,
CWTA,45.506,-73.579,200,4,4.60312,CWTA 031700Z AUTO 20004KT 30/22 RMK AO1 SLP076 T02980215 56007,2024-08-03T17:00:00Z,29.8,21.5,,
CWSW,49.834,-114.881,VRB,2,2.30156,CWSW 031700Z VRB02KT 14SM FEW120 SCT270 25/09 A3008 RMK AC2CI2 FU ALQDS SLP155 DENSITY ALT 5700FT,2024-08-03T17:00:00Z,25,9,14,30.08
CWST,47.354,-70.03,240,10,11.5078,CWST 031700Z AUTO 24010G15KT 30/22 RMK AO1 PK WND 23018/1641 SLP047 T03020223 58016,2024-08-03T17:00:00Z,30.2,22.3,,
CWSS,45.21,-67.253,140,3,3.4523399999999995,CWSS 031700Z AUTO 14003KT 25/21 RMK AO1 SLP087 T02530209 58008,2024-08-03T17:00:00Z,25.3,20.9,,
CWSR,53.368,-107.553,110,3,3.4523399999999995,CWSR 031700Z AUTO 11003KT 19/09 RMK AO1 SLP233 T01850092 55004,2024-08-03T17:00:00Z,18.5,9.2,,
CWSP,48.377,-123.921,290,17,19.56326,CWSP 031700Z AUTO 29017KT 13/12 RMK AO1 PK WND 29020/1637 SLP193 T01260118 50000,2024-08-03T17:00:00Z,12.6,11.8,,
CWSL,50.703,-119.291,10,3,3.4523399999999995,CWSL 031700Z AUTO 01003KT 25/16 RMK AO1 SLP139 T02490156 58006,2024-08-03T17:00:00Z,24.9,15.6,,
CWSK,49.783,-123.161,190,3,3.4523399999999995,CWSK 031700Z AUTO 19003KT 25/16 RMK AO1 SLP171 T02470164 58013,2024-08-03T17:00:00Z,24.7,16.4,,
CWSG,49.109,-66.655,300,2,2.30156,CWSG 031700Z AUTO 30002KT 23/18 RMK AO1 SLP042 T02280184 58010,2024-08-03T17:00:00Z,22.8,18.4,,
CWSF,49.251,-65.325,100,5,5.7539,CWSF 031700Z AUTO 10005KT 22/18 RMK AO1 SLP043 T02200176 58013,2024-08-03T17:00:00Z,22,17.6,,
CWSD,46.441,-63.837,200,11,12.658579999999999,CWSD 031700Z AUTO 20011KT 26/23 RMK AO1 SLP089 T02560226 56006,2024-08-03T17:00:00Z,25.6,22.6,,
CWRZ,48.419,-64.317,210,5,5.7539,CWRZ 031700Z AUTO 21005KT 24/20 RMK AO1 SLP051 T02380195 58011,2024-08-03T17:00:00Z,23.8,19.5,,
CWRY,49.133,-112.051,180,16,18.41248,CWRY 031700Z AUTO 18016KT 27/10 RMK AO1 PK WND 17022/1642 SLP161 T02650097 58016,2024-08-03T17:00:00Z,26.5,9.7,,
CWRU,50.112,-127.941,350,10,11.5078,CWRU 031700Z AUTO 35010KT 14/13 RMK AO1 8001 SLP201 T01420126 50002,2024-08-03T17:00:00Z,14.2,12.6,,
CWRT,49.628,-114.482,320,1,1.15078,CWRT 031700Z AUTO 32001KT 26/09 RMK AO1 SLP157 T02610093 58022,2024-08-03T17:00:00Z,26.1,9.3,,
CWRO,54.161,-131.66,270,13,14.960139999999999,CWRO 031700Z AUTO 27013KT 16/14 RMK AO1 PK WND 27018/1625 SLP228 T01560137 53003,2024-08-03T17:00:00Z,15.6,13.7,,
CWRN,45.347,-60.98,200,16,18.41248,CWRN 031700Z AUTO 20016KT 24/20 RMK AO1 PK WND 20020/1647 SLP114 T02400203 55004,2024-08-03T17:00:00Z,24,20.3,,
CWRM,52.431,-114.907,140,3,3.4523399999999995,CWRM 031700Z AUTO 14003KT 20/10 RMK AO1 SLP159 T02020097 56012,2024-08-03T17:00:00Z,20.2,9.7,,
CWRK,45.072,-77.879,270,3,3.4523399999999995,CWRK 031700Z AUTO 27003KT 28/17 RMK AO1 SLP103 T02800170 56001,2024-08-03T17:00:00Z,28,17,,
CWRJ,51.565,-107.924,110,9,10.357019999999999,CWRJ 031700Z AUTO 11009KT 22/08 RMK AO1 SLP214 T02190083 56018,2024-08-03T17:00:00Z,21.9,8.3,,
CWRA,46.659,-53.073,220,10,11.5078,CWRA 031700Z AUTO 22010KT 15/14 RMK AO1 3001 SLP145 T01520142 50002,2024-08-03T17:00:00Z,15.2,14.2,,
CWQV,48.26,-70.116,280,11,12.658579999999999,CWQV 031700Z AUTO 28011KT 27/20 RMK AO1 T02710199,2024-08-03T17:00:00Z,27.1,19.9,,
CWQR,50.221,-64.207,130,8,9.20624,CWQR 031700Z AUTO 13008KT 16/14 RMK AO1 T01580136,2024-08-03T17:00:00Z,15.8,13.6,,
CWQP,43.84,-77.153,230,11,12.658579999999999,CWQP 031700Z AUTO 23011KT 26/26 RMK AO1 SLP108 T02550255 53003,2024-08-03T17:00:00Z,25.5,25.5,,
CWQO,48.416,-68.893,240,15,17.261699999999998,CWQO 031700Z AUTO 24015KT 18/16 RMK AO1 PK WND 22017/1604 T01770156,2024-08-03T17:00:00Z,17.7,15.6,,
CWQK,48.298,-123.531,260,21,24.166379999999997,CWQK 031700Z AUTO 26021KT 12/12 RMK AO1 PK WND 27022/1649 SLP184 T01170117 58003,2024-08-03T17:00:00Z,11.7,11.7,,
CWQH,45.369,-71.824,250,3,3.4523399999999995,CWQH 031700Z AUTO 25003KT 29/21 RMK AO1 SLP082 T02910206 56010,2024-08-03T17:00:00Z,29.1,20.6,,
CWPZ,54.383,-125.959,320,4,4.60312,CWPZ 031700Z AUTO 32004KT 19/06 RMK AO1 SLP208 T01920064 58009,2024-08-03T17:00:00Z,19.2,6.4,,
CWPR,49.468,-120.514,130,1,1.15078,CWPR 031700Z AUTO 13001KT 25/11 RMK AO1 SLP150 T02530112 58020,2024-08-03T17:00:00Z,25.3,11.2,,
CWPO,49.191,-98.905,10,16,18.41248,CWPO 031700Z AUTO 01016G22KT 22/11 RMK AO1 PK WND 02027/1611 SLP180 T02200109 51017,2024-08-03T17:00:00Z,22,10.9,,
CWPE,45.058,-66.459,100,4,4.60312,CWPE 031700Z AUTO 10004KT 17/16 RMK AO1 SLP088 T01660164 58014,2024-08-03T17:00:00Z,16.6,16.4,,
CWPD,47.562,-71.229,190,4,4.60312,CWPD 031700Z AUTO 19004KT 26/18 RMK AO1 SLP041 T02570181 58009,2024-08-03T17:00:00Z,25.7,18.1,,
CWPC,42.868,-79.253,190,9,10.357019999999999,CWPC 031700Z AUTO 19009G15KT 22/20 RMK AO1 SLP130 T02210202 50002,2024-08-03T17:00:00Z,22.1,20.2,,
CWOY,51.767,-104.2,70,5,5.7539,CWOY 031700Z AUTO 07005KT 19/07 RMK AO1 SLP231 T01900074 55004,2024-08-03T17:00:00Z,19,7.4,,
CWOD,48.842,-72.546,330,4,4.60312,CWOD 031700Z AUTO 33004KT 29/17 RMK AO1 SLP051 T02870173 58016,2024-08-03T17:00:00Z,28.7,17.3,,
CWOC,48.012,-65.332,210,2,2.30156,CWOC 031700Z AUTO 21002KT 28/21 RMK AO1 SLP053 T02830208 58017,2024-08-03T17:00:00Z,28.3,20.8,,
CWNZ,49.747,-84.164,310,10,11.5078,CWNZ 031700Z AUTO 31010G20KT 23/11 RMK AO1 PK WND 30020/1654 SLP120 T02270114 50001,2024-08-03T17:00:00Z,22.7,11.4,,
CWNQ,46.226,-72.657,340,4,4.60312,CWNQ 031700Z AUTO 34004KT 29/24 RMK AO1 SLP063 T02930244 58013,2024-08-03T17:00:00Z,29.3,24.4,,
CWNP,50.269,-117.817,250,2,2.30156,CWNP 031700Z AUTO 25002KT 23/13 RMK AO1 SLP144 T02330133 58010,2024-08-03T17:00:00Z,23.3,13.3,,
CWNM,49.491,-117.305,10,4,4.60312,CWNM 031700Z AUTO 01004KT 26/14 RMK AO1 SLP135 T02620143 58016,2024-08-03T17:00:00Z,26.2,14.3,,
CWNK,49.498,-98.03,20,14,16.11092,CWNK 031700Z AUTO 02014G21KT 23/13 RMK AO1 PK WND 02023/1610 SLP169 T02310134 52011,2024-08-03T17:00:00Z,23.1,13.4,,
CWNH,47.806,-69.548,230,5,5.7539,CWNH 031700Z AUTO 23005KT 27/22 RMK AO1 SLP056 T02740217 58012,2024-08-03T17:00:00Z,27.4,21.7,,
CWNE,47.058,-63.997,190,10,11.5078,CWNE 031700Z AUTO 19010G16KT 27/21 RMK AO1 SLP072 T02650214 56013,2024-08-03T17:00:00Z,26.5,21.4,,
CWND,69.632,-135.445,170,10,11.5078,CWND 031700Z AUTO 17010KT 08/04 RMK AO1 SLP208 T00820039 58004,2024-08-03T17:00:00Z,8.2,3.9,,
CWNC,43.951,-78.165,260,6,6.904679999999999,CWNC 031700Z AUTO 26006KT 25/23 RMK AO1 3002 SLP100 T02450229 50008,2024-08-03T17:00:00Z,24.5,22.9,,
CWMT,63.134,-117.245,70,7,8.05546,CWMT 031700Z AUTO 07007KT 17/08 RMK AO1 SLP187 T01690077 57005,2024-08-03T17:00:00Z,16.9,7.7,,
CWMQ,49.903,-109.466,140,11,12.658579999999999,CWMQ 031700Z AUTO 14011G16KT 27/12 RMK AO1 SLP183 T02700119 58015,2024-08-03T17:00:00Z,27,11.9,,
CWMM,49.208,-122.69,160,2,2.30156,CWMM 031700Z AUTO 16002KT 23/13 RMK AO1 SLP183 T02250126 58005,2024-08-03T17:00:00Z,22.5,12.6,,
CWMJ,46.275,-75.992,190,6,6.904679999999999,CWMJ 031700Z AUTO 19006KT 29/20 RMK AO1 SLP075 T02890204 58006,2024-08-03T17:00:00Z,28.9,20.4,,
CWME,52.187,-127.471,230,6,6.904679999999999,CWME 031700Z AUTO 23006KT 17/14 RMK AO1 SLP200 T01670142 58003,2024-08-03T17:00:00Z,16.7,14.2,,
CWLS,43.983,-80.74,290,6,6.904679999999999,CWLS 031700Z AUTO 29006KT 26/18 RMK AO1 SLP121 T02570184 50001,2024-08-03T17:00:00Z,25.7,18.4,,
CWLP,50.94,-127.632,110,1,1.15078,CWLP 031700Z AUTO 11001KT 14/12 RMK AO1 SLP208 T01350122 51002,2024-08-03T17:00:00Z,13.5,12.2,,
CWLM,48.413,-123.325,190,3,3.4523399999999995,CWLM 031700Z AUTO 19003KT 14/11 RMK AO1 SLP181 T01430109 50000,2024-08-03T17:00:00Z,14.3,10.9,,
CWLE,50.951,-107.143,110,6,6.904679999999999,CWLE 031700Z AUTO 11006KT 22/10 RMK AO1 SLP217 T02180102 55019,2024-08-03T17:00:00Z,21.8,10.2,,
CWLC,54.296,-130.609,320,6,6.904679999999999,CWLC 031700Z AUTO 32006KT 16/13 RMK AO1 T01580130,2024-08-03T17:00:00Z,15.8,13,,
CWLB,54.769,-112.024,150,2,2.30156,CWLB 031700Z AUTO 15002KT 16/10 RMK AO1 SLP213 T01620104 56013,2024-08-03T17:00:00Z,16.2,10.4,,
CWKX,58.429,-130.011,60,5,5.7539,CWKX 031700Z AUTO 06005KT 10/04 RMK AO1 SLP251 T00990039 58005,2024-08-03T17:00:00Z,9.9,3.9,,
CWKO,49.168,-105.979,70,4,4.60312,CWKO 031700Z AUTO 07004KT 24/09 RMK AO1 SLP210 T02370088 58002,2024-08-03T17:00:00Z,23.7,8.8,,
CWKM,69.595,-140.174,100,13,14.960139999999999,CWKM 031700Z AUTO 10013KT ////SM ////// 10/05 A3010,2024-08-03T17:00:00Z,10,5,,30.10
CWKK,49.713,-88.332,350,4,4.60312,CWKK 031700Z AUTO 35004KT 22/15 RMK AO1 SLP142 T02190148 58009,2024-08-03T17:00:00Z,21.9,14.8,,
CWKH,48.568,-123.542,,,,CWKH 031700Z AUTO 22/12 RMK AO1 SLP173 T02230115 58002,2024-08-03T17:00:00Z,22.3,11.5,,
CWKG,44.432,-65.203,180,5,5.7539,CWKG 031700Z AUTO 18005KT 22/22 RMK AO1 6PAST HR 8005 SLP115 P0018 T02240220 50046,2024-08-03T17:00:00Z,22.4,22,,
CWJX,50.876,-109.501,130,14,16.11092,CWJX 031700Z AUTO 13014G20KT 26/08 RMK AO1 PK WND 13020/1647 SLP184 T02640075 56022,2024-08-03T17:00:00Z,26.4,7.5,,
CWJV,50.223,-119.194,300,2,2.30156,CWJV 031700Z AUTO 30002KT 28/12 RMK AO1 SLP136 T02770123 58006,2024-08-03T17:00:00Z,27.7,12.3,,
CWJU,54.255,-133.058,320,11,12.658579999999999,CWJU 031700Z AUTO 32011KT 14/12 RMK AO1 SLP244 T01350122 53001,2024-08-03T17:00:00Z,13.5,12.2,,
CWJT,46.08,-74.556,250,2,2.30156,CWJT 031700Z AUTO 25002KT 31/22 RMK AO1 SLP086 T03070215 57007,2024-08-03T17:00:00Z,30.7,21.5,,
CWJR,49.04,-116.483,200,3,3.4523399999999995,CWJR 031700Z AUTO 20003KT 22/13 RMK AO1 SLP144 T02190132 56009,2024-08-03T17:00:00Z,21.9,13.2,,
CWJO,48.425,-71.143,340,4,4.60312,CWJO 031700Z AUTO 34004KT 30/22 RMK AO1 SLP048 T02980215 58015,2024-08-03T17:00:00Z,29.8,21.5,,
CWJI,49.729,-105.946,110,4,4.60312,CWJI 031700Z AUTO 11004KT 23/11 RMK AO1 SLP208 T02300114 58007,2024-08-03T17:00:00Z,23,11.4,,
CWJH,56.333,-103.283,60,4,4.60312,CWJH 031700Z AUTO 06004KT 18/07 RMK AO1 SLP220 T01750067 57008,2024-08-03T17:00:00Z,17.5,6.7,,
CWJD,53.187,-99.268,330,8,9.20624,CWJD 031700Z AUTO 33008G17KT 21/07 RMK AO1 PK WND 29018/1629 SLP206 T02140068 51001,2024-08-03T17:00:00Z,21.4,6.8,,
CWJC,61.132,-100.884,290,15,17.261699999999998,CWJC 031700Z AUTO 29015KT RMK AO1 PK WND 31019/1619 57007,2024-08-03T17:00:00Z,,,,
CWJB,46.781,-71.288,230,4,4.60312,CWJB 031700Z AUTO 23004KT 30/22 RMK AO1 T02960220,2024-08-03T17:00:00Z,29.6,22,,
CWIZ,45.294,-73.35,230,7,8.05546,CWIZ 031700Z AUTO 23007KT 30/21 RMK AO1 T02950212,2024-08-03T17:00:00Z,29.5,21.2,,
CWIW,51.667,-105.4,100,9,10.357019999999999,CWIW 031700Z AUTO 10009KT 21/09 RMK AO1 SLP225 T02070092 58006,2024-08-03T17:00:00Z,20.7,9.2,,
CWIT,45.167,-73.678,250,4,4.60312,CWIT 031700Z AUTO 25004KT 30/22 RMK AO1 SLP083 T02970222 56006,2024-08-03T17:00:00Z,29.7,22.2,,
CWIS,47.284,-70.637,210,6,6.904679999999999,CWIS 031700Z AUTO 21006KT RMK AO1 58010,2024-08-03T17:00:00Z,,,,
CWIP,50.162,-66.434,120,5,5.7539,CWIP 031700Z AUTO 12005KT 21/21 RMK AO1 T02070207,2024-08-03T17:00:00Z,20.7,20.7,,
CWIK,50.366,-102.567,40,7,8.05546,CWIK 031700Z AUTO 04007KT 21/12 RMK AO1 SLP208 T02110122 58005,2024-08-03T17:00:00Z,21.1,12.2,,
CWIJ,65.756,-111.246,360,8,9.20624,CWIJ 031700Z AUTO 36008KT 15/09 RMK AO1 SLP213 T01540092 51007,2024-08-03T17:00:00Z,15.4,9.2,,
CWII,50.695,-96.562,20,8,9.20624,CWII 031700Z AUTO 02008KT 20/13 RMK AO1 SLP179 T01980134 52004,2024-08-03T17:00:00Z,19.8,13.4,,
CWIG,47.074,-70.533,230,11,12.658579999999999,CWIG 031700Z AUTO 23011G16KT RMK AO1 PK WND 23017/1635,2024-08-03T17:00:00Z,,,,
CWID,61.317,-117.605,170,3,3.4523399999999995,CWID 031700Z AUTO 17003KT 19/09 RMK AO1 SLP166 T01920087 55003,2024-08-03T17:00:00Z,19.2,8.7,,
CWHV,46.205,-70.785,210,3,3.4523399999999995,CWHV 031700Z AUTO 21003KT 30/19 RMK AO1 SLP070 T02990193 58010,2024-08-03T17:00:00Z,29.9,19.3,,
CWHT,60.773,-137.581,230,1,1.15078,CWHT 031700Z AUTO 23001KT 13/06 RMK AO1 SLP277 T01320061 52004,2024-08-03T17:00:00Z,13.2,6.1,,
CWHQ,46.691,-71.972,220,2,2.30156,CWHQ 031700Z AUTO 22002KT 30/23 RMK AO1 T03020233,2024-08-03T17:00:00Z,30.2,23.3,,
CWHL,54.172,-130.361,290,5,5.7539,CWHL 031700Z AUTO 29005KT 12/11 RMK AO1 SLP218 T01240114 52001,2024-08-03T17:00:00Z,12.4,11.4,,
CWGZ,76.423,-82.902,210,2,2.30156,CWGZ 031700Z 21002KT 4SM -RASN BR OVC003 00/00 A2990 RMK FG2ST6 VIS NW-N 1/2 FG BNK SLP129,2024-08-03T17:00:00Z,0,0,4,29.90
CWGY,51.67,-110.206,120,13,14.960139999999999,CWGY 031700Z AUTO 12013KT 23/09 RMK AO1 PK WND 11017/1654 SLP194 T02340093 58014,2024-08-03T17:00:00Z,23.4,9.3,,
CWGW,49.745,-114.884,10,2,2.30156,CWGW 031700Z AUTO 01002KT 25/09 RMK AO1 SLP153 T02460087 58023,2024-08-03T17:00:00Z,24.6,8.7,,
CWGT,49.487,-124.435,310,7,8.05546,CWGT 031700Z AUTO 31007KT 20/ RMK AO1 SLP183 T0204 58002,2024-08-03T17:00:00Z,20.4,,,
CWGR,47.425,-61.775,190,12,13.809359999999998,CWGR 031700Z AUTO 19012KT 26/21 RMK AO1 PK WND 19023/1612 SLP082 T02570206 56007,2024-08-03T17:00:00Z,25.7,20.6,,
CWGM,49.133,-113.806,30,3,3.4523399999999995,CWGM 031700Z AUTO 03003KT 21/12 RMK AO1 SLP172 T02050118 56010,2024-08-03T17:00:00Z,20.5,11.8,,
CWGL,44.55,-79.218,210,5,5.7539,CWGL 031700Z AUTO 21005KT 25/20 RMK AO1 SLP094 T02490202 54000,2024-08-03T17:00:00Z,24.9,20.2,,
CWGH,44.417,-75.847,230,2,2.30156,CWGH 031700Z AUTO 23002KT 27/23 RMK AO1 SLP099 T02720234 55001,2024-08-03T17:00:00Z,27.2,23.4,,
CWGD,43.765,-81.712,300,8,9.20624,CWGD 031700Z AUTO 30008KT 25/20 RMK AO1 SLP124 T02480198 50003,2024-08-03T17:00:00Z,24.8,19.8,,
CWGB,49.336,-124.149,280,10,11.5078,CWGB 031700Z AUTO 28010KT 20/14 RMK AO1 SLP179 T02020135 58003,2024-08-03T17:00:00Z,20.2,13.5,,
CWFQ,45.05,-72.861,250,4,4.60312,CWFQ 031700Z AUTO 25004KT 28/21 RMK AO1 SLP088 T02770210 56007,2024-08-03T17:00:00Z,27.7,21,,
CWFJ,49.2,-113.278,330,6,6.904679999999999,CWFJ 031700Z AUTO 33006KT 23/10 RMK AO1 SLP152 T02270095 56013,2024-08-03T17:00:00Z,22.7,9.5,,
CWFF,52.817,-104.601,120,2,2.30156,CWFF 031700Z AUTO 12002KT 19/08 RMK AO1 SLP229 T01910084 58006,2024-08-03T17:00:00Z,19.1,8.4,,
CWEZ,48.783,-123.046,190,8,9.20624,CWEZ 031700Z AUTO 19008KT 18/12 RMK AO1 SLP183 T01780120 58001,2024-08-03T17:00:00Z,17.8,12,,
CWEW,45.809,-73.435,220,7,8.05546,CWEW 031700Z AUTO 22007KT 31/22 RMK AO1 SLP071 T03070224 58009,2024-08-03T17:00:00Z,30.7,22.4,,
CWEU,79.989,-85.934,100,14,16.11092,CWEU 031700Z 10014KT 15SM FEW015 FEW020 BKN040 OVC060 08/05 A2978 RMK ST1SC2SC4SC2 ST TR SLP093,2024-08-03T17:00:00Z,8,5,15,29.78
CWER,46.997,-70.808,220,16,18.41248,CWER 031700Z AUTO 22016KT RMK AO1 PK WND 21020/1627,2024-08-03T17:00:00Z,,,,
CWEQ,52.115,-101.233,30,7,8.05546,CWEQ 031700Z AUTO 03007KT 21/09 RMK AO1 SLP220 T02090087 50002,2024-08-03T17:00:00Z,20.9,8.7,,
CWEP,46.46,-61.988,200,12,13.809359999999998,CWEP 031700Z AUTO 20012G17KT 27/21 RMK AO1 PK WND 21018/1632 SLP097 T02650212 56008,2024-08-03T17:00:00Z,26.5,21.2,,
CWEL,49.209,-123.808,110,5,5.7539,CWEL 031700Z AUTO 11005KT 19/15 RMK AO1 SLP181 T01900153 58004,2024-08-03T17:00:00Z,19,15.3,,
CWEK,54.58,-130.698,360,6,6.904679999999999,CWEK 031700Z AUTO 36006KT 15/13 RMK AO1 SLP218 T01500134 55002,2024-08-03T17:00:00Z,15,13.4,,
CWEH,49.438,-108.989,110,14,16.11092,CWEH 031700Z AUTO 11014G19KT 22/11 RMK AO1 PK WND 11019/1651 SLP196 T02230107 58010,2024-08-03T17:00:00Z,22.3,10.7,,
CWEF,47.226,-60.141,140,8,9.20624,CWEF 031700Z AUTO 14008KT 22/20 RMK AO1 SLP094 T02180195 58001,2024-08-03T17:00:00Z,21.8,19.5,,
CWEB,49.383,-126.543,290,5,5.7539,CWEB 031700Z AUTO 29005KT 15/14 RMK AO1 SLP192 T01460138 58007,2024-08-03T17:00:00Z,14.6,13.8,,
CWDZ,51.445,-112.677,100,9,10.357019999999999,CWDZ 031700Z AUTO 10009KT 26/11 RMK AO1 PK WND 10019/1606 SLP160 T02560108 56017,2024-08-03T17:00:00Z,25.6,10.8,,
CWDV,49.033,-90.467,50,3,3.4523399999999995,CWDV 031700Z AUTO 05003KT 19/14 RMK AO1 6015 SLP165 T01910142 50004,2024-08-03T17:00:00Z,19.1,14.2,,
CWDQ,47.415,-72.788,170,5,5.7539,CWDQ 031700Z AUTO 17005KT 31/18 RMK AO1 SLP057 T03110182 58018,2024-08-03T17:00:00Z,31.1,18.2,,
CWDO,49.688,-54.8,210,5,5.7539,CWDO 031700Z AUTO 21005KT 25/18 RMK AO1 SLP073 T02510176 58005,2024-08-03T17:00:00Z,25.1,17.6,,
CWDM,50.465,-59.64,180,7,8.05546,CWDM 031700Z AUTO 18007KT 19/16 RMK AO1 SLP071 T01910162 56004,2024-08-03T17:00:00Z,19.1,16.2,,
CWDK,50.006,-113.631,20,3,3.4523399999999995,CWDK 031700Z AUTO 02003KT 22/12 RMK AO1 SLP169 T02150117 58012,2024-08-03T17:00:00Z,21.5,11.7,,
CWDJ,50.408,-104.58,110,7,8.05546,CWDJ 031700Z AUTO 11007KT 22/10 RMK AO1 SLP210 T02220098 57008,2024-08-03T17:00:00Z,22.2,9.8,,
CWDC,59.56,-108.487,210,4,4.60312,CWDC 031700Z AUTO 21004KT 17/03 RMK AO1 SLP234 T01670034 56004,2024-08-03T17:00:00Z,16.7,3.4,,
CWDA,50.721,-56.113,100,8,9.20624,CWDA 031700Z AUTO 10008KT 20/14 RMK AO1 SLP085 T01990135 55000,2024-08-03T17:00:00Z,19.9,13.5,,
CWCT,52.074,-111.448,150,12,13.809359999999998,CWCT 031700Z AUTO 15012KT 24/08 RMK AO1 PK WND 14017/1646 SLP197 T02420078 58015,2024-08-03T17:00:00Z,24.2,7.8,,
CWCJ,48.588,-86.295,250,5,5.7539,CWCJ 031700Z AUTO 25005KT 22/15 RMK AO1 SLP139 T02210154 58001,2024-08-03T17:00:00Z,22.1,15.4,,
CWCF,52.36,-97.022,320,7,8.05546,CWCF 031700Z AUTO 32007KT 20/11 RMK AO1 SLP194 T01990107 54000,2024-08-03T17:00:00Z,19.9,10.7,,
CWBZ,45.121,-74.289,230,8,9.20624,CWBZ 031700Z AUTO 23008KT 29/23 RMK AO1 SLP080 T02910230 58005,2024-08-03T17:00:00Z,29.1,23,,
CWBY,49.839,-64.293,260,7,8.05546,CWBY 031700Z AUTO 26007KT 28/19 RMK AO1 SLP049 T02760193 58013,2024-08-03T17:00:00Z,27.6,19.3,,
CWBV,44.825,-62.338,230,12,13.809359999999998,CWBV 031700Z AUTO 23012KT 19/19 RMK AO1 SLP114 T01860186 55000,2024-08-03T17:00:00Z,18.6,18.6,,
CWBU,53.333,-104.005,240,4,4.60312,CWBU 031700Z AUTO 24004KT 21/08 RMK AO1 SLP224 T02050082 58007,2024-08-03T17:00:00Z,20.5,8.2,,
CWBT,50.271,-64.226,150,4,4.60312,CWBT 031700Z AUTO 15004KT 21/16 RMK AO1 SLP050 T02050159 58013,2024-08-03T17:00:00Z,20.5,15.9,,
CWBS,46.189,-72.916,210,12,13.809359999999998,CWBS 031700Z AUTO 21012KT 28/23 RMK AO1 T02840232,2024-08-03T17:00:00Z,28.4,23.2,,
CWBO,50.55,-111.849,120,8,9.20624,CWBO 031700Z AUTO 12008KT 25/14 RMK AO1 SLP162 T02450142 58020,2024-08-03T17:00:00Z,24.5,14.2,,
CWBK,45.764,-62.681,230,3,3.4523399999999995,CWBK 031700Z AUTO 23003KT 29/22 RMK AO1 SLP098 T02870215 56007,2024-08-03T17:00:00Z,28.7,21.5,,
CWBA,46.71,-79.101,340,4,4.60312,CWBA 031700Z AUTO 34004KT 28/16 RMK AO1 T02750155,2024-08-03T17:00:00Z,27.5,15.5,,
CWAV,51.777,-114.681,130,3,3.4523399999999995,CWAV 031700Z AUTO 13003KT 21/11 RMK AO1 SLP167 T02110113 56017,2024-08-03T17:00:00Z,21.1,11.3,,
CWAR,47.294,-53.993,220,15,17.261699999999998,CWAR 031700Z AUTO 22015KT 18/15 RMK AO1 PK WND 23018/1648 SLP133 T01790147 58001,2024-08-03T17:00:00Z,17.9,14.7,,
CWAQ,49.05,-105.483,50,10,11.5078,CWAQ 031700Z AUTO 05010KT 25/07 RMK AO1 SLP205 T02490072 58002,2024-08-03T17:00:00Z,24.9,7.2,,
CWAF,48.069,-69.556,200,13,14.960139999999999,CWAF 031700Z AUTO 20013KT 16/15 RMK AO1 T01570148,2024-08-03T17:00:00Z,15.7,14.8,,
CWAE,50.129,-122.955,0,0,0.0,CWAE 031700Z 00000KT 15SM SKC 25/14 A3010 RMK WIND EST SLP177 DENSITY ALT 3600FT,2024-08-03T17:00:00Z,25,14,15,30.10
CTRA,49.664,-93.733,70,3,3.4523399999999995,CTRA 031700Z AUTO 07003KT 19/16 RMK AO1 6008 SLP163 T01940158 50016,2024-08-03T17:00:00Z,19.4,15.8,,
CTNK,45.533,-78.266,280,3,3.4523399999999995,CTNK 031700Z AUTO 28003KT 30/20 RMK AO1 SLP100 T02970195 55002,2024-08-03T17:00:00Z,29.7,19.5,,
CTCK,45.251,-74.963,240,5,5.7539,CTCK 031700Z AUTO 24005KT 29/23 RMK AO1 SLP078 T02900228 57003,2024-08-03T17:00:00Z,29,22.8,,
CPSV,49.92,-110.915,60,7,8.05546,CPSV 031700Z AUTO 06007KT 26/12 RMK AO1 T02610120,2024-08-03T17:00:00Z,26.1,12,,
CPST,51.02,-113.27,160,12,13.809359999999998,CPST 031700Z AUTO 16012KT 21/11 RMK AO1 PK WND 15017/1651 T02070111,2024-08-03T17:00:00Z,20.7,11.1,,
CPRY,49.488,-112.674,40,6,6.904679999999999,CPRY 031700Z AUTO 04006KT 24/11 RMK AO1 T02440108 50005,2024-08-03T17:00:00Z,24.4,10.8,,
CPRO,50.826,-112.06,130,9,10.357019999999999,CPRO 031700Z AUTO 13009KT 24/14 RMK AO1 T02400139,2024-08-03T17:00:00Z,24,13.9,,
CPIN,68.755,-114.94,310,21,24.166379999999997,CPIN 031700Z AUTO 31021KT ////SM ////// ///// A////,2024-08-03T17:00:00Z,,,,
CPFI,49.805,-112.037,100,9,10.357019999999999,CPFI 031700Z AUTO 10009KT 26/13 RMK AO1 T02590131,2024-08-03T17:00:00Z,25.9,13.1,,
CMGB,45.373,-72.774,220,4,4.60312,CMGB 031700Z AUTO 22004KT 29/22 RMK AO1 SLP087 T02860215 56007,2024-08-03T17:00:00Z,28.6,21.5,,
CMFM,47.323,-71.148,220,5,5.7539,CMFM 031700Z AUTO 22005KT 27/19 RMK AO1 SLP075 T02730194 58009,2024-08-03T17:00:00Z,27.3,19.4,,
CERM,47.417,-68.325,190,6,6.904679999999999,CERM 031700Z AUTO 19006KT 31/22 RMK AO1 SLP063 T03070220 58014,2024-08-03T17:00:00Z,30.7,22,,
CBBC,52.181,-128.154,VRB,3,3.4523399999999995,CBBC 031700Z AUTO VRB03KT 9SM CLR 19/15 A3011 RMK SLP198 DENSITY ALT 500FT,2024-08-03T17:00:00Z,19,15,9,30.11
CAHR,46.344,-63.17,200,9,10.357019999999999,CAHR 031700Z AUTO 20009G15KT 26/21 RMK AO1 SLP095 T02620208 56007,2024-08-03T17:00:00Z,26.2,20.8,,
BIVM,63.424,-20.278,100,28,32.22184,BIVM 031700Z 10028G47KT 8000 -SHRA SCT009 SCT015 11/09 Q0991,2024-08-03T17:00:00Z,11,9,4.97,29.26
BIRK,64.129,-21.941,90,19,21.864819999999998,BIRK 031700Z 09019G30KT 060V120 CAVOK 17/06 Q0993,2024-08-03T17:00:00Z,17,6,6+,29.32
BIKF,63.987,-22.614,80,14,16.11092,BIKF 031700Z 08014KT 9999 VCSH NSC 15/08 Q0993,2024-08-03T17:00:00Z,15,8,6+,29.32
BIIS,66.056,-23.143,30,21,24.166379999999997,BIIS 031700Z 03021G43KT 320V050 9999 FEW014 BKN020 12/08 Q1000 RMK ARNARNES 140DGR 19KT G26KT,2024-08-03T17:00:00Z,12,8,6+,29.53
BIEG,65.275,-14.409,20,10,11.5078,BIEG 031700Z 02010KT 9999 SCT041 BKN100 12/09 Q1001,2024-08-03T17:00:00Z,12,9,6+,29.56
BIAR,65.655,-18.069,80,10,11.5078,BIAR 031700Z 08010KT 9999 SCT047 16/07 Q1000,2024-08-03T17:00:00Z,16,7,6+,29.53
AYPY,-9.443,147.216,130,10,11.5078,AYPY 031700Z 13010KT 9999 SCT040 24/20 Q1012,2024-08-03T17:00:00Z,24,20,6+,29.88
RODE,26.718,127.783,,,,RODE 031659Z AUTO A2978 RMK AO2 SLPNO PWINO TSNO $,2024-08-03T16:59:00Z,,,,29.78
PASY,52.711,174.107,240,14,16.11092,PASY 031659Z 24014KT 1/4SM R28/4500VP6000FT FG VV001 11/11 A2969 RMK AO2A SLP054 ALSTG/SLP ESTMD T01110109 PNO FZRANO $,2024-08-03T16:59:00Z,11.1,10.9,0.25,29.69
MUCF,22.159,-80.41,190,10,11.5078,MUCF 031659Z AUTO 19010KT 160V220 28/25 Q1012,2024-08-03T16:59:00Z,28,25,,29.88
MMLT,25.993,-111.35,160,10,11.5078,MMLT 031659Z RTD 16010KT 9SM SCT200 SCT240 34/22 A2987 RMK 8/088 HZY,2024-08-03T16:59:00Z,34,22,9,29.87
KOXD,39.5047,-84.7838,330,7,8.05546,KOXD 031659Z AUTO 33007KT 10SM SCT022 BKN028 BKN037 28/21 A2996 RMK AO2,2024-08-03T16:59:00Z,28,21,10+,29.96
KNGU,36.937,-76.281,220,11,12.658579999999999,KNGU 031659Z 22011G23KT 8SM SCT031 SCT250 33/24 A2992 RMK AO2 SLP133 T03330244,2024-08-03T16:59:00Z,33.3,24.4,8,29.92
KAID,40.1061,-85.6097,340,9,10.357019999999999,KAID 031659Z 340009KT 10SM SCT024 27/20 A2997,2024-08-03T16:59:00Z,27,20,10+,29.97
PADG,68.028,-162.911,110,11,12.658579999999999,PADG 031658Z 11011G21KT 2 1/2SM -DZ BR OVC007 08/08 A2988,2024-08-03T16:58:00Z,8,8,2.5,29.88
KROG,36.3749,-94.1078,VRB,4,4.60312,KROG 031658Z VRB04KT 10SM BKN043 31/19 A3010 RMK AO2 SLP176 T03060194,2024-08-03T16:58:00Z,30.6,19.4,10+,30.10
KPRN,31.8467,-86.6141,240,3,3.4523399999999995,KPRN 031658Z AUTO 24003KT 10SM SCT027 BKN045 32/24 A2995 RMK AO2 SLP088 T03170239,2024-08-03T16:58:00Z,31.7,23.9,10+,29.95
KMRH,34.7326,-76.6566,200,14,16.11092,KMRH 031658Z AUTO 20014KT 10SM FEW022 32/27 A3003 RMK AO2 LTG DSNT N AND NW SLP169 T03170267,2024-08-03T16:58:00Z,31.7,26.7,10+,30.03
KMEI,32.3348,-88.7507,VRB,5,5.7539,KMEI 031658Z VRB05KT 10SM CLR 33/21 A2998 RMK AO2 SLP146 T03330211,2024-08-03T16:58:00Z,33.3,21.1,10+,29.98
KBKF,39.713,-104.758,340,3,3.4523399999999995,KBKF 031658Z 34003KT 10SM FEW090 FEW220 30/06 A3029 RMK AO2A SLP167 T03000059,2024-08-03T16:58:00Z,30,5.9,10+,30.29
KBCR,30.8432,-85.6043,210,4,4.60312,KBCR 031658Z AUTO 21004KT 10SM CLR 33/24 A2998 RMK AO2 SLP109 T03280239,2024-08-03T16:58:00Z,32.8,23.9,10+,29.98
K0J4,31.0447,-86.3119,VRB,3,3.4523399999999995,K0J4 031658Z AUTO VRB03KT 10SM CLR 33/22 A2998 RMK AO2 SLP148 T03280222,2024-08-03T16:58:00Z,32.8,22.2,10+,29.98
PAJC,56.312,-158.374,90,5,5.7539,PAJC 031657Z AUTO 09005KT 10SM OVC016 11/08 A3024 RMK AO2 SLP242 T01110078,2024-08-03T16:57:00Z,11.1,7.8,10+,30.24
KNYL,32.66,-114.608,0,0,0.0,KNYL 031657Z AUTO 00000KT 10SM CLR 40/18 A2985 RMK AO2 SLP103 T04000178 $,2024-08-03T16:57:00Z,40,17.8,10+,29.85
KNJW,32.792,-88.832,330,6,6.904679999999999,KNJW 031657Z AUTO 33006KT 10SM BKN047 32/19 A3002 RMK AO2 SLP076 T03170194 $,2024-08-03T16:57:00Z,31.7,19.4,10+,30.02
KMNM,45.126,-87.639,110,6,6.904679999999999,KMNM 031657Z AUTO 11006KT 9SM CLR 28/16 A3000 RMK AO2 SLP166 T02780161 PNO $,2024-08-03T16:57:00Z,27.8,16.1,9,30.00
KFLG,35.1443,-111.666,0,0,0.0,KFLG 031657Z 00000KT 10SM CLR 27/11 A3043 RMK AO2 SLP186 T02670111,2024-08-03T16:57:00Z,26.7,11.1,10+,30.43
EQYR,36.647,-6.347,270,9,10.357019999999999,EQYR 031657Z AUTO 27009KT 10SM CLR 26/17 A2988 RMK AO2 SLP117 T02610172 $,2024-08-03T16:57:00Z,26.1,17.2,10+,29.88
EQYG,35.53,24.15,300,10,11.5078,EQYG 031657Z AUTO 30010G18KT 10SM CLR 31/19 A2975 RMK AO2 SLP066 T03060189 PWINO $ ,2024-08-03T16:57:00Z,30.6,18.9,10+,29.75
TJSJ,18.4326,-66.0107,70,16,18.41248,TJSJ 031656Z 07016KT 10SM FEW029 SCT065 SCT120 32/24 A3001 RMK AO2 PK WND 09026/1646 SLP162 VCSH SE T03220244 $,2024-08-03T16:56:00Z,32.2,24.4,10+,30.01
ROTM,26.271,127.754,340,4,4.60312,ROTM 031656Z 34004KT 10SM CLR 28/27 RMK AO2 SLPNO T02830272 PNO $,2024-08-03T16:56:00Z,28.3,27.2,10+,
RJOI,34.144,132.236,280,5,5.7539,RJOI 031656Z 28005KT 9999 SCT030 32/24 A2976 RMK AO2 SLP076 T03170244,2024-08-03T16:56:00Z,31.7,24.4,6+,29.76
PPIZ,69.735,-163.003,110,8,9.20624,PPIZ 031656Z AUTO 11008KT 8SM -RA FEW016 BKN100 OVC110 07/05 A2985 RMK AO2 RAB04 SLP111 P0000 T00670050,2024-08-03T16:56:00Z,6.7,5,8,29.85
PPIT,60.905,-162.443,180,15,17.261699999999998,PPIT 031656Z AUTO 18015G22KT 10SM OVC020 11/08 A3011 RMK AO2 SLP196 T01060083 TSNO PNO $,2024-08-03T16:56:00Z,10.6,8.3,10+,30.11
PHNY,20.783,-156.955,70,11,12.658579999999999,PHNY 031656Z AUTO 07011KT 10SM CLR 22/19 A3014 RMK AO2 SLP186 T02220194,2024-08-03T16:56:00Z,22.2,19.4,10+,30.14
PFYU,66.572,-145.243,0,0,0.0,PFYU 031656Z 00000KT 10SM CLR 11/07 A3023 RMK AO2 SLP245 T01110072,2024-08-03T16:56:00Z,11.1,7.2,10+,30.23
PFTO,63.329,-142.954,0,0,0.0,PFTO 031656Z AUTO 00000KT 10SM BKN041 OVC095 11/06 A3029 RMK AO2 SLP899 T01060061 $,2024-08-03T16:56:00Z,10.6,6.1,10+,30.29
PFNO,66.819,-161.024,130,16,18.41248,PFNO 031656Z AUTO 13016KT 10SM OVC020 11/10 A2993 RMK AO2 SLP217 T01060100 $,2024-08-03T16:56:00Z,10.6,10,10+,29.93
PFKT,65.33,-166.479,180,18,20.714039999999997,PFKT 031656Z AUTO 18018KT 10SM -RA OVC013 09/07 A2982 RMK AO2 SLP097 P0000 T00890072,2024-08-03T16:56:00Z,8.9,7.2,10+,29.82
PAZK,61.938,-147.169,220,6,6.904679999999999,PAZK 031656Z AUTO 22006KT 10SM -RA OVC050 08/06 A3029 RMK AO2 RAE07B25 SLP284 P0000 T00780056 $,2024-08-03T16:56:00Z,7.8,5.6,10+,30.29
PAWS,61.571,-149.538,0,0,0.0,PAWS 031656Z AUTO 00000KT 10SM OVC055 12/11 A3033 RMK AO2 SLP273 T01170106,2024-08-03T16:56:00Z,11.7,10.6,10+,30.33
PAWG,56.486,-132.377,0,0,0.0,PAWG 031656Z 00000KT 10SM FEW120 17/11 A3024,2024-08-03T16:56:00Z,17,11,10+,30.24
PAVD,61.133,-146.251,0,0,0.0,PAVD 031656Z 00000KT 8SM FEW002 BKN025 OVC055 11/11 A3042 RMK AO2 SLP300 T01110106 $,2024-08-03T16:56:00Z,11.1,10.6,8,30.42
PAVA,61.537,-165.604,180,23,26.46794,PAVA 031656Z AUTO 18023KT 8SM OVC008 09/08 A2999 RMK AO2 PK WND 17029/1638 SLP160 T00940083 PNO $,2024-08-03T16:56:00Z,9.4,8.3,8,29.99
PAUN,63.885,-160.794,190,14,16.11092,PAUN 031656Z AUTO 19014KT 10SM OVC065 12/08 A3006 RMK AO2 RAE06 SLP181 T01170083 PNO $,2024-08-03T16:56:00Z,11.7,8.3,10+,30.06
PATQ,70.469,-157.428,210,10,11.5078,PATQ 031656Z AUTO 21010KT 10SM CLR 06/03 A2990 RMK AO2 SLP130 T00610033 TSNO,2024-08-03T16:56:00Z,6.1,3.3,10+,29.90
PATG,59.051,-160.398,360,6,6.904679999999999,PATG 031656Z AUTO 36006KT 10SM OVC013 09/08 A3021 RMK AO2 SLP231 T00940083,2024-08-03T16:56:00Z,9.4,8.3,10+,30.21
PASX,60.476,-151.053,270,7,8.05546,PASX 031656Z AUTO 27007KT 10SM SCT085 12/11 A3034 RMK AO2 SLP280 T01220111,2024-08-03T16:56:00Z,12.2,11.1,10+,30.34
PASM,62.057,-163.298,180,16,18.41248,PASM 031656Z AUTO 18016G23KT 10SM OVC007 09/07 A3007 RMK AO2 PK WND 17026/1640 SLP189 T00890072,2024-08-03T16:56:00Z,8.9,7.2,10+,30.07
PASL,61.697,-157.167,150,7,8.05546,PASL 031656Z AUTO 15007KT 10SM OVC010 11/10 A3023 RMK AO2 SLP228 T01110100,2024-08-03T16:56:00Z,11.1,10,10+,30.23
PASK,66.599,-159.991,140,10,11.5078,PASK 031656Z AUTO 14010G17KT 10SM FEW022 OVC055 11/09 A2998 RMK AO2 RAE05 SLP150 P0000 T01060094,2024-08-03T16:56:00Z,10.6,9.4,10+,29.98
PASD,55.318,-160.525,60,7,8.05546,PASD 031656Z 06007KT 10SM FEW014 BKN028 BKN048 12/08 A3015 RMK AO2 SLP211 T01170078 $,2024-08-03T16:56:00Z,11.7,7.8,10+,30.15
PASA,63.689,-170.49,170,15,17.261699999999998,PASA 031656Z AUTO 17015G19KT 10SM SCT017 OVC038 09/07 A2969 RMK AO2 SLPNO T00890067,2024-08-03T16:56:00Z,8.9,6.7,10+,29.69
PARY,64.731,-155.463,VRB,4,4.60312,PARY 031656Z AUTO VRB04KT 7SM -RA OVC010 09/09 A3013 RMK AO2 SLP210 P0005 T00940089 TSNO,2024-08-03T16:56:00Z,9.4,8.9,7,30.13
PAQH,59.751,-161.842,110,7,8.05546,PAQH 031656Z AUTO 11007KT 10SM CLR 11/08 A3015 RMK AO2 SLP211 T01060083,2024-08-03T16:56:00Z,10.6,8.3,10+,30.15
PAPT,62.087,-152.722,180,7,8.05546,PAPT 031656Z 18007KT 3SM PRFG BKN007 OVC025 10/09 A3025 RMK NO SPECI. FIRST. PRFG ALL QDRNTS,2024-08-03T16:56:00Z,10,9,3,30.25
PAPM,59.011,-161.82,120,12,13.809359999999998,PAPM 031656Z AUTO 12012KT 10SM BKN012 A3015 RMK AO2 SLPNO FZRANO $,2024-08-03T16:56:00Z,,,10+,30.15
PAPH,56.959,-158.631,160,23,26.46794,PAPH 031656Z AUTO 16023G29KT 10SM CLR 12/07 A3016 RMK AO2 PK WND 15030/1636 SLP214 T01220072 $,2024-08-03T16:56:00Z,12.2,7.2,10+,30.16
PAPG,56.805,-132.935,60,6,6.904679999999999,PAPG 031656Z 06006KT 10SM CLR 13/09 A3025 RMK AO2 SLP248 T01330094,2024-08-03T16:56:00Z,13.3,9.4,10+,30.25
PAPE,55.9096,-159.16,30,4,4.60312,PAPE 031656Z AUTO 03004KT 9SM BKN021 OVC042 11/08 A3021 RMK AO2 SLP229 T01110078,2024-08-03T16:56:00Z,11.1,7.8,9,30.21
PAOU,56.006,-161.162,140,9,10.357019999999999,PAOU 031656Z AUTO 14009KT 10SM FEW120 11/07 A3012 RMK AO2 SLP201 T01110072 PNO $,2024-08-03T16:56:00Z,11.1,7.2,10+,30.12
PAOO,60.537,-165.089,150,28,32.22184,PAOO 031656Z AUTO 15028KT 10SM OVC013 09/07 A3004 RMK AO2 PK WND 15032/1651 SLP177 T00940072 TSNO $,2024-08-03T16:56:00Z,9.4,7.2,10+,30.04
PANW,59.451,-157.325,0,0,0.0,PANW 031656Z AUTO 00000KT 1/4SM FG OVC002 08/08 A3028 RMK AO2 SLP258 T00780078 $,2024-08-03T16:56:00Z,7.8,7.8,0.25,30.28
PANU,64.7304,-158.075,190,10,11.5078,PANU 031656Z AUTO 19010KT 10SM -RA OVC006 09/09 A3009 RMK AO2 CIG 004V010 SLP099 P0004 T00940089,2024-08-03T16:56:00Z,9.4,8.9,10+,30.09
PANI,61.578,-159.539,150,3,3.4523399999999995,PANI 031656Z AUTO 15003KT 10SM OVC013 09/08 A3016 RMK AO2 SLP216 T00940083 $,2024-08-03T16:56:00Z,9.4,8.3,10+,30.16
PANA,60.694,-161.978,170,10,11.5078,PANA 031656Z AUTO 17010G16KT 9SM OVC021 11/08 A3013 RMK AO2 SLP204 T01060078 TSNO,2024-08-03T16:56:00Z,10.6,7.8,9,30.13
PAMY,60.376,-166.262,170,18,20.714039999999997,PAMY 031656Z AUTO 17018G25KT 10SM OVC007 09/08 A2997 RMK AO2 PK WND 16032/1608 SLP147 T00890078 TSNO PNO $,2024-08-03T16:56:00Z,8.9,7.8,10+,29.97
PAMO,62.095,-163.686,180,22,25.317159999999998,PAMO 031656Z AUTO 18022G30KT 10SM OVC007 08/08 A3003 RMK AO2 PK WND 19032/1628 SLP174 T00830078,2024-08-03T16:56:00Z,8.3,7.8,10+,30.03
PAMD,59.442,-146.317,270,6,6.904679999999999,PAMD 031656Z AUTO 27006KT OVC021 12/09 A3036 RMK AO2 SLP281 T01220094 PWINO $,2024-08-03T16:56:00Z,12.2,9.4,,30.36
PAMB,58.986,-159.05,90,6,6.904679999999999,PAMB 031656Z AUTO 09006KT 4SM BR OVC010 11/10 A3024 RMK AO2 SLP243 T01060100,2024-08-03T16:56:00Z,10.6,10,4,30.24
PALG,61.538,-160.34,VRB,3,3.4523399999999995,PALG 031656Z AUTO VRB03KT 10SM CLR 09/08 A3016 RMK AO2 SLP217 T00890078 PNO $,2024-08-03T16:56:00Z,8.9,7.8,10+,30.16
PAKI,59.935,-164.033,180,19,21.864819999999998,PAKI 031656Z AUTO 18019KT 10SM OVC014 09/08 A3008 RMK AO2 SLP184 T00940078 PNO $,2024-08-03T16:56:00Z,9.4,7.8,10+,30.08
PAKH,56.94,-154.181,70,10,11.5078,PAKH 031656Z AUTO 07010KT 10SM OVC020 12/09 A3031 RMK AO2 SLP264 T01170089 PNO $,2024-08-03T16:56:00Z,11.7,8.9,10+,30.31
PAKF,54.85,-163.409,210,8,9.20624,PAKF 031656Z AUTO 21008KT 10SM OVC022 11/07 A3011 RMK AO2 SLP194 T01060072,2024-08-03T16:56:00Z,10.6,7.2,10+,30.11
PAJZ,59.727,-157.267,150,4,4.60312,PAJZ 031656Z AUTO 15004KT 1/4SM FG OVC002 07/07 A3032 RMK AO2 SLP266 T00720072,2024-08-03T16:56:00Z,7.2,7.2,0.25,30.32
PAIN,63.733,-148.912,0,0,0.0,PAIN 031656Z AUTO 00000KT 10SM -RA SCT049 OVC060 09/08 A3027 RMK AO2 SLP263 P0001 T00940083,2024-08-03T16:56:00Z,9.4,8.3,10+,30.27
PAIK,66.975,-160.439,110,8,9.20624,PAIK 031656Z AUTO 11008KT 10SM OVC015 10/09 A2997 RMK AO2 SLP151 T01000094,2024-08-03T16:56:00Z,10,9.4,10+,29.97
PAII,58.186,-157.375,130,14,16.11092,PAII 031656Z AUTO 13014KT 10SM CLR 10/08 A3026 RMK AO2 SLP243 T01000078,2024-08-03T16:56:00Z,10,7.8,10+,30.26
PAIG,59.325,-155.897,0,0,0.0,PAIG 031656Z AUTO 00000KT 10SM CLR 09/09 A3026 RMK AO2 SLP256 T00940094,2024-08-03T16:56:00Z,9.4,9.4,10+,30.26
PAHY,55.202,-132.825,320,5,5.7539,PAHY 031656Z AUTO 32005KT 10SM CLR 16/11 A3021 RMK AO2 SLP228 T01560111 PNO $,2024-08-03T16:56:00Z,15.6,11.1,10+,30.21
PAHL,65.699,-156.353,160,8,9.20624,PAHL 031656Z AUTO 16008KT 8SM -RA BKN007 OVC011 10/09 A3007 RMK AO2 CIG 003V008 SLP186 P0000 T01000094 TSNO,2024-08-03T16:56:00Z,10,9.4,8,30.07
PAHC,62.191,-159.773,200,7,8.05546,PAHC 031656Z AUTO 20007KT 10SM BKN016 BKN022 10/08 A3015 RMK AO2 SLP215 T01000078,2024-08-03T16:56:00Z,10,7.8,10+,30.15
PAGN,57.502,-134.589,0,0,0.0,PAGN 031656Z AUTO 00000KT 10SM CLR 14/11 A3029 RMK AO2 SLP245 T01390111,2024-08-03T16:56:00Z,13.9,11.1,10+,30.29
PAGH,66.886,-157.159,110,13,14.960139999999999,PAGH 031656Z AUTO 11013KT 10SM -RA BKN017 BKN038 OVC045 09/09 A3005 RMK AO2 SLP181 P0000 T00940089,2024-08-03T16:56:00Z,9.4,8.9,10+,30.05
PAFM,67.106,-157.858,130,8,9.20624,PAFM 031656Z AUTO 13008KT 5SM -RA BR OVC004 09/09 A3006 RMK AO2 SLP183 P0001 T00940089,2024-08-03T16:56:00Z,9.4,8.9,5,30.06
PADU,53.896,-166.543,130,12,13.809359999999998,PADU 031656Z 13012KT 10SM OVC020 10/06 A3004 RMK AO2 SLP170 T01000061 $,2024-08-03T16:56:00Z,10,6.1,10+,30.04
PACM,61.846,-165.579,150,18,20.714039999999997,PACM 031656Z AUTO 15018G31KT 10SM OVC009 10/09 A2997 RMK AO2 PK WND 16033/1625 CIG 008V011 SLP146 T01000089,2024-08-03T16:56:00Z,10,8.9,10+,29.97
PABV,61.416,-149.511,0,0,0.0,PABV 031656Z AUTO 00000KT 10SM OVC055 13/11 A3034 RMK AO2 SLP274 T01280106,2024-08-03T16:56:00Z,12.8,10.6,10+,30.34
KYKN,42.9142,-97.3807,210,13,14.960139999999999,KYKN 031656Z AUTO 21013G18KT 10SM CLR 32/19 A3001 RMK AO2 SLP161 T03220194 $,2024-08-03T16:56:00Z,32.2,19.4,10+,30.01
KY50,44.0435,-89.304,340,8,9.20624,KY50 031656Z AUTO 34008KT 10SM CLR 28/16 A3001 RMK AO2 SLP152 T02830161 $,2024-08-03T16:56:00Z,28.3,16.1,10+,30.01
KWWD,39.0108,-74.9079,150,9,10.357019999999999,KWWD 031656Z AUTO 15009KT 10SM CLR 31/26 A2987 RMK AO2 SLP117 T03060256,2024-08-03T16:56:00Z,30.6,25.6,10+,29.87
KWVL,44.5301,-69.6753,VRB,4,4.60312,KWVL 031656Z AUTO VRB04KT 10SM FEW020 BKN060 OVC100 26/21 A2977 RMK AO2 SLP105 T02560211,2024-08-03T16:56:00Z,25.6,21.1,10+,29.77
KWMC,40.9018,-117.808,200,10,11.5078,KWMC 031656Z AUTO 20010G15KT 10SM CLR 33/07 A3011 RMK AO2 SLP129 T03280067,2024-08-03T16:56:00Z,32.8,6.7,10+,30.11
KWJF,34.7412,-118.213,120,3,3.4523399999999995,KWJF 031656Z 12003KT 10SM CLR 33/09 A3005 RMK AO2 SLP148 T03330094,2024-08-03T16:56:00Z,33.3,9.4,10+,30.05
KVPZ,41.4535,-86.998,10,4,4.60312,KVPZ 031656Z AUTO 01004KT 10SM CLR 31/19 A2997 RMK AO2 SLP142 T03060189,2024-08-03T16:56:00Z,30.6,18.9,10+,29.97
KVIS,36.3135,-119.388,0,0,0.0,KVIS 031656Z AUTO 00000KT 10SM CLR 29/17 A2997 RMK AO2 SLP148 T02890172,2024-08-03T16:56:00Z,28.9,17.2,10+,29.97
KVBT,36.3444,-94.2211,VRB,4,4.60312,KVBT 031656Z AUTO VRB04KT 10SM BKN042 30/19 A3011 RMK AO2 SLP182 T03000189,2024-08-03T16:56:00Z,30,18.9,10+,30.11
KUKI,39.1278,-123.2,50,3,3.4523399999999995,KUKI 031656Z AUTO 05003KT 10SM CLR 27/11 A2996 RMK AO2 SLP137 T02670111,2024-08-03T16:56:00Z,26.7,11.1,10+,29.96
KUDG,34.4474,-79.8902,200,8,9.20624,KUDG 031656Z AUTO 20008KT 10SM FEW026 31/26 A2996 RMK AO2 SLP144 T03110261,2024-08-03T16:56:00Z,31.1,26.1,10+,29.96
KTPH,38.0505,-117.091,VRB,3,3.4523399999999995,KTPH 031656Z AUTO VRB03KT 10SM CLR 27/11 A3026 RMK AO2 SLP158 T02720111,2024-08-03T16:56:00Z,27.2,11.1,10+,30.26
KSUE,44.847,-87.425,VRB,5,5.7539,KSUE 031656Z AUTO VRB05KT 10SM CLR 27/19 A3000 RMK AO2 SLP151 T02670189,2024-08-03T16:56:00Z,26.7,18.9,10+,30.00
KSRC,35.2134,-91.7393,120,5,5.7539,KSRC 031656Z AUTO 12005KT 10SM CLR 31/22 A3004 RMK AO2 SLP167 T03110222 $,2024-08-03T16:56:00Z,31.1,22.2,10+,30.04
KSQI,41.7432,-89.6655,VRB,3,3.4523399999999995,KSQI 031656Z AUTO VRB03KT 10SM FEW060 SCT075 29/26 A2998 RMK AO2 SLP015 T02940256 PNO $,2024-08-03T16:56:00Z,29.4,25.6,10+,29.98
KSPD,37.2834,-102.614,VRB,3,3.4523399999999995,KSPD 031656Z AUTO VRB03KT A3023 RMK AO1 SLPNO,2024-08-03T16:56:00Z,,,,30.23
KSOP,35.2371,-79.3921,180,10,11.5078,KSOP 031656Z AUTO 18010KT 10SM BKN032 32/25 A2995 RMK AO2 SLP143 T03220250,2024-08-03T16:56:00Z,32.2,25,10+,29.95
KSMP,47.2764,-121.338,VRB,4,4.60312,KSMP 031656Z AUTO VRB04KT 10SM CLR 18/16 A3016 RMK AO2 SLP186 T01830161,2024-08-03T16:56:00Z,18.3,16.1,10+,30.16
KSMN,45.1283,-113.883,0,0,0.0,KSMN 031656Z AUTO 00000KT 10SM CLR 24/07 A3014 RMK AO2 SLP167 T02440072,2024-08-03T16:56:00Z,24.4,7.2,10+,30.14
KSLG,36.1941,-94.488,VRB,5,5.7539,KSLG 031656Z AUTO VRB05KT 10SM SCT045 31/19 A3009 RMK AO2 SLP174 T03110189,2024-08-03T16:56:00Z,31.1,18.9,10+,30.09
KSLE,44.9049,-123.001,300,4,4.60312,KSLE 031656Z 30004KT 10SM CLR 23/14 A3007 RMK AO2 SLP182 T02280144,2024-08-03T16:56:00Z,22.8,14.4,10+,30.07
KSKX,36.4584,-105.675,150,3,3.4523399999999995,KSKX 031656Z AUTO 15003KT 10SM CLR 26/09 A3045 RMK AO2 SLP231 T02560089,2024-08-03T16:56:00Z,25.6,8.9,10+,30.45
KSHV,32.4473,-93.8244,90,4,4.60312,KSHV 031656Z 09004KT 10SM FEW065 36/21 A2998 RMK CB DSNT S SLPNO,2024-08-03T16:56:00Z,36,21,10+,29.98
KSGU,37.0444,-113.503,280,3,3.4523399999999995,KSGU 031656Z AUTO 28003KT 10SM CLR 33/16 A3008 RMK AO2 SLP145 T03330156,2024-08-03T16:56:00Z,33.3,15.6,10+,30.08
KSGT,34.5998,-91.5763,30,7,8.05546,KSGT 031656Z AUTO 03007KT 10SM FEW032 29/22 A3003 RMK AO2 SLP168 T02940217 $,2024-08-03T16:56:00Z,29.4,21.7,10+,30.03
KSGJ,29.9592,-81.341,160,11,12.658579999999999,KSGJ 031656Z 16011G19KT 010V240 10SM CLR 30/26 A3002 RMK AO2 SLP165 T03000261,2024-08-03T16:56:00Z,30,26.1,10+,30.02
KSGH,39.8358,-83.8443,VRB,3,3.4523399999999995,KSGH 031656Z AUTO VRB03KT 10SM SCT024 SCT055 27/22 A2994 RMK AO2 SLP132 T02720217,2024-08-03T16:56:00Z,27.2,21.7,10+,29.94
KSFZ,41.9168,-71.4924,280,10,11.5078,KSFZ 031656Z AUTO 28010G15KT SCT038 30/23 A2982 RMK AO2 SLP095 T03000228 PWINO $,2024-08-03T16:56:00Z,30,22.8,,29.82
KSFO,37.6196,-122.366,320,12,13.809359999999998,KSFO 031656Z 32012KT 10SM FEW007 FEW200 17/14 A2999 RMK AO2 SLP153 T01670139,2024-08-03T16:56:00Z,16.7,13.9,10+,29.99
KSFM,43.3876,-70.7154,VRB,3,3.4523399999999995,KSFM 031656Z AUTO VRB03KT 10SM SCT013 BKN020 OVC024 26/22 A2981 RMK AO2 SLP094 T02560222 PNO $,2024-08-03T16:56:00Z,25.6,22.2,10+,29.81
KSDY,47.7029,-104.195,50,11,12.658579999999999,KSDY 031656Z AUTO 05011KT 10SM CLR 25/15 A3012 RMK AO2 SLP188 T02500150,2024-08-03T16:56:00Z,25,15,10+,30.12
KSDF,38.1774,-85.7308,360,5,5.7539,KSDF 031656Z 36005KT 10SM SCT023 BKN030 28/21 A2995 RMK AO2 SLP137 T02830211,2024-08-03T16:56:00Z,28.3,21.1,10+,29.95
KSBP,35.2382,-120.644,0,0,0.0,KSBP 031656Z 00000KT 10SM CLR 23/13 A2997 RMK AO2 SLP147 T02330133,2024-08-03T16:56:00Z,23.3,13.3,10+,29.97
KRUT,43.53,-72.9517,350,4,4.60312,KRUT 031656Z AUTO 35004KT 10SM BKN070 OVC120 26/22 A2985 RMK AO2 SLP098 T02560217 $,2024-08-03T16:56:00Z,25.6,21.7,10+,29.85
KRKD,44.0611,-69.1014,0,0,0.0,KRKD 031656Z AUTO 00000KT 10SM OVC005 22/21 A2979 RMK AO2 SLP089 T02220211,2024-08-03T16:56:00Z,22.2,21.1,10+,29.79
KRDM,44.2558,-121.141,30,3,3.4523399999999995,KRDM 031656Z AUTO 03003KT 10SM FEW090 SCT110 26/12 A3010 RMK AO2 SLP158 T02610122 $,2024-08-03T16:56:00Z,26.1,12.2,10+,30.10
KPWG,31.4891,-97.3202,0,0,0.0,KPWG 031656Z AUTO 00000KT 10SM CLR 30/22 A3004 RMK AO2 SLP163 T03000222,2024-08-03T16:56:00Z,30,22.2,10+,30.04
KPVU,40.224,-111.725,100,5,5.7539,KPVU 031656Z 10005KT 10SM FU CLR 30/07 A3019 RMK AO2 SLP157 T03000072 $,2024-08-03T16:56:00Z,30,7.2,10+,30.19
KPVG,36.7824,-76.452,,,,KPVG 031656Z AUTO 10SM SCT029 BKN037 33/26 A2993 RMK AO2 SLP137 T03280256 $,2024-08-03T16:56:00Z,32.8,25.6,10+,29.93
KPVC,42.0743,-70.2183,230,13,14.960139999999999,KPVC 031656Z AUTO 23013G17KT 10SM CLR 30/24 A2980 RMK AO2 SLP090 T03000244,2024-08-03T16:56:00Z,30,24.4,10+,29.80
KPTV,36.0274,-119.063,250,6,6.904679999999999,KPTV 031656Z AUTO 25006KT 10SM CLR 31/16 A2998 RMK AO2 SLP148 T03110156,2024-08-03T16:56:00Z,31.1,15.6,10+,29.98
KPTN,29.71,-91.3381,310,7,8.05546,KPTN 031656Z AUTO 31007KT 10SM CLR A2998 RMK AO2 SLPNO FZRANO $,2024-08-03T16:56:00Z,,,10+,29.98
KPRX,33.6359,-95.4514,100,8,9.20624,KPRX 031656Z AUTO 10008KT 6SM HZ BKN048 A3002 RMK AO2 SLPNO FZRANO $,2024-08-03T16:56:00Z,,,6,30.02
KPQI,46.697,-68.054,200,6,6.904679999999999,KPQI 031656Z AUTO 20006KT 10SM CLR 29/22 A2974 RMK AO2 SLP091 T02940217,2024-08-03T16:56:00Z,29.4,21.7,10+,29.74
KPIB,31.4727,-89.3383,0,0,0.0,KPIB 031656Z AUTO 00000KT 10SM BKN036 BKN044 33/24 A2999 RMK AO2 SLP152 T03330239,2024-08-03T16:56:00Z,33.3,23.9,10+,29.99
KP53,46.412,-86.6504,330,12,13.809359999999998,KP53 031656Z AUTO 33012KT 24/17 A2997 RMK AO1 SLP149 T02390167 $,2024-08-03T16:56:00Z,23.9,16.7,,29.97
KP28,37.2664,-98.5463,170,6,6.904679999999999,KP28 031656Z AUTO 17006KT 32/17 A3010 RMK AO1 SLP173 T03220167 $,2024-08-03T16:56:00Z,32.2,16.7,,30.10
KOWB,37.7297,-87.1683,300,7,8.05546,KOWB 031656Z 30007KT 10SM CLR 28/22 A2998 RMK AO2 SLP148 T02830217,2024-08-03T16:56:00Z,28.3,21.7,10+,29.98
KOTH,43.4194,-124.244,350,10,11.5078,KOTH 031656Z 35010KT 10SM OVC009 16/14 A3010 RMK AO2 SLP191 T01610139,2024-08-03T16:56:00Z,16.1,13.9,10+,30.10
KOTG,43.6525,-95.5759,VRB,3,3.4523399999999995,KOTG 031656Z AUTO VRB03KT 10SM CLR 30/20 A3005 RMK AO2 SLP167 T03000200,2024-08-03T16:56:00Z,30,20,10+,30.05
KOLU,41.4472,-97.3391,190,8,9.20624,KOLU 031656Z AUTO 19008KT 10SM CLR 32/19 A3007 RMK AO2 SLP172 T03220189,2024-08-03T16:56:00Z,32.2,18.9,10+,30.07
KOKK,40.5304,-86.055,340,4,4.60312,KOKK 031656Z AUTO 34004KT 10SM CLR 29/23 A2997 RMK AO2 SLP143 T02890228,2024-08-03T16:56:00Z,28.9,22.8,10+,29.97
KOFK,41.9799,-97.4335,210,12,13.809359999999998,KOFK 031656Z AUTO 21012KT 10SM CLR 32/18 A3006 RMK AO2 SLP164 T03220183,2024-08-03T16:56:00Z,32.2,18.3,10+,30.06
KOCH,31.5809,-94.7081,330,7,8.05546,KOCH 031656Z AUTO 33007KT 10SM CLR 33/24 A3000 RMK AO2 SLP159 T03280244,2024-08-03T16:56:00Z,32.8,24.4,10+,30.00
KNYG,38.503,-77.301,160,14,16.11092,KNYG 031656Z AUTO 16014KT 7SM CLR 32/25 A2985 RMK AO2 SLP108 T03170250 $,2024-08-03T16:56:00Z,31.7,25,7,29.85
KNXP,34.294,-116.147,340,3,3.4523399999999995,KNXP 031656Z AUTO 34003KT 10SM CLR 37/11 A3007 RMK AO2 SLP139 T03670106,2024-08-03T16:56:00Z,36.7,10.6,10+,30.07
KNTU,36.8209,-76.0277,220,17,19.56326,KNTU 031656Z 22017G24KT 10SM FEW027 SCT250 33/26 A2992 RMK AO2 SLP133 T03280261,2024-08-03T16:56:00Z,32.8,26.1,10+,29.92
KNSE,30.728,-87.022,,,,KNSE 031656Z AUTO 10SM FEW032 33/25 A2996 RMK AO2 SLP129 T03280250 $,2024-08-03T16:56:00Z,32.8,25,10+,29.96
KNQI,27.507,-97.81,190,3,3.4523399999999995,KNQI 031656Z AUTO 19003KT 10SM CLR 34/24 A3000 RMK AO2 SLP154 T03390239 $,2024-08-03T16:56:00Z,33.9,23.9,10+,30.00
KNPA,30.356,-87.323,190,5,5.7539,KNPA 031656Z 19005KT 10SM FEW030 FEW120 SCT250 35/26 A2995 RMK AO2 SLP143 T03500261 $,2024-08-03T16:56:00Z,35,26.1,10+,29.95
KNOG,27.895,-98.043,100,6,6.904679999999999,KNOG 031656Z AUTO 10006KT 10SM CLR 33/22 A3001 RMK AO2 SLP143 T03330222 $,2024-08-03T16:56:00Z,33.3,22.2,10+,30.01
KNMM,32.546,-88.543,10,5,5.7539,KNMM 031656Z AUTO 01005KT 10SM SCT041 BKN070 31/22 A2998 RMK AO2 CIG 042 SOUTH SLP160 T03110217 $,2024-08-03T16:56:00Z,31.1,21.7,10+,29.98
KNLC,36.3024,-119.94,330,4,4.60312,KNLC 031656Z 33004KT 10SM FEW150 SCT200 31/14 A2996 RMK AO2 SLP143 T03110144,2024-08-03T16:56:00Z,31.1,14.4,10+,29.96
KNJK,32.823,-115.668,VRB,4,4.60312,KNJK 031656Z VRB04KT 10SM FEW150 42/12 A2985 RMK AO2 SLP122 T04170122 $,2024-08-03T16:56:00Z,41.7,12.2,10+,29.85
KNID,35.688,-117.69,VRB,3,3.4523399999999995,KNID 031656Z AUTO VRB03KT 10SM CLR 34/13 A3002 RMK AO2 SLP139 T03390133 $,2024-08-03T16:56:00Z,33.9,13.3,10+,30.02
KNGP,27.688,-97.292,110,4,4.60312,KNGP 031656Z AUTO 11004KT 10SM FEW026 A2999 RMK AO2 SLP157 $,2024-08-03T16:56:00Z,,,10+,29.99
KNFE,36.701,-76.129,200,8,9.20624,KNFE 031656Z AUTO 20008G19KT 160V230 10SM SCT029 33/25 A2993 RMK AO2 SLP139 T03280250,2024-08-03T16:56:00Z,32.8,25,10+,29.93
KNDZ,30.6973,-87.0207,0,0,0.0,KNDZ 031656Z AUTO 00000KT 10SM FEW033 33/23 A2996 RMK AO2 SLP129 T03280233 $,2024-08-03T16:56:00Z,32.8,23.3,10+,29.96
KNBC,32.477,-80.722,200,5,5.7539,KNBC 031656Z AUTO 20005KT 10SM SCT036 33/24 A2999 RMK AO2 SLP157 T03330244,2024-08-03T16:56:00Z,33.3,24.4,10+,29.99
KMYR,33.6769,-78.9325,180,10,11.5078,KMYR 031656Z 18010KT 10SM CLR 29/26 A3001 RMK AO2 LTG DSNT ALQDS TSE49RAB1559E25 SLP163 T02890261 PNO $,2024-08-03T16:56:00Z,28.9,26.1,10+,30.01
KMVN,38.3284,-88.853,VRB,3,3.4523399999999995,KMVN 031656Z AUTO VRB03KT 10SM SCT039 29/22 A3000 RMK AO2 SLP158 T02940217,2024-08-03T16:56:00Z,29.4,21.7,10+,30.00
KMTW,44.1322,-87.6819,120,7,8.05546,KMTW 031656Z AUTO 12007KT 10SM CLR 28/18 RMK AO2 SLPNO T02780183 $,2024-08-03T16:56:00Z,27.8,18.3,10+,
KMTC,42.6045,-82.8353,320,8,9.20624,KMTC 031656Z 32008KT 10SM FEW040 SCT230 30/20 A2987 RMK AO2A SLP115 T02950198 $,2024-08-03T16:56:00Z,29.5,19.8,10+,29.87
KMOB,30.6882,-88.2459,VRB,4,4.60312,KMOB 031656Z VRB04KT 10SM SCT033 BKN070 BKN085 34/24 A2997 RMK AO2 SLP144 T03440239,2024-08-03T16:56:00Z,34.4,23.9,10+,29.97
KMML,44.4504,-95.8215,200,8,9.20624,KMML 031656Z AUTO 20008KT 10SM CLR 31/21 A3000 RMK AO2 SLP152 T03060211,2024-08-03T16:56:00Z,30.6,21.1,10+,30.00
KMKT,44.2184,-93.9179,180,4,4.60312,KMKT 031656Z AUTO 18004KT 10SM CLR 26/17 A3004 RMK AO2 SLP168 T02610167,2024-08-03T16:56:00Z,26.1,16.7,10+,30.04
KMJX,39.9235,-74.297,220,7,8.05546,KMJX 031656Z AUTO 22007KT 170V290 10SM BKN035 34/24 A2985 RMK AO2 SLP110 T03390239,2024-08-03T16:56:00Z,33.9,23.9,10+,29.85
KMDT,40.1962,-76.7725,130,8,9.20624,KMDT 031656Z 13008KT 10SM FEW090 SCT140 BKN200 32/23 A2981 RMK AO2 LTG DSNT W AND NW SLP091 CB DSNT NW MOV NE T03170228,2024-08-03T16:56:00Z,31.7,22.8,10+,29.81
KMBL,44.2714,-86.2377,300,9,10.357019999999999,KMBL 031656Z AUTO 30009KT 10SM CLR 28/19 A2997 RMK AO2 SLP145 T02830189,2024-08-03T16:56:00Z,28.3,18.9,10+,29.97
KM19,35.643,-91.1735,VRB,3,3.4523399999999995,KM19 031656Z AUTO VRB03KT 10SM CLR 30/21 A3003 RMK AO2 SLP165 T03000211 $,2024-08-03T16:56:00Z,30,21.1,10+,30.03
KLZU,33.9828,-83.9585,270,6,6.904679999999999,KLZU 031656Z 27006KT 10SM SCT026 29/22 A3000 RMK AO2 SLPNO T02890222,2024-08-03T16:56:00Z,28.9,22.2,10+,30.00
KLWS,46.3746,-117.015,330,6,6.904679999999999,KLWS 031656Z AUTO 33006KT 10SM CLR 29/14 A2995 RMK AO2 SLP125 T02940139,2024-08-03T16:56:00Z,29.4,13.9,10+,29.95
KLRD,27.551,-99.4614,VRB,3,3.4523399999999995,KLRD 031656Z VRB03KT 10SM CLR 35/22 A3000 RMK AO2 SLP154 T03500222,2024-08-03T16:56:00Z,35,22.2,10+,30.00
KLPC,34.6646,-120.464,280,5,5.7539,KLPC 031656Z AUTO 28005KT 10SM CLR 18/14 A2999 RMK AO2 SLP157 T01780144,2024-08-03T16:56:00Z,17.8,14.4,10+,29.99
KLNR,43.2111,-90.1874,VRB,6,6.904679999999999,KLNR 031656Z AUTO VRB06KT 10SM SCT060 30/19 A2999 RMK AO2 SLP146 T03000189,2024-08-03T16:56:00Z,30,18.9,10+,29.99
KLEW,44.0444,-70.2853,130,3,3.4523399999999995,KLEW 031656Z AUTO 13003KT 10SM FEW015 OVC028 25/22 A2980 RMK AO2 SLP097 T02500217,2024-08-03T16:56:00Z,25,21.7,10+,29.80
KLBT,34.6082,-79.059,200,10,11.5078,KLBT 031656Z AUTO 20010KT 10SM BKN034 32/24 A2996 RMK AO2 SLP143 T03220244,2024-08-03T16:56:00Z,32.2,24.4,10+,29.96
KLBL,37.0375,-100.957,190,13,14.960139999999999,KLBL 031656Z AUTO 19013KT 10SM CLR 32/18 A3015 RMK AO2 SLP173 T03170183 PNO $,2024-08-03T16:56:00Z,31.7,18.3,10+,30.15
KLAS,36.0719,-115.163,0,0,0.0,KLAS 031656Z 00000KT 10SM FEW120 FEW150 SCT220 38/12 A3002 RMK AO2 SLP131 T03780122,2024-08-03T16:56:00Z,37.8,12.2,10+,30.02
KKLS,46.118,-122.898,300,5,5.7539,KKLS 031656Z AUTO 30005KT 10SM FEW015 17/13 A3011 RMK AO2 SLP199 T01720133,2024-08-03T16:56:00Z,17.2,13.3,10+,30.11
KJXN,42.259,-84.4589,10,5,5.7539,KJXN 031656Z 01005KT 10SM CLR 29/20 A2995 RMK AO2 SLP134 T02890200,2024-08-03T16:56:00Z,28.9,20,10+,29.95
KJRB,40.701,-74.009,210,5,5.7539,KJRB 031656Z AUTO 21005KT 6SM HZ CLR 32/23 A2984 RMK AO2 SLP104 T03220233 PNO $,2024-08-03T16:56:00Z,32.2,23.3,6,29.84
KJMS,46.9259,-98.6704,350,5,5.7539,KJMS 031656Z AUTO 35005KT 10SM CLR 31/23 A2990 RMK AO2 SLP116 T03060228,2024-08-03T16:56:00Z,30.6,22.8,10+,29.90
KJKA,30.291,-87.661,240,7,8.05546,KJKA 031656Z 24007KT 10SM SCT034 SCT045 34/25 A2995,2024-08-03T16:56:00Z,34,25,10+,29.95
KJAX,30.4953,-81.6937,160,8,9.20624,KJAX 031656Z 16008KT 10SM FEW035 FEW200 SCT250 33/23 A2999 RMK AO2 SLP155 T03330228,2024-08-03T16:56:00Z,33.3,22.8,10+,29.99
KJAC,43.6129,-110.737,VRB,3,3.4523399999999995,KJAC 031656Z VRB03KT 10SM CLR 23/05 A3036 RMK AO2 SLP217 T02280050,2024-08-03T16:56:00Z,22.8,5,10+,30.36
KIWD,46.5321,-90.126,200,3,3.4523399999999995,KIWD 031656Z AUTO 20003KT 10SM CLR 26/14 A3003 RMK AO2 SLP165 T02560144,2024-08-03T16:56:00Z,25.6,14.4,10+,30.03
KITH,42.4931,-76.4569,VRB,3,3.4523399999999995,KITH 031656Z VRB03KT 10SM SCT028 26/21 A2989 RMK AO2 SLP115 T02560211,2024-08-03T16:56:00Z,25.6,21.1,10+,29.89
KISP,40.7939,-73.1018,190,12,13.809359999999998,KISP 031656Z 19012KT 10SM FEW030 SCT250 29/24 A2984 RMK AO2 SLP103 T02940239,2024-08-03T16:56:00Z,29.4,23.9,10+,29.84
KISO,35.324,-77.6187,190,12,13.809359999999998,KISO 031656Z 19012G16KT 10SM BKN034 BKN041 32/24 A2998,2024-08-03T16:56:00Z,32,24,10+,29.98
KINW,35.028,-110.722,90,8,9.20624,KINW 031656Z AUTO 09008KT 10SM CLR 30/12 A3026 RMK AO2 SLP162 T03000122,2024-08-03T16:56:00Z,30,12.2,10+,30.26
KILE,31.084,-97.6885,0,0,0.0,KILE 031656Z AUTO 00000KT 10SM CLR 31/23 A3004 RMK AO2 SLP159 T03110228,2024-08-03T16:56:00Z,31.1,22.8,10+,30.04
KHYS,38.8392,-99.2742,210,16,18.41248,KHYS 031656Z AUTO 21016KT 10SM CLR 30/17 A3011 RMK AO2 SLP180 T03000167,2024-08-03T16:56:00Z,30,16.7,10+,30.11
KHYI,29.8958,-97.8664,VRB,3,3.4523399999999995,KHYI 031656Z VRB03KT 10SM CLR 34/24 A3003 RMK AO2 SLP161 T03390239,2024-08-03T16:56:00Z,33.9,23.9,10+,30.03
KHYA,41.6719,-70.2697,210,17,19.56326,KHYA 031656Z 21017G24KT 10SM CLR 29/23 A2980 RMK AO2 SLP091 T02890233,2024-08-03T16:56:00Z,28.9,23.3,10+,29.80
KHWV,40.8212,-72.8674,200,9,10.357019999999999,KHWV 031656Z AUTO 20009G20KT 10SM CLR 29/23 A2985 RMK AO2 SLP106 T02940233,2024-08-03T16:56:00Z,29.4,23.3,10+,29.85
KHPN,41.0624,-73.7046,VRB,4,4.60312,KHPN 031656Z VRB04KT 10SM SCT038 31/22 A2984 RMK AO2 SLP095 T03110222,2024-08-03T16:56:00Z,31.1,22.2,10+,29.84
KHND,35.9658,-115.134,VRB,3,3.4523399999999995,KHND 031656Z VRB03KT 10SM CLR 36/14 A3005 RMK AO2 SLP154 T03610139,2024-08-03T16:56:00Z,36.1,13.9,10+,30.05
KHNB,38.2505,-86.9473,330,5,5.7539,KHNB 031656Z AUTO 33005KT 10SM FEW026 28/23 A2998 RMK AO2 SLP148 T02830233,2024-08-03T16:56:00Z,28.3,23.3,10+,29.98
KHEZ,31.6159,-91.2973,20,5,5.7539,KHEZ 031656Z AUTO 02005KT 10SM FEW028 32/26 A2999 RMK AO2 LTG DSNT E AND SE SLP152 T03220261,2024-08-03T16:56:00Z,32.2,26.1,10+,29.99
KHEF,38.724,-77.5175,170,13,14.960139999999999,KHEF 031656Z 17013G17KT 10SM CLR 33/22 A2983 RMK AO2 SLP105 T03330222,2024-08-03T16:56:00Z,33.3,22.2,10+,29.83
KHDN,40.4842,-107.23,VRB,4,4.60312,KHDN 031656Z AUTO VRB04KT 10SM CLR 28/04 A3038 RMK AO2 SLP191 T02830044,2024-08-03T16:56:00Z,28.3,4.4,10+,30.38
KGXY,40.4345,-104.63,VRB,4,4.60312,KGXY 031656Z AUTO VRB04KT 10SM CLR 28/13 A3025 RMK AO2 SLP194 T02780133,2024-08-03T16:56:00Z,27.8,13.3,10+,30.25
KGUC,38.5322,-106.942,0,0,0.0,KGUC 031656Z AUTO 00000KT 10SM CLR 23/06 A3049 RMK AO2 SLP214 T02280056,2024-08-03T16:56:00Z,22.8,5.6,10+,30.49
KGTU,30.6809,-97.6767,290,4,4.60312,KGTU 031656Z 29004KT 10SM CLR 33/21 A3005 RMK AO2 SLP166 T03280211,2024-08-03T16:56:00Z,32.8,21.1,10+,30.05
KGTR,33.456,-88.593,VRB,4,4.60312,KGTR 031656Z VRB04KT 10SM FEW035 32/23 A2999 RMK AO2 SLP161 T03170228,2024-08-03T16:56:00Z,31.7,22.8,10+,29.99
KGSB,35.3446,-77.9458,220,6,6.904679999999999,KGSB 031656Z 22006KT 10SM SCT025 BKN150 32/24 A2997 RMK SLPNO WND DATA ESTMD ALSTG ESTMD,2024-08-03T16:56:00Z,32,24,10+,29.97
KGRD,34.2539,-82.1526,190,7,8.05546,KGRD 031656Z AUTO 19007G17KT 10SM SCT034 SCT047 BKN080 31/23 A2997 RMK AO2 SLP138 T03110233,2024-08-03T16:56:00Z,31.1,23.3,10+,29.97
KGPZ,47.2029,-93.5071,20,4,4.60312,KGPZ 031656Z AUTO 02004KT 10SM SCT080 23/17 A3004 RMK AO2 LTG DSNT NE SLP172 T02330167,2024-08-03T16:56:00Z,23.3,16.7,10+,30.04
KGON,41.3279,-72.0489,240,10,11.5078,KGON 031656Z 24010G17KT 10SM CLR 30/24 A2981 RMK AO2 SLP096 T03000239,2024-08-03T16:56:00Z,30,23.9,10+,29.81
KGNR,45.4649,-69.5543,130,6,6.904679999999999,KGNR 031656Z AUTO 13006KT 26/21 A2979 RMK AO1 SLP082 T02610211,2024-08-03T16:56:00Z,26.1,21.1,,29.79
KGNA,47.745,-90.346,0,0,0.0,KGNA 031656Z AUTO 00000KT 23/16 A2998 RMK AO1 SLP145 T02280161,2024-08-03T16:56:00Z,22.8,16.1,,29.98
KGDV,47.14,-104.813,50,11,12.658579999999999,KGDV 031656Z AUTO 05011G15KT 10SM CLR 27/13 A3014 RMK AO2 SLP182 T02670128 TSNO PNO $,2024-08-03T16:56:00Z,26.7,12.8,10+,30.14
KGBD,38.3405,-98.8592,190,11,12.658579999999999,KGBD 031656Z AUTO 19011KT 10SM CLR 32/16 A3014 RMK AO2 SLP185 T03170161,2024-08-03T16:56:00Z,31.7,16.1,10+,30.14
KGAI,39.1696,-77.1653,210,7,8.05546,KGAI 031656Z AUTO 21007KT 10SM CLR 33/22 A2986 RMK AO2 SLP119 T03280222,2024-08-03T16:56:00Z,32.8,22.2,10+,29.86
KGAD,33.9686,-86.0917,0,0,0.0,KGAD 031656Z AUTO 00000KT SCT028 28/23 A2999 RMK AO2 SLP153 T02830228 PWINO $,2024-08-03T16:56:00Z,28.3,22.8,,29.99
KFSD,43.5775,-96.7539,200,8,9.20624,KFSD 031656Z 20008KT 10SM FEW120 FEW250 31/20 A3002 RMK AO2 SLP155 T03110200,2024-08-03T16:56:00Z,31.1,20,10+,30.02
KFRM,43.6455,-94.4168,130,5,5.7539,KFRM 031656Z AUTO 13005KT 9SM CLR 27/17 A3005 RMK AO2 SLP170 T02720167,2024-08-03T16:56:00Z,27.2,16.7,9,30.05
KFOD,42.549,-94.182,80,6,6.904679999999999,KFOD 031656Z AUTO 08006KT 10SM CLR A3005 RMK AO2 SLPNO FZRANO $,2024-08-03T16:56:00Z,,,10+,30.05
KFNL,40.4427,-105.01,VRB,3,3.4523399999999995,KFNL 031656Z VRB03KT 6SM HZ CLR 31/07 A3026 RMK AO2 SLP171 T03110072,2024-08-03T16:56:00Z,31.1,7.2,6,30.26
KFLP,36.2925,-92.5851,30,5,5.7539,KFLP 031656Z AUTO 03005KT 10SM FEW029 SCT037 31/21 A3006 RMK AO2 SLP170 T03060211,2024-08-03T16:56:00Z,30.6,21.1,10+,30.06
KFIG,41.0465,-78.4112,20,6,6.904679999999999,KFIG 031656Z AUTO 02006KT 3SM -RA BR SCT036 OVC050 22/21 A2990 RMK AO2 LTG DSNT ALQDS P0000 T02170206,2024-08-03T16:56:00Z,21.7,20.6,3,29.90
KFCI,37.407,-77.522,230,12,13.809359999999998,KFCI 031656Z AUTO 23012G18KT 10SM 29/24 A2991 RMK AO2 SLP138 T02940244,2024-08-03T16:56:00Z,29.4,24.4,10+,29.91
KFAM,37.7631,-90.4292,330,6,6.904679999999999,KFAM 031656Z AUTO 33006KT 10SM BKN039 29/20 A3005 RMK AO2 SLP175 T02890200,2024-08-03T16:56:00Z,28.9,20,10+,30.05
KEWK,38.0621,-97.275,170,5,5.7539,KEWK 031656Z AUTO 17005KT 10SM FEW095 32/17 A3012 RMK AO2 SLP182 T03170172,2024-08-03T16:56:00Z,31.7,17.2,10+,30.12
KEUL,43.6405,-116.63,0,0,0.0,KEUL 031656Z AUTO 00000KT 10SM CLR 29/13 A2998 RMK AO2 SLP123 T02940133,2024-08-03T16:56:00Z,29.4,13.3,10+,29.98
KESC,45.7225,-87.0893,350,6,6.904679999999999,KESC 031656Z AUTO 35006KT 10SM CLR 28/16 A2997 RMK AO2 SLP150 T02780156 $,2024-08-03T16:56:00Z,27.8,15.6,10+,29.97
KENV,40.7211,-114.031,300,5,5.7539,KENV 031656Z AUTO 30005KT 10SM CLR 31/05 A3012 RMK AO2 SLP149 T03110050,2024-08-03T16:56:00Z,31.1,5,10+,30.12
KEKY,33.314,-86.925,350,7,8.05546,KEKY 031656Z AUTO 35007KT 10SM BKN039 BKN047 OVC065 31/22 A3000 RMK AO2 SLP005 T03060222,2024-08-03T16:56:00Z,30.6,22.2,10+,30.00
KEKO,40.824,-115.786,230,5,5.7539,KEKO 031656Z AUTO 23005KT 10SM CLR 30/09 A3019 RMK AO2 SLP149 T03000089 $,2024-08-03T16:56:00Z,30,8.9,10+,30.19
KEHR,37.8066,-87.6824,VRB,3,3.4523399999999995,KEHR 031656Z AUTO VRB03KT 10SM SCT030 BKN049 29/22 A2999 RMK AO2 SLP152 T02890217,2024-08-03T16:56:00Z,28.9,21.7,10+,29.99
KEGE,39.6448,-106.918,250,3,3.4523399999999995,KEGE 031656Z 25003KT 10SM CLR 25/04 A3041 RMK AO2 SLP186 T02500039 PNO $,2024-08-03T16:56:00Z,25,3.9,10+,30.41
KEED,34.7678,-114.618,0,0,0.0,KEED 031656Z AUTO 00000KT 10SM FEW110 40/17 A2991 RMK AO2 SLP087 T04000167,2024-08-03T16:56:00Z,40,16.7,10+,29.91
KEAU,44.8665,-91.4881,0,0,0.0,KEAU 031656Z 00000KT 10SM CLR 27/14 A3003 RMK AO2 SLP163 T02720144,2024-08-03T16:56:00Z,27.2,14.4,10+,30.03
KEAR,40.7193,-99.0086,190,7,8.05546,KEAR 031656Z AUTO 19007KT 10SM CLR 29/19 A3010 RMK AO2 SLP175 T02890189,2024-08-03T16:56:00Z,28.9,18.9,10+,30.10
KDYR,35.9957,-89.4057,330,4,4.60312,KDYR 031656Z AUTO 33004KT 10SM BKN030 BKN038 30/22 A3002 RMK AO2 SLP169 T03000222,2024-08-03T16:56:00Z,30,22.2,10+,30.02
KDWU,38.556,-82.7375,VRB,3,3.4523399999999995,KDWU 031656Z AUTO VRB03KT 10SM OVC037 25/23 A2994 RMK AO2 SLP136 T02500233 $,2024-08-03T16:56:00Z,25,23.3,10+,29.94
KDVL,48.1136,-98.9034,20,21,24.166379999999997,KDVL 031656Z AUTO 02021G26KT 10SM FEW018 23/17 A2997 RMK AO2 PK WND 01026/1655 SLP145 T02280172,2024-08-03T16:56:00Z,22.8,17.2,10+,29.97
KDUG,31.4725,-109.602,VRB,3,3.4523399999999995,KDUG 031656Z AUTO VRB03KT 10SM CLR 31/14 A3018 RMK AO2 SLP140 T03110139 $,2024-08-03T16:56:00Z,31.1,13.9,10+,30.18
KDIK,46.7997,-102.797,360,12,13.809359999999998,KDIK 031656Z AUTO 36012G21KT 10SM CLR 28/16 A3007 RMK AO2 SLP162 T02780161,2024-08-03T16:56:00Z,27.8,16.1,10+,30.07
KDIJ,43.745,-111.091,200,9,10.357019999999999,KDIJ 031656Z AUTO 20009KT 10SM CLR 32/01 A3030 RMK AO2 SLP173 T03170011 $,2024-08-03T16:56:00Z,31.7,1.1,10+,30.30
KDAY,39.9064,-84.2185,30,6,6.904679999999999,KDAY 031656Z 03006KT 10SM SCT022 BKN035 28/22 A2994 RMK AO2 SLP131 T02780222 $,2024-08-03T16:56:00Z,27.8,22.2,10+,29.94
KD07,45.0326,-102.02,360,14,16.11092,KD07 031656Z AUTO 36014G21KT 34/14 A3002 RMK AO1 SLP141 T03390139 $,2024-08-03T16:56:00Z,33.9,13.9,,30.02
KCWI,41.8295,-90.3328,260,4,4.60312,KCWI 031656Z AUTO 26004KT 10SM CLR 29/22 A2998 RMK AO2 SLP151 T02940217,2024-08-03T16:56:00Z,29.4,21.7,10+,29.98
KCVO,44.5013,-123.293,0,0,0.0,KCVO 031656Z 00000KT 10SM CLR 20/16 A3010 RMK AO2 SLP192 T02000156,2024-08-03T16:56:00Z,20,15.6,10+,30.10
KCVN,34.4227,-103.08,140,12,13.809359999999998,KCVN 031656Z AUTO 14012KT 10SM CLR 30/18 A3027 RMK AO2 SLP199 T03000178,2024-08-03T16:56:00Z,30,17.8,10+,30.27
KCTB,48.6036,-112.377,160,6,6.904679999999999,KCTB 031656Z AUTO 16006KT 10SM CLR 24/09 A3010 RMK AO2 SLP156 T02390089,2024-08-03T16:56:00Z,23.9,8.9,10+,30.10
KCOE,47.7719,-116.833,230,5,5.7539,KCOE 031656Z AUTO 23005KT 10SM CLR 26/14 A3006 RMK AO2 SLP170 T02610144 PNO $,2024-08-03T16:56:00Z,26.1,14.4,10+,30.06
KCOD,44.52,-109.027,20,6,6.904679999999999,KCOD 031656Z AUTO 02006KT 10SM CLR 28/09 A3027 RMK AO2 SLP181 T02780094,2024-08-03T16:56:00Z,27.8,9.4,10+,30.27
KCIU,46.2531,-84.4773,340,11,12.658579999999999,KCIU 031656Z AUTO 34011KT 10SM CLR 27/12 A2995 RMK AO2 SLP137 T02720117,2024-08-03T16:56:00Z,27.2,11.7,10+,29.95
KCIC,39.7988,-121.858,0,0,0.0,KCIC 031656Z 00000KT 10SM CLR 29/13 A2996,2024-08-03T16:56:00Z,29,13,10+,29.96
KCHS,32.8994,-80.0407,200,11,12.658579999999999,KCHS 031656Z 20011G19KT 10SM BKN037 BKN150 BKN250 32/23 A3000 RMK AO2 SLP156 T03170233,2024-08-03T16:56:00Z,31.7,23.3,10+,30.00
KCGZ,32.9531,-111.773,150,4,4.60312,KCGZ 031656Z AUTO 15004KT 10SM CLR 37/15 A2997 RMK AO2 SLP127 T03720150 PNO $,2024-08-03T16:56:00Z,37.2,15,10+,29.97
KCEC,41.7836,-124.238,310,4,4.60312,KCEC 031656Z AUTO 31004KT 8SM OVC003 15/15 A3006 RMK AO2 SLP180 T01500150,2024-08-03T16:56:00Z,15,15,8,30.06
KCAE,33.9422,-81.118,220,7,8.05546,KCAE 031656Z 22007KT 10SM SCT027 BKN250 32/25 A2994 RMK AO2 SLP136 CB DSNT W-NW T03220250,2024-08-03T16:56:00Z,32.2,25,10+,29.94
KBZN,45.7876,-111.162,10,6,6.904679999999999,KBZN 031656Z 01006KT 10SM CLR 27/08 A3018 RMK AO2 SLP171 T02720078,2024-08-03T16:56:00Z,27.2,7.8,10+,30.18
KBVX,35.7259,-91.6517,VRB,4,4.60312,KBVX 031656Z AUTO VRB04KT 6SM HZ BKN034 BKN045 31/22 A3005 RMK AO2 SLP171 T03110217,2024-08-03T16:56:00Z,31.1,21.7,6,30.05
KBOK,42.0754,-124.29,VRB,3,3.4523399999999995,KBOK 031656Z AUTO VRB03KT 3SM BR OVC003 14/14 A3007 RMK AO2 RAE29 SLP181 P0000 T01440144,2024-08-03T16:56:00Z,14.4,14.4,3,30.07
KBMI,40.4777,-88.9144,0,0,0.0,KBMI 031656Z 00000KT 10SM CLR 31/21 A3001 RMK AO2 RAB22E31 SLP153 P0000 T03060206,2024-08-03T16:56:00Z,30.6,20.6,10+,30.01
KBLM,40.1822,-74.1207,220,6,6.904679999999999,KBLM 031656Z AUTO 22006KT 10SM BKN035 32/23 A2986 RMK AO2 SLP109 T03220228,2024-08-03T16:56:00Z,32.2,22.8,10+,29.86
KBKX,44.3075,-96.8183,210,11,12.658579999999999,KBKX 031656Z AUTO 21011KT 10SM FEW110 30/19 A3002 RMK AO2 SLP160 T03000189,2024-08-03T16:56:00Z,30,18.9,10+,30.02
KBIH,37.3711,-118.359,0,0,0.0,KBIH 031656Z AUTO 00000KT 10SM CLR 29/12 A3015 RMK AO2 SLP153 T02940122,2024-08-03T16:56:00Z,29.4,12.2,10+,30.15
KBID,41.1668,-71.5757,230,15,17.261699999999998,KBID 031656Z AUTO 23015KT 10SM CLR 27/23 A2984 RMK AO2 SLP105 T02720228 PNO $,2024-08-03T16:56:00Z,27.2,22.8,10+,29.84
KBHB,44.4549,-68.3617,VRB,3,3.4523399999999995,KBHB 031656Z AUTO VRB03KT 10SM OVC010 23/22 A2980 RMK AO2 RAB1557E11 CIG 007V012 SLP091 P0000 T02330217,2024-08-03T16:56:00Z,23.3,21.7,10+,29.80
KAUO,32.617,-85.4342,VRB,4,4.60312,KAUO 031656Z AUTO VRB04KT 10SM FEW029 SCT034 31/23 A3000 RMK AO2 SLP143 T03060233,2024-08-03T16:56:00Z,30.6,23.3,10+,30.00
KASH,42.7798,-71.5141,340,7,8.05546,KASH 031656Z 34007KT 10SM BKN024 OVC031 28/24 A2980 RMK AO2 SLP094 T02830244,2024-08-03T16:56:00Z,28.3,24.4,10+,29.80
KART,43.9888,-76.0261,230,7,8.05546,KART 031656Z AUTO 23007KT 10SM SCT017 27/23 A2984 RMK AO2 SLP099 T02670228,2024-08-03T16:56:00Z,26.7,22.8,10+,29.84
KARG,36.1256,-90.9216,340,8,9.20624,KARG 031656Z AUTO 34008KT 10SM FEW033 30/22 A3002 RMK AO2 SLP166 T03000222,2024-08-03T16:56:00Z,30,22.2,10+,30.02
KAND,34.498,-82.7092,VRB,6,6.904679999999999,KAND 031656Z AUTO VRB06KT 10SM SCT030 BKN040 OVC060 30/22 A2995 RMK AO2 SLP131 T03000222,2024-08-03T16:56:00Z,30,22.2,10+,29.95
KALK,31.606,-110.428,80,10,11.5078,KALK 031656Z AUTO 08010KT 10SM CLR 31/13 A3024 RMK AO2 SLP138 T03110128,2024-08-03T16:56:00Z,31.1,12.8,10+,30.24
KAJO,33.8956,-117.596,330,3,3.4523399999999995,KAJO 031656Z AUTO 33003KT 10SM CLR 30/12 A2997 RMK AO2 SLP141 T03000122,2024-08-03T16:56:00Z,30,12.2,10+,29.97
KAIZ,38.1005,-92.5475,VRB,4,4.60312,KAIZ 031656Z AUTO VRB04KT 10SM BKN037 29/21 A3007 RMK AO2 SLP173 T02940206 PNO $,2024-08-03T16:56:00Z,29.4,20.6,10+,30.07
KADF,34.0953,-93.069,VRB,3,3.4523399999999995,KADF 031656Z AUTO VRB03KT 10SM FEW042 32/23 A3003 RMK AO2 SLP164 T03220233,2024-08-03T16:56:00Z,32.2,23.3,10+,30.03
K8D3,45.669,-96.9918,200,7,8.05546,K8D3 031656Z AUTO 20007G16KT 32/21 A2990 RMK AO1 SLP101 T03170206,2024-08-03T16:56:00Z,31.7,20.6,,29.90
K79J,31.3061,-86.3902,VRB,4,4.60312,K79J 031656Z AUTO VRB04KT 10SM FEW026 33/25 A2996 RMK AO2 SLP139 T03330250 TSNO,2024-08-03T16:56:00Z,33.3,25,10+,29.96
K2WX,45.6043,-103.547,,,,K2WX 031656Z AUTO A3008 RMK AO1 SLPNO,2024-08-03T16:56:00Z,,,,30.08
K1M4,34.2832,-87.5986,360,4,4.60312,K1M4 031656Z AUTO 36004KT 10SM BKN038 28/20 A3004 RMK AO2 SLP154 T02780200 $,2024-08-03T16:56:00Z,27.8,20,10+,30.04
TXKF,32.364,-64.679,170,8,9.20624,TXKF 031655Z 17008KT 130V190 9999 VCSH FEW021 30/25 Q1023 ,2024-08-03T16:55:00Z,30,25,6+,30.21
TNCE,17.497,-62.979,100,17,19.56326,TNCE 031655Z AUTO 10017KT 060V130 //// // ///////// 31/24 Q1016 RE//,2024-08-03T16:55:00Z,31,24,,30.00
TNCB,12.133,-68.277,110,13,14.960139999999999,TNCB 031655Z 11013KT 070V170 9999 SCT019 32/25 Q1012,2024-08-03T16:55:00Z,32,25,6+,29.88
RODN,26.356,127.768,10,3,3.4523399999999995,RODN 031655Z 01003KT 10SM SCT050 29/26 A2972 RMK AO2A SLP064 T02910263 FZRANO TSNO $,2024-08-03T16:55:00Z,29.1,26.3,10+,29.72
RKSO,37.091,127.03,0,0,0.0,RKSO 031655Z 00000KT 10SM CLR 26/25 A2976 RMK AO2A SLP081 T02630247,2024-08-03T16:55:00Z,26.3,24.7,10+,29.76
RKSG,36.962,127.031,0,0,0.0,RKSG 031655Z 00000KT 10SM CLR 27/25 A2976 RMK AO2A SLP080 T02740246 $,2024-08-03T16:55:00Z,27.4,24.6,10+,29.76
RJTY,35.749,139.349,180,3,3.4523399999999995,RJTY 031655Z AUTO 18003KT 10SM CLR 26/23 A2980 RMK AO2 SLP089 T02620226 FZRANO $,2024-08-03T16:55:00Z,26.2,22.6,10+,29.80
PHSF,19.758,-155.557,90,8,9.20624,PHSF 031655Z AUTO 09008KT 9SM CLR 16/04 A3042 RMK AO2 SLP189 T01610038 $,2024-08-03T16:55:00Z,16.1,3.8,9,30.42
PHHI,21.478,-158.044,290,3,3.4523399999999995,PHHI 031655Z AUTO 29003KT 10SM BKN021 BKN026 OVC037 22/21 A3011 RMK AO2 DZE1555 SLP187 T02210211 $,2024-08-03T16:55:00Z,22.1,21.1,10+,30.11
PGUA,13.583,144.918,290,15,17.261699999999998,PGUA 031655Z AUTO 29015KT 5SM -RA BR FEW006 24/23 A2986 RMK AO2 PK WND 25034/23 SLP102 P0048 T02370228 $,2024-08-03T16:55:00Z,23.7,22.8,5,29.86
PATL,62.893,-155.977,70,5,5.7539,PATL 031655Z AUTO 07005KT 10SM -RA OVC004 09/09 A3022 RMK AO2 RAB1455 SLP238 P0005 T00910089,2024-08-03T16:55:00Z,9.1,8.9,10+,30.22
PASV,61.101,-155.577,250,5,5.7539,PASV 031655Z AUTO 25005KT 10SM BKN085 OVC100 11/07 A3024 RMK AO2 SLP242 T01050070,2024-08-03T16:55:00Z,10.5,7,10+,30.24
PALU,68.873,-166.101,170,11,12.658579999999999,PALU 031655Z AUTO 17011G17KT 070V210 10SM -RA BKN012 OVC029 13/10 A2980 RMK AO2 RAB1532E1556B1627DZB1556E1627 SLP091 P0001 T01250103,2024-08-03T16:55:00Z,12.5,10.3,10+,29.80
PAIM,65.994,-153.695,0,0,0.0,PAIM 031655Z AUTO 00000KT 3SM -RA BR OVC007 08/08 A3012 RMK AO2 RAB1455 SLP205 P0001 T00810080,2024-08-03T16:55:00Z,8.1,8,3,30.12
PAEI,64.654,-147.094,120,3,3.4523399999999995,PAEI 031655Z 12003KT 10SM -RA SCT028 OVC048 10/09 A3022 RMK AO2A RAB51 SLP239 P0000 T01010087,2024-08-03T16:55:00Z,10.1,8.7,10+,30.22
PAEH,58.652,-162.062,10,17,19.56326,PAEH 031655Z AUTO 01017KT 010V100 10SM SCT007 09/08 A3015 RMK AO2 SLP212 T00890075,2024-08-03T16:55:00Z,8.9,7.5,10+,30.15
PAED,61.25,-149.837,60,4,4.60312,PAED 031655Z 06004KT 10SM FEW020 FEW060 SCT110 BKN150 13/10 A3029 RMK AO2A SLP253 T01340104 $,2024-08-03T16:55:00Z,13.4,10.4,10+,30.29
OTBH,25.117,51.315,350,9,10.357019999999999,OTBH 031655Z 35009KT 9000 HZ CLR 38/09 A2941 Q0996 RMK AO2A SLP959 T03780085 FZRANO $,2024-08-03T16:55:00Z,37.8,8.5,5.59,29.41
OPFA,31.365,72.995,130,6,6.904679999999999,OPFA 031655Z 13006KT 4000 FU FEW100 32/28 Q1000 NOSIG,2024-08-03T16:55:00Z,32,28,2.49,29.53
OKAS,29.347,47.521,330,14,16.11092,OKAS 031655Z AUTO 33014KT 9999 CLR 40/04 A2949 RMK AO2 SLP979 T04010040 $,2024-08-03T16:55:00Z,40.1,4,6+,29.49
OEPS,24.063,47.581,0,0,0.0,OEPS 031655Z 00000KT 9999 CLR 38/02 A2968 RMK AO2A SLP026 WND DATA ESTMD T03840021,2024-08-03T16:55:00Z,38.4,2.1,6+,29.68
LIVT,45.677,13.754,VRB,3,3.4523399999999995,LIVT 031655Z AUTO VRB03KT //// 32/15 Q1008,2024-08-03T16:55:00Z,32,15,,29.76
LIVP,46.143,11.038,210,6,6.904679999999999,LIVP 031655Z 21006KT 9999 FEW015 SCT040 16/10 Q1020,2024-08-03T16:55:00Z,16,10,6+,30.12
LIVM,44.441,12.296,,,,LIVM 031655Z AUTO /////KT //// ///// Q////,2024-08-03T16:55:00Z,,,,
LIVF,43.517,12.728,0,0,0.0,LIVF 031655Z 00000KT 9999 FEW031 SCT040 24/19 Q1012,2024-08-03T16:55:00Z,24,19,6+,29.88
LIVE,46.833,10.5,50,3,3.4523399999999995,LIVE 031655Z 05003KT 9999 SCT025 20/11 Q1017 RMK SCT SCT070 VIS MIN 9999,2024-08-03T16:55:00Z,20,11,6+,30.03
LIVD,46.729,12.228,100,11,12.658579999999999,LIVD 031655Z AUTO 10011KT //// 22/12 Q1017,2024-08-03T16:55:00Z,22,12,,30.03
LIVC,44.194,10.7,280,3,3.4523399999999995,LIVC 031655Z AUTO 28003KT //// 16/13 Q1022,2024-08-03T16:55:00Z,16,13,,30.18
LIRY,-99.99,-99.99,260,3,3.4523399999999995,LIRY 031655Z AUTO 26003KT //// 27/18 Q1009,2024-08-03T16:55:00Z,27,18,,29.79
LIRX,42.731,10.396,80,6,6.904679999999999,LIRX 031655Z AUTO 08006KT 040V110 //// 27/21 Q1009,2024-08-03T16:55:00Z,27,21,,29.79
LIRV,42.43,12.064,120,6,6.904679999999999,LIRV 031655Z 12006KT 9999 FEW026 27/17 Q1009 RMK BKN BKN080 MON E SE LIB NC VIS MIN 9999 BLU,2024-08-03T16:55:00Z,27,17,6+,29.79
LIRT,41.047,15.233,VRB,3,3.4523399999999995,LIRT 031655Z AUTO VRB03KT //// 25/15 Q1015,2024-08-03T16:55:00Z,25,15,,29.97
LIRS,42.76,11.072,350,8,9.20624,LIRS 031655Z 35008KT 9999 FEW025TCU 33/18 Q1006 RMK BKN SCT200 VIS MIN 9999 WIND THR03 02007KT WIND THR21 35008KT BLU,2024-08-03T16:55:00Z,33,18,6+,29.70
LIRM,41.061,14.082,230,5,5.7539,LIRM 031655Z 23005KT 9999 FEW020 SCT080 30/25 Q1007 RMK BKN VIS MIN 9999 WIND THR06 28005KT BLU,2024-08-03T16:55:00Z,30,25,6+,29.73
LIRK,42.466,12.979,310,16,18.41248,LIRK 031655Z AUTO 31016KT //// 19/09 Q1020,2024-08-03T16:55:00Z,19,9,,30.12
LIRE,41.656,12.449,180,10,11.5078,LIRE 031655Z 18010KT 9999 SCT040 SCT070 30/// Q1007,2024-08-03T16:55:00Z,,,6+,29.73
LIQO,42.387,11.17,330,2,2.30156,LIQO 031655Z AUTO 33002KT //// 29/22 Q1011,2024-08-03T16:55:00Z,29,22,,29.85
LIPS,45.689,12.101,80,5,5.7539,LIPS 031655Z 08005KT CAVOK 30/20 Q1009 RMK SCT SCT140 VIS MIN 9999 WIND THR26 08005KT WIND THR08 07004KT BLU,2024-08-03T16:55:00Z,30,20,6+,29.79
LIPL,45.432,10.268,110,9,10.357019999999999,LIPL 031655Z 11009KT 9999 FEW030 29/25 Q1008 RMK SCT SCT100 VIS MIN 9999 WIND THR31 10010KT WIND THR13 11010KT BLU,2024-08-03T16:55:00Z,29,25,6+,29.76
LIPI,45.979,13.049,200,6,6.904679999999999,LIPI 031655Z 20006KT 9999 FEW060 30/18 Q1009 RMK FEW VIS MIN 9999 WIND THR06 23003KT WIND THR24 24005KT BLU,2024-08-03T16:55:00Z,30,18,6+,29.79
LIPC,44.224,12.307,340,5,5.7539,LIPC 031655Z 34005KT CAVOK 27/20 Q1009 RMK SCT SCT200 VIS MIN 9999 WIND THR11 35004KT WIND THR29 35005KT BLU,2024-08-03T16:55:00Z,27,20,6+,29.79
LIPA,46.03,12.599,290,4,4.60312,LIPA 031655Z 29004KT 9999 FEW090 30/17 Q1009 RMK FEW VIS MIN 9999 WIND THR05 /////KT WIND THR23 /////KT A2982 BLU,2024-08-03T16:55:00Z,30,17,6+,29.79
LIMY,44.258,7.794,50,6,6.904679999999999,LIMY 031655Z AUTO 05006KT //// 30/18 Q1010,2024-08-03T16:55:00Z,30,18,,29.82
LIMV,44.552,8.938,,,,LIMV 031655Z /////KT 9999 FEW008 28/23 Q1010,2024-08-03T16:55:00Z,28,23,6+,29.82
LIMU,43.958,8.17,230,10,11.5078,LIMU 031655Z 23010KT CAVOK 29/23 Q1009 RMK FEW FEW060 QUK 2 QUL 1 S VIS MAR 30 KM VIS MIN 9999,2024-08-03T16:55:00Z,29,23,6+,29.79
LIMS,44.913,9.723,100,10,11.5078,LIMS 031655Z 10010KT 9999 FEW040 31/25 Q1007 RMK FEW VIS MIN 9999 WIND THR30 10010KT BLU,2024-08-03T16:55:00Z,31,25,6+,29.73
LIMK,45.033,7.731,80,4,4.60312,LIMK 031655Z AUTO 08004KT 040V130 //// 28/16 Q1011,2024-08-03T16:55:00Z,28,16,,29.85
LIMH,45.935,7.707,VRB,3,3.4523399999999995,LIMH 031655Z AUTO VRB03KT //// 07/01 Q1029,2024-08-03T16:55:00Z,7,1,,30.38
LIED,39.354,8.973,320,17,19.56326,LIED 031655Z 32017KT 9999 FEW020CB 30/22 Q1007 RMK FEW VIS MIN 9999 WIND THR34 /////KT WIND THR16 32016KT BLU,2024-08-03T16:55:00Z,30,22,6+,29.73
LIEB,39.931,9.713,50,22,25.317159999999998,LIEB 031655Z 05022G32KT 9999 FEW030 FEW040CB 29/25 Q1007 RMK BKN SCT100 BKN200 QUK 3 QUL 1 S VIS MAR 30 KM MON LIB VIS MIN 9999,2024-08-03T16:55:00Z,29,25,6+,29.73
LICZ,37.406,14.919,20,6,6.904679999999999,LICZ 031655Z 02006KT 9999 TS FEW015CB SCT030 BKN100 35/07 Q1005 RMK BKN VIS MIN 9999 WIND THR28 02007KT WIND THR10 36007KT A2970 BLU,2024-08-03T16:55:00Z,35,7,6+,29.68
LICT,37.911,12.488,280,12,13.809359999999998,LICT 031655Z 28012KT CAVOK 28/26 Q1007 RMK BKN SCT060 SCT120 VIS MIN 9999 WIND THR13 30008KT BLU,2024-08-03T16:55:00Z,28,26,6+,29.73
LICF,38.2,15.549,60,8,9.20624,LICF 031655Z 06008KT CAVOK 34/15 Q1006 RMK BKN FEW090 BKN200 QUK 2 QUL 0 VIS MAR 20 KM MON LIB NC VIS MIN 9999,2024-08-03T16:55:00Z,34,15,6+,29.70
LIBY,39.811,18.342,270,5,5.7539,LIBY 031655Z AUTO 27005KT 240V310 //// 30/22 Q1006,2024-08-03T16:55:00Z,30,22,,29.70
LIBV,40.766,16.935,360,9,10.357019999999999,LIBV 031655Z 36009KT 9999 -TSRA FEW030CB SCT040 30/16 Q1009 RMK BKN BKN070 VIS MIN 9999 WIND THR32 01009KT WIND THR14 02010KT BLU,2024-08-03T16:55:00Z,30,16,6+,29.79
LIBQ,39.331,16.396,VRB,2,2.30156,LIBQ 031655Z AUTO VRB02KT //// 23/08 Q1019,2024-08-03T16:55:00Z,23,8,,30.09
LIBN,40.238,18.138,360,6,6.904679999999999,LIBN 031655Z 36006KT CAVOK 33/23 Q1006 RMK SCT SCT100 VIS MIN 9999 WIND THR14 35006KT WIND THR32 02006KT BLU,2024-08-03T16:55:00Z,33,23,6+,29.70
LIBA,41.538,15.714,290,11,12.658579999999999,LIBA 031655Z 29011KT 9999 TS FEW035CB SCT060 25/20 Q1009 RMK OVC BKN110 VIS MIN 9999NW WIND THR11 29011KT WIND THR29 /////KT BLU,2024-08-03T16:55:00Z,25,20,6+,29.79
KXNO,33.612,-81.07,170,8,9.20624,KXNO 031655Z AUTO 17008KT 10SM SCT031 BKN190 33/25 A2995 RMK AO2 SLP141 T03320246 $,2024-08-03T16:55:00Z,33.2,24.6,10+,29.95
KXMR,28.4674,-80.5589,130,11,12.658579999999999,KXMR 031655Z AUTO 13011KT 10SM FEW110 SCT160 BKN190 31/24 A2997 RMK AO2 LTG DSNT E-S AND NW SLP152 T03110244 PWINO $,2024-08-03T16:55:00Z,31.1,24.4,10+,29.97
KXIF,-99.99,-99.99,0,0,0.0,KXIF 031655Z AUTO 00000KT 10SM FEW030 SCT042 31/24 A2983 RMK AO2 LTG DSNT NW SLP097 T03050241 $,2024-08-03T16:55:00Z,30.5,24.1,10+,29.83
KWRI,40.016,-74.591,200,8,9.20624,KWRI 031655Z AUTO 20008KT 10SM SCT029 32/24 A2983 RMK AO2 SLP100 T03170237 $,2024-08-03T16:55:00Z,31.7,23.7,10+,29.83
KWRB,32.639,-83.593,200,10,11.5078,KWRB 031655Z AUTO 20010KT 10SM SCT029 SCT035 32/25 A2995 RMK AO2 SLP141 T03220245,2024-08-03T16:55:00Z,32.2,24.5,10+,29.95
KWHP,34.2596,-118.415,130,3,3.4523399999999995,KWHP 031655Z 13003KT 10SM CLR 30/12 A3000,2024-08-03T16:55:00Z,30,12,10+,30.00
KVPS,30.483,-86.526,160,8,9.20624,KVPS 031655Z AUTO 16008KT 10SM FEW160 FEW190 32/23 A2997 RMK AO2 SLP155 T03220228 $,2024-08-03T16:55:00Z,32.2,22.8,10+,29.97
KVOK,43.938,-90.253,320,3,3.4523399999999995,KVOK 031655Z 32003KT 10SM FEW045 FEW250 28/15 A2999 RMK AO2A SLP153 T02810154,2024-08-03T16:55:00Z,28.1,15.4,10+,29.99
KVGN,34.8494,-120.6,270,4,4.60312,KVGN 031655Z AUTO 27004KT 10SM FEW360 15/14 A2999 RMK AO2 SLP158 T01510138,2024-08-03T16:55:00Z,15.1,13.8,10+,29.99
KTTS,28.5987,-80.6815,120,7,8.05546,KTTS 031655Z AUTO 12007KT 10SM FEW033 FEW140 SCT210 32/24 A2997 RMK AO2 LTG DSNT W-NW SLP153 T03190242 CHINO RWY33 $,2024-08-03T16:55:00Z,31.9,24.2,10+,29.97
KTIK,35.415,-97.386,0,0,0.0,KTIK 031655Z AUTO 00000KT 10SM CLR 32/15 A3006 RMK AO2 SLP165 T03230149,2024-08-03T16:55:00Z,32.3,14.9,10+,30.06
KTCM,47.149,-122.475,230,3,3.4523399999999995,KTCM 031655Z AUTO 23003KT 10SM CLR 20/12 A3009 RMK AO2 SLP192 T01970120 $,2024-08-03T16:55:00Z,19.7,12,10+,30.09
KTBN,37.7445,-92.1447,0,0,0.0,KTBN 031655Z AUTO 00000KT 10SM FEW035 30/21 A3005 RMK AO2 SLP167 T02950209 $,2024-08-03T16:55:00Z,29.5,20.9,10+,30.05
KT70,29.117,-100.473,140,6,6.904679999999999,KT70 031655Z AUTO 14006KT 10SM CLR 35/21 A3002 RMK AO2 SLP149 T03490211 $,2024-08-03T16:55:00Z,34.9,21.1,10+,30.02
KSZL,38.736,-93.55,340,4,4.60312,KSZL 031655Z 34004KT 10SM FEW200 31/20 A3005 RMK AO2A SLP170 T03090202 $,2024-08-03T16:55:00Z,30.9,20.2,10+,30.05
KSXS,31.364,-85.846,210,6,6.904679999999999,KSXS 031655Z AUTO 21006KT 9SM BKN030 BKN036 32/25 A2994 RMK AO2 SLP136 T03240249 $,2024-08-03T16:55:00Z,32.4,24.9,9,29.94
KSVN,32.011,-81.131,170,9,10.357019999999999,KSVN 031655Z AUTO 17009KT 10SM FEW040 33/24 A2996 RMK AO2 SLP148 T03270236 $,2024-08-03T16:55:00Z,32.7,23.6,10+,29.96
KSUU,38.25,-121.938,240,8,9.20624,KSUU 031655Z AUTO 24008KT 10SM CLR 28/11 A2993 RMK AO2 SLP141 T02810112 $,2024-08-03T16:55:00Z,28.1,11.2,10+,29.93
KSUN,43.4969,-114.292,300,6,6.904679999999999,KSUN 031655Z 30006KT 10SM CLR 27/09 A3023,2024-08-03T16:55:00Z,27,9,10+,30.23
KSSC,33.978,-80.466,210,8,9.20624,KSSC 031655Z 21008KT 10SM FEW035 SCT180 33/24 A2994 RMK AO2A SLP137 T03270241 $,2024-08-03T16:55:00Z,32.7,24.1,10+,29.94
KSLI,33.796,-118.042,180,4,4.60312,KSLI 031655Z 18004KT 6SM HZ CLR 27/17 A2993 RMK AO2A SLP138 T02680170,2024-08-03T16:55:00Z,26.8,17,6,29.93
KSKF,29.392,-98.581,210,3,3.4523399999999995,KSKF 031655Z AUTO 21003KT 10SM SCT043 35/22 A3000 RMK AO2 SLP150 T03450215 $,2024-08-03T16:55:00Z,34.5,21.5,10+,30.00
KSKA,47.612,-117.679,200,4,4.60312,KSKA 031655Z 20004KT 10SM CLR 25/14 A3002 RMK AO2A SLP137 T02460141 $,2024-08-03T16:55:00Z,24.6,14.1,10+,30.02
KSHM,38.8,-104.52,80,3,3.4523399999999995,KSHM 031655Z AUTO 08003KT 10SM CLR 28/11 A3030 RMK AO2 SLP168 T02830109 $,2024-08-03T16:55:00Z,28.3,10.9,10+,30.30
KSEQ,29.566,-97.908,0,0,0.0,KSEQ 031655Z AUTO 00000KT 10SM CLR 33/23 A2999 RMK AO2 SLP150 T03310231,2024-08-03T16:55:00Z,33.1,23.1,10+,29.99
KSCK,37.89,-121.226,60,5,5.7539,KSCK 031655Z 06005KT 10SM CLR 32/12 A2994 RMK AO2 SLP136 T03170122,2024-08-03T16:55:00Z,31.7,12.2,10+,29.94
KSBD,34.09,-117.247,0,0,0.0,KSBD 031655Z 00000KT 7SM CLR 32/08 A2999,2024-08-03T16:55:00Z,32,8,7,29.99
KRYN,32.1418,-111.177,,,,KRYN 031655Z CALMKT 10SM CLR 35/13 A3002,2024-08-03T16:55:00Z,35,13,10+,30.02
KRNO,39.5077,-119.768,VRB,3,3.4523399999999995,KRNO 031655Z VRB03KT 10SM SCT110 BKN150 BKN190 27/11 A3019 RMK AO2 RAB12E21 SLP161 P0000 T02720106,2024-08-03T16:55:00Z,27.2,10.6,10+,30.19
KRND,29.537,-98.268,90,3,3.4523399999999995,KRND 031655Z AUTO 09003KT 10SM CLR 34/21 A3000 RMK AO2 SLP149 T03410211,2024-08-03T16:55:00Z,34.1,21.1,10+,30.00
KRIV,33.878,-117.244,0,0,0.0,KRIV 031655Z AUTO 00000KT 10SM CLR 32/10 A3000 RMK AO2 SLP141 T03190100,2024-08-03T16:55:00Z,31.9,10,10+,30.00
KRDR,47.9477,-97.4029,330,9,10.357019999999999,KRDR 031655Z AUTO 33009KT 10SM CLR 26/20 A2988 RMK AO2 LTG DSNT NE AND SW SLP120 T02570198 $,2024-08-03T16:55:00Z,25.7,19.8,10+,29.88
KRCA,44.155,-103.118,10,18,20.714039999999997,KRCA 031655Z AUTO 01018KT 10SM FEW200 36/05 A3006 RMK AO2 SLP144 T03620054,2024-08-03T16:55:00Z,36.2,5.4,10+,30.06
KQTZ,-99.99,-99.99,250,6,6.904679999999999,KQTZ 031655Z 25006KT 9999 SKC 37/07 A2944 RMK SLP971,2024-08-03T16:55:00Z,37,7,6+,29.44
KQRH,-99.99,-99.99,260,3,3.4523399999999995,KQRH 031655Z AUTO 26003KT 9999 BKN180 36/19 A2964 RMK AO2 SLP039 WND DATA ESTMD T03620190,2024-08-03T16:55:00Z,36.2,19,6+,29.64
KQHY,-99.99,-99.99,180,6,6.904679999999999,KQHY 031655Z AUTO 18006KT 10SM SCT034 32/24 A2997 RMK AO2 SLP156 T03170237,2024-08-03T16:55:00Z,31.7,23.7,10+,29.97
KQDG,-99.99,-99.99,0,0,0.0,KQDG 031655Z AUTO 00000KT 9999 FEW100 24/24 A2974 RMK AO2 SLP073 T02400236 PWINO $,2024-08-03T16:55:00Z,24,23.6,6+,29.74
KQD3,-99.99,-99.99,250,4,4.60312,KQD3 031655Z 25004KT 9999 BKN170 36/19 A2973 RMK AO2A SLP052 WND DATA ESTMD T03560187,2024-08-03T16:55:00Z,35.6,18.7,6+,29.73
KQBL,-99.99,-99.99,VRB,6,6.904679999999999,KQBL 031655Z AUTO VRB06KT 10SM FEW031 SCT039 32/23 A2999 RMK AO2 SLP161 WND DATA ESTMD T03170233,2024-08-03T16:55:00Z,31.7,23.3,10+,29.99
KPSM,43.0677,-70.8127,350,4,4.60312,KPSM 031655Z 35004KT 7SM SCT014 BKN022 BKN220 28/23 A2977 RMK AO2A RAB33E55 SLP083 P0000 T02770228,2024-08-03T16:55:00Z,27.7,22.8,7,29.77
KPOE,31.047,-93.194,310,7,8.05546,KPOE 031655Z AUTO 31007KT 10SM FEW065 34/25 A2998 RMK AO2 LTG DSNT NE SLP150 T03370253,2024-08-03T16:55:00Z,33.7,25.3,10+,29.98
KPHP,44.051,-101.601,310,8,9.20624,KPHP 031655Z AUTO 31008KT 10SM CLR 38/12 A2998 RMK AO2 SLP121 T03780117,2024-08-03T16:55:00Z,37.8,11.7,10+,29.98
KPAM,30.071,-85.577,190,6,6.904679999999999,KPAM 031655Z 19006KT 10SM FEW020 SCT190 32/24 A2997 RMK A02A SLP152 T03190239,2024-08-03T16:55:00Z,31.9,23.9,10+,29.97
KP58,44.0217,-82.7929,VRB,4,4.60312,KP58 031655Z AUTO VRB04KT 27/19 A2989 RMK AO1 SLP113 T02670189,2024-08-03T16:55:00Z,26.7,18.9,,29.89
KOZR,31.2767,-85.7105,190,7,8.05546,KOZR 031655Z AUTO 19007KT 10SM FEW180 FEW200 32/23 A2995 RMK AO2 SLP140 T03220234 $,2024-08-03T16:55:00Z,32.2,23.4,10+,29.95
KOWX,41.0341,-83.9862,360,7,8.05546,KOWX 031655Z AUTO 36007KT 10SM SCT027 30/19 A2994 RMK AO1,2024-08-03T16:55:00Z,30,19,10+,29.94
KOFF,41.122,-95.91,210,6,6.904679999999999,KOFF 031655Z AUTO 21006KT 10SM CLR 32/21 A3005 RMK AO2 SLP169 T03190208,2024-08-03T16:55:00Z,31.9,20.8,10+,30.05
KNTD,34.124,-119.123,260,9,10.357019999999999,KNTD 031655Z 26009KT 7SM FEW000 19/16 A2998 RMK AO2 SLP152 VIS S-W 1 1/2 FG FEW000 SHALLOW FG BANK S-W T01940156 $,2024-08-03T16:55:00Z,19.4,15.6,7,29.98
KNKX,32.865,-117.137,320,5,5.7539,KNKX 031655Z 32005KT 10SM CLR 27/17 A2996 RMK AO2 SLPNO T02670172,2024-08-03T16:55:00Z,26.7,17.2,10+,29.96
KNFG,33.304,-117.355,210,5,5.7539,KNFG 031655Z AUTO 21005KT 10SM CLR 28/18 A2994 RMK AO2 SLP138 T02830178 $,2024-08-03T16:55:00Z,28.3,17.8,10+,29.94
KMXF,32.3877,-86.3724,320,3,3.4523399999999995,KMXF 031655Z AUTO 32003KT 10SM FEW028 33/24 A2993 RMK AO2 SLP135 T03280240,2024-08-03T16:55:00Z,32.8,24,10+,29.93
KMUO,43.03,-115.859,70,8,9.20624,KMUO 031655Z AUTO 07008KT 10SM FEW200 31/05 A2997 RMK AO2 SLP105 T03090053 $,2024-08-03T16:55:00Z,30.9,5.3,10+,29.97
KMTN,39.3214,-76.4065,110,6,6.904679999999999,KMTN 031655Z 11006KT 10SM SCT110 30/25 A2986,2024-08-03T16:55:00Z,30,25,10+,29.86
KMMT,33.922,-80.802,180,5,5.7539,KMMT 031655Z 18005KT 10SM FEW030 SCT200 32/24 A2994 RMK AO2A CB DSNT W SLP139 T03200243 $,2024-08-03T16:55:00Z,32,24.3,10+,29.94
KMKG,43.1711,-86.2368,50,6,6.904679999999999,KMKG 031655Z 05006KT 10SM SCT070 31/17 A2996 RMK AO2 SLP139 T03110167,2024-08-03T16:55:00Z,31.1,16.7,10+,29.96
KMIB,48.4062,-101.341,40,19,21.864819999999998,KMIB 031655Z 04019KT 10SM SCT025 24/16 A3003 RMK AO2A SLP165 T02380158,2024-08-03T16:55:00Z,23.8,15.8,10+,30.03
KMGE,33.9189,-84.5266,320,3,3.4523399999999995,KMGE 031655Z 32003KT 10SM BKN050 BKN200 29/22 A2997 RMK AO2A SLP137 T02940216 $,2024-08-03T16:55:00Z,29.4,21.6,10+,29.97
KLUF,33.538,-112.38,0,0,0.0,KLUF 031655Z AUTO 00000KT 10SM CLR 39/13 A2991 RMK AO2 SLP109 T03870131 $,2024-08-03T16:55:00Z,38.7,13.1,10+,29.91
KLTS,34.666,-99.27,0,0,0.0,KLTS 031655Z AUTO 00000KT 10SM CLR 34/14 A3007 RMK AO2 SLP161 T03360141 $,2024-08-03T16:55:00Z,33.6,14.1,10+,30.07
KLSV,36.236,-115.034,0,0,0.0,KLSV 031655Z AUTO 00000KT 10SM CLR 37/10 A2995 RMK AO2 SLP109 T03700103 $,2024-08-03T16:55:00Z,37,10.3,10+,29.95
KLRF,34.92,-92.131,0,0,0.0,KLRF 031655Z AUTO 00000KT 10SM BKN037 30/20 A3000 RMK AO2 SLP158 T03020204 $,2024-08-03T16:55:00Z,30.2,20.4,10+,30.00
KLOR,31.36,-85.749,160,5,5.7539,KLOR 031655Z AUTO 16005KT 10SM FEW034 FEW340 33/26 A2995 RMK AO2 SLP123 T03320257 $,2024-08-03T16:55:00Z,33.2,25.7,10+,29.95
KLLJ,44.523,-114.216,40,3,3.4523399999999995,KLLJ 031655Z AUTO 04003KT 10SM CLR 26/06 A3020 RMK AO2 SLP151 T02560061,2024-08-03T16:55:00Z,25.6,6.1,10+,30.20
KLHW,31.8872,-81.5625,170,7,8.05546,KLHW 031655Z AUTO 17007KT 10SM FEW036 SCT170 SCT200 32/24 A2996 RMK AO2 SLP148 T03210244 $,2024-08-03T16:55:00Z,32.1,24.4,10+,29.96
KLGF,32.868,-114.393,300,5,5.7539,KLGF 031655Z AUTO 30005KT 10SM CLR 41/15 A2985 RMK AO2 SLP103 T04070148 $,2024-08-03T16:55:00Z,40.7,14.8,10+,29.85
KLFI,37.088,-76.349,230,16,18.41248,KLFI 031655Z 23016G20KT 10SM FEW200 33/24 A2990 RMK AO2A SLP131 T03270244 $,2024-08-03T16:55:00Z,32.7,24.4,10+,29.90
KLCK,39.83,-82.919,0,0,0.0,KLCK 031655Z AUTO 00000KT 10SM OVC025 26/20 A2993 RMK AO2 T02570198,2024-08-03T16:55:00Z,25.7,19.8,10+,29.93
KLAL,27.9866,-82.0193,150,21,24.166379999999997,KLAL 031655Z 15021G28KT 10SM VCTS BKN030 BKN070 27/24 A3000,2024-08-03T16:55:00Z,27,24,10+,30.00
KIRK,40.0966,-92.5469,0,0,0.0,KIRK 031655Z AUTO 00000KT 10SM CLR 31/21 A3005 RMK AO2 SLP171 T03060206,2024-08-03T16:55:00Z,30.6,20.6,10+,30.05
KINS,36.586,-115.69,10,3,3.4523399999999995,KINS 031655Z AUTO 01003KT 10SM CLR 35/10 A3007 RMK AO2 SLP119 T03470098 $,2024-08-03T16:55:00Z,34.7,9.8,10+,30.07
KIAB,37.622,-97.268,170,5,5.7539,KIAB 031655Z AUTO 17005KT 10SM CLR 31/17 A3009 RMK AO2 SLP173 T03130172 $,2024-08-03T16:55:00Z,31.3,17.2,10+,30.09
KHST,25.49,-80.379,100,10,11.5078,KHST 031655Z AUTO 10010KT 10SM CLR 28/25 A2991 RMK AO2 RAB1557E07 SLP132 P0001 T02790251,2024-08-03T16:55:00Z,27.9,25.1,10+,29.91
KHRT,30.428,-86.69,170,7,8.05546,KHRT 031655Z AUTO 17007KT 10SM FEW031 32/24 A2995 RMK AO2 SLP140 T03200238 $,2024-08-03T16:55:00Z,32,23.8,10+,29.95
KHOP,36.672,-87.495,290,6,6.904679999999999,KHOP 031655Z AUTO 29006KT 10SM SCT030 BKN200 28/21 A2997 RMK AO2 SLP144 T02840214 PWINO $,2024-08-03T16:55:00Z,28.4,21.4,10+,29.97
KHON,44.3792,-98.2227,210,11,12.658579999999999,KHON 031655Z AUTO 21011G17KT 10SM CLR 33/18 A2994 RMK AO2 SLP127 T03280183,2024-08-03T16:55:00Z,32.8,18.3,10+,29.94
KHMN,32.852,-106.108,0,0,0.0,KHMN 031655Z AUTO 00000KT 10SM BKN130 30/10 A3026 RMK AO2 SLP166 T03020102 $,2024-08-03T16:55:00Z,30.2,10.2,10+,30.26
KHLR,31.1361,-97.7149,40,3,3.4523399999999995,KHLR 031655Z AUTO 04003KT 10SM FEW280 FEW310 31/23 A3003 RMK AO2 SLP157 T03130228,2024-08-03T16:55:00Z,31.3,22.8,10+,30.03
KHIF,41.111,-111.962,110,11,12.658579999999999,KHIF 031655Z 11011KT 10SM SCT150 29/03 A3016 RMK AO2A SLP129 T02860034,2024-08-03T16:55:00Z,28.6,3.4,10+,30.16
KHFF,35.0424,-79.4973,240,10,11.5078,KHFF 031655Z AUTO 24010G20KT 10SM FEW031 33/24 A2992 RMK AO2 LTG DSNT SE SLP130 T03290238 $,2024-08-03T16:55:00Z,32.9,23.8,10+,29.92
KHEY,31.348,-85.655,240,3,3.4523399999999995,KHEY 031655Z AUTO 24003KT 10SM CLR 32/25 A2993 RMK AO2 SLP134 T03240249,2024-08-03T16:55:00Z,32.4,24.9,10+,29.93
KGXF,32.885,-112.721,0,0,0.0,KGXF 031655Z 00000KT 10SM FEW180 FEW250 39/17 A2992 RMK AO2A SLP115 CONTRAILS T03920167 FZRANO $,2024-08-03T16:55:00Z,39.2,16.7,10+,29.92
KGUS,40.6375,-86.1631,40,3,3.4523399999999995,KGUS 031655Z AUTO 04003KT 10SM FEW190 29/22 A2994 RMK AO2 SLP134 T02880215,2024-08-03T16:55:00Z,28.8,21.5,10+,29.94
KGUR,42.261,-104.732,310,8,9.20624,KGUR 031655Z AUTO 31008KT 10SM CLR 34/08 A3017 RMK AO2 SLP177 T03430081,2024-08-03T16:55:00Z,34.3,8.1,10+,30.17
KGTB,44.0617,-75.7218,230,8,9.20624,KGTB 031655Z AUTO 23008KT 10SM FEW190 SCT210 28/22 A2982 RMK AO2 SLP092 T02800215,2024-08-03T16:55:00Z,28,21.5,10+,29.82
KGRK,31.0779,-97.8323,350,6,6.904679999999999,KGRK 031655Z AUTO 35006KT 10SM CLR 33/22 A3004 RMK AO2 SLP157 T03320220,2024-08-03T16:55:00Z,33.2,22,10+,30.04
KGRF,47.079,-122.58,250,3,3.4523399999999995,KGRF 031655Z AUTO 25003KT 10SM CLR 20/12 A3007 RMK AO2 SLP185 T01980115 $,2024-08-03T16:55:00Z,19.8,11.5,10+,30.07
KGPI,48.3041,-114.264,340,7,8.05546,KGPI 031655Z 34007KT 10SM CLR 28/11 A3005 RMK AO2 SLP150 T02830106,2024-08-03T16:55:00Z,28.3,10.6,10+,30.05
KGOV,44.681,-84.727,340,9,10.357019999999999,KGOV 031655Z AUTO 34009KT 10SM CLR 29/15 A2995 RMK AO2 SLP142 T02890147 $,2024-08-03T16:55:00Z,28.9,14.7,10+,29.95
KGFA,47.505,-111.187,0,0,0.0,KGFA 031655Z AUTO 00000KT 10SM CLR 28/06 A3006 RMK AO2 SLP144 T02830058,2024-08-03T16:55:00Z,28.3,5.8,10+,30.06
KFTK,37.907,-85.973,250,5,5.7539,KFTK 031655Z AUTO 25005KT 10SM SCT026 SCT035 BKN047 27/22 A2995 RMK AO2 SLP137 T02730218 $,2024-08-03T16:55:00Z,27.3,21.8,10+,29.95
KFSI,34.6457,-98.404,90,3,3.4523399999999995,KFSI 031655Z AUTO 09003KT 10SM CLR 35/13 A3004 RMK AO2 SLP161 T03450133 FZRANO $,2024-08-03T16:55:00Z,34.5,13.3,10+,30.04
KFRI,39.0568,-96.7617,300,4,4.60312,KFRI 031655Z AUTO 30004KT 10SM CLR 31/20 A3008 RMK AO2 SLP174 T03110204 PNO $,2024-08-03T16:55:00Z,31.1,20.4,10+,30.08
KFHU,31.586,-110.348,80,4,4.60312,KFHU 031655Z AUTO 08004KT 10SM CLR 31/14 A3023 RMK AO2 SLP153 T03110138,2024-08-03T16:55:00Z,31.1,13.8,10+,30.23
KFFO,39.837,-84.035,360,9,10.357019999999999,KFFO 031655Z 36009KT 10SM FEW027 FEW037 FEW060 28/21 A2992 RMK AO2A SLP127 T02780208,2024-08-03T16:55:00Z,27.8,20.8,10+,29.92
KFCS,38.6756,-104.751,0,0,0.0,KFCS 031655Z AUTO 00000KT 10SM CLR 28/11 A3027 RMK AO2 SLP173 T02750107 $,2024-08-03T16:55:00Z,27.5,10.7,10+,30.27
KFBG,35.131,-78.932,220,8,9.20624,KFBG 031655Z AUTO 22008KT 10SM SCT033 32/24 A2993 RMK AO2 SLP135 T03230240 $,2024-08-03T16:55:00Z,32.3,24,10+,29.93
KFAF,37.134,-76.61,260,8,9.20624,KFAF 031655Z AUTO 26008KT 10SM FEW033 32/24 A2989 RMK AO2 SLP125 T03150243 $,2024-08-03T16:55:00Z,31.5,24.3,10+,29.89
KEND,36.338,-97.919,190,3,3.4523399999999995,KEND 031655Z AUTO 19003KT 10SM CLR 32/15 A3007 RMK AO2 VIS 1/2 RWY17R SLP168 T03150154 $,2024-08-03T16:55:00Z,31.5,15.4,10+,30.07
KEGI,30.653,-86.525,150,6,6.904679999999999,KEGI 031655Z AUTO 15006KT 10SM SCT037 BKN050 BKN170 34/24 A2996 RMK AO2 SLP144 T03360241 $,2024-08-03T16:55:00Z,33.6,24.1,10+,29.96
KEDW,34.908,-117.874,0,0,0.0,KEDW 031655Z 00000KT 50SM CLR 31/10 A3003 RMK AO2A SLP140 T03140096,2024-08-03T16:55:00Z,31.4,9.6,50,30.03
KEAT,47.3975,-120.201,310,11,12.658579999999999,KEAT 031655Z AUTO 31011KT 10SM CLR 29/13 A2993 RMK AO2 SLP120 T02940133,2024-08-03T16:55:00Z,29.4,13.3,10+,29.93
KDYS,32.406,-99.85,340,10,11.5078,KDYS 031655Z AUTO 34010KT 10SM CLR 35/16 A3006 RMK AO2 SLP147 T03540161,2024-08-03T16:55:00Z,35.4,16.1,10+,30.06
KDOV,39.13,-75.465,220,10,11.5078,KDOV 031655Z AUTO 22010KT 10SM FEW034 FEW100 SCT140 BKN170 BKN190 32/25 A2983 RMK AO2 SLP105 T03190247 $,2024-08-03T16:55:00Z,31.9,24.7,10+,29.83
KDMA,32.165,-110.887,VRB,6,6.904679999999999,KDMA 031655Z VRB06KT 10SM FEW100 FEW200 35/17 A3005 RMK AO2A SLPNO WND DATA ESTMD ALSTG ESTMD $,2024-08-03T16:55:00Z,35,17,10+,30.05
KDLH,46.8435,-92.1866,VRB,3,3.4523399999999995,KDLH 031655Z VRB03KT 10SM CLR 25/13 A3004 RMK AO2 SLP168 T02500128,2024-08-03T16:55:00Z,25,12.8,10+,30.04
KDLF,29.3666,-100.785,170,7,8.05546,KDLF 031655Z AUTO 17007G15KT 10SM CLR 35/20 A3000 RMK AO2 SLP143 T03520203 $,2024-08-03T16:55:00Z,35.2,20.3,10+,30.00
KDAA,38.714,-77.178,170,7,8.05546,KDAA 031655Z AUTO 17007KT 8SM CLR 34/23 A2981 RMK AO2 SLP097 T03350226 $,2024-08-03T16:55:00Z,33.5,22.6,8,29.81
KCWN,38.748,-104.847,10,6,6.904679999999999,KCWN 031655Z AUTO 01006KT 10SM CLR 30/07 A3037 RMK AO2 SLP078 T02950074 $,2024-08-03T16:55:00Z,29.5,7.4,10+,30.37
KCWF,30.2216,-93.1467,330,7,8.05546,KCWF 031655Z 33007KT 10SM SCT040 33/25 A2999,2024-08-03T16:55:00Z,33,25,10+,29.99
KCVS,34.381,-103.322,150,9,10.357019999999999,KCVS 031655Z 15009KT 10SM FEW190 30/18 A3024 RMK AO2A SLP170 T02960177 $,2024-08-03T16:55:00Z,29.6,17.7,10+,30.24
KCOF,28.242,-80.608,130,7,8.05546,KCOF 031655Z AUTO 13007KT 10SM VCTS FEW022 FEW200 30/24 A2997 RMK AO2 SLP153 T03040243 $,2024-08-03T16:55:00Z,30.4,24.3,10+,29.97
KCNW,31.637,-97.071,0,0,0.0,KCNW 031655Z 00000KT 10SM SKC 30/21 A3003,2024-08-03T16:55:00Z,30,21,10+,30.03
KCNK,39.5513,-97.6508,210,11,12.658579999999999,KCNK 031655Z AUTO 21011KT 10SM FEW100 SCT120 32/17 A3010 RMK AO2 SLP175 T03220167,2024-08-03T16:55:00Z,32.2,16.7,10+,30.10
KCMY,43.9581,-90.7398,0,0,0.0,KCMY 031655Z AUTO 00000KT 10SM CLR 28/18 A3000 RMK AO2 SLP157 T02770178 $,2024-08-03T16:55:00Z,27.7,17.8,10+,30.00
KCMA,34.2114,-119.088,VRB,5,5.7539,KCMA 031655Z VRB05KT 10SM CLR 26/17 A2996 RMK AO2 SLP153 T02560167 $,2024-08-03T16:55:00Z,25.6,16.7,10+,29.96
KCEF,42.201,-72.525,300,7,8.05546,KCEF 031655Z 30007KT 10SM SCT032 BKN050 BKN200 BKN250 31/22 A2977 RMK AO2A SLP083 T03060219,2024-08-03T16:55:00Z,30.6,21.9,10+,29.77
KCBM,33.6519,-88.4567,360,6,6.904679999999999,KCBM 031655Z AUTO 36006KT 10SM FEW045 32/21 A2994 RMK AO2 SLP139 T03200212 $,2024-08-03T16:55:00Z,32,21.2,10+,29.94
KCAO,36.4483,-103.154,200,15,17.261699999999998,KCAO 031655Z AUTO 20015G22KT 10SM CLR 28/13 A3028 RMK AO2 SLP169 T02830133 $,2024-08-03T16:55:00Z,28.3,13.3,10+,30.28
KBYS,35.271,-116.634,0,0,0.0,KBYS 031655Z AUTO 00000KT 10SM CLR 35/13 A3001 RMK AO2 SLP129 T03450127 $,2024-08-03T16:55:00Z,34.5,12.7,10+,30.01
KBLV,38.54,-89.845,360,7,8.05546,KBLV 031655Z AUTO 36007KT 10SM FEW036 FEW220 31/23 A2999 RMK AO2 SLP154 T03090225 $,2024-08-03T16:55:00Z,30.9,22.5,10+,29.99
KBKT,37.082,-77.953,210,10,11.5078,KBKT 031655Z AUTO 21010KT 10SM FEW270 FEW320 FEW350 30/24 A2992 RMK AO2 SLP131 T03000236 $,2024-08-03T16:55:00Z,30,23.6,10+,29.92
KBIX,30.415,-88.922,310,3,3.4523399999999995,KBIX 031655Z AUTO 31003KT 10SM SCT036 SCT200 34/24 A2993 RMK AO2 SLP138 T03390241,2024-08-03T16:55:00Z,33.9,24.1,10+,29.93
KBIF,31.861,-106.369,0,0,0.0,KBIF 031655Z COR 00000KT 10SM FEW100 SCT250 33/09 A3019 RMK AO2 SLP144 T03290090 $ COR 1722,2024-08-03T16:55:00Z,32.9,9,10+,30.19
KBAK,39.2664,-85.8926,0,0,0.0,KBAK 031655Z 00000KT 10SM SCT022 SCT027 28/22 A2996,2024-08-03T16:55:00Z,28,22,10+,29.96
KBAD,32.488,-93.658,120,7,8.05546,KBAD 031655Z AUTO 12007KT 10SM FEW037 FEW190 33/24 A2998 RMK AO2 SLP154 T03300239,2024-08-03T16:55:00Z,33,23.9,10+,29.98
KBAB,39.145,-121.436,280,3,3.4523399999999995,KBAB 031655Z AUTO 28003KT 10SM FEW170 FEW220 29/11 A2993 RMK AO2 SLP137 T02930113 $,2024-08-03T16:55:00Z,29.3,11.3,10+,29.93
KAST,46.157,-123.883,300,4,4.60312,KAST 031655Z AUTO 30004KT 10SM OVC017 18/13 A3011 RMK AO2 SLP196 T01780128,2024-08-03T16:55:00Z,17.8,12.8,10+,30.11
KANJ,46.48,-84.3581,310,10,11.5078,KANJ 031655Z AUTO 31010G19KT 7SM CLR 28/13 A2993 RMK AO2 SLP129 T02780128,2024-08-03T16:55:00Z,27.8,12.8,7,29.93
KAIK,33.651,-81.6821,200,8,9.20624,KAIK 031655Z AUTO 20008KT 160V230 10SM VCTS SCT023 SCT030 32/25 A2998 RMK AO2 LTG DSNT SW THRU N T03190253,2024-08-03T16:55:00Z,31.9,25.3,10+,29.98
KAFF,38.971,-104.816,310,11,12.658579999999999,KAFF 031655Z AUTO 31011KT 10SM CLR 31/02 A3034 RMK AO2 SLP160 T03080021,2024-08-03T16:55:00Z,30.8,2.1,10+,30.34
KABH,38.7587,-104.299,20,4,4.60312,KABH 031655Z AUTO 02004KT 10SM CLR 27/12 A3033 RMK AO2 SLP186 T02740118,2024-08-03T16:55:00Z,27.4,11.8,10+,30.33
KAAT,41.4836,-120.561,,,,KAAT 031655Z AUTO 10SM CLR 27/06 A3021 RMK AO2 SLP178 T02670061 TSNO,2024-08-03T16:55:00Z,26.7,6.1,10+,30.21
K9L2,34.996,-117.857,140,3,3.4523399999999995,K9L2 031655Z AUTO 14003KT 10SM CLR 30/12 A3004 RMK AO2 SLP144 T03020117 $,2024-08-03T16:55:00Z,30.2,11.7,10+,30.04
K4MR,34.29,-103.791,120,4,4.60312,K4MR 031655Z AUTO 12004KT 10SM CLR 28/18 A3021 RMK AO2 SLP142 T02760180 $,2024-08-03T16:55:00Z,27.6,18,10+,30.21
K2DP,35.672,-75.892,200,15,17.261699999999998,K2DP 031655Z AUTO 20015KT 10SM FEW022 FEW027 SCT035 SCT055 32/27 A2997 RMK AO2 LTG DSNT W SLP156 T03210266 $,2024-08-03T16:55:00Z,32.1,26.6,10+,29.97
K1OW,40.885,-103.999,120,7,8.05546,K1OW 031655Z AUTO 12007KT 10SM CLR 30/11 A3038 RMK AO2 SLP211 T03030108 PNO $,2024-08-03T16:55:00Z,30.3,10.8,10+,30.38
K1ON,48.82,-101.28,30,15,17.261699999999998,K1ON 031655Z AUTO 03015KT 10SM CLR 23/16 A3007 RMK AO2 SLP182 T02320157 $,2024-08-03T16:55:00Z,23.2,15.7,10+,30.07
K1OM,47.328,-108.927,150,17,19.56326,K1OM 031655Z AUTO 15017KT 10SM CLR 27/12 A3010 RMK AO2 SLP154 T02730117 $,2024-08-03T16:55:00Z,27.3,11.7,10+,30.10
K1NW,40.632,-103.836,110,4,4.60312,K1NW 031655Z AUTO 11004KT 10SM CLR 28/13 A3022 RMK AO2 SLP168 T02830126 $,2024-08-03T16:55:00Z,28.3,12.6,10+,30.22
K1NN,48.76,-101.59,30,13,14.960139999999999,K1NN 031655Z AUTO 03013KT 10SM CLR 23/16 M RMK AO2 SLPNO T02300158 $,2024-08-03T16:55:00Z,23,15.8,10+,
K1NM,47.059,-109.031,100,10,11.5078,K1NM 031655Z AUTO 10010KT 10SM CLR 27/11 A3010 RMK AO2 SLP151 T02740114 $,2024-08-03T16:55:00Z,27.4,11.4,10+,30.10
K1MN,48.67,-101.88,20,14,16.11092,K1MN 031655Z AUTO 02014KT M M CLR 22/16 A3007 RMK AO2 SLP181 T02190162 RVRNO PWINO TSNO $,2024-08-03T16:55:00Z,21.9,16.2,,30.07
K1MM,47.014,-109.63,90,5,5.7539,K1MM 031655Z AUTO 09005KT 10SM CLR 28/09 A3012 RMK AO2 SLP154 T02800093 $,2024-08-03T16:55:00Z,28,9.3,10+,30.12
K1LN,48.79,-102.27,30,12,13.809359999999998,K1LN 031655Z AUTO 03012KT 10SM CLR 23/15 A3010 RMK AO2 SLP188 T02270145 $,2024-08-03T16:55:00Z,22.7,14.5,10+,30.10
K1LM,46.694,-109.74,180,13,14.960139999999999,K1LM 031655Z AUTO 18013KT 10SM CLR 27/07 A3020 RMK AO2 SLP160 T02690068 $,2024-08-03T16:55:00Z,26.9,6.8,10+,30.20
K1KW,41.137,-103.488,0,0,0.0,K1KW 031655Z AUTO 00000KT 10SM CLR 31/12 A3021 RMK AO2 SLP163 T03060120 $,2024-08-03T16:55:00Z,30.6,12,10+,30.21
K1KN,48.55,-102.12,20,12,13.809359999999998,K1KN 031655Z AUTO 02012KT 10SM FEW021 21/16 A3009 RMK AO2 SLP182 T02130156 $,2024-08-03T16:55:00Z,21.3,15.6,10+,30.09
K1KM,46.444,-109.801,100,5,5.7539,K1KM 031655Z AUTO 10005KT 10SM CLR 26/08 A3019 RMK AO2 SLP167 T02590079,2024-08-03T16:55:00Z,25.9,7.9,10+,30.19
K1JW,40.961,-103.199,0,0,0.0,K1JW 031655Z AUTO 00000KT 10SM CLR 28/13 A3020 RMK AO2 SLP167 T02770132 $,2024-08-03T16:55:00Z,27.7,13.2,10+,30.20
K1JN,48.41,-101.89,20,14,16.11092,K1JN 031655Z AUTO 02014G21KT 10SM FEW021 22/16 A3008 RMK AO2 SLP180 T02180161 $,2024-08-03T16:55:00Z,21.8,16.1,10+,30.08
K1JM,47.751,-111.547,150,7,8.05546,K1JM 031655Z AUTO 15007KT 10SM CLR 28/06 A3006 RMK AO2 SLP137 T02800055,2024-08-03T16:55:00Z,28,5.5,10+,30.06
K1IW,41.046,-102.865,0,0,0.0,K1IW 031655Z AUTO 00000KT 10SM CLR 30/13 A3018 RMK AO2 SLP161 T02990128 $,2024-08-03T16:55:00Z,29.9,12.8,10+,30.18
K1IM,47.312,-111.473,0,0,0.0,K1IM 031655Z AUTO 00000KT 10SM CLR 29/07 A3002 RMK AO2 SLP119 T02910070,2024-08-03T16:55:00Z,29.1,7,10+,30.02
K1HM,47.698,-111.943,0,0,0.0,K1HM 031655Z AUTO 00000KT 10SM CLR 26/07 A3006 RMK AO2 SLP136 T02620072,2024-08-03T16:55:00Z,26.2,7.2,10+,30.06
K1GW,41.208,-103.097,100,3,3.4523399999999995,K1GW 031655Z AUTO 10003KT 10SM CLR 31/12 A3019 RMK AO2 SLP162 T03080117 $,2024-08-03T16:55:00Z,30.8,11.7,10+,30.19
K1GN,48.12,-101.96,360,14,16.11092,K1GN 031655Z AUTO 36014G19KT 10SM CLR 23/17 A3006 RMK AO2 SLP175 T02270169 $,2024-08-03T16:55:00Z,22.7,16.9,10+,30.06
K1GM,47.325,-112.093,160,17,19.56326,K1GM 031655Z AUTO 16017KT 10SM CLR 30/04 A3003 RMK AO2 SLP110 T02960042,2024-08-03T16:55:00Z,29.6,4.2,10+,30.03
K1FW,41.364,-103.489,0,0,0.0,K1FW 031655Z AUTO 00000KT 10SM CLR 29/14 A3021 RMK AO2 SLP168 T02860137 $,2024-08-03T16:55:00Z,28.6,13.7,10+,30.21
K1EW,41.103,-103.983,100,4,4.60312,K1EW 031655Z AUTO 10004KT 10SM CLR 30/12 A3024 RMK AO2 SLP169 T02970121 $,2024-08-03T16:55:00Z,29.7,12.1,10+,30.24
K1EM,47.454,-109.416,100,14,16.11092,K1EM 031655Z AUTO 10014G18KT 10SM M M A3010 RMK AO2 SLPNO ALSTG ESTMD $,2024-08-03T16:55:00Z,,,10+,30.10
K1DW,41.361,-103.794,50,6,6.904679999999999,K1DW 031655Z AUTO 05006KT 10SM CLR 32/11 A3027 RMK AO2 SLP179 T03160114 $,2024-08-03T16:55:00Z,31.6,11.4,10+,30.27
K1DM,47.376,-109.814,130,12,13.809359999999998,K1DM 031655Z AUTO 13012KT 10SM CLR 30/08 A3009 RMK AO2 SLP144 T03030081 $,2024-08-03T16:55:00Z,30.3,8.1,10+,30.09
K1CW,41.581,-103.573,40,3,3.4523399999999995,K1CW 031655Z AUTO 04003KT 10SM CLR 30/13 A3021 RMK AO2 SLP168 T02990128 $,2024-08-03T16:55:00Z,29.9,12.8,10+,30.21
K1BM,47.285,-110.359,0,0,0.0,K1BM 031655Z AUTO 00000KT 10SM CLR 26/07 A3012 RMK AO2 SLP155 T02610067,2024-08-03T16:55:00Z,26.1,6.7,10+,30.12
K1AW,41.329,-104.265,20,11,12.658579999999999,K1AW 031655Z AUTO 02011KT 10SM CLR 32/04 A3028 RMK AO2 SLP171 T03240042 $,2024-08-03T16:55:00Z,32.4,4.2,10+,30.28
K1AM,47.281,-110.801,90,13,14.960139999999999,K1AM 031655Z AUTO 09013KT 10SM CLR 28/06 A3009 RMK AO2 SLP138 T02750063,2024-08-03T16:55:00Z,27.5,6.3,10+,30.09
FJDG,-7.313,72.411,150,12,13.809359999999998,FJDG 031655Z 15012KT 9999 FEW020 SCT080 BKN220 27/25 A2992 RMK SLP129 T02670250,2024-08-03T16:55:00Z,26.7,25,6+,29.92
ETOU,50.048,8.329,270,5,5.7539,ETOU 031655Z AUTO 27005KT 9999 SCT055 BKN070 OVC140 26/17 A2986 RMK AO2 LTG DSNT E SLP112 T02560170,2024-08-03T16:55:00Z,25.6,17,6+,29.86
ETIK,49.472,10.39,270,8,9.20624,ETIK 031655Z AUTO 27008KT 9999 CLR 25/17 A2988 RMK AO2 SLP115 T02510170,2024-08-03T16:55:00Z,25.1,17,6+,29.88
ETIH,49.216,11.839,70,3,3.4523399999999995,ETIH 031655Z AUTO 07003KT 9999 BKN050 25/15 A2989 RMK AO2 SLP118 T02480151,2024-08-03T16:55:00Z,24.8,15.1,6+,29.89
ETEB,49.308,10.639,270,9,10.357019999999999,ETEB 031655Z AUTO 27009KT 9999 FEW045 25/14 A2989 RMK AO2 SLP128 T02490137 $,2024-08-03T16:55:00Z,24.9,13.7,6+,29.89
ETAR,49.437,7.6,260,10,11.5078,ETAR 031655Z AUTO 26010KT 9999 CLR 23/14 A2990 RMK AO2 SLP126 T02340141,2024-08-03T16:55:00Z,23.4,14.1,6+,29.90
ETAD,49.979,6.698,240,9,10.357019999999999,ETAD 031655Z 24009KT 9999 BKN200 22/15 A2991 RMK AO2A SLP116 T02180147 PNO,2024-08-03T16:55:00Z,21.8,14.7,6+,29.91
EGVA,51.682,-1.79,290,10,11.5078,EGVA 031655Z AUTO 29010KT 9999 CLR 21/08 A2985 RMK AO2 SLP111 T02100083 $,2024-08-03T16:55:00Z,21,8.3,6+,29.85
EGUN,52.362,0.486,340,7,8.05546,EGUN 031655Z 34007KT 9999 SCT045 BKN200 22/14 A2983 RMK AO2A SLP104 T02180137 $,2024-08-03T16:55:00Z,21.8,13.7,6+,29.83
EGUL,52.409,0.561,310,5,5.7539,EGUL 031655Z AUTO 31005KT 9999 CLR 21/14 A2983 RMK AO2 SLP105 T02120136 FZRANO $,2024-08-03T16:55:00Z,21.2,13.6,6+,29.83
EBLB,50.482,6.181,250,5,5.7539,EBLB 031655Z AUTO 25005KT 9999 FEW025/// SCT100/// 18/14 Q1014 BLU,2024-08-03T16:55:00Z,18,14,6+,29.94
EBFS,50.243,4.646,240,6,6.904679999999999,EBFS 031655Z AUTO 24006KT 9999 FEW028/// BKN032/// OVC037/// 19/16 Q1014 BLU,2024-08-03T16:55:00Z,19,16,6+,29.94
EBFN,51.09,2.653,240,11,12.658579999999999,EBFN 031655Z AUTO 24011KT 9999 BKN014/// OVC045/// 20/18 Q1012 GRN,2024-08-03T16:55:00Z,20,18,6+,29.88
EBDT,51.005,5.067,240,5,5.7539,EBDT 031655Z AUTO 24005KT 9999 OVC042/// 21/17 Q1012 BLU,2024-08-03T16:55:00Z,21,17,6+,29.88
EBCV,50.576,3.831,230,9,10.357019999999999,EBCV 031655Z AUTO 23009KT 9999 FEW085/// SCT100/// 22/17 Q1013 BLU,2024-08-03T16:55:00Z,22,17,6+,29.91
EBBL,51.168,5.47,230,4,4.60312,EBBL 031655Z AUTO 23004KT 9999 FEW028/// OVC049/// 20/19 Q1012 BLU,2024-08-03T16:55:00Z,20,19,6+,29.88
EBBE,50.759,4.768,250,12,13.809359999999998,EBBE 031655Z AUTO 25012KT 9999 FEW022/// SCT039/// BKN045/// 20/16 Q1013 BLU,2024-08-03T16:55:00Z,20,16,6+,29.91
BGTL,76.527,-68.758,0,0,0.0,BGTL 031655Z AUTO 00000KT 9999 FEW007 OVC029 05/03 A2989 RMK AO2 SLP103 T00540029 TSNO $,2024-08-03T16:55:00Z,5.4,2.9,6+,29.89
PHOG,20.8887,-156.435,20,11,12.658579999999999,PHOG 031654Z 02011KT 10SM FEW015 SCT030 BKN055 23/21 A3008 RMK AO2 SLP190 T02330211,2024-08-03T16:54:00Z,23.3,21.1,10+,30.08
PHMK,21.1545,-157.096,60,5,5.7539,PHMK 031654Z 06005KT 10SM FEW018 SCT032 BKN048 24/21 A3010 RMK AO2 SLP195 T02390211,2024-08-03T16:54:00Z,23.9,21.1,10+,30.10
PGUM,13.4796,144.796,190,5,5.7539,PGUM 031654Z 19005KT 3SM -RA BR FEW046 BKN090 OVC100 24/23 A2986 RMK AO2 SLP103 P0056 T02390233 $,2024-08-03T16:54:00Z,23.9,23.3,3,29.86
PGSN,15.116,145.72,210,9,10.357019999999999,PGSN 031654Z 21009KT 10SM SCT016 BKN090 27/24 A2981 RMK AO2 RAE50 SLP116 P0004 T02670244 $,2024-08-03T16:54:00Z,26.7,24.4,10+,29.81
PAHN,59.243,-135.511,300,9,10.357019999999999,PAHN 031654Z AUTO 30009KT 10SM BKN043 15/11 A3027 RMK AO2 SLP251 T01500106,2024-08-03T16:54:00Z,15,10.6,10+,30.27
KWLD,37.1649,-97.035,VRB,4,4.60312,KWLD 031654Z AUTO VRB04KT 10SM CLR 32/18 A3011 RMK AO2 SLP181 T03220178,2024-08-03T16:54:00Z,32.2,17.8,10+,30.11
KWAL,37.9372,-75.4662,180,14,16.11092,KWAL 031654Z AUTO 18014KT 8SM CLR 30/25 A2991 RMK AO2 SLP125 T03000250,2024-08-03T16:54:00Z,30,25,8,29.91
KVTA,40.0263,-82.4635,VRB,3,3.4523399999999995,KVTA 031654Z AUTO VRB03KT 10SM OVC019 25/21 A2992 RMK AO2 SLP127 T02500206,2024-08-03T16:54:00Z,25,20.6,10+,29.92
KVSF,43.3421,-72.5213,VRB,3,3.4523399999999995,KVSF 031654Z AUTO VRB03KT 10SM FEW019 FEW050 BKN120 28/22 A2982 RMK AO2 SLP095 T02780217,2024-08-03T16:54:00Z,27.8,21.7,10+,29.82
KVAY,39.9408,-74.8407,VRB,6,6.904679999999999,KVAY 031654Z AUTO VRB06KT 10SM FEW031 31/23 A2984 RMK AO2 SLP104 T03110228,2024-08-03T16:54:00Z,31.1,22.8,10+,29.84
KUZA,34.9836,-81.0562,220,10,11.5078,KUZA 031654Z AUTO 22010KT 10SM FEW028 SCT034 SCT049 31/24 A2996 RMK AO2 SLP127 T03060244,2024-08-03T16:54:00Z,30.6,24.4,10+,29.96
KUIN,39.9371,-91.1966,270,5,5.7539,KUIN 031654Z AUTO 27005KT 10SM FEW029 30/22 A3002 RMK AO2 SLP158 T03000222 $,2024-08-03T16:54:00Z,30,22.2,10+,30.02
KTQE,41.763,-96.1797,240,5,5.7539,KTQE 031654Z AUTO 24005KT 10SM CLR 33/20 A3004 RMK AO2 SLP156 T03280200,2024-08-03T16:54:00Z,32.8,20,10+,30.04
KTAD,37.2618,-104.332,0,0,0.0,KTAD 031654Z AUTO 00000KT 10SM CLR 28/11 A3030 RMK AO2 SLP164 T02830111,2024-08-03T16:54:00Z,28.3,11.1,10+,30.30
KSYR,43.1111,-76.1038,250,5,5.7539,KSYR 031654Z 25005KT 10SM FEW025 FEW036 SCT120 OVC150 28/21 A2986 RMK AO2 SLP103 T02780206 $,2024-08-03T16:54:00Z,27.8,20.6,10+,29.86
KSUS,38.6575,-90.6557,0,0,0.0,KSUS 031654Z 00000KT 10SM FEW038 29/21 A3001 RMK AO2 SLP153 T02940206,2024-08-03T16:54:00Z,29.4,20.6,10+,30.01
KSLC,40.7707,-111.965,150,11,12.658579999999999,KSLC 031654Z 15011G18KT 10SM SCT170 BKN240 33/09 A3012 RMK AO2 SLP132 P0000 T03280094,2024-08-03T16:54:00Z,32.8,9.4,10+,30.12
KSET,38.9304,-90.4329,310,5,5.7539,KSET 031654Z AUTO 31005KT 10SM FEW035 31/21 A3000 RMK AO2 SLP154 T03060211 $,2024-08-03T16:54:00Z,30.6,21.1,10+,30.00
KSBY,38.3409,-75.5132,230,14,16.11092,KSBY 031654Z 23014G21KT 10SM CLR 32/24 A2989 RMK AO2 SLP121 T03170244,2024-08-03T16:54:00Z,31.7,24.4,10+,29.89
KSBN,41.7072,-86.3163,,,,KSBN 031654Z 10SM CLR 31/22 A2996 RMK AO2 SLP138 T03060217,2024-08-03T16:54:00Z,30.6,21.7,10+,29.96
KRST,43.904,-92.4921,50,4,4.60312,KRST 031654Z 05004KT 10SM R31/2400VP6000FT CLR 28/14 A3005 RMK AO2 SLP166 T02780144,2024-08-03T16:54:00Z,27.8,14.4,10+,30.05
KRSP,39.646,-77.468,190,6,6.904679999999999,KRSP 031654Z AUTO 19006KT 10SM FEW012 SCT017 BKN025 27/23 A2992 RMK AO2 SLP119 T02720228 PWINO $,2024-08-03T16:54:00Z,27.2,22.8,10+,29.92
KROC,43.1172,-77.6754,210,7,8.05546,KROC 031654Z 21007KT 10SM FEW040 FEW090 BKN110 OVC170 25/21 A2987 RMK AO2 SLP115 T02500206,2024-08-03T16:54:00Z,25,20.6,10+,29.87
KRKS,41.5947,-109.053,110,7,8.05546,KRKS 031654Z AUTO 11007KT 10SM CLR 29/M01 A3036 RMK AO2 SLP173 T02941011,2024-08-03T16:54:00Z,29.4,-1.1,10+,30.36
KRIC,37.5115,-77.3234,210,14,16.11092,KRIC 031654Z 21014G20KT 10SM SCT028 BKN150 31/24 A2990 RMK AO2 SLP127 T03110239 $,2024-08-03T16:54:00Z,31.1,23.9,10+,29.90
KRFD,42.1915,-89.0876,VRB,4,4.60312,KRFD 031654Z VRB04KT 10SM FEW040 FEW250 31/22 A2998 RMK AO2 SLP146 T03110217 $,2024-08-03T16:54:00Z,31.1,21.7,10+,29.98
KRDG,40.3734,-75.9593,200,5,5.7539,KRDG 031654Z 20005KT 10SM FEW026 FEW075 FEW090 31/23 A2983 RMK AO2 LTG DSNT NW RAB08E18 SLP101 P0000 T03110233,2024-08-03T16:54:00Z,31.1,23.3,10+,29.83
KRBL,40.1519,-122.255,340,5,5.7539,KRBL 031654Z AUTO 34005KT 10SM CLR 31/15 A2995 RMK AO2 SLP138 T03060150,2024-08-03T16:54:00Z,30.6,15,10+,29.95
KPTW,40.238,-75.5549,230,7,8.05546,KPTW 031654Z AUTO 23007KT 10SM FEW026 BKN075 30/23 A2986 RMK AO2 SLP106 T03000233,2024-08-03T16:54:00Z,30,23.3,10+,29.86
KPNE,40.0789,-75.0133,170,6,6.904679999999999,KPNE 031654Z 17006KT 10SM CLR 31/23 A2986 RMK AO2 SLP108 T03110228,2024-08-03T16:54:00Z,31.1,22.8,10+,29.86
KPLN,45.5644,-84.7929,340,12,13.809359999999998,KPLN 031654Z AUTO 34012G16KT 8SM CLR 29/12 A2995 RMK AO2 SLP139 T02940117,2024-08-03T16:54:00Z,29.4,11.7,8,29.95
KPIA,40.6675,-89.6842,260,6,6.904679999999999,KPIA 031654Z 26006KT 10SM FEW033 FEW055 31/22 A2999 RMK AO2 SLP149 T03060217,2024-08-03T16:54:00Z,30.6,21.7,10+,29.99
KPHL,39.8733,-75.2268,200,10,11.5078,KPHL 031654Z 20010KT 10SM SCT027 SCT150 BKN280 31/23 A2985 RMK AO2 SLP106 T03060233 $,2024-08-03T16:54:00Z,30.6,23.3,10+,29.85
KPHF,37.1322,-76.494,200,15,17.261699999999998,KPHF 031654Z 20015G20KT 10SM FEW036 32/25 A2991 RMK AO2 SLP129 T03170250,2024-08-03T16:54:00Z,31.7,25,10+,29.91
KORH,42.2706,-71.8731,250,12,13.809359999999998,KORH 031654Z 25012G18KT 10SM SCT044 SCT050 28/21 A2985 RMK AO2 SLP101 T02830211 $,2024-08-03T16:54:00Z,28.3,21.1,10+,29.85
KOLS,31.4208,-110.847,150,4,4.60312,KOLS 031654Z AUTO 15004KT 10SM CLR 32/14 A3016 RMK AO2 SLP133 T03170144,2024-08-03T16:54:00Z,31.7,14.4,10+,30.16
KOLM,46.9737,-122.905,,,,KOLM 031654Z 10SM CLR 18/13 A3010 RMK AO2 SLP192 T01780128,2024-08-03T16:54:00Z,17.8,12.8,10+,30.10
KNFL,39.417,-118.705,250,11,12.658579999999999,KNFL 031654Z 25011KT 10SM FEW080 SCT120 32/09 A3012 RMK AO2 SLP166 T03220094,2024-08-03T16:54:00Z,32.2,9.4,10+,30.12
KNAK,38.9913,-76.4891,160,8,9.20624,KNAK 031654Z AUTO 16008KT 10SM FEW040 31/24 A2984 RMK AO2 SLP105 T03060244 $,2024-08-03T16:54:00Z,30.6,24.4,10+,29.84
KN60,47.654,-101.436,340,14,16.11092,KN60 031654Z AUTO 34014G27KT 24/17 A3003 RMK AO1 PK WND 34028/1627 SLP160 T02440172,2024-08-03T16:54:00Z,24.4,17.2,,30.03
KMVL,44.5328,-72.6152,350,8,9.20624,KMVL 031654Z AUTO 35008KT 10SM CLR 30/21 A2981 RMK AO2 SLP090 T03000206,2024-08-03T16:54:00Z,30,20.6,10+,29.81
KMTP,41.073,-71.9235,VRB,5,5.7539,KMTP 031654Z AUTO VRB05KT 31/24 A2985 RMK AO1 SLP106 T03110239,2024-08-03T16:54:00Z,31.1,23.9,,29.85
KMRY,36.5904,-121.849,320,3,3.4523399999999995,KMRY 031654Z 32003KT 10SM SCT005 16/13 A3000 RMK AO2 SLP172 T01610133,2024-08-03T16:54:00Z,16.1,13.3,10+,30.00
KMOT,48.252,-101.269,360,16,18.41248,KMOT 031654Z 36016G23KT 10SM SCT036 24/17 A3004 RMK AO2 PK WND 34029/1611 SLP166 T02440167,2024-08-03T16:54:00Z,24.4,16.7,10+,30.04
KMKC,39.1279,-94.5892,300,4,4.60312,KMKC 031654Z 30004KT 10SM CLR 31/20 A3006 RMK AO2 SLP170 T03110200,2024-08-03T16:54:00Z,31.1,20,10+,30.06
KMIV,39.3662,-75.0778,220,7,8.05546,KMIV 031654Z AUTO 22007G15KT 10SM FEW032 32/23 A2986 RMK AO2 SLP109 T03170228,2024-08-03T16:54:00Z,31.7,22.8,10+,29.86
KMGJ,41.509,-74.2645,260,7,8.05546,KMGJ 031654Z AUTO 26007KT 240V300 10SM FEW036 29/21 A2983 RMK AO2 SLP098 T02940211 PNO $,2024-08-03T16:54:00Z,29.4,21.1,10+,29.83
KMFI,44.6379,-90.1875,40,5,5.7539,KMFI 031654Z AUTO 04005KT 10SM CLR 28/17 A3003 RMK AO2 SLP161 T02780172,2024-08-03T16:54:00Z,27.8,17.2,10+,30.03
KMEM,35.0564,-89.9864,20,4,4.60312,KMEM 031654Z 02004KT 10SM FEW050 SCT075 SCT090 31/20 A3001 RMK AO2 SLP158 T03110200,2024-08-03T16:54:00Z,31.1,20,10+,30.01
KLYH,37.3213,-79.2065,190,10,11.5078,KLYH 031654Z 19010G15KT 10SM BKN021 29/23 A2993 RMK AO2 SLP124 T02940228,2024-08-03T16:54:00Z,29.4,22.8,10+,29.93
KLWT,47.0544,-109.457,110,10,11.5078,KLWT 031654Z AUTO 11010KT 10SM CLR 28/11 A3017 RMK AO2 SLP173 T02780106,2024-08-03T16:54:00Z,27.8,10.6,10+,30.17
KLWM,42.7125,-71.1256,320,4,4.60312,KLWM 031654Z 32004KT 8SM -RA FEW022 SCT046 OVC055 27/23 A2980 RMK AO2 RAB32 SLP090 P0002 T02670233 $,2024-08-03T16:54:00Z,26.7,23.3,8,29.80
KLNK,40.8478,-96.7647,230,6,6.904679999999999,KLNK 031654Z 23006KT 8SM CLR 31/21 A3007 RMK AO2 SLP171 T03060206,2024-08-03T16:54:00Z,30.6,20.6,8,30.07
KLEX,38.0339,-84.6114,20,6,6.904679999999999,KLEX 031654Z 02006KT 10SM FEW016 SCT039 OVC048 26/22 A2997 RMK AO2 SLP140 T02610217,2024-08-03T16:54:00Z,26.1,21.7,10+,29.97
KLAF,40.4124,-86.9474,10,6,6.904679999999999,KLAF 031654Z 01006KT 10SM CLR 30/20 A2995 RMK AO2 SLP138 T03000200,2024-08-03T16:54:00Z,30,20,10+,29.95
KJST,40.3149,-78.8307,260,8,9.20624,KJST 031654Z AUTO 26008KT 10SM FEW050 SCT085 BKN110 26/19 A2992 RMK AO2 LTG DSNT SE RAB16E51 SLP114 P0000 T02560189,2024-08-03T16:54:00Z,25.6,18.9,10+,29.92
KJAN,32.3198,-90.0778,20,6,6.904679999999999,KJAN 031654Z 02006KT 10SM FEW043 33/22 A2999 RMK AO2 SLP148 T03330217,2024-08-03T16:54:00Z,33.3,21.7,10+,29.99
KISW,44.3591,-89.837,340,6,6.904679999999999,KISW 031654Z AUTO 34006KT 10SM CLR 29/13 A3002 RMK AO2 SLP159 T02890133,2024-08-03T16:54:00Z,28.9,13.3,10+,30.02
KINT,36.1335,-80.2244,200,6,6.904679999999999,KINT 031654Z 20006G15KT 10SM BKN025 29/23 A2995 RMK AO2 LTG DSNT SE SLP130 T02940228 $,2024-08-03T16:54:00Z,29.4,22.8,10+,29.95
KINL,48.5594,-93.3955,90,4,4.60312,KINL 031654Z AUTO 09004KT 10SM -RA 19/16 A2999 RMK AO2 LTG DSNT ALQDS SLP156 P0001 T01890161 $,2024-08-03T16:54:00Z,18.9,16.1,10+,29.99
KIND,39.7252,-86.2816,310,7,8.05546,KIND 031654Z 31007KT 10SM SCT050 29/21 A2996 RMK AO2 SLP138 T02890206 $,2024-08-03T16:54:00Z,28.9,20.6,10+,29.96
KIMT,45.8134,-88.1129,330,7,8.05546,KIMT 031654Z AUTO 33007KT 300V360 10SM CLR 28/12 A3000 RMK AO2 SLP154 T02780117,2024-08-03T16:54:00Z,27.8,11.7,10+,30.00
KILN,39.4308,-83.777,350,7,8.05546,KILN 031654Z AUTO 35007KT 10SM FEW020 FEW026 BKN036 26/21 A2994 RMK AO2 SLP129 T02610206,2024-08-03T16:54:00Z,26.1,20.6,10+,29.94
KHWD,37.6589,-122.121,250,6,6.904679999999999,KHWD 031654Z 25006KT 10SM CLR 22/15 A2998 RMK AO2 SLP159 T02170150,2024-08-03T16:54:00Z,21.7,15,10+,29.98
KGSO,36.0969,-79.9432,190,8,9.20624,KGSO 031654Z 19008KT 10SM SCT018 BKN030TCU BKN080 28/23 A2995 RMK AO2 SLP128 TCU S T02830233,2024-08-03T16:54:00Z,28.3,23.3,10+,29.95
KGED,38.6898,-75.3625,230,14,16.11092,KGED 031654Z AUTO 23014KT 10SM SCT026 SCT034 32/24 A2987 RMK AO2 SLP115 T03170244,2024-08-03T16:54:00Z,31.7,24.4,10+,29.87
KGCN,35.9458,-112.155,210,5,5.7539,KGCN 031654Z 21005KT 10SM CLR 26/13 A3040 RMK AO2 SLP187 T02610128,2024-08-03T16:54:00Z,26.1,12.8,10+,30.40
KGCK,37.9221,-100.723,120,11,12.658579999999999,KGCK 031654Z 12011KT 10SM CLR 29/16 A3017 RMK AO2 SLP179 T02940161,2024-08-03T16:54:00Z,29.4,16.1,10+,30.17
KFZY,43.3504,-76.3831,0,0,0.0,KFZY 031654Z AUTO 00000KT 10SM SCT120 26/22 A2986 RMK AO2 SLP108 T02610222,2024-08-03T16:54:00Z,26.1,22.2,10+,29.86
KFWA,40.9725,-85.2064,360,9,10.357019999999999,KFWA 031654Z 36009KT 10SM SCT044 29/20 A2995 RMK AO2 SLP136 T02940200,2024-08-03T16:54:00Z,29.4,20,10+,29.95
KFFZ,33.4659,-111.721,170,4,4.60312,KFFZ 031654Z 17004KT 10SM CLR 38/16 A2994 RMK AO2 SLP108 T03780156,2024-08-03T16:54:00Z,37.8,15.6,10+,29.94
KEVV,38.0502,-87.5147,,,,KEVV 031654Z 10SM SCT045 31/22 A2999 RMK AO2 SLP149 T03060217 $,2024-08-03T16:54:00Z,30.6,21.7,10+,29.99
KEUG,44.1331,-123.216,300,4,4.60312,KEUG 031654Z 30004KT 10SM FEW180 BKN210 21/15 A3009 RMK AO2 SLP186 ACC DSNT SE T02110150,2024-08-03T16:54:00Z,21.1,15,10+,30.09
KEFD,29.606,-95.16,300,4,4.60312,KEFD 031654Z 30004KT 10SM BKN030 33/24 A2999,2024-08-03T16:54:00Z,33,24,10+,29.99
KECG,36.2571,-76.1716,220,18,20.714039999999997,KECG 031654Z 22018G26KT 10SM CLR 33/25 A2995 RMK AO2 PK WND 23028/1639 SLP142 T03280250,2024-08-03T16:54:00Z,32.8,25,10+,29.95
KDYL,40.3302,-75.1228,230,4,4.60312,KDYL 031654Z AUTO 23004KT 10SM CLR 32/22 A2984 RMK AO2 SLP096 T03170222 $,2024-08-03T16:54:00Z,31.7,22.2,10+,29.84
KDSV,42.5699,-77.7142,150,5,5.7539,KDSV 031654Z AUTO 15005KT 10SM OVC095 26/21 A2988 RMK AO2 SLP123 T02560206,2024-08-03T16:54:00Z,25.6,20.6,10+,29.88
KDSM,41.534,-93.6531,0,0,0.0,KDSM 031654Z 00000KT 10SM FEW095 FEW250 31/22 A3004 RMK AO2 SLP162 T03060217,2024-08-03T16:54:00Z,30.6,21.7,10+,30.04
KDEC,39.8308,-88.8719,0,0,0.0,KDEC 031654Z 00000KT 10SM CLR 31/22 A3000 RMK AO2 SLP152 T03060217,2024-08-03T16:54:00Z,30.6,21.7,10+,30.00
KCRW,38.3795,-81.5911,220,9,10.357019999999999,KCRW 031654Z 22009KT 10SM BKN027 BKN200 28/17 A2993 RMK AO2 SLP125 T02780172,2024-08-03T16:54:00Z,27.8,17.2,10+,29.93
KCOU,38.8171,-92.2148,VRB,5,5.7539,KCOU 031654Z VRB05KT 10SM CLR 30/21 A3006 RMK AO2 SLP170 T03000206 $,2024-08-03T16:54:00Z,30,20.6,10+,30.06
KCOS,38.8095,-104.689,0,0,0.0,KCOS 031654Z 00000KT 10SM FEW085 SCT240 29/12 A3034 RMK AO2 SLP167 T02890117,2024-08-03T16:54:00Z,28.9,11.7,10+,30.34
KCEU,34.6722,-82.8814,VRB,3,3.4523399999999995,KCEU 031654Z AUTO VRB03KT 10SM FEW030 SCT095 29/23 A2996 RMK AO2 SLP132 T02940228,2024-08-03T16:54:00Z,29.4,22.8,10+,29.96
KCAR,46.8705,-68.0172,200,9,10.357019999999999,KCAR 031654Z AUTO 20009G15KT 10SM -RA CLR 29/21 A2973 RMK AO2 RAB11 SLP067 P0000 T02890206,2024-08-03T16:54:00Z,28.9,20.6,10+,29.73
KBWI,39.1733,-76.684,240,6,6.904679999999999,KBWI 031654Z COR 24006KT 10SM FEW039 FEW230 FEW250 33/22 A2983 RMK AO2 SLP099 CB DSNT NW-N MOV NE T03280222,2024-08-03T16:54:00Z,32.8,22.2,10+,29.83
KBUF,42.94,-78.7361,210,4,4.60312,KBUF 031654Z 21004KT 5SM -RA BR FEW075 BKN095 OVC110 23/21 A2989 RMK AO2 SLP117 P0013 T02280206,2024-08-03T16:54:00Z,22.8,20.6,5,29.89
KBTV,44.4683,-73.1499,270,3,3.4523399999999995,KBTV 031654Z 27003KT 10SM SCT029 BKN300 31/21 A2979 RMK AO2 SLP087 T03110206,2024-08-03T16:54:00Z,31.1,20.6,10+,29.79
KBOS,42.3606,-71.0097,240,12,13.809359999999998,KBOS 031654Z 24012G23KT 10SM R04R/2800VP6000FT FEW041 SCT048 SCT250 32/21 A2977 RMK AO2 SLP080 T03220206,2024-08-03T16:54:00Z,32.2,20.6,10+,29.77
KBFL,35.4342,-119.055,190,4,4.60312,KBFL 031654Z 19004KT 10SM CLR 31/13 A2996 RMK AO2 SLP139 T03110133,2024-08-03T16:54:00Z,31.1,13.3,10+,29.96
KAVP,41.3335,-75.7227,VRB,4,4.60312,KAVP 031654Z VRB04KT 10SM FEW029 BKN036 BKN100 29/22 A2986 RMK AO2 LTG DSNT SE AND NW SLP101 T02940217,2024-08-03T16:54:00Z,29.4,21.7,10+,29.86
KAVL,35.4318,-82.5379,0,0,0.0,KAVL 031654Z 00000KT 10SM FEW047 SCT090 27/21 A3001 RMK AO2 RAB30E44 SLP131 P0000 T02720206,2024-08-03T16:54:00Z,27.2,20.6,10+,30.01
KAUW,44.9265,-89.6248,VRB,4,4.60312,KAUW 031654Z AUTO VRB04KT 10SM CLR 28/14 A3002 RMK AO2 SLP160 T02780139,2024-08-03T16:54:00Z,27.8,13.9,10+,30.02
KAPN,45.0716,-83.5645,330,13,14.960139999999999,KAPN 031654Z AUTO 33013KT 10SM CLR 29/16 A2992 RMK AO2 SLP127 T02940156 $,2024-08-03T16:54:00Z,29.4,15.6,10+,29.92
KAPC,38.2075,-122.28,VRB,5,5.7539,KAPC 031654Z VRB05KT 10SM CLR 20/15 A2997 RMK AO2 SLP141 T02000150,2024-08-03T16:54:00Z,20,15,10+,29.97
KALO,42.5544,-92.4013,10,10,11.5078,KALO 031654Z 01010KT 10SM CLR 30/16 A3002 RMK AO2 SLP158 T03000161,2024-08-03T16:54:00Z,30,16.1,10+,30.02
KAKR,41.0373,-81.4634,0,0,0.0,KAKR 031654Z AUTO 00000KT 10SM VCTS FEW029 SCT060 BKN085 22/20 A2992 RMK AO2 LTG DSNT N AND NE RAE12 TSE07 SLP124 P0003 T02170200 $,2024-08-03T16:54:00Z,21.7,20,10+,29.92
KAKQ,36.9827,-77.0014,210,5,5.7539,KAKQ 031654Z AUTO 21005G16KT 8SM CLR 32/25 A2992 RMK AO2 SLP129 T03170250 $,2024-08-03T16:54:00Z,31.7,25,8,29.92
KAKH,35.1968,-81.1555,190,7,8.05546,KAKH 031654Z AUTO 19007KT 150V240 10SM BKN030 BKN037 29/24 A2995 RMK AO2 SLP132 T02940239,2024-08-03T16:54:00Z,29.4,23.9,10+,29.95
KACY,39.452,-74.567,210,13,14.960139999999999,KACY 031654Z 21013G18KT 10SM CLR 32/22 A2986 RMK AO2 SLP110 T03220222 $,2024-08-03T16:54:00Z,32.2,22.2,10+,29.86
KAAO,37.7496,-97.2191,100,3,3.4523399999999995,KAAO 031654Z AUTO 10003KT 10SM CLR 31/18 A3011 RMK AO2 SLP180 T03110178,2024-08-03T16:54:00Z,31.1,17.8,10+,30.11
K1V4,44.42,-72.019,,,,K1V4 031654Z AUTO 29/22 A2978 RMK AO1 SLP071 T02940222,2024-08-03T16:54:00Z,29.4,22.2,,29.78
K12N,41.0093,-74.7363,330,4,4.60312,K12N 031654Z AUTO 33004KT 31/23 A2984 RMK AO1 SLP095 P0006 T03060228,2024-08-03T16:54:00Z,30.6,22.8,,29.84
TJNR,18.253,-65.638,70,9,10.357019999999999,TJNR 031653Z AUTO 07009G18KT 9SM FEW027 33/26 A3003 RMK AO2 SLP169 T03280256,2024-08-03T16:53:00Z,32.8,25.6,9,30.03
TISX,17.6997,-64.8126,110,18,20.714039999999997,TISX 031653Z 11018G25KT 10SM CLR 33/24 A3000 RMK AO2 PK WND 10026/1611 SLP156 T03330244 $,2024-08-03T16:53:00Z,33.3,24.4,10+,30.00
PTTP,6.96,158.21,140,4,4.60312,PTTP 031653Z 14004KT 15SM FEW018 SCT300 24/23 A2986 RMK SLP115 T02430232,2024-08-03T16:53:00Z,24.3,23.2,15,29.86
PKMR,7.09,171.383,80,4,4.60312,PKMR 031653Z 08004KT 15SM FEW015 SCT300 28/24 A2984 RMK SLP107 T02760242,2024-08-03T16:53:00Z,27.6,24.2,15,29.84
PHLI,21.9805,-159.339,70,5,5.7539,PHLI 031653Z 07005KT 10SM OVC055 24/22 A3010 RMK AO2 SLP191 T02440217 $,2024-08-03T16:53:00Z,24.4,21.7,10+,30.10
PHKO,19.7378,-156.048,40,3,3.4523399999999995,PHKO 031653Z 04003KT 10SM CLR 26/18 A3005 RMK AO2 SLP175 T02560178,2024-08-03T16:53:00Z,25.6,17.8,10+,30.05
PHJR,21.312,-158.07,50,4,4.60312,PHJR 031653Z 05004KT 10SM FEW031 SCT039 24/21 A3009 RMK AO2 SLP196 T02440211,2024-08-03T16:53:00Z,24.4,21.1,10+,30.09
PAWD,60.129,-149.418,0,0,0.0,PAWD 031653Z AUTO 00000KT 10SM OVC100 12/08 A3034 RMK AO2 SLP275 T01220083 TSNO,2024-08-03T16:53:00Z,12.2,8.3,10+,30.34
PATO,60.783,-148.843,80,7,8.05546,PATO 031653Z AUTO 08007KT 10SM SCT030 OVC085 12/09 A3034 RMK AO2 SLP275 T01170089 TSNO,2024-08-03T16:53:00Z,11.7,8.9,10+,30.34
PATK,62.319,-150.097,180,4,4.60312,PATK 031653Z 18004KT 10SM OVC022 12/09 A3031 RMK AO2 RAE27 SLP267 P0000 T01220094,2024-08-03T16:53:00Z,12.2,9.4,10+,30.31
PASO,59.443,-151.702,170,13,14.960139999999999,PASO 031653Z AUTO 17013G21KT 10SM CLR A3031 RMK AO2 SLP266 TSNO,2024-08-03T16:53:00Z,,,10+,30.31
PASI,57.047,-135.364,330,9,10.357019999999999,PASI 031653Z 33009KT 10SM BKN032 17/10 A3028 RMK AO2 SLP252 T01670100,2024-08-03T16:53:00Z,16.7,10,10+,30.28
PASC,70.191,-148.48,160,5,5.7539,PASC 031653Z 16005KT 10SM CLR 09/04 A3002 RMK AO2 SLP168 T00890044 PNO $,2024-08-03T16:53:00Z,8.9,4.4,10+,30.02
PAQT,70.213,-150.994,160,7,8.05546,PAQT 031653Z AUTO 16007KT 10SM CLR 09/04 A3001 RMK AO2 SLP163 T00890044 TSNO $,2024-08-03T16:53:00Z,8.9,4.4,10+,30.01
PAOR,62.962,-141.938,0,0,0.0,PAOR 031653Z 00000KT 10SM BKN080 BKN120 11/08 A3028 RMK AO2 SLP263 T01060078 $,2024-08-03T16:53:00Z,10.6,7.8,10+,30.28
PANC,61.1691,-150.028,100,5,5.7539,PANC 031653Z 10005KT 10SM FEW045 SCT120 OVC140 13/10 A3030 RMK AO2 SLP262 T01330100,2024-08-03T16:53:00Z,13.3,10,10+,30.30
PAMR,61.215,-149.85,40,4,4.60312,PAMR 031653Z 04004KT 10SM BKN100 13/11 A3031 RMK AO2 SLP264 T01330111,2024-08-03T16:53:00Z,13.3,11.1,10+,30.31
PAMC,62.957,-155.61,210,7,8.05546,PAMC 031653Z AUTO 21007KT 10SM -RA FEW015 FEW060 OVC090 11/09 A3020 RMK AO2 SLP231 P0002 T01060094 TSNO,2024-08-03T16:53:00Z,10.6,9.4,10+,30.20
PALH,61.179,-149.962,80,5,5.7539,PALH 031653Z AUTO 08005KT 10SM SCT110 13/11 A3031 RMK AO2 SLP266 T01330106 TSNO,2024-08-03T16:53:00Z,13.3,10.6,10+,30.31
PAKW,55.582,-133.075,200,3,3.4523399999999995,PAKW 031653Z AUTO 20003KT 10SM CLR 16/12 A3022 RMK AO2 SLP231 T01560117 TSNO,2024-08-03T16:53:00Z,15.6,11.7,10+,30.22
PAKV,64.321,-158.732,VRB,4,4.60312,PAKV 031653Z AUTO VRB04KT 10SM OVC014 09/08 A3009 RMK AO2 RAE52 SLP192 P0000 T00940083 TSNO $,2024-08-03T16:53:00Z,9.4,8.3,10+,30.09
PAKT,55.3592,-131.722,330,12,13.809359999999998,PAKT 031653Z 33012KT 10SM CLR 19/10 A3019 RMK AO2 SLP223 HARBOR WIND VRB04KT T01890100,2024-08-03T16:53:00Z,18.9,10,10+,30.19
PAJN,58.354,-134.556,320,3,3.4523399999999995,PAJN 031653Z 32003KT 10SM FEW020 SCT030 BKN130 BKN240 14/11 A3027 RMK AO2 SLP250 T01440106 $,2024-08-03T16:53:00Z,14.4,10.6,10+,30.27
PAIL,59.7492,-154.909,0,0,0.0,PAIL 031653Z 00000KT 10SM OVC011 11/10 A3029 RMK AO2 SLP260 T01110100,2024-08-03T16:53:00Z,11.1,10,10+,30.29
PAHO,59.642,-151.491,170,3,3.4523399999999995,PAHO 031653Z 17003KT 9SM CLR 13/09 A3032 RMK AO2 SLP266 T01330089,2024-08-03T16:53:00Z,13.3,8.9,9,30.32
PAGY,59.457,-135.322,200,4,4.60312,PAGY 031653Z AUTO 20004KT 10SM OVC045 12/10 A3026 RMK AO2 SLP246 T01170100 TSNO,2024-08-03T16:53:00Z,11.7,10,10+,30.26
PAGK,62.1592,-145.459,170,4,4.60312,PAGK 031653Z AUTO 17004KT 10SM OVC085 11/07 A3031 RMK AO2 SLP269 T01110072 TSNO,2024-08-03T16:53:00Z,11.1,7.2,10+,30.31
PAEN,60.579,-151.242,220,10,11.5078,PAEN 031653Z 22010KT 10SM OVC014 12/09 A3031 RMK AO2 SLP266 T01170094,2024-08-03T16:53:00Z,11.7,9.4,10+,30.31
PAEG,64.7761,-141.164,0,0,0.0,PAEG 031653Z AUTO 00000KT 10SM SCT027 OVC042 11/07 A3026 RMK AO2 SLP252 T01110067 TSNO,2024-08-03T16:53:00Z,11.1,6.7,10+,30.26
PADQ,57.7507,-152.488,0,0,0.0,PADQ 031653Z 00000KT 10SM CLR 11/09 A3032 RMK AO2 SLP266 T01110089,2024-08-03T16:53:00Z,11.1,8.9,10+,30.32
PADE,66.0695,-162.761,140,13,14.960139999999999,PADE 031653Z AUTO 14013KT 10SM SCT031 OVC039 11/09 A2984 RMK AO2 SLP105 T01110089 TSNO,2024-08-03T16:53:00Z,11.1,8.9,10+,29.84
PACV,60.486,-145.445,0,0,0.0,PACV 031653Z 00000KT 10SM CLR 14/09 A3033 RMK AO2 SLP270 T01440094,2024-08-03T16:53:00Z,14.4,9.4,10+,30.33
PACD,55.2207,-162.732,140,15,17.261699999999998,PACD 031653Z 14015KT 10SM CLR 12/08 A3007 RMK AO2 PK WND 14028/1622 SLP183 T01170078 $,2024-08-03T16:53:00Z,11.7,7.8,10+,30.07
PABR,71.2837,-156.784,120,4,4.60312,PABR 031653Z 12004KT 10SM CLR 07/04 A2989,2024-08-03T16:53:00Z,7,4,10+,29.89
PABE,60.785,-161.829,170,14,16.11092,PABE 031653Z 17014KT 10SM OVC020 09/07 A3014 RMK AO2 SLP206 T00940072,2024-08-03T16:53:00Z,9.4,7.2,10+,30.14
PAAQ,61.5951,-149.092,0,0,0.0,PAAQ 031653Z 00000KT 10SM OVC070 11/09 A3031 RMK AO2 SLP264 T01110089,2024-08-03T16:53:00Z,11.1,8.9,10+,30.31
KZZV,39.9461,-81.8932,230,4,4.60312,KZZV 031653Z AUTO 23004KT 10SM BKN018 OVC024 24/20 A2993 RMK AO2 SLP126 T02440200,2024-08-03T16:53:00Z,24.4,20,10+,29.93
KYIP,42.242,-83.5214,350,8,9.20624,KYIP 031653Z 35008KT 10SM CLR 30/21 A2992 RMK AO2 SLP124 T03000206,2024-08-03T16:53:00Z,30,20.6,10+,29.92
KXNA,36.2897,-94.3115,VRB,4,4.60312,KXNA 031653Z VRB04KT 10SM FEW042 29/19 A3009 RMK AO2 SLP174 T02940189,2024-08-03T16:53:00Z,29.4,18.9,10+,30.09
KWVI,36.9394,-121.79,180,4,4.60312,KWVI 031653Z AUTO 18004KT 10SM CLR 20/14 A3000 RMK AO2 SLP157 T02000144,2024-08-03T16:53:00Z,20,14.4,10+,30.00
KWST,41.3509,-71.8055,230,8,9.20624,KWST 031653Z AUTO 23008G15KT 10SM CLR 29/22 A2983 RMK AO2 SLP100 T02940222 $,2024-08-03T16:53:00Z,29.4,22.2,10+,29.83
KWRL,43.9654,-107.95,310,4,4.60312,KWRL 031653Z AUTO 31004KT 10SM CLR 28/06 A3019 RMK AO2 SLP175 T02830061,2024-08-03T16:53:00Z,28.3,6.1,10+,30.19
KVLD,30.7763,-83.2739,190,6,6.904679999999999,KVLD 031653Z 19006KT 10SM CLR 34/24 A2999 RMK AO2 LTG DSNT W SLP161 T03390244,2024-08-03T16:53:00Z,33.9,24.4,10+,29.99
KVGT,36.2121,-115.194,90,5,5.7539,KVGT 031653Z 09005KT 10SM CLR 37/13 A3000 RMK AO2 SLP143 T03670128,2024-08-03T16:53:00Z,36.7,12.8,10+,30.00
KVEL,40.4429,-109.513,VRB,3,3.4523399999999995,KVEL 031653Z AUTO VRB03KT 10SM CLR 31/02 A3025 RMK AO2 SLP158 T03060022,2024-08-03T16:53:00Z,30.6,2.2,10+,30.25
KVCB,38.3775,-121.959,VRB,5,5.7539,KVCB 031653Z AUTO VRB05KT 10SM CLR 30/13 A2995 RMK AO2 SLP140 T03000128,2024-08-03T16:53:00Z,30,12.8,10+,29.95
KUUU,41.5299,-71.2833,210,12,13.809359999999998,KUUU 031653Z AUTO 21012G22KT 10SM CLR 28/23 A2982 RMK AO2 SLP094 T02830228,2024-08-03T16:53:00Z,28.3,22.8,10+,29.82
KUTS,30.7443,-95.5866,250,7,8.05546,KUTS 031653Z AUTO 25007KT 220V280 10SM FEW031 28/26 A3002 RMK AO2 SLP158 T02780256 $,2024-08-03T16:53:00Z,27.8,25.6,10+,30.02
KUNV,40.8534,-77.8401,VRB,4,4.60312,KUNV 031653Z VRB04KT 10SM BKN020 28/22 A2986 RMK LTG DSNT ALQDS,2024-08-03T16:53:00Z,28,22,10+,29.86
KUNO,36.8791,-91.9052,60,5,5.7539,KUNO 031653Z AUTO 06005KT 10SM FEW037 29/19 A3008 RMK AO2 SLP172 T02940189,2024-08-03T16:53:00Z,29.4,18.9,10+,30.08
KUIL,47.937,-124.558,0,0,0.0,KUIL 031653Z AUTO 00000KT 10SM OVC007 16/14 A3010 RMK AO2 SLP194 T01610139,2024-08-03T16:53:00Z,16.1,13.9,10+,30.10
KUAO,45.2466,-122.771,90,4,4.60312,KUAO 031653Z 09004KT 10SM CLR 21/13 A3009 RMK AO2 SLP187 T02110133,2024-08-03T16:53:00Z,21.1,13.3,10+,30.09
KTYS,35.818,-83.9857,270,6,6.904679999999999,KTYS 031653Z 27006KT 10SM SCT026 OVC080 27/20 A2997 RMK AO2 RAE51 SLP137 P0000 T02670200,2024-08-03T16:53:00Z,26.7,20,10+,29.97
KTYR,32.3587,-95.404,340,6,6.904679999999999,KTYR 031653Z 34006KT 10SM CLR 34/21 A3000 RMK AO2 SLP148 T03390211,2024-08-03T16:53:00Z,33.9,21.1,10+,30.00
KTXK,33.4561,-93.9878,50,8,9.20624,KTXK 031653Z 05008KT 10SM CLR 34/21 A3002 RMK AO2 SLP158 T03440211,2024-08-03T16:53:00Z,34.4,21.1,10+,30.02
KTWF,42.4785,-114.477,90,5,5.7539,KTWF 031653Z 09005KT 4SM HZ FU CLR 28/15 A3010 RMK AO2 SLP126 T02830150,2024-08-03T16:53:00Z,28.3,15,4,30.10
KTVR,32.3481,-91.0299,60,6,6.904679999999999,KTVR 031653Z AUTO 06006KT 10SM CLR 34/23 A2998 RMK AO2 SLP158 T03390233,2024-08-03T16:53:00Z,33.9,23.3,10+,29.98
KTVL,38.8984,-119.996,VRB,3,3.4523399999999995,KTVL 031653Z AUTO VRB03KT 10SM FEW100 19/11 A3032 RMK AO2 RAE09 SLP207 P0000 T01940111,2024-08-03T16:53:00Z,19.4,11.1,10+,30.32
KTVC,44.739,-85.5694,30,10,11.5078,KTVC 031653Z 03010KT 10SM SCT250 29/13 A2995 RMK AO2 SLP137 T02940128,2024-08-03T16:53:00Z,29.4,12.8,10+,29.95
KTUS,32.1315,-110.956,100,3,3.4523399999999995,KTUS 031653Z 10003KT 10SM CLR 35/16 A3006 RMK AO2 SLP123 T03500161,2024-08-03T16:53:00Z,35,16.1,10+,30.06
KTUP,34.2622,-88.7713,360,5,5.7539,KTUP 031653Z 36005KT 10SM SCT039 31/22 A2999 RMK AO2 SLP151 T03110217,2024-08-03T16:53:00Z,31.1,21.7,10+,29.99
KTUL,36.1985,-95.8783,0,0,0.0,KTUL 031653Z 00000KT 10SM FEW050 SCT250 32/18 A3007 RMK AO2 SLP172 T03170183 $,2024-08-03T16:53:00Z,31.7,18.3,10+,30.07
KTTN,40.2768,-74.8159,200,5,5.7539,KTTN 031653Z 20005KT 10SM CLR 31/22 A2984 RMK AO2 SLP095 T03060217 $,2024-08-03T16:53:00Z,30.6,21.7,10+,29.84
KTRL,32.7131,-96.2688,30,6,6.904679999999999,KTRL 031653Z AUTO 03006KT 10SM CLR 34/17 A3000 RMK AO2 SLP150 T03440172,2024-08-03T16:53:00Z,34.4,17.2,10+,30.00
KTRI,36.4797,-82.3989,270,6,6.904679999999999,KTRI 031653Z 27006KT 10SM FEW027 BKN100 26/20 A2998 RMK AO2 SLP126 T02560200,2024-08-03T16:53:00Z,25.6,20,10+,29.98
KTOR,42.0613,-104.158,290,5,5.7539,KTOR 031653Z AUTO 29005KT 10SM CLR 31/13 A3018 RMK AO2 SLP163 T03060128,2024-08-03T16:53:00Z,30.6,12.8,10+,30.18
KTOP,39.0724,-95.626,260,3,3.4523399999999995,KTOP 031653Z 26003KT 10SM CLR 31/20 A3008 RMK AO2 SLP175 T03110200,2024-08-03T16:53:00Z,31.1,20,10+,30.08
KTMB,25.6423,-80.4347,120,10,11.5078,KTMB 031653Z 12010KT 10SM -RA FEW049 BKN100 OVC120 27/27 A2993 RMK AO2 PK WND 13040/1615 LTG DSNT SE RAB19 SLP134 P0013 T02670267 $,2024-08-03T16:53:00Z,26.7,26.7,10+,29.93
KTLH,30.3935,-84.3513,160,10,11.5078,KTLH 031653Z 16010KT 10SM SCT031CB BKN060 BKN250 34/25 A2998 RMK AO2 LTG DSNT NE AND E SLP149 CB NE-E SW MOV NE T03390250 $,2024-08-03T16:53:00Z,33.9,25,10+,29.98
KTKI,33.1828,-96.5899,310,3,3.4523399999999995,KTKI 031653Z 31003KT 10SM CLR 34/17 A3002 RMK AO2 SLP156 T03390172,2024-08-03T16:53:00Z,33.9,17.2,10+,30.02
KTHV,39.9194,-76.8768,VRB,5,5.7539,KTHV 031653Z AUTO VRB05KT 10SM FEW037 SCT100 32/22 A2983 RMK AO2 LTG DSNT NW SLP098 T03170222,2024-08-03T16:53:00Z,31.7,22.2,10+,29.83
KTDZ,41.5633,-83.4767,VRB,4,4.60312,KTDZ 031653Z AUTO VRB04KT 10SM CLR 30/20 A2992 RMK AO2 SLP126 T03000200,2024-08-03T16:53:00Z,30,20,10+,29.92
KTCS,33.2369,-107.268,VRB,3,3.4523399999999995,KTCS 031653Z AUTO VRB03KT 10SM CLR 28/13 A3028 RMK AO2 SLP158 T02830128,2024-08-03T16:53:00Z,28.3,12.8,10+,30.28
KTCL,33.2122,-87.6155,320,5,5.7539,KTCL 031653Z 32005KT 10SM BKN043 BKN055 30/22 A2997 RMK AO2 SLP147 T03000222,2024-08-03T16:53:00Z,30,22.2,10+,29.97
KTCC,35.1805,-103.601,190,8,9.20624,KTCC 031653Z AUTO 19008G14KT 10SM CLR 27/18 A3022 RMK AO2 SLP173 T02720178,2024-08-03T16:53:00Z,27.2,17.8,10+,30.22
KSWO,36.1624,-97.0832,0,0,0.0,KSWO 031653Z 00000KT 10SM CLR 33/18 A3009 RMK AO2 SLP175 T03330183,2024-08-03T16:53:00Z,33.3,18.3,10+,30.09
KSTS,38.5037,-122.811,VRB,3,3.4523399999999995,KSTS 031653Z VRB03KT 10SM FEW200 23/14 A2997 RMK AO2 SLP140 T02330144,2024-08-03T16:53:00Z,23.3,14.4,10+,29.97
KSTP,44.9324,-93.0559,200,5,5.7539,KSTP 031653Z 20005KT 10SM CLR 27/16 A3002 RMK AO2 SLP160 T02670161,2024-08-03T16:53:00Z,26.7,16.1,10+,30.02
KSTJ,39.7683,-94.9095,0,0,0.0,KSTJ 031653Z 00000KT 10SM CLR 32/21 A3007 RMK AO2 SLP172 T03170211,2024-08-03T16:53:00Z,31.7,21.1,10+,30.07
KSTC,45.5442,-94.0517,130,8,9.20624,KSTC 031653Z 13008KT 10SM CLR 27/17 A3001 RMK AO2 SLP164 T02720167,2024-08-03T16:53:00Z,27.2,16.7,10+,30.01
KSSF,29.339,-98.472,30,6,6.904679999999999,KSSF 031653Z 03006KT 10SM CLR 34/22 A3001 RMK AO2 SLP147 T03390222 $,2024-08-03T16:53:00Z,33.9,22.2,10+,30.01
KSRQ,27.4015,-82.5596,70,6,6.904679999999999,KSRQ 031653Z 07006KT 10SM -RA FEW055 BKN100 BKN110 26/23 A2996 RMK AO2 PK WND 14030/1605 LTG DSNT NE AND W RAB11 SLP145 P0008 T02560233,2024-08-03T16:53:00Z,25.6,23.3,10+,29.96
KSPW,43.1682,-95.2101,120,6,6.904679999999999,KSPW 031653Z AUTO 12006KT 10SM CLR 32/21 A3004 RMK AO2 SLP161 T03170206,2024-08-03T16:53:00Z,31.7,20.6,10+,30.04
KSPB,45.7691,-122.864,0,0,0.0,KSPB 031653Z AUTO 00000KT 10SM CLR A3008 RMK AO2 SLPNO,2024-08-03T16:53:00Z,,,10+,30.08
KSNY,41.0993,-102.986,VRB,3,3.4523399999999995,KSNY 031653Z AUTO VRB03KT 10SM CLR 30/12 A3020 RMK AO2 SLP170 T03000117,2024-08-03T16:53:00Z,30,11.7,10+,30.20
KSNS,36.6635,-121.609,0,0,0.0,KSNS 031653Z 00000KT 10SM CLR 20/14 A2999 RMK AO2 SLP164 T02000139,2024-08-03T16:53:00Z,20,13.9,10+,29.99
KSNA,33.6798,-117.867,230,4,4.60312,KSNA 031653Z 23004KT 10SM CLR 25/17 A2996 RMK AO2 SLP144 T02500167 $,2024-08-03T16:53:00Z,25,16.7,10+,29.96
KSMQ,40.6241,-74.669,0,0,0.0,KSMQ 031653Z AUTO 00000KT 10SM CLR 34/23 A2980 RMK AO2 SLP090 T03390233,2024-08-03T16:53:00Z,33.9,23.3,10+,29.80
KSMF,38.7007,-121.595,0,0,0.0,KSMF 031653Z 00000KT 10SM BKN160 28/12 A2994 RMK AO2 SLP137 T02830117,2024-08-03T16:53:00Z,28.3,11.7,10+,29.94
KSLN,38.78,-97.6446,190,4,4.60312,KSLN 031653Z 19004KT 10SM FEW110 32/18 A3010 RMK AO2 SLP179 T03170183,2024-08-03T16:53:00Z,31.7,18.3,10+,30.10
KSJC,37.3594,-121.924,340,5,5.7539,KSJC 031653Z 34005KT 10SM FEW075 FEW200 23/16 A2998 RMK AO2 SLP150 T02330156,2024-08-03T16:53:00Z,23.3,15.6,10+,29.98
KSIY,41.7737,-122.468,0,0,0.0,KSIY 031653Z AUTO 00000KT 10SM BKN110 24/13 A3011 RMK AO2 SLP178 T02390133,2024-08-03T16:53:00Z,23.9,13.3,10+,30.11
KSHR,44.7603,-106.974,0,0,0.0,KSHR 031653Z AUTO 00000KT 10SM CLR 32/07 A3020 RMK AO2 SLP180 T03220072,2024-08-03T16:53:00Z,32.2,7.2,10+,30.20
KSGR,29.6197,-95.6575,20,4,4.60312,KSGR 031653Z 02004KT 10SM FEW033 34/27 A3000 RMK AO2 SLP159 T03440267,2024-08-03T16:53:00Z,34.4,26.7,10+,30.00
KSFF,47.6857,-117.321,VRB,4,4.60312,KSFF 031653Z COR VRB04KT 10SM SCT110 27/14 A3000 RMK AO2 RAB32E41 SLP140 P0000 T02670144,2024-08-03T16:53:00Z,26.7,14.4,10+,30.00
KSEG,40.8193,-76.8658,10,3,3.4523399999999995,KSEG 031653Z AUTO 01003KT 10SM BKN049 BKN065 OVC080 24/21 A2984 RMK AO2 LTG DSNT E-SW RAB27E38 TSB00E15B22E48 SLP100 P0001 T02440211,2024-08-03T16:53:00Z,24.4,21.1,10+,29.84
KSEA,47.4447,-122.314,230,3,3.4523399999999995,KSEA 031653Z 23003KT 10SM FEW007 SCT250 17/12 A3010 RMK AO2 SLP197 T01720122,2024-08-03T16:53:00Z,17.2,12.2,10+,30.10
KSDM,32.5758,-116.994,VRB,4,4.60312,KSDM 031653Z VRB04KT 10SM CLR 26/18 A2996 RMK AO2 SLP139 T02610183 $,2024-08-03T16:53:00Z,26.1,18.3,10+,29.96
KSDL,33.6124,-111.923,220,3,3.4523399999999995,KSDL 031653Z 22003KT 10SM CLR 38/15 A2996 RMK AO2 SLP113 T03780150,2024-08-03T16:53:00Z,37.8,15,10+,29.96
KSBM,43.7748,-87.849,80,4,4.60312,KSBM 031653Z AUTO 08004KT 10SM CLR 28/17 A3000 RMK AO2 SLP152 T02830167,2024-08-03T16:53:00Z,28.3,16.7,10+,30.00
KSBA,34.4241,-119.842,160,5,5.7539,KSBA 031653Z 16005KT 10SM CLR 18/15 A2996 RMK AO2 SLP144 FG E-W ALNG SHRELNE T01780150 $,2024-08-03T16:53:00Z,17.8,15,10+,29.96
KSAV,32.1313,-81.2023,170,9,10.357019999999999,KSAV 031653Z 17009KT 10SM FEW030 SCT080 SCT250 32/22 A2999 RMK AO2 SLP155 T03220222,2024-08-03T16:53:00Z,32.2,22.2,10+,29.99
KSAF,35.611,-106.096,0,0,0.0,KSAF 031653Z 00000KT 10SM CLR 28/11 A3038 RMK AO2 SLP172 T02780106,2024-08-03T16:53:00Z,27.8,10.6,10+,30.38
KSAC,38.5066,-121.496,0,0,0.0,KSAC 031653Z 00000KT 10SM CLR 27/12 A2994 RMK AO2 SLP137 T02720122,2024-08-03T16:53:00Z,27.2,12.2,10+,29.94
KRXE,43.8321,-111.808,0,0,0.0,KRXE 031653Z AUTO 00000KT 10SM CLR 26/12 A3016 RMK AO2 SLP161 T02610117,2024-08-03T16:53:00Z,26.1,11.7,10+,30.16
KRWL,41.8065,-107.195,70,4,4.60312,KRWL 031653Z AUTO 07004KT 10SM CLR 28/04 A3039 RMK AO2 SLP175 T02830039,2024-08-03T16:53:00Z,28.3,3.9,10+,30.39
KRWI,35.8502,-77.8951,190,10,11.5078,KRWI 031653Z AUTO 19010KT 10SM SCT030 32/24 A2995 RMK AO2 SLP140 T03170244,2024-08-03T16:53:00Z,31.7,24.4,10+,29.95
KRWF,44.5483,-95.0804,160,12,13.809359999999998,KRWF 031653Z AUTO 16012KT 10SM CLR 28/19 A3000 RMK AO2 SLP152 T02780189,2024-08-03T16:53:00Z,27.8,18.9,10+,30.00
KRVS,36.0424,-95.9902,20,6,6.904679999999999,KRVS 031653Z 02006KT 10SM CLR 32/17 A3006 RMK AO2 SLP182 T03220172,2024-08-03T16:53:00Z,32.2,17.2,10+,30.06
KRUE,35.2573,-93.095,VRB,4,4.60312,KRUE 031653Z AUTO VRB04KT 10SM FEW060 31/19 A3002 RMK AO2 SLP159 T03110194 $,2024-08-03T16:53:00Z,31.1,19.4,10+,30.02
KRTN,36.7418,-104.508,190,8,9.20624,KRTN 031653Z AUTO 19008KT 10SM CLR 27/12 A3036 RMK AO2 SLP189 T02670117 $,2024-08-03T16:53:00Z,26.7,11.7,10+,30.36
KRSW,26.538,-81.7567,120,12,13.809359999999998,KRSW 031653Z 12012KT 10SM FEW025 31/24 A2993 RMK AO2 SLP132 T03110239,2024-08-03T16:53:00Z,31.1,23.9,10+,29.93
KRSL,38.8725,-98.8093,180,16,18.41248,KRSL 031653Z AUTO 18016KT 10SM CLR 33/16 A3009 RMK AO2 SLP170 T03280156,2024-08-03T16:53:00Z,32.8,15.6,10+,30.09
KRQE,35.6571,-109.06,220,4,4.60312,KRQE 031653Z AUTO 22004KT 10SM CLR 26/11 A3041 RMK AO2 SLP163 T02560111,2024-08-03T16:53:00Z,25.6,11.1,10+,30.41
KRNT,47.4951,-122.214,0,0,0.0,KRNT 031653Z 00000KT 10SM CLR 19/14 A3009 RMK AO2 SLP193 T01940139,2024-08-03T16:53:00Z,19.4,13.9,10+,30.09
KRNM,33.038,-116.916,VRB,4,4.60312,KRNM 031653Z VRB04KT 10SM CLR 34/09 A2998 RMK AO2 SLP134 T03440094,2024-08-03T16:53:00Z,34.4,9.4,10+,29.98
KRMG,34.3483,-85.1616,340,6,6.904679999999999,KRMG 031653Z AUTO 34006KT 10SM SCT035 29/21 A2997 RMK AO2 SLP140 T02940206,2024-08-03T16:53:00Z,29.4,20.6,10+,29.97
KRME,43.2242,-75.3956,300,6,6.904679999999999,KRME 031653Z 30006KT 10SM SCT028 27/21 A2986 RMK AO2 SLP105 T02720206,2024-08-03T16:53:00Z,27.2,20.6,10+,29.86
KRKP,28.0837,-97.0467,310,6,6.904679999999999,KRKP 031653Z AUTO 31006KT 8SM CLR 33/23 A2999 RMK AO2 SLP157 T03280233,2024-08-03T16:53:00Z,32.8,23.3,8,29.99
KRIW,43.0622,-108.447,70,4,4.60312,KRIW 031653Z AUTO 07004KT 10SM CLR 29/03 A3029 RMK AO2 SLP172 T02890028,2024-08-03T16:53:00Z,28.9,2.8,10+,30.29
KRIL,39.5279,-107.72,VRB,3,3.4523399999999995,KRIL 031653Z AUTO VRB03KT 10SM CLR 28/04 A3030 RMK AO2 SLP174 T02830044,2024-08-03T16:53:00Z,28.3,4.4,10+,30.30
KRHI,45.6315,-89.4822,0,0,0.0,KRHI 031653Z AUTO 00000KT 10SM CLR 26/14 A3005 RMK AO2 SLP171 T02610139,2024-08-03T16:53:00Z,26.1,13.9,10+,30.05
KRDD,40.5146,-122.298,0,0,0.0,KRDD 031653Z 00000KT 5SM HZ FU SCT028 29/13 A2997 RMK AO2 SLP141 T02890128,2024-08-03T16:53:00Z,28.9,12.8,5,29.97
KRBG,43.2337,-123.358,350,6,6.904679999999999,KRBG 031653Z AUTO 35006KT 10SM SCT042 19/14 A3007 RMK AO2 SLP179 T01940139,2024-08-03T16:53:00Z,19.4,13.9,10+,30.07
KRBD,32.6782,-96.8677,40,6,6.904679999999999,KRBD 031653Z 04006KT 10SM CLR 34/20 A3001 RMK AO2 SLP151 T03440200,2024-08-03T16:53:00Z,34.4,20,10+,30.01
KRAL,33.9528,-117.435,0,0,0.0,KRAL 031653Z 00000KT 10SM CLR 32/11 A2997 RMK AO2 SLP129 T03170106,2024-08-03T16:53:00Z,31.7,10.6,10+,29.97
KRAC,42.7586,-87.8178,20,6,6.904679999999999,KRAC 031653Z AUTO 02006KT 10SM CLR 28/21 A2999 RMK AO2 SLP151 T02830206,2024-08-03T16:53:00Z,28.3,20.6,10+,29.99
KPWA,35.5411,-97.6472,VRB,6,6.904679999999999,KPWA 031653Z VRB06KT 10SM CLR 33/15 A3010 RMK AO2 SLP173 T03280150,2024-08-03T16:53:00Z,32.8,15,10+,30.10
KPUW,46.7438,-117.116,290,8,9.20624,KPUW 031653Z AUTO 29008KT 10SM CLR 26/13 A3007 RMK AO2 RAE02 SLP159 P0000 T02560133,2024-08-03T16:53:00Z,25.6,13.3,10+,30.07
KPUC,39.6089,-110.755,170,6,6.904679999999999,KPUC 031653Z AUTO 17006KT 10SM CLR 29/08 A3031 RMK AO2 SLP145 T02940078,2024-08-03T16:53:00Z,29.4,7.8,10+,30.31
KPUB,38.2887,-104.506,90,4,4.60312,KPUB 031653Z 09004KT 10SM CLR 30/13 A3021 RMK AO2 SLP157 T03000128,2024-08-03T16:53:00Z,30,12.8,10+,30.21
KPTK,42.6632,-83.41,310,8,9.20624,KPTK 031653Z 31008KT 10SM FEW039 FEW250 28/19 A2991 RMK AO2 SLP122 T02830189,2024-08-03T16:53:00Z,28.3,18.9,10+,29.91
KPSX,28.7248,-96.2535,260,3,3.4523399999999995,KPSX 031653Z AUTO 26003KT 10SM FEW029 32/26 A3000 RMK AO2 SLP159 T03220256 $,2024-08-03T16:53:00Z,32.2,25.6,10+,30.00
KPSP,33.8222,-116.504,360,3,3.4523399999999995,KPSP 031653Z 36003KT 10SM CLR 42/11 A2988 RMK AO2 SLP112 T04170106 $,2024-08-03T16:53:00Z,41.7,10.6,10+,29.88
KPSC,46.2695,-119.118,150,6,6.904679999999999,KPSC 031653Z 15006KT 10SM CLR 29/16 A2991 RMK AO2 SLP124 T02940161,2024-08-03T16:53:00Z,29.4,16.1,10+,29.91
KPRC,34.6491,-112.422,40,3,3.4523399999999995,KPRC 031653Z 04003KT 10SM CLR 29/14 A3027 RMK AO2 SLP158 T02890144,2024-08-03T16:53:00Z,28.9,14.4,10+,30.27
KPRB,35.6693,-120.629,330,4,4.60312,KPRB 031653Z AUTO 33004KT 10SM CLR 27/13 A2998 RMK AO2 SLP144 T02670133,2024-08-03T16:53:00Z,26.7,13.3,10+,29.98
KPQL,30.4631,-88.5316,0,0,0.0,KPQL 031653Z 00000KT 10SM SCT038 BKN060 BKN070 36/24 A2995 RMK AO2 SLP143 T03560244,2024-08-03T16:53:00Z,35.6,24.4,10+,29.95
KPOU,41.6257,-73.8816,250,9,10.357019999999999,KPOU 031653Z 25009KT 10SM SCT035 SCT044 30/22 A2983 RMK AO2 SLP095 T03000217 $,2024-08-03T16:53:00Z,30,21.7,10+,29.83
KPOF,36.7697,-90.3224,300,5,5.7539,KPOF 031653Z AUTO 30005KT 10SM BKN034 BKN050 30/21 A3001 RMK AO2 SLP157 T03000211 $,2024-08-03T16:53:00Z,30,21.1,10+,30.01
KPNS,30.478,-87.1869,0,0,0.0,KPNS 031653Z 00000KT 10SM SCT035 32/22 A2995 RMK AO2 SLP143 T03170222,2024-08-03T16:53:00Z,31.7,22.2,10+,29.95
KPNC,36.7369,-97.1024,140,5,5.7539,KPNC 031653Z AUTO 14005KT 10SM CLR 32/18 A3009 RMK AO2 SLP174 T03170178,2024-08-03T16:53:00Z,31.7,17.8,10+,30.09
KPMP,26.2464,-80.111,,,,KPMP 031653Z A2995 RMK AO2 SLP144,2024-08-03T16:53:00Z,,,,29.95
KPMD,34.6295,-118.083,30,5,5.7539,KPMD 031653Z 03005KT 10SM CLR 33/07 A3006 RMK AO2 SLP145 T03330072 $,2024-08-03T16:53:00Z,33.3,7.2,10+,30.06
KPKD,46.8971,-95.0695,170,15,17.261699999999998,KPKD 031653Z AUTO 17015KT 10SM CLR 26/17 A2995 RMK AO2 SLP137 T02610167 $,2024-08-03T16:53:00Z,26.1,16.7,10+,29.95
KPKB,39.3395,-81.4438,280,6,6.904679999999999,KPKB 031653Z 28006KT 10SM BKN008 BKN022 24/21 A2992 RMK AO2 SLP126 T02440211 PNO $,2024-08-03T16:53:00Z,24.4,21.1,10+,29.92
KPIR,44.3819,-100.286,250,7,8.05546,KPIR 031653Z AUTO 25007KT 10SM CLR 33/15 A2994 RMK AO2 SLP120 T03280150,2024-08-03T16:53:00Z,32.8,15,10+,29.94
KPIL,26.1597,-97.3378,VRB,3,3.4523399999999995,KPIL 031653Z AUTO VRB03KT 10SM FEW036 32/24 A3000 RMK AO2 SLP157 T03170244,2024-08-03T16:53:00Z,31.7,24.4,10+,30.00
KPIH,42.9197,-112.572,VRB,4,4.60312,KPIH 031653Z VRB04KT 10SM CLR 29/08 A3015 RMK AO2 SLP150 T02890083,2024-08-03T16:53:00Z,28.9,8.3,10+,30.15
KPIE,27.9126,-82.6855,110,9,10.357019999999999,KPIE 031653Z 11009KT 10SM FEW035 33/24 A2995 RMK AO2 LTG DSNT NE AND SE SLP142 T03280244,2024-08-03T16:53:00Z,32.8,24.4,10+,29.95
KPHD,40.4703,-81.4218,10,3,3.4523399999999995,KPHD 031653Z AUTO 01003KT 10SM CLR 27/21 A2991 RMK AO2 SLP121 T02670206,2024-08-03T16:53:00Z,26.7,20.6,10+,29.91
KPGD,26.9185,-81.9939,130,12,13.809359999999998,KPGD 031653Z 13012G20KT 10SM FEW033 BKN110 33/23 A2996 RMK AO2 SLP142 T03280233,2024-08-03T16:53:00Z,32.8,23.3,10+,29.96
KPGA,36.9211,-111.449,300,3,3.4523399999999995,KPGA 031653Z AUTO 30003KT 10SM CLR 31/13 A3021 RMK AO2 SLP154 T03110128 $,2024-08-03T16:53:00Z,31.1,12.8,10+,30.21
KPDX,45.5958,-122.609,10,3,3.4523399999999995,KPDX 031653Z 01003KT 10SM FEW011 FEW150 SCT210 BKN250 21/12 A3009 RMK AO2 SLP187 ACC NE T02110122,2024-08-03T16:53:00Z,21.1,12.2,10+,30.09
KPDT,45.6975,-118.834,220,9,10.357019999999999,KPDT 031653Z 22009KT 10SM SCT110 29/12 A3000 RMK AO2 SLP136 T02940122 $,2024-08-03T16:53:00Z,29.4,12.2,10+,30.00
KPDK,33.8783,-84.298,VRB,4,4.60312,KPDK 031653Z VRB04KT 10SM FEW031 29/22 A2999 RMK AO2 SLP134 T02940217,2024-08-03T16:53:00Z,29.4,21.7,10+,29.99
KPBI,26.6851,-80.0992,130,14,16.11092,KPBI 031653Z 13014KT 10SM FEW033 SCT180 BKN250 29/25 A2997 RMK AO2 RAE1558B07E12 TSB01E28 SLP149 P0000 T02890250 $,2024-08-03T16:53:00Z,28.9,25,10+,29.97
KPBG,44.6392,-73.4631,130,10,11.5078,KPBG 031653Z AUTO 13010KT 10SM CLR 29/22 A2978 RMK AO2 SLP083 T02890222,2024-08-03T16:53:00Z,28.9,22.2,10+,29.78
KPBF,34.1798,-91.9344,30,6,6.904679999999999,KPBF 031653Z AUTO 03006KT 10SM CLR 32/ A3002 RMK AO2 SLP162 T0322 $,2024-08-03T16:53:00Z,32.2,,10+,30.02
KPAH,37.0652,-88.7793,360,5,5.7539,KPAH 031653Z 36005KT 10SM FEW025 31/23 A2999 RMK AO2 SLP151 T03060228,2024-08-03T16:53:00Z,30.6,22.8,10+,29.99
KPAE,47.9232,-122.283,230,5,5.7539,KPAE 031653Z 23005KT 8SM R16R/5000VP6000FT FEW003 18/14 A3010 RMK AO2 SLP192 T01780144,2024-08-03T16:53:00Z,17.8,14.4,8,30.10
KP68,39.602,-116.006,280,5,5.7539,KP68 031653Z AUTO 28005KT 29/08 A3025 RMK AO1 SLP139 T02890083,2024-08-03T16:53:00Z,28.9,8.3,,30.25
KOXB,38.3091,-75.1234,200,7,8.05546,KOXB 031653Z AUTO 20007G15KT 10SM CLR 27/23 A2990 RMK AO2 SLP123 T02720233 PWINO,2024-08-03T16:53:00Z,27.2,23.3,10+,29.90
KOWD,42.1912,-71.1732,260,12,13.809359999999998,KOWD 031653Z 26012G17KT 10SM FEW042 33/23 A2978 RMK AO2 SLP084 T03280233,2024-08-03T16:53:00Z,32.8,23.3,10+,29.78
KOVS,43.1561,-90.6775,VRB,3,3.4523399999999995,KOVS 031653Z AUTO VRB03KT 10SM CLR 31/18 A3000 RMK AO2 SLP153 T03060183,2024-08-03T16:53:00Z,30.6,18.3,10+,30.00
KOVE,39.4943,-121.622,280,3,3.4523399999999995,KOVE 031653Z AUTO 28003KT 10SM CLR 28/16 A2996 RMK AO2 SLP145 T02780161,2024-08-03T16:53:00Z,27.8,16.1,10+,29.96
KOTM,41.1008,-92.4445,0,0,0.0,KOTM 031653Z AUTO 00000KT 10SM SCT060 29/22 A3003 RMK AO2 SLP161 T02890217,2024-08-03T16:53:00Z,28.9,21.7,10+,30.03
KOSU,40.0784,-83.0782,0,0,0.0,KOSU 031653Z 00000KT 10SM SCT027 BKN035 BKN043 27/21 A2992 RMK AO2 SLP124 T02720206,2024-08-03T16:53:00Z,27.2,20.6,10+,29.92
KOSH,43.9669,-88.5582,70,5,5.7539,KOSH 031653Z 07005KT 10SM CLR 28/18 A3000 RMK AO2 SLP143 T02780178,2024-08-03T16:53:00Z,27.8,17.8,10+,30.00
KOQT,36.023,-84.2336,0,0,0.0,KOQT 031653Z AUTO 00000KT 7SM -RA SCT031 BKN050 OVC065 27/20 A2998 RMK AO2 RAB50 SLP137 P0000 T02670200,2024-08-03T16:53:00Z,26.7,20,7,29.98
KOPF,25.9102,-80.2828,110,20,23.0156,KOPF 031653Z 11020G30KT 10SM SCT028 BKN034 32/24 A2994 RMK AO2 PK WND 13030/1629 SLP138 T03170244,2024-08-03T16:53:00Z,31.7,24.4,10+,29.94
KONT,34.0531,-117.577,0,0,0.0,KONT 031653Z 00000KT 10SM FEW040 31/06 A2997 RMK AO2 SLP129 FU FEW040 T03060056,2024-08-03T16:53:00Z,30.6,5.6,10+,29.97
KONO,44.0143,-117.008,50,3,3.4523399999999995,KONO 031653Z AUTO 05003KT 9SM CLR 31/15 A2997 RMK AO2 SLP128 T03060150,2024-08-03T16:53:00Z,30.6,15,9,29.97
KOMK,48.4611,-119.521,350,11,12.658579999999999,KOMK 031653Z AUTO 35011KT 10SM CLR 33/11 A2992 RMK AO2 SLP119 T03280111,2024-08-03T16:53:00Z,32.8,11.1,10+,29.92
KOLF,48.0942,-105.578,60,10,11.5078,KOLF 031653Z AUTO 06010G18KT 10SM CLR 27/11 A3013 RMK AO2 SLP186 T02720111,2024-08-03T16:53:00Z,27.2,11.1,10+,30.13
KOJC,38.85,-94.7395,80,4,4.60312,KOJC 031653Z 08004KT 10SM CLR 31/19 A3009 RMK AO2 SLP174 T03110194,2024-08-03T16:53:00Z,31.1,19.4,10+,30.09
KOGD,41.1941,-112.017,VRB,3,3.4523399999999995,KOGD 031653Z VRB03KT 10SM CLR 32/07 A3015 RMK AO2 RAB35E44 SLP134 P0000 T03170072,2024-08-03T16:53:00Z,31.7,7.2,10+,30.15
KOGB,33.4637,-80.8534,200,8,9.20624,KOGB 031653Z AUTO 20008KT 10SM SCT031 32/26 A2997 RMK AO2 SLP145 T03170256 $,2024-08-03T16:53:00Z,31.7,25.6,10+,29.97
KODO,31.925,-102.387,0,0,0.0,KODO 031653Z AUTO 00000KT 10SM CLR 34/14 A3016 RMK AO2 SLP154 T03390144,2024-08-03T16:53:00Z,33.9,14.4,10+,30.16
KOAK,37.7178,-122.233,280,6,6.904679999999999,KOAK 031653Z 28006KT 10SM FEW004 FEW010 SCT170 20/15 A2999 RMK AO2 SLP155 T02000150,2024-08-03T16:53:00Z,20,15,10+,29.99
KNUI,38.152,-76.432,220,12,13.809359999999998,KNUI 031653Z AUTO 22012KT 9SM FEW027 30/26 A2988 RMK AO2 SLP117 T03000261,2024-08-03T16:53:00Z,30,26.1,9,29.88
KNSI,33.2337,-119.456,310,10,11.5078,KNSI 031653Z AUTO 31010KT 10SM CLR 19/ A2998 RMK AO2 SLP147 T0189 $,2024-08-03T16:53:00Z,18.9,,10+,29.98
KNRS,32.563,-117.111,310,9,10.357019999999999,KNRS 031653Z AUTO 31009KT 10SM CLR A2997 RMK AO2 SLP150 $,2024-08-03T16:53:00Z,,,10+,29.97
KNQX,24.5801,-81.6829,120,22,25.317159999999998,KNQX 031653Z 12022G30KT 10SM SCT025 BKN045 BKN150 31/28 A2983 RMK AO2 PK WND 12036/1635 RAE07 SLP100 CB DSNT NE T2 SET P0000 T03060278 $,2024-08-03T16:53:00Z,30.6,27.8,10+,29.83
KNIP,30.2346,-81.6746,190,7,8.05546,KNIP 031653Z 19007KT 10SM SCT032 SCT250 32/24 A3000 RMK AO2 SLP154 T03220239 $,2024-08-03T16:53:00Z,32.2,23.9,10+,30.00
KNEW,30.0494,-90.029,310,6,6.904679999999999,KNEW 031653Z 31006KT 10SM CLR 33/27 A2997 RMK AO2 LTG DSNT S SLP141 T03330272,2024-08-03T16:53:00Z,33.3,27.2,10+,29.97
KMYV,39.102,-121.569,340,3,3.4523399999999995,KMYV 031653Z AUTO 34003KT 10SM CLR 31/14 A2994 RMK AO2 SLP143 T03060139,2024-08-03T16:53:00Z,30.6,13.9,10+,29.94
KMYF,32.8145,-117.137,VRB,4,4.60312,KMYF 031653Z VRB04KT 10SM CLR 27/17 A2996 RMK AO2 SLP138 T02720172,2024-08-03T16:53:00Z,27.2,17.2,10+,29.96
KMWT,34.5466,-93.5779,VRB,5,5.7539,KMWT 031653Z AUTO VRB05KT 10SM FEW043 SCT050 33/19 A3002 RMK AO2 SLP150 T03280194,2024-08-03T16:53:00Z,32.8,19.4,10+,30.02
KMWL,32.7816,-98.0602,280,5,5.7539,KMWL 031653Z AUTO 28005KT 10SM CLR 32/21 A3003 RMK AO2 SLP153 T03220211,2024-08-03T16:53:00Z,32.2,21.1,10+,30.03
KMVY,41.393,-70.6159,220,13,14.960139999999999,KMVY 031653Z 22013KT 10SM CLR 28/23 A2983 RMK AO2 SLP100 T02780233,2024-08-03T16:53:00Z,27.8,23.3,10+,29.83
KMTO,39.4744,-88.2724,350,6,6.904679999999999,KMTO 031653Z AUTO 35006KT 10SM CLR 29/22 A2999 RMK AO2 SLP148 T02940222 $,2024-08-03T16:53:00Z,29.4,22.2,10+,29.99
KMTH,24.7262,-81.0477,120,20,23.0156,KMTH 031653Z AUTO 12020G34KT 10SM FEW024 SCT034 BKN046 30/25 A2987 RMK AO2 PK WND 13038/1622 RAE00B19E28 SLP113 P0000 T03000250,2024-08-03T16:53:00Z,30,25,10+,29.87
KMSY,29.9974,-90.2777,300,5,5.7539,KMSY 031653Z COR 30005KT 10SM SCT030 BKN150 BKN250 34/26 A2996 RMK AO2 SLP148 CB DSNT SE AND W T03440256,2024-08-03T16:53:00Z,34.4,25.6,10+,29.96
KMSS,44.9334,-74.8484,210,7,8.05546,KMSS 031653Z AUTO 21007KT 10SM CLR 28/22 A2980 RMK AO2 SLP087 T02830222,2024-08-03T16:53:00Z,28.3,22.2,10+,29.80
KMSP,44.8852,-93.2313,170,7,8.05546,KMSP 031653Z 17007KT 10SM CLR 27/15 A3002 RMK AO2 SLP161 T02670150,2024-08-03T16:53:00Z,26.7,15,10+,30.02
KMSO,46.9208,-114.094,180,3,3.4523399999999995,KMSO 031653Z 18003KT 10SM CLR 24/08 A3008 RMK AO2 SLP158 T02390078,2024-08-03T16:53:00Z,23.9,7.8,10+,30.08
KMSN,43.1407,-89.3452,360,7,8.05546,KMSN 031653Z 36007KT 10SM FEW025 29/22 A2998 RMK AO2 SLP147 T02890217,2024-08-03T16:53:00Z,28.9,21.7,10+,29.98
KMSL,34.7439,-87.5997,30,7,8.05546,KMSL 031653Z AUTO 03007KT 10SM SCT037 31/20 A2999 RMK AO2 SLP148 T03060200,2024-08-03T16:53:00Z,30.6,20,10+,29.99
KMOD,37.6254,-120.955,170,3,3.4523399999999995,KMOD 031653Z 17003KT 10SM CLR 31/14 A2993 RMK AO2 SLP134 T03060139,2024-08-03T16:53:00Z,30.6,13.9,10+,29.93
KMMV,45.1957,-123.134,0,0,0.0,KMMV 031653Z AUTO 00000KT 10SM CLR 21/16 A3008 RMK AO2 SLP185 T02110156,2024-08-03T16:53:00Z,21.1,15.6,10+,30.08
KMMK,41.5097,-72.8278,270,6,6.904679999999999,KMMK 031653Z AUTO 27006KT 10SM SCT039 32/21 A2981 RMK AO2 SLP093 T03170206,2024-08-03T16:53:00Z,31.7,20.6,10+,29.81
KMLU,32.5155,-92.03,90,5,5.7539,KMLU 031653Z 09005KT 10SM CLR 34/22 A3000 RMK AO2 SLP157 T03440222,2024-08-03T16:53:00Z,34.4,22.2,10+,30.00
KMLT,45.6478,-68.6925,VRB,3,3.4523399999999995,KMLT 031653Z AUTO VRB03KT 10SM CLR 28/21 A2977 RMK AO2 SLP082 T02830211,2024-08-03T16:53:00Z,28.3,21.1,10+,29.77
KMLS,46.4265,-105.883,70,6,6.904679999999999,KMLS 031653Z AUTO 07006G14KT 10SM CLR 28/12 A3012 RMK AO2 SLP174 T02780122,2024-08-03T16:53:00Z,27.8,12.2,10+,30.12
KMLP,47.4548,-115.671,0,0,0.0,KMLP 031653Z AUTO 00000KT 10SM BKN120 23/08 A3026 RMK AO2 LTG DSNT W SLP125 T02330083,2024-08-03T16:53:00Z,23.3,8.3,10+,30.26
KMLC,34.8824,-95.7815,VRB,3,3.4523399999999995,KMLC 031653Z AUTO VRB03KT 10SM CLR 32/19 A3005 RMK AO2 SLP167 T03170189,2024-08-03T16:53:00Z,31.7,18.9,10+,30.05
KMKO,35.6576,-95.3658,350,6,6.904679999999999,KMKO 031653Z AUTO 35006KT 10SM FEW050 33/18 A3007 RMK AO2 SLP174 T03330183,2024-08-03T16:53:00Z,33.3,18.3,10+,30.07
KMKL,35.5933,-88.917,VRB,5,5.7539,KMKL 031653Z VRB05KT 10SM FEW033 31/22 A3001 RMK AO2 SLP157 T03060217,2024-08-03T16:53:00Z,30.6,21.7,10+,30.01
KMIW,42.1106,-92.9163,10,6,6.904679999999999,KMIW 031653Z AUTO 01006KT 10SM FEW070 29/18 A3003 RMK AO2 SLP163 T02890178,2024-08-03T16:53:00Z,28.9,17.8,10+,30.03
KMIE,40.2345,-85.3936,20,8,9.20624,KMIE 031653Z 02008KT 10SM SCT029 28/21 A2995 RMK AO2 SLP131 T02830211,2024-08-03T16:53:00Z,28.3,21.1,10+,29.95
KMIC,45.0623,-93.3511,130,5,5.7539,KMIC 031653Z 13005KT 10SM CLR 28/15 A3000 RMK AO2 SLP153 T02780150,2024-08-03T16:53:00Z,27.8,15,10+,30.00
KMIA,25.7881,-80.3169,110,18,20.714039999999997,KMIA 031653Z COR 11018G29KT 10SM SCT027 BKN040 BKN180 BKN250 31/24 A2993 RMK AO2 PK WND 12032/1619 SLP136 CB DSNT S MOV NW T03110244 $,2024-08-03T16:53:00Z,31.1,24.4,10+,29.93
KMHT,42.9245,-71.4377,VRB,5,5.7539,KMHT 031653Z VRB05KT 10SM FEW017 BKN030 BKN060 BKN150 29/22 A2979 RMK AO2 RAE1556 SLP094 P0000 T02940217,2024-08-03T16:53:00Z,29.4,21.7,10+,29.79
KMHE,43.7743,-98.0384,210,11,12.658579999999999,KMHE 031653Z AUTO 21011G19KT 10SM CLR 32/19 A2998 RMK AO2 SLP138 T03220194,2024-08-03T16:53:00Z,32.2,19.4,10+,29.98
KMGY,39.5918,-84.2263,340,7,8.05546,KMGY 031653Z AUTO 34007KT 10SM FEW026 SCT055 28/20 A2993 RMK AO2 SLP128 T02780200,2024-08-03T16:53:00Z,27.8,20,10+,29.93
KMGW,39.6498,-79.9206,180,6,6.904679999999999,KMGW 031653Z 18006KT 10SM -RA SCT021 BKN075 OVC100 25/22 A2992 RMK AO2 RAB42 SLP120 P0000 T02500222,2024-08-03T16:53:00Z,25,22.2,10+,29.92
KMGM,32.2997,-86.4074,270,6,6.904679999999999,KMGM 031653Z 27006KT 10SM FEW031 32/24 A2995 RMK AO2 SLP139 T03220239,2024-08-03T16:53:00Z,32.2,23.9,10+,29.95
KMFR,42.375,-122.877,0,0,0.0,KMFR 031653Z AUTO 00000KT 10SM CLR 25/17 A3001 RMK AO2 SLP148 T02500167 $,2024-08-03T16:53:00Z,25,16.7,10+,30.01
KMFE,26.1791,-98.2445,180,3,3.4523399999999995,KMFE 031653Z 18003KT 9SM CLR 33/22 A3001 RMK AO2 SLP159 T03330217,2024-08-03T16:53:00Z,33.3,21.7,9,30.01
KMDW,41.7841,-87.7551,240,3,3.4523399999999995,KMDW 031653Z 24003KT 10SM FEW045 31/19 A2995 RMK AO2 SLP131 T03110194,2024-08-03T16:53:00Z,31.1,19.4,10+,29.95
KMCW,43.1543,-93.3262,360,4,4.60312,KMCW 031653Z AUTO 36004KT 10SM CLR 28/17 A3006 RMK AO2 SLP166 T02780167,2024-08-03T16:53:00Z,27.8,16.7,10+,30.06
KMCO,28.4182,-81.3241,130,15,17.261699999999998,KMCO 031653Z 13015G22KT 10SM FEW030TCU SCT085 BKN250 31/24 A2998 RMK AO2 LTG DSNT ALQDS RAE10 TSE21B31E49 SLP152 FRQ LTGICCG DSNT NW CB DSNT NE NW MOV NW TCU E P0000 T03060244,2024-08-03T16:53:00Z,30.6,24.4,10+,29.98
KMCN,32.6889,-83.6529,230,6,6.904679999999999,KMCN 031653Z 23006KT 10SM FEW029 SCT100 31/25 A2996 RMK AO2 SLP139 T03060250 $,2024-08-03T16:53:00Z,30.6,25,10+,29.96
KMCK,40.204,-100.59,VRB,4,4.60312,KMCK 031653Z AUTO VRB04KT 10SM CLR 31/17 A3012 RMK AO2 SLP171 T03110167 $,2024-08-03T16:53:00Z,31.1,16.7,10+,30.12
KMCI,39.2975,-94.7309,0,0,0.0,KMCI 031653Z COR 00000KT 10SM FEW050 BKN250 31/22 A3008 RMK AO2 SLP174 T03110217 $,2024-08-03T16:53:00Z,31.1,21.7,10+,30.08
KMCE,37.286,-120.518,VRB,3,3.4523399999999995,KMCE 031653Z AUTO VRB03KT 10SM CLR 31/15 A2994 RMK AO2 SLP136 T03060150,2024-08-03T16:53:00Z,30.6,15,10+,29.94
KMCB,31.1823,-90.4721,350,5,5.7539,KMCB 031653Z AUTO 35005KT 10SM CLR 33/24 A2997 RMK AO2 LTG DSNT NW SLP141 T03330239,2024-08-03T16:53:00Z,33.3,23.9,10+,29.97
KMBS,43.5281,-84.0813,340,11,12.658579999999999,KMBS 031653Z 34011KT 10SM CLR 30/14 A2992 RMK AO2 SLP128 T03000144,2024-08-03T16:53:00Z,30,14.4,10+,29.92
KMAI,30.837,-85.1835,180,7,8.05546,KMAI 031653Z AUTO 18007KT 10SM FEW050 32/26 A2997 RMK AO2 SLP146 T03220256,2024-08-03T16:53:00Z,32.2,25.6,10+,29.97
KMAF,31.9475,-102.209,VRB,4,4.60312,KMAF 031653Z VRB04KT 10SM CLR 34/16 A3014 RMK AO2 SLP150 T03390156,2024-08-03T16:53:00Z,33.9,15.6,10+,30.14
KMAE,36.9851,-120.111,200,3,3.4523399999999995,KMAE 031653Z AUTO 20003KT 10SM CLR 28/19 A2996 RMK AO2 SLP142 T02830194 $,2024-08-03T16:53:00Z,28.3,19.4,10+,29.96
KLXV,39.228,-106.316,280,4,4.60312,KLXV 031653Z AUTO 28004KT 10SM CLR 21/02 A3064 RMK AO2 SLP176 T02110017,2024-08-03T16:53:00Z,21.1,1.7,10+,30.64
KLXT,38.9577,-94.3712,60,6,6.904679999999999,KLXT 031653Z AUTO 06006KT 10SM FEW037 28/21 A3008 RMK AO2 SLP178 T02780206 $,2024-08-03T16:53:00Z,27.8,20.6,10+,30.08
KLWV,38.7604,-87.599,360,5,5.7539,KLWV 031653Z AUTO 36005KT 10SM FEW036 30/21 A2998 RMK AO2 SLP147 T03000211,2024-08-03T16:53:00Z,30,21.1,10+,29.98
KLWD,40.6306,-93.9005,30,3,3.4523399999999995,KLWD 031653Z AUTO 03003KT 10SM CLR 32/21 A3005 RMK AO2 SLP165 T03170211,2024-08-03T16:53:00Z,31.7,21.1,10+,30.05
KLVS,35.6558,-105.139,210,7,8.05546,KLVS 031653Z AUTO 21007G17KT 10SM CLR 26/11 A3042 RMK AO2 SLP183 T02610106,2024-08-03T16:53:00Z,26.1,10.6,10+,30.42
KLVM,45.6984,-110.442,90,7,8.05546,KLVM 031653Z AUTO 09007KT 10SM CLR 27/06 A3023 RMK AO2 SLP177 T02670061,2024-08-03T16:53:00Z,26.7,6.1,10+,30.23
KLVK,37.6931,-121.815,270,7,8.05546,KLVK 031653Z 27007KT 10SM CLR 26/13 A2996 RMK AO2 SLP140 T02560133 $,2024-08-03T16:53:00Z,25.6,13.3,10+,29.96
KLVJ,29.5192,-95.2423,VRB,4,4.60312,KLVJ 031653Z AUTO VRB04KT 10SM FEW055 34/25 A3001 RMK AO2 SLP162 T03390250,2024-08-03T16:53:00Z,33.9,25,10+,30.01
KLUK,39.106,-84.4161,360,4,4.60312,KLUK 031653Z 36004KT 10SM BKN033 OVC039 28/21 A2993 RMK AO2 SLP130 T02780206,2024-08-03T16:53:00Z,27.8,20.6,10+,29.93
KLSE,43.8792,-91.253,VRB,6,6.904679999999999,KLSE 031653Z VRB06KT 10SM CLR 29/16 A3001 RMK AO2 SLP150 T02940161,2024-08-03T16:53:00Z,29.4,16.1,10+,30.01
KLPR,41.3463,-82.1788,350,9,10.357019999999999,KLPR 031653Z AUTO 35009KT 10SM FEW018 26/22 A2991 RMK AO2 LTG DSNT S SLP124 T02610217,2024-08-03T16:53:00Z,26.1,21.7,10+,29.91
KLOZ,37.0896,-84.0688,260,9,10.357019999999999,KLOZ 031653Z AUTO 26009KT 10SM -RA FEW030 BKN050 BKN065 25/21 A2998 RMK AO2 RAB43 SLP138 P0001 T02500211,2024-08-03T16:53:00Z,25,21.1,10+,29.98
KLOL,40.0685,-118.57,200,7,8.05546,KLOL 031653Z AUTO 20007KT 7SM CLR 32/06 A3010 RMK AO2 SLP136 T03220061,2024-08-03T16:53:00Z,32.2,6.1,7,30.10
KLNS,40.1206,-76.2944,150,7,8.05546,KLNS 031653Z 15007KT 10SM SCT065 SCT080 30/23 A2984 RMK AO2 SLP100 T03000228,2024-08-03T16:53:00Z,30,22.8,10+,29.84
KLND,42.8154,-108.726,150,5,5.7539,KLND 031653Z AUTO 15005KT 10SM CLR 30/03 A3028 RMK AO2 SLP170 T03000028,2024-08-03T16:53:00Z,30,2.8,10+,30.28
KLMT,42.147,-121.726,80,3,3.4523399999999995,KLMT 031653Z 08003KT 10SM CLR 26/16 A3018 RMK AO2 SLP164 T02560156,2024-08-03T16:53:00Z,25.6,15.6,10+,30.18
KLLQ,33.636,-91.7555,80,6,6.904679999999999,KLLQ 031653Z AUTO 08006KT 10SM FEW037 32/22 A3002 RMK AO2 SLP160 T03220217,2024-08-03T16:53:00Z,32.2,21.7,10+,30.02
KLKV,42.1538,-120.403,160,7,8.05546,KLKV 031653Z AUTO 16007KT 10SM CLR 26/07 A3023 RMK AO2 SLP187 T02610067,2024-08-03T16:53:00Z,26.1,6.7,10+,30.23
KLIT,34.7273,-92.2358,80,5,5.7539,KLIT 031653Z 08005KT 10SM FEW036 32/21 A3002 RMK AO2 SLP166 T03220211,2024-08-03T16:53:00Z,32.2,21.1,10+,30.02
KLHX,38.0495,-103.513,0,0,0.0,KLHX 031653Z AUTO 00000KT 10SM CLR 28/14 A3022 RMK AO2 SLP168 T02780139,2024-08-03T16:53:00Z,27.8,13.9,10+,30.22
KLGB,33.8118,-118.147,0,0,0.0,KLGB 031653Z 00000KT 10SM CLR 26/16 A2996 RMK AO2 SLP144 T02560161,2024-08-03T16:53:00Z,25.6,16.1,10+,29.96
KLFT,30.1986,-91.9896,300,11,12.658579999999999,KLFT 031653Z 30011G17KT 260V320 10SM SCT031 SCT045 SCT055 35/26 A2997 RMK AO2 LTG DSNT E SLP147 T03500256,2024-08-03T16:53:00Z,35,25.6,10+,29.97
KLFK,31.2359,-94.7546,0,0,0.0,KLFK 031653Z AUTO 00000KT 10SM CLR 33/25 A2999 RMK AO2 SLP152 T03330250,2024-08-03T16:53:00Z,33.3,25,10+,29.99
KLEE,28.8214,-81.8006,110,10,11.5078,KLEE 031653Z 11010KT 10SM CLR 32/25 A2999 RMK AO2 LTG DSNT E AND SE RAE26 SLP154 P0000 T03220250,2024-08-03T16:53:00Z,32.2,25,10+,29.99
KLEB,43.6271,-72.3054,0,0,0.0,KLEB 031653Z 00000KT 10SM FEW014 28/22 A2982 RMK AO2 SLP085 T02780217,2024-08-03T16:53:00Z,27.8,21.7,10+,29.82
KLCH,30.1255,-93.2277,VRB,4,4.60312,KLCH 031653Z VRB04KT 10SM CLR 34/24 A2999 RMK AO2 SLP162 T03390244,2024-08-03T16:53:00Z,33.9,24.4,10+,29.99
KLBX,29.1154,-95.4632,0,0,0.0,KLBX 031653Z AUTO 00000KT 10SM CLR 33/26 A3000 RMK AO2 SLP160 T03280261 $,2024-08-03T16:53:00Z,32.8,26.1,10+,30.00
KLBF,41.122,-100.669,150,5,5.7539,KLBF 031653Z AUTO 15005KT 10SM CLR 31/18 A3012 RMK AO2 SLP164 T03060178 $,2024-08-03T16:53:00Z,30.6,17.8,10+,30.12
KLBB,33.6658,-101.823,100,12,13.809359999999998,KLBB 031653Z 10012G20KT 10SM BKN160 31/18 A3019 RMK AO2 SLP163 T03110183,2024-08-03T16:53:00Z,31.1,18.3,10+,30.19
KLAX,33.9382,-118.387,270,6,6.904679999999999,KLAX 031653Z 27006KT 10SM FEW005 21/16 A2997 RMK AO2 SLP147 T02110161 $,2024-08-03T16:53:00Z,21.1,16.1,10+,29.97
KLAW,34.5577,-98.4172,40,7,8.05546,KLAW 031653Z 04007KT 10SM CLR 36/14 A3007 RMK AO2 SLP167 T03560144,2024-08-03T16:53:00Z,35.6,14.4,10+,30.07
KLAR,41.3165,-105.673,VRB,3,3.4523399999999995,KLAR 031653Z AUTO VRB03KT 10SM CLR 29/01 A3042 RMK AO2 SLP163 T02940011,2024-08-03T16:53:00Z,29.4,1.1,10+,30.42
KLAN,42.7761,-84.5997,360,5,5.7539,KLAN 031653Z 36005KT 10SM CLR 28/19 A2994 RMK AO2 SLP134 T02830189,2024-08-03T16:53:00Z,28.3,18.9,10+,29.94
KLAA,38.0718,-102.687,VRB,5,5.7539,KLAA 031653Z AUTO VRB05KT 10SM CLR 29/14 A3019 RMK AO2 SLP168 T02890144,2024-08-03T16:53:00Z,28.9,14.4,10+,30.19
KJLN,37.1522,-94.4952,20,7,8.05546,KJLN 031653Z 02007KT 10SM FEW055 FEW120 31/17 A3008 RMK AO2 SLP174 T03110172,2024-08-03T16:53:00Z,31.1,17.2,10+,30.08
KJKL,37.5913,-83.3137,VRB,4,4.60312,KJKL 031653Z AUTO VRB04KT 10SM FEW017 FEW039 SCT070 25/22 A2997 RMK AO2 RAB02E39 SLP133 P0003 T02500217,2024-08-03T16:53:00Z,25,21.7,10+,29.97
KJER,42.7274,-114.455,110,12,13.809359999999998,KJER 031653Z AUTO 11012KT 10SM CLR 30/08 A3009 RMK AO2 SLP137 T03000083 $,2024-08-03T16:53:00Z,30,8.3,10+,30.09
KJEF,38.5945,-92.1567,270,4,4.60312,KJEF 031653Z 27004KT 10SM FEW037 30/21 A3004 RMK AO2 SLP159 T03000211,2024-08-03T16:53:00Z,30,21.1,10+,30.04
KJBR,35.8357,-90.6442,100,4,4.60312,KJBR 031653Z AUTO 10004KT 10SM CLR 30/21 A3002 RMK AO2 SLP162 T03000211 $,2024-08-03T16:53:00Z,30,21.1,10+,30.02
KIXD,38.8221,-94.8902,0,0,0.0,KIXD 031653Z 00000KT 10SM CLR 31/21 A3010 RMK AO2 SLP178 T03110211,2024-08-03T16:53:00Z,31.1,21.1,10+,30.10
KIWI,43.9639,-69.7114,0,0,0.0,KIWI 031653Z AUTO 00000KT 10SM OVC006 23/21 A2981 RMK AO2 SLP093 T02330211,2024-08-03T16:53:00Z,23.3,21.1,10+,29.81
KITR,39.2415,-102.282,220,6,6.904679999999999,KITR 031653Z AUTO 22006KT 10SM CLR 28/ A3022 RMK AO2 SLP179 T0278 $,2024-08-03T16:53:00Z,27.8,,10+,30.22
KIPL,32.8346,-115.577,,,,KIPL 031653Z AUTO 10SM 41/ A2983 RMK AO2 SLP102 T0406 PWINO $,2024-08-03T16:53:00Z,40.6,,10+,29.83
KIML,40.5106,-101.624,0,0,0.0,KIML 031653Z AUTO 00000KT 10SM CLR 31/14 A3015 RMK AO2 SLP173 T03110139,2024-08-03T16:53:00Z,31.1,13.9,10+,30.15
KILM,34.2668,-77.8999,200,15,17.261699999999998,KILM 031653Z 20015G21KT 10SM FEW035 33/23 A3000 RMK AO2 LTG DSNT W AND NW RAB10E23 SLP158 P0000 T03280233,2024-08-03T16:53:00Z,32.8,23.3,10+,30.00
KIDA,43.5204,-112.068,330,5,5.7539,KIDA 031653Z 33005KT 9SM CLR 27/13 A3017 RMK AO2 SLP170 T02670128,2024-08-03T16:53:00Z,26.7,12.8,9,30.17
KICT,37.6475,-97.43,130,4,4.60312,KICT 031653Z 13004KT 10SM FEW180 SCT200 BKN250 31/18 A3010 RMK AO2 SLP177 T03110178,2024-08-03T16:53:00Z,31.1,17.8,10+,30.10
KICR,43.391,-99.8462,190,9,10.357019999999999,KICR 031653Z AUTO 19009KT 10SM CLR 34/18 A3001 RMK AO2 SLP139 T03390178,2024-08-03T16:53:00Z,33.9,17.8,10+,30.01
KIAH,29.9844,-95.3607,20,5,5.7539,KIAH 031653Z 02005KT 10SM FEW035 FEW250 34/24 A3000 RMK AO2 SLP157 T03390239,2024-08-03T16:53:00Z,33.9,23.9,10+,30.00
KIAG,43.1083,-78.9382,220,9,10.357019999999999,KIAG 031653Z 22009KT 10SM CLR 24/20 A2987 RMK AO2 LTG DSNT SE SLP110 T02440200,2024-08-03T16:53:00Z,24.4,20,10+,29.87
KHZY,41.7794,-80.6968,300,4,4.60312,KHZY 031653Z AUTO 30004KT 8SM -RA SCT050 BKN070 OVC090 24/22 A2990 RMK AO2 LTG DSNT S RAB14 SLP116 P0000 T02390222 $,2024-08-03T16:53:00Z,23.9,22.2,8,29.90
KHYR,46.0303,-91.4426,170,6,6.904679999999999,KHYR 031653Z AUTO 17006KT 10SM CLR 26/14 A3003 RMK AO2 SLP168 T02610139,2024-08-03T16:53:00Z,26.1,13.9,10+,30.03
KHWO,25.9996,-80.2412,,,,KHWO 031653Z 10SM SCT028 BKN037 32/23 RMK AO2 SLPNO T03170233 $,2024-08-03T16:53:00Z,31.7,23.3,10+,
KHVR,48.5425,-109.764,80,11,12.658579999999999,KHVR 031653Z AUTO 08011KT 10SM CLR 31/09 A3006 RMK AO2 SLP157 T03110094,2024-08-03T16:53:00Z,31.1,9.4,10+,30.06
KHVN,41.259,-72.8891,210,8,9.20624,KHVN 031653Z 21008KT 10SM SCT020 31/25 A2982 RMK AO2 SLP097 T03060250,2024-08-03T16:53:00Z,30.6,25,10+,29.82
KHUL,46.1185,-67.7929,200,6,6.904679999999999,KHUL 031653Z AUTO 20006KT 10SM FEW022 28/22 A2974 RMK AO2 SLP069 T02830222,2024-08-03T16:53:00Z,28.3,22.2,10+,29.74
KHUF,39.4429,-87.3221,310,6,6.904679999999999,KHUF 031653Z 31006KT 10SM CLR 31/23 A2998 RMK AO2 SLP145 T03060228 $,2024-08-03T16:53:00Z,30.6,22.8,10+,29.98
KHTL,44.359,-84.6739,340,10,11.5078,KHTL 031653Z AUTO 34010G18KT 10SM CLR 28/15 A2996 RMK AO2 SLP140 T02780150,2024-08-03T16:53:00Z,27.8,15,10+,29.96
KHSV,34.6441,-86.7861,10,3,3.4523399999999995,KHSV 031653Z 01003KT 10SM SCT048 BKN060 29/22 A2999 RMK AO2 SLP147 T02940217 $,2024-08-03T16:53:00Z,29.4,21.7,10+,29.99
KHSI,40.6002,-98.4264,180,11,12.658579999999999,KHSI 031653Z AUTO 18011KT 10SM CLR 29/18 A3011 RMK AO2 SLP176 T02940178,2024-08-03T16:53:00Z,29.4,17.8,10+,30.11
KHRO,36.2673,-93.1566,VRB,5,5.7539,KHRO 031653Z AUTO VRB05KT 10SM FEW037 30/19 A3009 RMK AO2 SLP173 T03000189 $,2024-08-03T16:53:00Z,30,18.9,10+,30.09
KHRI,45.8259,-119.261,240,9,10.357019999999999,KHRI 031653Z AUTO 24009KT 10SM CLR 29/15 A2995 RMK AO2 SLP132 T02940150 $,2024-08-03T16:53:00Z,29.4,15,10+,29.95
KHQM,46.9729,-123.931,VRB,3,3.4523399999999995,KHQM 031653Z AUTO VRB03KT 10SM OVC012 16/14 A3012 RMK AO2 SLP203 T01560139,2024-08-03T16:53:00Z,15.6,13.9,10+,30.12
KHOU,29.6458,-95.2821,290,5,5.7539,KHOU 031653Z 29005KT 10SM SCT030 BKN250 34/24 A2999 RMK AO2 SLP159 T03440244,2024-08-03T16:53:00Z,34.4,24.4,10+,29.99
KHOT,34.4755,-93.1041,,,,KHOT 031653Z AUTO 10SM FEW047 33/19 A3003 RMK AO2 SLP160 T03330189,2024-08-03T16:53:00Z,33.3,18.9,10+,30.03
KHLN,46.6045,-111.989,0,0,0.0,KHLN 031653Z 00000KT 10SM CLR 27/08 A3013 RMK AO2 SLP174 T02670083,2024-08-03T16:53:00Z,26.7,8.3,10+,30.13
KHLC,39.3741,-99.8299,VRB,6,6.904679999999999,KHLC 031653Z AUTO VRB06KT 10SM CLR 29/ A3014 RMK AO2 SLP182 T0294 $,2024-08-03T16:53:00Z,29.4,,10+,30.14
KHKY,35.742,-81.3822,VRB,5,5.7539,KHKY 031653Z VRB05KT 10SM FEW025 SCT033 28/22 A2996 RMK AO2 SLP119 T02830222,2024-08-03T16:53:00Z,28.3,22.2,10+,29.96
KHKS,32.3376,-90.2214,VRB,4,4.60312,KHKS 031653Z VRB04KT 10SM CLR 33/22 A2999 RMK AO2 SLP146 T03330222,2024-08-03T16:53:00Z,33.3,22.2,10+,29.99
KHKA,35.9378,-89.8332,0,0,0.0,KHKA 031653Z AUTO 00000KT 10SM SCT028 30/22 A3001 RMK AO2 SLP159 T03000217 $,2024-08-03T16:53:00Z,30,21.7,10+,30.01
KHJO,36.3114,-119.623,VRB,3,3.4523399999999995,KHJO 031653Z AUTO VRB03KT 6SM HZ CLR 31/16 A2996 RMK AO2 SLP146 T03110161,2024-08-03T16:53:00Z,31.1,16.1,6,29.96
KHIO,45.5476,-122.956,180,4,4.60312,KHIO 031653Z 18004KT 10SM CLR 21/13 A3008 RMK AO2 SLP182 T02060128,2024-08-03T16:53:00Z,20.6,12.8,10+,30.08
KHHR,33.9235,-118.333,260,5,5.7539,KHHR 031653Z 26005KT 10SM CLR 22/16 A2997 RMK AO2 SLP147 T02220156 $,2024-08-03T16:53:00Z,22.2,15.6,10+,29.97
KHGR,39.7062,-77.7304,270,5,5.7539,KHGR 031653Z 27005KT 10SM BKN050 30/22 A2984 RMK AO2 LTG DSNT ALQDS SLP107 T03000222,2024-08-03T16:53:00Z,30,22.2,10+,29.84
KHFD,41.7352,-72.6512,240,8,9.20624,KHFD 031653Z 24008G15KT 10SM BKN041 32/22 A2980 RMK AO2 SLP092 T03170222,2024-08-03T16:53:00Z,31.7,22.2,10+,29.80
KHEI,46.0108,-102.652,360,13,14.960139999999999,KHEI 031653Z AUTO 36013G24KT 10SM CLR 32/14 A3006 RMK AO2 SLP151 T03220144,2024-08-03T16:53:00Z,32.2,14.4,10+,30.06
KHBR,34.9891,-99.0528,VRB,4,4.60312,KHBR 031653Z AUTO VRB04KT 10SM CLR 34/16 A3011 RMK AO2 SLP176 T03440161,2024-08-03T16:53:00Z,34.4,16.1,10+,30.11
KHBG,31.2648,-89.2561,VRB,4,4.60312,KHBG 031653Z AUTO VRB04KT 10SM FEW070 34/25 A2998 RMK AO2 SLP147 T03390250,2024-08-03T16:53:00Z,33.9,25,10+,29.98
KHAO,39.3612,-84.5206,VRB,5,5.7539,KHAO 031653Z AUTO VRB05KT 10SM FEW033 29/22 A2994 RMK AO2 SLP134 T02890222,2024-08-03T16:53:00Z,28.9,22.2,10+,29.94
KGZH,31.4191,-87.0484,VRB,4,4.60312,KGZH 031653Z AUTO VRB04KT 10SM FEW031 SCT036 SCT048 33/25 A2995 RMK AO2 SLP139 T03330250,2024-08-03T16:53:00Z,33.3,25,10+,29.95
KGWO,33.4961,-90.0894,340,7,8.05546,KGWO 031653Z AUTO 34007KT 10SM 33/22 A2999 RMK AO2 SLP152 T03330217 $,2024-08-03T16:53:00Z,33.3,21.7,10+,29.99
KGVL,34.2721,-83.8305,260,8,9.20624,KGVL 031653Z AUTO 26008KT 10SM FEW026 28/21 A3002 RMK AO2 SLP146 T02830211,2024-08-03T16:53:00Z,28.3,21.1,10+,30.02
KGUP,35.5086,-108.793,VRB,3,3.4523399999999995,KGUP 031653Z AUTO VRB03KT 10SM CLR 28/06 A3039 RMK AO2 SLP093 T02780061,2024-08-03T16:53:00Z,27.8,6.1,10+,30.39
KGTF,47.4733,-111.383,120,3,3.4523399999999995,KGTF 031653Z 12003KT 10SM CLR 29/08 A3008 RMK AO2 SLP148 T02890078,2024-08-03T16:53:00Z,28.9,7.8,10+,30.08
KGSP,34.8842,-82.2209,230,8,9.20624,KGSP 031653Z 23008KT 10SM SCT034 SCT042 SCT050 31/22 A2996 RMK AO2 SLP130 T03110217,2024-08-03T16:53:00Z,31.1,21.7,10+,29.96
KGSH,41.5265,-85.7872,,,,KGSH 031653Z AUTO 10SM CLR 29/21 A2995 RMK AO2 SLP135 T02890206,2024-08-03T16:53:00Z,28.9,20.6,10+,29.95
KGRR,42.8821,-85.523,350,3,3.4523399999999995,KGRR 031653Z COR 35003KT 10SM SCT250 30/18 A2995 RMK AO2 SLP136 T03000183,2024-08-03T16:53:00Z,30,18.3,10+,29.95
KGRI,40.9615,-98.313,200,13,14.960139999999999,KGRI 031653Z 20013KT 10SM CLR 32/18 A3009 RMK AO2 SLP176 T03170178 $,2024-08-03T16:53:00Z,31.7,17.8,10+,30.09
KGRB,44.4796,-88.137,340,4,4.60312,KGRB 031653Z 34004KT 10SM CLR 29/18 A3000 RMK AO2 SLP152 T02940178,2024-08-03T16:53:00Z,29.4,17.8,10+,30.00
KGPT,30.4121,-89.0809,VRB,5,5.7539,KGPT 031653Z VRB05KT 10SM SCT041 SCT050 SCT060 35/25 A2995 RMK AO2 SLP140 T03500250,2024-08-03T16:53:00Z,35,25,10+,29.95
KGOK,35.8517,-97.4142,0,0,0.0,KGOK 031653Z AUTO 00000KT 10SM CLR 33/15 A3009 RMK AO2 SLP176 T03280150 $,2024-08-03T16:53:00Z,32.8,15,10+,30.09
KGNV,29.6917,-82.276,70,4,4.60312,KGNV 031653Z 07004KT 10SM CLR 32/24 A3001 RMK AO2 SLP160 T03220244,2024-08-03T16:53:00Z,32.2,24.4,10+,30.01
KGMU,34.8487,-82.3501,230,9,10.357019999999999,KGMU 031653Z 23009KT 10SM SCT035 SCT042 30/22 A2996 RMK AO2 SLP134 T03000217,2024-08-03T16:53:00Z,30,21.7,10+,29.96
KGLR,45.0166,-84.6894,VRB,4,4.60312,KGLR 031653Z AUTO VRB04G17KT 10SM CLR 27/13 A2997 RMK AO2 SLP142 T02720133,2024-08-03T16:53:00Z,27.2,13.3,10+,29.97
KGLH,33.4772,-90.9847,50,6,6.904679999999999,KGLH 031653Z 05006KT 10SM CLR 32/23 A2999 RMK AO2 SLP160 T03220228,2024-08-03T16:53:00Z,32.2,22.8,10+,29.99
KGLD,39.3673,-101.693,160,6,6.904679999999999,KGLD 031653Z AUTO 16006KT 10SM CLR 28/16 A3019 RMK AO2 SLP172 T02780156,2024-08-03T16:53:00Z,27.8,15.6,10+,30.19
KGKY,32.6583,-97.0951,0,0,0.0,KGKY 031653Z 00000KT 10SM CLR 33/22 A3001 RMK AO2 SLP151 T03330222,2024-08-03T16:53:00Z,33.3,22.2,10+,30.01
KGKJ,41.6258,-80.2123,40,5,5.7539,KGKJ 031653Z AUTO 04005KT 10SM FEW028 SCT050 BKN065 24/19 A2991 RMK AO2 SLP118 T02390194,2024-08-03T16:53:00Z,23.9,19.4,10+,29.91
KGJT,39.1344,-108.541,140,7,8.05546,KGJT 031653Z 14007KT 10SM CLR 32/06 A3023 RMK AO2 SLP147 T03220061,2024-08-03T16:53:00Z,32.2,6.1,10+,30.23
KGGW,48.2142,-106.621,90,7,8.05546,KGGW 031653Z AUTO 09007G17KT 10SM CLR 28/09 A3014 RMK AO2 SLP189 T02830089 $,2024-08-03T16:53:00Z,28.3,8.9,10+,30.14
KGGG,32.3909,-94.714,290,6,6.904679999999999,KGGG 031653Z 29006KT 10SM CLR 33/23 A2998 RMK AO2 SLP143 T03330228,2024-08-03T16:53:00Z,33.3,22.8,10+,29.98
KGFL,43.3385,-73.6102,0,0,0.0,KGFL 031653Z AUTO 00000KT 10SM OVC085 27/22 A2982 RMK AO2 SLP096 T02670217,2024-08-03T16:53:00Z,26.7,21.7,10+,29.82
KGFK,47.9428,-97.1829,340,12,13.809359999999998,KGFK 031653Z 34012KT 10SM SCT020 BKN120 27/20 A2988 RMK AO2 TSB07E23 SLP114 T02720200 $,2024-08-03T16:53:00Z,27.2,20,10+,29.88
KGEZ,39.5854,-85.7998,350,7,8.05546,KGEZ 031653Z AUTO 35007KT 10SM CLR 29/22 A2995 RMK AO2 SLP133 T02940217,2024-08-03T16:53:00Z,29.4,21.7,10+,29.95
KGEY,44.5173,-108.075,160,4,4.60312,KGEY 031653Z AUTO 16004KT 10SM CLR 29/05 A3017 RMK AO2 SLP168 T02940050,2024-08-03T16:53:00Z,29.4,5,10+,30.17
KGEG,47.6217,-117.528,VRB,6,6.904679999999999,KGEG 031653Z VRB06KT 10SM SCT030 SCT120 BKN150 BKN200 27/14 A3002 RMK AO2 RAB22E30 TSB17E39 SLP139 CB DSNT E MOV NE VIRGA FU SCT030 P0000 T02720139,2024-08-03T16:53:00Z,27.2,13.9,10+,30.02
KGCC,44.3398,-105.542,360,9,10.357019999999999,KGCC 031653Z AUTO 36009KT 10SM CLR 31/06 A3021 RMK AO2 SLP175 T03110056,2024-08-03T16:53:00Z,31.1,5.6,10+,30.21
KGAG,36.2966,-99.7686,150,11,12.658579999999999,KGAG 031653Z AUTO 15011G18KT 10SM CLR 34/14 A3012 RMK AO2 SLP168 T03390144,2024-08-03T16:53:00Z,33.9,14.4,10+,30.12
KFYV,36.0103,-94.1624,0,0,0.0,KFYV 031653Z 00000KT 10SM SCT042 30/19 A3009 RMK AO2 SLP172 T03000194,2024-08-03T16:53:00Z,30,19.4,10+,30.09
KFXE,26.199,-80.1776,110,15,17.261699999999998,KFXE 031653Z 11015G22KT 10SM FEW021 31/26 A2994 RMK AO2 RAE25 SLP142 P0000 T03110261,2024-08-03T16:53:00Z,31.1,26.1,10+,29.94
KFWN,41.1993,-74.6259,190,4,4.60312,KFWN 031653Z AUTO 19004KT 10SM SCT034 BKN043 30/23 A2984 RMK AO2 SLP101 T03000228,2024-08-03T16:53:00Z,30,22.8,10+,29.84
KFVE,47.2852,-68.3072,180,8,9.20624,KFVE 031653Z AUTO 18008G14KT 10SM FEW026 SCT033 29/21 A2973 RMK AO2 SLP060 T02890211,2024-08-03T16:53:00Z,28.9,21.1,10+,29.73
KFUL,33.8715,-117.986,250,3,3.4523399999999995,KFUL 031653Z 25003KT 10SM CLR 27/15 A2995 RMK AO2 SLP140 T02670150,2024-08-03T16:53:00Z,26.7,15,10+,29.95
KFTY,33.7776,-84.5247,VRB,3,3.4523399999999995,KFTY 031653Z VRB03KT 10SM SCT035 30/22 A2998 RMK AO2 SLP140 T03000217,2024-08-03T16:53:00Z,30,21.7,10+,29.98
KFTW,32.8248,-97.364,340,8,9.20624,KFTW 031653Z 34008KT 10SM CLR 34/21 A3000 RMK AO2 SLP147 T03440211,2024-08-03T16:53:00Z,34.4,21.1,10+,30.00
KFST,30.9119,-102.917,80,7,8.05546,KFST 031653Z AUTO 08007KT 10SM CLR 35/13 A3014 RMK AO2 SLP149 T03500128,2024-08-03T16:53:00Z,35,12.8,10+,30.14
KFSM,35.3335,-94.3653,VRB,5,5.7539,KFSM 031653Z VRB05KT 10SM FEW044 33/21 A3003 RMK AO2 SLP162 T03280206,2024-08-03T16:53:00Z,32.8,20.6,10+,30.03
KFRG,40.7344,-73.4164,180,13,14.960139999999999,KFRG 031653Z 18013KT 10SM CLR 30/24 A2984 RMK AO2 SLP105 T03000239,2024-08-03T16:53:00Z,30,23.9,10+,29.84
KFOK,40.8506,-72.6193,210,11,12.658579999999999,KFOK 031653Z 21011G20KT 10SM CLR 29/23 A2986 RMK AO2 SLP111 T02940233 $,2024-08-03T16:53:00Z,29.4,23.3,10+,29.86
KFOE,38.9414,-95.6513,280,4,4.60312,KFOE 031653Z 28004KT 10SM CLR 31/21 A3009 RMK AO2 SLP177 T03060206,2024-08-03T16:53:00Z,30.6,20.6,10+,30.09
KFNT,42.9669,-83.75,350,9,10.357019999999999,KFNT 031653Z 35009KT 10SM CLR 29/16 A2993 RMK AO2 SLP128 T02890156,2024-08-03T16:53:00Z,28.9,15.6,10+,29.93
KFNB,40.0791,-95.5893,240,5,5.7539,KFNB 031653Z AUTO 24005KT 10SM CLR 31/21 A3006 RMK AO2 SLP170 T03060206,2024-08-03T16:53:00Z,30.6,20.6,10+,30.06
KFMY,26.584,-81.8615,110,13,14.960139999999999,KFMY 031653Z 11013G21KT 10SM CLR 32/23 A2991 RMK AO2 SLP131 T03170233 $,2024-08-03T16:53:00Z,31.7,23.3,10+,29.91
KFMN,36.7435,-108.229,160,3,3.4523399999999995,KFMN 031653Z 16003KT 10SM CLR 28/08 A3031 RMK AO2 SLP188 T02830083,2024-08-03T16:53:00Z,28.3,8.3,10+,30.31
KFLO,34.1877,-79.7308,200,9,10.357019999999999,KFLO 031653Z 20009KT 10SM BKN032 33/25 A2996 RMK AO2 SLP143 T03280250,2024-08-03T16:53:00Z,32.8,25,10+,29.96
KFLL,26.0787,-80.1622,100,15,17.261699999999998,KFLL 031653Z 10015KT 10SM FEW017 FEW025 SCT045 SCT150 BKN250 30/25 A2994 RMK AO2 SLP137 T03000250,2024-08-03T16:53:00Z,30,25,10+,29.94
KFLD,43.7695,-88.4907,30,7,8.05546,KFLD 031653Z AUTO 03007KT 10SM CLR 28/19 A3000 RMK AO2 SLP153 T02830189,2024-08-03T16:53:00Z,28.3,18.9,10+,30.00
KFHR,48.52,-123.026,130,4,4.60312,KFHR 031653Z AUTO 13004KT 10SM SCT002 14/12 A3009 RMK AO2 SLP189 T01440117,2024-08-03T16:53:00Z,14.4,11.7,10+,30.09
KFFT,38.1846,-84.9039,VRB,3,3.4523399999999995,KFFT 031653Z AUTO VRB03KT 10SM FEW021 OVC039 27/21 A2996 RMK AO2 SLP136 T02670206,2024-08-03T16:53:00Z,26.7,20.6,10+,29.96
KFFC,33.3543,-84.5689,VRB,6,6.904679999999999,KFFC 031653Z AUTO VRB06KT 10SM FEW036 31/22 A2998 RMK AO2 SLP145 T03110222,2024-08-03T16:53:00Z,31.1,22.2,10+,29.98
KFDY,41.0137,-83.6681,340,9,10.357019999999999,KFDY 031653Z AUTO 34009KT 10SM SCT028 30/21 A2991 RMK AO2 SLP119 T03000206,2024-08-03T16:53:00Z,30,20.6,10+,29.91
KFDR,34.3531,-98.9876,,,,KFDR 031653Z AUTO 10SM CLR 34/17 A3005 RMK AO2 SLP155 T03390167,2024-08-03T16:53:00Z,33.9,16.7,10+,30.05
KFCM,44.8321,-93.4705,170,5,5.7539,KFCM 031653Z 17005KT 10SM CLR 27/16 A3001 RMK AO2 SLP156 T02720161,2024-08-03T16:53:00Z,27.2,16.1,10+,30.01
KFAY,34.9895,-78.8801,190,11,12.658579999999999,KFAY 031653Z 19011KT 10SM SCT033 32/24 A2996 RMK AO2 SLP137 T03220244,2024-08-03T16:53:00Z,32.2,24.4,10+,29.96
KFAT,36.78,-119.72,VRB,3,3.4523399999999995,KFAT 031653Z VRB03KT 10SM FEW120 SCT200 31/15 A2996 RMK AO2 SLP141 T03060150,2024-08-03T16:53:00Z,30.6,15,10+,29.96
KFAR,46.9242,-96.8119,200,17,19.56326,KFAR 031653Z AUTO 20017G24KT 10SM CLR 32/21 A2986 RMK AO2 SLP105 T03170206,2024-08-03T16:53:00Z,31.7,20.6,10+,29.86
KEYW,24.5571,-81.7554,130,19,21.864819999999998,KEYW 031653Z 13019G28KT 10SM FEW026 SCT048 SCT065 29/26 A2983 RMK AO2 PK WND 14036/1643 RAB17E38 SLP106 P0000 T02940256 $,2024-08-03T16:53:00Z,29.4,25.6,10+,29.83
KEYE,39.8248,-86.2958,330,6,6.904679999999999,KEYE 031653Z AUTO 33006KT 10SM CLR 29/21 A2996 RMK AO2 SLP136 T02940211,2024-08-03T16:53:00Z,29.4,21.1,10+,29.96
KEWB,41.6791,-70.9591,220,14,16.11092,KEWB 031653Z 22014KT 10SM CLR 32/24 A2980 RMK AO2 SLP089 T03170244,2024-08-03T16:53:00Z,31.7,24.4,10+,29.80
KEVW,41.2727,-111.031,0,0,0.0,KEVW 031653Z AUTO 00000KT 10SM CLR 27/01 A3039 RMK AO2 SLP167 T02720011,2024-08-03T16:53:00Z,27.2,1.1,10+,30.39
KEQY,35.0147,-80.6242,230,8,9.20624,KEQY 031653Z AUTO 23008KT 10SM FEW026 BKN033 30/24 A2995 RMK AO2 SLP136 T03000244,2024-08-03T16:53:00Z,30,24.4,10+,29.95
KEPH,47.3078,-119.516,VRB,3,3.4523399999999995,KEPH 031653Z AUTO VRB03KT 10SM CLR 29/15 A2993 RMK AO2 SLP124 T02890150,2024-08-03T16:53:00Z,28.9,15,10+,29.93
KENW,42.5953,-87.9383,VRB,5,5.7539,KENW 031653Z VRB05KT 10SM CLR 29/21 A2998 RMK AO2 SLP146 T02940206 $,2024-08-03T16:53:00Z,29.4,20.6,10+,29.98
KEMP,38.3291,-96.1945,30,5,5.7539,KEMP 031653Z AUTO 03005KT 10SM CLR 33/18 A3010 RMK AO2 SLP180 T03280183,2024-08-03T16:53:00Z,32.8,18.3,10+,30.10
KELY,39.2954,-114.847,170,6,6.904679999999999,KELY 031653Z AUTO 17006KT 10SM CLR 28/09 A3031 RMK AO2 SLP142 T02780089,2024-08-03T16:53:00Z,27.8,8.9,10+,30.31
KELN,47.0338,-120.531,330,13,14.960139999999999,KELN 031653Z AUTO 33013G19KT 10SM CLR 29/13 A2997 RMK AO2 SLP132 T02890133,2024-08-03T16:53:00Z,28.9,13.3,10+,29.97
KELM,42.1601,-76.89,,,,KELM 031653Z 10SM FEW016 SCT040 26/21 A2987 RMK AO2 RAB22E39 SLP108 P0000 T02560206,2024-08-03T16:53:00Z,25.6,20.6,10+,29.87
KELD,33.2207,-92.814,40,6,6.904679999999999,KELD 031653Z AUTO 04006KT 10SM FEW055 33/22 A3002 RMK AO2 SLP162 T03280222,2024-08-03T16:53:00Z,32.8,22.2,10+,30.02
KEET,33.1783,-86.7818,320,4,4.60312,KEET 031653Z AUTO 32004KT 10SM FEW060 FEW070 28/22 A2998 RMK AO2 SLP145 T02830217,2024-08-03T16:53:00Z,28.3,21.7,10+,29.98
KEEO,40.0444,-107.888,0,0,0.0,KEEO 031653Z AUTO 00000KT 10SM CLR 28/06 A3035 RMK AO2 SLP175 T02780056,2024-08-03T16:53:00Z,27.8,5.6,10+,30.35
KECP,30.3487,-85.7884,VRB,6,6.904679999999999,KECP 031653Z VRB06KT 10SM CLR 32/24 A2997 RMK AO1 SLP159 T03170244 $,2024-08-03T16:53:00Z,31.7,24.4,10+,29.97
KDXR,41.3722,-73.4834,280,8,9.20624,KDXR 031653Z 28008KT 250V320 10SM CLR 31/22 A2985 RMK AO2 SLP102 T03060217 $,2024-08-03T16:53:00Z,30.6,21.7,10+,29.85
KDWH,30.068,-95.5563,VRB,5,5.7539,KDWH 031653Z VRB05KT 10SM CLR 34/24 A3000 RMK AO2 SLP156 T03390244,2024-08-03T16:53:00Z,33.9,24.4,10+,30.00
KDVT,33.6902,-112.066,240,4,4.60312,KDVT 031653Z 24004KT 10SM CLR 38/16 A2995 RMK AO2 SLP111 T03780161,2024-08-03T16:53:00Z,37.8,16.1,10+,29.95
KDTW,42.2311,-83.3312,10,6,6.904679999999999,KDTW 031653Z 01006G16KT 10SM FEW045 SCT220 31/19 A2991 RMK AO2 SLP124 T03110194,2024-08-03T16:53:00Z,31.1,19.4,10+,29.91
KDTS,30.3933,-86.4674,VRB,5,5.7539,KDTS 031653Z VRB05KT 10SM CLR 32/23 A2997 RMK AO2 SLP148 T03170228,2024-08-03T16:53:00Z,31.7,22.8,10+,29.97
KDTO,33.2088,-97.1992,,,,KDTO 031653Z 10SM CLR 34/20 A3002 RMK AO2 SLP155 T03390200,2024-08-03T16:53:00Z,33.9,20,10+,30.02
KDTN,32.5429,-93.745,0,0,0.0,KDTN 031653Z 00000KT 10SM CLR 34/22 A2999 RMK AO2 SLP151 T03390217,2024-08-03T16:53:00Z,33.9,21.7,10+,29.99
KDRT,29.3784,-100.927,VRB,3,3.4523399999999995,KDRT 031653Z AUTO VRB03KT 10SM CLR 35/21 A3002 RMK AO2 SLP154 T03500206 $,2024-08-03T16:53:00Z,35,20.6,10+,30.02
KDRO,37.1431,-107.76,0,0,0.0,KDRO 031653Z AUTO 00000KT 10SM CLR 27/09 A3039 RMK AO2 SLP190 T02670094,2024-08-03T16:53:00Z,26.7,9.4,10+,30.39
KDMO,38.712,-93.1747,340,5,5.7539,KDMO 031653Z AUTO 34005KT 10SM CLR 30/21 A3008 RMK AO2 SLP177 T03000211,2024-08-03T16:53:00Z,30,21.1,10+,30.08
KDMN,32.2592,-107.721,110,9,10.357019999999999,KDMN 031653Z AUTO 11009G17KT 10SM CLR 32/09 A3023 RMK AO2 SLP145 T03220094,2024-08-03T16:53:00Z,32.2,9.4,10+,30.23
KDMH,39.281,-76.611,,,,KDMH 031653Z AUTO 33/24 A2986 RMK AO1 SLP110 T03280239,2024-08-03T16:53:00Z,32.8,23.9,,29.86
KDLS,45.619,-121.166,320,9,10.357019999999999,KDLS 031653Z AUTO 32009KT 10SM CLR 26/16 A2996 RMK AO2 SLP143 T02560161 $,2024-08-03T16:53:00Z,25.6,16.1,10+,29.96
KDLN,45.2584,-112.555,0,0,0.0,KDLN 031653Z AUTO 00000KT 10SM CLR 23/05 A3023 RMK AO2 SLP178 T02330050,2024-08-03T16:53:00Z,23.3,5,10+,30.23
KDKK,42.4932,-79.2762,10,4,4.60312,KDKK 031653Z AUTO 01004KT 10SM FEW018 SCT060 BKN090 25/19 A2990 RMK AO2 RAB41E53 SLP120 P0000 T02500194,2024-08-03T16:53:00Z,25,19.4,10+,29.90
KDHT,36.0252,-102.549,190,13,14.960139999999999,KDHT 031653Z AUTO 19013KT 10SM CLR 31/16 A3023 RMK AO2 PK WND 16028/1611 SLP168 T03060161,2024-08-03T16:53:00Z,30.6,16.1,10+,30.23
KDHN,31.3177,-85.4432,150,7,8.05546,KDHN 031653Z 15007KT 10SM CLR 32/26 A3000 RMK AO2 SLP153 T03170256 $,2024-08-03T16:53:00Z,31.7,25.6,10+,30.00
KDGW,42.796,-105.38,290,7,8.05546,KDGW 031653Z AUTO 29007KT 10SM CLR 32/06 A3023 RMK AO2 SLP162 T03170056,2024-08-03T16:53:00Z,31.7,5.6,10+,30.23
KDFW,32.8974,-97.0219,10,7,8.05546,KDFW 031653Z COR 01007KT 10SM FEW250 33/20 A3000 RMK AO2 SLP147 T03330200,2024-08-03T16:53:00Z,33.3,20,10+,30.00
KDFI,41.3357,-84.4285,350,8,9.20624,KDFI 031653Z AUTO 35008KT 10SM CLR 29/21 A2993 RMK AO2 SLP130 T02940206,2024-08-03T16:53:00Z,29.4,20.6,10+,29.93
KDEW,47.9742,-117.429,130,4,4.60312,KDEW 031653Z AUTO 13004KT 10SM CLR 23/14 A3002 RMK AO2 RAB18E53 SLP149 P0000 T02330144,2024-08-03T16:53:00Z,23.3,14.4,10+,30.02
KDET,42.4072,-83.009,330,6,6.904679999999999,KDET 031653Z 33006KT 10SM CLR 32/18 A2990 RMK AO2 SLP120 T03170183,2024-08-03T16:53:00Z,31.7,18.3,10+,29.90
KDEQ,34.048,-94.4016,VRB,5,5.7539,KDEQ 031653Z AUTO VRB05KT 10SM BKN060 33/20 A3000 RMK AO2 SLP151 T03280200,2024-08-03T16:53:00Z,32.8,20,10+,30.00
KDEN,39.8466,-104.656,VRB,4,4.60312,KDEN 031653Z VRB04KT 10SM FEW090 FEW200 31/08 A3028 RMK AO2 SLP165 T03060078,2024-08-03T16:53:00Z,30.6,7.8,10+,30.28
KDCU,34.658,-86.9434,VRB,4,4.60312,KDCU 031653Z AUTO VRB04KT 10SM SCT035 BKN046 30/21 A3000 RMK AO2 SLP150 T03000206,2024-08-03T16:53:00Z,30,20.6,10+,30.00
KDBQ,42.3984,-90.7092,350,5,5.7539,KDBQ 031653Z 35005KT 10SM CLR 28/22 A3000 RMK AO2 SLP153 T02830217,2024-08-03T16:53:00Z,28.3,21.7,10+,30.00
KDAN,36.5729,-79.335,,,,KDAN 031653Z AUTO 10SM FEW023 FEW034 SCT065 29/23 A2994 RMK AO2 RAB16E44 SLP124 P0000 T02890228,2024-08-03T16:53:00Z,28.9,22.8,10+,29.94
KDAL,32.8384,-96.8358,VRB,6,6.904679999999999,KDAL 031653Z VRB06KT 10SM FEW120 FEW250 34/20 A3000 RMK AO2 SLP151 T03440200,2024-08-03T16:53:00Z,34.4,20,10+,30.00
KDAB,29.1735,-81.0719,100,11,12.658579999999999,KDAB 031653Z 10011G17KT 10SM SCT035 SCT055 32/26 A2999 RMK AO2 LTG DSNT S AND SW SLP156 T03170256,2024-08-03T16:53:00Z,31.7,25.6,10+,29.99
KCYS,41.1579,-104.808,60,5,5.7539,KCYS 031653Z 06005KT 10SM CLR 31/03 A3033 RMK AO2 SLP168 T03110033,2024-08-03T16:53:00Z,31.1,3.3,10+,30.33
KCXO,30.3611,-95.4176,0,0,0.0,KCXO 031653Z 00000KT 10SM SCT032 33/24 A3001 RMK AO2 SLP159 T03280244,2024-08-03T16:53:00Z,32.8,24.4,10+,30.01
KCUT,43.7331,-103.615,VRB,4,4.60312,KCUT 031653Z AUTO VRB04KT 10SM CLR 33/02 A3028 RMK AO2 SLP164 T03280022,2024-08-03T16:53:00Z,32.8,2.2,10+,30.28
KCUB,33.972,-80.9939,190,5,5.7539,KCUB 031653Z AUTO 19005KT 10SM CLR 31/24 A2996 RMK AO2 SLP141 T03110239,2024-08-03T16:53:00Z,31.1,23.9,10+,29.96
KCSM,35.3568,-99.2041,VRB,6,6.904679999999999,KCSM 031653Z AUTO VRB06KT 10SM CLR 33/14 A3013 RMK AO2 SLP175 T03280144,2024-08-03T16:53:00Z,32.8,14.4,10+,30.13
KCRS,32.0316,-96.3994,320,3,3.4523399999999995,KCRS 031653Z AUTO 32003KT 10SM CLR 32/23 A3002 RMK AO2 SLP159 T03220228,2024-08-03T16:53:00Z,32.2,22.8,10+,30.02
KCRQ,33.1299,-117.277,280,3,3.4523399999999995,KCRQ 031653Z AUTO 28003KT 10SM CLR 22/18 A2995 RMK AO2 SLP140 T02220178,2024-08-03T16:53:00Z,22.2,17.8,10+,29.95
KCRG,30.3371,-81.5128,110,7,8.05546,KCRG 031653Z 11007KT 10SM FEW031 SCT038 BKN046 32/25 A3000 RMK AO2 SLP158 T03170250,2024-08-03T16:53:00Z,31.7,25,10+,30.00
KCQC,35.003,-105.663,,,,KCQC 031653Z AUTO 10SM CLR 24/11 A3045 RMK AO2 SLP213 T02390111 $,2024-08-03T16:53:00Z,23.9,11.1,10+,30.45
KCPS,38.57,-90.156,30,7,8.05546,KCPS 031653Z 03007KT 350V060 10SM FEW042 32/21 A3000 RMK AO2 SLP155 T03170206 PNO,2024-08-03T16:53:00Z,31.7,20.6,10+,30.00
KCPR,42.8978,-106.474,320,5,5.7539,KCPR 031653Z 32005KT 10SM CLR 31/04 A3027 RMK AO2 SLP171 T03060044,2024-08-03T16:53:00Z,30.6,4.4,10+,30.27
KCOT,28.4585,-99.2228,110,7,8.05546,KCOT 031653Z AUTO 11007KT 060V130 10SM SCT047 35/22 A3001 RMK AO2 SLP152 T03500217,2024-08-03T16:53:00Z,35,21.7,10+,30.01
KCNY,38.7501,-109.763,VRB,4,4.60312,KCNY 031653Z AUTO VRB04KT 10SM CLR 33/10 A3018 RMK AO2 SLP143 T03280100,2024-08-03T16:53:00Z,32.8,10,10+,30.18
KCNO,33.9756,-117.625,0,0,0.0,KCNO 031653Z 00000KT 10SM CLR 31/13 A2998 RMK AO2 SLP143 T03060133 $,2024-08-03T16:53:00Z,30.6,13.3,10+,29.98
KCNM,32.3335,-104.258,350,7,8.05546,KCNM 031653Z AUTO 35007KT 10SM SCT120 31/13 A3019 RMK AO2 SLP158 T03060133,2024-08-03T16:53:00Z,30.6,13.3,10+,30.19
KCMX,47.1705,-88.4854,300,8,9.20624,KCMX 031653Z AUTO 30008KT 10SM CLR 26/13 A3000 RMK AO2 SLP154 T02610133,2024-08-03T16:53:00Z,26.1,13.3,10+,30.00
KCMI,40.0324,-88.2755,310,7,8.05546,KCMI 031653Z 31007KT 10SM CLR 31/22 A2999 RMK AO2 SLP150 T03060222,2024-08-03T16:53:00Z,30.6,22.2,10+,29.99
KCLM,48.1219,-123.507,290,5,5.7539,KCLM 031653Z AUTO 29005KT 10SM CLR 17/13 A3009 RMK AO2 SLP190 T01720128,2024-08-03T16:53:00Z,17.2,12.8,10+,30.09
KCLL,30.5912,-96.3631,300,6,6.904679999999999,KCLL 031653Z 30006KT 10SM CLR 33/26 A3001 RMK AO2 SLP156 T03330256,2024-08-03T16:53:00Z,33.3,25.6,10+,30.01
KCKB,39.3022,-80.2239,250,3,3.4523399999999995,KCKB 031653Z 25003KT 10SM BKN017 BKN039 OVC080 25/21 A2991 RMK AO2 RAB11E35 SLP113 P0001 T02500211,2024-08-03T16:53:00Z,25,21.1,10+,29.91
KCHO,38.1374,-78.4551,190,12,13.809359999999998,KCHO 031653Z 19012G18KT 10SM CLR 31/22 A2987 RMK AO2 SLP105 T03110217 $,2024-08-03T16:53:00Z,31.1,21.7,10+,29.87
KCHA,35.0336,-85.2004,310,3,3.4523399999999995,KCHA 031653Z 31003KT 10SM BKN040 BKN065 28/19 A2999 RMK AO2 SLP146 T02830194,2024-08-03T16:53:00Z,28.3,19.4,10+,29.99
KCGI,37.2254,-89.5785,330,8,9.20624,KCGI 031653Z 33008KT 270V010 10SM SCT037 31/22 A3000 RMK AO2 SLP154 T03060222 PNO $,2024-08-03T16:53:00Z,30.6,22.2,10+,30.00
KCEZ,37.3071,-108.626,210,9,10.357019999999999,KCEZ 031653Z AUTO 21009KT 10SM CLR 28/11 A3033 RMK AO2 SLP172 T02830111 $,2024-08-03T16:53:00Z,28.3,11.1,10+,30.33
KCEW,30.7771,-86.5194,0,0,0.0,KCEW 031653Z AUTO 00000KT 10SM FEW031 33/26 A2998 RMK AO2 SLP147 T03280256,2024-08-03T16:53:00Z,32.8,25.6,10+,29.98
KCDW,40.8764,-74.2829,VRB,4,4.60312,KCDW 031653Z VRB04KT 10SM SCT043 33/21 A2983 RMK AO2 SLP103 T03280211 $,2024-08-03T16:53:00Z,32.8,21.1,10+,29.83
KCDS,34.4275,-100.284,80,5,5.7539,KCDS 031653Z AUTO 08005KT 10SM CLR 33/16 A3012 RMK AO2 SLP168 T03280156,2024-08-03T16:53:00Z,32.8,15.6,10+,30.12
KCDR,42.8374,-103.098,270,8,9.20624,KCDR 031653Z AUTO 27008KT 10SM CLR 35/11 A3010 RMK AO2 SLP154 T03500106 $,2024-08-03T16:53:00Z,35,10.6,10+,30.10
KCDC,37.7067,-113.097,260,4,4.60312,KCDC 031653Z AUTO 26004KT 10SM CLR 29/12 A3029 RMK AO2 SLP165 T02890117 $,2024-08-03T16:53:00Z,28.9,11.7,10+,30.29
KCCR,37.9916,-122.053,340,5,5.7539,KCCR 031653Z 34005KT 10SM CLR 24/15 A2995 RMK AO2 SLP130 T02390150,2024-08-03T16:53:00Z,23.9,15,10+,29.95
KCAG,40.493,-107.524,,,,KCAG 031653Z AUTO A3034 RMK AO2 SLPNO PWINO $,2024-08-03T16:53:00Z,,,,30.34
KBYI,42.5452,-113.769,70,7,8.05546,KBYI 031653Z AUTO 07007KT 10SM CLR 28/11 A3010 RMK AO2 SLP141 T02780111,2024-08-03T16:53:00Z,27.8,11.1,10+,30.10
KBYG,44.3812,-106.719,330,7,8.05546,KBYG 031653Z AUTO 33007KT 10SM CLR 31/07 A3026 RMK AO2 SLP176 T03060067,2024-08-03T16:53:00Z,30.6,6.7,10+,30.26
KBWG,36.9647,-86.4238,0,0,0.0,KBWG 031653Z AUTO 00000KT 10SM FEW025 SCT040 29/22 A2998 RMK AO2 SLP145 T02890217,2024-08-03T16:53:00Z,28.9,21.7,10+,29.98
KBVY,42.5841,-70.9153,260,8,9.20624,KBVY 031653Z 26008G18KT 10SM SCT039 SCT050 BKN060 32/22 A2977 RMK AO2 SLP073 T03170217,2024-08-03T16:53:00Z,31.7,21.7,10+,29.77
KBVO,36.7664,-96.0129,0,0,0.0,KBVO 031653Z AUTO 00000KT 10SM CLR 31/18 A3009 RMK AO2 SLP177 T03110178,2024-08-03T16:53:00Z,31.1,17.8,10+,30.09
KBUR,34.1996,-118.365,150,4,4.60312,KBUR 031653Z 15004KT 10SM CLR 28/12 A2997 RMK AO2 SLP135 T02830122,2024-08-03T16:53:00Z,28.3,12.2,10+,29.97
KBTR,30.5378,-91.1468,,,,KBTR 031653Z 10SM SCT026 35/27 A2996 RMK AO2 LTG DSNT SE AND SW SLP144 T03500267 $,2024-08-03T16:53:00Z,35,26.7,10+,29.96
KBTM,45.9644,-112.501,30,3,3.4523399999999995,KBTM 031653Z AUTO 03003KT 10SM CLR 27/04 A3025 RMK AO2 SLP175 T02720044,2024-08-03T16:53:00Z,27.2,4.4,10+,30.25
KBTL,42.3119,-85.2415,360,5,5.7539,KBTL 031653Z 36005KT 10SM FEW032 29/20 A2995 RMK AO2 SLP135 T02940200,2024-08-03T16:53:00Z,29.4,20,10+,29.95
KBRO,25.9146,-97.4231,VRB,3,3.4523399999999995,KBRO 031653Z VRB03KT 10SM CLR 32/24 A2999 RMK AO2 SLP156 T03220239,2024-08-03T16:53:00Z,32.2,23.9,10+,29.99
KBRL,40.7729,-91.1255,310,4,4.60312,KBRL 031653Z AUTO 31004KT 10SM CLR 30/24 A3000 RMK AO2 SLP154 T03000239,2024-08-03T16:53:00Z,30,23.9,10+,30.00
KBRD,46.4021,-94.1273,180,8,9.20624,KBRD 031653Z AUTO 18008KT 10SM CLR 27/16 A3001 RMK AO2 SLP157 T02720161,2024-08-03T16:53:00Z,27.2,16.1,10+,30.01
KBPT,29.9521,-94.0262,350,7,8.05546,KBPT 031653Z 35007KT 10SM CLR 34/25 A2999 RMK AO2 SLP154 T03440250,2024-08-03T16:53:00Z,34.4,25,10+,29.99
KBPK,36.3705,-92.4719,VRB,3,3.4523399999999995,KBPK 031653Z AUTO VRB03KT 10SM CLR 30/19 A3006 RMK AO2 SLP167 T03000189 $,2024-08-03T16:53:00Z,30,18.9,10+,30.06
KBOI,43.567,-116.241,290,4,4.60312,KBOI 031653Z 29004KT 9SM CLR 31/09 A3000 RMK AO2 SLP118 T03110094,2024-08-03T16:53:00Z,31.1,9.4,9,30.00
KBNA,36.1105,-86.6881,VRB,3,3.4523399999999995,KBNA 031653Z VRB03KT 10SM SCT030TCU BKN045 30/20 A2999 RMK AO2 SLP147 TCU E S W T03000200 $,2024-08-03T16:53:00Z,30,20,10+,29.99
KBMQ,30.7407,-98.2354,VRB,3,3.4523399999999995,KBMQ 031653Z AUTO VRB03KT 10SM CLR 32/23 A3008 RMK AO2 SLP164 T03220233,2024-08-03T16:53:00Z,32.2,23.3,10+,30.08
KBMG,39.1432,-86.6168,340,6,6.904679999999999,KBMG 031653Z 34006KT 10SM CLR 29/20 A2997 RMK AO2 SLP141 T02890200,2024-08-03T16:53:00Z,28.9,20,10+,29.97
KBLI,48.7991,-122.541,180,7,8.05546,KBLI 031653Z 18007KT 10SM CLR 17/13 A3007 RMK AO2 SLP189 T01670133,2024-08-03T16:53:00Z,16.7,13.3,10+,30.07
KBKV,28.4739,-82.4537,70,5,5.7539,KBKV 031653Z 07005KT 10SM FEW047 33/24 A2998 RMK AO2 LTG DSNT S SLP150 T03280244 $,2024-08-03T16:53:00Z,32.8,24.4,10+,29.98
KBKL,41.5173,-81.6832,10,9,10.357019999999999,KBKL 031653Z COR 01009KT 10SM SCT020 27/22 A2990 RMK AO2 LTG DSNT SE RAE1558 SLP119 P0000 T02670217,2024-08-03T16:53:00Z,26.7,21.7,10+,29.90
KBKE,44.843,-117.81,250,3,3.4523399999999995,KBKE 031653Z AUTO 25003KT 10SM CLR 29/10 A3007 RMK AO2 SLP143 T02940100,2024-08-03T16:53:00Z,29.4,10,10+,30.07
KBIV,42.7463,-86.0968,VRB,3,3.4523399999999995,KBIV 031653Z AUTO VRB03KT 10SM CLR 30/19 A2996 RMK AO2 SLP139 T03000189 $,2024-08-03T16:53:00Z,30,18.9,10+,29.96
KBIL,45.8072,-108.546,80,6,6.904679999999999,KBIL 031653Z 08006KT 10SM SCT200 BKN250 27/11 A3019 RMK AO2 SLP182 T02720106,2024-08-03T16:53:00Z,27.2,10.6,10+,30.19
KBHM,33.5655,-86.7449,260,5,5.7539,KBHM 031653Z 26005KT 10SM SCT038 SCT055 30/21 A3001 RMK AO2 SLP152 T03000211 $,2024-08-03T16:53:00Z,30,21.1,10+,30.01
KBGR,44.7979,-68.8195,190,9,10.357019999999999,KBGR 031653Z 19009KT 10SM BKN023 BKN120 27/21 A2978 RMK AO2 SLP081 T02670206,2024-08-03T16:53:00Z,26.7,20.6,10+,29.78
KBFM,30.6147,-88.063,310,4,4.60312,KBFM 031653Z 31004KT 10SM CLR 35/21 A2997 RMK AO2 SLP147 T03500211 $,2024-08-03T16:53:00Z,35,21.1,10+,29.97
KBFI,47.5455,-122.315,200,4,4.60312,KBFI 031653Z 20004KT 10SM SCT250 19/13 A3009 RMK AO2 SLP190 T01890133 $,2024-08-03T16:53:00Z,18.9,13.3,10+,30.09
KBFF,41.8747,-103.601,VRB,3,3.4523399999999995,KBFF 031653Z AUTO VRB03KT 10SM CLR 30/13 A3018 RMK AO2 SLP170 T03000128,2024-08-03T16:53:00Z,30,12.8,10+,30.18
KBFD,41.7984,-78.6354,350,3,3.4523399999999995,KBFD 031653Z AUTO 35003KT 10SM -RA FEW006 FEW030 BKN110 22/21 A2993 RMK AO2 SLP121 P0006 T02170206,2024-08-03T16:53:00Z,21.7,20.6,10+,29.93
KBEH,42.129,-86.4152,VRB,5,5.7539,KBEH 031653Z AUTO VRB05KT 10SM CLR 30/23 A2995 RMK AO2 SLP137 T03000228,2024-08-03T16:53:00Z,30,22.8,10+,29.95
KBCT,26.379,-80.106,140,10,11.5078,KBCT 031653Z 14010G17KT 10SM VCTS FEW040 31/25 A2996 RMK LTG DSNT NE AND S AND SW,2024-08-03T16:53:00Z,31,25,10+,29.96
KBCE,37.7013,-112.149,130,5,5.7539,KBCE 031653Z AUTO 13005KT 10SM CLR 24/11 A3046 RMK AO2 SLP177 T02390106,2024-08-03T16:53:00Z,23.9,10.6,10+,30.46
KBBW,41.4365,-99.6385,,,,KBBW 031653Z AUTO 10SM CLR 31/19 A3010 RMK AO2 SLP166 T03060189 $,2024-08-03T16:53:00Z,30.6,18.9,10+,30.10
KBAF,42.16,-72.7124,220,7,8.05546,KBAF 031653Z 22007KT 200V270 10SM BKN034 31/22 A2981 RMK AO2 SLP089 T03060217,2024-08-03T16:53:00Z,30.6,21.7,10+,29.81
KAZO,42.2283,-85.546,VRB,5,5.7539,KAZO 031653Z VRB05KT 10SM CLR 31/20 A2995 RMK AO2 SLP136 T03060200 $,2024-08-03T16:53:00Z,30.6,20,10+,29.95
KAXN,45.868,-95.394,180,11,12.658579999999999,KAXN 031653Z AUTO 18011KT 10SM FEW100 27/18 A3000 RMK AO2 SLP153 T02720178 $,2024-08-03T16:53:00Z,27.2,17.8,10+,30.00
KAWM,35.1401,-90.2359,320,6,6.904679999999999,KAWM 031653Z AUTO 32006KT 10SM SCT039 30/22 A3001 RMK AO2 SLP156 T03000217,2024-08-03T16:53:00Z,30,21.7,10+,30.01
KAUS,30.2099,-97.6806,120,3,3.4523399999999995,KAUS 031653Z 12003KT 10SM FEW039 FEW250 BKN300 34/24 A3002 RMK AO2 SLP151 T03390244 $,2024-08-03T16:53:00Z,33.9,24.4,10+,30.02
KAUG,44.3161,-69.797,0,0,0.0,KAUG 031653Z AUTO 00000KT 10SM FEW037 OVC100 26/21 A2981 RMK AO2 SLP091 T02610211,2024-08-03T16:53:00Z,26.1,21.1,10+,29.81
KATY,44.9045,-97.1496,190,10,11.5078,KATY 031653Z AUTO 19010KT 10SM CLR 31/19 A2997 RMK AO2 SLP135 T03060189,2024-08-03T16:53:00Z,30.6,18.9,10+,29.97
KASX,46.5468,-90.9184,VRB,4,4.60312,KASX 031653Z AUTO VRB04KT 10SM CLR 28/16 A3002 RMK AO2 SLP162 T02780156,2024-08-03T16:53:00Z,27.8,15.6,10+,30.02
KASE,39.2299,-106.871,100,5,5.7539,KASE 031653Z 10005KT 10SM CLR 26/04 A3048 RMK AO2 SLP182 T02560039,2024-08-03T16:53:00Z,25.6,3.9,10+,30.48
KASD,30.3436,-89.8224,350,7,8.05546,KASD 031653Z AUTO 35007KT 10SM FEW037 SCT060 SCT070 34/26 A2996 RMK AO2 SLP144 T03440256,2024-08-03T16:53:00Z,34.4,25.6,10+,29.96
KARB,42.2239,-83.7398,340,8,9.20624,KARB 031653Z 34008KT 9SM CLR 30/19 A2992 RMK AO2 SLP125 T03000194,2024-08-03T16:53:00Z,30,19.4,9,29.92
KARA,30.0292,-91.8845,300,8,9.20624,KARA 031653Z 30008KT 10SM SCT034 BKN045 33/26 A2997 RMK AO2 LTG DSNT NE SLP146 T03280261,2024-08-03T16:53:00Z,32.8,26.1,10+,29.97
KAPF,26.155,-81.7751,110,16,18.41248,KAPF 031653Z 11016G23KT 10SM FEW040 33/ A2990 RMK AO2 SLP123 T0328,2024-08-03T16:53:00Z,32.8,,10+,29.90
KAPA,39.5599,-104.848,310,4,4.60312,KAPA 031653Z 31004KT 10SM FEW120 FEW170 FEW220 30/07 A3032 RMK AO2 SLP179 T03000067,2024-08-03T16:53:00Z,30,6.7,10+,30.32
KAOO,40.2999,-78.3168,330,4,4.60312,KAOO 031653Z AUTO 33004KT 10SM SCT030 BKN044 28/21 A2987 RMK AO2 LTG DSNT E-S RAB19E38 SLP103 P0000 T02780206,2024-08-03T16:53:00Z,27.8,20.6,10+,29.87
KAOH,40.7081,-84.0214,VRB,5,5.7539,KAOH 031653Z AUTO VRB05KT 9SM SCT023 27/22 A2993 RMK AO2 SLP128 T02720222,2024-08-03T16:53:00Z,27.2,22.2,9,29.93
KANB,33.5904,-85.8479,10,7,8.05546,KANB 031653Z AUTO 01007KT 10SM BKN038 29/21 A2998 RMK AO2 SLP142 T02940206,2024-08-03T16:53:00Z,29.4,20.6,10+,29.98
KAMW,41.9905,-93.6185,,,,KAMW 031653Z AUTO 10SM CLR 30/18 A3004 RMK AO2 SLP161 T03000183,2024-08-03T16:53:00Z,30,18.3,10+,30.04
KAMG,31.5401,-82.5074,190,6,6.904679999999999,KAMG 031653Z AUTO 19006KT 10SM FEW030 FEW037 SCT049 32/24 A2999 RMK AO2 SLP152 T03170239 $,2024-08-03T16:53:00Z,31.7,23.9,10+,29.99
KAMA,35.2203,-101.717,180,12,13.809359999999998,KAMA 031653Z 18012G18KT 10SM CLR 32/14 A3021 RMK AO2 SLP164 T03220139 $,2024-08-03T16:53:00Z,32.2,13.9,10+,30.21
KALW,46.0946,-118.286,240,8,9.20624,KALW 031653Z 24008KT 10SM CLR 29/13 A2997 RMK AO2 SLP138 T02940128,2024-08-03T16:53:00Z,29.4,12.8,10+,29.97
KALI,27.7413,-98.0251,0,0,0.0,KALI 031653Z AUTO 00000KT 10SM CLR 33/23 A3000 RMK AO2 SLP155 T03280228 $,2024-08-03T16:53:00Z,32.8,22.8,10+,30.00
KAKO,40.1743,-103.215,VRB,5,5.7539,KAKO 031653Z AUTO VRB05KT 10SM CLR 28/13 A3024 RMK AO2 SLP175 T02830133,2024-08-03T16:53:00Z,28.3,13.3,10+,30.24
KAIA,42.0573,-102.802,0,0,0.0,KAIA 031653Z AUTO 00000KT 10SM CLR 32/14 A3016 RMK AO2 SLP161 T03170139 $,2024-08-03T16:53:00Z,31.7,13.9,10+,30.16
KAGS,33.3652,-81.9635,170,6,6.904679999999999,KAGS 031653Z 17006KT 10SM SCT021 31/25 A2994 RMK AO2 LTG DSNT W AND NW SLP137 T03060250,2024-08-03T16:53:00Z,30.6,25,10+,29.94
KAGC,40.3551,-79.9215,260,9,10.357019999999999,KAGC 031653Z 26009G16KT 10SM VCTS BKN019 28/20 A2988 RMK AO2 LTG DSNT N AND NW SLP112 T02780200,2024-08-03T16:53:00Z,27.8,20,10+,29.88
KAFW,32.99,-97.32,VRB,3,3.4523399999999995,KAFW 031653Z VRB03KT 10SM FEW250 35/19 A3001 RMK AO2 SLP143 T03500189,2024-08-03T16:53:00Z,35,18.9,10+,30.01
KACK,41.2541,-70.0589,220,15,17.261699999999998,KACK 031653Z 22015KT 7SM SCT005 26/24 A2984 RMK AO2 SLP105 T02610239,2024-08-03T16:53:00Z,26.1,23.9,7,29.84
KABY,31.5364,-84.1958,210,7,8.05546,KABY 031653Z 21007KT 10SM FEW030 33/24 A2998 RMK AO2 SLP149 T03280239,2024-08-03T16:53:00Z,32.8,23.9,10+,29.98
KABR,45.4436,-98.4138,210,9,10.357019999999999,KABR 031653Z AUTO 21009KT 10SM CLR 32/21 A2991 RMK AO2 SLP118 T03170211,2024-08-03T16:53:00Z,31.7,21.1,10+,29.91
KAAF,29.7268,-85.0248,180,6,6.904679999999999,KAAF 031653Z AUTO 18006KT 10SM CLR 31/26 A2998 RMK AO2 SLP152 T03110256 $,2024-08-03T16:53:00Z,31.1,25.6,10+,29.98
PATA,65.173,-152.107,110,8,9.20624,PATA 031652Z 11008KT 10SM -RA BKN006 OVC016 11/09 A3018 RMK AO2 SLP222 CLDS OBSCRG MTNS NW-NE P0001 T01060094 $,2024-08-03T16:52:00Z,10.6,9.4,10+,30.18
PALJ,60.204,-154.316,0,0,0.0,PALJ 031652Z 00000KT 30SM FEW008 BKN120 11/10 A3026 RMK EST PASS OPEN NOSPECI,2024-08-03T16:52:00Z,11,10,30,30.26
PAEL,58.196,-136.347,0,0,0.0,PAEL 031652Z 00000KT 20SM SCT014 BKN080 13/12 A3025 RMK MIN 10.0 NOSPECI,2024-08-03T16:52:00Z,13,12,20,30.25
PABA,70.135,-143.585,110,8,9.20624,PABA 031652Z AUTO 11008KT 10SM CLR 08/03 A3010 RMK AO2 SLP199 T00780033,2024-08-03T16:52:00Z,7.8,3.3,10+,30.10
KVTN,42.8585,-100.551,220,4,4.60312,KVTN 031652Z AUTO 22004KT 10SM CLR 33/13 A3006 RMK AO2 SLP150 T03280128,2024-08-03T16:52:00Z,32.8,12.8,10+,30.06
KTRM,33.6317,-116.164,320,6,6.904679999999999,KTRM 031652Z AUTO 32006KT 10SM CLR 41/13 A2981 RMK AO2 SLP098 T04110128,2024-08-03T16:52:00Z,41.1,12.8,10+,29.81
KTOL,41.5871,-83.8054,,,,KTOL 031652Z AUTO A2991 RMK AO2 SLPNO PWINO $,2024-08-03T16:52:00Z,,,,29.91
KTAN,41.8756,-71.0208,230,7,8.05546,KTAN 031652Z AUTO 23007KT 10SM SCT038 BKN047 33/23 A2978 RMK AO2 SLP084 T03280233,2024-08-03T16:52:00Z,32.8,23.3,10+,29.78
KSUX,42.3917,-96.3795,VRB,3,3.4523399999999995,KSUX 031652Z VRB03KT 10SM CLR 30/22 A3004 RMK AO2 SLP162 T03000217,2024-08-03T16:52:00Z,30,21.7,10+,30.04
KSPS,33.9785,-98.493,VRB,4,4.60312,KSPS 031652Z AUTO VRB04KT 10SM CLR 34/18 A3005 RMK AO2 SLP161 T03390183,2024-08-03T16:52:00Z,33.9,18.3,10+,30.05
KSPI,39.8453,-89.684,330,5,5.7539,KSPI 031652Z 33005KT 10SM CLR 31/22 A3000 RMK AO2 SLP155 T03060222,2024-08-03T16:52:00Z,30.6,22.2,10+,30.00
KSGF,37.2398,-93.39,VRB,3,3.4523399999999995,KSGF 031652Z VRB03KT 10SM CLR 30/21 A3008 RMK AO2 SLP170 T03000206,2024-08-03T16:52:00Z,30,20.6,10+,30.08
KREO,42.5902,-117.865,340,7,8.05546,KREO 031652Z AUTO 34007KT 32/05 A3007 RMK AO1 SLP126 T03170050,2024-08-03T16:52:00Z,31.7,5,,30.07
KRAP,44.0458,-103.054,350,17,19.56326,KRAP 031652Z 35017G23KT 10SM CLR 38/09 A3007 RMK AO2 SLP142 T03830094,2024-08-03T16:52:00Z,38.3,9.4,10+,30.07
KPYM,41.9085,-70.7278,240,15,17.261699999999998,KPYM 031652Z AUTO 24015G22KT 10SM CLR 34/22 A2979 RMK AO2 SLP087 T03390217,2024-08-03T16:52:00Z,33.9,21.7,10+,29.79
KPWK,42.1208,-87.9048,0,0,0.0,KPWK 031652Z 00000KT 10SM CLR 31/21 A2997 RMK AO2 SLP143 T03060206 $,2024-08-03T16:52:00Z,30.6,20.6,10+,29.97
KPPF,37.3281,-95.5044,340,4,4.60312,KPPF 031652Z AUTO 34004KT 10SM CLR 33/18 A3009 RMK AO2 SLP177 T03280178,2024-08-03T16:52:00Z,32.8,17.8,10+,30.09
KP69,46.144,-115.597,0,0,0.0,KP69 031652Z AUTO 00000KT 23/16 A3001 RMK AO1 SLP137 T02330161 $,2024-08-03T16:52:00Z,23.3,16.1,,30.01
KOMA,41.3119,-95.9018,VRB,4,4.60312,KOMA 031652Z VRB04KT 10SM BKN250 32/19 A3004 RMK AO2 SLP162 T03170194,2024-08-03T16:52:00Z,31.7,19.4,10+,30.04
KOKC,35.3843,-97.6003,20,6,6.904679999999999,KOKC 031652Z 02006KT 10SM SCT250 33/14 A3010 RMK AO2 SLP173 T03280139,2024-08-03T16:52:00Z,32.8,13.9,10+,30.10
KOKB,33.2195,-117.35,240,7,8.05546,KOKB 031652Z AUTO 24007KT 6SM HZ CLR 24/18 A2995 RMK AO2 SLP140 T02390183,2024-08-03T16:52:00Z,23.9,18.3,6,29.95
KNZY,32.6922,-117.21,300,8,9.20624,KNZY 031652Z 30008KT 10SM FEW006 23/19 A2995 RMK AO2 SLP141 T02280189 $,2024-08-03T16:52:00Z,22.8,18.9,10+,29.95
KNRB,30.396,-81.423,140,12,13.809359999999998,KNRB 031652Z AUTO 14012KT 10SM CLR 34/26 A3000 RMK AO2 SLP159 T03390256,2024-08-03T16:52:00Z,33.9,25.6,10+,30.00
KNHK,38.284,-76.408,210,10,11.5078,KNHK 031652Z 21010G19KT 10SM BKN022 32/24 A2988 RMK AO2 SLP118 T03220244 PNO $,2024-08-03T16:52:00Z,32.2,24.4,10+,29.88
KNFW,32.781,-97.436,VRB,3,3.4523399999999995,KNFW 031652Z VRB03KT 10SM FEW140 FEW250 34/21 A3001 RMK AO2 SLP147 T03390211 $,2024-08-03T16:52:00Z,33.9,21.1,10+,30.01
KMWH,47.193,-119.315,210,4,4.60312,KMWH 031652Z 21004KT 10SM CLR 28/17 A2994 RMK AO2 SLP128 T02830167,2024-08-03T16:52:00Z,28.3,16.7,10+,29.94
KMLI,41.4482,-90.5237,300,10,11.5078,KMLI 031652Z 30010G15KT 10SM CLR 32/17 A2997 RMK AO2 SLP143 T03170172,2024-08-03T16:52:00Z,31.7,17.2,10+,29.97
KMLF,38.4225,-113.011,180,11,12.658579999999999,KMLF 031652Z AUTO 18011G20KT 10SM CLR 30/13 A3023 RMK AO2 SLP154 T03000128,2024-08-03T16:52:00Z,30,12.8,10+,30.23
KMKE,42.9549,-87.9045,90,7,8.05546,KMKE 031652Z 09007KT 10SM FEW050 28/20 A2997 RMK AO2 SLP143 T02780200 $,2024-08-03T16:52:00Z,27.8,20,10+,29.97
KMHK,39.1346,-96.6789,VRB,3,3.4523399999999995,KMHK 031652Z VRB03KT 10SM CLR 32/21 A3009 RMK AO2 SLP177 T03170206,2024-08-03T16:52:00Z,31.7,20.6,10+,30.09
KMEB,34.7913,-79.3683,210,15,17.261699999999998,KMEB 031652Z AUTO 21015G21KT 10SM BKN030 31/26 A2996 RMK AO2 SLP143 T03110256,2024-08-03T16:52:00Z,31.1,25.6,10+,29.96
KMDH,37.7833,-89.2453,VRB,6,6.904679999999999,KMDH 031652Z VRB06KT 10SM FEW038 31/22 A3001 RMK AO2 SLP156 T03060217,2024-08-03T16:52:00Z,30.6,21.7,10+,30.01
KMBG,45.543,-100.404,VRB,5,5.7539,KMBG 031652Z AUTO VRB05KT 10SM CLR 35/17 A2991 RMK AO2 SLP108 T03500172,2024-08-03T16:52:00Z,35,17.2,10+,29.91
KLWC,39.0078,-95.2115,0,0,0.0,KLWC 031652Z AUTO 00000KT 10SM CLR 31/23 A3008 RMK AO1 SLP177 T03110228,2024-08-03T16:52:00Z,31.1,22.8,10+,30.08
KIWA,33.3008,-111.644,VRB,5,5.7539,KIWA 031652Z VRB05KT 10SM CLR 38/14 A2996,2024-08-03T16:52:00Z,38,14,10+,29.96
KIOW,41.6394,-91.5445,350,7,8.05546,KIOW 031652Z AUTO 35007KT 10SM CLR 31/14 A3001 RMK AO2 SLP156 T03060139,2024-08-03T16:52:00Z,30.6,13.9,10+,30.01
KIJD,41.7425,-72.1825,270,7,8.05546,KIJD 031652Z AUTO 27007G15KT 230V310 10SM FEW034 SCT042 30/22 A2982 RMK AO2 SLP096 T03000222,2024-08-03T16:52:00Z,30,22.2,10+,29.82
KIEN,43.0261,-102.52,280,6,6.904679999999999,KIEN 031652Z AUTO 28006KT 10SM CLR 34/11 A3010 RMK AO2 SLP149 T03440111 $,2024-08-03T16:52:00Z,34.4,11.1,10+,30.10
KIAD,38.9348,-77.4473,200,10,11.5078,KIAD 031652Z 20010G20KT 10SM FEW028 FEW048CB 34/21 A2983 RMK AO2 LTG DSNT NW SLP097 CB W-N MOV E T03440206 $,2024-08-03T16:52:00Z,34.4,20.6,10+,29.83
KHUT,38.0682,-97.8607,140,8,9.20624,KHUT 031652Z 14008KT 10SM CLR 31/18 A3011 RMK AO2 SLP173 T03060178,2024-08-03T16:52:00Z,30.6,17.8,10+,30.11
KHRL,26.2303,-97.6556,130,3,3.4523399999999995,KHRL 031652Z 13003KT 10SM CLR 31/25 A2999 RMK AO2 SLP156 T03110250,2024-08-03T16:52:00Z,31.1,25,10+,29.99
KHIE,44.3659,-71.5522,VRB,3,3.4523399999999995,KHIE 031652Z AUTO VRB03KT 10SM FEW090 27/21 A2982 RMK AO2 SLP094 T02720211,2024-08-03T16:52:00Z,27.2,21.1,10+,29.82
KGLS,29.2704,-94.8642,30,6,6.904679999999999,KGLS 031652Z 03006KT 10SM CLR 33/27 A3001 RMK AO2 SLP161 T03330272,2024-08-03T16:52:00Z,33.3,27.2,10+,30.01
KFIT,42.5549,-71.757,VRB,4,4.60312,KFIT 031652Z AUTO VRB04KT 10SM FEW033 SCT041 BKN060 31/23 A2981 RMK AO2 SLP091 T03060228,2024-08-03T16:52:00Z,30.6,22.8,10+,29.81
KEST,43.4008,-94.7476,VRB,5,5.7539,KEST 031652Z AUTO VRB05KT 10SM CLR 28/19 A3005 RMK AO2 SLP165 T02830189,2024-08-03T16:52:00Z,28.3,18.9,10+,30.05
KDVN,41.6133,-90.5948,310,7,8.05546,KDVN 031652Z AUTO 31007KT 10SM CLR 29/19 A3000 RMK AO2 SLP149 T02890189,2024-08-03T16:52:00Z,28.9,18.9,10+,30.00
KDPA,41.8964,-88.2512,330,5,5.7539,KDPA 031652Z 33005KT 10SM BKN045 32/19 A2996 RMK AO2 SLP138 T03170194,2024-08-03T16:52:00Z,31.7,19.4,10+,29.96
KDCA,38.8472,-77.0345,170,14,16.11092,KDCA 031652Z 17014KT 10SM FEW030 FEW250 32/23 A2983 RMK AO2 SLP102 CB DSNT NW T03170233,2024-08-03T16:52:00Z,31.7,23.3,10+,29.83
KCVG,39.0444,-84.6724,VRB,5,5.7539,KCVG 031652Z VRB05KT 10SM FEW025 SCT030 BKN038 28/22 A2995 RMK AO2 SLP130 T02780217,2024-08-03T16:52:00Z,27.8,21.7,10+,29.95
KCNU,37.6705,-95.4846,VRB,3,3.4523399999999995,KCNU 031652Z AUTO VRB03KT 10SM CLR 33/18 A3009 RMK AO2 SLP177 T03280183,2024-08-03T16:52:00Z,32.8,18.3,10+,30.09
KCLT,35.2225,-80.9543,190,10,11.5078,KCLT 031652Z 19010KT 10SM SCT033 SCT055 BKN250 30/23 A2995 RMK AO2 SLP146 T03000228,2024-08-03T16:52:00Z,30,22.8,10+,29.95
KCKV,36.6169,-87.4118,,,,KCKV 031652Z AUTO 10SM FEW033 29/21 A2999 RMK AO2 SLP148 T02940206,2024-08-03T16:52:00Z,29.4,20.6,10+,29.99
KCID,41.8829,-91.7246,340,9,10.357019999999999,KCID 031652Z 34009G19KT 10SM CLR 29/18 A3000 RMK AO2 SLP153 T02940178,2024-08-03T16:52:00Z,29.4,17.8,10+,30.00
KCFV,37.0912,-95.5726,250,6,6.904679999999999,KCFV 031652Z AUTO 25006KT 10SM CLR 32/18 A3006 RMK AO2 SLP172 T03220183,2024-08-03T16:52:00Z,32.2,18.3,10+,30.06
KBML,44.576,-71.1782,340,4,4.60312,KBML 031652Z AUTO 34004KT 9SM CLR 29/20 A2982 RMK AO2 SLP090 T02940200,2024-08-03T16:52:00Z,29.4,20,9,29.82
KBLH,33.6188,-114.715,VRB,3,3.4523399999999995,KBLH 031652Z AUTO VRB03KT 10SM CLR 41/14 A2986 RMK AO2 SLP104 T04060139,2024-08-03T16:52:00Z,40.6,13.9,10+,29.86
KBLF,37.2978,-81.2036,280,5,5.7539,KBLF 031652Z AUTO 28005KT 10SM FEW019 BKN034 OVC110 22/18 A3004 RMK AO2 SLP137 T02170178,2024-08-03T16:52:00Z,21.7,17.8,10+,30.04
KBIS,46.7823,-100.757,340,14,16.11092,KBIS 031652Z AUTO 34014G22KT 10SM CLR 29/19 A2996 RMK AO2 SLP136 T02890194,2024-08-03T16:52:00Z,28.9,19.4,10+,29.96
KBDR,41.1642,-73.1266,220,12,13.809359999999998,KBDR 031652Z 22012KT 10SM CLR 31/23 A2982 RMK AO2 SLP098 T03110228,2024-08-03T16:52:00Z,31.1,22.8,10+,29.82
KBAN,38.355,-119.522,,,,KBAN 031652Z AUTO 10SM CLR 21/12 A3032 RMK AO2 SLP176 T02110117 $,2024-08-03T16:52:00Z,21.1,11.7,10+,30.32
KATL,33.6297,-84.4422,340,6,6.904679999999999,KATL 031652Z 34006KT 10SM SCT030 SCT100 30/22 A2999 RMK AO2 SLP142 TCU DSNT SW-W MDT CU ALQDS T03000222 $,2024-08-03T16:52:00Z,30,22.2,10+,29.99
KARR,41.7713,-88.4815,VRB,3,3.4523399999999995,KARR 031652Z VRB03KT 9SM CLR 31/22 A2997 RMK AO2 SLP142 T03060217,2024-08-03T16:52:00Z,30.6,21.7,9,29.97
KALS,37.4393,-105.862,VRB,4,4.60312,KALS 031652Z AUTO VRB04KT 10SM CLR 23/09 A3046 RMK AO2 SLP209 T02280089,2024-08-03T16:52:00Z,22.8,8.9,10+,30.46
KABQ,35.0419,-106.615,260,5,5.7539,KABQ 031652Z 26005KT 10SM FEW110 BKN250 28/13 A3032 RMK AO2 SLP175 T02780128,2024-08-03T16:52:00Z,27.8,12.8,10+,30.32
KABI,32.4106,-99.6821,VRB,4,4.60312,KABI 031652Z VRB04KT 9SM CLR 36/18 A3008 RMK AO2 SLP151 T03610178 $,2024-08-03T16:52:00Z,36.1,17.8,9,30.08
PHBK,22.034,-159.783,70,4,4.60312,PHBK 031651Z AUTO 07004KT 10SM CLR A3007 RMK AO2 SLP186 $,2024-08-03T16:51:00Z,,,10+,30.07
MUGM,19.909,-75.206,110,12,13.809359999999998,MUGM 031651Z 11012KT 10SM FEW030 FEW250 32/26 A2998 RMK AO2 SLP153 T03220256 $,2024-08-03T16:51:00Z,32.2,25.6,10+,29.98
MMMV,26.956,-101.47,40,8,9.20624,MMMV 031651Z 04008KT 10SM SCT050 31/19 A3008 RMK 8/100 HZY,2024-08-03T16:51:00Z,31,19,10+,30.08
KXWA,48.2542,-103.747,50,13,14.960139999999999,KXWA 031651Z AUTO 05013KT 10SM CLR 24/14 A3012 RMK AO2 SLP190 T02390139,2024-08-03T16:51:00Z,23.9,13.9,10+,30.12
KVNY,34.2121,-118.491,0,0,0.0,KVNY 031651Z 00000KT 10SM CLR 29/12 A2996 RMK AO2 SLP135 T02940122,2024-08-03T16:51:00Z,29.4,12.2,10+,29.96
KVCT,28.8624,-96.9301,VRB,3,3.4523399999999995,KVCT 031651Z VRB03KT 10SM CLR 32/24 A3001 RMK AO2 SLP160 T03220244,2024-08-03T16:51:00Z,32.2,24.4,10+,30.01
KUGN,42.4255,-87.8634,80,5,5.7539,KUGN 031651Z 08005KT 10SM CLR 28/21 A2997 RMK AO2 SLP133 T02830206,2024-08-03T16:51:00Z,28.3,20.6,10+,29.97
KTPL,31.157,-97.4094,330,3,3.4523399999999995,KTPL 031651Z AUTO 33003KT 10SM CLR 31/23 A3004 RMK AO2 SLP159 T03060228,2024-08-03T16:51:00Z,30.6,22.8,10+,30.04
KTEB,40.859,-74.0562,VRB,4,4.60312,KTEB 031651Z VRB04KT 10SM FEW043 SCT050 32/22 A2981 RMK AO2 SLP093 T03170222 $,2024-08-03T16:51:00Z,31.7,22.2,10+,29.81
KSTL,38.7524,-90.3734,330,6,6.904679999999999,KSTL 031651Z 33006KT 10SM FEW045 SCT250 31/21 A3002 RMK AO2 SLP153 T03110206 $,2024-08-03T16:51:00Z,31.1,20.6,10+,30.02
KSMX,34.894,-120.452,340,3,3.4523399999999995,KSMX 031651Z 34003KT 10SM CLR 19/15 A2999 RMK AO2 SLP156 T01940150 $,2024-08-03T16:51:00Z,19.4,15,10+,29.99
KSMO,34.021,-118.447,0,0,0.0,KSMO 031651Z 00000KT 10SM CLR 22/17 A2997 RMK AO2 SLP145 T02170167,2024-08-03T16:51:00Z,21.7,16.7,10+,29.97
KSLK,44.3928,-74.2029,230,5,5.7539,KSLK 031651Z AUTO 23005KT 10SM SCT025 BKN085 26/20 A2987 RMK AO2 SLP103 T02610200,2024-08-03T16:51:00Z,26.1,20,10+,29.87
KSJT,31.3517,-100.495,0,0,0.0,KSJT 031651Z 00000KT 10SM CLR 34/19 A3008 RMK AO2 SLP157 T03390194,2024-08-03T16:51:00Z,33.9,19.4,10+,30.08
KSDB,34.7433,-118.725,210,7,8.05546,KSDB 031651Z AUTO 21007KT 10SM CLR 28/10 A3021 RMK AO2 SLP167 T02830100,2024-08-03T16:51:00Z,28.3,10,10+,30.21
KSAT,29.5443,-98.4839,VRB,3,3.4523399999999995,KSAT 031651Z VRB03KT 10SM FEW042 SCT250 34/23 A3004 RMK AO2 SLP151 T03390233,2024-08-03T16:51:00Z,33.9,23.3,10+,30.04
KSAN,32.7365,-117.197,280,9,10.357019999999999,KSAN 031651Z 28009KT 10SM FEW008 23/18 A2997 RMK AO2 SLP147 T02330183 $,2024-08-03T16:51:00Z,23.3,18.3,10+,29.97
KSAD,32.8565,-109.636,130,5,5.7539,KSAD 031651Z AUTO 13005KT 10SM CLR 34/14 A3010 RMK AO2 SLP130 T03390139 $,2024-08-03T16:51:00Z,33.9,13.9,10+,30.10
KROW,33.3074,-104.508,50,5,5.7539,KROW 031651Z 05005KT 10SM CLR 29/16 A3021 RMK AO2 SLP159 T02940161 $,2024-08-03T16:51:00Z,29.4,16.1,10+,30.21
KRDU,35.8923,-78.782,180,9,10.357019999999999,KRDU 031651Z 18009KT 10SM SCT032 SCT250 33/24 A2994 RMK AO2 SLP133 T03280244,2024-08-03T16:51:00Z,32.8,24.4,10+,29.94
KPWM,43.6424,-70.3044,100,5,5.7539,KPWM 031651Z 10005KT 10SM FEW009 BKN015 OVC021 24/22 A2980 RMK AO2 SLP089 T02390222 $,2024-08-03T16:51:00Z,23.9,22.2,10+,29.80
KPVD,41.7225,-71.4325,240,12,13.809359999999998,KPVD 031651Z 24012KT 10SM SCT039 BKN250 32/23 A2980 RMK AO2 SLP091 T03170228,2024-08-03T16:51:00Z,31.7,22.8,10+,29.80
KPIT,40.4814,-80.2083,240,8,9.20624,KPIT 031651Z 24008KT 10SM TS SCT024CB BKN085 BKN150 27/19 A2989 RMK AO2 TSB06 SLP118 OCNL LTGICCG SE AND NW TS SE AND NW MOV NE T02720194 $,2024-08-03T16:51:00Z,27.2,19.4,10+,29.89
KPHX,33.4278,-112.004,180,3,3.4523399999999995,KPHX 031651Z 18003KT 10SM FEW090 FEW140 FEW180 SCT230 39/14 A2991 RMK AO2 SLP104 T03940139,2024-08-03T16:51:00Z,39.4,13.9,10+,29.91
KP59,47.467,-87.875,350,9,10.357019999999999,KP59 031651Z AUTO 35009KT 25/16 A2997 RMK AO1 SLP139 T02500156,2024-08-03T16:51:00Z,25,15.6,,29.97
KOXR,34.2001,-119.204,270,7,8.05546,KOXR 031651Z 27007KT 10SM SCT004 18/15 A2997 RMK AO2 SLP148 T01830150 $,2024-08-03T16:51:00Z,18.3,15,10+,29.97
KORF,36.9037,-76.1927,220,15,17.261699999999998,KORF 031651Z 22015KT 10SM FEW032 34/24 A2991 RMK AO2 SLP129 T03390244,2024-08-03T16:51:00Z,33.9,24.4,10+,29.91
KORD,41.9602,-87.9316,80,4,4.60312,KORD 031651Z 08004KT 10SM SCT045 SCT250 32/21 A2995 RMK AO2 SLP135 FU SCT250 T03170211 $,2024-08-03T16:51:00Z,31.7,21.1,10+,29.95
KOCF,29.1636,-82.221,130,7,8.05546,KOCF 031651Z 13007KT 10SM FEW036 33/23 A3000 RMK AO2 SLP158 T03280233,2024-08-03T16:51:00Z,32.8,23.3,10+,30.00
KNYC,40.779,-73.9692,0,0,0.0,KNYC 031651Z AUTO 00000KT 10SM SCT046 32/22 A2985 RMK AO2 SLP098 T03220217 $,2024-08-03T16:51:00Z,32.2,21.7,10+,29.85
KMYL,44.8943,-116.1,0,0,0.0,KMYL 031651Z AUTO 00000KT 10SM CLR 25/09 A3016 RMK AO2 SLP154 T02500094,2024-08-03T16:51:00Z,25,9.4,10+,30.16
KLGA,40.7794,-73.8803,330,3,3.4523399999999995,KLGA 031651Z 33003KT 10SM SCT050 SCT080 BKN150 BKN180 BKN250 32/20 A2981 RMK AO2 SLP095 T03170200,2024-08-03T16:51:00Z,31.7,20,10+,29.81
KJFK,40.6392,-73.7639,180,12,13.809359999999998,KJFK 031651Z 18012KT 10SM FEW025 SCT150 BKN250 31/24 A2985 RMK AO2 SLP106 T03060244 $,2024-08-03T16:51:00Z,30.6,24.4,10+,29.85
KJCT,30.5105,-99.7665,0,0,0.0,KJCT 031651Z AUTO 00000KT 10SM CLR 33/22 A3009 RMK AO2 SLP149 T03280222,2024-08-03T16:51:00Z,32.8,22.2,10+,30.09
KILG,39.6744,-75.6057,160,9,10.357019999999999,KILG 031651Z 16009KT 10SM FEW026 30/24 A2985 RMK AO2 SLP108 T03000239,2024-08-03T16:51:00Z,30,23.9,10+,29.85
KIGM,35.2575,-113.934,0,0,0.0,KIGM 031651Z AUTO 00000KT 10SM CLR 34/14 A3012 RMK AO2 SLP117 T03440139,2024-08-03T16:51:00Z,34.4,13.9,10+,30.12
KHSE,35.2324,-75.6223,210,10,11.5078,KHSE 031651Z AUTO 21010G19KT 8SM CLR 29/27 A3002 RMK AO2 SLP166 T02940267,2024-08-03T16:51:00Z,29.4,26.7,8,30.02
KHDO,29.3601,-99.1742,VRB,5,5.7539,KHDO 031651Z AUTO VRB05KT 10SM CLR 34/22 A3004 RMK AO2 SLP153 T03390222,2024-08-03T16:51:00Z,33.9,22.2,10+,30.04
KEWR,40.6828,-74.1692,210,7,8.05546,KEWR 031651Z 21007KT 200V270 10SM SCT043 SCT160 BKN250 34/23 A2982 RMK AO2 SLP096 T03440228 $,2024-08-03T16:51:00Z,34.4,22.8,10+,29.82
KERI,42.0803,-80.1824,40,8,9.20624,KERI 031651Z 04008KT 10SM FEW100 26/21 A2988 RMK AO2 SLP112 T02610206,2024-08-03T16:51:00Z,26.1,20.6,10+,29.88
KELP,31.8123,-106.377,0,0,0.0,KELP 031651Z 00000KT 10SM FEW090 FEW120 SCT250 34/09 A3019 RMK AO2 SLP136 T03440094,2024-08-03T16:51:00Z,34.4,9.4,10+,30.19
KCSG,32.5163,-84.9422,350,4,4.60312,KCSG 031651Z 35004KT 10SM FEW034 FEW090 32/23 A2996 RMK AO2 SLP138 T03220228,2024-08-03T16:51:00Z,32.2,22.8,10+,29.96
KCRP,27.7733,-97.513,0,0,0.0,KCRP 031651Z 00000KT 10SM FEW030 SCT250 33/24 A3000 RMK AO2 SLP156 T03330244,2024-08-03T16:51:00Z,33.3,24.4,10+,30.00
KCON,43.2049,-71.5026,VRB,3,3.4523399999999995,KCON 031651Z AUTO VRB03KT 10SM FEW015 BKN065 OVC075 27/22 A2980 RMK AO2 SLP091 T02670217,2024-08-03T16:51:00Z,26.7,21.7,10+,29.80
KCDJ,39.8198,-93.577,310,3,3.4523399999999995,KCDJ 031651Z AUTO 31003KT 32/23 A3005 RMK AO1 SLP162 T03170228,2024-08-03T16:51:00Z,31.7,22.8,,30.05
KBKW,37.7836,-81.1228,270,8,9.20624,KBKW 031651Z AUTO 27008KT 10SM FEW030 BKN037 BKN050 25/17 A3000 RMK AO2 CIG 028 RWY19 SLP123 T02500172,2024-08-03T16:51:00Z,25,17.2,10+,30.00
KBHK,46.3521,-104.261,360,9,10.357019999999999,KBHK 031651Z AUTO 36009G18KT 10SM CLR 29/11 A3014 RMK AO2 SLP178 T02890106,2024-08-03T16:51:00Z,28.9,10.6,10+,30.14
KBGD,35.695,-101.396,190,9,10.357019999999999,KBGD 031651Z AUTO 19009KT 10SM SCT090 32/14 A3019 RMK AO2 SLP172 T03220139,2024-08-03T16:51:00Z,32.2,13.9,10+,30.19
KBED,42.4681,-71.2946,230,12,13.809359999999998,KBED 031651Z 23012G19KT 10SM SCT047 33/21 A2977 RMK AO2 SLP089 T03280211,2024-08-03T16:51:00Z,32.8,21.1,10+,29.77
KBDL,41.9374,-72.682,240,10,11.5078,KBDL 031651Z 24010G15KT 10SM FEW036 SCT047 BKN150 BKN200 32/22 A2981 RMK AO2 SLP093 T03220217 $,2024-08-03T16:51:00Z,32.2,21.7,10+,29.81
KBAZ,29.7089,-98.0459,0,0,0.0,KBAZ 031651Z 00000KT 10SM CLR 35/23 A3001,2024-08-03T16:51:00Z,35,23,10+,30.01
KAVX,33.4042,-118.415,260,5,5.7539,KAVX 031651Z AUTO 26005KT 10SM CLR 30/07 A3003 RMK AO2 SLP133 T03000067 $,2024-08-03T16:51:00Z,30,6.7,10+,30.03
KATT,30.3208,-97.7604,0,0,0.0,KATT 031651Z AUTO 00000KT 10SM FEW043 34/23 A3003 RMK AO2 SLP153 T03440233,2024-08-03T16:51:00Z,34.4,23.3,10+,30.03
KALB,42.7473,-73.7991,230,3,3.4523399999999995,KALB 031651Z 23003KT 10SM FEW020 SCT041 BKN055 27/22 A2984 RMK AO2 SLP102 T02720222 $,2024-08-03T16:51:00Z,27.2,22.2,10+,29.84
KAHN,33.9477,-83.3274,VRB,4,4.60312,KAHN 031651Z VRB04KT 10SM SCT032 SCT080 31/23 A2996 RMK AO2 SLP137 T03110228,2024-08-03T16:51:00Z,31.1,22.8,10+,29.96
KACT,31.618,-97.2283,20,5,5.7539,KACT 031651Z 02005KT 10SM CLR 29/22 A3002 RMK AO2 SLP158 T02940217,2024-08-03T16:51:00Z,29.4,21.7,10+,30.02
KABE,40.658,-75.4347,210,9,10.357019999999999,KABE 031651Z 21009KT 10SM SCT045 BKN090 32/21 A2983 RMK AO2 LTG DSNT N SLP097 T03170206 $,2024-08-03T16:51:00Z,31.7,20.6,10+,29.83
K6R6,30.0482,-102.213,140,7,8.05546,K6R6 031651Z AUTO 14007KT 34/17 A30 NO CARRIER RING CONNECT 115200 ABQMTRTCS ALL TTAA00 KTCS 031653 METAR ,2024-08-03T16:51:00Z,34,17,3.23,
TJBQ,18.494,-67.128,90,16,18.41248,TJBQ 031650Z 09016G23KT 10SM CLR 31/25 A3002 RMK LTG DSNT W,2024-08-03T16:50:00Z,31,25,10+,30.02
PTYA,9.487,138.077,VRB,4,4.60312,PTYA 031650Z VRB04KT 12SM FEW016 SCT130 OVC300 27/25 A2983 RMK SLP101 T02690250,2024-08-03T16:50:00Z,26.9,25,12,29.83
PTRO,7.367,134.544,230,4,4.60312,PTRO 031650Z 23004KT 15SM FEW016 SCT120 SCT290 27/24 A2984 ,2024-08-03T16:50:00Z,27,24,15,29.84
PTKK,7.462,151.843,VRB,6,6.904679999999999,PTKK 031650Z VRB06KT 15SM FEW014 SCT120 OVC280 28/25 A2984 RMK SLP108 T02750252,2024-08-03T16:50:00Z,27.5,25.2,15,29.84
OOSH,24.388,56.624,130,4,4.60312,OOSH 031650Z AUTO 13004KT //// ////// 33/28 Q0995 RMK QFE0992 RH074? PR000.0,2024-08-03T16:50:00Z,33,28,,29.38
OOSA,17.044,54.102,110,3,3.4523399999999995,OOSA 031650Z 11003KT 3500 -DZ BR SCT003 BKN010 OVC018 25/25 Q1004 NOSIG,2024-08-03T16:50:00Z,25,25,2.17,29.65
OOMS,23.595,58.298,VRB,2,2.30156,OOMS 031650Z VRB02KT 8000 NSC 31/25 Q0995 NOSIG,2024-08-03T16:50:00Z,31,25,4.97,29.38
OOKB,26.168,56.239,10,5,5.7539,OOKB 031650Z AUTO 01005KT CAVOK ////// 38/26 Q0995 NOSIG,2024-08-03T16:50:00Z,38,26,6+,29.38
OODQ,19.511,57.657,210,31,35.67418,OODQ 031650Z AUTO 21031KT //// R22///// BKN007 24/22 Q0998 NOSIG RMK RH89? 0,2024-08-03T16:50:00Z,24,22,,29.47
OOAD,22.5,57.37,240,8,9.20624,OOAD 031650Z AUTO 24008KT 9999 // NCD 41/14 Q0998 NOSIG,2024-08-03T16:50:00Z,41,14,6+,29.47
MUVR,23.033,-81.435,140,8,9.20624,MUVR 031650Z 14008KT 100V190 9000 BKN020 25/XX Q1011,2024-08-03T16:50:00Z,25,,5.59,29.85
MUSC,22.494,-79.931,140,10,11.5078,MUSC 031650Z 14010KT 5000 SHRA BKN020 25/24 Q1014,2024-08-03T16:50:00Z,25,24,3.11,29.94
MUHG,20.786,-76.316,140,9,10.357019999999999,MUHG 031650Z 14009KT 100V180 9999 SCT030 33/22 Q1015,2024-08-03T16:50:00Z,33,22,6+,29.97
MUHA,22.991,-82.41,150,5,5.7539,MUHA 031650Z 15005KT 110V200 9000 BKN025 BKN070 29/24 Q1010,2024-08-03T16:50:00Z,29,24,5.59,29.82
MUCU,19.971,-75.837,150,7,8.05546,MUCU 031650Z 15007KT 120V190 9000 FEW018 31/25 Q1015,2024-08-03T16:50:00Z,31,25,5.59,29.97
MUCM,21.42,-77.85,110,6,6.904679999999999,MUCM 031650Z 11006KT 060V160 9000 BKN020 31/24 Q1015,2024-08-03T16:50:00Z,31,24,5.59,29.97
MUCL,21.621,-81.552,190,13,14.960139999999999,MUCL 031650Z 19013KT 7000 -RA SCT018 BKN050 26/24 Q1011,2024-08-03T16:50:00Z,26,24,4.35,29.85
MUCC,22.456,-78.339,150,11,12.658579999999999,MUCC 031650Z 15011KT 120V190 9000 SCT020 33/24 Q1014,2024-08-03T16:50:00Z,33,24,5.59,29.94
MMGL,20.523,-103.312,60,4,4.60312,MMGL 031650Z 06004KT 7SM BKN025 22/16 A3026 RMK 8/100 HZY AC/CI,2024-08-03T16:50:00Z,22,16,7,30.26
LXGB,36.151,-5.35,60,9,10.357019999999999,LXGB 031650Z 06009KT 9999 FEW018 26/22 Q1012,2024-08-03T16:50:00Z,26,22,6+,29.88
LTFO,41.179,40.845,130,4,4.60312,LTFO 031650Z 13004KT 9999 FEW035 SCT080 26/20 Q1007,2024-08-03T16:50:00Z,26,20,6+,29.73
LTFH,41.255,36.567,130,4,4.60312,LTFH 031650Z 13004KT 090V170 9999 FEW036 25/21 Q1006 NOSIG,2024-08-03T16:50:00Z,25,21,6+,29.70
LTFG,36.299,32.3,240,6,6.904679999999999,LTFG 031650Z 24006KT 200V270 9999 FEW020 BKN025 29/25 Q1003,2024-08-03T16:50:00Z,29,25,6+,29.62
LTFD,39.559,27.025,310,3,3.4523399999999995,LTFD 031650Z 31003KT 250V060 CAVOK 28/17 Q1004,2024-08-03T16:50:00Z,28,17,6+,29.65
LTFB,37.951,27.333,250,5,5.7539,LTFB 031650Z 25005KT 210V280 CAVOK 29/12 Q1004,2024-08-03T16:50:00Z,29,12,6+,29.65
LTDA,36.361,36.283,230,15,17.261699999999998,LTDA 031650Z 23015KT 150V280 CAVOK 30/21 Q1002 NOSIG,2024-08-03T16:50:00Z,30,21,6+,29.59
LTCW,37.55,44.238,40,10,11.5078,LTCW 031650Z 04010KT 9999 SCT040 SCT100 25/06 Q1014,2024-08-03T16:50:00Z,25,6,6+,29.94
LTCV,37.365,42.06,230,11,12.658579999999999,LTCV 031650Z 23011KT CAVOK 36/04 Q1000,2024-08-03T16:50:00Z,36,4,6+,29.53
LTCT,39.977,43.878,190,15,17.261699999999998,LTCT 031650Z 19015KT 9999 -TSRA FEW025CB SCT035 BKN100 27/11 Q1007 RETS,2024-08-03T16:50:00Z,27,11,6+,29.73
LTCR,37.232,40.638,250,6,6.904679999999999,LTCR 031650Z 25006KT 220V280 CAVOK 35/06 Q1001,2024-08-03T16:50:00Z,35,6,6+,29.56
LTCP,37.731,38.469,VRB,2,2.30156,LTCP 031650Z VRB02KT CAVOK 34/M03 Q1002,2024-08-03T16:50:00Z,34,-3,6+,29.59
LTCN,37.539,36.953,290,21,24.166379999999997,LTCN 031650Z 29021KT CAVOK 30/20 Q1003,2024-08-03T16:50:00Z,30,20,6+,29.62
LTCM,42.019,35.072,120,11,12.658579999999999,LTCM 031650Z 12011KT 9999 FEW032 26/21 Q1006,2024-08-03T16:50:00Z,26,21,6+,29.70
LTCI,38.469,43.337,110,13,14.960139999999999,LTCI 031650Z 11013KT 9999 FEW040 25/07 Q1011 NOSIG,2024-08-03T16:50:00Z,25,7,6+,29.85
LTCD,39.71,39.527,340,9,10.357019999999999,LTCD 031650Z 34009KT 9999 FEW045 SCT080 30/M00 Q1007 NOSIG,2024-08-03T16:50:00Z,30,0,6+,29.73
LTCB,40.967,38.081,140,6,6.904679999999999,LTCB 031650Z 14006KT 110V170 9999 FEW035 26/20 Q1006 NOSIG,2024-08-03T16:50:00Z,26,20,6+,29.70
LTCA,38.607,39.291,240,4,4.60312,LTCA 031650Z 24004KT 210V270 CAVOK 30/03 Q1004 NOSIG,2024-08-03T16:50:00Z,30,3,6+,29.65
LTBY,39.81,30.519,300,9,10.357019999999999,LTBY 031650Z 30009KT CAVOK 28/07 Q1008,2024-08-03T16:50:00Z,28,7,6+,29.76
LTBQ,40.735,30.083,30,7,8.05546,LTBQ 031650Z 03007KT CAVOK 28/16 Q1005 NOSIG,2024-08-03T16:50:00Z,28,16,6+,29.68
LTBH,40.14,26.425,20,4,4.60312,LTBH 031650Z 02004KT CAVOK 31/11 Q1005,2024-08-03T16:50:00Z,31,11,6+,29.68
LTBF,39.619,27.926,350,6,6.904679999999999,LTBF 031650Z 35006KT CAVOK 32/05 Q1004 NOSIG,2024-08-03T16:50:00Z,32,5,6+,29.65
LTBD,37.816,27.886,260,8,9.20624,LTBD 031650Z 26008KT CAVOK 31/13 Q1003,2024-08-03T16:50:00Z,31,13,6+,29.62
LTAY,37.785,29.701,280,11,12.658579999999999,LTAY 031650Z 28011KT 9999 FEW035 32/07 Q1008 NOSIG,2024-08-03T16:50:00Z,32,7,6+,29.76
LTAR,39.798,36.894,350,10,11.5078,LTAR 031650Z 35010KT CAVOK 21/04 Q1014,2024-08-03T16:50:00Z,21,4,6+,29.94
LTAN,37.979,32.562,90,6,6.904679999999999,LTAN 031650Z 09006KT CAVOK 31/05 Q1009 NOSIG,2024-08-03T16:50:00Z,31,5,6+,29.79
LTAE,40.079,32.566,290,6,6.904679999999999,LTAE 031650Z 29006KT CAVOK 30/00 Q1007 NOSIG RMK RWY21 25006KT,2024-08-03T16:50:00Z,30,0,6+,29.73
LOXZ,47.203,14.744,360,4,4.60312,LOXZ 031650Z 36004KT 9999 SCT070 SCT300 23/16 Q1013,2024-08-03T16:50:00Z,23,16,6+,29.91
LLHA,32.809,35.043,320,6,6.904679999999999,LLHA 031650Z 32006KT 290V360 9999 FEW025 29/23 Q1005,2024-08-03T16:50:00Z,29,23,6+,29.68
LLER,29.722,35.012,10,7,8.05546,LLER 031650Z 01007KT CAVOK 38/07 Q1003,2024-08-03T16:50:00Z,38,7,6+,29.62
LIRU,41.953,12.5,260,8,9.20624,LIRU 031650Z 26008KT 9999 VCSH FEW030CB 32/19 Q1007,2024-08-03T16:50:00Z,32,19,6+,29.73
LIRI,40.62,14.911,270,6,6.904679999999999,LIRI 031650Z 27006KT 240V300 CAVOK 30/23 Q1008,2024-08-03T16:50:00Z,30,23,6+,29.76
LIQN,42.427,12.85,230,8,9.20624,LIQN 031650Z 23008KT 190V290 9999 VCSH NSC 27/17 Q1010 RETS,2024-08-03T16:50:00Z,27,17,6+,29.82
LIPK,44.196,12.07,VRB,3,3.4523399999999995,LIPK 031650Z VRB03KT CAVOK 29/22 Q1009,2024-08-03T16:50:00Z,29,22,6+,29.79
LIPB,46.46,11.326,180,4,4.60312,LIPB 031650Z 18004KT 150V210 9999 FEW070 30/16 Q1008,2024-08-03T16:50:00Z,30,16,6+,29.76
LIMP,44.825,10.296,90,9,10.357019999999999,LIMP 031650Z 09009KT 9999 FEW030 31/19 Q1008,2024-08-03T16:50:00Z,31,19,6+,29.76
LIMG,44.046,8.126,90,3,3.4523399999999995,LIMG 031650Z 09003KT 050V130 9999 FEW050 32/21 Q1007,2024-08-03T16:50:00Z,32,21,6+,29.73
LIMA,45.086,7.603,VRB,3,3.4523399999999995,LIMA 031650Z VRB03KT CAVOK 33/13 Q1008,2024-08-03T16:50:00Z,33,13,6+,29.76
LICG,36.814,11.971,300,8,9.20624,LICG 031650Z 30008KT 9999 FEW030 27/24 Q1010,2024-08-03T16:50:00Z,27,24,6+,29.82
LIBG,40.517,17.403,80,7,8.05546,LIBG 031650Z 08007KT 9999 FEW040 34/16 Q1006,2024-08-03T16:50:00Z,34,16,6+,29.70
LIBF,41.433,15.535,300,7,8.05546,LIBF 031650Z 30007KT 9999 SCT050 24/20 Q1009,2024-08-03T16:50:00Z,24,20,6+,29.79
LIBC,38.997,17.079,200,12,13.809359999999998,LIBC 031650Z 20012KT CAVOK 31/19 Q1006,2024-08-03T16:50:00Z,31,19,6+,29.70
LGNX,37.081,25.369,330,5,5.7539,LGNX 031650Z 33005KT CAVOK 28/22 Q1005,2024-08-03T16:50:00Z,28,22,6+,29.68
LGKC,36.274,23.017,260,8,9.20624,LGKC 031650Z 26008KT 230V300 9999 FEW012 27/23 Q1008,2024-08-03T16:50:00Z,27,23,6+,29.76
LGHI,38.343,26.141,VRB,3,3.4523399999999995,LGHI 031650Z VRB03KT CAVOK 31/16 Q1003,2024-08-03T16:50:00Z,31,16,6+,29.62
KWDG,36.3781,-97.7888,0,0,0.0,KWDG 031650Z 00000KT 10SM SKC 33/16 A3009,2024-08-03T16:50:00Z,33,16,10+,30.09
KVQQ,30.2035,-81.8725,200,6,6.904679999999999,KVQQ 031650Z 20006G15KT 10SM SCT042 35/22 A2999,2024-08-03T16:50:00Z,35,22,10+,29.99
KTRK,39.3154,-120.137,0,0,0.0,KTRK 031650Z 00000KT 10SM OVC100 19/12 A3033,2024-08-03T16:50:00Z,19,12,10+,30.33
KSUA,27.1815,-80.2252,VRB,5,5.7539,KSUA 031650Z VRB05KT 5SM VCTS RA SCT014 BKN020 26/25 A2999,2024-08-03T16:50:00Z,26,25,5,29.99
KRYY,34.0146,-84.5964,300,6,6.904679999999999,KRYY 031650Z 30006KT 10SM BKN025 29/23 A3001 RMK AO2 SLPNO T02900230 $,2024-08-03T16:50:00Z,29,23,10+,30.01
KOQU,41.5995,-71.4111,240,13,14.960139999999999,KOQU 031650Z AUTO 24013G17KT 8SM HZ SCT036 SCT048 32/24 A2981,2024-08-03T16:50:00Z,32,24,8,29.81
KOMN,29.3009,-81.111,110,10,11.5078,KOMN 031650Z 11010G15KT 7SM SCT024 32/26 A2999,2024-08-03T16:50:00Z,32,26,7,29.99
KOLV,34.9808,-89.7851,30,4,4.60312,KOLV 031650Z 03004KT 10SM SCT030 30/21 A3001,2024-08-03T16:50:00Z,30,21,10+,30.01
KNQA,35.3619,-89.8612,VRB,6,6.904679999999999,KNQA 031650Z VRB06KT 10SM SCT035 BKN042 29/21 A3000,2024-08-03T16:50:00Z,29,21,10+,30.00
KMWN,44.271,-71.304,350,10,11.5078,KMWN 031650Z 35010KT 2SM BKN/// BKN/// OVC080 15/13 RMK TPS LWR BKN050 BBLO BKN ALQDS LIMITING VIS TO 2SM,2024-08-03T16:50:00Z,15,13,2,
KMMU,40.7989,-74.4164,210,4,4.60312,KMMU 031650Z 21004KT 10SM SCT035 32/24 A2983,2024-08-03T16:50:00Z,32,24,10+,29.83
KJWN,36.1852,-86.8833,320,5,5.7539,KJWN 031650Z 32005KT 10SM SCT030 30/21 A2997,2024-08-03T16:50:00Z,30,21,10+,29.97
KJQF,35.3896,-80.7074,200,8,9.20624,KJQF 031650Z 20008KT 10SM BKN029 BKN042 30/23 A2997,2024-08-03T16:50:00Z,30,23,10+,29.97
KHXD,32.2263,-80.6949,200,11,12.658579999999999,KHXD 031650Z 20011G19KT 10SM CLR 31/25 A3002,2024-08-03T16:50:00Z,31,25,10+,30.02
KHUM,29.5634,-90.6629,350,5,5.7539,KHUM 031650Z 35005KT 7SM SCT038 SCT043 34/24 A2997,2024-08-03T16:50:00Z,34,24,7,29.97
KHSA,30.3765,-89.4554,VRB,4,4.60312,KHSA 031650Z VRB04KT 7SM SCT040 34/24 A2996,2024-08-03T16:50:00Z,34,24,7,29.96
KHOB,32.6797,-103.222,0,0,0.0,KHOB 031650Z 00000KT 10SM BKN140 33/11 A3020,2024-08-03T16:50:00Z,33,11,10+,30.20
KFWS,32.558,-97.308,330,6,6.904679999999999,KFWS 031650Z 33006KT 10SM CLR 34/20 A3003,2024-08-03T16:50:00Z,34,20,10+,30.03
KFIN,29.467,-81.207,110,10,11.5078,KFIN 031650Z 11010KT 10SM SCT024 31/24 A3000,2024-08-03T16:50:00Z,31,24,10+,30.00
KDAG,34.8537,-116.787,300,10,11.5078,KDAG 031650Z AUTO 30010KT 10SM CLR 33/12 A3001 RMK AO2 SLP133 T03330122,2024-08-03T16:50:00Z,33.3,12.2,10+,30.01
KALN,38.8897,-90.0316,VRB,5,5.7539,KALN 031650Z VRB05KT 10SM FEW025 29/21 A3002,2024-08-03T16:50:00Z,29,21,10+,30.02
KADM,34.3007,-97.0089,0,0,0.0,KADM 031650Z 00000KT 10SM CLR 34/14 A3003,2024-08-03T16:50:00Z,34,14,10+,30.03
EGYM,52.648,0.567,320,9,10.357019999999999,EGYM 031650Z AUTO 32009KT 9999 FEW032/// BKN180/// 21/13 Q1010,2024-08-03T16:50:00Z,21,13,6+,29.82
EGYH,52.873,0.139,280,8,9.20624,EGYH 031650Z AUTO 28008KT 9999 SCT056/// 21/12 Q1010,2024-08-03T16:50:00Z,21,12,6+,29.82
EGYE,52.962,-0.562,290,10,11.5078,EGYE 031650Z AUTO 29010KT //// BKN048/// 20/10 Q1011,2024-08-03T16:50:00Z,20,10,,29.85
EGYD,53.031,-0.503,280,10,11.5078,EGYD 031650Z AUTO 28010KT 9999 // BKN049/// 21/09 Q1011,2024-08-03T16:50:00Z,21,9,6+,29.85
EGXZ,54.205,-1.39,260,12,13.809359999999998,EGXZ 031650Z AUTO 26012KT 9999 BKN049/// 20/08 Q1010,2024-08-03T16:50:00Z,20,8,6+,29.82
EGXW,53.175,-0.523,300,9,10.357019999999999,EGXW 031650Z AUTO 30009KT 9999 SCT052/// 20/08 Q1010,2024-08-03T16:50:00Z,20,8,6+,29.82
EGXV,53.876,-0.435,280,12,13.809359999999998,EGXV 031650Z AUTO 28012KT 9999 BKN050/// 21/08 Q1010,2024-08-03T16:50:00Z,21,8,6+,29.82
EGXT,52.611,-0.461,300,10,11.5078,EGXT 031650Z AUTO 30010KT 9999 NCD 21/08 Q1010,2024-08-03T16:50:00Z,21,8,6+,29.82
EGXS,53.475,0.152,90,9,10.357019999999999,EGXS 031650Z AUTO 09009KT 9999 SCT053/// 17/13 Q1010,2024-08-03T16:50:00Z,17,13,6+,29.82
EGXE,54.297,-1.533,260,13,14.960139999999999,EGXE 031650Z AUTO 26013KT 9999 FEW044/// 19/09 Q1010,2024-08-03T16:50:00Z,19,9,6+,29.82
EGXC,53.094,-0.173,280,12,13.809359999999998,EGXC 031650Z 28012KT CAVOK 21/08 Q1010 RMK BLU,2024-08-03T16:50:00Z,21,8,6+,29.82
EGWC,52.64,-2.311,290,8,9.20624,EGWC 031650Z AUTO 29008KT //// ///////// ///// Q////,2024-08-03T16:50:00Z,,,,
EGVP,51.139,-1.569,280,8,9.20624,EGVP 031650Z AUTO 28008KT 9999 NCD 21/07 Q1012,2024-08-03T16:50:00Z,21,7,6+,29.88
EGVO,51.239,-0.945,260,9,10.357019999999999,EGVO 031650Z 26009KT CAVOK 22/08 Q1012 NOSIG RMK BLU BLU,2024-08-03T16:50:00Z,22,8,6+,29.88
EGUW,52.124,0.957,350,8,9.20624,EGUW 031650Z AUTO 35008KT 9999 BKN028/// SCT170/// 21/14 Q1010,2024-08-03T16:50:00Z,21,14,6+,29.82
EGUB,51.62,-1.099,300,9,10.357019999999999,EGUB 031650Z AUTO 30009KT 9999 FEW049/// 22/11 Q1011,2024-08-03T16:50:00Z,22,11,6+,29.85
EGTC,52.072,-0.617,280,10,11.5078,EGTC 031650Z 28010KT CAVOK 21/09 Q1011,2024-08-03T16:50:00Z,21,9,6+,29.85
EGQM,55.421,-1.601,260,11,12.658579999999999,EGQM 031650Z AUTO 26011KT 9999 BKN077/// 18/09 Q1009,2024-08-03T16:50:00Z,18,9,6+,29.79
EGQL,56.377,-2.862,250,14,16.11092,EGQL 031650Z AUTO 25014KT 9999 FEW048/// OVC083/// 19/08 Q1008,2024-08-03T16:50:00Z,19,8,6+,29.76
EGQK,57.646,-3.563,270,15,17.261699999999998,EGQK 031650Z AUTO 27015KT 9999 // SCT058/// BKN100/// 16/09 Q1007,2024-08-03T16:50:00Z,16,9,6+,29.73
EGQA,57.825,-3.955,200,4,4.60312,EGQA 031650Z AUTO 20004KT 9999 -RA OVC048/// 13/12 Q1007,2024-08-03T16:50:00Z,13,12,6+,29.73
EGOV,53.252,-4.536,210,15,17.261699999999998,EGOV 031650Z AUTO 21015KT 9999 FEW074/// 17/13 Q1012,2024-08-03T16:50:00Z,17,13,6+,29.88
EGOS,52.795,-2.665,290,8,9.20624,EGOS 031650Z AUTO 29008KT 9999 OVC046/// 18/10 Q1012,2024-08-03T16:50:00Z,18,10,6+,29.88
EGOP,51.714,-4.367,280,17,19.56326,EGOP 031650Z AUTO 28017KT 9999 SCT040/// 19/10 Q1013,2024-08-03T16:50:00Z,19,10,6+,29.91
EGOM,55.05,-2.554,270,14,16.11092,EGOM 031650Z AUTO 27014KT 9999 FEW032/// OVC060/// 15/08 Q1010,2024-08-03T16:50:00Z,15,8,6+,29.82
EGHC,50.103,-5.671,300,11,12.658579999999999,EGHC 031650Z 30011KT 9999 FEW022 17/12 Q1015,2024-08-03T16:50:00Z,17,12,6+,29.97
EGDY,51.006,-2.643,310,12,13.809359999999998,EGDY 031650Z AUTO 31012KT 9999 NCD 19/09 Q1013,2024-08-03T16:50:00Z,19,9,6+,29.91
EGDR,50.084,-5.257,300,11,12.658579999999999,EGDR 031650Z AUTO 30011KT 9999 BKN032/// 18/10 Q1015,2024-08-03T16:50:00Z,18,10,6+,29.97
EGDM,51.153,-1.75,290,10,11.5078,EGDM 031650Z AUTO 29010KT 9999 NCD 21/09 Q1012,2024-08-03T16:50:00Z,21,9,6+,29.88
EEEI,59.26,24.209,300,9,10.357019999999999,EEEI 031650Z AUTO 30009KT 9999 FEW022/// 20/16 Q1005,2024-08-03T16:50:00Z,20,16,6+,29.68
BGSF,67.013,-50.718,VRB,4,4.60312,BGSF 031650Z AUTO VRB04KT 9999NDV NCD 17/03 Q1007,2024-08-03T16:50:00Z,17,3,,29.73
BGKK,65.575,-37.133,240,6,6.904679999999999,BGKK 031650Z 24006KT 220V280 9999 FEW020 SCT040 BKN076 08/06 Q1011,2024-08-03T16:50:00Z,8,6,6+,29.85
BGJN,69.24,-51.064,320,5,5.7539,BGJN 031650Z 32005KT 9999 SKC 13/00 Q1007,2024-08-03T16:50:00Z,13,0,6+,29.73
BGGH,64.191,-51.677,190,7,8.05546,BGGH 031650Z 19007KT 9999 SCT006 04/01 Q1010,2024-08-03T16:50:00Z,4,1,6+,29.82
BGBW,61.164,-45.42,250,6,6.904679999999999,BGBW 031650Z 25006KT 220V280 9999 FEW230 17/06 Q1008,2024-08-03T16:50:00Z,17,6,6+,29.76
MMVR,19.144,-96.189,340,7,8.05546,MMVR 031649Z 34007KT 7SM FEW015 BKN030 BKN250 29/24 A3000 RMK 8/702 HZY VC CB SW,2024-08-03T16:49:00Z,29,24,7,30.00
MMDO,24.124,-104.532,0,0,0.0,MMDO 031649Z 00000KT 10SM FEW200 24/09 A3035 RMK 8/002,2024-08-03T16:49:00Z,24,9,10+,30.35
MMAA,16.758,-99.754,250,4,4.60312,MMAA 031649Z 25004KT 8SM FEW015 BKN300 30/24 A2988 RMK 8/102 HZY DSNT TCU SE,2024-08-03T16:49:00Z,30,24,8,29.88
KIFP,35.1487,-114.561,220,6,6.904679999999999,KIFP 031649Z 22006KT 10SM CLR 39/13 A2989,2024-08-03T16:49:00Z,39,13,10+,29.89
KBKB,31.022,-92.911,VRB,3,3.4523399999999995,KBKB 031649Z AUTO VRB03KT 10SM CLR 33/24 A2996 RMK AO2 SLP171 T03330244 $,2024-08-03T16:49:00Z,33.3,24.4,10+,29.96
MMTO,19.343,-99.568,110,3,3.4523399999999995,MMTO 031648Z 11003KT 5SM SCT015 18/11 A3045 RMK 8/800 HZY CI,2024-08-03T16:48:00Z,18,11,5,30.45
MMTG,16.571,-93.03,40,4,4.60312,MMTG 031648Z 04004KT 6SM SCT030 SCT300 30/22 A3003 RMK 8/501 HZY,2024-08-03T16:48:00Z,30,22,6,30.03
MMSD,23.157,-109.72,0,0,0.0,MMSD 031648Z 00000KT 10SM SKC 35/15 A2991,2024-08-03T16:48:00Z,35,15,10+,29.91
MMPS,15.876,-97.093,0,0,0.0,MMPS 031648Z 00000KT 12SM FEW010 SCT240 31/25 A2992 RMK 8/105 HZY MSGTX MMMX,2024-08-03T16:48:00Z,31,25,12,29.92
MMPN,19.396,-102.041,0,0,0.0,MMPN 031648Z 00000KT 10SM SCT025 OVC260 24/18 A3022 RMK 8/101,2024-08-03T16:48:00Z,24,18,10+,30.22
MMEP,21.418,-104.842,360,3,3.4523399999999995,MMEP 031648Z 36003KT 10SM BKN100 26/22 A3011 RMK 8/030,2024-08-03T16:48:00Z,26,22,10+,30.11
KJDN,47.3259,-106.949,100,9,10.357019999999999,KJDN 031648Z AUTO 10009KT 28/12 A3013 RMK AO1 SLP181 T02780117,2024-08-03T16:48:00Z,27.8,11.7,,30.13
KASG,36.1802,-94.1176,VRB,3,3.4523399999999995,KASG 031648Z VRB03KT 10SM SCT040 29/24 A3009,2024-08-03T16:48:00Z,29,24,10+,30.09
RJFY,31.368,130.838,VRB,1,1.15078,RJFY 031647Z VRB01KT 9999 BKN010 28/24 Q1008 RMK 5CU010 A2977,2024-08-03T16:47:00Z,28,24,6+,29.76
MMMD,20.936,-89.659,360,4,4.60312,MMMD 031647Z 36004KT 7SM BKN018TCU 32/25 A2993 RMK 8/200 HZY CI,2024-08-03T16:47:00Z,32,25,7,29.93
KTOA,33.803,-118.336,290,7,8.05546,KTOA 031647Z 29007KT 10SM SKC 22/16 A2997,2024-08-03T16:47:00Z,22,16,10+,29.97
KTIX,28.508,-80.798,190,12,13.809359999999998,KTIX 031647Z 19012G20KT 7SM VCSH SCT026 33/23 A3001,2024-08-03T16:47:00Z,33,23,7,30.01
KSQL,37.5119,-122.248,VRB,5,5.7539,KSQL 031647Z VRB05KT 10SM CLR 20/16 A2999,2024-08-03T16:47:00Z,20,16,10+,29.99
KSEE,32.8273,-116.974,0,0,0.0,KSEE 031647Z 00000KT 10SM SKC 29/13 A2995,2024-08-03T16:47:00Z,29,13,10+,29.95
KRHV,37.3331,-121.82,VRB,3,3.4523399999999995,KRHV 031647Z VRB03KT 10SM SCT120 23/16 A2998,2024-08-03T16:47:00Z,23,16,10+,29.98
KPOC,34.0928,-117.779,0,0,0.0,KPOC 031647Z 00000KT 10SM CLR 29/14 A3000,2024-08-03T16:47:00Z,29,14,10+,30.00
KPAO,37.458,-122.112,20,5,5.7539,KPAO 031647Z 02005KT 10SM SKC 19/15 A2999,2024-08-03T16:47:00Z,19,15,10+,29.99
KOUN,35.2436,-97.4713,80,5,5.7539,KOUN 031647Z 08005KT 10SM CLR 32/15 A3007,2024-08-03T16:47:00Z,32,15,10+,30.07
KLBE,40.2767,-79.4039,260,7,8.05546,KLBE 031647Z 26007G14KT 10SM BKN024 BKN035 BKN110 28/22 A2989,2024-08-03T16:47:00Z,28,22,10+,29.89
KGYR,33.428,-112.368,60,5,5.7539,KGYR 031647Z 06005KT 10SM FEW180 SCT250 39/16 A2993,2024-08-03T16:47:00Z,39,16,10+,29.93
KGYH,34.763,-82.375,230,10,11.5078,KGYH 031647Z 23010KT 10SM BKN030 31/23 A2996,2024-08-03T16:47:00Z,31,23,10+,29.96
KGEU,33.528,-112.293,80,5,5.7539,KGEU 031647Z 08005KT 10SM FEW100 SCT150 39/13 A2990,2024-08-03T16:47:00Z,39,13,10+,29.90
KFDK,39.4177,-77.3696,190,4,4.60312,KFDK 031647Z 19004KT 10SM SCT035 33/24 A2984,2024-08-03T16:47:00Z,33,24,10+,29.84
KEVB,29.0568,-80.9491,110,13,14.960139999999999,KEVB 031647Z 11013G19KT 10SM SCT020 33/26 A3000,2024-08-03T16:47:00Z,33,26,10+,30.00
KCWA,44.7795,-89.671,60,6,6.904679999999999,KCWA 031647Z 06006KT 10SM CLR 27/15 A3003,2024-08-03T16:47:00Z,27,15,10+,30.03
KCHD,33.2669,-111.809,260,5,5.7539,KCHD 031647Z 26005KT 10SM CLR 37/15 A2994,2024-08-03T16:47:00Z,37,15,10+,29.94
KAQV,31.396,-93.297,VRB,3,3.4523399999999995,KAQV 031647Z AUTO VRB03KT 10SM FEW033 33/24 A2999 RMK AO2 SLP151 T03280239 $,2024-08-03T16:47:00Z,32.8,23.9,10+,29.99
KADS,32.9634,-96.8354,340,3,3.4523399999999995,KADS 031647Z 34003KT 10SM SKC 33/17 A3004,2024-08-03T16:47:00Z,33,17,10+,30.04
TJIG,18.457,-66.094,100,14,16.11092,TJIG 031646Z 10014KT 10SM SCT030 BKN065 31/26 A3001,2024-08-03T16:46:00Z,31,26,10+,30.01
MMTC,25.564,-103.408,120,6,6.904679999999999,MMTC 031646Z 12006KT 10SM SCT100 31/14 A3018 RMK 8/070,2024-08-03T16:46:00Z,31,14,10+,30.18
MMSM,19.763,-99.002,0,0,0.0,MMSM 031646Z 00000KT 7SM SCT020 SCT220 19/11 A3040 RMK 8/808 HZY,2024-08-03T16:46:00Z,19,11,7,30.40
MMCZ,20.516,-86.932,320,6,6.904679999999999,MMCZ 031646Z 32006KT 8SM SCT015TCU SCT250 32/25 A2988 RMK 8/205,2024-08-03T16:46:00Z,32,25,8,29.88
MMCN,27.395,-109.837,150,5,5.7539,MMCN 031646Z 15005KT 10SM FEW200 33/20 A2988 RMK 8/008 HZY,2024-08-03T16:46:00Z,33,20,10+,29.88
KTZR,39.8988,-83.1357,190,6,6.904679999999999,KTZR 031646Z 19006KT 10SM BKN019 OVC030 25/21 A2994,2024-08-03T16:46:00Z,25,21,10+,29.94
PALP,70.348,-150.928,180,6,6.904679999999999,PALP 031645Z 18006KT 10SM SKC 08/04 A3001,2024-08-03T16:45:00Z,8,4,10+,30.01
MMTL,20.1725,-87.6622,0,0,0.0,MMTL 031645Z 00000KT 7SM SCT020 BKN250 32/23 A2993 RMK 8/508,2024-08-03T16:45:00Z,32,23,7,29.93
MMSP,22.256,-100.93,30,8,9.20624,MMSP 031645Z 03008KT 10SM SCT250 21/13 A3037 RMK 8/001 ISOL CU,2024-08-03T16:45:00Z,21,13,10+,30.37
MMMZ,23.161,-106.271,350,6,6.904679999999999,MMMZ 031645Z 35006KT 14SM BKN090 OVC240 30/25 A2990 RMK 8/077 BINOVC,2024-08-03T16:45:00Z,30,25,14,29.90
MMMX,19.436,-99.072,100,4,4.60312,MMMX 031645Z 10004KT 7SM SCT020 19/12 A3040 NOSIG RMK 8/800 HZY CI,2024-08-03T16:45:00Z,19,12,7,30.40
MMLP,24.077,-110.364,250,6,6.904679999999999,MMLP 031645Z 25006KT 10SM FEW100 33/14 A2995 RMK 8/030 ISOL CI,2024-08-03T16:45:00Z,33,14,10+,29.95
KUES,43.0425,-88.2465,60,7,8.05546,KUES 031645Z 06007KT 10SM SCT032 SCT065 27/19 A3000,2024-08-03T16:45:00Z,27,19,10+,30.00
KSCH,42.8499,-73.9301,270,4,4.60312,KSCH 031645Z 27004KT 10SM SCT060 SCT075 27/22 A2984,2024-08-03T16:45:00Z,27,22,10+,29.84
KSAW,46.341,-87.395,30,8,9.20624,KSAW 031645Z 03008KT 10SM CLR 27/13 A3000,2024-08-03T16:45:00Z,27,13,10+,30.00
KMWC,43.1095,-88.0343,100,5,5.7539,KMWC 031645Z 10005KT 10SM CLR 28/17 A3000,2024-08-03T16:45:00Z,28,17,10+,30.00
KMWA,37.7544,-89.0118,330,8,9.20624,KMWA 031645Z 33008KT 10SM SCT037 BKN043 29/22 A3001,2024-08-03T16:45:00Z,29,22,10+,30.01
KLWB,37.8633,-80.3923,280,8,9.20624,KLWB 031645Z 28008KT 10SM SCT024 SCT032 BKN050 24/19 A3001,2024-08-03T16:45:00Z,24,19,10+,30.01
KLOT,41.6031,-88.1017,0,0,0.0,KLOT 031645Z 00000KT 10SM SCT036 31/22 A2997,2024-08-03T16:45:00Z,31,22,10+,29.97
KJVL,42.6213,-89.0419,310,5,5.7539,KJVL 031645Z 31005KT 10SM FEW035 30/22 A2998,2024-08-03T16:45:00Z,30,22,10+,29.98
KGYY,41.6121,-87.4091,350,4,4.60312,KGYY 031645Z 35004KT 10SM CLR 28/24 A2996,2024-08-03T16:45:00Z,28,24,10+,29.96
KFMH,41.6608,-70.5221,250,11,12.658579999999999,KFMH 031645Z 25011G22KT 10SM CLR 29/23 A2981,2024-08-03T16:45:00Z,29,23,10+,29.81
KESN,38.804,-76.069,240,11,12.658579999999999,KESN 031645Z 24011G20KT 10SM CLR 30/24 A2987,2024-08-03T16:45:00Z,30,24,10+,29.87
KEMT,34.0882,-118.034,210,3,3.4523399999999995,KEMT 031645Z 21003KT 10SM CLR 28/15 A2996,2024-08-03T16:45:00Z,28,15,10+,29.96
KCGF,41.566,-81.4827,50,7,8.05546,KCGF 031645Z 05007KT 10SM SCT016 SCT080 26/21 A2992,2024-08-03T16:45:00Z,26,21,10+,29.92
KBJC,39.9008,-105.104,0,0,0.0,KBJC 031645Z 00000KT 10SM FEW100 29/07 A3032,2024-08-03T16:45:00Z,29,7,10+,30.32
KBBG,36.5259,-93.1969,0,0,0.0,KBBG 031645Z 00000KT 10SM CLR 29/19 A3010,2024-08-03T16:45:00Z,29,19,10+,30.10
KATW,44.2519,-88.526,0,0,0.0,KATW 031645Z 00000KT 10SM FEW050 28/17 A3001,2024-08-03T16:45:00Z,28,17,10+,30.01
KANE,45.1426,-93.2127,140,5,5.7539,KANE 031645Z 14005KT 10SM CLR 27/14 A3001,2024-08-03T16:45:00Z,27,14,10+,30.01
MMPB,19.17,-98.371,60,5,5.7539,MMPB 031644Z 06005KT 12SM SCT220 21/09 A3039 RMK 8/002 CU,2024-08-03T16:44:00Z,21,9,12,30.39
MMPA,20.601,-97.459,90,4,4.60312,MMPA 031644Z 09004KT 4SM SCT020 BKN280 31/25 A3001 RMK 8/108 HZY MSGTX MMMX,2024-08-03T16:44:00Z,31,25,4,30.01
MMML,32.631,-115.238,320,6,6.904679999999999,MMML 031644Z 32006KT 10SM SKC 39/08 A2986,2024-08-03T16:44:00Z,39,8,10+,29.86
MMMA,25.77,-97.523,110,5,5.7539,MMMA 031644Z 11005KT 10SM BKN020 32/23 A3000 RMK 8/100,2024-08-03T16:44:00Z,32,23,10+,30.00
MMCT,20.641,-88.446,320,6,6.904679999999999,MMCT 031644Z 32006KT 7SM SCT020 BKN300 31/26 A2991 RMK 8/108 HZY,2024-08-03T16:44:00Z,31,26,7,29.91
MMCE,18.651,-91.8,0,0,0.0,MMCE 031644Z 00000KT 4SM BKN015 30/26 A2995 RMK 8/200 HZY,2024-08-03T16:44:00Z,30,26,4,29.95
MMCB,18.83,-99.265,0,0,0.0,MMCB 031644Z 00000KT 10SM FEW020 BKN200 25/17 A3019 RMK 8/101 AC,2024-08-03T16:44:00Z,25,17,10+,30.19
MMPG,28.63,-100.541,0,0,0.0,MMPG 031643Z 00000KT 10SM FEW030 35/23 A3005 RMK 8/100,2024-08-03T16:43:00Z,35,23,10+,30.05
MMMM,19.844,-101.037,360,3,3.4523399999999995,MMMM 031642Z 36003KT 6SM BKN020 21/15 A3031 RMK 8/100 HZY LWR SC,2024-08-03T16:42:00Z,21,15,6,30.31
MMCM,18.504,-88.326,220,6,6.904679999999999,MMCM 031642Z 22006KT 7SM BKN020 BKN100 32/25 A2993 RMK 8/530,2024-08-03T16:42:00Z,32,25,7,29.93
MMZO,19.147,-104.565,160,5,5.7539,MMZO 031641Z 16005KT 12SM SCT020TCU SCT100 BKN200 29/25 A2991 RMK 8/211 HZY,2024-08-03T16:41:00Z,29,25,12,29.91
MMVA,17.998,-92.817,280,5,5.7539,MMVA 031641Z 28005KT 7SM SCT018TCU SCT230 31/24 A2995 RMK 8/208,2024-08-03T16:41:00Z,31,24,7,29.95
MMPQ,17.534,-92.017,0,0,0.0,MMPQ 031641Z 00000KT 6SM SCT030 29/25 A2986 RMK 8/100,2024-08-03T16:41:00Z,29,25,6,29.86
MMLO,20.997,-101.481,0,0,0.0,MMLO 031641Z 00000KT 10SM FEW030 SCT250 23/11 A3028 RMK 8/508,2024-08-03T16:41:00Z,23,11,10+,30.28
MMLM,25.688,-109.085,140,8,9.20624,MMLM 031641Z 14008KT 8SM SCT030 SCT220 32/24 A2991 RMK 8/401,2024-08-03T16:41:00Z,32,24,8,29.91
MMIA,19.276,-103.576,0,0,0.0,MMIA 031641Z 00000KT 4SM SCT015TCU BKN160 27/23 A3003 RMK 8/230 HZY,2024-08-03T16:41:00Z,27,23,4,30.03
MMCU,28.701,-105.965,60,9,10.357019999999999,MMCU 031641Z 06009KT 10SM SKC 31/11 A3027,2024-08-03T16:41:00Z,31,11,10+,30.27
MMBT,15.775,-96.26,0,0,0.0,MMBT 031641Z 00000KT 8SM SCT020 BKN220 32/24 A2990 RMK 8/101,2024-08-03T16:41:00Z,32,24,8,29.90
MMAS,21.702,-102.318,30,7,8.05546,MMAS 031641Z 03007KT 8SM FEW100 FEW200 22/12 A3035 RMK 8/038 ISOL CU,2024-08-03T16:41:00Z,22,12,8,30.35
MMAN,25.865,-100.239,0,0,0.0,MMAN 031641Z 00000KT 7SM SKC 32/21 A3007 RMK HZY ISOL SC,2024-08-03T16:41:00Z,32,21,7,30.07
KNUW,48.355,-122.664,220,9,10.357019999999999,KNUW 031641Z 22009KT 6SM BR SCT008 BKN050 15/13 A3010 RMK AO2 T01500128,2024-08-03T16:41:00Z,15,12.8,6,30.10
MMZH,17.605,-101.464,260,5,5.7539,MMZH 031640Z 26005KT 7SM BKN100 BKN250 32/24 A2991 RMK 8/038 HZY ISOL CU,2024-08-03T16:40:00Z,32,24,7,29.91
MMZC,22.904,-102.68,10,8,9.20624,MMZC 031640Z E01008KT 8SM SCT100 21/12 A3037 RMK 8/080 HZY,2024-08-03T16:40:00Z,21,12,8,30.37
MMTP,14.795,-92.371,0,0,0.0,MMTP 031640Z 00000KT 7SM SCT030 BKN100 31/25 A2990 RMK 8/150 HZY,2024-08-03T16:40:00Z,31,25,7,29.90
MMTM,22.29,-97.863,300,4,4.60312,MMTM 031640Z 30004KT 10SM FEW020 31/24 A3000 RMK 8/100,2024-08-03T16:40:00Z,31,24,10+,30.00
MMTJ,32.544,-116.982,270,6,6.904679999999999,MMTJ 031640Z 27006KT 5SM SKC 25/19 A2999 RMK HZY,2024-08-03T16:40:00Z,25,19,5,29.99
MMSL,22.948,-109.936,250,10,11.5078,MMSL 031640Z 25010KT 10SM SKC 34/21 A2992 RMK CI,2024-08-03T16:40:00Z,34,21,10+,29.92
MMRX,26.01,-98.232,190,6,6.904679999999999,MMRX 031640Z 19006KT 7SM SKC 33/20 A2999 RMK HZY FU LYR SW,2024-08-03T16:40:00Z,33,20,7,29.99
MMQT,20.617,-100.194,100,9,10.357019999999999,MMQT 031640Z 10009KT 10SM SCT030 SCT300 22/13 A3039 RMK 8/102,2024-08-03T16:40:00Z,22,13,10+,30.39
MMPR,20.68,-105.25,0,0,0.0,MMPR 031640Z 00000KT 15SM SCT120 BKN250 31/25 A2992 RMK 8/078,2024-08-03T16:40:00Z,31,25,15,29.92
MMPE,31.354,-113.519,0,0,0.0,MMPE 031640Z 00000KT 10SM SCT200 38/18 A2995 RMK 8/008 HZY,2024-08-03T16:40:00Z,38,18,10+,29.95
MMOX,17.002,-96.724,0,0,0.0,MMOX 031640Z 00000KT 10SM SCT025 SCT100 23/15 A3027 RMK 8/130,2024-08-03T16:40:00Z,23,15,10+,30.27
MMNL,27.448,-99.574,0,0,0.0,MMNL 031640Z 00000KT 10SM SCT020 34/23 A3000 RMK 8/100,2024-08-03T16:40:00Z,34,23,10+,30.00
MMMT,18.098,-94.583,360,10,11.5078,MMMT 031640Z 36010KT 7SM SCT025TCU BKN250 30/24 A2998 RMK 8/201 DSNT CB 2/3 QUAD,2024-08-03T16:40:00Z,30,24,7,29.98
MMIO,25.544,-100.928,0,0,0.0,MMIO 031640Z 00000KT 10SM SKC 25/09 A3022,2024-08-03T16:40:00Z,25,9,10+,30.22
MMHO,29.097,-111.051,150,3,3.4523399999999995,MMHO 031640Z 15003KT 10SM SCT200 37/23 A2992 RMK 8/008 HZY,2024-08-03T16:40:00Z,37,23,10+,29.92
MMGM,27.964,-110.928,0,0,0.0,MMGM 031640Z 00000KT 10SM FEW200 35/29 A2984 RMK 8/001 HZY,2024-08-03T16:40:00Z,35,29,10+,29.84
MMGA,-99.99,-99.99,100,5,5.7539,MMGA 031640Z E10005KT 10SM SKC ///// A//// RMK ISOL CU HZY,2024-08-03T16:40:00Z,,,10+,
MMCV,23.706,-98.959,220,2,2.30156,MMCV 031640Z 22002KT 8SM SKC 31/23 A3003 RMK HZY,2024-08-03T16:40:00Z,31,23,8,30.03
MMCS,31.636,-106.427,60,4,4.60312,MMCS 031640Z 06004KT 10SM FEW070 FEW140 SCT250 32/09 A3022 RMK 8/071,2024-08-03T16:40:00Z,32,9,10+,30.22
MMCP,19.817,-90.502,350,3,3.4523399999999995,MMCP 031640Z 35003KT 7SM SCT015 SCT300 30/25 A2995 RMK 8/101,2024-08-03T16:40:00Z,30,25,7,29.95
MMCL,24.766,-107.476,20,5,5.7539,MMCL 031640Z 02005KT 10SM SCT020 BKN250 30/25 A2994 RMK 8/108 MDT CU HZY,2024-08-03T16:40:00Z,30,25,10+,29.94
KMFV,37.646,-75.763,230,11,12.658579999999999,KMFV 031635Z AUTO 23011G16KT 10SM SCT024 31/24 A2992 RMK AO2 T03050235,2024-08-03T16:35:00Z,30.5,23.5,10+,29.92
KHZL,40.9845,-75.9901,0,0,0.0,KHZL 031635Z AUTO 00000KT SCT023 SCT037 BKN065 26/22 A2993 RMK AO2 PWINO,2024-08-03T16:35:00Z,26,22,,29.93
RKSP,37.962,124.67,260,6,6.904679999999999,RKSP 031631Z 26006KT 0400 FG VV001 26/26 A2982 RMK CIG001,2024-08-03T16:31:00Z,26,26,0.25,29.82
VVCT,10.085,105.712,130,3,3.4523399999999995,VVCT 031630Z 13003KT 9999 FEW015 SCT050 26/26 Q1011 NOSIG,2024-08-03T16:30:00Z,26,26,6+,29.85
VOTP,13.633,79.543,0,0,0.0,VOTP 031630Z 00000KT 6000 SCT020 BKN100 31/24 Q1009 NOSIG,2024-08-03T16:30:00Z,31,24,3.73,29.79
VOBZ,16.53,80.797,200,5,5.7539,VOBZ 031630Z 20005KT 6000 SCT020 BKN080 29/26 Q1006 NOSIG,2024-08-03T16:30:00Z,29,26,3.73,29.70
VLVT,17.987,102.564,160,2,2.30156,VLVT 031630Z 16002KT 5000 BR FEW016 SCT050 25/21 Q1010 NOSIG,2024-08-03T16:30:00Z,25,21,3.11,29.82
VASU,21.114,72.742,250,12,13.809359999999998,VASU 031630Z 25012KT 3000 DZ SCT010 BKN018 OVC080 27/26 Q1004 NOSIG,2024-08-03T16:30:00Z,27,26,1.86,29.65
LESU,42.337,1.406,200,12,13.809359999999998,LESU 031630Z 20012KT 160V260 9999 FEW095 31/14 Q1014,2024-08-03T16:30:00Z,31,14,6+,29.94
GLRB,6.234,-10.362,170,9,10.357019999999999,GLRB 031630Z 17009KT 9999 BKN012 FEW022CB 27/24 Q1012 CB-NE NOSIG,2024-08-03T16:30:00Z,27,24,6+,29.88
EIKY,52.18,-9.538,260,11,12.658579999999999,EIKY 031630Z 26011KT 240V300 9999 FEW024 SCT035 OVC041 16/12 Q1013,2024-08-03T16:30:00Z,16,12,6+,29.91
KEVM,47.4274,-92.4972,0,0,0.0,KEVM 031629Z AUTO 00000KT 10SM SCT120 23/17 A3005 RMK AO2 LTG DSNT NW,2024-08-03T16:29:00Z,23,17,10+,30.05
PAPB,56.576,-169.663,170,19,21.864819999999998,PAPB 031623Z AUTO 17019KT 3SM -RA BR OVC004 09/09 A2987 RMK AO2 PK WND 17028/1556 P0000 T00890089 TSNO $,2024-08-03T16:23:00Z,8.9,8.9,3,29.87
LICL,37.076,14.225,220,4,4.60312,LICL 031623Z AUTO 22004KT 160V280 //// 29/24 Q1007,2024-08-03T16:23:00Z,29,24,,29.73
EGHE,49.914,-6.296,290,10,11.5078,EGHE 031620Z 29010KT 9999 FEW025 SCT045 19/11 Q1016,2024-08-03T16:20:00Z,19,11,6+,30.00
EDXW,54.913,8.341,230,12,13.809359999999998,EDXW 031620Z 23012KT 8000 BKN009 OVC013 20/18 Q1009,2024-08-03T16:20:00Z,20,18,4.97,29.79
