station_id,latitude,longitude,wind_dir_degrees,wind_speed_kt,wind_speed_mph,raw_text,observation_time,temp_c,dewpoint_c,visibility_statute_mi,altim_in_hg
KXER,27.946,-90.997,0,0,0.0,KXER 132305Z AUTO 00000KT 10SM 31/26 A3003 RMK A01,2024-08-13T23:05:00Z,31,26,10+,30.03
KATP,27.1956,-90.0269,,,,KATP 132305Z AUTO 10SM CLR 31/25 A3003 RMK A01,2024-08-13T23:05:00Z,31,25,10+,30.03
KANR,27.2264,-91.19,90,5,5.75,KANR 132305Z AUTO 09005KT 10SM CLR 32/23 A3014 RMK A01,2024-08-13T23:05:00Z,32,23,10+,30.14
CYXS,53.884,-122.677,170,9,10.36,CYXS 132304Z AUTO 17009KT 6SM -RA BR SCT050 OVC060 17/15 A2994 RMK SLP146 DENSITY ALT 3100FT,2024-08-13T23:04:00Z,17,15,6,29.94
UNEE,55.27,86.107,110,4,4.6,UNEE 132303Z 11002MPS 2900 BR NSC 12/12 Q1014 R23/CLRD60 NOSIG RMK QFE737,2024-08-13T23:03:00Z,12,12,1.8,29.94
KLWT,47.0544,-109.457,VRB,6,6.9,KLWT 132303Z AUTO VRB06KT 7SM -TSRA OVC080 23/10 A2995 RMK AO2 LTG DSNT N-E RAB00 TSB03 PRESRR P0001 T02280100,2024-08-13T23:03:00Z,22.8,10,7,29.95
YGLA,-23.87,151.221,130,9,10.36,YGLA 132302Z AUTO 13009KT 9999 // BKN015 OVC020 22/19 Q1016,2024-08-13T23:02:00Z,22,19,6+,30.00
ULOO,57.79,28.397,0,0,0.0,ULOO 132302Z 00000MPS 1000 0600NE PRFG BR NSC 11/11 Q1016 NOSIG RMK QFE758,2024-08-13T23:02:00Z,11,11,0.62,30.00
PAHX,62.688,-159.566,210,14,16.11,PAHX 132302Z AUTO 21014G19KT 10SM OVC017 10/07 A3012 RMK AO2,2024-08-13T23:02:00Z,10,7,10+,30.12
PADG,68.028,-162.911,160,19,21.86,PADG 132302Z 16019G22KT 4SM -DZ BR OVC006 07/07 A2972,2024-08-13T23:02:00Z,7,7,4,29.72
KCOS,38.8095,-104.689,210,19,21.86,KCOS 132302Z 21019G31KT 10SM -TSRA FEW050CB BKN090 BKN200 22/12 A3015 RMK AO2 PK WND 20031/2255 TSB02 OCNL LTGICCG S-SW TS S-SW MOV NE P0000 T02220122 $,2024-08-13T23:02:00Z,22.2,12.2,10+,30.15
KBIL,45.8072,-108.546,130,11,12.66,KBIL 132302Z 13011KT 10SM -RA BKN070 OVC090 20/13 A2996 RMK AO2 TSE02 OCNL LTGICCG DSNT NE-SE CB DSNT NE-SE T02000133 PNO $,2024-08-13T23:02:00Z,20,13.3,10+,29.96
PFKT,65.33,-166.479,200,28,32.22,PFKT 132301Z AUTO 20028G34KT 1 3/4SM -RA BR OVC007 09/09 A2978 RMK AO2 PK WND 20034/2259 RAB2257 CIG 004V008 P0000,2024-08-13T23:01:00Z,9,9,1.75,29.78
PAFS,63.015,-154.367,230,7,8.06,PAFS 132301Z AUTO 23007KT 10SM OVC040 13/06 A3011 RMK AO2 SLP202 T01280056 $,2024-08-13T23:01:00Z,12.8,5.6,10+,30.11
KRTN,36.7418,-104.508,360,7,8.06,KRTN 132301Z AUTO 36007KT 10SM BKN080 BKN095 19/15 A3019 RMK AO2 LTG DSNT S-W TSE2255 T01890150,2024-08-13T23:01:00Z,18.9,15,10+,30.19
KLXV,39.228,-106.316,40,6,6.9,KLXV 132301Z AUTO 04006KT 6SM -RA BR SCT040 OVC050 11/09 A3047 RMK AO2 LTG DSNT NE P0002 T01060094,2024-08-13T23:01:00Z,10.6,9.4,6,30.47
KLWD,40.6306,-93.9005,VRB,4,4.6,KLWD 132301Z AUTO VRB04KT 10SM FEW022 OVC038 23/19 A3009 RMK AO2 T02280194,2024-08-13T23:01:00Z,22.8,19.4,10+,30.09
ZMUB,47.843,106.766,VRB,4,4.6,ZMUB 132300Z VRB02MPS 9999 FEW030CB SCT033 16/13 Q1017 NOSIG RMK QFE655.6 82 MOP,2024-08-13T23:00:00Z,16,13,6+,30.03
ZMCK,47.651,106.822,80,10,11.51,ZMCK 132300Z 08005MPS 9999 FEW030CB SCT033 17/13 Q1018 NOSIG RMK QFE648.1 78 MOP,2024-08-13T23:00:00Z,17,13,6+,30.06
YSRI,-33.601,150.777,210,4,4.6,YSRI 132300Z AUTO 21004KT 9999 // FEW006 BKN011 OVC061 17/17 Q1022,2024-08-13T23:00:00Z,17,17,6+,30.18
YSDU,-32.221,148.575,110,6,6.9,YSDU 132300Z AUTO 11006KT 4200 UP FEW028 BKN033 BKN041 14/14 Q1021,2024-08-13T23:00:00Z,14,14,2.61,30.15
YSCB,-35.309,149.2,0,0,0.0,YSCB 132300Z AUTO 00000KT 9999 // SCT011 BKN017 BKN028 12/12 Q1023,2024-08-13T23:00:00Z,12,12,6+,30.21
YPXM,-10.453,105.688,110,12,13.81,YPXM 132300Z AUTO 11012KT 9999 // OVC012 24/22 Q1014 RF00.0/000.0,2024-08-13T23:00:00Z,24,22,6+,29.94
YMLT,-41.544,147.213,350,13,14.96,YMLT 132300Z AUTO 35013KT 9999 -RA OVC005 12/11 Q1017 RF00.0/002.4,2024-08-13T23:00:00Z,12,11,6+,30.03
YBSU,-26.603,153.091,30,16,18.41,YBSU 132300Z AUTO 03016KT 8000 -SHRA SCT012 BKN017 OVC030 19/18 Q1018,2024-08-13T23:00:00Z,19,18,4.97,30.06
YBCG,-28.168,153.505,100,7,8.06,YBCG 132300Z AUTO 10007KT 3800 +RA BKN008 BKN011 BKN031 18/18 Q1020,2024-08-13T23:00:00Z,18,18,2.36,30.12
YAMB,-27.63,152.711,80,7,8.06,YAMB 132300Z 08007KT 8000 RA BKN006 BKN010 OVC020 18/18 Q1019,2024-08-13T23:00:00Z,18,18,4.97,30.09
WSSS,1.368,103.982,100,5,5.75,WSSS 132300Z 10005KT 9999 FEW016 FEW018TCU BKN300 28/25 Q1009 NOSIG,2024-08-13T23:00:00Z,28,25,6+,29.79
WSSL,1.417,103.866,VRB,1,1.15,WSSL 132300Z VRB01KT 9999 FEW015 SCT150 27/24 Q1009,2024-08-13T23:00:00Z,27,24,6+,29.79
WSAP,1.36,103.909,40,2,2.3,WSAP 132300Z 04002KT 9999 SCT016 SCT300 28/24 Q1010,2024-08-13T23:00:00Z,28,24,6+,29.82
WIII,-6.125,106.659,VRB,2,2.3,WIII 132300Z VRB02KT 4000 HZ FEW020 25/21 Q1010 NOSIG,2024-08-13T23:00:00Z,25,21,2.49,29.82
WAMM,1.541,124.926,90,3,3.45,WAMM 132300Z 09003KT 360V140 9999 FEW020 26/24 Q1014 NOSIG,2024-08-13T23:00:00Z,26,24,6+,29.94
WAJJ,-2.573,140.514,VRB,1,1.15,WAJJ 132300Z VRB01KT 9999 FEW013 27/25 Q1011,2024-08-13T23:00:00Z,27,25,6+,29.85
WADL,-8.757,116.277,0,0,0.0,WADL 132300Z 00000KT 4000 HZ FEW016 21/20 Q1013 TEMPO TL2330 HZ,2024-08-13T23:00:00Z,21,20,2.49,29.91
VRMM,4.192,73.529,300,16,18.41,VRMM 132300Z 30016KT 9999 SCT017TCU BKN110 29/25 Q1006 TEMPO 32020G37KT,2024-08-13T23:00:00Z,29,25,6+,29.70
VRMH,6.744,73.171,300,19,21.86,VRMH 132300Z 30019KT 9999 SCT017TCU OVC100 27/25 Q1006,2024-08-13T23:00:00Z,27,25,6+,29.70
VRMG,-0.693,73.156,290,8,9.21,"VRMG 132300Z 29008KT 9000 SCT017 FEW018CB BKN100 27/25 Q1007 CB N,SE,W,NW TEMPO 5000 TSRA",2024-08-13T23:00:00Z,27,25,5.59,29.73
VOVZ,17.722,83.228,240,5,5.75,VOVZ 132300Z 24005KT 4000 BR SCT016 FEW020 BKN090 29/29 Q1005 TEMPO DZ,2024-08-13T23:00:00Z,29,29,2.49,29.68
VOTV,8.484,76.919,320,7,8.06,VOTV 132300Z 32007KT 2000 RA FEW008 SCT012 FEW025CB OVC080 25/24 Q1006 NOSIG,2024-08-13T23:00:00Z,25,24,1.24,29.70
VOTR,10.765,78.71,VRB,1,1.15,VOTR 132300Z VRB01KT 5000 BR FEW016 SCT100 28/26 Q1005 NOSIG,2024-08-13T23:00:00Z,28,26,3.11,29.68
VOPB,11.641,92.73,VRB,1,1.15,VOPB 132300Z VRB01KT 5000 BR SCT012 BKN080 26/25 Q1007 NOSIG,2024-08-13T23:00:00Z,26,25,3.11,29.73
VOMM,12.994,80.18,VRB,2,2.3,VOMM 132300Z VRB02KT 6000 SCT020 BKN100 29/26 Q1005 NOSIG,2024-08-13T23:00:00Z,29,26,3.73,29.68
VOML,12.961,74.89,320,4,4.6,VOML 132300Z 32004KT 5000 BR FEW005 SCT012 BKN080 26/26 Q1005 NOSIG,2024-08-13T23:00:00Z,26,26,3.11,29.68
VOKN,11.917,75.547,VRB,2,2.3,VOKN 132300Z VRB02KT 0800 R25/0900 R07/2000 FG SCT002 SCT012 BKN080 24/23 Q1004 TEMPO 0500 FG,2024-08-13T23:00:00Z,24,23,0.5,29.65
VOHS,17.233,78.429,100,4,4.6,VOHS 132300Z 10004KT 5000 BR SCT015 BKN080 25/23 Q1009 NOSIG,2024-08-13T23:00:00Z,25,23,3.11,29.79
VOGA,15.7426,73.8631,0,0,0.0,VOGA 132300Z 00000KT 2200 FG FEW005 SCT012 SCT080 25/24 Q1007 NOSIG,2024-08-13T23:00:00Z,25,24,1.37,29.73
VOCL,11.137,75.955,110,3,3.45,VOCL 132300Z 11003KT 3000 BR FEW006 SCT012 BKN080 24/24 Q1005 NOSIG,2024-08-13T23:00:00Z,24,24,1.86,29.68
VOCI,10.152,76.402,120,3,3.45,VOCI 132300Z 12003KT 1500 R09/2000 BR SCT004 SCT012 BKN080 25/24 Q1005 NOSIG,2024-08-13T23:00:00Z,25,24,0.93,29.68
VOCB,11.03,77.043,VRB,2,2.3,VOCB 132300Z VRB02KT 4000 BR SCT012 SCT080 25/24 Q1009 NOSIG,2024-08-13T23:00:00Z,25,24,2.49,29.79
VOBL,13.205,77.704,120,4,4.6,VOBL 132300Z 12004KT 2000 BR SCT007 SCT012 BKN080 23/22 Q1011 TEMPO 1500 BR,2024-08-13T23:00:00Z,23,22,1.24,29.85
VNKT,27.697,85.359,80,5,5.75,VNKT 132300Z 08005KT 6000 FEW008 SCT030 OVC090 21/21 Q1014 NOSIG,2024-08-13T23:00:00Z,21,21,3.73,29.94
VIJP,26.824,75.812,VRB,3,3.45,VIJP 132300Z VRB03KT 3000 BR BKN020 BKN090 26/25 Q1005 NOSIG,2024-08-13T23:00:00Z,26,25,1.86,29.68
VIDP,28.567,77.117,70,3,3.45,VIDP 132300Z 07003KT 3200 BR SCT025 BKN090 28/27 Q1004 BECMG 3000 BR,2024-08-13T23:00:00Z,28,27,1.99,29.65
VHHH,22.309,113.922,VRB,3,3.45,VHHH 132300Z VRB03KT 9999 FEW012 30/26 Q1007 NOSIG,2024-08-13T23:00:00Z,30,26,6+,29.73
VEGY,24.744,84.951,150,2,2.3,VEGY 132300Z 15002KT 3000 BR SCT018 BKN100 27/25 Q1004,2024-08-13T23:00:00Z,27,25,1.86,29.65
VEGT,26.107,91.587,140,2,2.3,VEGT 132300Z 14002KT 3000 BR SCT018 BKN100 28/27 Q1004 NOSIG,2024-08-13T23:00:00Z,28,27,1.86,29.65
VECC,22.651,88.445,0,0,0.0,VECC 132300Z 00000KT 2000 BR SCT018 BKN100 28/27 Q1003 NOSIG,2024-08-13T23:00:00Z,28,27,1.24,29.62
VANP,21.089,79.055,300,2,2.3,VANP 132300Z 30002KT 3000 HZ SCT018 BKN090 27/26 Q1007 NOSIG,2024-08-13T23:00:00Z,27,26,1.86,29.73
VABO,22.333,73.225,210,4,4.6,VABO 132300Z 21004KT 3500 BR FEW015 SCT020 BKN080 27/26 Q1004 TEMPO VIS 3000 -RA,2024-08-13T23:00:00Z,27,26,2.17,29.65
VABB,19.1,72.859,0,0,0.0,VABB 132300Z 00000KT 2500 HZ SCT018 SCT025 BKN090 28/24 Q1006 NOSIG,2024-08-13T23:00:00Z,28,24,1.55,29.70
VAAH,23.077,72.635,190,6,6.9,VAAH 132300Z 19006KT 4000 BR FEW015 SCT020 27/24 Q1004 NOSIG,2024-08-13T23:00:00Z,27,24,2.49,29.65
UWWW,53.509,50.163,260,6,6.9,UWWW 132300Z 26003MPS 220V300 9999 SCT033 14/13 Q0999 R33/CLRD63 NOSIG RMK QFE739/0985,2024-08-13T23:00:00Z,14,13,6+,29.50
UWUU,54.57,55.87,260,6,6.9,UWUU 132300Z 26003MPS 240V300 9999 BKN006 13/13 Q0995 R32L/1///54 TEMPO 1000 SHRA BR SCT004 BKN007CB RMK QBB180,2024-08-13T23:00:00Z,13,13,6+,29.38
UWSG,51.713,46.171,270,10,11.51,UWSG 132300Z 27005MPS CAVOK 13/12 Q1004 R26/CLRD70 NOSIG RMK QFE750/1000,2024-08-13T23:00:00Z,13,12,6+,29.65
UWPS,54.116,45.203,280,8,9.21,UWPS 132300Z 28004MPS 9999 SCT020 12/12 Q1002 R20/190060 NOSIG RMK QFE734,2024-08-13T23:00:00Z,12,12,6+,29.59
UWOR,51.07,58.597,220,10,11.51,UWOR 132300Z 22005MPS CAVOK 15/11 Q1002 R25/CLRD65 NOSIG RMK QFE728/0971,2024-08-13T23:00:00Z,15,11,6+,29.59
UWOO,51.795,55.457,230,10,11.51,UWOO 132300Z 23005MPS 9999 SCT040CB 15/13 Q1000 R26/CLRD60 NOSIG RMK QFE739/0986,2024-08-13T23:00:00Z,15,13,6+,29.53
UWLW,54.402,48.8,VRB,2,2.3,UWLW 132300Z VRB01MPS 9999 BKN049 13/13 Q0999 R02/CLRD60 NOSIG RMK QFE743/0990,2024-08-13T23:00:00Z,13,13,6+,29.50
UWLL,54.274,48.236,280,4,4.6,UWLL 132300Z 28002MPS CAVOK 13/11 Q1000 R20/190060 NOSIG RMK QFE740/0986,2024-08-13T23:00:00Z,13,11,6+,29.53
UWKS,56.09,47.347,340,8,9.21,UWKS 132300Z 34004MPS 9999 FEW040CB 13/13 Q1000 R06/090060 NOSIG RMK QFE735,2024-08-13T23:00:00Z,13,13,6+,29.53
UWKE,55.566,52.1,310,6,6.9,UWKE 132300Z 31003MPS 9999 FEW010 BKN036CB 13/13 Q0997 R21/090070 NOSIG RMK QFE731/0975,2024-08-13T23:00:00Z,13,13,6+,29.44
UWKD,55.61,49.275,320,8,9.21,UWKD 132300Z 32004MPS CAVOK 13/12 Q0998 R29/CLRD70 NOSIG RMK QFE738/0984,2024-08-13T23:00:00Z,13,12,6+,29.47
UWGG,56.225,43.786,280,4,4.6,UWGG 132300Z 28002MPS CAVOK 12/12 Q1003 R36R/090070 NOSIG,2024-08-13T23:00:00Z,12,12,6+,29.62
UUYY,61.647,50.845,10,8,9.21,UUYY 132300Z 01004MPS 9999 FEW017 11/10 Q1000 R36/CLRD61 NOSIG RMK QFE741/0988,2024-08-13T23:00:00Z,11,10,6+,29.53
UUWW,55.592,37.261,300,8,9.21,UUWW 132300Z 30004MPS CAVOK 13/12 Q1009 R24/290050 NOSIG,2024-08-13T23:00:00Z,13,12,6+,29.79
UUOO,51.814,39.228,290,8,9.21,UUOO 132300Z 29004MPS 9999 FEW/// 12/11 Q1009 R30/010070 NOSIG RMK QFE743,2024-08-13T23:00:00Z,12,11,6+,29.79
UUOL,52.702,39.534,270,4,4.6,UUOL 132300Z AUTO 27002MPS 9999 NCD 12/12 Q1008,2024-08-13T23:00:00Z,12,12,6+,29.76
UUOK,51.751,36.297,300,6,6.9,UUOK 132300Z AUTO 30003MPS 9999 // NCD 12/10 Q1012 RMK QFE740/0987,2024-08-13T23:00:00Z,12,10,6+,29.88
UUOB,50.644,36.59,280,10,11.51,UUOB 132300Z 28005MPS CAVOK 12/10 Q1012 R11/010070 NOSIG,2024-08-13T23:00:00Z,12,10,6+,29.88
UUEE,55.973,37.415,300,8,9.21,UUEE 132300Z 30004MPS CAVOK 13/12 Q1009 R24L/290051 R24C/290051 NOSIG,2024-08-13T23:00:00Z,13,12,6+,29.79
UUDL,57.561,40.157,20,2,2.3,UUDL 132300Z 02001MPS CAVOK 13/11 Q1006 R23/190155 NOSIG RMK QFE746,2024-08-13T23:00:00Z,13,11,6+,29.70
UUDD,55.409,37.906,290,12,13.81,UUDD 132300Z 29006MPS CAVOK 13/12 Q1008 R32L/CLRD60 NOSIG,2024-08-13T23:00:00Z,13,12,6+,29.76
UUBW,55.553,38.15,290,12,13.81,UUBW 132300Z 29006MPS CAVOK 14/12 Q1008 R30/010060 NOSIG RMK QFE746,2024-08-13T23:00:00Z,14,12,6+,29.76
UUBC,54.552,36.37,300,6,6.9,UUBC 132300Z 30003MPS CAVOK 13/12 Q1011 R31/CLRD60 NOSIG RMK QFE741/0988,2024-08-13T23:00:00Z,13,12,6+,29.85
UTTT,41.258,69.281,70,6,6.9,UTTT 132300Z 07006KT CAVOK 26/11 Q1008 R08R/CLRD70 NOSIG,2024-08-13T23:00:00Z,26,11,6+,29.76
UTST,37.287,67.318,70,6,6.9,UTST 132300Z 07006KT CAVOK 27/13 Q1004 R25/CLRD70 NOSIG,2024-08-13T23:00:00Z,27,13,6+,29.65
UTSS,39.7,66.974,130,12,13.81,UTSS 132300Z 13012KT 9999 NSC 26/11 Q1009 R09/CLRD70 NOSIG,2024-08-13T23:00:00Z,26,11,6+,29.79
UTSK,38.804,65.773,VRB,2,2.3,UTSK 132300Z VRB02KT CAVOK 26/13 Q1006 R16/CLRD70,2024-08-13T23:00:00Z,26,13,6+,29.70
UTSB,39.775,64.483,10,6,6.9,UTSB 132300Z 01006KT CAVOK 26/14 Q1006 R01/CLRD70 NOSIG,2024-08-13T23:00:00Z,26,14,6+,29.70
UTSA,40.116,65.167,80,2,2.3,UTSA 132300Z 08002KT 9999 NSC 28/11 Q1008 R07/CLRD70 NOSIG,2024-08-13T23:00:00Z,28,11,6+,29.76
UTNU,41.584,60.642,20,8,9.21,UTNU 132300Z 02008KT CAVOK 25/19 Q1007 R31/CLRD70 NOSIG,2024-08-13T23:00:00Z,25,19,6+,29.73
UTNN,42.488,59.623,10,4,4.6,UTNN 132300Z 01004KT CAVOK 25/10 Q1009 R33/CLRD60 NOSIG,2024-08-13T23:00:00Z,25,10,6+,29.79
UTFN,40.983,71.573,320,4,4.6,UTFN 132300Z 32004KT 9999 NSC 26/14 Q1008 R28/CLRD70 NOSIG,2024-08-13T23:00:00Z,26,14,6+,29.76
UTFF,40.356,71.745,140,6,6.9,UTFF 132300Z 14006KT 9999 NSC 26/11 Q1009 R18/CLRD70,2024-08-13T23:00:00Z,26,11,6+,29.79
UTAT,41.761,59.827,30,8,9.21,UTAT 132300Z 03008KT CAVOK 25/18 Q1008 R26/CLRD70 NOSIG,2024-08-13T23:00:00Z,25,18,6+,29.76
UTAM,37.619,61.897,320,6,6.9,UTAM 132300Z 32006KT 6000 NSC 28/14 Q1007 R88/CLRD70 NOSIG,2024-08-13T23:00:00Z,28,14,3.73,29.73
UTAK,40.054,53.007,0,0,0.0,UTAK 132300Z 00000KT CAVOK 27/15 Q1009 R34L/CLRD70 NOSIG,2024-08-13T23:00:00Z,27,15,6+,29.79
UTAA,37.975,58.371,VRB,2,2.3,UTAA 132300Z VRB02KT 9999 FEW050CB SCT050 BKN100 30/21 Q1008 R88/CLRD70 NOSIG,2024-08-13T23:00:00Z,30,21,6+,29.76
USTR,57.19,65.324,190,8,9.21,USTR 132300Z 19004MPS CAVOK 12/12 Q0994 R21/290055 R12/290055 TEMPO 0500 FG VV002,2024-08-13T23:00:00Z,12,12,6+,29.35
USSS,56.745,60.792,VRB,2,2.3,USSS 132300Z VRB01MPS 9999 FEW002 09/09 Q0993 R08R/010060 TEMPO SCT003 BKN016CB RMK QFE725/0967,2024-08-13T23:00:00Z,9,9,6+,29.32
USRR,61.342,73.422,110,10,11.51,USRR 132300Z 11005MPS 9999 OVC046 15/15 Q1000 R07/250250 NOSIG RMK QFE745,2024-08-13T23:00:00Z,15,15,6+,29.53
USPP,57.914,56.021,290,4,4.6,USPP 132300Z 29002MPS 9999 SCT003 BKN014 13/12 Q0992 R21/290350 NOSIG RMK QBB090 QFE733,2024-08-13T23:00:00Z,13,12,6+,29.29
USNN,60.959,76.497,120,12,13.81,USNN 132300Z 12006MPS CAVOK 17/13 Q1004 R03/0///65 NOSIG RMK QFE749,2024-08-13T23:00:00Z,17,13,6+,29.65
USHH,61.029,69.086,110,6,6.9,USHH 132300Z 11003MPS 9999 BKN005 16/16 Q0995 R06/290050 TEMPO 0500 FG VV002,2024-08-13T23:00:00Z,16,16,6+,29.38
USDA,71.216,72.05,100,10,11.51,USDA 132300Z 10005MPS 9999 FEW002 10/10 Q1014 R04/CLRD60 NOSIG RMK QBB060 QFE759/1012,2024-08-13T23:00:00Z,10,10,6+,29.94
USCM,53.393,58.756,230,12,13.81,USCM 132300Z 23006MPS 9999 BKN030CB 13/12 Q0996 R18/290255 TEMPO 19015MPS 1500 SHRA VV002 RMK QFE710,2024-08-13T23:00:00Z,13,12,6+,29.41
USCC,55.306,61.503,180,4,4.6,USCC 132300Z 18002MPS 9999 SCT020CB 13/13 Q0993 R27/290050 NOSIG RMK QFE725,2024-08-13T23:00:00Z,13,13,6+,29.32
URWW,48.788,44.336,250,4,4.6,URWW 132300Z 25002MPS CAVOK 12/08 Q1008 R23/010070 NOSIG,2024-08-13T23:00:00Z,12,8,6+,29.76
URWI,46.374,44.331,290,10,11.51,URWI 132300Z AUTO 29005MPS 260V330 9999 // NSC 18/04 Q1010,2024-08-13T23:00:00Z,18,4,6+,29.82
URWA,46.286,47.995,290,6,6.9,URWA 132300Z 29003MPS CAVOK 19/09 Q1008 R27/010070 NOSIG RMK QFE758/1011,2024-08-13T23:00:00Z,19,9,6+,29.76
URSS,43.438,39.926,40,8,9.21,URSS 132300Z 04004MPS 9999 SCT110 20/15 Q1013 R02/010070 R06/010070 NOSIG RMK R06/08003MPS QFE758,2024-08-13T23:00:00Z,20,15,6+,29.91
URRP,47.494,39.925,20,4,4.6,URRP 132300Z 02002MPS CAVOK 16/08 Q1011 R23/CLRD70 NOSIG RMK QFE750/1001,2024-08-13T23:00:00Z,16,8,6+,29.85
URMT,45.108,42.1,310,8,9.21,URMT 132300Z 31004MPS CAVOK 20/14 Q1013 R25/010070 NOSIG RMK QFE721,2024-08-13T23:00:00Z,20,14,6+,29.91
URMO,43.204,44.608,150,6,6.9,URMO 132300Z 15003MPS 9999 SCT076 18/13 Q1013 R27/010070 NOSIG RMK QFE715/0954,2024-08-13T23:00:00Z,18,13,6+,29.91
URMN,43.514,43.646,250,6,6.9,URMN 132300Z 25003MPS 9999 NSC 19/11 Q1012 R24/////// NOSIG RMK QFE723,2024-08-13T23:00:00Z,19,11,6+,29.88
URMM,44.225,43.082,330,4,4.6,URMM 132300Z 33002MPS 9999 NSC 20/13 Q1013 R29/090070 NOSIG RMK QFE731/0975,2024-08-13T23:00:00Z,20,13,6+,29.91
URML,42.817,47.652,220,6,6.9,URML 132300Z 22003MPS 9999 NSC 22/19 Q1010 R32/01//70 NOSIG RMK QFE757/1009,2024-08-13T23:00:00Z,22,19,6+,29.82
URMG,43.387,45.702,320,4,4.6,URMG 132300Z 32002MPS 250V010 CAVOK 24/09 Q1011 R26/090070 NOSIG RMK QFE743/0991,2024-08-13T23:00:00Z,24,9,6+,29.85
URKK,45.033,39.15,240,4,4.6,URKK 132300Z 24002MPS 9999 SCT078CB 23/20 Q1011 R23L/290060 TEMPO 2000 TSRA BKN020CB RMK QFE755,2024-08-13T23:00:00Z,23,20,6+,29.85
URKA,44.995,37.341,360,4,4.6,URKA 132300Z 36002MPS 9999 FEW030CB 23/19 Q1011 R03/010070 TEMPO 2000 TSRA BKN016CB RMK QFE754/1006,2024-08-13T23:00:00Z,23,19,6+,29.85
UOOO,69.308,87.322,150,6,6.9,UOOO 132300Z 15003MPS CAVOK 13/13 Q1018 R19/CLRD60 NOSIG RMK QFE747/0997,2024-08-13T23:00:00Z,13,13,6+,30.06
UNWW,53.811,86.878,0,0,0.0,UNWW 132300Z 00000MPS 1000 0200NE R19/0275U FG SCT002 12/11 Q1014 R19/09//55 NOSIG RMK QFE734,2024-08-13T23:00:00Z,12,11,0.62,29.94
UNTT,56.381,85.207,110,2,2.3,UNTT 132300Z 11001MPS CAVOK 11/11 Q1013 R21/090060 NOSIG RMK QFE744,2024-08-13T23:00:00Z,11,11,6+,29.91
UNOO,54.964,73.32,190,6,6.9,UNOO 132300Z 19003MPS 9999 SCT033CB BKN040 14/13 Q1002 R25/290150 NOSIG RMK QFE743,2024-08-13T23:00:00Z,14,13,6+,29.59
UNNT,55.013,82.651,130,10,11.51,UNNT 132300Z 13005MPS CAVOK 17/14 Q1010 R25/090070 R16/090070 NOSIG RMK QFE748/0997,2024-08-13T23:00:00Z,17,14,6+,29.82
UNKL,56.173,92.493,0,0,0.0,UNKL 132300Z 00000MPS 9000 1300S BCFG NSC 10/10 Q1017 R29/CLRD65 NOSIG RMK QFE737,2024-08-13T23:00:00Z,10,10,5.59,30.03
UNBB,53.362,83.54,140,6,6.9,UNBB 132300Z 14003MPS CAVOK 17/12 Q1011 R24/CLRD66 NOSIG RMK QFE736,2024-08-13T23:00:00Z,17,12,6+,29.85
UNAA,53.74,91.385,VRB,2,2.3,UNAA 132300Z VRB01MPS CAVOK 13/12 Q1015 R02/CLRD65 NOSIG RMK QFE739,2024-08-13T23:00:00Z,13,12,6+,29.97
UMMS,53.883,28.031,320,6,6.9,UMMS 132300Z 32003MPS CAVOK 10/10 Q1018 NOSIG,2024-08-13T23:00:00Z,10,10,6+,30.06
UMKK,54.885,20.583,0,0,0.0,UMKK 132300Z 00000MPS 9000 0600S PRFG NSC 11/11 Q1018 R24/CLRD95 NOSIG RMK QFE763/1017,2024-08-13T23:00:00Z,11,11,5.59,30.06
UMIO,54.44,30.297,310,4,4.6,UMIO 132300Z 31002MPS CAVOK 12/11 Q1016 NOSIG RMK QFE745/0993,2024-08-13T23:00:00Z,12,11,6+,30.00
UMGG,52.525,31.015,280,6,6.9,UMGG 132300Z 28003MPS CAVOK 13/11 Q1016 NOSIG,2024-08-13T23:00:00Z,13,11,6+,30.00
ULPB,61.885,34.155,VRB,2,2.3,ULPB 132300Z AUTO VRB01MPS 9999 // NCD 11/09 Q1014 RMK QFE756/1008,2024-08-13T23:00:00Z,11,9,6+,29.94
ULMM,68.781,32.749,160,4,4.6,ULMM 132300Z 16002MPS 6000 NSC 05/05 Q1018 R31/090070 TEMPO 0300 FG VV002 RMK QFE756,2024-08-13T23:00:00Z,5,5,3.73,30.06
ULLI,59.798,30.267,260,6,6.9,ULLI 132300Z 26003MPS 240V300 0450 0150W PRFG NSC 15/14 Q1014 R28L/090060 NOSIG,2024-08-13T23:00:00Z,15,14,0.28,29.94
ULAA,64.599,40.712,10,6,6.9,ULAA 132300Z 01003MPS 340V150 9999 OVC021 12/08 Q1012 R08/CLRD70 NOSIG RMK QFE757/1010,2024-08-13T23:00:00Z,12,8,6+,29.88
UIUU,51.808,107.443,270,4,4.6,UIUU 132300Z 27002MPS 9000 BKN008 17/17 Q1012 R26/CLRD60 NOSIG RMK QBB260 MT OBSC QFE715/0953,2024-08-13T23:00:00Z,17,17,5.59,29.88
UIII,52.273,104.38,VRB,2,2.3,UIII 132300Z VRB01MPS 2400 -SHRA BR OVC002CB 15/15 Q1013 R30/290150 NOSIG RMK QBB080 MT OBSC QFE715/0954,2024-08-13T23:00:00Z,15,15,1.49,29.91
UIBB,56.365,101.716,40,4,4.6,UIBB 132300Z 04002MPS 010V070 9999 NSC 14/10 Q1017 R30/CLRD60 NOSIG RMK QFE719/0959,2024-08-13T23:00:00Z,14,10,6+,30.03
UIAA,52.026,113.31,0,0,0.0,UIAA 132300Z 00000MPS 9999 NSC 20/16 Q1014 R29/CLRD63 NOSIG RMK QFE702/0936,2024-08-13T23:00:00Z,20,16,6+,29.94
UHWW,43.399,132.146,350,4,4.6,UHWW 132300Z 35002MPS 9999 NSC 27/23 Q1011 R25L/0///70 NOSIG RMK QFE757,2024-08-13T23:00:00Z,27,23,6+,29.85
UHSS,46.887,142.719,360,17,19.56,UHSS 132300Z 36009MPS 9999 SCT007 BKN022CB 16/15 Q1009 R01/250255 NOSIG RMK MT OBSC QFE756/1008,2024-08-13T23:00:00Z,16,15,6+,29.79
UHPP,53.175,158.444,320,6,6.9,UHPP 132300Z 32003MPS 300V360 CAVOK 20/11 Q1009 R34L/CLRD60 NOSIG RMK QFE753/1005,2024-08-13T23:00:00Z,20,11,6+,29.79
UHMM,59.911,150.725,100,10,11.51,UHMM 132300Z 10005MPS 9999 FEW010 BKN029CB 11/11 Q1008 R10/290255 NOSIG RMK MT OBSC QFE741 R28/14004MPS,2024-08-13T23:00:00Z,11,11,6+,29.76
UHMD,64.378,-173.243,210,14,16.11,UHMD 132300Z 21007MPS 1000 DZ BR VV002 08/08 Q1005 RMK QBB060 MT OBSC QFE753/1004,2024-08-13T23:00:00Z,8,8,0.62,29.68
UHMA,64.733,177.739,320,16,18.41,UHMA 132300Z 32008MPS 9999 SCT037 10/01 Q1005 R02/CLRD60 NOSIG RMK MID 33009G12MPS END R02/32008G12MPS QFE750/1000,2024-08-13T23:00:00Z,10,1,6+,29.68
UHHH,48.527,135.184,20,10,11.51,UHHH 132300Z 02005MPS CAVOK 22/15 Q1011 R05L/090060 NOSIG RMK QFE752/1003,2024-08-13T23:00:00Z,22,15,6+,29.85
UHBB,50.425,127.412,VRB,2,2.3,UHBB 132300Z VRB01MPS CAVOK 20/18 Q1014 R36/090056 NOSIG RMK QFE743/0990,2024-08-13T23:00:00Z,20,18,6+,29.94
UGTB,41.669,44.955,300,17,19.56,UGTB 132300Z 30017KT CAVOK 22/16 Q1013 NOSIG,2024-08-13T23:00:00Z,22,16,6+,29.91
UGSB,41.61,41.6,130,11,12.66,UGSB 132300Z 13011KT CAVOK 20/17 Q1013 NOSIG,2024-08-13T23:00:00Z,20,17,6+,29.91
UGMS,43.055,42.75,VRB,2,2.3,UGMS 132300Z AUTO VRB02KT //// ////// 12/11 Q1022,2024-08-13T23:00:00Z,12,11,,30.18
UGKO,42.177,42.483,80,5,5.75,UGKO 132300Z 08005KT CAVOK 18/17 Q1013 NOSIG,2024-08-13T23:00:00Z,18,17,6+,29.91
UGAM,42.527,43.135,70,4,4.6,UGAM 132300Z AUTO 07004KT //// ////// 16/14 Q1016,2024-08-13T23:00:00Z,16,14,,30.00
UERR,62.538,114.056,70,8,9.21,UERR 132300Z 07004MPS 0500 FG VV002 08/08 Q1018 R25/290145 NOSIG RMK QBB060 QFE732/0976,2024-08-13T23:00:00Z,8,8,0.31,30.06
UERP,66.4,112.03,70,6,6.9,UERP 132300Z 07003MPS CAVOK 05/03 Q1020 R36/090060 NOSIG RMK QFE721,2024-08-13T23:00:00Z,5,3,6+,30.12
UEEE,62.093,129.774,320,12,13.81,UEEE 132300Z 32006MPS 9999 FEW050CB 13/08 Q1013 R23/09//60 NOSIG RMK QFE751,2024-08-13T23:00:00Z,13,8,6+,29.91
UBBZ,39.094,46.734,360,2,2.3,UBBZ 132300Z AUTO 36002KT 320V020 9999 // ///////// 23/16 Q1014,2024-08-13T23:00:00Z,23,16,6+,29.94
UBBY,41.561,46.667,110,6,6.9,UBBY 132300Z 11006KT 9999 SCT070 22/17 Q1015 NOSIG,2024-08-13T23:00:00Z,22,17,6+,29.97
UBBN,39.189,45.458,100,8,9.21,UBBN 132300Z 10008KT 9999 NSC 25/13 Q1011 NOSIG RMK QFE684,2024-08-13T23:00:00Z,25,13,6+,29.85
UBBL,38.746,48.818,0,0,0.0,UBBL 132300Z 00000KT 9000 NSC 20/18 Q1010 NOSIG,2024-08-13T23:00:00Z,20,18,5.59,29.82
UBBG,40.738,46.318,50,6,6.9,UBBG 132300Z 05006KT 9999 SCT100 23/15 Q1012 NOSIG,2024-08-13T23:00:00Z,23,15,6+,29.88
UBBF,39.595,47.196,300,10,11.51,UBBF 132300Z AUTO 30010KT 9999 // ///////// 23/16 Q1012,2024-08-13T23:00:00Z,23,16,6+,29.88
UBBB,40.469,50.061,310,6,6.9,UBBB 132300Z 31006KT CAVOK 23/20 Q1010 NOSIG,2024-08-13T23:00:00Z,23,20,6+,29.82
TVSA,13.156,-61.15,180,3,3.45,TVSA 132300Z 18003KT 9999 FEW020 28/25 Q1014 NOSIG ,2024-08-13T23:00:00Z,28,25,6+,29.94
TTPP,10.593,-61.348,0,0,0.0,TTPP 132300Z 00000KT 9999 FEW016 SCT042 29/26 Q1013 NOSIG,2024-08-13T23:00:00Z,29,26,6+,29.91
TTCP,11.149,-60.836,130,5,5.75,TTCP 132300Z 13005KT 9999 FEW018 29/25 Q1013 NOSIG,2024-08-13T23:00:00Z,29,25,6+,29.91
TNCM,18.041,-63.109,160,19,21.86,TNCM 132300Z 16019G34KT 130V200 9999 -RA FEW///CB FEW016 28/26 Q1011 TEMPO 16025G35KT 5000 SHRA RMK CB SE,2024-08-13T23:00:00Z,28,26,6+,29.85
TNCA,12.501,-70.015,80,13,14.96,TNCA 132300Z 08013KT 9999 FEW018 30/24 Q1009 NOSIG,2024-08-13T23:00:00Z,30,24,6+,29.79
TLPL,13.743,-60.948,160,11,12.66,TLPL 132300Z 16011KT 9999 FEW022 29/23 Q1014 NOSIG,2024-08-13T23:00:00Z,29,23,6+,29.94
TLPC,14.021,-60.993,170,6,6.9,TLPC 132300Z 17006KT 9999 FEW024 29/24 Q1014 NOSIG,2024-08-13T23:00:00Z,29,24,6+,29.94
TFFR,16.265,-61.532,140,15,17.26,TFFR 132300Z AUTO 14015KT 9999 FEW023 OVC210 29/24 Q1012 TEMPO 16015G25KT,2024-08-13T23:00:00Z,29,24,6+,29.88
TFFJ,17.904,-62.844,190,9,10.36,TFFJ 132300Z AUTO 19009KT 130V260 5000 -RA BR BKN011/// BKN018/// BKN026/// ///CB 26/25 Q1011,2024-08-13T23:00:00Z,26,25,3.11,29.85
TFFF,14.591,-61.003,170,3,3.45,TFFF 132300Z AUTO 17003KT 130V200 9999 FEW025 SCT140 28/24 Q1014 TEMPO 24015G25KT 1400 TSRA SCT012CB BKN018,2024-08-13T23:00:00Z,28,24,6+,29.94
TBPB,13.075,-59.492,190,8,9.21,TBPB 132300Z 19008KT 9999 FEW018 SCT034 29/26 Q1014 NOSIG,2024-08-13T23:00:00Z,29,26,6+,29.94
SYCJ,6.499,-58.254,280,4,4.6,SYCJ 132300Z 28004KT 9999 FEW016CB SCT017 26/23 Q1014 NOSIG RMK CB ESE-W,2024-08-13T23:00:00Z,26,23,6+,29.94
SVMI,10.603,-66.991,110,6,6.9,SVMI 132300Z 11006KT 9999 SCT016 27/26 Q1012,2024-08-13T23:00:00Z,27,26,6+,29.88
SUMU,-34.838,-56.031,360,5,5.75,SUMU 132300Z 36005KT CAVOK 11/02 Q1020 NOSIG,2024-08-13T23:00:00Z,11,2,6+,30.12
SULS,-34.855,-55.094,10,7,8.06,SULS 132300Z 01007KT CAVOK 10/04 Q1020,2024-08-13T23:00:00Z,10,4,6+,30.12
SUDU,-33.359,-56.499,340,7,8.06,SUDU 132300Z 34007KT CAVOK 09/03 Q1021,2024-08-13T23:00:00Z,9,3,6+,30.15
SUAA,-34.788,-56.263,350,7,8.06,SUAA 132300Z 35007KT CAVOK 11/02 Q1020,2024-08-13T23:00:00Z,11,2,6+,30.12
SPZO,-13.536,-71.939,340,8,9.21,SPZO 132300Z 34008KT 310V010 9999 NSC 18/M05 Q1030 NOSIG RMK BIRD HAZARD RWY 10/28 PP000,2024-08-13T23:00:00Z,18,-5,6+,30.41
SPYL,-4.577,-81.254,200,9,10.36,SPYL 132300Z 20009KT CAVOK 20/17 Q1012 RMK BIRD HAZARD RWY 17/35 PP000,2024-08-13T23:00:00Z,20,17,6+,29.88
SPUR,-5.206,-80.616,230,11,12.66,SPUR 132300Z 23011KT CAVOK 22/15 Q1012 RMK BIRD HAZARD RWY 19/01 PP000,2024-08-13T23:00:00Z,22,15,6+,29.88
SPTU,-12.603,-69.228,0,0,0.0,SPTU 132300Z 00000KT CAVOK 21/17 Q1013 RMK BIRD HAZARD RWY 01/19 PP000,2024-08-13T23:00:00Z,21,17,6+,29.91
SPTN,-18.049,-70.277,230,7,8.06,SPTN 132300Z 23007KT CAVOK 14/10 Q1015 RMK PP000,2024-08-13T23:00:00Z,14,10,6+,29.97
SPSO,-13.744,-76.221,220,12,13.81,SPSO 132300Z 22012KT CAVOK 16/13 Q1014 RMK BIRD HAZARD RWY 22/04 PP000,2024-08-13T23:00:00Z,16,13,6+,29.94
SPRU,-8.087,-79.109,160,6,6.9,SPRU 132300Z 16006KT 8000 VCFG NSC 17/15 Q1013 RMK PP000,2024-08-13T23:00:00Z,17,15,4.97,29.91
SPQU,-16.341,-71.583,260,5,5.75,SPQU 132300Z 26005KT CAVOK 17/M10 Q1027 NOSIG RMK PP000,2024-08-13T23:00:00Z,17,-10,6+,30.32
SPQT,-3.786,-73.306,200,3,3.45,SPQT 132300Z 20003KT 170V230 CAVOK 29/22 Q1012 NOSIG RMK PP000,2024-08-13T23:00:00Z,29,22,6+,29.88
SPME,-3.551,-80.385,300,5,5.75,SPME 132300Z 30005KT 9999 FEW013 BKN023 23/19 Q1011 RMK BIRD HAZARD RWY 32/14 TX 25.6 PP000,2024-08-13T23:00:00Z,23,19,6+,29.85
SPJR,-7.139,-78.489,60,7,8.06,SPJR 132300Z 06007KT 030V100 9999 FEW025 17/02 Q1027 RMK PP000,2024-08-13T23:00:00Z,17,2,6+,30.32
SPJL,-15.467,-70.158,280,6,6.9,SPJL 132300Z 28006KT 210V350 9999 VCSH SCT020 BKN100 16/M08 Q1033 RMK SH NW BIRD HAZARD RWY 12/30 PP000,2024-08-13T23:00:00Z,16,-8,6+,30.50
SPJJ,-11.783,-75.473,330,10,11.51,SPJJ 132300Z 33010KT CAVOK 14/04 Q1031 RMK PP000,2024-08-13T23:00:00Z,14,4,6+,30.44
SPJC,-12.024,-77.113,180,8,9.21,SPJC 132300Z 18008KT 8000 FEW008 SCT017 16/11 Q1014 NOSIG RMK PP000,2024-08-13T23:00:00Z,16,11,4.97,29.94
SPHO,-13.155,-74.204,30,6,6.9,SPHO 132300Z 03006KT CAVOK 22/03 Q1025 RMK BIRD HAZARD RWY 02/20 PP000,2024-08-13T23:00:00Z,22,3,6+,30.27
SPHI,-6.787,-79.828,190,15,17.26,SPHI 132300Z 19015KT 9999 FEW015 18/14 Q1013 RMK BIRD HAZARD RWY 19/01 PP000,2024-08-13T23:00:00Z,18,14,6+,29.91
SPCL,-8.378,-74.574,110,4,4.6,SPCL 132300Z 11004KT 9999 FEW020 30/18 Q1014 RMK PP000,2024-08-13T23:00:00Z,30,18,6+,29.94
SOCA,4.822,-52.365,0,0,0.0,SOCA 132300Z AUTO 00000KT CAVOK 26/24 Q1014 NOSIG,2024-08-13T23:00:00Z,26,24,6+,29.94
SMZO,5.811,-55.191,100,6,6.9,SMZO 132300Z 10006KT 9999 FEW008 29/24 Q1014 NOSIG,2024-08-13T23:00:00Z,29,24,6+,29.94
SMJP,5.453,-55.188,30,6,6.9,SMJP 132300Z 03006KT 9999 FEW010 FEW015CB 29/24 Q1014 NOSIG,2024-08-13T23:00:00Z,29,24,6+,29.94
SLVR,-17.645,-63.135,20,3,3.45,SLVR 132300Z 02003KT 7000 NSC 22/02 Q1015,2024-08-13T23:00:00Z,22,2,4.35,29.97
SLTR,-14.819,-64.918,0,0,0.0,SLTR 132300Z 00000KT 5000 FU NSC 24/13 Q1014,2024-08-13T23:00:00Z,24,13,3.11,29.94
SLTJ,-21.556,-64.701,140,10,11.51,SLTJ 132300Z 14010KT 9999 NSC 13/M02 Q1019,2024-08-13T23:00:00Z,13,-2,6+,30.09
SLSA,-13.762,-65.435,0,0,0.0,SLSA 132300Z 00000KT 6000 NSC 25/13 Q1017,2024-08-13T23:00:00Z,25,13,3.73,30.03
SLOR,-17.962,-67.077,210,10,11.51,SLOR 132300Z 21010KT 9999 BKN015 12/02 Q1032,2024-08-13T23:00:00Z,12,2,6+,30.47
SLLP,-16.511,-68.182,310,8,9.21,SLLP 132300Z 31008KT 9999 FEW015 12/M11 Q1037,2024-08-13T23:00:00Z,12,-11,6+,30.62
SLET,-17.812,-63.172,350,4,4.6,SLET 132300Z 35004KT 9999 NSC 22/05 Q1016,2024-08-13T23:00:00Z,22,5,6+,30.00
SLCO,-11.04,-68.782,180,3,3.45,SLCO 132300Z 18003KT 9999 NSC 27/15 Q1013,2024-08-13T23:00:00Z,27,15,6+,29.91
SLCB,-17.421,-66.179,250,8,9.21,SLCB 132300Z 25008KT 190V330 9999 FEW033 FEW036CB SCT080 22/00 Q1020,2024-08-13T23:00:00Z,22,0,6+,30.12
SLAL,-19.247,-65.15,160,4,4.6,SLAL 132300Z 16004KT 9999 FEW070 15/M05 Q1027,2024-08-13T23:00:00Z,15,-5,6+,30.32
SKSP,12.587,-81.704,60,8,9.21,SKSP 132300Z 06008KT 030V090 9999 FEW016 29/26 Q1010,2024-08-13T23:00:00Z,29,26,6+,29.82
SKRG,6.169,-75.426,90,6,6.9,SKRG 132300Z 09006KT 9999 FEW020TCU 19/14 Q1024 NOSIG RMK TCU/S,2024-08-13T23:00:00Z,19,14,6+,30.24
SKPE,4.814,-75.735,110,8,9.21,SKPE 132300Z 11008KT 9999 FEW020 SCT080 26/17 Q1015,2024-08-13T23:00:00Z,26,17,6+,29.97
SKMU,1.117,-70.083,210,5,5.75,SKMU 132300Z 21005KT 7000 SCT030 29/23 Q1011 RMK HZ,2024-08-13T23:00:00Z,29,23,4.35,29.85
SKLT,-4.196,-69.943,VRB,2,2.3,SKLT 132300Z VRB02KT 9999 FEW020 27/22 Q1012,2024-08-13T23:00:00Z,27,22,6+,29.88
SKCG,10.447,-75.516,320,9,10.36,SKCG 132300Z 32009KT 9999 FEW015CB SCT017 31/26 Q1009 RMK CB/NE,2024-08-13T23:00:00Z,31,26,6+,29.79
SKBQ,10.883,-74.78,20,7,8.06,SKBQ 132300Z 02007KT 9999 FEW015 29/25 Q1009 NOSIG,2024-08-13T23:00:00Z,29,25,6+,29.79
SKBO,4.706,-74.151,160,11,12.66,SKBO 132300Z 16011KT 9999 FEW023 16/08 Q1027 NOSIG,2024-08-13T23:00:00Z,16,8,6+,30.32
SKBG,7.127,-73.185,330,4,4.6,SKBG 132300Z 33004KT 6000 2900N -RA BCFG BKN007 SCT070 22/22 Q1015,2024-08-13T23:00:00Z,22,22,3.73,29.97
SGES,-25.461,-54.849,180,2,2.3,SGES 132300Z 18002KT CAVOK 14/04 Q1020,2024-08-13T23:00:00Z,14,4,6+,30.12
SGAS,-25.248,-57.519,110,4,4.6,SGAS 132300Z 11004KT 8000 NSC 13/06 Q1018,2024-08-13T23:00:00Z,13,6,4.97,30.06
SESA,-2.205,-80.989,200,6,6.9,SESA 132300Z 20006KT 9999 SCT008 OVC013 22/20 Q1012 RMK A2988,2024-08-13T23:00:00Z,22,20,6+,29.88
SERO,-3.435,-79.978,320,6,6.9,SERO 132300Z 32006KT 9999 FEW006 OVC016 23/20 Q1012,2024-08-13T23:00:00Z,23,20,6+,29.88
SEQM,-0.124,-78.354,360,4,4.6,SEQM 132300Z 36004KT 310V060 9999 FEW030 SCT300 22/03 Q1023 NOSIG RMK A3022,2024-08-13T23:00:00Z,22,3,6+,30.21
SEMT,-0.946,-80.679,190,7,8.06,SEMT 132300Z 19007KT 150V220 9999 FEW023 27/20 Q1009 RMK A2980,2024-08-13T23:00:00Z,27,20,6+,29.79
SEMC,-2.299,-78.121,190,3,3.45,SEMC 132300Z 19003KT 9999 FEW020 22/17 Q1018 RMK A3008,2024-08-13T23:00:00Z,22,17,6+,30.06
SELT,-0.921,-78.619,180,12,13.81,SELT 132300Z 18012KT 160V220 9999 FEW030 12/04 Q1031,2024-08-13T23:00:00Z,12,4,6+,30.44
SEGU,-2.158,-79.884,200,10,11.51,SEGU 132300Z 20010KT 9999 BKN023 BKN100 26/20 Q1010 NOSIG RMK A2983,2024-08-13T23:00:00Z,26,20,6+,29.82
SECU,-2.889,-78.984,50,7,8.06,SECU 132300Z 05007KT 9999 SCT040 16/04 Q1027,2024-08-13T23:00:00Z,16,4,6+,30.32
SECA,-3.995,-79.372,120,14,16.11,SECA 132300Z 12014KT 090V170 9999 BKN040 25/10 Q1018 RMK A3007,2024-08-13T23:00:00Z,25,10,6+,30.06
SEAM,-1.212,-78.575,160,7,8.06,SEAM 132300Z 16007KT 9999 SCT030 16/09 Q1029,2024-08-13T23:00:00Z,16,9,6+,30.38
SCVM,-32.947,-71.479,360,4,4.6,SCVM 132300Z 36004KT 3000 BR OVC005 11/11 Q1018,2024-08-13T23:00:00Z,11,11,1.86,30.06
SCVD,-39.65,-73.086,0,0,0.0,SCVD 132300Z 00000KT 9999 OVC021 12/10 Q1015,2024-08-13T23:00:00Z,12,10,6+,29.97
SCTN,-42.933,-72.699,360,12,13.81,SCTN 132300Z AUTO 36012KT //// R/////// // BKN006 OVC018 10/10 Q1012,2024-08-13T23:00:00Z,10,10,,29.88
SCTE,-41.439,-73.094,10,8,9.21,SCTE 132300Z 01008KT 9999 -RA BKN015 OVC040 10/09 Q1013 NOSIG,2024-08-13T23:00:00Z,10,9,6+,29.91
SCSN,-33.656,-71.615,270,5,5.75,SCSN 132300Z 27005KT 3000 HZ OVC005 11/11 Q1018,2024-08-13T23:00:00Z,11,11,1.86,30.06
SCSE,-29.918,-71.201,280,3,3.45,SCSE 132300Z 28003KT 230V310 9999 OVC015 13/11 Q1017,2024-08-13T23:00:00Z,13,11,6+,30.03
SCRM,-62.191,-58.987,40,12,13.81,SCRM 132300Z 04012KT 8000 -SHSN BKN003 OVC010 M18/M21 Q1026 NOSIG,2024-08-13T23:00:00Z,-18,-21,4.97,30.30
SCQP,-38.925,-72.648,VRB,2,2.3,SCQP 132300Z VRB02KT 9999 BKN038 OVC210 09/09 Q1016,2024-08-13T23:00:00Z,9,9,6+,30.00
SCPQ,-42.347,-73.718,340,13,14.96,SCPQ 132300Z AUTO 34013KT 9000 OVC002 09/09 Q1011,2024-08-13T23:00:00Z,9,9,5.59,29.85
SCJO,-40.605,-73.061,10,9,10.36,SCJO 132300Z 01009KT 9999 -RA SCT020 OVC045 12/11 Q1014,2024-08-13T23:00:00Z,12,11,6+,29.94
SCIP,-27.161,-109.427,130,13,14.96,SCIP 132300Z 13013KT 9999 SCT040 SCT220 18/08 Q1024 NOSIG,2024-08-13T23:00:00Z,18,8,6+,30.24
SCIE,-36.773,-73.063,240,7,8.06,SCIE 132300Z 24007KT 9999 BKN006 OVC012 11/11 Q1017,2024-08-13T23:00:00Z,11,11,6+,30.03
SCIC,-34.966,-71.217,0,0,0.0,SCIC 132300Z AUTO 00000KT //// R/////// // NCD 15/09 Q1016,2024-08-13T23:00:00Z,15,9,,30.00
SCGE,-37.403,-72.422,50,4,4.6,SCGE 132300Z 05004KT 310V080 CAVOK 14/10 Q1015,2024-08-13T23:00:00Z,14,10,6+,29.97
SCFT,-43.189,-71.853,280,3,3.45,SCFT 132300Z AUTO 28003KT 230V320 9999 -RA OVC048/// 07/07 Q1013 RERA,2024-08-13T23:00:00Z,7,7,6+,29.91
SCFA,-23.45,-70.441,200,8,9.21,SCFA 132300Z 20008KT 9999 FEW011 BKN018 14/09 Q1015 NOSIG,2024-08-13T23:00:00Z,14,9,6+,29.97
SCEL,-33.393,-70.786,160,9,10.36,SCEL 132300Z 16009KT CAVOK 15/10 Q1016 NOSIG,2024-08-13T23:00:00Z,15,10,6+,30.00
SCDA,-20.535,-70.181,230,8,9.21,SCDA 132300Z 23008KT CAVOK 16/10 Q1014,2024-08-13T23:00:00Z,16,10,6+,29.94
SCCI,-53.003,-70.855,20,5,5.75,SCCI 132300Z 02005KT 310V060 CAVOK 04/02 Q1008 NOSIG,2024-08-13T23:00:00Z,4,2,6+,29.76
SCCH,-36.583,-72.031,80,3,3.45,SCCH 132300Z AUTO 08003KT CAVOK 13/10 Q1016,2024-08-13T23:00:00Z,13,10,6+,30.00
SCCF,-22.496,-68.905,260,10,11.51,SCCF 132300Z 26010KT CAVOK 16/M21 Q1026,2024-08-13T23:00:00Z,16,-21,6+,30.30
SCAT,-27.262,-70.774,270,5,5.75,SCAT 132300Z 27005KT 9999 FEW020 12/09 Q1016,2024-08-13T23:00:00Z,12,9,6+,30.00
SCAR,-18.351,-70.336,220,7,8.06,SCAR 132300Z 22007KT CAVOK 15/11 Q1014,2024-08-13T23:00:00Z,15,11,6+,29.94
SBVT,-20.258,-40.286,210,8,9.21,SBVT 132300Z 21008KT 9999 SCT035 BKN060 20/13 Q1025,2024-08-13T23:00:00Z,20,13,6+,30.27
SBTT,-4.254,-69.939,100,2,2.3,SBTT 132300Z 10002KT CAVOK 28/21 Q1013,2024-08-13T23:00:00Z,28,21,6+,29.91
SBTE,-5.06,-42.824,360,4,4.6,SBTE 132300Z 36004KT CAVOK 30/22 Q1011,2024-08-13T23:00:00Z,30,22,6+,29.85
SBSV,-12.911,-38.331,120,8,9.21,SBSV 132300Z 12008KT 9999 SCT018 BKN046 26/22 Q1020,2024-08-13T23:00:00Z,26,22,6+,30.12
SBSP,-23.627,-46.655,140,10,11.51,SBSP 132300Z 14010KT 9999 SCT013 OVC015 10/07 Q1027,2024-08-13T23:00:00Z,10,7,6+,30.32
SBSN,-2.423,-54.789,70,1,1.15,SBSN 132300Z 07001KT 9999 FEW020 26/25 Q1012,2024-08-13T23:00:00Z,26,25,6+,29.88
SBSL,-2.585,-44.234,30,9,10.36,SBSL 132300Z 03009KT 9999 FEW020 26/23 Q1013,2024-08-13T23:00:00Z,26,23,6+,29.91
SBSJ,-23.229,-45.861,170,4,4.6,SBSJ 132300Z 17004KT CAVOK 11/08 Q1026,2024-08-13T23:00:00Z,11,8,6+,30.30
SBSG,-5.768,-35.376,160,4,4.6,SBSG 132300Z 16004KT 130V190 9999 FEW025 23/21 Q1016,2024-08-13T23:00:00Z,23,21,6+,30.00
SBRP,-21.134,-47.774,140,9,10.36,SBRP 132300Z 14009KT CAVOK 19/03 Q1021,2024-08-13T23:00:00Z,19,3,6+,30.15
SBRJ,-22.91,-43.163,210,5,5.75,SBRJ 132300Z 21005KT 9999 SCT045 BKN100 18/11 Q1025,2024-08-13T23:00:00Z,18,11,6+,30.27
SBRF,-8.126,-34.923,150,10,11.51,SBRF 132300Z 15010KT CAVOK 26/21 Q1017,2024-08-13T23:00:00Z,26,21,6+,30.03
SBRB,-9.867,-67.897,200,2,2.3,SBRB 132300Z 20002KT 3000 FU HZ NSC 25/12 Q1014,2024-08-13T23:00:00Z,25,12,1.86,29.94
SBPV,-8.708,-63.901,20,1,1.15,SBPV 132300Z 02001KT 4500 2000N FU NSC 27/14 Q1012,2024-08-13T23:00:00Z,27,14,2.8,29.88
SBPS,-16.439,-39.081,160,8,9.21,SBPS 132300Z 16008KT 090V200 6000 SCT010 OVC020 21/20 Q1023,2024-08-13T23:00:00Z,21,20,3.73,30.21
SBPL,-9.367,-40.565,170,9,10.36,SBPL 132300Z 17009KT 9999 FEW035 BKN070 32/14 Q1016,2024-08-13T23:00:00Z,32,14,6+,30.00
SBPK,-31.717,-52.328,40,4,4.6,SBPK 132300Z 04004KT CAVOK 10/08 Q1023,2024-08-13T23:00:00Z,10,8,6+,30.21
SBPJ,-10.291,-48.357,100,6,6.9,SBPJ 132300Z 10006KT CAVOK 30/19 Q1013,2024-08-13T23:00:00Z,30,19,6+,29.91
SBOI,3.861,-51.796,VRB,1,1.15,SBOI 132300Z AUTO VRB01KT CAVOK 27/23 Q1014,2024-08-13T23:00:00Z,27,23,6+,29.94
SBNF,-26.88,-48.651,300,2,2.3,SBNF 132300Z 30002KT 9999 FEW006 10/06 Q1026,2024-08-13T23:00:00Z,10,6,6+,30.30
SBMQ,0.051,-51.072,110,10,11.51,SBMQ 132300Z 11010KT CAVOK 30/24 Q1013,2024-08-13T23:00:00Z,30,24,6+,29.91
SBMO,-9.511,-35.792,100,4,4.6,SBMO 132300Z 10004KT 9999 FEW021 SCT046 23/21 Q1019,2024-08-13T23:00:00Z,23,21,6+,30.09
SBMN,-3.146,-59.986,280,6,6.9,SBMN 132300Z 28006KT 4000 FU NSC 29/24 Q1013,2024-08-13T23:00:00Z,29,24,2.49,29.91
SBMA,-5.368,-49.137,290,2,2.3,SBMA 132300Z 29002KT 9999 TS FEW020 FEW025CB BKN090 27/23 Q1013,2024-08-13T23:00:00Z,27,23,6+,29.91
SBLO,-23.334,-51.13,120,5,5.75,SBLO 132300Z 12005KT CAVOK 17/04 Q1022,2024-08-13T23:00:00Z,17,4,6+,30.18
SBKP,-23.007,-47.135,140,16,18.41,SBKP 132300Z 14016KT CAVOK 12/07 Q1024,2024-08-13T23:00:00Z,12,7,6+,30.24
SBJP,-7.148,-34.951,140,5,5.75,SBJP 132300Z 14005KT 9999 FEW030 24/22 Q1017,2024-08-13T23:00:00Z,24,22,6+,30.03
SBJE,-2.907,-40.358,80,11,12.66,SBJE 132300Z 08011KT CAVOK 26/23 Q1013,2024-08-13T23:00:00Z,26,23,6+,29.91
SBGR,-23.432,-46.469,140,3,3.45,SBGR 132300Z 14003KT 9999 SCT015 09/06 Q1023,2024-08-13T23:00:00Z,9,6,6+,30.21
SBGO,-16.632,-49.221,130,7,8.06,SBGO 132300Z 13007KT CAVOK 21/01 Q1020,2024-08-13T23:00:00Z,21,1,6+,30.12
SBGL,-22.815,-43.261,230,4,4.6,SBGL 132300Z 23004KT 9999 BKN045 19/10 Q1025,2024-08-13T23:00:00Z,19,10,6+,30.27
SBFZ,-3.776,-38.533,100,8,9.21,SBFZ 132300Z 10008KT 9999 FEW017 26/23 Q1015,2024-08-13T23:00:00Z,26,23,6+,29.97
SBFL,-27.671,-48.547,360,5,5.75,SBFL 132300Z 36005KT 250V030 CAVOK 13/06 Q1026,2024-08-13T23:00:00Z,13,6,6+,30.30
SBFI,-25.595,-54.488,150,3,3.45,SBFI 132300Z 15003KT CAVOK 12/05 Q1020,2024-08-13T23:00:00Z,12,5,6+,30.12
SBEG,-3.039,-60.05,VRB,2,2.3,SBEG 132300Z VRB02KT 4000 FU FEW025 26/25 Q1013,2024-08-13T23:00:00Z,26,25,2.49,29.91
SBCY,-15.653,-56.116,110,6,6.9,SBCY 132300Z 11006KT CAVOK 27/03 Q1015,2024-08-13T23:00:00Z,27,3,6+,29.97
SBCT,-25.529,-49.176,90,3,3.45,SBCT 132300Z 09003KT CAVOK 05/04 Q1026,2024-08-13T23:00:00Z,5,4,6+,30.30
SBCP,-21.701,-41.305,200,8,9.21,SBCP 132300Z 20008KT CAVOK 18/13 Q1025,2024-08-13T23:00:00Z,18,13,6+,30.27
SBCJ,-6.118,-50.004,0,0,0.0,SBCJ 132300Z 00000KT 9999 VCTS FEW040CB SCT100 25/21 Q1017,2024-08-13T23:00:00Z,25,21,6+,30.03
SBCG,-20.469,-54.672,90,9,10.36,SBCG 132300Z 09009KT CAVOK 19/01 Q1019,2024-08-13T23:00:00Z,19,1,6+,30.09
SBCF,-19.635,-43.966,100,12,13.81,SBCF 132300Z 10012KT CAVOK 18/03 Q1023,2024-08-13T23:00:00Z,18,3,6+,30.21
SBBV,2.846,-60.69,200,5,5.75,SBBV 132300Z 20005KT 9999 FEW040 FEW045TCU 30/22 Q1013,2024-08-13T23:00:00Z,30,22,6+,29.91
SBBR,-15.867,-47.933,150,5,5.75,SBBR 132300Z 15005KT 120V180 CAVOK 23/02 Q1022,2024-08-13T23:00:00Z,23,2,6+,30.18
SBBG,-31.391,-54.112,320,3,3.45,SBBG 132300Z AUTO 32003KT 270V330 CAVOK 10/03 Q1022,2024-08-13T23:00:00Z,10,3,6+,30.18
SBBE,-1.379,-48.476,30,6,6.9,SBBE 132300Z 03006KT 9999 BKN042 28/25 Q1013,2024-08-13T23:00:00Z,28,25,6+,29.91
SBAR,-10.984,-37.07,140,10,11.51,SBAR 132300Z 14010KT 9999 SCT020 SCT040 26/22 Q1019,2024-08-13T23:00:00Z,26,22,6+,30.09
SAZS,-41.151,-71.157,290,9,10.36,SAZS 132300Z 29009KT 9999 SCT042 BKN100 BKN200 10/04 Q1013,2024-08-13T23:00:00Z,10,4,6+,29.91
SAZN,-38.95,-68.141,110,4,4.6,SAZN 132300Z 11004KT CAVOK 15/03 Q1013,2024-08-13T23:00:00Z,15,3,6+,29.91
SAZM,-37.932,-57.581,230,5,5.75,SAZM 132300Z 23005KT CAVOK 12/04 Q1017,2024-08-13T23:00:00Z,12,4,6+,30.03
SAWH,-54.844,-68.308,10,6,6.9,SAWH 132300Z 01006KT 320V080 9999 SCT040 05/M00 Q1008,2024-08-13T23:00:00Z,5,0,6+,29.76
SAWG,-51.609,-69.306,20,14,16.11,SAWG 132300Z 02014KT CAVOK 05/M01 Q1009,2024-08-13T23:00:00Z,5,-1,6+,29.79
SAVC,-45.79,-67.471,60,4,4.6,SAVC 132300Z 06004KT CAVOK 07/02 Q1014,2024-08-13T23:00:00Z,7,2,6+,29.94
SASJ,-24.387,-65.098,40,3,3.45,SASJ 132300Z 04003KT 020V100 CAVOK 15/00 Q1018,2024-08-13T23:00:00Z,15,0,6+,30.06
SASA,-24.856,-65.486,10,6,6.9,SASA 132300Z 01006KT CAVOK 12/M03 Q1019,2024-08-13T23:00:00Z,12,-3,6+,30.09
SARI,-25.737,-54.473,110,1,1.15,SARI 132300Z 11001KT CAVOK 13/03 Q1020,2024-08-13T23:00:00Z,13,3,6+,30.12
SARE,-27.45,-59.056,70,6,6.9,SARE 132300Z 07006KT CAVOK 13/01 Q1019,2024-08-13T23:00:00Z,13,1,6+,30.09
SAME,-32.832,-68.793,360,3,3.45,SAME 132300Z 36003KT CAVOK 16/M04 Q1013,2024-08-13T23:00:00Z,16,-4,6+,29.91
SAEZ,-34.822,-58.536,350,4,4.6,SAEZ 132300Z 35004KT CAVOK 16/M00 Q1018 NOSIG,2024-08-13T23:00:00Z,16,0,6+,30.06
SADF,-34.457,-58.593,20,6,6.9,SADF 132300Z 02006KT CAVOK 13/00 Q1018,2024-08-13T23:00:00Z,13,0,6+,30.06
SACO,-31.324,-64.208,40,9,10.36,SACO 132300Z 04009KT CAVOK 13/M02 Q1015 NOSIG,2024-08-13T23:00:00Z,13,-2,6+,29.97
SABE,-34.559,-58.416,330,6,6.9,SABE 132300Z 33006KT CAVOK 14/09 Q1019 NOSIG,2024-08-13T23:00:00Z,14,9,6+,30.09
SAAR,-32.918,-60.782,20,6,6.9,SAAR 132300Z 02006KT CAVOK 11/M00 Q1017,2024-08-13T23:00:00Z,11,0,6+,30.03
RPVP,9.742,118.759,270,6,6.9,RPVP 132300Z 27006KT 9999 FEW019 SCT250 26/24 Q1011 RMK A2985,2024-08-13T23:00:00Z,26,24,6+,29.85
RPVM,10.308,123.978,250,3,3.45,"RPVM 132300Z 25003KT 9999 FEW018CB SCT300 28/26 Q1011 NOSIG RMK A2985 CB NE, S",2024-08-13T23:00:00Z,28,26,6+,29.85
RPMZ,6.92,122.063,30,3,3.45,RPMZ 132300Z 03003KT 360V060 9999 FEW017 BKN300 27/24 Q1011 RMK A2985,2024-08-13T23:00:00Z,27,24,6+,29.85
RPMD,7.125,125.646,VRB,2,2.3,RPMD 132300Z VRB02KT 9999 FEW016 SCT290 26/24 Q1011 RMK A2985,2024-08-13T23:00:00Z,26,24,6+,29.85
RPLL,14.507,121.004,VRB,2,2.3,RPLL 132300Z VRB02KT 9999 FEW023CB SCT025 BKN100 27/25 Q1010 NOSIG RMK A2983 CB NW,2024-08-13T23:00:00Z,27,25,6+,29.82
RPLI,18.178,120.532,90,5,5.75,RPLI 132300Z 09005KT 9999 FEW017CB SCT290 27/25 Q1009 NOSIG RMK A2980 CB N,2024-08-13T23:00:00Z,27,25,6+,29.79
RPLC,15.186,120.56,360,2,2.3,RPLC 132300Z 36002KT 7000 SCT020 27/25 Q1010 NOSIG RMK A2983,2024-08-13T23:00:00Z,27,25,4.35,29.82
RPLB,14.794,120.271,80,4,4.6,RPLB 132300Z 08004KT 9999 FEW020 BKN300 27/26 Q1010 RMK A2983,2024-08-13T23:00:00Z,27,26,6+,29.82
PLCH,1.988,-157.349,100,14,16.11,PLCH 132300Z 10014KT 9999 FEW020 31/24 Q1011,2024-08-13T23:00:00Z,31,24,6+,29.85
PKWA,8.72,167.724,60,9,10.36,PKWA 132300Z AUTO 06009KT 10SM SCT019 SCT026 SCT037 31/25 A2989 RMK AO2 T03050249,2024-08-13T23:00:00Z,30.5,24.9,10+,29.89
OYSY,15.966,48.788,210,4,4.6,OYSY 132300Z 21004KT CAVOK 30/17 Q1005,2024-08-13T23:00:00Z,30,17,6+,29.68
OYAA,12.829,45.029,260,10,11.51,OYAA 132300Z 26010KT 4000 VCTS DU FEW035CB BKN080 32/23 Q1002 NOSIG,2024-08-13T23:00:00Z,32,23,2.49,29.59
OSLK,35.402,35.949,80,6,6.9,OSLK 132300Z 08006KT 9999 FEW030 26/23 Q1008,2024-08-13T23:00:00Z,26,23,6+,29.76
OSDI,33.411,36.516,220,12,13.81,OSDI 132300Z 22012KT CAVOK 24/18 Q1010,2024-08-13T23:00:00Z,24,18,6+,29.82
ORSU,35.56,45.318,250,4,4.6,ORSU 132300Z 25004KT CAVOK 24/07 Q1010,2024-08-13T23:00:00Z,24,7,6+,29.82
ORNI,31.99,44.405,0,0,0.0,ORNI 132300Z 00000KT 6000 NSC 33/12 Q1001,2024-08-13T23:00:00Z,33,12,3.73,29.56
ORMM,30.549,47.662,350,10,11.51,ORMM 132300Z 35010KT CAVOK 31/13 Q0999 NOSIG,2024-08-13T23:00:00Z,31,13,6+,29.50
ORER,36.232,43.951,VRB,2,2.3,ORER 132300Z VRB02KT CAVOK 30/08 Q1007,2024-08-13T23:00:00Z,30,8,6+,29.73
ORBI,33.263,44.235,40,3,3.45,ORBI 132300Z 04003KT 9000 NSC 32/14 Q1001 NOSIG,2024-08-13T23:00:00Z,32,14,5.59,29.56
OPST,32.536,74.364,0,0,0.0,OPST 132300Z 00000KT 4000 FU SCT100 30/27 Q1003 NOSIG RH85,2024-08-13T23:00:00Z,30,27,2.49,29.62
OPMT,30.203,71.419,0,0,0.0,OPMT 132300Z 00000KT 4000 FU NSC 32/27 Q1001 NOSIG,2024-08-13T23:00:00Z,32,27,2.49,29.56
OPKC,24.902,67.139,240,8,9.21,OPKC 132300Z 24008KT 4000 FU FEW020 SCT030 28/25 Q1004 NOSIG,2024-08-13T23:00:00Z,28,25,2.49,29.65
OMSJ,25.329,55.517,90,5,5.75,OMSJ 132300Z 09005KT CAVOK 33/26 Q0999 NOSIG,2024-08-13T23:00:00Z,33,26,6+,29.50
OMRK,25.613,55.939,120,15,17.26,OMRK 132300Z 12015KT CAVOK 34/22 Q0999 A2950,2024-08-13T23:00:00Z,34,22,6+,29.50
OMFJ,25.112,56.324,130,5,5.75,OMFJ 132300Z 13005KT 8000 FEW016 SCT025 31/28 Q1001 A2957,2024-08-13T23:00:00Z,31,28,4.97,29.56
OMDW,24.897,55.161,90,7,8.06,OMDW 132300Z 09007KT CAVOK 33/26 Q0999 NOSIG,2024-08-13T23:00:00Z,33,26,6+,29.50
OMDB,25.254,55.366,110,8,9.21,OMDB 132300Z 11008KT CAVOK 35/26 Q0998 NOSIG,2024-08-13T23:00:00Z,35,26,6+,29.47
OMAL,24.262,55.609,150,4,4.6,OMAL 132300Z 15004KT CAVOK 36/25 Q1001 NOSIG,2024-08-13T23:00:00Z,36,25,6+,29.56
OMAD,24.428,54.458,110,5,5.75,OMAD 132300Z 11005KT CAVOK 35/27 Q0998 NOSIG,2024-08-13T23:00:00Z,35,27,6+,29.47
OMAA,24.433,54.651,100,7,8.06,OMAA 132300Z 10007KT CAVOK 36/26 Q0998 NOSIG,2024-08-13T23:00:00Z,36,26,6+,29.47
OLBA,33.82,35.491,140,4,4.6,OLBA 132300Z 14004KT 8000 BKN026 29/24 Q1008 NOSIG,2024-08-13T23:00:00Z,29,24,4.97,29.76
OJAQ,29.612,35.018,350,9,10.36,OJAQ 132300Z 35009KT CAVOK 33/15 Q1006 NOSIG,2024-08-13T23:00:00Z,33,15,6+,29.70
OIZH,29.472,60.901,220,4,4.6,OIZH 132300Z 22004KT CAVOK 25/00 Q1011 A2987,2024-08-13T23:00:00Z,25,0,6+,29.85
OIYY,31.905,54.276,270,6,6.9,OIYY 132300Z 27006KT 9999 FEW070 36/04 Q1008,2024-08-13T23:00:00Z,36,4,6+,29.76
OITT,38.13,46.24,90,8,9.21,OITT 132300Z 09008KT CAVOK 22/12 Q1016 A3002,2024-08-13T23:00:00Z,22,12,6+,30.00
OITR,37.665,45.066,290,4,4.6,OITR 132300Z 29004KT CAVOK 18/11 Q1014 A2997,2024-08-13T23:00:00Z,18,11,6+,29.94
OITP,39.604,47.882,130,4,4.6,OITP 132300Z 13004KT CAVOK 23/21 Q1008,2024-08-13T23:00:00Z,23,21,6+,29.76
OITL,38.326,48.424,0,0,0.0,OITL 132300Z 00000KT CAVOK 13/08 Q1017,2024-08-13T23:00:00Z,13,8,6+,30.03
OISY,30.701,51.545,0,0,0.0,OISY 132300Z 00000KT CAVOK 22/08 Q1017,2024-08-13T23:00:00Z,22,8,6+,30.03
OISS,29.539,52.59,0,0,0.0,OISS 132300Z 00000KT CAVOK 25/11 Q1012 A2991,2024-08-13T23:00:00Z,25,11,6+,29.88
OISF,28.895,53.72,330,6,6.9,OISF 132300Z 33006KT CAVOK 28/12 Q1011 A2986,2024-08-13T23:00:00Z,28,12,6+,29.85
OINZ,36.636,53.194,200,4,4.6,OINZ 132300Z 20004KT 9999 SCT080 SCT200 25/21 Q1009,2024-08-13T23:00:00Z,25,21,6+,29.79
OINN,36.663,51.465,0,0,0.0,OINN 132300Z 00000KT 9999 BKN027 25/20 Q1008,2024-08-13T23:00:00Z,25,20,6+,29.76
OING,36.908,54.404,0,0,0.0,OING 132300Z 00000KT 9999 FEW035 BKN100 27/23 Q1010,2024-08-13T23:00:00Z,27,23,6+,29.82
OIMN,37.488,57.303,0,0,0.0,OIMN 132300Z 00000KT CAVOK 22/16 Q1015,2024-08-13T23:00:00Z,22,16,6+,29.97
OIMM,36.236,59.639,180,4,4.6,OIMM 132300Z 18004KT CAVOK 26/18 Q1014 A2996,2024-08-13T23:00:00Z,26,18,6+,29.94
OIMB,32.894,59.29,80,6,6.9,OIMB 132300Z 08006KT 9000 NSC 26/02 Q1012 A2991,2024-08-13T23:00:00Z,26,2,5.59,29.88
OIKQ,26.755,55.902,60,8,9.21,OIKQ 132300Z 06008KT CAVOK 32/29 Q0998,2024-08-13T23:00:00Z,32,29,6+,29.47
OIKK,30.251,56.964,110,4,4.6,OIKK 132300Z 11004KT CAVOK 25/06 Q1014 A2996,2024-08-13T23:00:00Z,25,6,6+,29.94
OIKB,27.218,56.378,110,6,6.9,OIKB 132300Z 11006KT 5000 HZ FEW025 32/27 Q1001 A2956,2024-08-13T23:00:00Z,32,27,3.11,29.56
OIIP,35.776,50.827,290,16,18.41,OIIP 132300Z 29016KT 6000 NSC 20/13 Q1011 A2987,2024-08-13T23:00:00Z,20,13,3.73,29.85
OIIK,36.243,50.045,20,4,4.6,OIIK 132300Z 02004KT CAVOK 20/13 Q1012 A2989,2024-08-13T23:00:00Z,20,13,6+,29.88
OIII,35.686,51.304,280,6,6.9,OIII 132300Z 28006KT 7000 FEW040 27/11 Q1009 A2982 NOSIG,2024-08-13T23:00:00Z,27,11,4.35,29.79
OIIE,35.416,51.152,300,20,23.02,OIIE 132300Z 30020KT CAVOK 24/12 Q1008,2024-08-13T23:00:00Z,24,12,6+,29.76
OIHH,34.869,48.553,270,4,4.6,OIHH 132300Z 27004KT CAVOK 22/08 Q1016 A3001,2024-08-13T23:00:00Z,22,8,6+,30.00
OIFS,32.297,50.842,10,4,4.6,OIFS 132300Z 01004KT CAVOK 16/01 Q1019,2024-08-13T23:00:00Z,16,1,6+,30.09
OIFM,32.752,51.866,230,6,6.9,OIFM 132300Z 23006KT CAVOK 25/02 Q1014 A2995,2024-08-13T23:00:00Z,25,2,6+,29.94
OICS,35.245,47.009,0,0,0.0,OICS 132300Z 00000KT CAVOK 20/04 Q1014 A2994,2024-08-13T23:00:00Z,20,4,6+,29.94
OICK,33.435,48.283,130,6,6.9,OICK 132300Z 13006KT CAVOK 22/00 Q1010 A2985,2024-08-13T23:00:00Z,22,0,6+,29.82
OICI,33.588,46.397,280,4,4.6,OICI 132300Z 28004KT CAVOK 23/03 Q1014 A2994,2024-08-13T23:00:00Z,23,3,6+,29.94
OICC,34.346,47.158,100,4,4.6,OICC 132300Z 10004KT CAVOK 21/M01 Q1012 A2988,2024-08-13T23:00:00Z,21,-1,6+,29.88
OIBK,26.526,53.98,120,6,6.9,OIBK 132300Z 12006KT 3000 HZ NSC 33/29 Q0998,2024-08-13T23:00:00Z,33,29,1.86,29.47
OIBB,28.947,50.834,100,4,4.6,OIBB 132300Z 10004KT 3000 BR NSC 32/30 Q0997 A2945,2024-08-13T23:00:00Z,32,30,1.86,29.44
OIAW,31.343,48.751,320,8,9.21,OIAW 132300Z 32008KT CAVOK 37/08 Q0998,2024-08-13T23:00:00Z,37,8,6+,29.47
OIAM,30.556,49.152,360,10,11.51,OIAM 132300Z 36010KT CAVOK 32/18 Q0998,2024-08-13T23:00:00Z,32,18,6+,29.47
OIAH,30.336,50.83,0,0,0.0,OIAH 132300Z 00000KT CAVOK 28/09 Q1005,2024-08-13T23:00:00Z,28,9,6+,29.68
OIAA,30.366,48.23,350,8,9.21,OIAA 132300Z 35008KT CAVOK 36/14 Q0999,2024-08-13T23:00:00Z,36,14,6+,29.50
OEYN,24.144,38.063,300,4,4.6,OEYN 132300Z 30004KT CAVOK 35/14 Q0997 NOSIG,2024-08-13T23:00:00Z,35,14,6+,29.44
OEWJ,26.199,36.476,300,5,5.75,OEWJ 132300Z 30005KT CAVOK 31/25 Q1002 NOSIG,2024-08-13T23:00:00Z,31,25,6+,29.59
OEWD,20.504,45.197,90,6,6.9,OEWD 132300Z 09006KT CAVOK 37/03 Q1003,2024-08-13T23:00:00Z,37,3,6+,29.62
OETR,31.693,38.731,280,6,6.9,OETR 132300Z 28006KT CAVOK 26/11 Q1010 NOSIG,2024-08-13T23:00:00Z,26,11,6+,29.82
OETF,21.483,40.544,320,4,4.6,OETF 132300Z 32004KT CAVOK 28/14 Q1015 NOSIG,2024-08-13T23:00:00Z,28,14,6+,29.97
OETB,28.366,36.619,310,6,6.9,OETB 132300Z 31006KT CAVOK 31/02 Q1009 NOSIG,2024-08-13T23:00:00Z,31,2,6+,29.79
OESK,29.785,40.1,10,4,4.6,OESK 132300Z 01004KT CAVOK 30/01 Q1011 NOSIG,2024-08-13T23:00:00Z,30,1,6+,29.85
OESH,17.467,47.121,150,11,12.66,OESH 132300Z 15011KT 9999 SCT035 SCT080 34/12 Q1004 NOSIG,2024-08-13T23:00:00Z,34,12,6+,29.65
OERR,30.907,41.138,320,4,4.6,OERR 132300Z 32004KT CAVOK 31/M01 Q1006 NOSIG,2024-08-13T23:00:00Z,31,-1,6+,29.70
OERK,24.945,46.702,300,2,2.3,OERK 132300Z 30002KT CAVOK 33/04 Q1006 NOSIG,2024-08-13T23:00:00Z,33,4,6+,29.70
OERF,29.626,43.491,0,0,0.0,OERF 132300Z 00000KT CAVOK 30/01 Q1004 NOSIG,2024-08-13T23:00:00Z,30,1,6+,29.65
OEPA,28.335,46.125,120,6,6.9,OEPA 132300Z 12006KT CAVOK 33/03 Q1003 NOSIG,2024-08-13T23:00:00Z,33,3,6+,29.62
OENG,17.611,44.419,150,4,4.6,OENG 132300Z 15004KT 9999 SCT030 SCT090 32/05 Q1010 NOSIG,2024-08-13T23:00:00Z,32,5,6+,29.82
OEMN,-99.99,-99.99,0,0,0.0,OEMN 132300Z 00000KT CAVOK 34/24 Q1004,2024-08-13T23:00:00Z,34,24,6+,29.65
OEMA,24.553,39.705,310,8,9.21,OEMA 132300Z 31008KT 9999 SCT040 39/10 Q1006 NOSIG,2024-08-13T23:00:00Z,39,10,6+,29.70
OEKM,18.301,42.798,0,0,0.0,OEKM 132300Z 00000KT CAVOK 21/18 Q1019 NOSIG,2024-08-13T23:00:00Z,21,18,6+,30.09
OEKJ,24.07,47.58,60,7,8.06,OEKJ 132300Z 06007KT CAVOK 32/01 Q1005,2024-08-13T23:00:00Z,32,1,6+,29.68
OEJN,21.685,39.166,250,4,4.6,OEJN 132300Z 25004KT 9999 FEW040 33/26 Q1001 NOSIG,2024-08-13T23:00:00Z,33,26,6+,29.56
OEHL,27.438,41.686,30,4,4.6,OEHL 132300Z 03004KT CAVOK 33/09 Q1011,2024-08-13T23:00:00Z,33,9,6+,29.85
OEGT,31.412,37.279,290,10,11.51,OEGT 132300Z 29010KT CAVOK 26/13 Q1008 NOSIG,2024-08-13T23:00:00Z,26,13,6+,29.76
OEGS,26.303,43.774,10,3,3.45,OEGS 132300Z 01003KT CAVOK 32/04 Q1005,2024-08-13T23:00:00Z,32,4,6+,29.68
OEGN,16.901,42.586,180,3,3.45,OEGN 132300Z 18003KT 9999 FEW030 33/25 Q1002 NOSIG,2024-08-13T23:00:00Z,33,25,6+,29.59
OEDR,26.265,50.152,270,3,3.45,OEDR 132300Z 27003KT CAVOK 32/25 Q0997,2024-08-13T23:00:00Z,32,25,6+,29.44
OEDM,24.45,44.121,90,8,9.21,OEDM 132300Z 09008KT CAVOK 32/02 Q1008,2024-08-13T23:00:00Z,32,2,6+,29.76
OEDF,26.45,49.817,VRB,2,2.3,OEDF 132300Z VRB02KT CAVOK 31/24 Q0999 NOSIG,2024-08-13T23:00:00Z,31,24,6+,29.50
OEBH,19.984,42.621,310,3,3.45,OEBH 132300Z 31003KT CAVOK 32/00 Q1010 NOSIG,2024-08-13T23:00:00Z,32,0,6+,29.82
OEBA,20.296,41.634,320,12,13.81,OEBA 132300Z 32012KT 9999 FEW030 29/13 Q1015 NOSIG,2024-08-13T23:00:00Z,29,13,6+,29.97
OEAO,26.483,38.117,20,6,6.9,OEAO 132300Z 02006KT CAVOK 36/08 Q1006 NOSIG,2024-08-13T23:00:00Z,36,8,6+,29.70
OEAH,25.285,49.485,310,3,3.45,OEAH 132300Z 31003KT CAVOK 33/19 Q0999 NOSIG,2024-08-13T23:00:00Z,33,19,6+,29.50
OEAB,18.24,42.657,0,0,0.0,OEAB 132300Z 00000KT CAVOK 20/18 Q1020 NOSIG,2024-08-13T23:00:00Z,20,18,6+,30.12
NZWN,-41.331,174.806,30,14,16.11,NZWN 132300Z AUTO 03014KT 9999 SCT024/// 12/06 Q1028,2024-08-13T23:00:00Z,12,6,6+,30.35
NZQN,-45.021,168.739,20,1,1.15,NZQN 132300Z AUTO 02001KT 9999 NCD 08/01 Q1027,2024-08-13T23:00:00Z,8,1,6+,30.32
NZCH,-43.489,172.528,30,5,5.75,NZCH 132300Z AUTO 03005KT 9999 NCD 09/03 Q1026,2024-08-13T23:00:00Z,9,3,6+,30.30
NZAA,-37.008,174.792,200,3,3.45,NZAA 132300Z AUTO 20003KT 9999 NCD 12/08 Q1030,2024-08-13T23:00:00Z,12,8,6+,30.41
NWWW,-22.015,166.213,160,7,8.06,NWWW 132300Z AUTO 16007KT 9999 BKN050 OVC210 22/15 Q1021 BECMG 09015KT,2024-08-13T23:00:00Z,22,15,6+,30.15
NVVW,-19.455,169.224,130,10,11.51,NVVW 132300Z 13010KT 9999 BKN020 BKN120 25/17 Q1017,2024-08-13T23:00:00Z,25,17,6+,30.03
NVVV,-17.695,168.313,100,13,14.96,NVVV 132300Z 10013KT 060V120 9999 SCT020 BKN040 24/19 Q1018,2024-08-13T23:00:00Z,24,19,6+,30.06
NVSS,-15.505,167.22,110,12,13.81,NVSS 132300Z 11012KT 9999 SCT020 BKN110 27/20 Q1016,2024-08-13T23:00:00Z,27,20,6+,30.00
NTAA,-17.554,-149.607,40,9,10.36,NTAA 132300Z 04009KT 9999 FEW020 SCT260 29/22 Q1013 WS ALL RWY NOSIG,2024-08-13T23:00:00Z,29,22,6+,29.91
NSFA,-13.829,-171.993,90,11,12.66,NSFA 132300Z 09011KT 060V150 9999 FEW022 SCT040 BKN150 28/21 Q1014,2024-08-13T23:00:00Z,28,21,6+,29.94
NLWW,-13.238,-176.199,130,13,14.96,NLWW 132300Z 13013KT 090V180 9999 SCT012 SCT020 BKN040 25/23 Q1014 NOSIG,2024-08-13T23:00:00Z,25,23,6+,29.94
NIUE,-19.079,-169.926,180,10,11.51,NIUE 132300Z AUTO 18010KT 150V220 9999 NCD 24/15 Q1017,2024-08-13T23:00:00Z,24,15,6+,30.03
NGTA,1.381,173.147,60,5,5.75,NGTA 132300Z 06005KT 9999 FEW020 SCT300 30/25 Q1010,2024-08-13T23:00:00Z,30,25,6+,29.82
NGFU,-8.523,179.198,120,7,8.06,NGFU 132300Z 12007KT 9999 VCSH FEW016CB FEW018TCU BKN110 30/27 Q1011,2024-08-13T23:00:00Z,30,27,6+,29.85
NFTV,-18.585,-173.963,180,7,8.06,NFTV 132300Z 18007KT 9999 FEW018 23/14 Q1018,2024-08-13T23:00:00Z,23,14,6+,30.06
NFTL,-19.777,-174.34,90,4,4.6,NFTL 132300Z 09004KT 9999 SCT017 24/13 Q1018 RMK DRY AIR 49%,2024-08-13T23:00:00Z,24,13,6+,30.06
NFTF,-21.241,-175.15,170,8,9.21,NFTF 132300Z 17008KT 9999 FEW018 23/15 Q1019,2024-08-13T23:00:00Z,23,15,6+,30.09
NFNS,-16.803,179.341,120,12,13.81,NFNS 132300Z 12012KT 9999 SCT020 SCT045 25/18 Q1018,2024-08-13T23:00:00Z,25,18,6+,30.06
NFNM,-16.691,-179.877,130,16,18.41,NFNM 132300Z 13016KT 9999 BKN020 25/18 Q1017,2024-08-13T23:00:00Z,25,18,6+,30.03
NFNA,-18.043,178.559,140,9,10.36,NFNA 132300Z 14009KT 100V180 9999 SCT020 SCT110 25/15 Q1019,2024-08-13T23:00:00Z,25,15,6+,30.09
NFFN,-17.755,177.443,130,14,16.11,NFFN 132300Z 13014KT 9999 FEW030 SCT050 26/13 Q1018 NOSIG,2024-08-13T23:00:00Z,26,13,6+,30.06
NCSW,-99.99,-99.99,,,,NCSW 132300Z AUTO NIL,2024-08-13T23:00:00Z,,,,
NCRK,-10.032,-161.101,,,,NCRK 132300Z AUTO NIL,2024-08-13T23:00:00Z,,,,
NCRG,-21.203,-159.806,270,12,13.81,NCRG 132300Z AUTO 27012KT 9999 NCD 24/14 Q1014,2024-08-13T23:00:00Z,24,14,6+,29.94
NCPY,-9.01,-158.034,50,10,11.51,NCPY 132300Z AUTO 05010KT 9999 FEW025 29/22 Q1012,2024-08-13T23:00:00Z,29,22,6+,29.88
NCPL,1.98,-157.48,,,,NCPL 132300Z AUTO NIL,2024-08-13T23:00:00Z,,,,
NCPK,-10.915,-165.839,,,,NCPK 132300Z AUTO NIL,2024-08-13T23:00:00Z,,,,
NCNS,-99.99,-99.99,,,,NCNS 132300Z AUTO NIL,2024-08-13T23:00:00Z,,,,
NCMR,-19.842,-157.703,,,,NCMR 132300Z AUTO NIL,2024-08-13T23:00:00Z,,,,
NCMK,-20.137,-157.344,290,3,3.45,NCMK 132300Z AUTO 29003KT //// ////// 25/17 Q1013,2024-08-13T23:00:00Z,25,17,,29.91
NCMH,-10.374,-161.004,100,6,6.9,NCMH 132300Z AUTO 10006KT //// ////// 30/23 Q1013,2024-08-13T23:00:00Z,30,23,,29.91
NCMG,-21.896,-157.907,290,10,11.51,NCMG 132300Z AUTO 29010KT //// ////// 24/13 Q1009 RMK DRY AIR 49%,2024-08-13T23:00:00Z,24,13,,29.79
NCAT,-19.968,-158.119,,,,NCAT 132300Z AUTO NIL,2024-08-13T23:00:00Z,,,,
NCAI,-18.829,-159.766,,,,NCAI 132300Z AUTO NIL,2024-08-13T23:00:00Z,,,,
MZBZ,17.538,-88.309,80,7,8.06,MZBZ 132300Z 08007KT 9999 SCT018 30/26 A2987 Q1011 NOSIG,2024-08-13T23:00:00Z,30,26,6+,29.85
MYSM,24.064,-74.529,100,9,10.36,MYSM 132300Z AUTO 10009KT 9999 FEW021/// 30/26 A3001,2024-08-13T23:00:00Z,30,26,6+,30.01
MYGF,26.555,-78.698,360,3,3.45,MYGF 132300Z 36003KT 330V070 9999 VCSH FEW025 30/25 A2999,2024-08-13T23:00:00Z,30,25,6+,29.99
MWCR,19.294,-81.357,110,6,6.9,MWCR 132300Z 11006KT 9999 FEW018CB 31/23 Q1013,2024-08-13T23:00:00Z,31,23,6+,29.91
MWCB,19.688,-79.879,50,5,5.75,MWCB 132300Z 05005KT 9999 SCT016 SCT030 31/27 Q1014,2024-08-13T23:00:00Z,31,27,6+,29.94
MTPP,18.577,-72.305,310,10,11.51,MTPP 132300Z 31010KT 8000 FEW026TCU SCT070 31/26 Q1011 A2986 RMK/TCU/SSW,2024-08-13T23:00:00Z,31,26,4.97,29.85
MSSS,13.704,-89.123,200,3,3.45,MSSS 132300Z 20003KT 130V270 9999 VCTS FEW027 FEW033CB 26/21 Q1014 A2995 RMK CB N NE NW,2024-08-13T23:00:00Z,26,21,6+,29.94
MSLP,13.438,-89.056,220,5,5.75,MSLP 132300Z 22005KT 9999 FEW017 SCT023 FEW033CB 30/25 Q1010 A2982 NOSIG RMK CB NW DSTN CB N E,2024-08-13T23:00:00Z,30,25,6+,29.82
MRPV,9.957,-84.141,280,4,4.6,MRPV 132300Z 28004KT 9999 SCT010 OVC150 23/21 A3003 NOSIG,2024-08-13T23:00:00Z,23,21,6+,30.03
MROC,9.991,-84.218,230,5,5.75,MROC 132300Z 23005KT 9999 BKN005 23/22 A2998 NOSIG,2024-08-13T23:00:00Z,23,22,6+,29.98
MRLM,9.961,-83.026,340,8,9.21,MRLM 132300Z 34008KT 9999 FEW015 SCT100 OVC200 29/25 A2982,2024-08-13T23:00:00Z,29,25,6+,29.82
MRLB,10.589,-85.552,230,5,5.75,MRLB 132300Z 23005KT 9999 FEW010 SCT035 BKN150 27/27 A2982,2024-08-13T23:00:00Z,27,27,6+,29.82
MPPA,8.909,-79.597,0,0,0.0,MPPA 132300Z 00000KT 9000 VCSH SCT016CB 28/26 Q1009,2024-08-13T23:00:00Z,28,26,5.59,29.79
MPMG,8.967,-79.555,110,7,8.06,MPMG 132300Z 11007KT 070V160 9000 VCSH FEW010 SCT016CB 30/25 Q1009 TEMPO 6000 RA,2024-08-13T23:00:00Z,30,25,5.59,29.79
MPDA,8.391,-82.434,210,7,8.06,MPDA 132300Z 21007KT 9999 SCT018 BKN090 28/25 Q1008,2024-08-13T23:00:00Z,28,25,6+,29.76
MNMG,12.141,-86.177,110,4,4.6,MNMG 132300Z 11004KT 9999 FEW020CB SCT070 26/25 Q1009 A2982 CB 4/C -REDZ NOSIG,2024-08-13T23:00:00Z,26,25,6+,29.79
MKJS,18.502,-77.915,80,7,8.06,MKJS 132300Z 08007KT 9999 FEW022 30/25 Q1013,2024-08-13T23:00:00Z,30,25,6+,29.91
MHTR,15.926,-85.939,100,4,4.6,MHTR 132300Z 10004KT 9999 SCT022TCU FEW024CB BKN080 29/25 RETS,2024-08-13T23:00:00Z,29,25,6+,
MHTG,14.06,-87.216,40,4,4.6,MHTG 132300Z 04004KT 9999 VCSH SCT034TCU FEW036CB 27/19 Q1017 A3003 NOSIG,2024-08-13T23:00:00Z,27,19,6+,30.03
MHTE,15.776,-87.473,0,0,0.0,MHTE 132300Z 00000KT 9999 2000SW -TSRA FEW008 SCT026CB BKN080 28/27 Q1010 A2983,2024-08-13T23:00:00Z,28,27,6+,29.82
MHSR,14.783,-88.783,40,7,8.06,MHSR 132300Z 04007KT 9999 SCT028TCU FEW030CB 26/18,2024-08-13T23:00:00Z,26,18,6+,
MHRO,16.316,-86.523,80,10,11.51,MHRO 132300Z 08010KT 9999 SCT020TCU FEW024CB SCT080 30/25 Q1012 A2989 NOSIG,2024-08-13T23:00:00Z,30,25,6+,29.88
MHPR,14.382,-87.621,360,16,18.41,MHPR 132300Z 36016KT 9999 SCT046TCU FEW050CB 27/22 Q1015 A2997 NOSIG,2024-08-13T23:00:00Z,27,22,6+,29.97
MHPL,15.262,-83.776,VRB,2,2.3,MHPL 132300Z VRB02KT 9999 -TSRA FEW016 SCT025CB OVC070 25/23,2024-08-13T23:00:00Z,25,23,6+,
MHNO,14.433,-89.194,190,4,4.6,MHNO 132300Z 19004KT 9999 FEW038TCU FEW040CB 25/22 RETS,2024-08-13T23:00:00Z,25,22,6+,
MHLM,15.442,-87.934,140,6,6.9,MHLM 132300Z 14006KT 8000 VCSH SCT028 FEW030CB SCT080 25/25 Q1012 A2989 RETS RERA NOSIG,2024-08-13T23:00:00Z,25,25,4.97,29.88
MHLE,14.291,-88.175,50,4,4.6,MHLE 132300Z 05004KT 9999 SCT024TCU 22/17,2024-08-13T23:00:00Z,22,17,6+,
MHLC,15.737,-86.864,180,3,3.45,MHLC 132300Z 18003KT 9999 FEW040CB OVC080 25/24 Q1011 A2986 RETS RERA NOSIG,2024-08-13T23:00:00Z,25,24,6+,29.85
MHGS,14.573,-88.596,0,0,0.0,MHGS 132300Z 00000KT 9999 SCT036TCU FEW038CB 26/21,2024-08-13T23:00:00Z,26,21,6+,
MHCH,13.318,-87.154,20,6,6.9,MHCH 132300Z 02006KT 9999 TS SCT028TCU FEW030CB OVC070 27/26 RERA,2024-08-13T23:00:00Z,27,26,6+,
MHCA,14.875,-85.775,0,0,0.0,MHCA 132300Z 00000KT 1000 -TSRA SCT028 FEW030CB OVC070 24/23 Q1015 CB TS E S,2024-08-13T23:00:00Z,24,23,0.62,29.97
MGZA,14.959,-89.538,90,10,11.51,MGZA 132300Z 09010KT 9999 FEW026 OVC200 33/22 QFE 985/6,2024-08-13T23:00:00Z,33,22,6+,
MGTU,-99.99,-99.99,180,4,4.6,MGTU 132300Z 18004KT 9999 SCT018 OVC080 29/24,2024-08-13T23:00:00Z,29,24,6+,
MGRT,14.523,-91.697,0,0,0.0,MGRT 132300Z 00000KT 9999 -TSRA FEW016 FEW030CB OVC080 26/25 Q1013 A2991 CB/TS E/SE VOLC STA MARIA Y SATGO EN ACTV,2024-08-13T23:00:00Z,26,25,6+,29.91
MGQZ,14.862,-91.506,0,0,0.0,MGQZ 132300Z 00000KT 9999 BKN022 SCT200 17/14 QFE 772/7 PCPN S/SW,2024-08-13T23:00:00Z,17,14,6+,
MGPB,15.737,-88.589,20,4,4.6,MGPB 132300Z 02004KT 9999 TS SCT017 FEW025CB BKN090 29/26 Q1011 A2985 CB/TS/PCPN ESE/SE,2024-08-13T23:00:00Z,29,26,6+,29.85
MGMT,-99.99,-99.99,0,0,0.0,MGMT 132300Z 00000KT 9999 FEW015TCU SCT200 30/28 TCU N/ENE,2024-08-13T23:00:00Z,30,28,6+,
MGMM,16.914,-89.866,150,4,4.6,MGMM 132300Z 15004KT CAVOK 28/25 Q1013 A2991 BKN090,2024-08-13T23:00:00Z,28,25,6+,29.91
MGHT,15.317,-91.503,90,8,9.21,MGHT 132300Z 09008KT 9999 SCT025TCU SCT200 25/12 TCU SMC N,2024-08-13T23:00:00Z,25,12,6+,
MGGT,14.585,-90.526,360,14,16.11,MGGT 132300Z 36014KT 9999 FEW017 SCT025CB SCT090 23/17 Q1020 A3012 CB/PCPN ESE/SE/SSE/WSW,2024-08-13T23:00:00Z,23,17,6+,30.12
MGES,14.568,-89.326,30,6,6.9,MGES 132300Z 03006KT 9999 SCTO20TCU OVC200 26/19 QFE 909.0 TCU S/SSW,2024-08-13T23:00:00Z,26,19,6+,
MGCB,15.47,-90.406,20,4,4.6,MGCB 132300Z 02004KT 9999 BKN018 FEW025CB 23/19 QFE 871.7 CB N,2024-08-13T23:00:00Z,23,19,6+,
MDST,19.407,-70.614,30,6,6.9,MDST 132300Z 03006KT 350V080 9999 SCT023 32/25 Q1013,2024-08-13T23:00:00Z,32,25,6+,29.91
MDSD,18.433,-69.667,10,10,11.51,MDSD COR 132300Z 01010KT 9999 FEW020 BKN300 30/25 Q1011,2024-08-13T23:00:00Z,30,25,6+,29.85
MDPP,19.759,-70.571,60,10,11.51,MDPP 132300Z 06010KT 9999 BKN020 30/27 Q1013,2024-08-13T23:00:00Z,30,27,6+,29.91
MDPC,18.566,-68.356,10,8,9.21,MDPC 132300Z 01008KT 8000 -TSRA FEW016CB BKN018 SCT300 27/25 Q1011 CB/E/NW/N,2024-08-13T23:00:00Z,27,25,4.97,29.85
MDLR,18.451,-68.921,360,7,8.06,MDLR 132300Z 36007KT 8000 VCSH BKN018 BKN300 30/26 Q1011,2024-08-13T23:00:00Z,30,26,4.97,29.85
MDJB,18.577,-69.984,20,8,9.21,MDJB 132300Z 02008KT 9999 FEW018 SCT300 30/24 Q1012,2024-08-13T23:00:00Z,30,24,6+,29.88
MDCY,19.271,-69.733,80,8,9.21,MDCY 132300Z 08008KT 9999 SCT019 29/25 Q1013,2024-08-13T23:00:00Z,29,25,6+,29.91
MDBH,18.25,-71.126,130,6,6.9,MDBH 132300Z 13006KT 9999 SCT020 32/25 Q1009,2024-08-13T23:00:00Z,32,25,6+,29.79
LZZI,49.231,18.613,120,3,3.45,LZZI 132300Z 12003KT 070V150 CAVOK 18/14 Q1014,2024-08-13T23:00:00Z,18,14,6+,29.94
LZTT,49.068,20.25,VRB,1,1.15,LZTT 132300Z VRB01KT 9999 FEW060 12/10 Q1018,2024-08-13T23:00:00Z,12,10,6+,30.06
LZPP,48.613,17.832,360,7,8.06,LZPP 132300Z AUTO 36007KT 9999 NCD 23/14 Q1012,2024-08-13T23:00:00Z,23,14,6+,29.88
LZKZ,48.661,21.24,20,9,10.36,LZKZ 132300Z 02009KT CAVOK 21/11 Q1015 NOSIG,2024-08-13T23:00:00Z,21,11,6+,29.97
LZIB,48.17,17.207,20,6,6.9,LZIB 132300Z 02006KT CAVOK 24/15 Q1012 NOSIG,2024-08-13T23:00:00Z,24,15,6+,29.88
LYVR,45.147,21.31,VRB,2,2.3,LYVR 132300Z AUTO VRB02KT CAVOK 23/17 Q1009,2024-08-13T23:00:00Z,23,17,6+,29.79
LYTV,42.405,18.723,0,0,0.0,LYTV 132300Z AUTO 00000KT CAVOK 21/18 Q1009,2024-08-13T23:00:00Z,21,18,6+,29.79
LYPG,42.359,19.252,240,2,2.3,LYPG 132300Z 24002KT CAVOK 27/21 Q1009 NOSIG,2024-08-13T23:00:00Z,27,21,6+,29.79
LYNI,43.338,21.863,VRB,1,1.15,LYNI 132300Z VRB01KT CAVOK 23/14 Q1010 NOSIG,2024-08-13T23:00:00Z,23,14,6+,29.82
LYKV,43.818,20.587,0,0,0.0,LYKV 132300Z 00000KT CAVOK 21/16 Q1010 NOSIG,2024-08-13T23:00:00Z,21,16,6+,29.82
LYBT,44.935,20.258,20,4,4.6,LYBT 132300Z 02004KT CAVOK 24/16 Q1009 NOSIG,2024-08-13T23:00:00Z,24,16,6+,29.79
LYBE,44.824,20.291,30,4,4.6,LYBE 132300Z 03004KT CAVOK 28/16 Q1009 NOSIG,2024-08-13T23:00:00Z,28,16,6+,29.79
LUKK,46.928,28.931,20,5,5.75,LUKK 132300Z 02005KT CAVOK 22/09 Q1016 NOSIG,2024-08-13T23:00:00Z,22,9,6+,30.00
LRTR,45.811,21.333,80,8,9.21,LRTR 132300Z 08008KT CAVOK 28/14 Q1010,2024-08-13T23:00:00Z,28,14,6+,29.82
LRTM,46.468,24.421,60,4,4.6,LRTM 132300Z AUTO 06004KT 9999 NCD 20/18 Q1014,2024-08-13T23:00:00Z,20,18,6+,29.94
LRTC,45.065,28.716,0,0,0.0,LRTC 132300Z AUTO 00000KT 9999 NCD 22/21 Q1014,2024-08-13T23:00:00Z,22,21,6+,29.94
LRSV,47.686,26.354,30,5,5.75,LRSV 132300Z 03005KT CAVOK 20/12 Q1018,2024-08-13T23:00:00Z,20,12,6+,30.06
LRSM,47.703,22.886,60,3,3.45,LRSM 132300Z AUTO 06003KT 9999 NCD 18/14 Q1013,2024-08-13T23:00:00Z,18,14,6+,29.91
LRSB,45.789,24.091,0,0,0.0,LRSB 132300Z 00000KT CAVOK 19/16 Q1014,2024-08-13T23:00:00Z,19,16,6+,29.94
LROP,44.572,26.102,40,10,11.51,LROP 132300Z 04010KT CAVOK 25/16 Q1012 NOSIG,2024-08-13T23:00:00Z,25,16,6+,29.88
LROD,47.036,21.896,50,5,5.75,LROD 132300Z AUTO 05005KT 9999 NCD 26/13 Q1012,2024-08-13T23:00:00Z,26,13,6+,29.88
LRIA,47.164,27.627,50,6,6.9,LRIA 132300Z 05006KT CAVOK 22/09 Q1016,2024-08-13T23:00:00Z,22,9,6+,30.00
LRCV,44.31,23.867,70,9,10.36,LRCV 132300Z 07009KT CAVOK 26/13 Q1011,2024-08-13T23:00:00Z,26,13,6+,29.85
LRCL,46.783,23.676,270,3,3.45,LRCL 132300Z AUTO 27003KT 220V300 9999 NCD 21/16 Q1014,2024-08-13T23:00:00Z,21,16,6+,29.94
LRCK,44.362,28.488,70,3,3.45,LRCK 132300Z 07003KT CAVOK 22/20 Q1013 NOSIG,2024-08-13T23:00:00Z,22,20,6+,29.91
LRBV,45.706,25.524,210,5,5.75,LRBV 132300Z AUTO 21005KT 9999 NCD 18/14 Q1016,2024-08-13T23:00:00Z,18,14,6+,30.00
LRBS,44.511,26.078,40,8,9.21,LRBS 132300Z 04008KT CAVOK 25/18 Q1012 NOSIG,2024-08-13T23:00:00Z,25,18,6+,29.88
LRBM,47.658,23.47,60,3,3.45,LRBM 132300Z AUTO 06003KT 020V090 9999 -SHRA NCD 20/13 Q1013,2024-08-13T23:00:00Z,20,13,6+,29.91
LRBC,46.522,26.91,20,3,3.45,LRBC 132300Z 02003KT 340V060 CAVOK 20/12 Q1016,2024-08-13T23:00:00Z,20,12,6+,30.00
LRAR,46.176,21.264,40,5,5.75,LRAR 132300Z AUTO 04005KT 9999 NCD 26/16 Q1010,2024-08-13T23:00:00Z,26,16,6+,29.82
LQTZ,44.461,18.728,VRB,1,1.15,LQTZ 132300Z VRB01KT CAVOK 21/18 Q1010,2024-08-13T23:00:00Z,21,18,6+,29.82
LQSA,43.825,18.331,VRB,2,2.3,LQSA 132300Z VRB02KT CAVOK 23/15 Q1013,2024-08-13T23:00:00Z,23,15,6+,29.91
LQMO,43.285,17.84,VRB,2,2.3,LQMO 132300Z VRB02KT CAVOK 24/15 Q1009,2024-08-13T23:00:00Z,24,15,6+,29.79
LQBK,44.937,17.299,0,0,0.0,LQBK 132300Z 00000KT CAVOK 22/20 Q1010 NOSIG,2024-08-13T23:00:00Z,22,20,6+,29.82
LPPT,38.781,-9.136,280,4,4.6,LPPT 132300Z 28004KT 250V320 8000 DZ SCT005 BKN010 21/20 Q1016,2024-08-13T23:00:00Z,21,20,4.97,30.00
LPPS,33.073,-16.35,10,10,11.51,LPPS 132300Z 01010KT 9999 FEW014 23/20 Q1021,2024-08-13T23:00:00Z,23,20,6+,30.15
LPPR,41.235,-8.684,110,4,4.6,LPPR 132300Z 11004KT 080V140 9999 SCT013 BKN030 19/18 Q1016,2024-08-13T23:00:00Z,19,18,6+,30.00
LPPD,37.741,-25.698,330,3,3.45,LPPD 132300Z 33003KT 300V360 9999 FEW020 23/20 Q1025,2024-08-13T23:00:00Z,23,20,6+,30.27
LPMT,38.704,-9.036,300,6,6.9,LPMT 132300Z 30006KT 9999 SCT015 21/19 Q1015,2024-08-13T23:00:00Z,21,19,6+,29.97
LPMR,39.831,-8.887,50,3,3.45,LPMR 132300Z 05003KT 2800 -DZ OVC004 20/19 Q1016,2024-08-13T23:00:00Z,20,19,1.74,30.00
LPMA,32.698,-16.774,360,12,13.81,LPMA 132300Z 36012KT 330V030 9999 FEW014 24/18 Q1020,2024-08-13T23:00:00Z,24,18,6+,30.12
LPLA,38.762,-27.091,,,,LPLA 132300Z /////KT 9999 FEW025 25/22 Q1025,2024-08-13T23:00:00Z,25,22,6+,30.27
LPFR,37.014,-7.966,270,7,8.06,LPFR 132300Z 27007KT 230V310 CAVOK 22/15 Q1014,2024-08-13T23:00:00Z,22,15,6+,29.94
LPBJ,38.073,-7.931,310,6,6.9,LPBJ 132300Z 31006KT CAVOK 20/15 Q1016,2024-08-13T23:00:00Z,20,15,6+,30.00
LPAZ,36.971,-25.171,320,5,5.75,LPAZ 132300Z 32005KT 9999 SCT007 BKN013 24/23 Q1025,2024-08-13T23:00:00Z,24,23,6+,30.27
LKTB,49.151,16.694,60,9,10.36,LKTB 132300Z 06009KT 030V090 CAVOK 25/08 Q1013 NOSIG,2024-08-13T23:00:00Z,25,8,6+,29.91
LKPR,50.101,14.26,100,7,8.06,LKPR 132300Z 10007KT 090V150 CAVOK 21/16 Q1012 NOSIG,2024-08-13T23:00:00Z,21,16,6+,29.88
LKMT,49.696,18.111,20,3,3.45,LKMT 132300Z 02003KT CAVOK 17/12 Q1014 NOSIG,2024-08-13T23:00:00Z,17,12,6+,29.94
LKKV,50.202,12.91,VRB,2,2.3,LKKV 132300Z VRB02KT 9999 FEW018CB 21/16 Q1014,2024-08-13T23:00:00Z,21,16,6+,29.94
LJPZ,45.473,13.615,120,6,6.9,LJPZ 132300Z AUTO 12006KT 9999 NCD 23/19 Q1010,2024-08-13T23:00:00Z,23,19,6+,29.82
LJMB,46.48,15.682,330,3,3.45,LJMB 132300Z AUTO 33003KT 9999 NCD 22/20 Q1012,2024-08-13T23:00:00Z,22,20,6+,29.88
LJLJ,46.218,14.477,340,1,1.15,LJLJ 132300Z 34001KT CAVOK 20/19 Q1013 NOSIG,2024-08-13T23:00:00Z,20,19,6+,29.91
LJCE,45.899,15.523,VRB,1,1.15,LJCE 132300Z AUTO VRB01KT 9999 NCD 22/20 Q1011,2024-08-13T23:00:00Z,22,20,6+,29.85
LHBP,47.437,19.256,80,9,10.36,LHBP 132300Z 08009KT CAVOK 26/14 Q1012 NOSIG,2024-08-13T23:00:00Z,26,14,6+,29.88
LFYR,47.32,1.688,0,0,0.0,LFYR 132300Z AUTO 00000KT CAVOK 19/17 Q1013,2024-08-13T23:00:00Z,19,17,6+,29.91
LFVP,46.764,-56.169,110,11,12.66,LFVP 132300Z AUTO 11011KT 2300 +TSRA BR BKN002/// OVC007/// ///CB 16/15 Q1007,2024-08-13T23:00:00Z,16,15,1.43,29.73
LFTW,43.757,4.416,280,4,4.6,LFTW 132300Z AUTO 28004KT CAVOK 22/16 Q1011,2024-08-13T23:00:00Z,22,16,6+,29.85
LFTH,43.094,6.146,320,6,6.9,LFTH 132300Z AUTO 32006KT CAVOK 26/16 Q1009 NOSIG,2024-08-13T23:00:00Z,26,16,6+,29.79
LFSX,47.783,6.364,VRB,2,2.3,LFSX 132300Z AUTO VRB02KT 9999 VCTS FEW043/// SCT062/// BKN170/// ///CB 23/21 Q1011,2024-08-13T23:00:00Z,23,21,6+,29.85
LFST,48.549,7.64,300,7,8.06,LFST 132300Z AUTO 30007KT CAVOK 21/18 Q1010 TEMPO VRB15G28KT 2000 TSRA BKN050CB,2024-08-13T23:00:00Z,21,18,6+,29.82
LFSO,48.583,5.955,280,6,6.9,LFSO 132300Z AUTO 28006KT CAVOK 23/20 Q1011,2024-08-13T23:00:00Z,23,20,6+,29.85
LFSN,48.692,6.231,310,4,4.6,LFSN 132300Z AUTO 31004KT 270V340 9999 FEW042/// SCT074/// BKN100/// //////TCU 25/21 Q1010,2024-08-13T23:00:00Z,25,21,6+,29.82
LFSL,45.04,1.486,330,4,4.6,LFSL 132300Z AUTO 33004KT CAVOK 20/17 Q1014,2024-08-13T23:00:00Z,20,17,6+,29.94
LFSI,48.631,4.904,290,5,5.75,LFSI 132300Z AUTO 29005KT 9999 ///TCU 23/19 Q1010,2024-08-13T23:00:00Z,23,19,6+,29.82
LFSD,47.269,5.09,200,13,14.96,LFSD 132300Z AUTO 20013G32KT 160V250 2600 +TSRA BR BKN007/// BKN020/// BKN037/// //////CB 19/17 Q1013,2024-08-13T23:00:00Z,19,17,1.62,29.91
LFSB,47.614,7.51,230,2,2.3,LFSB 132300Z AUTO 23002KT 9999 ///CB 24/17 Q1011 TEMPO VRB20G35KT 1500 TSRA,2024-08-13T23:00:00Z,24,17,6+,29.85
LFRZ,47.312,-2.163,210,10,11.51,LFRZ 132300Z AUTO 21010KT 9999 FEW010 SCT022 BKN037 19/18 Q1012 TEMPO 4000 -SHRA BKN005 SCT015TCU BECMG 13006KT,2024-08-13T23:00:00Z,19,18,6+,29.88
LFRV,47.722,-2.727,180,5,5.75,LFRV 132300Z AUTO 18005KT 150V220 2800 RA BR OVC003 18/18 Q1012,2024-08-13T23:00:00Z,18,18,1.74,29.88
LFRT,48.536,-2.853,220,6,6.9,LFRT 132300Z AUTO 22006KT 190V250 9999 BKN011 OVC049 19/16 Q1011,2024-08-13T23:00:00Z,19,16,6+,29.85
LFRS,47.15,-1.609,210,4,4.6,LFRS 132300Z AUTO 21004KT CAVOK 17/17 Q1012 NOSIG,2024-08-13T23:00:00Z,17,17,6+,29.88
LFRQ,47.975,-4.168,VRB,3,3.45,LFRQ 132300Z AUTO VRB03KT 9999 OVC038 16/15 Q1012,2024-08-13T23:00:00Z,16,15,6+,29.88
LFRN,48.069,-1.734,210,5,5.75,LFRN 132300Z AUTO 21005KT 9999 FEW037 SCT050 BKN100 19/16 Q1012 TEMPO 2000 RADZ BKN006,2024-08-13T23:00:00Z,19,16,6+,29.88
LFRM,47.949,0.202,130,3,3.45,LFRM 132300Z AUTO 13003KT CAVOK 18/16 Q1013,2024-08-13T23:00:00Z,18,16,6+,29.91
LFRL,48.279,-4.439,240,4,4.6,LFRL 132300Z AUTO 24004KT 9999 FEW014 SCT019 OVC035 17/16 Q1012 TEMPO 4000 RA BKN008,2024-08-13T23:00:00Z,17,16,6+,29.88
LFRK,49.18,-0.456,130,5,5.75,LFRK 132300Z AUTO 13005KT 9000 NSC 18/17 Q1011,2024-08-13T23:00:00Z,18,17,5.59,29.85
LFRJ,48.527,-4.138,240,2,2.3,LFRJ 132300Z AUTO 24002KT 9999 FEW013 BKN025 OVC033 17/16 Q1012,2024-08-13T23:00:00Z,17,16,6+,29.88
LFRI,46.702,-1.379,VRB,2,2.3,LFRI 132300Z AUTO VRB02KT CAVOK 18/17 Q1013,2024-08-13T23:00:00Z,18,17,6+,29.91
LFRH,47.761,-3.44,270,5,5.75,LFRH 132300Z AUTO 27005KT CAVOK 17/17 Q1012 TEMPO 2500 -RADZ OVC003 BECMG 19010KT,2024-08-13T23:00:00Z,17,17,6+,29.88
LFRG,49.365,0.154,140,2,2.3,LFRG 132300Z AUTO 14002KT 3300 BR FEW035 SCT150 BKN180 16/16 Q1012,2024-08-13T23:00:00Z,16,16,2.05,29.88
LFRD,48.589,-2.075,210,8,9.21,LFRD 132300Z AUTO 21008KT 9999 BKN045 OVC052 19/15 Q1011 TEMPO 4000 -RA BKN012,2024-08-13T23:00:00Z,19,15,6+,29.85
LFRC,49.65,-1.47,150,3,3.45,LFRC 132300Z AUTO 15003KT 9000 NSC 17/17 Q1012,2024-08-13T23:00:00Z,17,17,5.59,29.88
LFRB,48.444,-4.412,260,3,3.45,LFRB 132300Z AUTO 26003KT 9999 FEW013 OVC035 16/16 Q1012 TEMPO 4000 RA BKN008,2024-08-13T23:00:00Z,16,16,6+,29.88
LFQQ,50.562,3.089,330,3,3.45,LFQQ 132300Z AUTO 33003KT CAVOK 18/14 Q1011 TEMPO VRB15G25KT 2000 TSRA SCT040CB,2024-08-13T23:00:00Z,18,14,6+,29.85
LFQB,48.325,4.02,280,7,8.06,LFQB 132300Z AUTO 28007KT 9999 FEW036 SCT043 BKN049 23/20 Q1011,2024-08-13T23:00:00Z,23,20,6+,29.85
LFQA,49.21,4.155,260,5,5.75,LFQA 132300Z AUTO 26005KT CAVOK 22/18 Q1011,2024-08-13T23:00:00Z,22,18,6+,29.85
LFPV,48.77,2.205,360,3,3.45,LFPV 132300Z AUTO 36003KT 9999 OVC028 22/18 Q1012 TEMPO BKN040TCU,2024-08-13T23:00:00Z,22,18,6+,29.88
LFPT,49.097,2.041,40,5,5.75,LFPT 132300Z AUTO 04005KT 9999 FEW036 SCT064 20/16 Q1011,2024-08-13T23:00:00Z,20,16,6+,29.85
LFPO,48.717,2.384,0,0,0.0,LFPO 132300Z AUTO 00000KT 9999 BKN039 BKN046 OVC064 23/18 Q1011 TEMPO 3500 SHRA SCT030CB,2024-08-13T23:00:00Z,23,18,6+,29.85
LFPN,48.752,2.114,310,3,3.45,LFPN 132300Z AUTO 31003KT 9999 OVC029 21/18 Q1012,2024-08-13T23:00:00Z,21,18,6+,29.88
LFPM,48.611,2.68,330,2,2.3,LFPM 132300Z AUTO 33002KT CAVOK 22/19 Q1011,2024-08-13T23:00:00Z,22,19,6+,29.85
LFPG,49.015,2.534,350,5,5.75,LFPG 132300Z 35005KT 9999 BKN041 BKN063 22/17 Q1012 NOSIG,2024-08-13T23:00:00Z,22,17,6+,29.88
LFPB,48.967,2.428,340,3,3.45,LFPB 132300Z AUTO 34003KT 320V040 9999 BKN040 OVC064 22/18 Q1011 TEMPO 3000 TSRA SCT050CB,2024-08-13T23:00:00Z,22,18,6+,29.85
LFOZ,47.897,2.163,270,5,5.75,LFOZ 132300Z AUTO 27005KT 9999 SCT026/// SCT032/// BKN043/// ///TCU 21/18 Q1013,2024-08-13T23:00:00Z,21,18,6+,29.91
LFOV,48.031,-0.746,240,3,3.45,LFOV 132300Z AUTO 24003KT CAVOK 17/15 Q1012,2024-08-13T23:00:00Z,17,15,6+,29.88
LFOT,47.444,0.728,0,0,0.0,LFOT 132300Z AUTO 00000KT CAVOK 19/16 Q1013 NOSIG,2024-08-13T23:00:00Z,19,16,6+,29.91
LFOP,49.383,1.182,30,5,5.75,LFOP 132300Z AUTO 03005KT CAVOK 17/16 Q1012,2024-08-13T23:00:00Z,17,16,6+,29.88
LFOK,48.777,4.165,320,3,3.45,LFOK 132300Z AUTO 32003KT 9999 BKN041 BKN047 21/18 Q1011 TEMPO VRB20G35KT 3000 TSRA BKN008 BKN012 SCT060CB,2024-08-13T23:00:00Z,21,18,6+,29.85
LFOJ,47.985,1.754,230,4,4.6,LFOJ 132300Z AUTO 23004KT CAVOK 19/18 Q1012 NOSIG,2024-08-13T23:00:00Z,19,18,6+,29.88
LFOH,49.533,0.091,100,4,4.6,LFOH 132300Z AUTO 10004KT 9999 SCT042 BKN048 BKN180 18/16 Q1012,2024-08-13T23:00:00Z,18,16,6+,29.88
LFOE,49.025,1.222,300,3,3.45,LFOE 132300Z AUTO 30003KT 9999 FEW022 OVC120 20/18 Q1012 TEMPO VRB15G25KT 4000 SHRA SCT035 BKN055CB,2024-08-13T23:00:00Z,20,18,6+,29.88
LFOB,49.454,2.113,310,2,2.3,LFOB 132300Z AUTO 31002KT 9999 FEW028 BKN034 BKN130 18/16 Q1012 TEMPO 1500 TSRA BKN009 SCT040CB,2024-08-13T23:00:00Z,18,16,6+,29.88
LFOA,47.052,2.642,270,5,5.75,LFOA 132300Z AUTO 27005KT 9999 -RA FEW022/// SCT042/// BKN100/// ///TCU 20/19 Q1012,2024-08-13T23:00:00Z,20,19,6+,29.88
LFMY,43.604,5.108,VRB,2,2.3,LFMY 132300Z AUTO VRB02KT 9999 ///CB 25/21 Q1010,2024-08-13T23:00:00Z,25,21,6+,29.82
LFMV,43.911,4.903,230,3,3.45,LFMV 132300Z AUTO 23003KT 190V270 CAVOK 25/22 Q1010,2024-08-13T23:00:00Z,25,22,6+,29.82
LFMU,43.322,3.353,310,3,3.45,LFMU 132300Z AUTO 31003KT CAVOK 22/20 Q1011,2024-08-13T23:00:00Z,22,20,6+,29.85
LFMT,43.577,3.963,330,3,3.45,LFMT 132300Z AUTO 33003KT CAVOK 23/17 Q1010 NOSIG,2024-08-13T23:00:00Z,23,17,6+,29.82
LFMP,42.737,2.873,VRB,3,3.45,LFMP 132300Z AUTO VRB03KT CAVOK 25/20 Q1011,2024-08-13T23:00:00Z,25,20,6+,29.85
LFMO,44.144,4.861,260,5,5.75,LFMO 132300Z AUTO 26005KT 9999 ////// 24/21 Q1010,2024-08-13T23:00:00Z,24,21,6+,29.82
LFMN,43.658,7.216,320,8,9.21,LFMN 132300Z 32008KT CAVOK 27/19 Q1010 NOSIG,2024-08-13T23:00:00Z,27,19,6+,29.82
LFML,43.438,5.216,VRB,3,3.45,LFML 132300Z AUTO VRB03KT CAVOK 27/20 Q1009 NOSIG,2024-08-13T23:00:00Z,27,20,6+,29.79
LFMK,43.214,2.31,280,8,9.21,LFMK 132300Z AUTO 28008KT 9999 FEW040 SCT047 BKN068 24/18 Q1012,2024-08-13T23:00:00Z,24,18,6+,29.88
LFMI,43.516,4.935,300,4,4.6,LFMI 132300Z AUTO 30004KT CAVOK 26/22 Q1010 NOSIG,2024-08-13T23:00:00Z,26,22,6+,29.82
LFMH,45.533,4.293,VRB,2,2.3,LFMH 132300Z AUTO VRB02KT CAVOK 19/17 Q1013,2024-08-13T23:00:00Z,19,17,6+,29.91
LFMD,43.544,6.953,20,3,3.45,LFMD 132300Z AUTO 02003KT 350V050 CAVOK 24/21 Q1010 NOSIG,2024-08-13T23:00:00Z,24,21,6+,29.82
LFMC,43.383,6.386,VRB,2,2.3,LFMC 132300Z AUTO VRB02KT 9999 ////// 25/17 Q1010,2024-08-13T23:00:00Z,25,17,6+,29.82
LFLY,45.726,4.938,310,4,4.6,LFLY 132300Z AUTO 31004KT 9999 TS ///CB 21/19 Q1011 BECMG NSW NSC,2024-08-13T23:00:00Z,21,19,6+,29.85
LFLX,46.87,1.741,250,4,4.6,LFLX 132300Z AUTO 25004KT CAVOK 20/18 Q1013 TEMPO 4500 -SHRA SCT030TCU,2024-08-13T23:00:00Z,20,18,6+,29.91
LFLW,44.899,2.421,VRB,1,1.15,LFLW 132300Z AUTO VRB01KT CAVOK 18/17 Q1015,2024-08-13T23:00:00Z,18,17,6+,29.97
LFLS,45.363,5.329,80,10,11.51,LFLS 132300Z AUTO 08010KT CAVOK 19/17 Q1012,2024-08-13T23:00:00Z,19,17,6+,29.88
LFLP,45.93,6.106,60,8,9.21,LFLP 132300Z AUTO 06008KT 030V110 9999 -RA NSC 20/17 Q1013,2024-08-13T23:00:00Z,20,17,6+,29.91
LFLN,46.412,4.025,160,4,4.6,LFLN 132300Z AUTO 16004KT 130V190 9999 FEW015/// BKN140/// OVC160/// //////TCU 21/20 Q1013,2024-08-13T23:00:00Z,21,20,6+,29.91
LFLL,45.726,5.078,340,4,4.6,LFLL 132300Z 34004KT 9999 FEW093TCU SCT160 BKN220 20/20 Q1011 RETS NOSIG,2024-08-13T23:00:00Z,20,20,6+,29.85
LFLC,45.787,3.169,VRB,3,3.45,LFLC 132300Z AUTO VRB03KT 9999 BKN018 BKN024 20/19 Q1013 TEMPO 2000 TSRA BKN012 SCT020CB,2024-08-13T23:00:00Z,20,19,6+,29.91
LFLB,45.637,5.883,VRB,2,2.3,LFLB 132300Z AUTO VRB02KT CAVOK 20/18 Q1013,2024-08-13T23:00:00Z,20,18,6+,29.91
LFKS,41.924,9.406,270,4,4.6,LFKS 132300Z AUTO 27004KT 240V300 9999 // NSC 26/17 Q1010,2024-08-13T23:00:00Z,26,17,6+,29.82
LFKJ,41.924,8.803,40,5,5.75,LFKJ 132300Z AUTO 04005KT CAVOK 24/17 Q1009 NOSIG,2024-08-13T23:00:00Z,24,17,6+,29.79
LFKF,41.501,9.098,90,7,8.06,LFKF 132300Z AUTO 09007KT 050V110 CAVOK 26/22 Q1009,2024-08-13T23:00:00Z,26,22,6+,29.79
LFKC,42.531,8.793,140,4,4.6,LFKC 132300Z AUTO 14004KT 070V160 CAVOK 25/17 Q1009,2024-08-13T23:00:00Z,25,17,6+,29.79
LFKB,42.553,9.484,140,4,4.6,LFKB 132300Z AUTO 14004KT CAVOK 24/18 Q1009 NOSIG,2024-08-13T23:00:00Z,24,18,6+,29.79
LFJR,47.562,-0.317,VRB,2,2.3,LFJR 132300Z AUTO VRB02KT CAVOK 18/15 Q1013,2024-08-13T23:00:00Z,18,15,6+,29.91
LFJL,48.982,6.251,VRB,3,3.45,LFJL 132300Z AUTO VRB03KT 9999 BKN027/// OVC049/// //////TCU 26/19 Q1010 TEMPO VRB15G28KT 2000 TSRA BKN050CB,2024-08-13T23:00:00Z,26,19,6+,29.82
LFGJ,47.044,5.427,220,12,13.81,LFGJ 132300Z AUTO 22012KT 9999 TSRA FEW008/// SCT056/// OVC082/// ///CB 19/19 Q1014,2024-08-13T23:00:00Z,19,19,6+,29.94
LFCR,44.41,2.483,310,6,6.9,LFCR 132300Z AUTO 31006KT 9999 ///TCU 20/17 Q1015 TEMPO SHRA BKN007 SCT030TCU FEW050CB,2024-08-13T23:00:00Z,20,17,6+,29.97
LFCK,43.556,2.289,260,7,8.06,LFCK 132300Z AUTO 26007KT 9999 OVC034 24/19 Q1014,2024-08-13T23:00:00Z,24,19,6+,29.94
LFBZ,43.469,-1.534,280,8,9.21,LFBZ 132300Z AUTO 28008KT 240V300 9999 FEW015/// SCT026/// BKN062/// ///TCU 20/20 Q1014 TEMPO 2000 TSRA BKN014 BKN020CB,2024-08-13T23:00:00Z,20,20,6+,29.94
LFBY,43.69,-1.07,300,1,1.15,LFBY 132300Z AUTO 30001KT 9999 // ////// 18/18 Q1014,2024-08-13T23:00:00Z,18,18,6+,29.94
LFBX,45.196,0.815,0,0,0.0,LFBX 132300Z AUTO 00000KT CAVOK 20/17 Q1013,2024-08-13T23:00:00Z,20,17,6+,29.91
LFBU,45.728,0.22,140,1,1.15,LFBU 132300Z AUTO 14001KT 9999 SCT038 BKN044 19/17 Q1014,2024-08-13T23:00:00Z,19,17,6+,29.94
LFBT,43.189,,300,6,6.9,LFBT 132300Z AUTO 30006KT 9999 OVC006/// //////CB 19/18 Q1015 TEMPO 4000 SHRA,2024-08-13T23:00:00Z,19,18,6+,29.97
LFBP,43.385,-0.416,200,4,4.6,LFBP 132300Z AUTO 20004KT 9999 //////TCU 18/18 Q1014 TEMPO 4000 SHRA BKN012 SCT025TCU FEW050CB,2024-08-13T23:00:00Z,18,18,6+,29.94
LFBO,43.621,1.379,310,7,8.06,LFBO 132300Z AUTO 31007KT 9999 FEW042 BKN064 23/18 Q1013 TEMPO 4000 SHRA SCT030TCU FEW060CB,2024-08-13T23:00:00Z,23,18,6+,29.91
LFBM,43.912,-0.507,300,7,8.06,LFBM 132300Z AUTO 30007KT 9999 FEW004/// OVC160/// ///TCU 19/19 Q1013 TEMPO VRB15G25KT 4000 TSRA BKN025CB,2024-08-13T23:00:00Z,19,19,6+,29.91
LFBL,45.863,1.179,320,2,2.3,LFBL 132300Z AUTO 32002KT CAVOK 18/17 Q1015 NOSIG,2024-08-13T23:00:00Z,18,17,6+,29.97
LFBI,46.584,0.309,250,5,5.75,LFBI 132300Z AUTO 25005KT CAVOK 19/17 Q1013 NOSIG,2024-08-13T23:00:00Z,19,17,6+,29.91
LFBH,46.178,-1.193,250,7,8.06,LFBH 132300Z AUTO 25007KT 9999 FEW032 OVC180 20/19 Q1013 NOSIG,2024-08-13T23:00:00Z,20,19,6+,29.91
LFBG,45.665,-0.316,280,6,6.9,LFBG 132300Z AUTO 28006KT 9999 FEW024 BKN031 BKN041 21/19 Q1013 TEMPO 4500 -SHRA SCT025TCU,2024-08-13T23:00:00Z,21,19,6+,29.91
LFBE,44.826,0.516,0,0,0.0,LFBE 132300Z AUTO 00000KT CAVOK 19/18 Q1013,2024-08-13T23:00:00Z,19,18,6+,29.91
LFBD,44.831,-0.691,290,6,6.9,LFBD 132300Z AUTO 29006KT 9999 FEW043 SCT058 BKN110 20/19 Q1013 NOSIG,2024-08-13T23:00:00Z,20,19,6+,29.91
LFBC,44.533,-1.125,VRB,2,2.3,LFBC 132300Z AUTO VRB02KT 9999 SCT020/// SCT040/// OVC050/// ///TCU 20/19 Q1014,2024-08-13T23:00:00Z,20,19,6+,29.94
LFBA,44.176,0.593,VRB,3,3.45,LFBA 132300Z AUTO VRB03KT 9999 BKN049 21/19 Q1013,2024-08-13T23:00:00Z,21,19,6+,29.91
LFAT,50.515,1.623,VRB,2,2.3,LFAT 132300Z AUTO VRB02KT CAVOK 17/15 Q1011,2024-08-13T23:00:00Z,17,15,6+,29.85
LFAQ,49.972,2.704,300,5,5.75,LFAQ 132300Z AUTO 30005KT CAVOK 17/16 Q1012,2024-08-13T23:00:00Z,17,16,6+,29.88
LEZL,37.418,-5.893,220,3,3.45,LEZL 132300Z 22003KT 170V290 CAVOK 24/15 Q1012 NOSIG,2024-08-13T23:00:00Z,24,15,6+,29.88
LEZG,41.661,-1.004,260,7,8.06,LEZG 132300Z 26007KT 9999 SCT070 21/18 Q1014 NOSIG,2024-08-13T23:00:00Z,21,18,6+,29.94
LEXJ,43.429,-3.831,260,4,4.6,LEXJ 132300Z AUTO 26004KT 8000 OVC041 20/18 Q1016,2024-08-13T23:00:00Z,20,18,4.97,30.00
LEVX,42.239,-8.624,20,6,6.9,LEVX 132300Z AUTO 02006KT 340V060 0400 R19/1100U R01/P2000N -RA FG BKN001 BKN002 OVC009 17/16 Q1017,2024-08-13T23:00:00Z,17,16,0.25,30.03
LEVT,42.872,-2.733,320,4,4.6,LEVT 132300Z 32004KT 290V360 9999 SCT010 BKN014 17/16 Q1016,2024-08-13T23:00:00Z,17,16,6+,30.00
LEVD,41.706,-4.852,70,4,4.6,LEVD 132300Z AUTO 07004KT CAVOK 18/15 Q1017,2024-08-13T23:00:00Z,18,15,6+,30.03
LEVC,39.489,-0.482,340,5,5.75,LEVC 132300Z 34005KT 9999 FEW026 26/18 Q1010 NOSIG,2024-08-13T23:00:00Z,26,18,6+,29.82
LETL,40.404,-1.218,330,23,26.47,LETL 132300Z AUTO 33023KT 9999 FEW022 BKN035 18/14 Q1017,2024-08-13T23:00:00Z,18,14,6+,30.03
LEST,42.888,-8.411,360,5,5.75,LEST 132300Z 36005KT 3500 BR -DZ SCT003 BKN005 BKN025 16/15 Q1018 NOSIG,2024-08-13T23:00:00Z,16,15,2.17,30.06
LESO,43.361,-1.787,290,6,6.9,LESO 132300Z AUTO 29006KT 240V330 6000 2300SW -RA SCT009 BKN020 OVC034 21/19 Q1015,2024-08-13T23:00:00Z,21,19,3.73,29.97
LESA,40.96,-5.498,30,1,1.15,LESA 132300Z AUTO 03001KT CAVOK 15/13 Q1017,2024-08-13T23:00:00Z,15,13,6+,30.03
LERS,41.15,1.179,50,5,5.75,LERS 132300Z AUTO 05005KT CAVOK 25/19 Q1011,2024-08-13T23:00:00Z,25,19,6+,29.85
LEPP,42.777,-1.65,0,0,0.0,LEPP 132300Z AUTO 00000KT 9999 BKN028 BKN039 18/17 Q1016,2024-08-13T23:00:00Z,18,17,6+,30.00
LEPA,39.561,2.737,120,3,3.45,LEPA 132300Z 12003KT 080V140 9999 FEW020 SCT030 28/24 Q1009 NOSIG,2024-08-13T23:00:00Z,28,24,6+,29.79
LEMI,37.803,-1.125,40,6,6.9,LEMI 132300Z AUTO 04006KT 9999 SCT010 26/23 Q1010,2024-08-13T23:00:00Z,26,23,6+,29.82
LEMH,39.855,4.216,80,4,4.6,LEMH 132300Z AUTO 08004KT CAVOK 26/23 Q1010,2024-08-13T23:00:00Z,26,23,6+,29.82
LEMG,36.666,-4.482,290,13,14.96,LEMG 132300Z 29013KT CAVOK 29/08 Q1010 NOSIG,2024-08-13T23:00:00Z,29,8,6+,29.82
LEMD,40.466,-3.555,40,5,5.75,LEMD 132300Z 04005KT 350V080 CAVOK 24/11 Q1014 NOSIG,2024-08-13T23:00:00Z,24,11,6+,29.94
LELN,42.588,-5.651,30,4,4.6,LELN 132300Z AUTO 03004KT 9999 -RA SCT030 BKN041 17/15 Q1017,2024-08-13T23:00:00Z,17,15,6+,30.03
LELC,37.775,-0.812,110,5,5.75,LELC 132300Z AUTO 11005KT 070V150 9000 FEW014 27/24 Q1009,2024-08-13T23:00:00Z,27,24,5.59,29.79
LEJR,36.751,-6.056,VRB,2,2.3,LEJR 132300Z AUTO VRB02KT CAVOK 22/18 Q1013,2024-08-13T23:00:00Z,22,18,6+,29.91
LEIB,38.876,1.384,VRB,1,1.15,LEIB 132300Z VRB01KT 9999 FEW026 26/23 Q1009 NOSIG,2024-08-13T23:00:00Z,26,23,6+,29.79
LEGR,37.19,-3.789,280,4,4.6,LEGR 132300Z AUTO 28004KT 170V330 CAVOK 23/06 Q1014,2024-08-13T23:00:00Z,23,6,6+,29.94
LEGE,41.911,2.763,360,4,4.6,LEGE 132300Z 36004KT 320V030 CAVOK 22/19 Q1011 NOSIG,2024-08-13T23:00:00Z,22,19,6+,29.85
LEDA,41.734,0.538,350,9,10.36,LEDA 132300Z AUTO 35009KT 320V020 CAVOK 21/16 Q1013,2024-08-13T23:00:00Z,21,16,6+,29.91
LECO,43.307,-8.372,350,4,4.6,LECO 132300Z 35004KT 300V030 9999 FEW020 SCT028 17/15 Q1018 NOSIG,2024-08-13T23:00:00Z,17,15,6+,30.06
LECH,40.211,0.067,20,6,6.9,LECH 132300Z AUTO 02006KT 330V060 CAVOK 23/18 Q1012,2024-08-13T23:00:00Z,23,18,6+,29.88
LEBL,41.293,2.07,40,6,6.9,LEBL 132300Z 04006KT 360V080 9999 FEW025 27/20 Q1010 NOSIG,2024-08-13T23:00:00Z,27,20,6+,29.82
LEBG,42.356,-3.622,60,6,6.9,LEBG 132300Z AUTO 06006KT 020V090 9999 BKN010 16/14 Q1017,2024-08-13T23:00:00Z,16,14,6+,30.03
LEBB,43.298,-2.906,100,5,5.75,LEBB 132300Z 10005KT 060V120 9999 SCT045 BKN050 19/18 Q1016 NOSIG,2024-08-13T23:00:00Z,19,18,6+,30.00
LEAS,43.567,-6.044,280,10,11.51,LEAS 132300Z 28010KT 250V310 9999 SCT008 BKN010 BKN020 18/17 Q1017 TEMPO 3000 BR BKN010,2024-08-13T23:00:00Z,18,17,6+,30.03
LEAM,36.846,-2.357,VRB,2,2.3,LEAM 132300Z AUTO VRB02KT CAVOK 27/23 Q1008,2024-08-13T23:00:00Z,27,23,6+,29.76
LEAL,38.282,-0.558,VRB,2,2.3,LEAL 132300Z VRB02KT 9999 FEW012 26/23 Q1009 NOSIG,2024-08-13T23:00:00Z,26,23,6+,29.79
LEAG,36.129,-5.441,330,10,11.51,LEAG 132300Z AUTO 33010G21KT 280V030 CAVOK 25/12 Q1012,2024-08-13T23:00:00Z,25,12,6+,29.88
LDZD,44.108,15.347,120,3,3.45,LDZD 132300Z 12003KT CAVOK 24/21 Q1010 NOSIG,2024-08-13T23:00:00Z,24,21,6+,29.82
LDZA,45.729,16.054,VRB,1,1.15,LDZA 132300Z VRB01KT CAVOK 24/20 Q1010 TEMPO 31015KT TS FEW070CB,2024-08-13T23:00:00Z,24,20,6+,29.82
LDSP,43.539,16.301,40,3,3.45,LDSP 132300Z AUTO 04003KT CAVOK 26/14 Q1010,2024-08-13T23:00:00Z,26,14,6+,29.82
LDRI,45.218,14.573,0,0,0.0,LDRI 132300Z 00000KT CAVOK 26/24 Q1010,2024-08-13T23:00:00Z,26,24,6+,29.82
LDPL,44.894,13.922,VRB,2,2.3,LDPL 132300Z AUTO VRB02KT CAVOK 25/23 Q1010,2024-08-13T23:00:00Z,25,23,6+,29.82
LDDU,42.56,18.269,90,3,3.45,LDDU 132300Z 09003KT 030V150 CAVOK 27/18 Q1010 NOSIG,2024-08-13T23:00:00Z,27,18,6+,29.82
LCPH,34.715,32.479,20,7,8.06,LCPH 132300Z AUTO 02007KT 9999 NCD 26/19 Q1006 NOSIG,2024-08-13T23:00:00Z,26,19,6+,29.70
LCLK,34.874,33.617,230,2,2.3,LCLK 132300Z 23002KT CAVOK 26/24 Q1005 NOSIG,2024-08-13T23:00:00Z,26,24,6+,29.68
LBWN,43.232,27.825,140,3,3.45,LBWN 132300Z AUTO 14003KT 9999 SCT013/// 24/23 Q1012 NOSIG,2024-08-13T23:00:00Z,24,23,6+,29.88
LBSF,42.694,23.414,140,6,6.9,LBSF 132300Z AUTO 14006KT 9999 NCD 21/12 Q1013 NOSIG,2024-08-13T23:00:00Z,21,12,6+,29.91
LBPL,43.453,24.504,0,0,0.0,LBPL 132300Z 00000KT 9999 SKC 28/12 Q1008,2024-08-13T23:00:00Z,28,12,6+,29.76
LBPG,42.289,24.714,60,6,6.9,LBPG 132300Z 06006KT 9999 SKC 27/12 Q1011,2024-08-13T23:00:00Z,27,12,6+,29.85
LBPD,42.064,24.86,220,6,6.9,LBPD 132300Z AUTO 22006KT 180V280 9999 NCD 22/10 Q1011,2024-08-13T23:00:00Z,22,10,6+,29.85
LBGO,43.151,25.713,110,5,5.75,LBGO 132300Z AUTO 11005KT 9999 NCD 21/15 Q1010,2024-08-13T23:00:00Z,21,15,6+,29.82
LBBG,42.569,27.514,100,5,5.75,LBBG 132300Z AUTO 10005KT 9999 NCD 25/22 Q1012 NOSIG,2024-08-13T23:00:00Z,25,22,6+,29.88
KXNX,36.3745,-86.41,0,0,0.0,KXNX 132300Z AUTO 00000KT 10SM CLR 29/18 A3010 RMK A01,2024-08-13T23:00:00Z,29,18,10+,30.10
KSEM,32.3367,-86.9836,VRB,5,5.75,KSEM 132300Z AUTO VRB05G12KT 10SM CLR 34/21 A3000 RMK AO2,2024-08-13T23:00:00Z,34,21,10+,30.00
KSBD,34.09,-117.247,240,6,6.9,KSBD 132300Z 24006KT 7SM CLR 37/03 A2989,2024-08-13T23:00:00Z,37,3,7,29.89
KQFX,-99.99,-99.99,170,1,1.15,KQFX 132300Z AUTO 17001KT 9999 SCT004 27/24 A2981 RMK A02 TSNO,2024-08-13T23:00:00Z,27,24,6+,29.81
KQFV,-99.99,-99.99,100,2,2.3,KQFV 132300Z AUTO 10002KT 8000 OVC004 25/23 A2990 RMK A02 TSNO,2024-08-13T23:00:00Z,25,23,4.97,29.90
KQFU,-99.99,-99.99,40,1,1.15,KQFU 132300Z AUTO 04001KT 9000 HZ CLR 28/25 A2986 RMK A02 TSNO,2024-08-13T23:00:00Z,28,25,5.59,29.86
KQFT,-99.99,-99.99,360,3,3.45,KQFT 132300Z AUTO 36003KT 9999 CLR 28/25 A2981 RMK A02 TSNO,2024-08-13T23:00:00Z,28,25,6+,29.81
KQFB,-99.99,-99.99,330,2,2.3,KQFB 132300Z AUTO 33002KT 9999 OVC075 24/21 A2989 RMK A02 TSNO,2024-08-13T23:00:00Z,24,21,6+,29.89
KQEX,-99.99,-99.99,10,4,4.6,KQEX 132300Z AUTO 01004KT 9999 CLR 25/21 A2977 RMK A02 TSNO,2024-08-13T23:00:00Z,25,21,6+,29.77
KQEW,-99.99,-99.99,60,1,1.15,KQEW 132300Z AUTO 06001KT / // CLR 27/26 A2984 RMK A02 TSNO,2024-08-13T23:00:00Z,27,26,,29.84
KQEV,-99.99,-99.99,80,3,3.45,KQEV 132300Z AUTO 08003KT 9999 CLR 28/24 A2978 RMK A02 TSNO,2024-08-13T23:00:00Z,28,24,6+,29.78
KQEQ,-99.99,-99.99,50,6,6.9,KQEQ 132300Z AUTO 05006KT 9999 CLR 27/26 A2984 RMK A02 TSNO,2024-08-13T23:00:00Z,27,26,6+,29.84
KQEP,-99.99,-99.99,140,3,3.45,KQEP 132300Z AUTO 14003KT 9999 CLR 29/25 A2984 RMK A02 TSNO,2024-08-13T23:00:00Z,29,25,6+,29.84
KQEL,-99.99,-99.99,200,1,1.15,KQEL 132300Z AUTO 20001KT 9999 CLR 28/25 A2984 RMK A02 TSNO,2024-08-13T23:00:00Z,28,25,6+,29.84
KQEJ,-99.99,-99.99,110,1,1.15,KQEJ 132300Z AUTO 11001KT 9999 CLR 25/23 A2985 RMK A02 TSNO,2024-08-13T23:00:00Z,25,23,6+,29.85
KQEI,-99.99,-99.99,300,3,3.45,KQEI 132300Z AUTO 30003KT 9999 CLR 25/22 A2986 RMK A02 TSNO,2024-08-13T23:00:00Z,25,22,6+,29.86
KONX,36.399,-76.014,0,0,0.0,KONX 132300Z AUTO 00000KT 10SM CLR 27/18 A3004 RMK AO2 T02650175,2024-08-13T23:00:00Z,26.5,17.5,10+,30.04
KLHX,38.0495,-103.513,50,11,12.66,KLHX 132300Z AUTO 05011KT 10SM TS FEW026 SCT075 BKN095 24/18 A2999 RMK AO2 WSHFT 2240 RAE2259 P0000 T02440183,2024-08-13T23:00:00Z,24.4,18.3,10+,29.99
KIKT,28.5208,-88.2889,0,0,0.0,KIKT 132300Z AUTO 00000KT 10SM BKN032 31/24 A3004 RMK A01,2024-08-13T23:00:00Z,31,24,10+,30.04
KGUL,27.3039,-93.5383,0,0,0.0,KGUL 132300Z AUTO 00000KT 10SM CLR 30/25 A3001 RMK A01,2024-08-13T23:00:00Z,30,25,10+,30.01
KF95,30.4881,-85.1148,330,5,5.75,KF95 132300Z AUTO 33005KT 10SM CLR 34/23 A2998 RMK AO2,2024-08-13T23:00:00Z,34,23,10+,29.98
KEDU,38.53,-121.788,160,8,9.21,KEDU 132300Z AUTO 16008KT 9SM FEW001 31/11 A2991 RMK AO1,2024-08-13T23:00:00Z,31,11,9,29.91
KDSF,28.3426,-88.2649,0,0,0.0,KDSF 132300Z AUTO 00000KT 10SM CLR 32/24 A3003 RMK A01,2024-08-13T23:00:00Z,32,24,10+,30.03
KCQB,35.7223,-96.8187,170,10,11.51,KCQB 132300Z AUTO 17010KT 10SM CLR 35/24 A2997 RMK AO2 T03490236,2024-08-13T23:00:00Z,34.9,23.6,10+,29.97
KCIC,39.7988,-121.858,150,12,13.81,KCIC 132300Z 15012G17KT 10SM CLR 31/08 A2990,2024-08-13T23:00:00Z,31,8,10+,29.90
K0F2,33.6011,-97.7735,160,10,11.51,K0F2 132300Z AUTO 16010G16KT 10SM CLR 38/19 A2997 RMK AO2 T03790185,2024-08-13T23:00:00Z,37.9,18.5,10+,29.97
HRYR,-1.969,30.14,350,4,4.6,HRYR 132300Z 35004KT 9999 SCT025 23/15 Q1020 NOSIG,2024-08-13T23:00:00Z,23,15,6+,30.12
HECA,30.133,31.405,50,6,6.9,HECA 132300Z 05006KT CAVOK 28/22 Q1008 NOSIG,2024-08-13T23:00:00Z,28,22,6+,29.76
HAAB,8.978,38.799,280,4,4.6,HAAB 132300Z 28004KT 9999 BKN024 SCT070 14/14 Q1025,2024-08-13T23:00:00Z,14,14,6+,30.27
GVSV,16.833,-25.055,50,11,12.66,GVSV 132300Z 05011KT 9999 BKN022 26/22 Q1013 NOSIG,2024-08-13T23:00:00Z,26,22,6+,29.91
GVNP,14.947,-23.484,310,1,1.15,GVNP 132300Z 31001KT 9999 FEW026 27/23 Q1013 NOSIG,2024-08-13T23:00:00Z,27,23,6+,29.91
GVAC,16.742,-22.949,360,8,9.21,GVAC 132300Z 36008KT 9999 SCT013 25/22 Q1013 NOSIG,2024-08-13T23:00:00Z,25,22,6+,29.91
GQPP,20.929,-17.031,340,10,11.51,GQPP 132300Z 34010KT 6000 BKN007 22/20 Q1009 NOSIG,2024-08-13T23:00:00Z,22,20,3.73,29.79
GMTT,35.727,-5.917,200,4,4.6,GMTT 132300Z 20004KT 140V220 CAVOK 22/21 Q1014 NOSIG,2024-08-13T23:00:00Z,22,21,6+,29.94
GMTN,35.594,-5.32,VRB,4,4.6,GMTN 132300Z VRB04KT CAVOK 25/15 Q1012 NOSIG,2024-08-13T23:00:00Z,25,15,6+,29.88
GMTA,35.177,-3.84,VRB,2,2.3,GMTA 132300Z VRB02KT CAVOK 25/14 Q1011 NOSIG,2024-08-13T23:00:00Z,25,14,6+,29.85
GMMZ,30.939,-6.909,250,6,6.9,GMMZ 132300Z 25006KT 8000 NSC 30/00 Q1017 NOSIG,2024-08-13T23:00:00Z,30,0,4.97,30.03
GMMX,31.607,-8.036,40,10,11.51,GMMX 132300Z 04010KT CAVOK 25/17 Q1017 NOSIG,2024-08-13T23:00:00Z,25,17,6+,30.03
GMMW,34.993,-3.025,220,5,5.75,GMMW 132300Z 22005KT CAVOK 24/08 Q1012 NOSIG,2024-08-13T23:00:00Z,24,8,6+,29.88
GMMN,33.367,-7.59,360,7,8.06,GMMN 132300Z 36007KT CAVOK 21/16 Q1016 NOSIG,2024-08-13T23:00:00Z,21,16,6+,30.00
GMML,27.141,-13.23,30,28,32.22,GMML 132300Z 03028KT 4000 SA BKN010 22/22 Q1013 NOSIG,2024-08-13T23:00:00Z,22,22,2.49,29.91
GMMI,31.406,-9.687,50,7,8.06,GMMI 132300Z AUTO 05007KT 020V080 6000 NSC 24/18 Q1014 NOSIG,2024-08-13T23:00:00Z,24,18,3.73,29.94
GMMH,23.718,-15.932,40,24,27.62,GMMH 132300Z 04024KT 6000 NSC 22/19 Q1009 NOSIG,2024-08-13T23:00:00Z,22,19,3.73,29.79
GMME,34.051,-6.752,350,5,5.75,GMME 132300Z 35005KT 310V020 6000 SCT016 22/20 Q1015 NOSIG,2024-08-13T23:00:00Z,22,20,3.73,29.97
GMFO,34.787,-1.924,240,4,4.6,GMFO 132300Z 24004KT CAVOK 24/08 Q1014 NOSIG,2024-08-13T23:00:00Z,24,8,6+,29.94
GMFM,33.875,-5.52,260,3,3.45,GMFM 132300Z 26003KT 230V300 CAVOK 20/14 Q1017 NOSIG,2024-08-13T23:00:00Z,20,14,6+,30.03
GMFK,31.946,-4.399,90,4,4.6,GMFK 132300Z 09004KT CAVOK 31/04 Q1017 NOSIG,2024-08-13T23:00:00Z,31,4,6+,30.03
GMFF,33.929,-4.976,240,5,5.75,GMFF 132300Z 24005KT CAVOK 22/13 Q1017 NOSIG,2024-08-13T23:00:00Z,22,13,6+,30.03
GMAZ,30.266,-5.854,300,11,12.66,GMAZ 132300Z 30011KT CAVOK 36/01 Q1012 NOSIG,2024-08-13T23:00:00Z,36,1,6+,29.88
GMAG,29.031,-10.051,190,11,12.66,GMAG 132300Z AUTO 19011KT CAVOK 21/18 Q1013,2024-08-13T23:00:00Z,21,18,6+,29.91
GMAD,30.325,-9.413,0,0,0.0,GMAD 132300Z 00000KT 8000 NSC 20/20 Q1012 NOSIG,2024-08-13T23:00:00Z,20,20,4.97,29.88
GEML,35.278,-2.956,290,14,16.11,GEML 132300Z AUTO 29014KT 260V320 CAVOK 28/12 Q1011,2024-08-13T23:00:00Z,28,12,6+,29.85
GCXO,28.483,-16.342,280,18,20.71,GCXO 132300Z AUTO 28018KT 9999 BKN002 18/18 Q1020,2024-08-13T23:00:00Z,18,18,6+,30.12
GCTS,28.047,-16.561,60,20,23.02,GCTS 132300Z 06020KT 020V080 9999 FEW020 23/19 Q1015 NOSIG,2024-08-13T23:00:00Z,23,19,6+,29.97
GCRR,28.952,-13.6,10,20,23.02,GCRR 132300Z 01020KT 9999 FEW018 23/19 Q1015,2024-08-13T23:00:00Z,23,19,6+,29.97
GCLP,27.923,-15.389,360,27,31.07,GCLP 132300Z 36027KT 9999 FEW020 23/19 Q1016 NOSIG,2024-08-13T23:00:00Z,23,19,6+,30.00
GCLA,28.633,-17.755,10,17,19.56,GCLA 132300Z AUTO 01017KT 9999 OVC024 24/18 Q1018,2024-08-13T23:00:00Z,24,18,6+,30.06
GCHI,27.819,-17.889,340,23,26.47,GCHI 132300Z AUTO 34023G34KT 9999 BKN019 23/19 Q1016,2024-08-13T23:00:00Z,23,19,6+,30.00
GCGM,28.032,-17.211,0,0,0.0,GCGM 132300Z AUTO 00000KT CAVOK 23/19 Q1015 RMK R09/00000KT ARP/00000KT,2024-08-13T23:00:00Z,23,19,6+,29.97
GCFV,28.445,-13.863,40,12,13.81,GCFV 132300Z AUTO 04012KT CAVOK 22/20 Q1016,2024-08-13T23:00:00Z,22,20,6+,30.00
GBYD,13.341,-16.653,260,4,4.6,GBYD 132300Z 26004KT 9999 SCT011 27/25 Q1012,2024-08-13T23:00:00Z,27,25,6+,29.88
FSIA,-4.674,55.522,130,15,17.26,FSIA 132300Z 13015G26KT 100V160 9999 SCT017 26/22 Q1010 NOSIG,2024-08-13T23:00:00Z,26,22,6+,29.82
FQXA,-25.038,33.627,10,6,6.9,FQXA 132300Z 01006KT CAVOK 18/15 Q1014,2024-08-13T23:00:00Z,18,15,6+,29.94
FQTT,-16.108,33.64,100,4,4.6,FQTT 132300Z 10004KT CAVOK 18/10 Q1016,2024-08-13T23:00:00Z,18,10,6+,30.00
FQQL,-17.858,36.869,0,0,0.0,FQQL 132300Z 00000KT CAVOK 22/20 Q1017,2024-08-13T23:00:00Z,22,20,6+,30.03
FQPB,-12.989,40.525,0,0,0.0,FQPB 132300Z 00000KT 9999 FEW020 22/21 Q1016,2024-08-13T23:00:00Z,22,21,6+,30.00
FQMA,-25.921,32.573,340,9,10.36,FQMA 132300Z 34009KT 9999 FEW020 22/15 Q1010 NOSIG,2024-08-13T23:00:00Z,22,15,6+,29.82
FQCH,-19.148,33.428,,,,FQCH 132300Z /////KT 0300 FG NSC 18/18 Q1020,2024-08-13T23:00:00Z,18,18,0.19,30.12
FQBR,-19.796,34.908,50,5,5.75,FQBR 132300Z 05005KT CAVOK 20/19 Q1015,2024-08-13T23:00:00Z,20,19,6+,29.97
FMMI,-18.797,47.479,120,6,6.9,FMMI 132300Z 12006KT 9999 FEW020 11/11 Q1023 NOSIG,2024-08-13T23:00:00Z,11,11,6+,30.21
FMCZ,-12.805,45.281,350,2,2.3,FMCZ 132300Z AUTO 35002KT CAVOK 23/21 Q1015 NOSIG,2024-08-13T23:00:00Z,23,21,6+,29.97
FCBB,-4.252,15.253,240,5,5.75,FCBB 132300Z 24005KT 8000 NSC 24/17 Q1016 NOSIG,2024-08-13T23:00:00Z,24,17,4.97,30.00
FAVV,-26.566,27.961,260,8,9.21,FAVV 132300Z AUTO 26008KT //// // ////// 17/05 Q1021,2024-08-13T23:00:00Z,17,5,,30.15
FASI,-26.248,28.398,360,8,9.21,FASI 132300Z AUTO 36008KT //// // ////// 15/05 Q1023,2024-08-13T23:00:00Z,15,5,,30.21
FAOR,-26.139,28.246,300,6,6.9,FAOR 132300Z 30006KT CAVOK 15/05 Q1020 NOSIG,2024-08-13T23:00:00Z,15,5,6+,30.12
FAJB,-26.15,28,320,1,1.15,FAJB 132300Z AUTO 32001KT //// // ////// 12/03 Q1020,2024-08-13T23:00:00Z,12,3,,30.12
ETHN,49.398,9.958,320,4,4.6,ETHN 132300Z 32004KT 9999 FEW030CB SCT330 20/17 Q1011 BLU+FCST CNL,2024-08-13T23:00:00Z,20,17,6+,29.85
EPWR,51.1032,16.8998,100,5,5.75,EPWR 132300Z 10005KT CAVOK 17/11 Q1015,2024-08-13T23:00:00Z,17,11,6+,29.97
EPWA,52.163,20.961,130,3,3.45,EPWA 132300Z 13003KT CAVOK 16/10 Q1018 NOSIG,2024-08-13T23:00:00Z,16,10,6+,30.06
EPSY,53.482,20.938,20,3,3.45,EPSY 132300Z 02003KT CAVOK 12/12 Q1019,2024-08-13T23:00:00Z,12,12,6+,30.09
EPSC,53.585,14.902,120,10,11.51,EPSC 132300Z 12010KT CAVOK 19/10 Q1015,2024-08-13T23:00:00Z,19,10,6+,29.97
EPRZ,50.112,22.025,70,7,8.06,EPRZ 132300Z 07007KT CAVOK 16/09 Q1017,2024-08-13T23:00:00Z,16,9,6+,30.03
EPRA,51.39,21.211,110,5,5.75,EPRA 132300Z 11005KT CAVOK 15/09 Q1018,2024-08-13T23:00:00Z,15,9,6+,30.06
EPPO,52.417,16.835,100,8,9.21,EPPO 132300Z 10008KT CAVOK 18/08 Q1016,2024-08-13T23:00:00Z,18,8,6+,30.00
EPMO,52.452,20.642,80,4,4.6,EPMO 132300Z 08004KT CAVOK 14/11 Q1018,2024-08-13T23:00:00Z,14,11,6+,30.06
EPLL,51.724,19.401,90,6,6.9,EPLL 132300Z 09006KT 060V120 CAVOK 17/08 Q1017,2024-08-13T23:00:00Z,17,8,6+,30.03
EPLB,51.239,22.714,100,1,1.15,EPLB 132300Z 10001KT CAVOK 13/10 Q1018,2024-08-13T23:00:00Z,13,10,6+,30.06
EPKT,50.478,19.085,100,7,8.06,EPKT 132300Z 10007KT CAVOK 15/10 Q1016,2024-08-13T23:00:00Z,15,10,6+,30.00
EPKK,50.078,19.797,50,7,8.06,EPKK 132300Z 05007KT CAVOK 17/11 Q1016,2024-08-13T23:00:00Z,17,11,6+,30.00
EPGD,54.379,18.466,VRB,2,2.3,EPGD 132300Z VRB02KT CAVOK 15/13 Q1018,2024-08-13T23:00:00Z,15,13,6+,30.06
EPBY,53.0962,17.9949,110,5,5.75,EPBY 132300Z 11005KT CAVOK 16/11 Q1017,2024-08-13T23:00:00Z,16,11,6+,30.03
EINN,52.702,-8.925,50,1,1.15,EINN 132300Z 05001KT CAVOK 12/10 Q1014 NOSIG,2024-08-13T23:00:00Z,12,10,6+,29.94
EIDW,53.422,-6.298,300,6,6.9,EIDW 132300Z 30006KT 9999 FEW020 SCT060 09/07 Q1013 NOSIG,2024-08-13T23:00:00Z,9,7,6+,29.91
EICK,51.848,-8.479,300,7,8.06,EICK 132300Z 30007KT 9999 FEW020 12/10 Q1014 NOSIG,2024-08-13T23:00:00Z,12,10,6+,29.94
DIAP,5.261,-3.926,230,7,8.06,DIAP 132300Z 23007KT 4000 DZRA BKN008 BKN020 OVC030 24/23 Q1015 TEMPO 2000 DZRA,2024-08-13T23:00:00Z,24,23,2.49,29.97
CYPC,69.355,-124.077,260,4,4.6,CYPC 132300Z 26004KT 220V300 15SM BKN056 BKN090 15/06 A2993 RMK CU6AS1 LAST STFD OBS/ NEXT 141300 SLP138,2024-08-13T23:00:00Z,15,6,15,29.93
CYBR,49.91,-99.945,140,11,12.66,CYBR 132300Z 14011KT 15SM SCT120 BKN200 24/16 A2997 RMK AC4CI2 SLP155 DENSITY ALT 2700FT,2024-08-13T23:00:00Z,24,16,15,29.97
CWAE,50.129,-122.955,180,5,5.75,CWAE 132300Z 18005KT 140V260 15SM BKN064 20/13 A3000 RMK SC7 SLP153 DENSITY ALT 3200FT,2024-08-13T23:00:00Z,20,13,15,30.00
BKPR,42.576,21.03,VRB,2,2.3,BKPR 132300Z VRB02KT CAVOK 20/13 Q1013 NOSIG,2024-08-13T23:00:00Z,20,13,6+,29.91
BIRK,64.129,-21.941,240,13,14.96,BIRK 132300Z 24013KT 9999 BKN011 OVC039 10/08 Q0990,2024-08-13T23:00:00Z,10,8,6+,29.23
BIKF,63.987,-22.614,250,11,12.66,BIKF 132300Z 25011KT 9999 BKN011 OVC060 09/07 Q0990,2024-08-13T23:00:00Z,9,7,6+,29.23
BIEG,65.275,-14.409,210,10,11.51,BIEG 132300Z 21010G21KT 180V250 9999 BKN043 11/06 Q0988,2024-08-13T23:00:00Z,11,6,6+,29.17
BIAR,65.655,-18.069,320,5,5.75,BIAR 132300Z 32005KT 270V350 9999 BKN046 BKN076 12/08 Q0987,2024-08-13T23:00:00Z,12,8,6+,29.14
RODE,26.718,127.783,,,,RODE 132259Z AUTO A2974 RMK AO2 SLPNO PWINO TSNO $,2024-08-13T22:59:00Z,,,,29.74
KNOZ,32.55,-114.512,200,12,13.81,KNOZ 132259Z AUTO 20012G18KT 10SM OVC095 42/17 A2975 RMK AO2 SLPNO T04220172,2024-08-13T22:59:00Z,42.2,17.2,10+,29.75
KNGU,36.937,-76.281,VRB,5,5.75,KNGU 132259Z VRB05KT 10SM SCT065 BKN200 27/16 A3005 RMK AO2 SLP175 T02720161,2024-08-13T22:59:00Z,27.2,16.1,10+,30.05
K2V6,40.1047,-102.713,120,11,12.66,K2V6 132259Z AUTO 12011G17KT 10SM CLR 29/16 A2998 RMK AO2,2024-08-13T22:59:00Z,29,16,10+,29.98
MUSC,22.494,-79.931,VRB,6,6.9,"MUSC 132258Z VRB06KT 2500 1000SW +RA BKN016CB 26/24 Q1016 RMK CB AT III, IV QUAD",2024-08-13T22:58:00Z,26,24,1.55,30.00
KSFY,42.0454,-90.1101,230,3,3.45,KSFY 132258Z AUTO 23003KT 10SM SCT050 27/14 A3011 RMK AO2,2024-08-13T22:58:00Z,27,14,10+,30.11
KROG,36.3749,-94.1078,150,10,11.51,KROG 132258Z 15010KT CLR 30/22 A3005 RMK AO2 SLP159 T03000222 $,2024-08-13T22:58:00Z,30,22.2,,30.05
KMRH,34.7326,-76.6566,40,5,5.75,KMRH 132258Z AUTO 04005KT 10SM SCT110 26/19 A3004 RMK AO2 SLP172 T02610194,2024-08-13T22:58:00Z,26.1,19.4,10+,30.04
KMEI,32.3348,-88.7507,350,3,3.45,KMEI 132258Z 35003KT 10SM CLR 34/21 A3001 RMK AO2 SLP157 T03440211,2024-08-13T22:58:00Z,34.4,21.1,10+,30.01
KEUF,31.9516,-85.1312,330,3,3.45,KEUF 132258Z AUTO 33003KT 10SM FEW070 35/19 A2999 RMK AO2 SLP151 T03500189,2024-08-13T22:58:00Z,35,18.9,10+,29.99
KBKF,39.713,-104.758,330,12,13.81,KBKF 132258Z COR 33012G17KT 10SM -TSRA SCT060 SCT080 BKN095 BKN120 23/14 A3009 RMK AO2A RAB32 TSE19B38 SLP120 P0000 T02330135 COR 2300,2024-08-13T22:58:00Z,23.3,13.5,10+,30.09
PAJC,56.312,-158.374,360,6,6.9,PAJC 132257Z AUTO 36006KT 10SM CLR 15/06 A3021 RMK AO2 SLP231 T01500056,2024-08-13T22:57:00Z,15,5.6,10+,30.21
KNJM,34.694,-77.029,40,7,8.06,KNJM 132257Z AUTO 04007KT 7SM OVC110 26/19 A3003 RMK AO2 SLP172 T02610194,2024-08-13T22:57:00Z,26.1,19.4,7,30.03
KMNM,45.126,-87.639,170,7,8.06,KMNM 132257Z AUTO 17007KT 10SM CLR 26/17 A3012 RMK AO2 SLP211 T02610172 $,2024-08-13T22:57:00Z,26.1,17.2,10+,30.12
KFLG,35.1443,-111.666,230,14,16.11,KFLG 132257Z 23014G27KT 10SM FEW055 25/12 A3027 RMK AO2 PK WND 20027/2253 LTG DSNT NE SLP147 T02500117,2024-08-13T22:57:00Z,25,11.7,10+,30.27
EQYR,36.647,-6.347,VRB,4,4.6,EQYR 132257Z AUTO VRB04KT 10SM CLR 24/16 A2991 RMK AO2 SLP126 T02440161 402780194 $,2024-08-13T22:57:00Z,24.4,16.1,10+,29.91
EQYG,35.53,24.15,310,7,8.06,EQYG 132257Z AUTO 31007KT 10SM CLR 26/21 A2984 RMK AO2 SLP095 T02560211 PWINO $ ,2024-08-13T22:57:00Z,25.6,21.1,10+,29.84
CYGX,56.359,-94.704,260,9,10.36,CYGX 132257Z 26009G15KT 5SM FU SKC 29/11 A2989 RMK FU1 SLP128 DENSITY ALT 2300FT,2024-08-13T22:57:00Z,29,11,5,29.89
TJSJ,18.4326,-66.0107,40,10,11.51,TJSJ 132256Z 04010G15KT 4SM RA BR SCT016 BKN023 BKN030 29/27 A2978 RMK AO2 RAB52 SLP082 P0001 T02890267 $,2024-08-13T22:56:00Z,28.9,26.7,4,29.78
ROTM,26.271,127.754,250,3,3.45,ROTM 132256Z 25003KT 10SM CLR 31/26 RMK AO2 SLPNO T03060261 PNO $,2024-08-13T22:56:00Z,30.6,26.1,10+,
RJOI,34.144,132.236,0,0,0.0,RJOI 132256Z 00000KT 9999 FEW025 SCT090 BKN250 31/25 A2978 RMK A02 SLP083 T03110250,2024-08-13T22:56:00Z,31.1,25,6+,29.78
PPIZ,69.735,-163.003,200,18,20.71,PPIZ 132256Z AUTO 20018KT 8SM -RA FEW008 BKN011 OVC038 08/07 A2959 RMK AO2 RAE32B53 SLP023 P0000 T00830072,2024-08-13T22:56:00Z,8.3,7.2,8,29.59
PHNY,20.783,-156.955,60,12,13.81,PHNY 132256Z AUTO 06012G21KT 10SM BKN033 27/18 A3010 RMK AO2 SLP170 T02720183,2024-08-13T22:56:00Z,27.2,18.3,10+,30.10
PFZK,60.9156,-161.488,190,12,13.81,PFZK 132256Z AUTO 19012G16KT 10SM OVC017 11/08 A3012 RMK AO2 SLP197 T01110078,2024-08-13T22:56:00Z,11.1,7.8,10+,30.12
PFYU,66.572,-145.243,280,8,9.21,PFYU 132256Z 28008KT 10SM FEW050 OVC065 16/06 A3001 RMK AO2 SLP171 T01610056,2024-08-13T22:56:00Z,16.1,5.6,10+,30.01
PFWS,58.704,-157.005,240,8,9.21,PFWS 132256Z AUTO 24008G15KT 10SM BKN020 13/08 A3019 RMK AO2 SLP265 T01280083 PNO $,2024-08-13T22:56:00Z,12.8,8.3,10+,30.19
PFTO,63.329,-142.954,270,9,10.36,PFTO 132256Z AUTO 27009KT 10SM SCT060 14/00 A3003 RMK AO2 SLP815 T01440000 $,2024-08-13T22:56:00Z,14.4,0,10+,30.03
PFSH,64.367,-161.217,200,23,26.47,PFSH 132256Z AUTO 20023G28KT 10SM OVC018 11/07 A3001 RMK AO2 PK WND 21028/2247 SLP162 T01060072,2024-08-13T22:56:00Z,10.6,7.2,10+,30.01
PFNO,66.819,-161.024,180,18,20.71,PFNO 132256Z AUTO 18018G21KT 10SM OVC017 12/09 A2985 RMK AO2 SLP109 T01170089 $,2024-08-13T22:56:00Z,11.7,8.9,10+,29.85
PFKW,60.793,-161.44,190,13,14.96,PFKW 132256Z AUTO 19013KT 10SM OVC016 11/08 A3013 RMK AO2 SLP202 T01110083,2024-08-13T22:56:00Z,11.1,8.3,10+,30.13
PFEL,64.616,-162.272,200,15,17.26,PFEL 132256Z AUTO 20015G24KT 10SM OVC009 10/09 A2995 RMK AO2 PK WND 20027/2234 CIG 006V012 SLP144 T01000089 PNO $,2024-08-13T22:56:00Z,10,8.9,10+,29.95
PFCL,58.837,-158.526,250,11,12.66,PFCL 132256Z AUTO 25011G15KT 10SM CLR 13/08 A3017 RMK AO2 SLP211 T01330078,2024-08-13T22:56:00Z,13.3,7.8,10+,30.17
PAWM,64.688,-163.41,210,15,17.26,PAWM 132256Z AUTO 21015G24KT 2 1/2SM -RA BR OVC006 09/08 A2993 RMK AO2 VIS 1 1/2V5 CIG 003V009 SLP137 T00890083 PNO $,2024-08-13T22:56:00Z,8.9,8.3,2.5,29.93
PAVD,61.133,-146.251,220,6,6.9,PAVD 132256Z 22006KT 10SM SCT070 17/09 A3005 RMK AO2 SLP174 T01720089 $,2024-08-13T22:56:00Z,17.2,8.9,10+,30.05
PAVC,55.115,-162.271,80,6,6.9,PAVC 132256Z AUTO 08006KT 10SM OVC026 A3025 RMK AO2 SLPNO FZRANO PNO $,2024-08-13T22:56:00Z,,,10+,30.25
PAVA,61.537,-165.604,220,16,18.41,PAVA 132256Z AUTO 22016KT 10SM BKN013 OVC018 10/07 A3005 RMK AO2 SLP180 T01000072 PNO $,2024-08-13T22:56:00Z,10,7.2,10+,30.05
PAUT,54.145,-165.604,180,6,6.9,PAUT 132256Z AUTO 18006G09KT 10SM OVC014 10/08 A3022 RMK AO2,2024-08-13T22:56:00Z,10,8,10+,30.22
PAUN,63.885,-160.794,230,14,16.11,PAUN 132256Z AUTO 23014KT 10SM FEW038 SCT110 12/08 A3004 RMK AO2 SLP174 T01170078 PNO $,2024-08-13T22:56:00Z,11.7,7.8,10+,30.04
PATQ,70.469,-157.428,210,12,13.81,PATQ 132256Z AUTO 21012KT 10SM OVC033 10/08 A2965 RMK AO2 SLP045 T01000078 TSNO PNO $,2024-08-13T22:56:00Z,10,7.8,10+,29.65
PATG,59.051,-160.398,200,11,12.66,PATG 132256Z AUTO 20011KT 10SM OVC022 11/09 A3019 RMK AO2 WSHFT 2154 SLP224 T01110089,2024-08-13T22:56:00Z,11.1,8.9,10+,30.19
PASX,60.476,-151.053,VRB,5,5.75,PASX 132256Z AUTO VRB05KT 10SM SCT032 18/09 A3009 RMK AO2 SLP196 T01780094,2024-08-13T22:56:00Z,17.8,9.4,10+,30.09
PASM,62.057,-163.298,200,12,13.81,PASM 132256Z AUTO 20012KT 8SM -RA OVC005 10/09 A3008 RMK AO2 RAE18B45 CIG 004V008 SLP192 P0001 T01000089,2024-08-13T22:56:00Z,10,8.9,8,30.08
PASK,66.599,-159.991,170,8,9.21,PASK 132256Z AUTO 17008G17KT 10SM OVC065 11/07 A2991 RMK AO2 SLPNO T01110072,2024-08-13T22:56:00Z,11.1,7.2,10+,29.91
PASH,66.252,-166.084,200,26,29.92,PASH 132256Z AUTO 20026G31KT 10SM BKN018 OVC027 11/07 A2971 RMK AO2 PK WND 21033/2233 SLP062 T01060072,2024-08-13T22:56:00Z,10.6,7.2,10+,29.71
PASD,55.318,-160.525,170,6,6.9,PASD 132256Z 17006KT 10SM FEW028 FEW050 13/08 A3023 RMK AO2 SLP238 T01280078 PNO $,2024-08-13T22:56:00Z,12.8,7.8,10+,30.23
PASA,63.689,-170.49,220,24,27.62,PASA 132256Z AUTO 22024G31KT 10SM OVC008 09/08 A2977 RMK AO2 PK WND 22032/2211 SLP082 T00940078,2024-08-13T22:56:00Z,9.4,7.8,10+,29.77
PARY,64.731,-155.463,220,7,8.06,PARY 132256Z AUTO 22007KT 200V270 10SM OVC025 12/08 A3006 RMK AO2 SLP184 T01170078 TSNO,2024-08-13T22:56:00Z,11.7,7.8,10+,30.06
PARS,61.78,-161.321,190,10,11.51,PARS 132256Z AUTO 19010KT 10SM OVC014 11/08 A3010 RMK AO2 SLP196 T01060078 $,2024-08-13T22:56:00Z,10.6,7.8,10+,30.10
PAQH,59.751,-161.842,190,10,11.51,PAQH 132256Z AUTO 19010KT 6SM BR BKN008 OVC014 10/09 A3017 RMK AO2 RAE27 CIG 006V011 SLP218 P0000 T01000094,2024-08-13T22:56:00Z,10,9.4,6,30.17
PAPO,68.345,-166.807,200,19,21.86,PAPO 132256Z AUTO 20019KT 3/4SM -RA BR OVC004 07/07 A2958 RMK AO2 SLP016 P0000 T00720067,2024-08-13T22:56:00Z,7.2,6.7,0.75,29.58
PAPM,59.011,-161.82,230,9,10.36,PAPM 132256Z AUTO 23009KT 10SM SCT008 BKN012 OVC023 10/09 A3019 RMK AO2 SLP224 T01000089,2024-08-13T22:56:00Z,10,8.9,10+,30.19
PAPH,56.959,-158.631,0,0,0.0,PAPH 132256Z AUTO 00000KT 10SM BKN015 11/07 A3024 RMK AO2 SLP242 T01110067 $,2024-08-13T22:56:00Z,11.1,6.7,10+,30.24
PAPG,56.805,-132.935,90,4,4.6,PAPG 132256Z 09004KT 10SM SCT040 BKN070 16/11 A3003 RMK AO2 SLP173 T01610106,2024-08-13T22:56:00Z,16.1,10.6,10+,30.03
PAPE,55.9096,-159.16,150,4,4.6,PAPE 132256Z AUTO 15004KT 9SM CLR 13/05 A3022 RMK AO2 SLP231 T01330050,2024-08-13T22:56:00Z,13.3,5,9,30.22
PAOU,56.006,-161.162,350,4,4.6,PAOU 132256Z AUTO 35004KT 5SM BR OVC015 09/09 A3024 RMK AO2 SLP240 T00940089 PNO $,2024-08-13T22:56:00Z,9.4,8.9,5,30.24
PANW,59.451,-157.325,260,5,5.75,PANW 132256Z AUTO 26005KT 10SM BKN030 14/07 A3015 RMK AO2 SLP216 T01440072 $,2024-08-13T22:56:00Z,14.4,7.2,10+,30.15
PANU,64.7304,-158.075,230,8,9.21,PANU 132256Z AUTO 23008G14KT 10SM FEW029 14/07 A3002 RMK AO2 SLP075 T01440072,2024-08-13T22:56:00Z,14.4,7.2,10+,30.02
PANI,61.578,-159.539,VRB,5,5.75,PANI 132256Z AUTO VRB05KT 10SM OVC023 12/07 A3012 RMK AO2 SLP202 T01170067 $,2024-08-13T22:56:00Z,11.7,6.7,10+,30.12
PANA,60.694,-161.978,170,10,11.51,PANA 132256Z AUTO 17010G15KT 6SM -RA BR BKN007 OVC014 11/10 A3013 RMK AO2 RAB37 CIG 005V011 SLP201 P0000 T01110100 TSNO,2024-08-13T22:56:00Z,11.1,10,6,30.13
PAMY,60.376,-166.262,230,12,13.81,PAMY 132256Z AUTO 23012G18KT 10SM OVC015 11/08 A3007 RMK AO2 SLP180 T01060078 TSNO PNO $,2024-08-13T22:56:00Z,10.6,7.8,10+,30.07
PAMK,63.484,-162.115,190,22,25.32,PAMK 132256Z AUTO 19022G27KT 10SM OVC021 11/07 A3001 RMK AO2 PK WND 19028/2226 SLP163 T01060072,2024-08-13T22:56:00Z,10.6,7.2,10+,30.01
PAMH,63.889,-152.292,220,6,6.9,PAMH 132256Z AUTO 22006KT 10SM OVC060 13/06 A3008 RMK AO2 SLP186 T01330061 TSNO PNO $,2024-08-13T22:56:00Z,13.3,6.1,10+,30.08
PAMD,59.442,-146.317,250,10,11.51,PAMD 132256Z AUTO 25010KT 10SM CLR 15/12 A3003 RMK AO2 SLP169 T01500117,2024-08-13T22:56:00Z,15,11.7,10+,30.03
PAMB,58.986,-159.05,220,13,14.96,PAMB 132256Z AUTO 22013G18KT 10SM CLR 14/08 A3016 RMK AO2 SLP216 T01390083,2024-08-13T22:56:00Z,13.9,8.3,10+,30.16
PALG,61.538,-160.34,VRB,5,5.75,PALG 132256Z AUTO VRB05KT 10SM OVC021 11/07 A3013 RMK AO2 SLP207 T01110067 PNO $,2024-08-13T22:56:00Z,11.1,6.7,10+,30.13
PAKI,59.935,-164.033,,,,PAKI 132256Z AUTO BKN018 OVC023 10/08 A3012 RMK AO2 SLP198 T01000078 PWINO $,2024-08-13T22:56:00Z,10,7.8,,30.12
PAKH,56.94,-154.181,310,9,10.36,PAKH 132256Z AUTO 31009KT 10SM BKN023 13/08 A3018 RMK AO2 SLP219 T01280078 PNO $,2024-08-13T22:56:00Z,12.8,7.8,10+,30.18
PAKF,54.85,-163.409,30,5,5.75,PAKF 132256Z AUTO 03005KT 10SM BKN019 OVC024 12/08 A3023 RMK AO2 SLP236 T01170078,2024-08-13T22:56:00Z,11.7,7.8,10+,30.23
PAJZ,59.727,-157.267,170,8,9.21,PAJZ 132256Z AUTO 17008KT 6SM HZ BKN032 16/08 A3018 RMK AO2 SLP219 T01560078,2024-08-13T22:56:00Z,15.6,7.8,6,30.18
PAIN,63.733,-148.912,350,4,4.6,PAIN 132256Z AUTO 35004KT 10SM OVC050 13/04 A3008 RMK AO2 SLP200 T01280044,2024-08-13T22:56:00Z,12.8,4.4,10+,30.08
PAIK,66.975,-160.439,170,10,11.51,PAIK 132256Z AUTO 17010G15KT 10SM OVC022 11/07 A2989 RMK AO2 SLP122 T01110072,2024-08-13T22:56:00Z,11.1,7.2,10+,29.89
PAII,58.186,-157.375,270,9,10.36,PAII 132256Z AUTO 27009KT 10SM OVC017 12/08 A3023 RMK AO2 SLP233 T01220083,2024-08-13T22:56:00Z,12.2,8.3,10+,30.23
PAIG,59.325,-155.897,210,7,8.06,PAIG 132256Z AUTO 21007KT 10SM OVC028 14/08 A3016 RMK AO2 SLP222 T01390083,2024-08-13T22:56:00Z,13.9,8.3,10+,30.16
PAHY,55.202,-132.825,250,9,10.36,PAHY 132256Z AUTO 25009KT 10SM CLR 18/10 A3004 RMK AO2 SLP169 T01780100 PNO $,2024-08-13T22:56:00Z,17.8,10,10+,30.04
PAHL,65.699,-156.353,180,11,12.66,PAHL 132256Z AUTO 18011G19KT 10SM BKN038 16/07 A2997 RMK AO2 SLP150 T01610067 TSNO,2024-08-13T22:56:00Z,16.1,6.7,10+,29.97
PAHC,62.191,-159.773,200,7,8.06,PAHC 132256Z AUTO 20007G15KT 10SM OVC019 11/07 A3012 RMK AO2 SLP204 T01060067 PNO $,2024-08-13T22:56:00Z,10.6,6.7,10+,30.12
PAGS,58.425,-135.707,VRB,5,5.75,PAGS 132256Z AUTO VRB05KT 10SM CLR 15/10 A3008 RMK AO2 PRESFR SLP184 T01500100 TSNO,2024-08-13T22:56:00Z,15,10,10+,30.08
PAGN,57.502,-134.589,0,0,0.0,PAGN 132256Z AUTO 00000KT 10SM 18/11 A3005 RMK AO2 SLPNO T01780106,2024-08-13T22:56:00Z,17.8,10.6,10+,30.05
PAGL,64.548,-163.013,190,21,24.17,PAGL 132256Z AUTO 19021G25KT 2 1/2SM -RA BR OVC006 10/09 A2994 RMK AO2 PK WND 19028/2237 VIS 1 1/2V5 CIG 004V008 SLP134 T01000094 PNO $,2024-08-13T22:56:00Z,10,9.4,2.5,29.94
PAGH,66.886,-157.159,200,10,11.51,PAGH 132256Z AUTO 20010KT 10SM OVC080 16/04 A2994 RMK AO2 SLP138 T01560039,2024-08-13T22:56:00Z,15.6,3.9,10+,29.94
PAGA,64.738,-156.92,200,7,8.06,PAGA 132256Z AUTO 20007G17KT 10SM FEW039 15/07 A3002 RMK AO2 SLP168 T01500067 TSNO $,2024-08-13T22:56:00Z,15,6.7,10+,30.02
PAFM,67.106,-157.858,190,8,9.21,PAFM 132256Z AUTO 19008G16KT 10SM SCT060 OVC080 14/06 A2994 RMK AO2 SLP142 T01390056,2024-08-13T22:56:00Z,13.9,5.6,10+,29.94
PAFE,56.961,-133.91,270,6,6.9,PAFE 132256Z AUTO 27006KT 10SM CLR 18/09 A3006 RMK AO2 SLP186 T01780094,2024-08-13T22:56:00Z,17.8,9.4,10+,30.06
PADU,53.896,-166.543,120,10,11.51,PADU 132256Z 12010KT 10SM CLR A3021 RMK AO2 SLPNO TEMP 13/ DP 07 $,2024-08-13T22:56:00Z,,,10+,30.21
PADM,61.865,-162.033,190,10,11.51,PADM 132256Z AUTO 19010KT 10SM BKN010 OVC014 10/09 A3013 RMK AO2 CIG 007V012 SLP210 T01000089,2024-08-13T22:56:00Z,10,8.9,10+,30.13
PADL,59.04,-158.507,160,7,8.06,PADL 132256Z 16007KT 10SM CLR 16/09 A3015 RMK AO2 SLP212 T01560089,2024-08-13T22:56:00Z,15.6,8.9,10+,30.15
PADK,51.881,-176.644,70,5,5.75,PADK 132256Z AUTO 07005KT 10SM SCT007 OVC012 11/10 A2999 RMK AO2 RAB28E52 SLP157 P0000 T01060100 $,2024-08-13T22:56:00Z,10.6,10,10+,29.99
PACX,67.252,-150.204,200,7,8.06,PACX 132256Z AUTO 20007KT 10SM BKN028 OVC050 12/07 A3000 RMK AO2 SLP784 T01220067,2024-08-13T22:56:00Z,12.2,6.7,10+,30.00
PACM,61.846,-165.579,210,11,12.66,PACM 132256Z AUTO 21011KT 10SM OVC012 11/08 A3003 RMK AO2 SLP168 T01060083,2024-08-13T22:56:00Z,10.6,8.3,10+,30.03
PABV,61.416,-149.511,290,5,5.75,PABV 132256Z AUTO 29005KT 10SM BKN030 15/08 A3009 RMK AO2 SLP191 T01500083,2024-08-13T22:56:00Z,15,8.3,10+,30.09
PABL,65.979,-161.146,170,20,23.02,PABL 132256Z AUTO 17020G26KT 10SM SCT020 OVC075 12/08 A2987 RMK AO2 PK WND 17026/2254 SLP118 T01170078,2024-08-13T22:56:00Z,11.7,7.8,10+,29.87
PAAK,52.219,-174.208,120,6,6.9,PAAK 132256Z AUTO 12006KT 2 1/2SM -RA OVC006 10/ A3007 RMK AO2 RAB21 CIG 005V010 SLP182 P0000 T0100 TSNO,2024-08-13T22:56:00Z,10,,2.5,30.07
KYKN,42.9142,-97.3807,140,11,12.66,KYKN 132256Z AUTO 14011KT 10SM FEW030 25/18 A3003 RMK AO2 SLP173 T02500183 $,2024-08-13T22:56:00Z,25,18.3,10+,30.03
KY50,44.0435,-89.304,120,4,4.6,KY50 132256Z AUTO 12004KT 7SM CLR 28/15 A3011 RMK AO2 SLP189 T02780150 $,2024-08-13T22:56:00Z,27.8,15,7,30.11
KWWD,39.0108,-74.9079,210,9,10.36,KWWD 132256Z AUTO 21009KT 10SM CLR 24/16 A3003 RMK AO2 SLP169 T02390161,2024-08-13T22:56:00Z,23.9,16.1,10+,30.03
KWVL,44.5301,-69.6753,330,5,5.75,KWVL 132256Z AUTO 33005KT 10SM SCT060 24/16 A2989 RMK AO2 SLP145 T02390156,2024-08-13T22:56:00Z,23.9,15.6,10+,29.89
KWMC,40.9018,-117.808,220,12,13.81,KWMC 132256Z AUTO 22012G18KT 10SM CLR 32/M01 A2998 RMK AO2 SLP096 T03171011,2024-08-13T22:56:00Z,31.7,-1.1,10+,29.98
KWJF,34.7412,-118.213,220,17,19.56,KWJF 132256Z 22017G26KT 10SM CLR 34/09 A2993 RMK AO2 PK WND 23036/2237 SLP112 T03390089,2024-08-13T22:56:00Z,33.9,8.9,10+,29.93
KVPZ,41.4535,-86.998,30,3,3.45,KVPZ 132256Z AUTO 03003KT 10SM CLR 27/14 A3012 RMK AO2 SLP196 T02720144 $,2024-08-13T22:56:00Z,27.2,14.4,10+,30.12
KVIS,36.3135,-119.388,300,5,5.75,KVIS 132256Z AUTO 30005KT 10SM CLR 36/08 A2988 RMK AO2 SLP115 T03610078,2024-08-13T22:56:00Z,36.1,7.8,10+,29.88
KVBT,36.3444,-94.2211,170,8,9.21,KVBT 132256Z AUTO 17008KT 10SM CLR 31/23 A3005 RMK AO2 SLP164 T03060228,2024-08-13T22:56:00Z,30.6,22.8,10+,30.05
KUKI,39.1278,-123.2,290,9,10.36,KUKI 132256Z AUTO 29009G23KT 240V320 10SM CLR 32/09 A2995 RMK AO2 PK WND 32026/2226 SLP134 T03170089,2024-08-13T22:56:00Z,31.7,8.9,10+,29.95
KUDG,34.4474,-79.8902,30,5,5.75,KUDG 132256Z AUTO 03005KT 10SM BKN075 25/22 A3004 RMK AO2 SLP173 T02500217,2024-08-13T22:56:00Z,25,21.7,10+,30.04
KUCP,41.0228,-80.4153,350,5,5.75,KUCP 132256Z AUTO 35005KT CLR 24/13 A3012 RMK AO2 SLP211 T02440128 PWINO RVRNO $,2024-08-13T22:56:00Z,24.4,12.8,,30.12
KTVF,48.0597,-96.1787,140,7,8.06,KTVF 132256Z AUTO 14007KT 10SM SCT055 25/14 A3007 RMK AO2 SLP182 T02500144,2024-08-13T22:56:00Z,25,14.4,10+,30.07
KTPH,38.0505,-117.091,290,12,13.81,KTPH 132256Z AUTO 29012G20KT 10SM CLR 32/M04 A3005 RMK AO2 SLP083 T03171039,2024-08-13T22:56:00Z,31.7,-3.9,10+,30.05
KSUE,44.847,-87.425,180,9,10.36,KSUE 132256Z AUTO 18009KT 10SM CLR 25/15 A3013 RMK AO2 SLP197 T02500150,2024-08-13T22:56:00Z,25,15,10+,30.13
KSRC,35.2134,-91.7393,20,5,5.75,KSRC 132256Z AUTO 02005KT 10SM CLR 30/24 A3004 RMK AO2 SLP168 P0001 T03000239 $,2024-08-13T22:56:00Z,30,23.9,10+,30.04
KSQI,41.7432,-89.6655,0,0,0.0,KSQI 132256Z AUTO 00000KT 10SM CLR 27/16 A3012 RMK AO2 SLP062 T02720161 PNO $,2024-08-13T22:56:00Z,27.2,16.1,10+,30.12
KSOP,35.2371,-79.3921,360,3,3.45,KSOP 132256Z AUTO 36003KT OVC060 23/21 A3008 RMK AO2 SLP186 T02280206 PWINO $,2024-08-13T22:56:00Z,22.8,20.6,,30.08
KSMP,47.2764,-121.338,VRB,6,6.9,KSMP 132256Z AUTO VRB06KT 10SM OVC007 11/10 A3009 RMK AO2 CIG 006V009 SLP184 T01060100,2024-08-13T22:56:00Z,10.6,10,10+,30.09
KSMN,45.1283,-113.883,350,8,9.21,KSMN 132256Z AUTO 35008KT 7SM RA FEW036 BKN090 OVC110 23/11 A2996 RMK AO2 RAB51 SLP121 P0001 T02280111,2024-08-13T22:56:00Z,22.8,11.1,7,29.96
KSLG,36.1941,-94.488,170,8,9.21,KSLG 132256Z AUTO 17008KT 10SM CLR 32/23 A3003 RMK AO2 SLP154 T03170233,2024-08-13T22:56:00Z,31.7,23.3,10+,30.03
KSLE,44.9049,-123.001,0,0,0.0,KSLE 132256Z 00000KT 10SM OVC060 22/09 A3005 RMK AO2 SLPNO T02220089,2024-08-13T22:56:00Z,22.2,8.9,10+,30.05
KSHV,32.4473,-93.8244,210,5,5.75,KSHV 132256Z 21005KT 10SM FEW060 37/23 A2998 RMK TCU DSNT N SLPNO,2024-08-13T22:56:00Z,37,23,10+,29.98
KSGU,37.0444,-113.503,270,18,20.71,KSGU 132256Z AUTO 27018G24KT 10SM CLR 38/04 A2984 RMK AO2 PK WND 24030/2220 SLP062 T03780039,2024-08-13T22:56:00Z,37.8,3.9,10+,29.84
KSGT,34.5998,-91.5763,60,5,5.75,KSGT 132256Z AUTO 06005KT 10SM CLR 33/23 A3003 RMK AO2 SLP166 T03330228 $,2024-08-13T22:56:00Z,33.3,22.8,10+,30.03
KSGJ,29.9592,-81.341,190,12,13.81,KSGJ 132256Z 19012G21KT 160V230 10SM SCT050 31/25 A2998 RMK AO2 LTG DSNT SE SLP150 T03060250,2024-08-13T22:56:00Z,30.6,25,10+,29.98
KSGH,39.8358,-83.8443,350,6,6.9,KSGH 132256Z AUTO 35006KT 10SM CLR 27/15 A3011 RMK AO2 SLP190 T02670150,2024-08-13T22:56:00Z,26.7,15,10+,30.11
KSFZ,41.9168,-71.4924,310,4,4.6,KSFZ 132256Z AUTO 31004KT SCT050 22/17 A2998 RMK AO2 SLP149 T02220167 $,2024-08-13T22:56:00Z,22.2,16.7,,29.98
KSFO,37.6196,-122.366,300,19,21.86,KSFO 132256Z 30019KT 10SM FEW200 19/11 A2998 RMK AO2 SLP151 T01940106,2024-08-13T22:56:00Z,19.4,10.6,10+,29.98
KSFM,43.3876,-70.7154,0,0,0.0,KSFM 132256Z AUTO 00000KT 10SM CLR 22/18 A2995 RMK AO2 SLP143 T02220183 PNO $,2024-08-13T22:56:00Z,22.2,18.3,10+,29.95
KSDY,47.7029,-104.195,170,12,13.81,KSDY 132256Z AUTO 17012KT 10SM CLR 28/19 A2985 RMK AO2 SLP100 T02780189 PNO $,2024-08-13T22:56:00Z,27.8,18.9,10+,29.85
KSDF,38.1774,-85.7308,350,5,5.75,KSDF 132256Z 35005KT 10SM FEW055 BKN250 29/15 A3008 RMK AO2 SLP180 T02940150,2024-08-13T22:56:00Z,29.4,15,10+,30.08
KSBP,35.2382,-120.644,300,13,14.96,KSBP 132256Z 30013KT 10SM CLR 26/12 A2992 RMK AO2 SLP130 T02610122,2024-08-13T22:56:00Z,26.1,12.2,10+,29.92
KRUT,43.53,-72.9517,320,5,5.75,KRUT 132256Z AUTO 32005KT 10SM CLR 23/16 A3000 RMK AO2 SLP153 T02330161 $,2024-08-13T22:56:00Z,23.3,16.1,10+,30.00
KRKD,44.0611,-69.1014,290,4,4.6,KRKD 132256Z AUTO 29004KT 10SM CLR 23/18 A2989 RMK AO2 SLPNO T02330183,2024-08-13T22:56:00Z,23.3,18.3,10+,29.89
KRDM,44.2558,-121.141,350,15,17.26,KRDM 132256Z 35015G22KT 10SM FU CLR 26/03 A2999 RMK AO2 SLP137 T02610028 $,2024-08-13T22:56:00Z,26.1,2.8,10+,29.99
KPWT,47.4942,-122.759,220,4,4.6,KPWT 132256Z AUTO 22004KT 10SM OVC047 19/13 A3006 RMK AO2 SLP183 T01940128,2024-08-13T22:56:00Z,19.4,12.8,10+,30.06
KPWG,31.4891,-97.3202,140,14,16.11,KPWG 132256Z AUTO 14014G18KT 10SM CLR 37/22 A2997 RMK AO2 SLP138 T03720217 PNO $,2024-08-13T22:56:00Z,37.2,21.7,10+,29.97
KPVU,40.224,-111.725,80,15,17.26,KPVU 132256Z 08015G22KT 10SM -TSRA SCT070 BKN110 22/15 A2996 RMK AO2 LTG DSNT NW TSB43RAB29 SLP098 T02220150 PNO $,2024-08-13T22:56:00Z,22.2,15,10+,29.96
KPVG,36.7824,-76.452,,,,KPVG 132256Z AUTO 10SM CLR 26/21 A3005 RMK AO2 SLP176 T02560211 $,2024-08-13T22:56:00Z,25.6,21.1,10+,30.05
KPVC,42.0743,-70.2183,200,4,4.6,KPVC 132256Z AUTO 20004KT 10SM CLR 21/16 A2996 RMK AO2 SLP145 T02110161,2024-08-13T22:56:00Z,21.1,16.1,10+,29.96
KPTV,36.0274,-119.063,320,9,10.36,KPTV 132256Z AUTO 32009G14KT 10SM CLR 36/08 A2988 RMK AO2 SLP115 T03560083,2024-08-13T22:56:00Z,35.6,8.3,10+,29.88
KPTN,29.71,-91.3381,200,4,4.6,KPTN 132256Z AUTO 20004KT 10SM -RA SCT036 BKN070 A3002 RMK AO2 LTG DSNT E RAB42 SLPNO P0000 FZRANO $,2024-08-13T22:56:00Z,,,10+,30.02
KPRX,33.6359,-95.4514,180,8,9.21,KPRX 132256Z AUTO 18008KT 10SM SCT060 36/23 A2999 RMK AO2 SLP148 T03560228,2024-08-13T22:56:00Z,35.6,22.8,10+,29.99
KPQI,46.697,-68.054,320,3,3.45,KPQI 132256Z AUTO 32003KT 10SM CLR 22/16 A2988 RMK AO2 SLP141 T02170156,2024-08-13T22:56:00Z,21.7,15.6,10+,29.88
KPIB,31.4727,-89.3383,10,5,5.75,KPIB 132256Z AUTO 01005KT 10SM CLR 37/22 A3002 RMK AO2 SLP161 T03670222,2024-08-13T22:56:00Z,36.7,22.2,10+,30.02
KPAM,30.071,-85.577,280,12,13.81,KPAM 132256Z 28012KT 10SM FEW065 33/22 A2997 RMK AO2A SLP152 T03300224,2024-08-13T22:56:00Z,33,22.4,10+,29.97
KP60,44.5448,-110.422,0,0,0.0,KP60 132256Z AUTO 00000KT 13/09 A3024 RMK AO1 SLP190 T01280089,2024-08-13T22:56:00Z,12.8,8.9,,30.24
KP53,46.412,-86.6504,40,5,5.75,KP53 132256Z AUTO 04005KT 24/17 A3010 RMK AO1 SLP192 T02390172 $,2024-08-13T22:56:00Z,23.9,17.2,,30.10
KP28,37.2664,-98.5463,150,9,10.36,KP28 132256Z AUTO 15009G17KT 38/21 A2990 RMK AO1 SLP105 T03780206 $,2024-08-13T22:56:00Z,37.8,20.6,,29.90
KOXC,41.4741,-73.1353,310,4,4.6,KOXC 132256Z 31004KT 10SM CLR 23/16 A3001 RMK AO2 SLP171 T02280156 PNO $,2024-08-13T22:56:00Z,22.8,15.6,10+,30.01
KOWB,37.7297,-87.1683,20,6,6.9,KOWB 132256Z 02006KT 10SM CLR 28/17 A3008 RMK AO2 SLP182 T02780172,2024-08-13T22:56:00Z,27.8,17.2,10+,30.08
KOTH,43.4194,-124.244,300,7,8.06,KOTH 132256Z 30007KT 10SM CLR 20/12 A3009 RMK AO2 SLP188 T02000122,2024-08-13T22:56:00Z,20,12.2,10+,30.09
KOTG,43.6525,-95.5759,140,9,10.36,KOTG 132256Z AUTO 14009KT 10SM CLR 22/18 A3011 RMK AO2 SLP195 T02220183,2024-08-13T22:56:00Z,22.2,18.3,10+,30.11
KOLU,41.4472,-97.3391,130,10,11.51,KOLU 132256Z AUTO 13010KT 10SM FEW021 OVC032 24/19 A3005 RMK AO2 SLP169 T02440194,2024-08-13T22:56:00Z,24.4,19.4,10+,30.05
KOKK,40.5304,-86.055,30,3,3.45,KOKK 132256Z AUTO 03003KT 10SM CLR 27/14 A3012 RMK AO2 SLP198 T02670144,2024-08-13T22:56:00Z,26.7,14.4,10+,30.12
KOFK,41.9799,-97.4335,140,12,13.81,KOFK 132256Z AUTO 14012KT 10SM OVC033 25/18 A3004 RMK AO2 SLP162 T02500183,2024-08-13T22:56:00Z,25,18.3,10+,30.04
KOCH,31.5809,-94.7081,140,3,3.45,KOCH 132256Z AUTO 14003KT 10SM CLR 34/24 A3000 RMK AO2 SLP160 T03440239,2024-08-13T22:56:00Z,34.4,23.9,10+,30.00
KOAJ,34.8251,-77.6189,60,7,8.06,KOAJ 132256Z 06007KT 10SM OVC110 26/21 A3004 RMK AO2 RAE01 SLP174 P0000 T02610206,2024-08-13T22:56:00Z,26.1,20.6,10+,30.04
KNYG,38.503,-77.301,270,5,5.75,KNYG 132256Z AUTO 27005KT 9SM CLR 28/13 A3004 RMK AO2 SLP174 T02830128 $,2024-08-13T22:56:00Z,28.3,12.8,9,30.04
KNTU,36.8209,-76.0277,120,5,5.75,KNTU 132256Z 12005KT 10SM SCT050 BKN150 26/18 A3003 RMK AO2 SLP170 T02610183,2024-08-13T22:56:00Z,26.1,18.3,10+,30.03
KNQI,27.507,-97.81,140,14,16.11,KNQI 132256Z 14014G25KT 10SM FEW050 FEW250 35/23 A2997 RMK AO2 SLP144 T03500233 $,2024-08-13T22:56:00Z,35,23.3,10+,29.97
KNPA,30.356,-87.323,230,11,12.66,KNPA 132256Z 23011KT 10SM FEW050 SCT095 BKN120 BKN250 32/23 A3000 RMK AO2 SLP160 T2 SET T03220228 $,2024-08-13T22:56:00Z,32.2,22.8,10+,30.00
KNOG,27.895,-98.043,120,17,19.56,KNOG 132256Z AUTO 12017G27KT 10SM CLR 35/23 A2997 RMK AO2 PK WND 12027/2249 SLP126 T03500233 $,2024-08-13T22:56:00Z,35,23.3,10+,29.97
KNMM,32.546,-88.543,130,4,4.6,KNMM 132256Z 13004KT 10SM SCT065 34/21 A3001 RMK AO2 SLP170 T03440206,2024-08-13T22:56:00Z,34.4,20.6,10+,30.01
KNLC,36.3024,-119.94,VRB,6,6.9,KNLC 132256Z VRB06KT 10SM FEW050 37/07 A2987 RMK SLP111 RH/18 T03670072,2024-08-13T22:56:00Z,36.7,7.2,10+,29.87
KNKT,34.897,-76.881,80,5,5.75,KNKT 132256Z 08005KT 10SM FEW050 BKN150 26/19 A3005 RMK AO2 SLP171 T02560189,2024-08-13T22:56:00Z,25.6,18.9,10+,30.05
KNJK,32.823,-115.668,240,11,12.66,KNJK 132256Z 24011G22KT 10SM FEW150 45/10 A2972 RMK AO2 SLP078 T04500100 $,2024-08-13T22:56:00Z,45,10,10+,29.72
KNGP,27.688,-97.292,120,15,17.26,KNGP 132256Z 12015KT 10SM FEW030 SCT250 33/24 A2997 RMK AO2 SLP149 T03330244 $,2024-08-13T22:56:00Z,33.3,24.4,10+,29.97
KNFG,33.304,-117.355,,,,KNFG 132256Z 2208KT 180V250 10SM CLR 29/17 A2990 RMK AO2 SLP123 T02890172,2024-08-13T22:56:00Z,28.9,17.2,10+,29.90
KNFE,36.701,-76.129,0,0,0.0,KNFE 132256Z AUTO 00000KT 10SM SCT070 26/19 A3004 RMK AO2 SLP173 T02610189,2024-08-13T22:56:00Z,26.1,18.9,10+,30.04
KNCA,34.7062,-77.4406,70,7,8.06,KNCA 132256Z 07007KT 10SM BKN046 BKN110 26/18 A3002 RMK AO2 SLP168 T02610183,2024-08-13T22:56:00Z,26.1,18.3,10+,30.02
KNBC,32.477,-80.722,60,8,9.21,KNBC 132256Z 06008KT 10SM SCT060 BKN120 30/23 A2999 RMK AO2 SLP155 T03000233,2024-08-13T22:56:00Z,30,23.3,10+,29.99
KMYR,33.6769,-78.9325,VRB,6,6.9,KMYR 132256Z VRB06KT 10SM CLR 27/24 A3000 RMK AO2 LTG DSNT S SLP159 T02670244,2024-08-13T22:56:00Z,26.7,24.4,10+,30.00
KMVN,38.3284,-88.853,70,3,3.45,KMVN 132256Z AUTO 07003KT 10SM BKN039 27/20 A3009 RMK AO2 SLP189 T02670200,2024-08-13T22:56:00Z,26.7,20,10+,30.09
KMTW,44.1322,-87.6819,130,5,5.75,KMTW 132256Z AUTO 13005KT 10SM FEW120 24/18 A3013 RMK AO2 SLP202 T02390178,2024-08-13T22:56:00Z,23.9,17.8,10+,30.13
KMTC,42.6045,-82.8353,170,6,6.9,KMTC 132256Z 17006KT 10SM BKN070 24/16 A3007 RMK AO2A SLP185 T02430160 $,2024-08-13T22:56:00Z,24.3,16,10+,30.07
KMQY,36.0029,-86.5144,30,9,10.36,KMQY 132256Z 03009KT 10SM CLR 29/18 A3008 RMK AO2 SLP189 T02890183,2024-08-13T22:56:00Z,28.9,18.3,10+,30.08
KMOB,30.6882,-88.2459,210,6,6.9,KMOB 132256Z 21006KT 10SM FEW030 FEW090 SCT200 28/22 A3003 RMK AO2 TSE09 SLP166 CB DSNT N AND NE AND S T02830217,2024-08-13T22:56:00Z,28.3,21.7,10+,30.03
KMML,44.4504,-95.8215,190,11,12.66,KMML 132256Z AUTO 19011KT 10SM BKN031 OVC048 24/18 A3008 RMK AO2 SLP185 T02390183,2024-08-13T22:56:00Z,23.9,18.3,10+,30.08
KMKT,44.2184,-93.9179,130,7,8.06,KMKT 132256Z AUTO 13007KT 10SM OVC065 24/18 A3010 RMK AO2 SLP192 T02440178,2024-08-13T22:56:00Z,24.4,17.8,10+,30.10
KMJX,39.9235,-74.297,350,5,5.75,KMJX 132256Z AUTO 35005KT 10SM CLR 27/14 A3000 RMK AO2 SLP161 T02670139,2024-08-13T22:56:00Z,26.7,13.9,10+,30.00
KMHS,41.3149,-122.317,0,0,0.0,KMHS 132256Z AUTO 00000KT 10SM CLR 25/07 A3002 RMK AO2 SLP155 T02500067,2024-08-13T22:56:00Z,25,6.7,10+,30.02
KMDT,40.1962,-76.7725,320,8,9.21,KMDT 132256Z 32008KT 10SM FEW055 26/13 A3003 RMK AO2 SLP168 T02560133,2024-08-13T22:56:00Z,25.6,13.3,10+,30.03
KMBL,44.2714,-86.2377,310,6,6.9,KMBL 132256Z AUTO 31006KT 10SM CLR 24/16 A3012 RMK AO2 SLP201 T02390156,2024-08-13T22:56:00Z,23.9,15.6,10+,30.12
KM19,35.643,-91.1735,40,3,3.45,KM19 132256Z AUTO 04003KT 10SM CLR 28/23 A3004 RMK AO2 SLP169 T02830233 $,2024-08-13T22:56:00Z,28.3,23.3,10+,30.04
KLZU,33.9828,-83.9585,0,0,0.0,KLZU 132256Z 00000KT 10SM SCT060 31/18 A3002 RMK AO2 SLP167 T03060183,2024-08-13T22:56:00Z,30.6,18.3,10+,30.02
KLWS,46.3746,-117.015,290,3,3.45,KLWS 132256Z 29003KT 10SM FEW110 18/10 A2998 RMK AO2 SLP147 T01830100,2024-08-13T22:56:00Z,18.3,10,10+,29.98
KLTS,34.666,-99.27,150,13,14.96,KLTS 132256Z AUTO 15013G22KT 10SM SCT090 40/15 A2989 RMK AO2 RAE56 SLP099 $,2024-08-13T22:56:00Z,40,15,10+,29.89
KLRD,27.551,-99.4614,120,17,19.56,KLRD 132256Z 12017G20KT 10SM BKN080 39/20 A2989 RMK AO2 SLP117 T03940200,2024-08-13T22:56:00Z,39.4,20,10+,29.89
KLNR,43.2111,-90.1874,270,5,5.75,KLNR 132256Z AUTO 27005KT 10SM SCT055 28/16 A3010 RMK AO2 SLP185 T02830156,2024-08-13T22:56:00Z,28.3,15.6,10+,30.10
KLGD,45.2906,-118.009,350,8,9.21,KLGD 132256Z AUTO 35008KT 10SM CLR 27/11 A2992 RMK AO2 SLP112 T02670106 $,2024-08-13T22:56:00Z,26.7,10.6,10+,29.92
KLEW,44.0444,-70.2853,260,4,4.6,KLEW 132256Z AUTO 26004KT 10SM CLR 24/17 A2993 RMK AO2 SLP138 T02390167,2024-08-13T22:56:00Z,23.9,16.7,10+,29.93
KLBT,34.6082,-79.059,30,6,6.9,KLBT 132256Z AUTO 03006KT 10SM BKN075 OVC100 27/20 A3002 RMK AO2 SLPNO T02670200 PWINO $,2024-08-13T22:56:00Z,26.7,20,10+,30.02
KLBL,37.0375,-100.957,180,14,16.11,KLBL 132256Z AUTO 18014G20KT 10SM CLR 36/16 A2995 RMK AO2 SLP104 T03560161 PNO $,2024-08-13T22:56:00Z,35.6,16.1,10+,29.95
KLAS,36.0719,-115.163,230,9,10.36,KLAS 132256Z 23009G22KT 10SM FEW120 39/02 A2983 RMK AO2 PK WND 24028/2201 SLP066 T03940022,2024-08-13T22:56:00Z,39.4,2.2,10+,29.83
KKLS,46.118,-122.898,310,7,8.06,KKLS 132256Z AUTO 31007KT 10SM OVC041 21/12 A3007 RMK AO2 SLP184 T02110117,2024-08-13T22:56:00Z,21.1,11.7,10+,30.07
KJXN,42.259,-84.4589,20,4,4.6,KJXN 132256Z 02004KT 10SM SCT055 27/15 A3011 RMK AO2 SLP194 T02670150,2024-08-13T22:56:00Z,26.7,15,10+,30.11
KJRB,40.701,-74.009,VRB,3,3.45,KJRB 132256Z AUTO VRB03KT 10SM CLR 28/15 A2999 RMK AO2 SLP154 T02780150 PNO $,2024-08-13T22:56:00Z,27.8,15,10+,29.99
KJMS,46.9259,-98.6704,140,10,11.51,KJMS 132256Z AUTO 14010KT 10SM CLR 24/18 A3000 RMK AO2 SLP156 T02440178,2024-08-13T22:56:00Z,24.4,17.8,10+,30.00
KJKA,30.291,-87.661,270,12,13.81,KJKA 132256Z 27012KT 10SM FEW070 29/26 A3001,2024-08-13T22:56:00Z,29,26,10+,30.01
KJHW,42.1534,-79.2542,350,7,8.06,KJHW 132256Z AUTO 35007KT 10SM CLR 21/14 A3015 RMK AO2 SLP209 T02060144,2024-08-13T22:56:00Z,20.6,14.4,10+,30.15
KJAX,30.4953,-81.6937,320,5,5.75,KJAX 132256Z 32005KT 10SM FEW040 FEW070 BKN100 35/22 A2995 RMK AO2 SLP141 T03500222,2024-08-13T22:56:00Z,35,22.2,10+,29.95
KJAC,43.6129,-110.737,190,7,8.06,KJAC 132256Z 19007KT 10SM FEW060 OVC095 15/11 A3017 RMK AO2 SLP185 T01500111,2024-08-13T22:56:00Z,15,11.1,10+,30.17
KIWD,46.5321,-90.126,0,0,0.0,KIWD 132256Z AUTO 00000KT 7SM CLR 25/14 A3013 RMK AO2 SLP202 T02500144,2024-08-13T22:56:00Z,25,14.4,7,30.13
KITH,42.4931,-76.4569,330,5,5.75,KITH 132256Z 33005KT 10SM CLR 21/15 A3009 RMK AO2 SLP186 T02110150,2024-08-13T22:56:00Z,21.1,15,10+,30.09
KISP,40.7939,-73.1018,300,5,5.75,KISP 132256Z 30005KT 10SM FEW055 FEW250 26/13 A2998 RMK AO2 SLP151 T02560128,2024-08-13T22:56:00Z,25.6,12.8,10+,29.98
KISM,28.2924,-81.4371,290,10,11.51,KISM 132256Z 29010KT 10SM BKN085 32/24 A2999 RMK AO2 SLP155 T03220239 $,2024-08-13T22:56:00Z,32.2,23.9,10+,29.99
KIRS,41.8154,-85.4376,360,5,5.75,KIRS 132256Z AUTO 36005KT 10SM CLR 25/16 A3011 RMK AO2,2024-08-13T22:56:00Z,25,16,10+,30.11
KINW,35.028,-110.722,240,21,24.17,KINW 132256Z AUTO 24021G27KT 10SM VCTS SCT080 32/13 A3010 RMK AO2 PK WND 24027/2256 LTG DSNT N-SE SLP114 T03170133,2024-08-13T22:56:00Z,31.7,13.3,10+,30.10
KILE,31.084,-97.6885,160,11,12.66,KILE 132256Z AUTO 16011KT 10SM CLR 36/21 A2999 RMK AO2 SLP139 T03610211,2024-08-13T22:56:00Z,36.1,21.1,10+,29.99
KI69,39.078,-84.21,0,0,0.0,KI69 132256Z AUTO 00000KT 10SM CLR 28/13 A3010 RMK AO1 T02750131,2024-08-13T22:56:00Z,27.5,13.1,10+,30.10
KHYS,38.8392,-99.2742,130,14,16.11,KHYS 132256Z AUTO 13014KT 10SM FEW036 BKN050 31/23 A2995 RMK AO2 SLP125 T03060233,2024-08-13T22:56:00Z,30.6,23.3,10+,29.95
KHYA,41.6719,-70.2697,250,10,11.51,KHYA 132256Z 25010KT 10SM FEW027 23/17 A2995 RMK AO2 SLP142 T02280172,2024-08-13T22:56:00Z,22.8,17.2,10+,29.95
KHWV,40.8212,-72.8674,300,5,5.75,KHWV 132256Z AUTO 30005KT 10SM CLR 26/13 A2998 RMK AO2 SLP151 T02610133,2024-08-13T22:56:00Z,26.1,13.3,10+,29.98
KHPN,41.0624,-73.7046,320,5,5.75,KHPN 132256Z 32005KT 10SM FEW060 25/14 A2999 RMK AO2 SLP150 T02500139,2024-08-13T22:56:00Z,25,13.9,10+,29.99
KHND,35.9658,-115.134,240,15,17.26,KHND 132256Z 24015G23KT 10SM CLR 38/03 A2986 RMK AO2 PK WND 22029/2220 SLP092 T03830028,2024-08-13T22:56:00Z,38.3,2.8,10+,29.86
KHNB,38.2505,-86.9473,60,4,4.6,KHNB 132256Z AUTO 06004KT 10SM CLR 27/18 A3009 RMK AO2 SLP187 T02670183,2024-08-13T22:56:00Z,26.7,18.3,10+,30.09
KHEZ,31.6159,-91.2973,70,5,5.75,KHEZ 132256Z AUTO 07005KT 10SM CLR 34/22 A3001 RMK AO2 SLP160 T03440222,2024-08-13T22:56:00Z,34.4,22.2,10+,30.01
KHEF,38.724,-77.5175,360,8,9.21,KHEF 132256Z 36008KT 10SM CLR 28/12 A3005 RMK AO2 SLP179 T02780117 PNO $,2024-08-13T22:56:00Z,27.8,11.7,10+,30.05
KHDN,40.4842,-107.23,320,6,6.9,KHDN 132256Z AUTO 32006KT 10SM FEW120 20/09 A3022 RMK AO2 SLP167 T02000089 PNO $,2024-08-13T22:56:00Z,20,8.9,10+,30.22
KGXY,40.4345,-104.63,330,8,9.21,KGXY 132256Z AUTO 33008KT 10SM VCTS -RA 18/15 A3007 RMK AO2 WSHFT 2157 LTG DSNT ALQDS PRESRR SLP155 P0007 T01780150 $,2024-08-13T22:56:00Z,17.8,15,10+,30.07
KGVQ,43.0298,-78.1665,,,,KGVQ 132256Z AUTO 10SM CLR 23/16 A3010 RMK AO2 SLP189 T02280156 $,2024-08-13T22:56:00Z,22.8,15.6,10+,30.10
KGUC,38.5322,-106.942,70,5,5.75,KGUC 132256Z AUTO 07005KT 10SM BKN080 BKN110 18/10 A3034 RMK AO2 SLP199 T01830100,2024-08-13T22:56:00Z,18.3,10,10+,30.34
KGTU,30.6809,-97.6767,190,10,11.51,KGTU 132256Z 19010KT 10SM FEW065 36/14 A2999 RMK AO2 SLP146 T03560139,2024-08-13T22:56:00Z,35.6,13.9,10+,29.99
KGTR,33.456,-88.593,40,7,8.06,KGTR 132256Z 04007KT 10SM FEW070 33/22 A3003 RMK AO2 SLP174 T03330217,2024-08-13T22:56:00Z,33.3,21.7,10+,30.03
KGRD,34.2539,-82.1526,40,4,4.6,KGRD 132256Z AUTO 04004KT 10SM CLR 27/22 A3004 RMK AO2 SLP165 T02670222,2024-08-13T22:56:00Z,26.7,22.2,10+,30.04
KGPZ,47.2029,-93.5071,200,3,3.45,KGPZ 132256Z AUTO 20003KT 10SM CLR 25/15 A3012 RMK AO2 SLP200 T02500150,2024-08-13T22:56:00Z,25,15,10+,30.12
KGON,41.3279,-72.0489,260,6,6.9,KGON 132256Z 26006KT 10SM FEW070 23/17 A2996 RMK AO2 SLP146 T02280172 $,2024-08-13T22:56:00Z,22.8,17.2,10+,29.96
KGNR,45.4649,-69.5543,300,4,4.6,KGNR 132256Z AUTO 30004KT 21/14 A2992 RMK AO1 SLP129 T02110144,2024-08-13T22:56:00Z,21.1,14.4,,29.92
KGNA,47.745,-90.346,260,3,3.45,KGNA 132256Z AUTO 26003KT 19/14 A3009 RMK AO1 SLP187 T01890139,2024-08-13T22:56:00Z,18.9,13.9,,30.09
KGKT,35.8568,-83.5333,VRB,6,6.9,KGKT 132256Z AUTO VRB06KT 10SM SCT060 30/18 A3006 RMK A01,2024-08-13T22:56:00Z,30,18,10+,30.06
KGDV,47.14,-104.813,110,13,14.96,KGDV 132256Z AUTO 11013KT 10SM CLR 28/18 A2985 RMK AO2 SLP089 T02830178 TSNO PNO $,2024-08-13T22:56:00Z,28.3,17.8,10+,29.85
KGBD,38.3405,-98.8592,110,12,13.81,KGBD 132256Z AUTO 11012KT 10SM CLR 31/24 A2995 RMK AO2 SLPNO T03110239,2024-08-13T22:56:00Z,31.1,23.9,10+,29.95
KGAI,39.1696,-77.1653,300,5,5.75,KGAI 132256Z AUTO 30005KT 10SM FEW060 26/14 A3007 RMK AO2 SLP191 T02610144,2024-08-13T22:56:00Z,26.1,14.4,10+,30.07
KGAD,33.9686,-86.0917,340,6,6.9,KGAD 132256Z AUTO 34006KT 9SM CLR 32/21 A3004 RMK AO2 SLP169 T03170206 $,2024-08-13T22:56:00Z,31.7,20.6,9,30.04
KFSD,43.5775,-96.7539,130,9,10.36,KFSD 132256Z 13009KT 10SM FEW021 FEW036 OVC150 23/17 A3007 RMK AO2 SLP177 T02330172,2024-08-13T22:56:00Z,23.3,17.2,10+,30.07
KFOD,42.549,-94.182,130,6,6.9,KFOD 132256Z AUTO 13006KT 10SM OVC042 A3011 RMK AO2 SLPNO FZRANO $,2024-08-13T22:56:00Z,,,10+,30.11
KFNL,40.4427,-105.01,340,10,11.51,KFNL 132256Z AUTO 34010KT 10SM SCT110 18/17 A3007 RMK AO2 WSHFT 2143 LTG DSNT NE-SE TSE32RAE49 SLP134 T01830167 PNO $,2024-08-13T22:56:00Z,18.3,16.7,10+,30.07
KFLP,36.2925,-92.5851,140,3,3.45,KFLP 132256Z AUTO 14003KT 10SM OVC013 24/22 A3007 RMK AO2 SLP176 T02440222,2024-08-13T22:56:00Z,24.4,22.2,10+,30.07
KFKL,41.3806,-79.8603,300,4,4.6,KFKL 132256Z AUTO 30004KT 10SM FEW060 23/14 A3013 RMK AO2 SLP201 T02280139,2024-08-13T22:56:00Z,22.8,13.9,10+,30.13
KFCI,37.407,-77.522,230,3,3.45,KFCI 132256Z AUTO 23003KT 10SM CLR 26/19 A3005 RMK AO2 SLP185 T02610189,2024-08-13T22:56:00Z,26.1,18.9,10+,30.05
KFAM,37.7631,-90.4292,70,5,5.75,KFAM 132256Z AUTO 07005KT 10SM OVC022 23/21 A3010 RMK AO2 SLP194 T02330206,2024-08-13T22:56:00Z,23.3,20.6,10+,30.10
KEWK,38.0621,-97.275,140,9,10.36,KEWK 132256Z AUTO 14009KT 10SM SCT032 31/25 A2999 RMK AO2 SLP140 T03060250,2024-08-13T22:56:00Z,30.6,25,10+,29.99
KEUL,43.6405,-116.63,VRB,4,4.6,KEUL 132256Z AUTO VRB04KT 10SM CLR 31/08 A2987 RMK AO2 SLP089 T03060078,2024-08-13T22:56:00Z,30.6,7.8,10+,29.87
KESC,45.7225,-87.0893,140,6,6.9,KESC 132256Z AUTO 14006KT 10SM CLR 24/17 A3011 RMK AO2 SLP198 T02440172 $,2024-08-13T22:56:00Z,24.4,17.2,10+,30.11
KENV,40.7211,-114.031,110,7,8.06,KENV 132256Z AUTO 11007KT 10SM CLR 31/11 A2991 RMK AO2 SLP083 T03060111,2024-08-13T22:56:00Z,30.6,11.1,10+,29.91
KELZ,42.1077,-77.9842,330,5,5.75,KELZ 132256Z AUTO 33005KT 10SM CLR 21/13 A3014 RMK AO2 SLP202 T02060133,2024-08-13T22:56:00Z,20.6,13.3,10+,30.14
KEKY,33.314,-86.925,290,7,8.06,KEKY 132256Z AUTO 29007KT 10SM FEW060 33/20 A3004 RMK AO2 SLP019 T03280200,2024-08-13T22:56:00Z,32.8,20,10+,30.04
KEKQ,36.8576,-84.8562,360,4,4.6,KEKQ 132256Z AUTO 36004KT 10SM CLR 27/17 A3011 RMK AO2 SLP187 T02670167 PNO $,2024-08-13T22:56:00Z,26.7,16.7,10+,30.11
KEKO,40.824,-115.786,260,9,10.36,KEKO 132256Z AUTO 26009G18KT 10SM CLR 29/M07 A3001 RMK AO2 PK WND 25027/2210 SLP100 T02941072,2024-08-13T22:56:00Z,29.4,-7.2,10+,30.01
KEHR,37.8066,-87.6824,10,3,3.45,KEHR 132256Z AUTO 01003KT 10SM CLR 28/18 A3008 RMK AO2 SLP182 T02780178,2024-08-13T22:56:00Z,27.8,17.8,10+,30.08
KEGE,39.6448,-106.918,80,9,10.36,KEGE 132256Z 08009KT 10SM SCT080 BKN110 17/13 A3029 RMK AO2 SLP154 T01720128 PNO $,2024-08-13T22:56:00Z,17.2,12.8,10+,30.29
KEEN,42.898,-72.2695,0,0,0.0,KEEN 132256Z AUTO 00000KT 10SM CLR 23/17 A2998 RMK AO2 SLP154 T02330167 $,2024-08-13T22:56:00Z,23.3,16.7,10+,29.98
KEED,34.7678,-114.618,220,10,11.51,KEED 132256Z AUTO 22010G17KT 10SM OVC100 42/10 A2975 RMK AO2 SLP036 T04220100,2024-08-13T22:56:00Z,42.2,10,10+,29.75
KEAU,44.8665,-91.4881,0,0,0.0,KEAU 132256Z 00000KT 10SM CLR 26/18 A3010 RMK AO2 SLP191 T02560178,2024-08-13T22:56:00Z,25.6,17.8,10+,30.10
KEAR,40.7193,-99.0086,100,10,11.51,KEAR 132256Z AUTO 10010KT 10SM FEW024 BKN031 OVC060 27/21 A3000 RMK AO2 SLP144 T02670211,2024-08-13T22:56:00Z,26.7,21.1,10+,30.00
KDWU,38.556,-82.7375,360,3,3.45,KDWU 132256Z AUTO 36003KT 10SM OVC100 26/17 A3007 RMK AO2 SLP180 T02610167 $,2024-08-13T22:56:00Z,26.1,16.7,10+,30.07
KDVL,48.1136,-98.9034,,,,KDVL 132256Z AUTO 10SM BKN038 24/16 A3001 RMK AO2 SLP162 T02440161 $,2024-08-13T22:56:00Z,24.4,16.1,10+,30.01
KDUG,31.4725,-109.602,230,11,12.66,KDUG 132256Z AUTO 23011KT 10SM VCTS SCT085 33/13 A3005 RMK AO2 LTG DSNT ALQDS SLP101 T03280133,2024-08-13T22:56:00Z,32.8,13.3,10+,30.05
KDIK,46.7997,-102.797,130,15,17.26,KDIK 132256Z AUTO 13015G21KT 10SM CLR 26/19 A2987 RMK AO2 SLP102 T02560189,2024-08-13T22:56:00Z,25.6,18.9,10+,29.87
KDIJ,43.745,-111.091,180,5,5.75,KDIJ 132256Z AUTO 18005KT 10SM BKN100 18/11 A3015 RMK AO2 LTG DSNT W AND NW SLP168 T01780106 $,2024-08-13T22:56:00Z,17.8,10.6,10+,30.15
KDAY,39.9064,-84.2185,330,5,5.75,KDAY 132256Z 33005KT 10SM FEW055 28/15 A3010 RMK AO2 SLP186 T02780150,2024-08-13T22:56:00Z,27.8,15,10+,30.10
KD07,45.0326,-102.02,140,23,26.47,KD07 132256Z AUTO 14023G31KT 29/ A2984 RMK AO1 PK WND 13031/2254 SLP091 T0289 $,2024-08-13T22:56:00Z,28.9,,,29.84
KCXY,40.2184,-76.8552,320,6,6.9,KCXY 132256Z 32006KT 10SM FEW100 27/12 A3004 RMK AO2 SLP171 T02720122 $,2024-08-13T22:56:00Z,27.2,12.2,10+,30.04
KCWI,41.8295,-90.3328,150,4,4.6,KCWI 132256Z AUTO 15004KT 10SM CLR 27/16 A3012 RMK AO2 SLP198 T02670156,2024-08-13T22:56:00Z,26.7,15.6,10+,30.12
KCVO,44.5013,-123.293,340,6,6.9,KCVO 132256Z 34006KT 10SM CLR 23/10 A3006 RMK AO2 SLP180 T02280100,2024-08-13T22:56:00Z,22.8,10,10+,30.06
KCVN,34.4227,-103.08,160,17,19.56,KCVN 132256Z AUTO 16017G21KT 10SM CLR 35/09 A3006 RMK AO2 PK WND 15027/2206 SLP127 T03500094,2024-08-13T22:56:00Z,35,9.4,10+,30.06
KCTB,48.6036,-112.377,260,5,5.75,KCTB 132256Z AUTO 26005KT 10SM FEW120 25/07 A2989 RMK AO2 SLP096 T02500072,2024-08-13T22:56:00Z,25,7.2,10+,29.89
KCQM,47.8199,-92.6817,0,0,0.0,KCQM 132256Z AUTO 00000KT 10SM SCT065 27/12 A3010 RMK AO2,2024-08-13T22:56:00Z,27,12,10+,30.10
KCOE,47.7719,-116.833,150,12,13.81,KCOE 132256Z AUTO 15012KT 10SM CLR 24/08 A2996 RMK AO2 SLP150 T02390078 PNO $,2024-08-13T22:56:00Z,23.9,7.8,10+,29.96
KCOD,44.52,-109.027,290,4,4.6,KCOD 132256Z AUTO 29004KT 10SM CLR 20/11 A3003 RMK AO2 RAB03E25 SLP125 P0000 T02000106,2024-08-13T22:56:00Z,20,10.6,10+,30.03
KCIU,46.2531,-84.4773,350,3,3.45,KCIU 132256Z AUTO 35003KT 10SM CLR 26/12 A3011 RMK AO2 SLP193 T02610122,2024-08-13T22:56:00Z,26.1,12.2,10+,30.11
KCHS,32.8994,-80.0407,100,5,5.75,KCHS 132256Z 10005KT 9SM -RA SCT012 OVC095 27/24 A2998 RMK AO2 RAB50 TSB09E29 SLP153 P0000 T02670244,2024-08-13T22:56:00Z,26.7,24.4,9,29.98
KCEC,41.7836,-124.238,320,7,8.06,KCEC 132256Z AUTO 32007KT 10SM CLR 20/14 A3007 RMK AO2 SLP184 T02000139,2024-08-13T22:56:00Z,20,13.9,10+,30.07
KCAE,33.9422,-81.118,70,10,11.51,KCAE 132256Z 07010KT 10SM BKN033 28/22 A3000 RMK AO2 SLP157 T02780222,2024-08-13T22:56:00Z,27.8,22.2,10+,30.00
KBZN,45.7876,-111.162,270,16,18.41,KBZN 132256Z 27016G37KT 8SM VCTS RA BKN070 BKN090 OVC110 16/12 A3003 RMK AO2 PK WND 25037/2247 WSHFT 2232 LTG DSNT NW RAB49 PRESRR SLP150 P0001 T01560117,2024-08-13T22:56:00Z,15.6,11.7,8,30.03
KBVX,35.7259,-91.6517,VRB,3,3.45,KBVX 132256Z AUTO VRB03KT 10SM CLR 27/23 A3006 RMK AO2 SLP174 T02670233,2024-08-13T22:56:00Z,26.7,23.3,10+,30.06
KBTP,40.7765,-79.9568,300,5,5.75,KBTP 132256Z AUTO 30005KT 10SM BKN080 24/14 A3012 RMK AO2 SLP201 T02440139,2024-08-13T22:56:00Z,24.4,13.9,10+,30.12
KBOK,42.0754,-124.29,320,13,14.96,KBOK 132256Z AUTO 32013KT 10SM CLR 21/14 A3007 RMK AO2 SLP182 T02110139,2024-08-13T22:56:00Z,21.1,13.9,10+,30.07
KBMI,40.4777,-88.9144,90,4,4.6,KBMI 132256Z 09004KT 10SM CLR 26/14 A3013 RMK AO2 SLP198 T02610144,2024-08-13T22:56:00Z,26.1,14.4,10+,30.13
KBLM,40.1822,-74.1207,140,5,5.75,KBLM 132256Z AUTO 14005KT 10SM FEW002 23/18 A3001 RMK AO2 SLP160 T02330178 PNO $,2024-08-13T22:56:00Z,23.3,17.8,10+,30.01
KBKX,44.3075,-96.8183,160,13,14.96,KBKX 132256Z AUTO 16013G18KT 10SM FEW024 22/16 A3008 RMK AO2 SLP193 T02170161,2024-08-13T22:56:00Z,21.7,16.1,10+,30.08
KBJJ,40.8732,-81.8886,340,4,4.6,KBJJ 132256Z AUTO 34004KT 10SM FEW065 SCT080 25/16 A3012 RMK AO2 SLP195 T02500156,2024-08-13T22:56:00Z,25,15.6,10+,30.12
KBIH,37.3711,-118.359,VRB,4,4.6,KBIH 132256Z AUTO VRB04KT 10SM CLR 36/M03 A2991 RMK AO2 SLP073 T03611033,2024-08-13T22:56:00Z,36.1,-3.3,10+,29.91
KBID,41.1668,-71.5757,240,10,11.51,KBID 132256Z AUTO 24010KT 10SM CLR 22/17 A2998 RMK AO2 SLP150 T02220172 PNO $,2024-08-13T22:56:00Z,22.2,17.2,10+,29.98
KBHB,44.4549,-68.3617,0,0,0.0,KBHB 132256Z AUTO 00000KT 10SM CLR 24/17 A2987 RMK AO2 SLP117 T02390172,2024-08-13T22:56:00Z,23.9,17.2,10+,29.87
KAUO,32.617,-85.4342,320,11,12.66,KAUO 132256Z AUTO 32011KT 10SM FEW070 33/20 A3004 RMK AO2 SLP159 T03280200,2024-08-13T22:56:00Z,32.8,20,10+,30.04
KAUM,43.6688,-92.9321,190,6,6.9,KAUM 132256Z AUTO 19006KT 10SM SCT050 25/17 A3012 RMK AO2,2024-08-13T22:56:00Z,25,17,10+,30.12
KASH,42.7798,-71.5141,0,0,0.0,KASH 132256Z 00000KT 10SM CLR 25/15 A2997 RMK AO2 SLP150 HAZY T02500150,2024-08-13T22:56:00Z,25,15,10+,29.97
KART,43.9888,-76.0261,230,8,9.21,KART 132256Z AUTO 23008KT 10SM CLR 23/18 A3004 RMK AO2 SLP169 T02280183,2024-08-13T22:56:00Z,22.8,18.3,10+,30.04
KARG,36.1256,-90.9216,0,0,0.0,KARG 132256Z AUTO 00000KT 10SM CLR 28/23 A3003 RMK AO2 SLP169 T02780233,2024-08-13T22:56:00Z,27.8,23.3,10+,30.03
KAND,34.498,-82.7092,70,9,10.36,KAND 132256Z AUTO 07009KT 10SM SCT110 27/22 A3004 RMK AO2 SLP161 T02670217,2024-08-13T22:56:00Z,26.7,21.7,10+,30.04
KAJO,33.8956,-117.596,280,14,16.11,KAJO 132256Z AUTO 28014KT 10SM CLR 33/16 A2987 RMK AO2 SLP107 T03330156,2024-08-13T22:56:00Z,33.3,15.6,10+,29.87
KAIZ,38.1005,-92.5475,120,4,4.6,KAIZ 132256Z AUTO 12004KT 10SM OVC048 22/ A3008 RMK AO2 RAB07E24 SLP179 P0001 T0217,2024-08-13T22:56:00Z,21.7,,10+,30.08
KAGI,27.5461,-92.4434,60,6,6.9,KAGI 132256Z AUTO 06006KT 10SM CLR 35/23 A3002 RMK AO2 T03490230,2024-08-13T22:56:00Z,34.9,23,10+,30.02
KAFJ,40.1362,-80.2851,340,7,8.06,KAFJ 132256Z AUTO 34007KT 10SM CLR 26/11 A3013 RMK AO2 SLP198 T02560111,2024-08-13T22:56:00Z,25.6,11.1,10+,30.13
KADF,34.0953,-93.069,170,3,3.45,KADF 132256Z AUTO 17003KT 10SM CLR 34/25 A3001 RMK AO2 SLP158 T03390250,2024-08-13T22:56:00Z,33.9,25,10+,30.01
K8D3,45.669,-96.9918,140,14,16.11,K8D3 132256Z AUTO 14014G21KT 26/17 A3002 RMK AO1 SLP154 T02560167 ,2024-08-13T22:56:00Z,25.6,16.7,,30.02
K79J,31.3061,-86.3902,320,5,5.75,K79J 132256Z AUTO 32005KT 10SM CLR 35/19 A3000 RMK AO2 SLP153 T03500194 TSNO,2024-08-13T22:56:00Z,35,19.4,10+,30.00
K2WX,45.6043,-103.547,,,,K2WX 132256Z AUTO 32/16 A2982 RMK AO1 SLPNO T03170161 $,2024-08-13T22:56:00Z,31.7,16.1,,29.82
K1M4,34.2832,-87.5986,VRB,4,4.6,K1M4 132256Z AUTO VRB04KT 10SM SCT070 31/18 A3009 RMK AO2 SLP171 T03110178 $,2024-08-13T22:56:00Z,31.1,17.8,10+,30.09
TXKF,32.364,-64.679,250,10,11.51,TXKF 132255Z 25010KT 9999 -RA FEW010 BKN120 OVC170 26/24 Q1016 ,2024-08-13T22:55:00Z,26,24,6+,30.00
TNCE,17.497,-62.979,210,22,25.32,TNCE 132255Z AUTO 21022KT 180V240 //// // ///////// 27/24 Q1010 RE//,2024-08-13T22:55:00Z,27,24,,29.82
TNCB,12.133,-68.277,140,9,10.36,TNCB 132255Z 14009KT 100V200 CAVOK 30/23 Q1009,2024-08-13T22:55:00Z,30,23,6+,29.79
TJPS,18.011,-66.567,0,0,0.0,TJPS 132255Z AUTO 00000KT 10SM TS SCT009 BKN035 OVC043 28/26 A2977 RMK AO2 LTG DSNT ALQDS P0001 PWINO,2024-08-13T22:55:00Z,28,26,10+,29.77
RODN,26.356,127.768,220,6,6.9,RODN 132255Z 22006KT 10SM SCT020 BKN080 31/26 A2969 RMK AO2A SLP054 T03090259 FZRANO $,2024-08-13T22:55:00Z,30.9,25.9,10+,29.69
RKSO,37.091,127.03,70,4,4.6,RKSO 132255Z 07004KT 6SM HZ CLR 29/26 A2978 RMK AO2A SLP088 T02900260 $,2024-08-13T22:55:00Z,29,26,6,29.78
RKSG,36.962,127.031,140,3,3.45,RKSG 132255Z 14003KT 10SM CLR 29/25 A2978 RMK AO2A SLP087 T02890253 $,2024-08-13T22:55:00Z,28.9,25.3,10+,29.78
RKJK,35.9,126.618,110,5,5.75,RKJK 132255Z 11005KT 4SM HZ SCT014 28/26 A2975 RMK AO2A SLP078 T02830255 $,2024-08-13T22:55:00Z,28.3,25.5,4,29.75
RJTY,35.749,139.349,30,3,3.45,RJTY 132255Z 03003KT 10SM SCT017 SCT030 BKN150 31/27 A2980 RMK AO2A SLP089 T03120266 $,2024-08-13T22:55:00Z,31.2,26.6,10+,29.80
PWAK,19.287,166.623,60,16,18.41,PWAK 132255Z AUTO 06016KT 6SM HZ FEW190 32/23 A2998 RMK AO2 SLP155 T03180230,2024-08-13T22:55:00Z,31.8,23,6,29.98
PKMR,7.09,171.383,70,8,9.21,PKMR 132255Z 07008KT 15SM FEW014TCU SCT050 BKN120 OVC300 30/25 A2987 RMK TCU N SLP115 T03020253,2024-08-13T22:55:00Z,30.2,25.3,15,29.87
PHSF,19.758,-155.557,120,14,16.11,PHSF 132255Z AUTO 12014G19KT 9SM SCT043 SCT230 BKN260 BKN320 23/10 A3037 RMK AO2 SLP167 T02250096 $,2024-08-13T22:55:00Z,22.5,9.6,9,30.37
PHHI,21.478,-158.044,70,7,8.06,PHHI 132255Z AUTO 07007KT 10SM FEW034 FEW040 SCT170 SCT200 28/17 A3009 RMK AO2 SLP179 T02800172 $,2024-08-13T22:55:00Z,28,17.2,10+,30.09
PGUA,13.583,144.918,100,12,13.81,PGUA 132255Z AUTO 10012KT 10SM CLR 30/26 A2988 RMK AO2 SLP109 T02960261 $,2024-08-13T22:55:00Z,29.6,26.1,10+,29.88
PAWG,56.486,-132.377,250,5,5.75,PAWG 132255Z 25005KT 10SM SCT045 BKN070 18/11 A3002,2024-08-13T22:55:00Z,18,11,10+,30.02
PATL,62.893,-155.977,50,7,8.06,PATL 132255Z AUTO 05007KT 010V100 10SM OVC024 10/06 A3014 RMK AO2 SLP209 T01010062,2024-08-13T22:55:00Z,10.1,6.2,10+,30.14
PASY,52.711,174.107,130,20,23.02,PASY 132255Z 13020KT 1SM -RA BR OVC002 11/11 A2960 RMK AO2A SLP025 T01120110 PNO FZRANO $,2024-08-13T22:55:00Z,11.2,11,1,29.60
PASV,61.101,-155.577,170,5,5.75,PASV 132255Z AUTO 17005KT 10SM OVC024 10/06 A3013 RMK AO2 SLP210 T01030058,2024-08-13T22:55:00Z,10.3,5.8,10+,30.13
PALU,68.873,-166.101,100,15,17.26,PALU 132255Z AUTO 10015G20KT 330V190 4SM RA OVC011 10/08 A2958 RMK AO2 WSHFT 2204 SLP015,2024-08-13T22:55:00Z,10,8,4,29.58
PALP,70.348,-150.928,220,10,11.51,PALP 132255Z 22010KT 10SM -RA OVC050 12/08 A2978,2024-08-13T22:55:00Z,12,8,10+,29.78
PAKX,60.198,-154.323,0,0,0.0,PAKX 132255Z AUTO 00000KT 10SM BKN049 12/03 A3012 RMK AO2,2024-08-13T22:55:00Z,12,3,10+,30.12
PAIM,65.994,-153.695,VRB,5,5.75,PAIM 132255Z AUTO VRB05KT 10SM BKN030 13/07 A3000 RMK AO2 SLP162 T01270070,2024-08-13T22:55:00Z,12.7,7,10+,30.00
PAFR,61.263,-149.66,320,4,4.6,PAFR 132255Z AUTO 32004KT 10SM BKN028 BKN034 16/09 A3007 RMK AO2 SLP185 T01590093 $,2024-08-13T22:55:00Z,15.9,9.3,10+,30.07
PAFB,64.836,-147.614,220,3,3.45,PAFB 132255Z 22003KT 10SM FEW045 BKN060 BKN080 16/05 A3005 RMK AO2A SLP184 T01550045,2024-08-13T22:55:00Z,15.5,4.5,10+,30.05
PAEI,64.654,-147.094,0,0,0.0,PAEI 132255Z 00000KT 10SM BKN065 16/02 A3002 RMK AO2A SLP171 T01550020,2024-08-13T22:55:00Z,15.5,2,10+,30.02
PAEH,58.652,-162.062,340,7,8.06,PAEH 132255Z AUTO 34007KT 270V040 7SM BKN008 09/07 A3020 RMK AO2 SLP231 T00860074,2024-08-13T22:55:00Z,8.6,7.4,7,30.20
PAED,61.25,-149.837,210,4,4.6,PAED 132255Z 21004KT 10SM BKN032 15/09 A3005 RMK AO2A SLP172 T01530085 $,2024-08-13T22:55:00Z,15.3,8.5,10+,30.05
PACZ,61.776,-166.043,220,17,19.56,PACZ 132255Z AUTO 22017KT 10SM BKN004 08/07 A3000 RMK AO2 SHRAB2158E2213 SLP163 T00750070,2024-08-13T22:55:00Z,7.5,7,10+,30.00
PAAD,70.136,-146.29,240,9,10.36,PAAD 132255Z AUTO 24009KT 10SM BKN100 17/03 A2979 RMK AO2 T01650030,2024-08-13T22:55:00Z,16.5,3,10+,29.79
OTBH,25.117,51.315,160,3,3.45,OTBH 132255Z 16003KT 6000 HZ CLR 34/26 A2947 Q0998 RMK AO2A SLP979 T03370259 FZRANO $,2024-08-13T22:55:00Z,33.7,25.9,3.73,29.47
OPLA,31.522,74.404,160,4,4.6,OPLA 132255Z 16004KT 4000 FU SCT100 28/25 Q1004 NOSIG RMK QFE978 A29.65,2024-08-13T22:55:00Z,28,25,2.49,29.65
OKAS,29.347,47.521,10,6,6.9,OKAS 132255Z AUTO 01006KT 9999 CLR 36/07 A2954 RMK AO2 SLP996 T03640065 $,2024-08-13T22:55:00Z,36.4,6.5,6+,29.54
OEPS,24.063,47.581,0,0,0.0,OEPS 132255Z 00000KT 9999 CLR 33/04 A2968 RMK AO2A SLP025 WND DATA ESTMD T03330044,2024-08-13T22:55:00Z,33.3,4.4,6+,29.68
NZFX,-77.956,166.767,130,12,13.81,NZFX 132255Z 13012KT 9999 FEW060 M30/M34 A3003 RMK AO2A SLP163 LSR13 GRID30012KT SDG/HDG,2024-08-13T22:55:00Z,-30,-34,6+,30.03
NZCM,-77.85,166.667,70,18,20.71,NZCM 132255Z AUTO 07018G24KT 9999 CLR M19/M30 A2999 RMK AO2 SLP164 T11921303 $,2024-08-13T22:55:00Z,-19.2,-30.3,6+,29.99
MMZH,17.605,-101.464,0,0,0.0,MMZH 132255Z 00000KT 7SM FEW010 SCT100 SCT250 32/23 A2982 RMK 8/463 HZY DSNT TCU E MSGTX MMMX,2024-08-13T22:55:00Z,32,23,7,29.82
MMQT,20.617,-100.194,50,17,19.56,MMQT 132255Z 05017KT 10SM SCT020TCU BKN250 25/13 A3026 RMK 8/204,2024-08-13T22:55:00Z,25,13,10+,30.26
MMEP,21.418,-104.842,0,0,0.0,MMEP 132255Z 00000KT 12SM SCT090 OVC250 23/20 A3003 RMK 8/077,2024-08-13T22:55:00Z,23,20,12,30.03
MMCU,28.701,-105.965,200,4,4.6,MMCU 132255Z 20004KT 10SM BKN030CB BKN080 32/11 A3008 RMK 8/360 OCNL DROPS,2024-08-13T22:55:00Z,32,11,10+,30.08
KZPH,28.2268,-82.1564,220,3,3.45,KZPH 132255Z AUTO 22003KT 10SM CLR 30/25 A3001 RMK A02 T03000249,2024-08-13T22:55:00Z,30,24.9,10+,30.01
KZER,40.7072,-76.371,310,4,4.6,KZER 132255Z AUTO 31004KT 7SM SCT095 21/13 A3010 RMK AO2,2024-08-13T22:55:00Z,21,13,7,30.10
KY70,42.9398,-85.0653,170,3,3.45,KY70 132255Z AUTO 17003KT 10SM FEW060 26/13 A3011 RMK AO2,2024-08-13T22:55:00Z,26,13,10+,30.11
KY63,45.9891,-95.9946,150,9,10.36,KY63 132255Z AUTO 15009KT 10SM SCT060 26/16 A3007 RMK AO2 T02560162,2024-08-13T22:55:00Z,25.6,16.2,10+,30.07
KY51,43.5814,-90.8997,220,3,3.45,KY51 132255Z AUTO 22003KT 10SM SCT049 26/14 A3013 RMK AO2 T02590139,2024-08-13T22:55:00Z,25.9,13.9,10+,30.13
KY49,47.1599,-94.6433,160,8,9.21,KY49 132255Z AUTO 16008KT 10SM CLR 26/13 A3009 RMK AO2 T02560129,2024-08-13T22:55:00Z,25.6,12.9,10+,30.09
KY31,44.2434,-84.18,0,0,0.0,KY31 132255Z AUTO 00000KT 10SM BKN065 26/13 A3010 RMK AO2 T02550125,2024-08-13T22:55:00Z,25.5,12.5,10+,30.10
KY23,45.311,-91.638,180,3,3.45,KY23 132255Z AUTO 18003KT 10SM SCT049 SCT060 28/16 A3012 RMK AO2 T02780162,2024-08-13T22:55:00Z,27.8,16.2,10+,30.12
KY19,46.7648,-100.894,30,12,13.81,KY19 132255Z AUTO 03012KT 10SM VCTS OVC035 19/19 A2996 RMK AO2 LTG DSNT ALQDS,2024-08-13T22:55:00Z,19,19,10+,29.96
KXSA,37.8606,-76.9016,270,3,3.45,KXSA 132255Z AUTO 27003KT 10SM CLR 26/18 A3005 RMK AO2 T02600176,2024-08-13T22:55:00Z,26,17.6,10+,30.05
KXNO,33.612,-81.07,20,10,11.51,KXNO 132255Z AUTO 02010KT 10SM SCT022 BKN110 28/24 A2999 RMK AO2 SLP155 T02770239 $,2024-08-13T22:55:00Z,27.7,23.9,10+,29.99
KXMR,28.4674,-80.5589,140,7,8.06,KXMR 132255Z AUTO 14007KT 10SM CLR 31/24 A2995 RMK AO2 LTG DSNT NW-N SLP145 T03080244,2024-08-13T22:55:00Z,30.8,24.4,10+,29.95
KXLL,40.5704,-75.4894,330,6,6.9,KXLL 132255Z AUTO 33006KT 10SM SCT060 SCT070 25/15 A3003 RMK AO2,2024-08-13T22:55:00Z,25,15,10+,30.03
KXIF,-99.99,-99.99,90,4,4.6,KXIF 132255Z AUTO 09004KT 10SM FEW075 26/14 A3005 RMK AO2 SLP176 T02560144 $,2024-08-13T22:55:00Z,25.6,14.4,10+,30.05
KXBP,33.1729,-97.8268,160,8,9.21,KXBP 132255Z AUTO 16008G14KT 10SM CLR 38/17 A2996 RMK AO2 T03780168,2024-08-13T22:55:00Z,37.8,16.8,10+,29.96
KX60,29.3524,-82.4743,270,7,8.06,KX60 132255Z AUTO 27007KT 10SM CLR 33/24 A2999 RMK AO2 T03270240,2024-08-13T22:55:00Z,32.7,24,10+,29.99
KX26,27.813,-80.497,140,8,9.21,KX26 132255Z AUTO 14008KT 10SM CLR 31/23 A2999 RMK AO2 LTG DSNT SW AND W T03150231,2024-08-13T22:55:00Z,31.5,23.1,10+,29.99
KX07,27.8934,-81.6167,330,6,6.9,KX07 132255Z AUTO 33006KT CLR 31/25 A2999 RMK A01,2024-08-13T22:55:00Z,31,25,,29.99
KWYS,44.6811,-111.124,250,12,13.81,KWYS 132255Z AUTO 25012G30KT 4SM -RA FEW033 BKN047 OVC110 11/11 A3017 RMK AO2 P0002,2024-08-13T22:55:00Z,11,11,4,30.17
KWWR,36.4374,-99.5234,180,9,10.36,KWWR 132255Z AUTO 18009G16KT 10SM CLR 37/15 A2996 RMK AO2,2024-08-13T22:55:00Z,37,15,10+,29.96
KWRI,40.016,-74.591,340,4,4.6,KWRI 132255Z AUTO 34004KT 10SM CLR 26/13 A2998 RMK AO2 SLP151 T02630127 $,2024-08-13T22:55:00Z,26.3,12.7,10+,29.98
KWDR,33.981,-83.667,0,0,0.0,KWDR 132255Z AUTO 00000KT 10SM SCT060 31/21 A3003 RMK AO2 LTG DSNT SE,2024-08-13T22:55:00Z,31,21,10+,30.03
KW99,38.9947,-79.1421,0,0,0.0,KW99 132255Z AUTO 00000KT 10SM BKN070 BKN085 25/16 A3007 RMK AO2 T02540157,2024-08-13T22:55:00Z,25.4,15.7,10+,30.07
KW96,37.5027,-77.126,0,0,0.0,KW96 132255Z AUTO 00000KT 10SM CLR 27/17 A3004 RMK AO1 T02680171,2024-08-13T22:55:00Z,26.8,17.1,10+,30.04
KW81,37.1813,-78.0977,0,0,0.0,KW81 132255Z AUTO 00000KT 10SM CLR 24/17 A3006 RMK AO1 T02420165,2024-08-13T22:55:00Z,24.2,16.5,10+,30.06
KW78,36.7087,-78.846,0,0,0.0,KW78 132255Z AUTO 00000KT 10SM SCT034 SCT070 BKN080 25/20 A3008 RMK AO1 T02460203,2024-08-13T22:55:00Z,24.6,20.3,10+,30.08
KW75,37.6024,-76.4477,0,0,0.0,KW75 132255Z AUTO 00000KT 10SM CLR 27/18 A3004 RMK AO1 T02650176,2024-08-13T22:55:00Z,26.5,17.6,10+,30.04
KW63,36.6008,-78.5559,0,0,0.0,KW63 132255Z AUTO 00000KT 10SM BKN085 24/21 A3007 RMK AO1,2024-08-13T22:55:00Z,24,21,10+,30.07
KW43,44.6607,-104.568,0,0,0.0,KW43 132255Z AUTO 00000KT 10SM CLR 32/08 A2991 RMK AO2,2024-08-13T22:55:00Z,32,8,10+,29.91
KW31,36.9599,-78.1838,0,0,0.0,KW31 132255Z AUTO 00000KT 10SM SCT050 SCT090 24/21 A3007 RMK AO1 T02400207,2024-08-13T22:55:00Z,24,20.7,10+,30.07
KW22,39.001,-80.2712,0,0,0.0,KW22 132255Z AUTO 00000KT 10SM FEW070 OVC090 25/13 A3011 RMK AO2,2024-08-13T22:55:00Z,25,13,10+,30.11
KW13,38.077,-78.944,0,0,0.0,KW13 132255Z AUTO 00000KT 10SM SCT090 OVC100 24/14 A3010 RMK AO1 T02400141,2024-08-13T22:55:00Z,24,14.1,10+,30.10
KVYS,41.3517,-89.1496,0,0,0.0,KVYS 132255Z AUTO 00000KT 10SM SCT050 SCT060 27/16 A3011 RMK AO2 T02660159,2024-08-13T22:55:00Z,26.6,15.9,10+,30.11
KVWU,48.1502,-94.512,200,4,4.6,KVWU 132255Z AUTO 20004KT 10SM CLR 28/14 A3008 RMK AO2,2024-08-13T22:55:00Z,28,14,10+,30.08
KVVV,45.2994,-96.4256,140,9,10.36,KVVV 132255Z AUTO 14009KT 10SM CLR 24/18 A3005 RMK AO2,2024-08-13T22:55:00Z,24,18,10+,30.05
KVVS,39.9581,-79.6575,350,5,5.75,KVVS 132255Z AUTO 35005KT 10SM CLR 25/12 A3011 RMK AO2 T02470119,2024-08-13T22:55:00Z,24.7,11.9,10+,30.11
KVTP,37.512,-105.171,290,9,10.36,KVTP 132255Z AUTO 29009G16KT 10SM -RA SCT032 BKN050 OVC090 10/07 A3057 RMK AO2,2024-08-13T22:55:00Z,10,7,10+,30.57
KVTI,42.2176,-92.0248,130,4,4.6,KVTI 132255Z AUTO 13004KT 10SM CLR 26/18 A3012 RMK AO2 T02550180,2024-08-13T22:55:00Z,25.5,18,10+,30.12
KVPS,30.483,-86.526,240,9,10.36,KVPS 132255Z AUTO 24009KT 10SM -DZ BKN080 BKN095 33/24 A2999 RMK AO2 DZB53 SLP161 P0000 T03330241 $,2024-08-13T22:55:00Z,33.3,24.1,10+,29.99
KVPC,34.1158,-84.8507,0,0,0.0,KVPC 132255Z AUTO 00000KT 10SM CLR 32/18 A3003 RMK AO2,2024-08-13T22:55:00Z,32,18,10+,30.03
KVOK,43.938,-90.253,0,0,0.0,KVOK 132255Z 00000KT 10SM BKN050 BKN100 27/16 A3008 RMK AO2A SLP187 T02710161,2024-08-13T22:55:00Z,27.1,16.1,10+,30.08
KVNC,27.0728,-82.44,320,11,12.66,KVNC 132255Z AUTO 32011KT 10SM CLR 32/26 A3000 RMK AO2,2024-08-13T22:55:00Z,32,26,10+,30.00
KVLL,42.543,-83.178,70,5,5.75,KVLL 132255Z AUTO 07005KT 10SM SCT060 BKN070 26/15 A3012 RMK AO2 T02610148,2024-08-13T22:55:00Z,26.1,14.8,10+,30.12
KVKS,32.2359,-90.9269,50,4,4.6,KVKS 132255Z AUTO 05004KT 10SM CLR 36/22 A2999 RMK A01,2024-08-13T22:55:00Z,36,22,10+,29.99
KVJI,36.6871,-82.037,0,0,0.0,KVJI 132255Z AUTO 00000KT 10SM OVC065 24/17 A3011 RMK AO2 T02420171,2024-08-13T22:55:00Z,24.2,17.1,10+,30.11
KVHN,31.0602,-104.783,60,16,18.41,KVHN 132255Z AUTO 06016G23KT 10SM -TSRA OVC100 30/15 A3006 RMK AO2 LTG DSNT SE THRU W T03000150,2024-08-13T22:55:00Z,30,15,10+,30.06
KVGN,34.8494,-120.6,310,10,11.51,KVGN 132255Z AUTO 31010KT 8SM CLR 18/13 A2996 RMK AO2 SLP148 T01830134,2024-08-13T22:55:00Z,18.3,13.4,8,29.96
KVGC,42.8444,-75.5637,320,5,5.75,KVGC 132255Z AUTO 32005KT 10SM CLR 21/13 A3007 RMK AO2,2024-08-13T22:55:00Z,21,13,10+,30.07
KVES,40.2056,-84.5346,0,0,0.0,KVES 132255Z AUTO 00000KT 7SM CLR 26/13 A3011 RMK AO2,2024-08-13T22:55:00Z,26,13,7,30.11
KVER,38.9496,-92.6842,130,7,8.06,KVER 132255Z AUTO 13007KT 10SM OVC018 24/21 A3008 RMK AO2 T02440214 TSNO,2024-08-13T22:55:00Z,24.4,21.4,10+,30.08
KVDI,32.1933,-82.3642,0,0,0.0,KVDI 132255Z AUTO 00000KT 10SM BKN060 BKN085 32/22 A2998 RMK AO2,2024-08-13T22:55:00Z,32,22,10+,29.98
KVDF,28.0198,-82.3415,,,,KVDF 132255Z AUTO 10SM CLR 30/26 A3001 RMK AO2,2024-08-13T22:55:00Z,30,26,10+,30.01
KVCV,34.5933,-117.389,280,18,20.71,KVCV 132255Z AUTO 28018G24KT 10SM CLR 35/06 A2996 RMK AO2,2024-08-13T22:55:00Z,35,6,10+,29.96
KVBW,38.366,-78.968,20,4,4.6,KVBW 132255Z AUTO 02004KT 10SM SCT060 BKN070 OVC085 21/19 A3009 RMK AO1 T02120186,2024-08-13T22:55:00Z,21.2,18.6,10+,30.09
KVBG,34.733,-120.583,330,10,11.51,KVBG 132255Z 33010KT 10SM FEW003 20/14 A2998 RMK AO2A SLP154 T02030144,2024-08-13T22:55:00Z,20.3,14.4,10+,29.98
KVAF,27.3536,-94.6253,90,4,4.6,KVAF 132255Z AUTO 09004KT 9SM CLR 31/23 A3003 RMK A01,2024-08-13T22:55:00Z,31,23,9,30.03
KVAD,30.979,-83.192,340,6,6.9,KVAD 132255Z AUTO 34006KT 10SM CLR 34/21 A2996 RMK AO2 SLP145 T03420205 $,2024-08-13T22:55:00Z,34.2,20.5,10+,29.96
KUYF,39.9312,-83.465,10,5,5.75,KUYF 132255Z AUTO 01005KT 10SM CLR 27/10 A3012 RMK AO2,2024-08-13T22:55:00Z,27,10,10+,30.12
KUXL,30.135,-93.3767,210,5,5.75,KUXL 132255Z AUTO 21005KT 10SM CLR 32/25 A3001 RMK AO2 T03220254,2024-08-13T22:55:00Z,32.2,25.4,10+,30.01
KUWL,39.8752,-85.3313,40,4,4.6,KUWL 132255Z AUTO 04004KT 10SM CLR 27/14 A3011 RMK A01,2024-08-13T22:55:00Z,27,14,10+,30.11
KUVA,29.2135,-99.743,130,13,14.96,KUVA 132255Z AUTO 13013G18KT 10SM SCT090 SCT110 38/17 A2994 RMK AO2 T03830168,2024-08-13T22:55:00Z,38.3,16.8,10+,29.94
KUUV,38.2335,-91.1609,90,5,5.75,KUUV 132255Z AUTO 09005KT 10SM OVC014 23/21 A3010 RMK AO2,2024-08-13T22:55:00Z,23,21,10+,30.10
KUTA,34.6766,-90.344,0,0,0.0,KUTA 132255Z AUTO 00000KT 9SM CLR 34/23 A3002 RMK AO2 T03390232 $,2024-08-13T22:55:00Z,33.9,23.2,9,30.02
KUSE,41.6118,-84.1275,350,6,6.9,KUSE 132255Z AUTO 35006KT 10SM BKN090 25/16 A3010 RMK AO2,2024-08-13T22:55:00Z,25,16,10+,30.10
KUOX,34.3851,-89.5435,60,4,4.6,KUOX 132255Z AUTO 06004KT 10SM CLR 31/19 A3005 RMK AO2 PWINO,2024-08-13T22:55:00Z,31,19,10+,30.05
KUNU,43.4285,-88.7017,0,0,0.0,KUNU 132255Z AUTO 00000KT 10SM CLR 27/15 A3012 RMK AO2 T02710147,2024-08-13T22:55:00Z,27.1,14.7,10+,30.12
KUNI,39.2129,-82.2204,40,3,3.45,KUNI 132255Z AUTO 04003KT 10SM BKN110 28/12 A3008 RMK AO2 T02750122,2024-08-13T22:55:00Z,27.5,12.2,10+,30.08
KUMP,39.936,-86.0478,20,7,8.06,KUMP 132255Z AUTO 02007KT 10SM CLR 27/13 A3011 RMK AO2 T02730135,2024-08-13T22:55:00Z,27.3,13.5,10+,30.11
KULS,37.6037,-101.377,170,18,20.71,KULS 132255Z AUTO 17018G24KT 10SM CLR 35/17 A2992 RMK AO2,2024-08-13T22:55:00Z,35,17,10+,29.92
KULM,44.3228,-94.5024,160,7,8.06,KULM 132255Z AUTO 16007KT 10SM SCT041 SCT060 26/17 A3009 RMK AO2,2024-08-13T22:55:00Z,26,17,10+,30.09
KUKT,40.4368,-75.3802,0,0,0.0,KUKT 132255Z AUTO 00000KT 10SM FEW065 BKN095 25/14 A3002 RMK AO2,2024-08-13T22:55:00Z,25,14,10+,30.02
KUKL,38.3041,-95.7217,110,8,9.21,KUKL 132255Z AUTO 11008KT 10SM BKN025 BKN030 26/22 A3003 RMK AO2 T02630221,2024-08-13T22:55:00Z,26.3,22.1,10+,30.03
KUBE,45.5046,-91.978,170,4,4.6,KUBE 132255Z AUTO 17004KT 10SM CLR 26/16 A3013 RMK AO2,2024-08-13T22:55:00Z,26,16,10+,30.13
KU69,40.198,-110.387,140,7,8.06,KU69 132255Z AUTO 14007KT 10SM FEW041 SCT075 20/14 A3017 RMK A01,2024-08-13T22:55:00Z,20,14,10+,30.17
KU68,44.9113,-108.447,270,19,21.86,KU68 132255Z AUTO 27019G27KT 10SM CLR 25/07 A2994 RMK AO2,2024-08-13T22:55:00Z,25,7,10+,29.94
KU64,37.9333,-109.34,10,7,8.06,KU64 132255Z AUTO 01007KT 7SM -RA FEW024 SCT060 BKN090 BKN110 OVC140 21/13 A3026 RMK AO2 LTG DSNT SW AND W RAB2254 P0001 T02150128 $,2024-08-13T22:55:00Z,21.5,12.8,7,30.26
KU52,38.232,-112.672,230,12,13.81,KU52 132255Z AUTO 23012G25KT 10SM BKN100 30/04 A3005 RMK AO2 PWINO,2024-08-13T22:55:00Z,30,4,10+,30.05
KU42,40.6196,-111.99,130,12,13.81,KU42 132255Z AUTO 13012G19KT 10SM CLR 29/10 A2996 RMK AO1 T02900097,2024-08-13T22:55:00Z,29,9.7,10+,29.96
KTYQ,40.0345,-86.2488,20,4,4.6,KTYQ 132255Z AUTO 02004KT 10SM CLR 26/15 A3012 RMK AO2 T02550152,2024-08-13T22:55:00Z,25.5,15.2,10+,30.12
KTYL,34.4577,-110.112,260,4,4.6,KTYL 132255Z AUTO 26004KT 10SM FEW120 22/15 A3022 RMK AO2 LTG DSNT ALQDS,2024-08-13T22:55:00Z,22,15,10+,30.22
KTXW,26.1824,-97.9742,120,18,20.71,KTXW 132255Z AUTO 12018KT 10SM CLR 35/21 A2995 RMK AO2 T03530214,2024-08-13T22:55:00Z,35.3,21.4,10+,29.95
KTWT,37.5432,-87.9568,0,0,0.0,KTWT 132255Z AUTO 00000KT 10SM SCT060 SCT075 SCT090 28/20 A3008 RMK AO2,2024-08-13T22:55:00Z,28,20,10+,30.08
KTWM,47.0192,-91.7447,120,4,4.6,KTWM 132255Z AUTO 12004KT 10SM CLR 26/16 A3010 RMK AO2,2024-08-13T22:55:00Z,26,16,10+,30.10
KTVY,40.6127,-112.354,310,12,13.81,KTVY 132255Z AUTO 31012G21KT 5SM HZ BKN100 BKN120 26/09 A2993 RMK AO2 LTG DSNT ALQS,2024-08-13T22:55:00Z,26,9,5,29.93
KTVK,40.6832,-92.8984,80,4,4.6,KTVK 132255Z AUTO 08004KT 23/19 A3012 RMK A01,2024-08-13T22:55:00Z,23,19,,30.12
KTVI,30.9026,-83.8826,320,4,4.6,KTVI 132255Z AUTO 32004KT 10SM CLR 33/21 A3000 RMK AO2,2024-08-13T22:55:00Z,33,21,10+,30.00
KTTS,28.5987,-80.6815,220,5,5.75,KTTS 132255Z AUTO 22005KT 7SM TS FEW009 FEW029 SCT047 BKN055 BKN070 30/24 A2995 RMK AO2 TSB34 SLP146 T03020236 CHINO RWY33 $,2024-08-13T22:55:00Z,30.2,23.6,7,29.95
KTSP,35.1387,-118.442,320,20,23.02,KTSP 132255Z AUTO 32020G26KT 9SM CLR 28/03 A3008 RMK AO2,2024-08-13T22:55:00Z,28,3,9,30.08
KTQV,36.007,-78.937,VRB,5,5.75,KTQV 132255Z AUTO VRB05KT 5SM BR FEW050 BKN065 OVC075 22/20 A3007 RMK A01,2024-08-13T22:55:00Z,22,20,5,30.07
KTQS,34.633,-120.617,340,3,3.45,KTQS 132255Z AUTO 34003KT 10SM CLR 17/12 A2998 RMK AO2 SLP155 T01670124 $,2024-08-13T22:55:00Z,16.7,12.4,10+,29.98
KTQH,35.9304,-95.0025,170,8,9.21,KTQH 132255Z AUTO 17008KT 10SM CLR 34/23 A3000 RMK AO2 P0001,2024-08-13T22:55:00Z,34,23,10+,30.00
KTPF,27.9153,-82.4518,300,7,8.06,KTPF 132255Z AUTO 30007KT 10SM CLR 31/23 A3000 RMK AO2,2024-08-13T22:55:00Z,31,23,10+,30.00
KTOC,34.588,-83.2974,100,6,6.9,KTOC 132255Z AUTO 10006KT 10SM SCT048 SCT065 27/23 A3004 RMK AO2 T02720226,2024-08-13T22:55:00Z,27.2,22.6,10+,30.04
KTOB,44.0202,-92.8295,0,0,0.0,KTOB 132255Z AUTO 00000KT 10SM SCT050 25/16 A3013 RMK AO2,2024-08-13T22:55:00Z,25,16,10+,30.13
KTNU,41.6701,-93.019,140,5,5.75,KTNU 132255Z AUTO 14005KT 10SM OVC046 23/22 A3011 RMK A01,2024-08-13T22:55:00Z,23,22,10+,30.11
KTNB,36.1988,-81.6515,100,4,4.6,KTNB 132255Z AUTO 10004KT 10SM SCT065 SCT110 20/16 A3000 RMK AO2 T02030162,2024-08-13T22:55:00Z,20.3,16.2,10+,30.00
KTMT,39.4643,-117.197,230,10,11.51,KTMT 132255Z AUTO 23010G17KT 10SM CLR 28/M06 A3010 RMK AO2 T02771064,2024-08-13T22:55:00Z,27.7,-6.4,10+,30.10
KTMK,45.421,-123.814,0,0,0.0,KTMK 132255Z AUTO 00000KT 10SM BKN043 20/16 A3009 RMK AO2,2024-08-13T22:55:00Z,20,16,10+,30.09
KTME,29.806,-95.903,0,0,0.0,KTME 132255Z AUTO 00000KT 10SM FEW065 FEW075 33/25 A3001 RMK AO2,2024-08-13T22:55:00Z,33,25,10+,30.01
KTMA,31.4229,-83.4859,310,5,5.75,KTMA 132255Z AUTO 31005KT 10SM BKN065 34/20 A2999 RMK AO2 T03380196,2024-08-13T22:55:00Z,33.8,19.6,10+,29.99
KTKX,36.2226,-90.0367,200,4,4.6,KTKX 132255Z AUTO 20004KT 6SM BR CLR 28/26 A3001 RMK AO2,2024-08-13T22:55:00Z,28,26,6,30.01
KTKV,45.469,-89.805,0,0,0.0,KTKV 132255Z AUTO 00000KT 10SM CLR 28/11 A3014 RMK AO2 T02770114 PWINO,2024-08-13T22:55:00Z,27.7,11.4,10+,30.14
KTKC,44.25,-95.612,180,7,8.06,KTKC 132255Z AUTO 18007G13KT 10SM FEW048 23/19 A3009 RMK AO2,2024-08-13T22:55:00Z,23,19,10+,30.09
KTIP,40.291,-88.146,0,0,0.0,KTIP 132255Z AUTO 00000KT 10SM CLR 26/14 A3012 RMK AO2 T02600136,2024-08-13T22:55:00Z,26,13.6,10+,30.12
KTIK,35.415,-97.386,150,10,11.51,KTIK 132255Z AUTO 15010G16KT 10SM CLR 35/22 A2992 RMK AO2 SLP116 T03530222,2024-08-13T22:55:00Z,35.3,22.2,10+,29.92
KTIF,41.9646,-100.569,160,14,16.11,KTIF 132255Z AUTO 16014G18KT 10SM SCT025 BKN030 25/19 A3000 RMK AO2 T02500185,2024-08-13T22:55:00Z,25,18.5,10+,30.00
KTHA,35.3804,-86.2419,360,7,8.06,KTHA 132255Z AUTO 36007KT 10SM FEW055 28/17 A3007 RMK A01,2024-08-13T22:55:00Z,28,17,10+,30.07
KTGI,37.8279,-75.9964,0,0,0.0,KTGI 132255Z AUTO 00000KT 10SM CLR 27/17 A3004 RMK AO1 T02670165,2024-08-13T22:55:00Z,26.7,16.5,10+,30.04
KTFP,27.9132,-97.2132,170,14,16.11,KTFP 132255Z AUTO 17014G17KT 10SM CLR 35/25 A2997 RMK AO1 T03460247,2024-08-13T22:55:00Z,34.6,24.7,10+,29.97
KTEX,37.954,-107.909,130,5,5.75,KTEX 132255Z AUTO 13005KT 10SM SCT010 BKN065 OVC085 13/10 A3045 RMK AO2,2024-08-13T22:55:00Z,13,10,10+,30.45
KTEW,42.5636,-84.4222,0,0,0.0,KTEW 132255Z AUTO 00000KT 10SM CLR 24/16 A3011 RMK AO2 T02360156,2024-08-13T22:55:00Z,23.6,15.6,10+,30.11
KTCY,37.6919,-121.444,300,12,13.81,KTCY 132255Z AUTO 30012G20KT 10SM CLR 33/00 A2990 RMK A01,2024-08-13T22:55:00Z,33,0,10+,29.90
KTCM,47.149,-122.475,300,8,9.21,KTCM 132255Z AUTO 30008KT 10SM OVC037 22/12 A3004 RMK AO2 SLP175 T02160116 $,2024-08-13T22:55:00Z,21.6,11.6,10+,30.04
KTBR,32.48,-81.738,30,8,9.21,KTBR 132255Z AUTO 03008G14KT 10SM BKN065 31/23 A2997 RMK AO2 T03050226,2024-08-13T22:55:00Z,30.5,22.6,10+,29.97
KTBN,37.7445,-92.1447,0,0,0.0,KTBN 132255Z AUTO 00000KT 9SM +RA BR BKN005 BKN014 OVC065 23/22 A3007 RMK AO2 RAE21DZB21E25DZB47E49RAB49 SLP176 P0014 T02260217,2024-08-13T22:55:00Z,22.6,21.7,9,30.07
KTAZ,39.535,-89.3294,100,4,4.6,KTAZ 132255Z AUTO 10004KT 10SM OVC040 25/17 A3011 RMK AO2 T02500171,2024-08-13T22:55:00Z,25,17.1,10+,30.11
KT89,29.2774,-103.691,VRB,4,4.6,KT89 132255Z AUTO VRB04KT 10SM CLR 39/09 A2988 RMK A01,2024-08-13T22:55:00Z,39,9,10+,29.88
KT82,30.239,-98.904,180,9,10.36,KT82 132255Z AUTO 18009G16KT 10SM SCT070 35/18 A3001 RMK AO2 T03460180,2024-08-13T22:55:00Z,34.6,18,10+,30.01
KT74,30.5704,-97.4447,140,11,12.66,KT74 132255Z AUTO 14011KT 10SM CLR 36/21 A2997 RMK AO2 T03560213,2024-08-13T22:55:00Z,35.6,21.3,10+,29.97
KT70,29.117,-100.473,110,11,12.66,KT70 132255Z AUTO 11011KT M M M 40/16 A2988 RMK AO2 LTG DSNT W SLP102 T03950164 RVRNO $,2024-08-13T22:55:00Z,39.5,16.4,,29.88
KT69,28.0418,-97.541,150,15,17.26,KT69 132255Z AUTO 15015KT 9SM CLR 33/25 A2997 RMK A01,2024-08-13T22:55:00Z,33,25,9,29.97
KT41,29.6709,-95.0644,110,8,9.21,KT41 132255Z AUTO 11008KT 10SM CLR 33/23 A3000 RMK AO2 T03320230,2024-08-13T22:55:00Z,33.2,23,10+,30.00
KT35,30.8789,-96.9704,140,6,6.9,KT35 132255Z AUTO 14006KT 10SM BKN060 35/23 A2997 RMK AO2 T03450226,2024-08-13T22:55:00Z,34.5,22.6,10+,29.97
KT20,29.5301,-97.463,160,10,11.51,KT20 132255Z AUTO 16010KT 10SM SCT060 35/23 A2997 RMK AO2 T03490234,2024-08-13T22:55:00Z,34.9,23.4,10+,29.97
KSZY,35.2064,-88.5012,0,0,0.0,KSZY 132255Z AUTO 00000KT 10SM CLR 31/20 A3005 RMK A01,2024-08-13T22:55:00Z,31,20,10+,30.05
KSZT,48.2945,-116.567,260,6,6.9,KSZT 132255Z AUTO 26006KT 10SM CLR 27/07 A2991 RMK AO2,2024-08-13T22:55:00Z,27,7,10+,29.91
KSZL,38.736,-93.55,120,6,6.9,KSZL 132255Z 12006KT 10SM OVC011 24/20 A3005 RMK AO2A SLP173 T02350204 CHINO RWY01 $,2024-08-13T22:55:00Z,23.5,20.4,10+,30.05
KSYN,44.474,-93.014,150,5,5.75,KSYN 132255Z AUTO 15005KT 10SM CLR 27/14 A3011 RMK AO2 T02670138,2024-08-13T22:55:00Z,26.7,13.8,10+,30.11
KSYM,38.2199,-83.5835,0,0,0.0,KSYM 132255Z AUTO 00000KT 10SM OVC080 27/13 A3010 RMK AO2,2024-08-13T22:55:00Z,27,13,10+,30.10
KSYI,35.5594,-86.4406,350,8,9.21,KSYI 132255Z AUTO 35008KT 10SM CLR 29/17 A3007 RMK A01,2024-08-13T22:55:00Z,29,17,10+,30.07
KSYF,39.7583,-101.793,140,13,14.96,KSYF 132255Z AUTO 14013G17KT 10SM BKN048 31/19 A2996 RMK AO2,2024-08-13T22:55:00Z,31,19,10+,29.96
KSXS,31.364,-85.846,20,6,6.9,KSXS 132255Z AUTO 02006KT 10SM CLR 34/20 A2997 RMK AO2 SLP146 T03410201 $,2024-08-13T22:55:00Z,34.1,20.1,10+,29.97
KSXK,42.9895,-96.1645,120,10,11.51,KSXK 132255Z AUTO 12010KT 10SM FEW024 FEW041 23/19 A3004 RMK AO2,2024-08-13T22:55:00Z,23,19,10+,30.04
KSWW,32.4688,-100.467,150,9,10.36,KSWW 132255Z AUTO 15009G15KT 10SM 38/12 A3000 RMK AO2 T03810116,2024-08-13T22:55:00Z,38.1,11.6,10+,30.00
KSVN,32.011,-81.131,280,5,5.75,KSVN 132255Z 28005KT 10SM FEW060 FEW070 SCT100 34/21 A2991 RMK AO2A SLP131 T03400210 $,2024-08-13T22:55:00Z,34,21,10+,29.91
KSVC,32.631,-108.147,250,9,10.36,KSVC 132255Z AUTO 25009KT 10SM TS SCT070 SCT090 SCT110 27/10 A3015 RMK AO2 LTG DSNT N NE AND S T02710095,2024-08-13T22:55:00Z,27.1,9.5,10+,30.15
KSUZ,34.5862,-92.4802,30,12,13.81,KSUZ 132255Z AUTO 03012KT 8SM FEW055 SCT065 33/25 A3002 RMK A01,2024-08-13T22:55:00Z,33,25,8,30.02
KSUW,46.6833,-92.0926,80,6,6.9,KSUW 132255Z AUTO 08006KT 10SM CLR 26/16 A3009 RMK AO2 T02600162,2024-08-13T22:55:00Z,26,16.2,10+,30.09
KSUU,38.25,-121.938,230,13,14.96,KSUU 132255Z AUTO 23013KT 10SM CLR 32/07 A2989 RMK AO2 SLP128 T03240072 $,2024-08-13T22:55:00Z,32.4,7.2,10+,29.89
KSUN,43.4969,-114.292,180,10,11.51,KSUN 132255Z 18010G18KT 140V220 10SM CLR 25/03 A3001,2024-08-13T22:55:00Z,25,3,10+,30.01
KSTK,40.6133,-103.261,100,12,13.81,KSTK 132255Z AUTO 10012KT 10SM SCT065 32/16 A2995 RMK AO2 LTG DSNT N,2024-08-13T22:55:00Z,32,16,10+,29.95
KSTF,33.4326,-88.8506,0,0,0.0,KSTF 132255Z AUTO 00000KT 10SM CLR 33/20 A3001 RMK AO2,2024-08-13T22:55:00Z,33,20,10+,30.01
KSTE,44.5437,-89.5347,0,0,0.0,KSTE 132255Z AUTO 00000KT 10SM 28/16 A3012 RMK AO2 T02800157,2024-08-13T22:55:00Z,28,15.7,10+,30.12
KSSI,31.1527,-81.3905,180,10,11.51,KSSI 132255Z AUTO 18010KT 10SM BKN110 31/28 A2995 RMK AO2,2024-08-13T22:55:00Z,31,28,10+,29.95
KSSC,33.978,-80.466,50,9,10.36,KSSC 132255Z 05009KT 10SM FEW040 BKN130 27/23 A3000 RMK A02A SLP158 T02720226,2024-08-13T22:55:00Z,27.2,22.6,10+,30.00
KSRR,33.4667,-105.528,150,11,12.66,KSRR 132255Z AUTO 15011KT 10SM CLR 26/08 A3027 RMK AO2,2024-08-13T22:55:00Z,26,8,10+,30.27
KSRE,35.271,-96.675,170,9,10.36,KSRE 132255Z AUTO 17009G15KT 130V210 10SM CLR 34/22 A2997 RMK AO2,2024-08-13T22:55:00Z,34,22,10+,29.97
KSPK,40.1497,-111.677,120,19,21.86,KSPK 132255Z AUTO 12019G24KT 10SM FEW050 FEW060 SCT075 28/14 A2996 RMK AO2 LTG DSNT ALQDS,2024-08-13T22:55:00Z,28,14,10+,29.96
KSPF,44.4811,-103.788,90,8,9.21,KSPF 132255Z AUTO 09008KT 10SM CLR 30/14 A2991 RMK AO2,2024-08-13T22:55:00Z,30,14,10+,29.91
KSPA,34.9106,-81.9589,30,4,4.6,KSPA 132255Z AUTO 03004KT 10SM SCT020 BKN029 OVC120 24/20 A3006 RMK AO2,2024-08-13T22:55:00Z,24,20,10+,30.06
KSOW,34.2686,-110.002,220,9,10.36,KSOW 132255Z AUTO 22009KT 10SM FEW120 24/13 A3026 RMK AO2 LTG DSNT ALQDS,2024-08-13T22:55:00Z,24,13,10+,30.26
KSOA,30.5853,-100.651,130,10,11.51,KSOA 132255Z AUTO 13010G18KT 10SM CLR 37/15 A3003 RMK AO2,2024-08-13T22:55:00Z,37,15,10+,30.03
KSNK,32.6917,-100.951,150,10,11.51,KSNK 132255Z AUTO 15010G18KT 10SM CLR 38/12 A2998 RMK AO2 T03750123,2024-08-13T22:55:00Z,37.5,12.3,10+,29.98
KSNC,41.383,-72.506,0,0,0.0,KSNC 132255Z AUTO 00000KT 10SM FEW060 24/17 A2999 RMK AO2,2024-08-13T22:55:00Z,24,17,10+,29.99
KSMS,34.0003,-80.3582,30,7,8.06,KSMS 132255Z AUTO 03007KT 9SM SCT041 BKN055 26/23 A3003 RMK AO2,2024-08-13T22:55:00Z,26,23,9,30.03
KSME,37.0529,-84.6141,VRB,4,4.6,KSME 132255Z AUTO VRB04KT 10SM CLR 28/16 A3008 RMK AO2,2024-08-13T22:55:00Z,28,16,10+,30.08
KSMD,41.144,-85.1492,320,4,4.6,KSMD 132255Z AUTO 32004KT 7SM BKN060 BKN070 BKN080 30/15 A3011 RMK A01,2024-08-13T22:55:00Z,30,15,7,30.11
KSLR,33.1615,-95.6189,140,5,5.75,KSLR 132255Z AUTO 14005KT 10SM BKN055 36/21 A3001 RMK AO2 T03590207,2024-08-13T22:55:00Z,35.9,20.7,10+,30.01
KSLO,38.6446,-88.9612,0,0,0.0,KSLO 132255Z AUTO 00000KT 10SM BKN045 26/19 A3010 RMK AO2 T02630192,2024-08-13T22:55:00Z,26.3,19.2,10+,30.10
KSLI,33.796,-118.042,220,11,12.66,KSLI 132255Z 22011KT 10SM CLR 27/18 A2986 RMK AO2A SLP114 T02720176,2024-08-13T22:55:00Z,27.2,17.6,10+,29.86
KSLH,45.6523,-84.5202,360,3,3.45,KSLH 132255Z AUTO 36003KT 10SM CLR 25/14 A3010 RMK AO2,2024-08-13T22:55:00Z,25,14,10+,30.10
KSLB,42.5972,-95.2399,130,10,11.51,KSLB 132255Z AUTO 13010KT FEW022 FEW031 SCT042 22/19 A3009 RMK AO2,2024-08-13T22:55:00Z,22,19,,30.09
KSKF,29.392,-98.581,130,9,10.36,KSKF 132255Z AUTO 13009KT 10SM FEW075 39/18 A2992 RMK AO2 SLP122 T03870180 $,2024-08-13T22:55:00Z,38.7,18,10+,29.92
KSJX,45.6928,-85.5662,240,7,8.06,KSJX 132255Z AUTO 24007KT 10SM CLR 24/15 A3013 RMK AO2 T02380151,2024-08-13T22:55:00Z,23.8,15.1,10+,30.13
KSJS,37.7489,-82.6413,360,3,3.45,KSJS 132255Z AUTO 36003KT 10SM CLR 28/12 A3009 RMK AO2 T02750122,2024-08-13T22:55:00Z,27.5,12.2,10+,30.09
KSIK,36.9027,-89.5577,80,4,4.6,KSIK 132255Z AUTO 08004KT 3SM -RA BR OVC095 25/23 A3004 RMK AO2 P0001 T02500233,2024-08-13T22:55:00Z,25,23.3,3,30.04
KSHM,38.8,-104.52,160,17,19.56,KSHM 132255Z AUTO 16017KT 10SM VCTS SCT090 BKN110 24/12 A3008 RMK AO2 PK WND 16031/38 RAB05E15RAB17E31 SLP104 P0000 T02430119 $,2024-08-13T22:55:00Z,24.3,11.9,10+,30.08
KSHL,43.2082,-95.8354,140,8,9.21,KSHL 132255Z AUTO 14008KT 10SM CLR 23/19 A3006 RMK AO2,2024-08-13T22:55:00Z,23,19,10+,30.06
KSHD,38.2601,-78.9013,0,0,0.0,KSHD 132255Z AUTO 00000KT 10SM BKN090 OVC110 24/15 A3011 RMK AO2 T02410153,2024-08-13T22:55:00Z,24.1,15.3,10+,30.11
KSGS,44.8601,-93.0321,140,6,6.9,KSGS 132255Z AUTO 14006KT 10SM CLR 27/12 A3010 RMK AO2 T02710121,2024-08-13T22:55:00Z,27.1,12.1,10+,30.10
KSFQ,36.6825,-76.6013,220,5,5.75,KSFQ 132255Z AUTO 22005KT 10SM 27/19 A3005 RMK AO2 T02650190,2024-08-13T22:55:00Z,26.5,19,10+,30.05
KSEZ,34.8467,-111.788,150,10,11.51,KSEZ 132255Z AUTO 15010G21KT 130V190 10SM SCT085 SCT110 29/16 A3010 RMK AO2,2024-08-13T22:55:00Z,29,16,10+,30.10
KSEQ,29.566,-97.908,100,11,12.66,KSEQ 132255Z AUTO 10011KT 10SM FEW260 35/23 A2993 RMK AO2 SLP129 T03520231,2024-08-13T22:55:00Z,35.2,23.1,10+,29.93
KSEP,32.215,-98.1793,170,7,8.06,KSEP 132255Z AUTO 17007G14KT 140V200 10SM CLR 37/17 A3000 RMK AO2 T03660167,2024-08-13T22:55:00Z,36.6,16.7,10+,30.00
KSEF,27.4553,-81.3415,0,0,0.0,KSEF 132255Z AUTO 00000KT 33/24 A2998 RMK AO2 PWINO T03340239,2024-08-13T22:55:00Z,33.4,23.9,,29.98
KSDC,43.2355,-77.1201,0,0,0.0,KSDC 132255Z AUTO 00000KT 10SM CLR 23/15 A3008 RMK AO2,2024-08-13T22:55:00Z,23,15,10+,30.08
KSCX,36.4553,-84.584,320,4,4.6,KSCX 132255Z AUTO 32004KT 10SM SCT055 25/16 A3011 RMK A01,2024-08-13T22:55:00Z,25,16,10+,30.11
KSCK,37.89,-121.226,290,9,10.36,KSCK 132255Z 29009KT 10SM CLR 33/07 A2991 RMK AO2 SLP127 T03280067,2024-08-13T22:55:00Z,32.8,6.7,10+,29.91
KSCD,33.1732,-86.2933,330,3,3.45,KSCD 132255Z AUTO 33003KT 10SM SCT075 BKN095 OVC120 33/19 A3003 RMK AO2 T03270194,2024-08-13T22:55:00Z,32.7,19.4,10+,30.03
KSBX,48.541,-111.871,250,11,12.66,KSBX 132255Z AUTO 25011G16KT 10SM CLR 27/07 A2989 RMK AO2 LTG DSNT NW,2024-08-13T22:55:00Z,27,7,10+,29.89
KSBS,40.5153,-106.868,100,7,8.06,KSBS 132255Z AUTO 10007KT 10SM BKN110 19/11 A3023 RMK AO1 T01880108,2024-08-13T22:55:00Z,18.8,10.8,10+,30.23
KSBO,32.6111,-82.3702,0,0,0.0,KSBO 132255Z AUTO 00000KT 10SM SCT110 33/19 A2999 RMK AO2,2024-08-13T22:55:00Z,33,19,10+,29.99
KSAZ,46.3785,-94.8017,140,6,6.9,KSAZ 132255Z AUTO 14006KT 10SM CLR 26/12 A3010 RMK AO2,2024-08-13T22:55:00Z,26,12,10+,30.10
KSAR,38.1463,-89.7025,100,4,4.6,KSAR 132255Z AUTO 10004KT 10SM BKN039 BKN075 25/20 A3009 RMK AO2 T02510204,2024-08-13T22:55:00Z,25.1,20.4,10+,30.09
KSAA,41.447,-106.815,200,14,16.11,KSAA 132255Z AUTO 20014G18KT 10SM CLR 23/06 A3019 RMK AO2,2024-08-13T22:55:00Z,23,6,10+,30.19
KS52,48.4282,-120.15,150,5,5.75,KS52 132255Z AUTO 15005KT 10SM CLR 29/10 A2987 RMK AO2 T02950096,2024-08-13T22:55:00Z,29.5,9.6,10+,29.87
KS39,44.2858,-120.901,330,12,13.81,KS39 132255Z AUTO 33012G17KT 10SM CLR 24/01 A3000 RMK AO2,2024-08-13T22:55:00Z,24,1,10+,30.00
KS34,47.4718,-114.901,0,0,0.0,KS34 132255Z AUTO 00000KT 10SM BKN110 23/14 A2993 RMK AO2,2024-08-13T22:55:00Z,23,14,10+,29.93
KS33,44.6653,-121.157,300,7,8.06,KS33 132255Z AUTO 30007KT 10SM CLR 23/02 A3000 RMK AO2,2024-08-13T22:55:00Z,23,2,10+,30.00
KS32,47.424,-98.11,150,12,13.81,KS32 132255Z AUTO 15012G18KT 10SM 25/17 A3003 RMK AO2 TSNO,2024-08-13T22:55:00Z,25,17,10+,30.03
KS25,47.7954,-103.257,160,8,9.21,KS25 132255Z AUTO 16008G16KT 10SM CLR 25/19 A2989 RMK AO2,2024-08-13T22:55:00Z,25,19,10+,29.89
KS24,41.296,-83.037,50,6,6.9,KS24 132255Z AUTO 05006KT 10SM CLR 25/16 A3011 RMK AO2,2024-08-13T22:55:00Z,25,16,10+,30.11
KS21,43.8801,-121.454,260,7,8.06,KS21 132255Z AUTO 26007G15KT 7SM CLR 21/03 A3009 RMK AO2,2024-08-13T22:55:00Z,21,3,7,30.09
KS12,44.6394,-123.058,300,6,6.9,KS12 132255Z 30006KT 10SM FEW055 23/09 A3005 RMK AO2 CAUTION/ LG BIRDS IN VICINITY OF AIRPORT,2024-08-13T22:55:00Z,23,9,10+,30.05
KRZT,39.4402,-83.0209,50,3,3.45,KRZT 132255Z AUTO 05003KT 10SM BKN080 OVC100 25/12 A3009 RMK AO2 PWINO,2024-08-13T22:55:00Z,25,12,10+,30.09
KRZR,35.207,-84.8005,VRB,5,5.75,KRZR 132255Z AUTO VRB05KT 10SM CLR 30/18 A3003 RMK A01,2024-08-13T22:55:00Z,30,18,10+,30.03
KRZL,40.9488,-87.1851,0,0,0.0,KRZL 132255Z AUTO 00000KT 10SM SCT050 SCT060 26/15 A3012 RMK AO2,2024-08-13T22:55:00Z,26,15,10+,30.12
KRYW,30.498,-97.969,150,7,8.06,KRYW 132255Z AUTO 15007KT 10SM SCT060 34/20 A3003 RMK AO2 T03400200,2024-08-13T22:55:00Z,34,20,10+,30.03
KRYM,46.0878,-94.353,170,7,8.06,KRYM 132255Z AUTO 17007KT 10SM CLR 27/12 A3007 RMK AO2 SLP184 T02660119 $,2024-08-13T22:55:00Z,26.6,11.9,10+,30.07
KRWV,30.5161,-96.7051,130,10,11.51,KRWV 132255Z AUTO 13010KT 10SM CLR 34/23 A2999 RMK AO2 T03380226,2024-08-13T22:55:00Z,33.8,22.6,10+,29.99
KRVL,40.6768,-77.6251,290,3,3.45,KRVL 132255Z AUTO 29003KT 10SM FEW100 24/16 A3006 RMK AO2,2024-08-13T22:55:00Z,24,16,10+,30.06
KRVJ,32.059,-82.153,0,0,0.0,KRVJ 132255Z AUTO 00000KT 10SM CLR 32/22 A2996 RMK AO2 T03250221,2024-08-13T22:55:00Z,32.5,22.1,10+,29.96
KRVF,45.534,-112.303,30,11,12.66,KRVF 132255Z AUTO 03011KT 10SM CLR 15/12 A3006 RMK AO2 P0008,2024-08-13T22:55:00Z,15,12,10+,30.06
KRTS,39.6658,-119.873,230,14,16.11,KRTS 132255Z AUTO 23014G21KT 10SM CLR 28/M04 A3008 RMK AO2,2024-08-13T22:55:00Z,28,-4,10+,30.08
KRSN,32.5159,-92.5899,0,0,0.0,KRSN 132255Z AUTO 00000KT 10SM 35/25 A2999 RMK AO2 T03450253 $,2024-08-13T22:55:00Z,34.5,25.3,10+,29.99
KRRT,48.9318,-95.3405,60,6,6.9,KRRT 132255Z AUTO 06006KT 10SM CLR 25/20 A3007 RMK AO2,2024-08-13T22:55:00Z,25,20,10+,30.07
KRQB,43.722,-85.498,100,3,3.45,KRQB 132255Z AUTO 10003KT 10SM CLR 27/11 A3012 RMK AO2 T02670109,2024-08-13T22:55:00Z,26.7,10.9,10+,30.12
KRPJ,41.8906,-89.0817,0,0,0.0,KRPJ 132255Z AUTO 00000KT 10SM CLR 27/15 A3012 RMK AO2 T02650146,2024-08-13T22:55:00Z,26.5,14.6,10+,30.12
KRPH,33.1096,-98.5537,150,6,6.9,KRPH 132255Z AUTO 15006G18KT 120V200 10SM CLR 38/17 A2992 RMK AO2 T03840170,2024-08-13T22:55:00Z,38.4,17,10+,29.92
KRPD,45.4186,-91.7764,250,3,3.45,KRPD 132255Z AUTO 25003KT 7SM CLR 27/15 A3013 RMK AO2 T02690147,2024-08-13T22:55:00Z,26.9,14.7,7,30.13
KROX,48.856,-95.6949,180,5,5.75,KROX 132255Z AUTO 18005KT 10SM CLR 28/13 A3006 RMK AO2,2024-08-13T22:55:00Z,28,13,10+,30.06
KROS,45.6962,-92.9543,190,3,3.45,KROS 132255Z AUTO 19003KT 10SM CLR 26/14 A3011 RMK AO2 T02550144,2024-08-13T22:55:00Z,25.5,14.4,10+,30.11
KRNV,33.762,-90.759,30,5,5.75,KRNV 132255Z AUTO 03005KT 9SM CLR 32/23 A3002 RMK AO2 T03240231 $,2024-08-13T22:55:00Z,32.4,23.1,9,30.02
KRNP,42.9937,-84.1347,320,3,3.45,KRNP 132255Z AUTO 32003KT 10SM CLR 26/15 A3011 RMK AO2 T02610150,2024-08-13T22:55:00Z,26.1,15,10+,30.11
KRNO,39.5077,-119.768,270,17,19.56,KRNO 132255Z 27017G26KT 10SM FEW100 FEW250 31/M01 A3001 RMK AO2 PK WND 27028/2245 SLP109 T03061006,2024-08-13T22:55:00Z,30.6,-0.6,10+,30.01
KRND,29.537,-98.268,130,11,12.66,KRND 132255Z AUTO 13011G19KT 10SM CLR 37/18 A2993 RMK AO2 SLP125 T03690184,2024-08-13T22:55:00Z,36.9,18.4,10+,29.93
KRNC,35.6991,-85.8402,360,6,6.9,KRNC 132255Z AUTO 36006KT 10SM CLR 27/18 A3008 RMK A01,2024-08-13T22:55:00Z,27,18,10+,30.08
KRMY,42.2524,-84.9526,0,0,0.0,KRMY 132255Z AUTO 00000KT 10SM SCT055 BKN090 24/18 A3011 RMK AO2 T02370179,2024-08-13T22:55:00Z,23.7,17.9,10+,30.11
KRMN,38.3941,-77.4523,0,0,0.0,KRMN 132255Z AUTO 00000KT 10SM CLR 27/10 A3005 RMK AO2 T02710101,2024-08-13T22:55:00Z,27.1,10.1,10+,30.05
KRLD,46.3086,-119.306,190,10,11.51,KRLD 132255Z AUTO 19010G14KT 10SM CLR 29/08 A2988 RMK AO2 T02920075,2024-08-13T22:55:00Z,29.2,7.5,10+,29.88
KRKW,35.922,-84.689,VRB,5,5.75,KRKW 132255Z AUTO VRB05KT 10SM CLR 26/17 A3011 RMK A01,2024-08-13T22:55:00Z,26,17,10+,30.11
KRKR,35.0187,-94.6202,140,4,4.6,KRKR 132255Z AUTO 14004KT 10SM SCT050 36/23 A2998 RMK AO2,2024-08-13T22:55:00Z,36,23,10+,29.98
KRIV,33.878,-117.244,310,10,11.51,KRIV 132255Z AUTO 31010G17KT 10SM CLR 35/11 A2991 RMK AO2 SLP113 T03500107,2024-08-13T22:55:00Z,35,10.7,10+,29.91
KRGK,44.5927,-92.4844,0,0,0.0,KRGK 132255Z AUTO 00000KT 10SM CLR 28/14 A3009 RMK AO2,2024-08-13T22:55:00Z,28,14,10+,30.09
KRGA,37.6305,-84.329,0,0,0.0,KRGA 132255Z AUTO 00000KT 10SM BKN075 26/16 A3011 RMK AO2,2024-08-13T22:55:00Z,26,16,10+,30.11
KRFI,32.1441,-94.8539,200,4,4.6,KRFI 132255Z AUTO 20004KT 10SM SCT055 39/22 A3000 RMK AO2 T03860220 PWINO,2024-08-13T22:55:00Z,38.6,22,10+,30.00
KREG,30.1756,-90.9397,70,3,3.45,KREG 132255Z AUTO 07003KT 10SM SCT080 33/24 A3000 RMK AO2 T03320239,2024-08-13T22:55:00Z,33.2,23.9,10+,30.00
KRDR,47.9477,-97.4029,130,8,9.21,KRDR 132255Z AUTO 13008KT 10SM SCT048 27/16 A2999 RMK AO2 SLP159 T02710158 $,2024-08-13T22:55:00Z,27.1,15.8,10+,29.99
KRDK,41.0107,-95.2622,140,6,6.9,KRDK 132255Z AUTO 14006KT 10SM OVC040 25/20 A3006 RMK AO2,2024-08-13T22:55:00Z,25,20,10+,30.06
KRCX,45.4935,-90.9985,210,3,3.45,KRCX 132255Z AUTO 21003KT 10SM CLR 27/14 A3014 RMK AO2 T02660144,2024-08-13T22:55:00Z,26.6,14.4,10+,30.14
KRCV,37.7092,-106.355,320,3,3.45,KRCV 132255Z AUTO 32003KT 10SM SCT120 24/09 A3027 RMK AO2 LTG DSNT ALQDS T02370086,2024-08-13T22:55:00Z,23.7,8.6,10+,30.27
KRCR,41.0651,-86.1864,0,0,0.0,KRCR 132255Z AUTO 00000KT 10SM CLR 27/14 A3011 RMK AO2,2024-08-13T22:55:00Z,27,14,10+,30.11
KRCM,38.7855,-93.8058,110,5,5.75,KRCM 132255Z AUTO 11005KT 10SM OVC009 22/20 A3007 RMK AO2,2024-08-13T22:55:00Z,22,20,10+,30.07
KRCE,35.4971,-97.8255,140,13,14.96,KRCE 132255Z AUTO 14013G19KT 10SM CLR 36/22 A2994 RMK AO2,2024-08-13T22:55:00Z,36,22,10+,29.94
KRCA,44.155,-103.118,180,12,13.81,KRCA 132255Z AUTO 18012KT 10SM CLR 34/13 A2983 RMK AO2 SLP072 T03350125 $,2024-08-13T22:55:00Z,33.5,12.5,10+,29.83
KRBW,32.921,-80.64,0,0,0.0,KRBW 132255Z AUTO 00000KT 10SM BKN055 BKN065 24/24 A3001 RMK AO2 LTG DSNT E AND SE,2024-08-13T22:55:00Z,24,24,10+,30.01
KRBO,27.7781,-97.6878,140,14,16.11,KRBO 132255Z AUTO 14014G18KT CLR 33/24 A2997 RMK AO2 T03300243 PWINO,2024-08-13T22:55:00Z,33,24.3,,29.97
KRAW,38.3484,-93.3436,110,3,3.45,KRAW 132255Z AUTO 11003KT 10SM SCT006 OVC019 22/21 A3008 RMK AO2,2024-08-13T22:55:00Z,22,21,10+,30.08
KRAS,27.8083,-97.0853,120,11,12.66,KRAS 132255Z AUTO 12011KT 10SM CLR 32/25 A3000 RMK AO2 T03210251,2024-08-13T22:55:00Z,32.1,25.1,10+,30.00
KQRH,-99.99,-99.99,0,0,0.0,KQRH 132255Z AUTO 00000KT 9999 BKN090 33/26 A2957 RMK AO2 LTG DSNT N AND E SLP016 WND DATA ESTMD T03280255,2024-08-13T22:55:00Z,32.8,25.5,6+,29.57
KQHY,-99.99,-99.99,250,3,3.45,KQHY 132255Z AUTO 25003KT 10SM BKN085 32/24 A3000 RMK AO2 SLP166 T03240244,2024-08-13T22:55:00Z,32.4,24.4,10+,30.00
KQDG,-99.99,-99.99,170,3,3.45,KQDG 132255Z AUTO 17003KT 9999 OVC005 25/24 A2972 RMK AO2 SLP066 T02460239 PWINO $,2024-08-13T22:55:00Z,24.6,23.9,6+,29.72
KQD3,-99.99,-99.99,0,0,0.0,KQD3 132255Z 00000KT 9999 FEW090 33/23 A2966 RMK AO2A LTG DSNT SW SLP028 WND DATA ESTMD T03340227 404200283,2024-08-13T22:55:00Z,33.4,22.7,6+,29.66
KQBR,-99.99,-99.99,VRB,6,6.9,KQBR 132255Z AUTO VRB06KT 10SM VCTS SCT065 BKN150 29/14 A2995 RMK AO2 SLP031 WND DATA ESTMD T02860136,2024-08-13T22:55:00Z,28.6,13.6,10+,29.95
KPZZ,28.4344,-91.0344,0,0,0.0,KPZZ 132255Z AUTO 00000KT 10SM CLR 33/24 A3003 RMK A01,2024-08-13T22:55:00Z,33,24,10+,30.03
KPZQ,45.4085,-83.812,0,0,0.0,KPZQ 132255Z AUTO 00000KT 10SM CLR 22/14 A3012 RMK AO2 T02190141,2024-08-13T22:55:00Z,21.9,14.1,10+,30.12
KPYX,36.4103,-100.751,200,15,17.26,KPYX 132255Z AUTO 20015G19KT 10SM CLR A2996 RMK AO2,2024-08-13T22:55:00Z,,,10+,29.96
KPXE,32.5072,-83.7656,320,5,5.75,KPXE 132255Z AUTO 32005KT 10SM CLR 33/20 A2999 RMK AO2 T03290195,2024-08-13T22:55:00Z,32.9,19.5,10+,29.99
KPWD,48.7912,-104.525,170,12,13.81,KPWD 132255Z AUTO 17012G18KT 10SM FEW060 30/13 A2984 RMK AO2,2024-08-13T22:55:00Z,30,13,10+,29.84
KPWC,46.7266,-94.3849,180,9,10.36,KPWC 132255Z AUTO 18009KT 10SM CLR 26/14 A3013 RMK AO2,2024-08-13T22:55:00Z,26,14,10+,30.13
KPVW,34.169,-101.723,190,13,14.96,KPVW 132255Z AUTO 19013G17KT 10SM CLR 35/11 A3002 RMK AO2 T03470111,2024-08-13T22:55:00Z,34.7,11.1,10+,30.02
KPVJ,34.7041,-97.2211,140,12,13.81,KPVJ 132255Z AUTO 14012G16KT 10SM CLR 35/20 A2996 RMK AO2 T03510202,2024-08-13T22:55:00Z,35.1,20.2,10+,29.96
KPVF,38.7222,-120.757,210,6,6.9,KPVF 132255Z AUTO 21006KT CLR 29/02 RMK AO1,2024-08-13T22:55:00Z,29,2,,
KPVE,35.6592,-88.1929,310,4,4.6,KPVE 132255Z AUTO 31004KT 10SM CLR 31/19 A3005 RMK A01,2024-08-13T22:55:00Z,31,19,10+,30.05
KPVB,42.6909,-90.4413,0,0,0.0,KPVB 132255Z AUTO 00000KT 10SM CLR 27/13 A3013 RMK AO1 T02680131,2024-08-13T22:55:00Z,26.8,13.1,10+,30.13
KPUJ,33.9085,-84.9369,320,4,4.6,KPUJ 132255Z AUTO 32004KT 10SM CLR 30/17 A3006 RMK AO2,2024-08-13T22:55:00Z,30,17,10+,30.06
KPTT,37.7069,-98.7453,150,12,13.81,KPTT 132255Z AUTO 15012G16KT 10SM CLR 34/21 A2995 RMK AO2 T03420207,2024-08-13T22:55:00Z,34.2,20.7,10+,29.95
KPTS,37.4512,-94.7322,60,4,4.6,KPTS 132255Z AUTO 06004KT 10SM OVC030 26/22 A3002 RMK AO2 T02640220 PWINO,2024-08-13T22:55:00Z,26.4,22,10+,30.02
KPTD,44.6757,-74.9469,280,3,3.45,KPTD 132255Z AUTO 28003KT 10SM CLR 25/17 A3002 RMK AO2,2024-08-13T22:55:00Z,25,17,10+,30.02
KPTB,37.1803,-77.5081,0,0,0.0,KPTB 132255Z AUTO 00000KT 10SM CLR 25/20 A3006 RMK AO2 T02450199,2024-08-13T22:55:00Z,24.5,19.9,10+,30.06
KPSO,37.291,-107.056,240,11,12.66,KPSO 132255Z AUTO 24011G17KT 10SM BKN095 BKN120 23/07 A3029 RMK AO2 LTG DSNT S AND NW T02340073,2024-08-13T22:55:00Z,23.4,7.3,10+,30.29
KPSN,31.7784,-95.7048,160,4,4.6,KPSN 132255Z AUTO 16004KT 10SM FEW049 34/23 A2997 RMK AO2,2024-08-13T22:55:00Z,34,23,10+,29.97
KPSM,43.0677,-70.8127,280,5,5.75,KPSM 132255Z 28005KT 10SM FEW250 25/16 A2993 RMK AO2A SLP137 T02470159,2024-08-13T22:55:00Z,24.7,15.9,10+,29.93
KPSK,37.1337,-80.6789,100,3,3.45,KPSK 132255Z AUTO 10003KT 10SM CLR 25/14 A3012 RMK AO2 T02460139,2024-08-13T22:55:00Z,24.6,13.9,10+,30.12
KPRS,29.6346,-104.358,90,5,5.75,KPRS 132255Z AUTO 09005G15KT 10SM CLR 39/09 A2992 RMK AO2 LTG DSNT SW T03850091,2024-08-13T22:55:00Z,38.5,9.1,10+,29.92
KPRG,39.6982,-87.6669,30,3,3.45,KPRG 132255Z AUTO 03003KT 10SM CLR 27/16 A3012 RMK AO2 T02660159,2024-08-13T22:55:00Z,26.6,15.9,10+,30.12
KPPQ,39.6391,-90.7818,70,4,4.6,KPPQ 132255Z AUTO 07004KT 10SM OVC034 25/19 A3011 RMK AO2 T02490193,2024-08-13T22:55:00Z,24.9,19.3,10+,30.11
KPPO,41.5705,-86.7333,340,7,8.06,KPPO 132255Z AUTO 34007KT 10SM CLR 27/15 A3011 RMK AO2,2024-08-13T22:55:00Z,27,15,10+,30.11
KPPA,35.6139,-100.997,180,11,12.66,KPPA 132255Z AUTO 18011G15KT 10SM CLR 36/15 A3001 RMK AO2 T03630150,2024-08-13T22:55:00Z,36.3,15,10+,30.01
KPOY,44.8641,-108.79,280,11,12.66,KPOY 132255Z AUTO 28011KT 10SM CLR 17/08 A2999 RMK AO2,2024-08-13T22:55:00Z,17,8,10+,29.99
KPOV,41.209,-81.2479,10,3,3.45,KPOV 132255Z AUTO 01003KT 7SM SCT050 24/11 A3013 RMK AO2 T02350109 PWINO,2024-08-13T22:55:00Z,23.5,10.9,7,30.13
KPOE,31.047,-93.194,180,4,4.6,KPOE 132255Z AUTO 18004KT 10SM CLR 36/23 A2998 RMK AO2 SLP150 T03580227,2024-08-13T22:55:00Z,35.8,22.7,10+,29.98
KPOB,35.175,-79.008,0,0,0.0,KPOB 132255Z AUTO 00000KT 10SM OVC070 25/21 A3004 RMK AO2 SLP173 T02530209 $,2024-08-13T22:55:00Z,25.3,20.9,10+,30.04
KPO1,48.134,-105.162,110,6,6.9,KPO1 132255Z AUTO 11006G16KT 10SM CLR 32/14 A2980 RMK AO2,2024-08-13T22:55:00Z,32,14,10+,29.80
KPNT,40.9233,-88.6213,150,3,3.45,KPNT 132255Z AUTO 15003KT 10SM CLR 27/15 A3012 RMK AO2 T02690147,2024-08-13T22:55:00Z,26.9,14.7,10+,30.12
KPNM,45.556,-93.608,160,6,6.9,KPNM 132255Z AUTO 16006KT SCT055 28/13 A3011 RMK AO2 PWINO,2024-08-13T22:55:00Z,28,13,,30.11
KPNA,42.7929,-109.805,20,10,11.51,KPNA 132255Z AUTO 02010KT 10SM -RA SCT065 BKN080 OVC110 16/06 A3019 RMK AO2 LTG DSNT N SE AND S,2024-08-13T22:55:00Z,16,6,10+,30.19
KPMV,40.9446,-95.9124,130,3,3.45,KPMV 132255Z AUTO 13003KT 10SM OVC030 24/20 A3006 RMK AO2 T02400196,2024-08-13T22:55:00Z,24,19.6,10+,30.06
KPMU,34.3656,-89.8904,0,0,0.0,KPMU 132255Z AUTO 00000KT 10SM CLR 33/22 A3002 RMK AO2,2024-08-13T22:55:00Z,33,22,10+,30.02
KPLU,47.1005,-122.285,0,0,0.0,KPLU 132255Z AUTO 00000KT 6SM HZ SCT040 OVC050 21/11 A3006 RMK AO2,2024-08-13T22:55:00Z,21,11,6,30.06
KPLR,33.5608,-86.2463,0,0,0.0,KPLR 132255Z AUTO 00000KT 10SM SCT060 31/22 A3003 RMK A01,2024-08-13T22:55:00Z,31,22,10+,30.03
KPLD,40.4532,-84.9848,0,0,0.0,KPLD 132255Z AUTO 00000KT 10SM CLR 26/14 A3011 RMK AO2,2024-08-13T22:55:00Z,26,14,10+,30.11
KPJC,40.8009,-80.1624,0,0,0.0,KPJC 132255Z AUTO 00000KT 10SM CLR 25/12 A3010 RMK AO2,2024-08-13T22:55:00Z,25,12,10+,30.10
KPIM,32.8421,-84.8766,VRB,5,5.75,KPIM 132255Z AUTO VRB05KT 10SM SCT060 32/20 A3003 RMK AO2,2024-08-13T22:55:00Z,32,20,10+,30.03
KPHP,44.051,-101.601,150,14,16.11,KPHP 132255Z AUTO 15014G23KT 10SM CLR 31/18 A2985 RMK AO2 PK WND 16028/2209 SLP088 T03110183,2024-08-13T22:55:00Z,31.1,18.3,10+,29.85
KPHN,42.9103,-82.5332,30,4,4.6,KPHN 132255Z AUTO 03004KT 10SM CLR 24/15 A3012 RMK AO2,2024-08-13T22:55:00Z,24,15,10+,30.12
KPEZ,28.9561,-98.5184,160,15,17.26,KPEZ 132255Z AUTO 16015G23KT 10SM CLR 38/19 A2995 RMK AO2 T03760189,2024-08-13T22:55:00Z,37.6,18.9,10+,29.95
KPEX,45.3725,-94.7388,140,5,5.75,KPEX 132255Z AUTO 14005KT 10SM CLR 26/15 A3010 RMK AO2,2024-08-13T22:55:00Z,26,15,10+,30.10
KPEQ,31.382,-103.512,90,14,16.11,KPEQ 132255Z AUTO 09014G18KT 10SM SCT110 39/12 A2990 RMK AO2 LTG DSNT SW T03870119,2024-08-13T22:55:00Z,38.7,11.9,10+,29.90
KPEA,41.3989,-92.9431,120,5,5.75,KPEA 132255Z AUTO 12005KT 10SM OVC041 23/19 A3011 RMK AO2 T02300188,2024-08-13T22:55:00Z,23,18.8,10+,30.11
KPDC,43.0194,-91.1212,200,7,8.06,KPDC 132255Z AUTO 20007KT 10SM CLR 28/12 A3010 RMK AO2 T02750121,2024-08-13T22:55:00Z,27.5,12.1,10+,30.10
KPCZ,44.3342,-89.0203,0,0,0.0,KPCZ 132255Z AUTO 00000KT 10SM CLR 29/13 A3011 RMK AO2 T02900125,2024-08-13T22:55:00Z,29,12.5,10+,30.11
KPCW,41.5188,-82.8692,130,4,4.6,KPCW 132255Z AUTO 13004KT 10SM CLR 26/13 A3010 RMK AO2,2024-08-13T22:55:00Z,26,13,10+,30.10
KPCM,28.0013,-82.1593,310,6,6.9,KPCM 132255Z AUTO 31006KT 10SM CLR 33/26 A3002 RMK AO2,2024-08-13T22:55:00Z,33,26,10+,30.02
KPCD,37.8749,-89.8582,100,3,3.45,KPCD 132255Z AUTO 10003KT 10SM OVC050 25/21 A3006 RMK AO2 T02500212,2024-08-13T22:55:00Z,25,21.2,10+,30.06
KPBX,37.5587,-82.5674,340,4,4.6,KPBX 132255Z AUTO 34004KT 10SM CLR 27/13 A3010 RMK AO2 T02710125,2024-08-13T22:55:00Z,27.1,12.5,10+,30.10
KPBH,45.7064,-90.4052,0,0,0.0,KPBH 132255Z AUTO 00000KT 10SM CLR 27/14 A3012 RMK AO2 T02700143,2024-08-13T22:55:00Z,27,14.3,10+,30.12
KPAN,34.2551,-111.338,VRB,6,6.9,KPAN 132255Z AUTO VRB06G11KT 10SM CLR 29/14 A3016 RMK AO2 PWINO TSNO,2024-08-13T22:55:00Z,29,14,10+,30.16
KP58,44.0217,-82.7929,110,6,6.9,KP58 132255Z AUTO 11006KT 23/16 A3011 RMK AO1 SLP191 T02280156,2024-08-13T22:55:00Z,22.8,15.6,,30.11
KP52,34.7263,-112.034,220,12,13.81,KP52 132255Z AUTO 22012KT 10SM FEW110 36/10 A2998 RMK AO2,2024-08-13T22:55:00Z,36,10,10+,29.98
KP08,32.9359,-111.427,360,8,9.21,KP08 132255Z AUTO 36008G14KT 10SM CLR 39/15 A 0 RMK AO2,2024-08-13T22:55:00Z,39,15,10+,
KOZW,42.6327,-83.9854,0,0,0.0,KOZW 132255Z AUTO 00000KT 10SM SCT049 SCT065 25/14 A3012 RMK AO2 T02520144,2024-08-13T22:55:00Z,25.2,14.4,10+,30.12
KOZS,37.9745,-92.6897,70,3,3.45,KOZS 132255Z AUTO 07003KT 10SM BKN006 OVC010 22/22 A3009 RMK AO2,2024-08-13T22:55:00Z,22,22,10+,30.09
KOZR,31.2767,-85.7105,330,7,8.06,KOZR 132255Z AUTO 33007KT 10SM CLR 34/19 A2998 RMK AO2 SLP150 T03430187 $,2024-08-13T22:55:00Z,34.3,18.7,10+,29.98
KOZA,30.7312,-101.203,170,12,13.81,KOZA 132255Z AUTO 17012G21KT 10SM CLR 36/13 A3001 RMK AO2,2024-08-13T22:55:00Z,36,13,10+,30.01
KOYM,41.4118,-78.5131,0,0,0.0,KOYM 132255Z AUTO 00000KT 10SM BKN100 OVC110 23/11 A3015 RMK AO2 PWINO,2024-08-13T22:55:00Z,23,11,10+,30.15
KOYE,28.8669,-90.4911,120,4,4.6,KOYE 132255Z AUTO 12004KT 10SM CLR 32/23 A3002 RMK A01,2024-08-13T22:55:00Z,32,23,10+,30.02
KOXV,41.2984,-93.1114,170,5,5.75,KOXV 132255Z AUTO 17005KT 9SM SCT024 SCT030 OVC043 23/19 A3011 RMK AO2,2024-08-13T22:55:00Z,23,19,9,30.11
KOXI,41.3275,-86.665,360,3,3.45,KOXI 132255Z AUTO 36003KT 10SM CLR 26/07 A3010 RMK AO1,2024-08-13T22:55:00Z,26,7,10+,30.10
KOWP,36.1721,-96.1536,170,7,8.06,KOWP 132255Z AUTO 17007KT 10SM SCT050 37/23 A2998 RMK AO2 T03650232,2024-08-13T22:55:00Z,36.5,23.2,10+,29.98
KOWI,38.5409,-95.2542,80,7,8.06,KOWI 132255Z AUTO 08007KT 10SM CLR 26/24 A3002 RMK AO2 PWINO,2024-08-13T22:55:00Z,26,24,10+,30.02
KOVL,44.7792,-95.0304,150,5,5.75,KOVL 132255Z AUTO 15005KT 10SM SCT060 25/17 A3008 RMK AO2,2024-08-13T22:55:00Z,25,17,10+,30.08
KOSC,44.453,-83.396,110,4,4.6,KOSC 132255Z AUTO 11004KT 10SM CLR 24/13 A3011 RMK AO2 T02410134,2024-08-13T22:55:00Z,24.1,13.4,10+,30.11
KOSA,33.0936,-94.9601,140,5,5.75,KOSA 132255Z AUTO 14005KT 10SM SCT050 35/24 A2999 RMK AO2 T03500236,2024-08-13T22:55:00Z,35,23.6,10+,29.99
KORS,48.7081,-122.909,180,9,10.36,KORS 132255Z AUTO 18009KT 9SM OVC034 18/13 A3003 RMK AO2,2024-08-13T22:55:00Z,18,13,9,30.03
KORK,34.833,-92.2557,40,10,11.51,KORK 132255Z AUTO 04010KT 10SM CLR 30/23 A3003 RMK AO2,2024-08-13T22:55:00Z,30,23,10+,30.03
KORG,30.068,-93.8043,0,0,0.0,KORG 132255Z AUTO 00000KT 10SM CLR 33/23 A3002 RMK AO2 T03290230 PWINO,2024-08-13T22:55:00Z,32.9,23,10+,30.02
KOQN,39.9889,-75.5803,320,5,5.75,KOQN 132255Z AUTO 32005KT 10SM CLR 26/11 A3003 RMK AO2,2024-08-13T22:55:00Z,26,11,10+,30.03
KOPN,32.954,-84.2595,340,6,6.9,KOPN 132255Z AUTO 34006KT 10SM CLR 32/15 A3003 RMK AO2,2024-08-13T22:55:00Z,32,15,10+,30.03
KOOA,41.2273,-92.4919,150,5,5.75,KOOA 132255Z AUTO 15005KT 10SM SCT035 BKN041 24/19 A3012 RMK AO2 T02400190,2024-08-13T22:55:00Z,24,19,10+,30.12
KONZ,42.0991,-83.161,180,5,5.75,KONZ 132255Z AUTO 18005KT 10SM BKN110 24/16 A3010 RMK AO2 T02410158,2024-08-13T22:55:00Z,24.1,15.8,10+,30.10
KONP,44.5825,-124.057,280,5,5.75,KONP 132255Z AUTO 28005KT 10SM CLR 18/12 A3011 RMK AO2,2024-08-13T22:55:00Z,18,12,10+,30.11
KONM,34.0263,-106.904,0,0,0.0,KONM 132255Z AUTO 00000KT 10SM CLR 32/07 A3008 RMK AO2 LTG DSNT N AND SW T03180066,2024-08-13T22:55:00Z,31.8,6.6,10+,30.08
KONL,42.4691,-98.6903,150,13,14.96,KONL 132255Z AUTO 15013G19KT 10SM BKN031 26/18 A3001 RMK AO2 T02570179,2024-08-13T22:55:00Z,25.7,17.9,10+,30.01
KONA,44.076,-91.707,240,4,4.6,KONA 132255Z AUTO 24004KT 10SM CLR 27/15 A3010 RMK AO2,2024-08-13T22:55:00Z,27,15,10+,30.10
KOMH,38.2487,-78.0454,0,0,0.0,KOMH 132255Z AUTO 00000KT 10SM BKN065 25/17 A3007 RMK AO2,2024-08-13T22:55:00Z,25,17,10+,30.07
KOLZ,42.6831,-91.976,170,6,6.9,KOLZ 132255Z AUTO 17006KT 10SM FEW040 FEW050 BKN065 25/17 A3012 RMK A01,2024-08-13T22:55:00Z,25,17,10+,30.12
KOLY,38.7213,-88.1799,0,0,0.0,KOLY 132255Z AUTO 00000KT 10SM BKN042 26/17 A3010 RMK AO2 T02580171,2024-08-13T22:55:00Z,25.8,17.1,10+,30.10
KOLG,46.3153,-91.8183,240,4,4.6,KOLG 132255Z AUTO 24004KT 10SM SCT060 SCT070 26/12 A3010 RMK AO1,2024-08-13T22:55:00Z,26,12,10+,30.10
KOLE,42.2429,-78.3721,350,4,4.6,KOLE 132255Z AUTO 35004KT 10SM CLR 19/13 A3015 RMK AO2,2024-08-13T22:55:00Z,19,13,10+,30.15
KOKZ,32.9651,-82.8387,340,3,3.45,KOKZ 132255Z AUTO 34003KT 10SM CLR 33/21 A2998 RMK AO2 LTG DSNT N T03280206,2024-08-13T22:55:00Z,32.8,20.6,10+,29.98
KOKV,39.1406,-78.1391,0,0,0.0,KOKV 132255Z AUTO 00000KT 10SM CLR 26/11 A3005 RMK AO2,2024-08-13T22:55:00Z,26,11,10+,30.05
KOKM,35.6713,-95.9514,160,9,10.36,KOKM 132255Z AUTO 16009G14KT 10SM CLR 35/23 A2996 RMK AO2 T03510232,2024-08-13T22:55:00Z,35.1,23.2,10+,29.96
KOJA,35.5484,-98.6702,170,11,12.66,KOJA 132255Z AUTO 17011G15KT 10SM SCT090 SCT110 37/17 A2994 RMK AO2 T03720169,2024-08-13T22:55:00Z,37.2,16.9,10+,29.94
KOIN,39.8298,-100.538,140,12,13.81,KOIN 132255Z AUTO 14012G16KT 10SM SCT034 SCT041 OVC048 29/20 A3002 RMK AO1 T02870203,2024-08-13T22:55:00Z,28.7,20.3,10+,30.02
KOIC,42.5642,-75.5269,360,5,5.75,KOIC 132255Z AUTO 36005KT 10SM SCT085 22/14 A3009 RMK AO2 T02150139,2024-08-13T22:55:00Z,21.5,13.9,10+,30.09
KOGS,44.68,-75.4641,330,4,4.6,KOGS 132255Z AUTO 33004KT 10SM CLR 26/15 A2999 RMK AO2,2024-08-13T22:55:00Z,26,15,10+,29.99
KOGA,41.1164,-101.768,130,12,13.81,KOGA 132255Z AUTO 13012KT 10SM SCT027 BKN036 BKN044 26/21 A2998 RMK AO2 T02600206,2024-08-13T22:55:00Z,26,20.6,10+,29.98
KOFF,41.122,-95.91,120,8,9.21,KOFF 132255Z 12008KT 10SM OVC031 26/20 A3004 RMK AO2A SLP169 T02560199 $,2024-08-13T22:55:00Z,25.6,19.9,10+,30.04
KOEO,45.3108,-92.6948,160,7,8.06,KOEO 132255Z AUTO 16007KT 10SM CLR 28/16 A3013 RMK AO2 T02750163 PWINO,2024-08-13T22:55:00Z,27.5,16.3,10+,30.13
KOEB,41.9308,-85.0544,330,6,6.9,KOEB 132255Z AUTO 33006KT 10SM CLR 25/16 A3011 RMK AO2,2024-08-13T22:55:00Z,25,16,10+,30.11
KOCQ,44.8749,-87.9084,150,5,5.75,KOCQ 132255Z AUTO 15005KT 10SM BKN002 27/15 A3010 RMK AO1 T02680148,2024-08-13T22:55:00Z,26.8,14.8,10+,30.10
KOBE,27.2663,-80.8487,170,4,4.6,KOBE 132255Z AUTO 17004KT 10SM CLR 34/21 A2996 RMK AO2 LTG DSNT N,2024-08-13T22:55:00Z,34,21,10+,29.96
KOAR,36.6815,-121.757,260,13,14.96,KOAR 132255Z AUTO 26013G19KT 10SM CLR 12/07 A3000 RMK AO2,2024-08-13T22:55:00Z,12,7,10+,30.00
KO86,40.9845,-122.693,160,9,10.36,KO86 132255Z AUTO 16009KT 5SM HZ CLR 29/05 A2996 RMK A01,2024-08-13T22:55:00Z,29,5,5,29.96
KO69,38.2601,-122.607,220,9,10.36,KO69 132255Z AUTO 22009KT 10SM CLR 27/08 A2995 RMK A01,2024-08-13T22:55:00Z,27,8,10+,29.95
KO54,40.746,-122.922,VRB,6,6.9,KO54 132255Z AUTO VRB06G14KT 10SM CLR 30/05 A2998 RMK A01,2024-08-13T22:55:00Z,30,5,10+,29.98
KO32,36.6691,-119.453,0,0,0.0,KO32 132255Z AUTO 00000KT 9SM CLR 35/05 A2985 RMK AO2 T03540048 $,2024-08-13T22:55:00Z,35.4,4.8,9,29.85
KO05,40.2865,-121.243,260,12,13.81,KO05 132255Z AUTO 26012KT 10SM CLR 26/02 A3008 RMK A01,2024-08-13T22:55:00Z,26,2,10+,30.08
KNY0,42.999,-74.3292,280,5,5.75,KNY0 132255Z AUTO 28005KT 10SM OVC060 24/15 A3002 RMK AO2 T02360152,2024-08-13T22:55:00Z,23.6,15.2,10+,30.02
KNUQ,37.4059,-122.049,350,13,14.96,KNUQ 132255Z AUTO 35013KT 10SM CLR 23/12 A2996 RMK AO2,2024-08-13T22:55:00Z,23,12,10+,29.96
KNTD,34.124,-119.123,270,10,11.51,KNTD 132255Z 27010KT 10SM CLR 23/17 A2992 RMK AO2 SLP134 T02280167 $,2024-08-13T22:55:00Z,22.8,16.7,10+,29.92
KNRN,39.8497,-99.8915,110,10,11.51,KNRN 132255Z AUTO 11010G14KT 10SM SCT040 OVC049 27/20 A3001 RMK AO2,2024-08-13T22:55:00Z,27,20,10+,30.01
KNOW,48.1394,-123.403,290,9,10.36,KNOW 132255Z AUTO 29009KT 10SM SCT028 OVC038 16/13 A3006 RMK AO2 T01570131,2024-08-13T22:55:00Z,15.7,13.1,10+,30.06
KNKX,32.865,-117.137,270,8,9.21,KNKX 132255Z 27008KT 7SM CLR 28/17 A2991 RMK SLP124 T02770175,2024-08-13T22:55:00Z,27.7,17.5,7,29.91
KNBG,29.837,-90.024,180,7,8.06,KNBG 132255Z 18007KT 10SM FEW049 FEW120 SCT250 34/26 A3000 RMK AO2 SLP159 T03390256 $,2024-08-13T22:55:00Z,33.9,25.6,10+,30.00
KN79,40.8371,-76.546,330,4,4.6,KN79 132255Z AUTO 33004KT 7SM CLR 25/14 A3005 RMK AO2 T02460140 $,2024-08-13T22:55:00Z,24.6,14,7,30.05
KN38,41.7287,-77.3958,360,5,5.75,KN38 132255Z AUTO 36005KT 10SM OVC100 21/15 A3011 RMK AO2,2024-08-13T22:55:00Z,21,15,10+,30.11
KN03,42.5929,-76.2174,320,3,3.45,KN03 132255Z AUTO 32003KT 10SM CLR 21/13 A3009 RMK AO2,2024-08-13T22:55:00Z,21,13,10+,30.09
KMZZ,40.4863,-85.6859,330,3,3.45,KMZZ 132255Z AUTO 33003KT 10SM CLR 26/16 A3012 RMK AO2 T02560155,2024-08-13T22:55:00Z,25.6,15.5,10+,30.12
KMZH,46.4163,-92.8049,210,5,5.75,KMZH 132255Z AUTO 21005KT 10SM CLR 27/15 A3011 RMK AO2,2024-08-13T22:55:00Z,27,15,10+,30.11
KMYZ,39.8544,-96.6279,120,7,8.06,KMYZ 132255Z AUTO 12007KT 10SM SCT029 28/18 A3002 RMK AO2,2024-08-13T22:55:00Z,28,18,10+,30.02
KMYP,38.4972,-106.32,300,26,29.92,KMYP 132255Z AUTO 30026G32KT M1/4SM -RA OVC002 06/06 A3074 RMK AO2,2024-08-13T22:55:00Z,6,6,0.25,30.74
KMYJ,39.1561,-91.8129,70,4,4.6,KMYJ 132255Z AUTO 07004KT 10SM SCT023 OVC046 23/20 A3008 RMK AO2,2024-08-13T22:55:00Z,23,20,10+,30.08
KMXO,42.2203,-91.1604,VRB,4,4.6,KMXO 132255Z AUTO VRB04KT 10SM CLR 26/18 A3010 RMK AO2,2024-08-13T22:55:00Z,26,18,10+,30.10
KMXF,32.3877,-86.3724,310,3,3.45,KMXF 132255Z AUTO 31003KT 10SM CLR 34/19 A2997 RMK AO2 SLP149 T03430187,2024-08-13T22:55:00Z,34.3,18.7,10+,29.97
KMWO,39.5324,-84.3973,340,4,4.6,KMWO 132255Z AUTO 34004KT 10SM CLR 27/14 A3009 RMK AO2 T02730142,2024-08-13T22:55:00Z,27.3,14.2,10+,30.09
KMWM,43.91,-95.1073,160,7,8.06,KMWM 132255Z AUTO 16007KT 10SM BKN050 23/17 A3010 RMK AO2,2024-08-13T22:55:00Z,23,17,10+,30.10
KMVH,46.838,-108.936,250,9,10.36,KMVH 132255Z AUTO 25009G20KT 10SM BKN080 BKN090 28/08 A2990 RMK AO2,2024-08-13T22:55:00Z,28,8,10+,29.90
KMVE,44.9675,-95.7116,160,7,8.06,KMVE 132255Z AUTO 16007KT 10SM SCT003 SCT055 26/17 A3007 RMK AO2,2024-08-13T22:55:00Z,26,17,10+,30.07
KMUT,41.367,-91.1406,VRB,5,5.75,KMUT 132255Z AUTO VRB05KT 10SM CLR 26/18 A3011 RMK AO2,2024-08-13T22:55:00Z,26,18,10+,30.11
KMUO,43.03,-115.859,300,9,10.36,KMUO 132255Z 30009G20KT 6SM FU FEW150 33/03 A2983 RMK AO2A SLP066 T03260026 $,2024-08-13T22:55:00Z,32.6,2.6,6,29.83
KMUI,40.4381,-76.5643,350,4,4.6,KMUI 132255Z 35004KT 10SM FEW065 SCT095 BKN250 26/13 A3001 RMK AO2A SLP163 T02620126,2024-08-13T22:55:00Z,26.2,12.6,10+,30.01
KMTV,36.6272,-80.0134,160,4,4.6,KMTV 132255Z AUTO 16004KT 10SM BKN110 24/18 A3011 RMK AO2 T02350181,2024-08-13T22:55:00Z,23.5,18.1,10+,30.11
KMTK,28.6967,-89.3958,110,4,4.6,KMTK 132255Z AUTO 11004KT 10SM BKN031 A3002 RMK A01,2024-08-13T22:55:00Z,,,10+,30.02
KMRT,40.2237,-83.3475,30,6,6.9,KMRT 132255Z AUTO 03006KT 10SM SCT055 SCT070 25/15 A3011 RMK AO2 T02540147,2024-08-13T22:55:00Z,25.4,14.7,10+,30.11
KMRJ,42.8875,-90.2315,0,0,0.0,KMRJ 132255Z AUTO 00000KT 10SM CLR 25/15 A3016 RMK AO2 PWINO,2024-08-13T22:55:00Z,25,15,10+,30.16
KMQW,32.0942,-82.882,280,3,3.45,KMQW 132255Z AUTO 28003KT 10SM SCT070 33/21 A2997 RMK AO2 T03340211,2024-08-13T22:55:00Z,33.4,21.1,10+,29.97
KMQS,39.9773,-75.8605,340,5,5.75,KMQS 132255Z AUTO 34005KT CLR 25/14 A3005 RMK AO2,2024-08-13T22:55:00Z,25,14,,30.05
KMQJ,39.8402,-85.894,20,5,5.75,KMQJ 132255Z AUTO 02005KT 10SM CLR 27/15 A3011 RMK AO2 T02750151 $,2024-08-13T22:55:00Z,27.5,15.1,10+,30.11
KMQB,40.5176,-90.6481,140,3,3.45,KMQB 132255Z AUTO 14003KT 10SM SCT042 23/19 A3013 RMK AO2 T02340190,2024-08-13T22:55:00Z,23.4,19,10+,30.13
KMPZ,40.9453,-91.5122,0,0,0.0,KMPZ 132255Z AUTO 00000KT 10SM BKN045 23/18 A3011 RMK AO2,2024-08-13T22:55:00Z,23,18,10+,30.11
KMPR,38.3491,-97.6883,140,10,11.51,KMPR 132255Z AUTO 14010KT 10SM SCT034 31/23 A2998 RMK AO2 T03080226,2024-08-13T22:55:00Z,30.8,22.6,10+,29.98
KMOX,45.5677,-95.9659,150,13,14.96,KMOX 132255Z AUTO 15013KT 10SM FEW042 SCT060 26/18 A3004 RMK AO2,2024-08-13T22:55:00Z,26,18,10+,30.04
KMOR,36.1746,-83.3853,360,6,6.9,KMOR 132255Z AUTO 36006KT 10SM CLR 28/14 A3007 RMK A01,2024-08-13T22:55:00Z,28,14,10+,30.07
KMOP,43.6229,-84.743,0,0,0.0,KMOP 132255Z AUTO 00000KT 10SM CLR 27/12 A3011 RMK AO2 T02670120,2024-08-13T22:55:00Z,26.7,12,10+,30.11
KMNZ,31.6697,-98.1462,130,13,14.96,KMNZ 132255Z AUTO 13013G16KT 10SM SCT065 SCT080 37/18 A3000 RMK AO2 T03660175 TSNO,2024-08-13T22:55:00Z,36.6,17.5,10+,30.00
KMNI,33.5882,-80.2059,0,0,0.0,KMNI 132255Z AUTO 00000KT 10SM BKN048 26/23 A3001 RMK AO2 LTG DSNT SE AND S,2024-08-13T22:55:00Z,26,23,10+,30.01
KMNH,39.2232,-104.642,210,9,10.36,KMNH 132255Z AUTO 21009KT 10SM OVC090 21/11 A3020 RMK AO2 LTG DSNT ALQS,2024-08-13T22:55:00Z,21,11,10+,30.20
KMNE,32.6433,-93.2972,0,0,0.0,KMNE 132255Z AUTO 00000KT 10SM CLR 36/17 A3000 RMK AO2,2024-08-13T22:55:00Z,36,17,10+,30.00
KMMU,40.7989,-74.4164,330,4,4.6,KMMU 132255Z 33004KT 10SM FEW060 SCT250 25/15 A2999,2024-08-13T22:55:00Z,25,15,10+,29.99
KMMT,33.922,-80.802,50,7,8.06,KMMT 132255Z 05007KT 10SM SCT036 BKN120 27/23 A2999 RMK AO2A SLP156 T02680228 $,2024-08-13T22:55:00Z,26.8,22.8,10+,29.99
KMMI,35.3952,-84.5612,340,4,4.6,KMMI 132255Z AUTO 34004KT 10SM SCT055 29/20 A3007 RMK A01,2024-08-13T22:55:00Z,29,20,10+,30.07
KMMH,37.6253,-118.838,290,19,21.86,KMMH 132255Z AUTO 29019G26KT 10SM CLR 26/M05 A3022 RMK AO2 T02561053,2024-08-13T22:55:00Z,25.6,-5.3,10+,30.22
KMLJ,33.153,-83.242,300,5,5.75,KMLJ 132255Z AUTO 30005KT 10SM CLR 34/20 A2997 RMK AO2,2024-08-13T22:55:00Z,34,20,10+,29.97
KMLE,41.1981,-96.1131,130,5,5.75,KMLE 132255Z AUTO 13005KT 10SM SCT039 OVC047 25/19 A3004 RMK AO2 T02500194,2024-08-13T22:55:00Z,25,19.4,10+,30.04
KMKS,33.1874,-80.0363,0,0,0.0,KMKS 132255Z AUTO 00000KT 10SM OVC100 25/23 A2999 RMK AO2 LTG DSNT SE,2024-08-13T22:55:00Z,25,23,10+,29.99
KMKQ,27.5197,-90.0981,60,4,4.6,KMKQ 132255Z AUTO 06004KT 10SM CLR 32/25 A3003 RMK A01,2024-08-13T22:55:00Z,32,25,10+,30.03
KMKN,31.924,-98.5978,150,10,11.51,KMKN 132255Z AUTO 15010G17KT SCT080 39/17 A2999 RMK AO2 T03900166 PWINO,2024-08-13T22:55:00Z,39,16.6,,29.99
KMKJ,36.8944,-81.3449,0,0,0.0,KMKJ 132255Z AUTO 00000KT 10SM SCT075 OVC080 22/16 A3016 RMK AO2 T02210163,2024-08-13T22:55:00Z,22.1,16.3,10+,30.16
KMKG,43.1711,-86.2368,290,5,5.75,KMKG 132255Z 29005KT 10SM FEW030 26/16 A3012 RMK AO2 SLP197 T02610156,2024-08-13T22:55:00Z,26.1,15.6,10+,30.12
KMJQ,43.6496,-94.9885,180,8,9.21,KMJQ 132255Z AUTO 18008KT 10SM SCT023 SCT030 BKN048 24/17 A3011 RMK AO2,2024-08-13T22:55:00Z,24,17,10+,30.11
KMJD,30.494,-89.6535,140,7,8.06,KMJD 132255Z AUTO 14007KT 10SM SCT060 31/25 A3000 RMK AO2,2024-08-13T22:55:00Z,31,25,10+,30.00
KMIO,36.9128,-94.8893,150,8,9.21,KMIO 132255Z AUTO 15008KT 10SM SCT041 SCT047 32/25 A2998 RMK AO2 PWINO,2024-08-13T22:55:00Z,32,25,10+,29.98
KMHR,38.56,-121.284,280,6,6.9,KMHR 132255Z AUTO 28006G12KT 10SM CLR 32/10 A2989 RMK A01,2024-08-13T22:55:00Z,32,10,10+,29.89
KMHP,32.374,-82.079,310,5,5.75,KMHP 132255Z AUTO 31005KT 10SM CLR 33/21 A2996 RMK AO2 T03320210,2024-08-13T22:55:00Z,33.2,21,10+,29.96
KMHL,39.093,-93.2024,120,3,3.45,KMHL 132255Z AUTO 12003KT 10SM OVC016 22/20 A3009 RMK AO2,2024-08-13T22:55:00Z,22,20,10+,30.09
KMGR,31.0835,-83.8035,300,5,5.75,KMGR 132255Z AUTO 30005KT 10SM CLR 33/21 A2999 RMK AO2 T03340209 $,2024-08-13T22:55:00Z,33.4,20.9,10+,29.99
KMGN,45.4241,-84.913,0,0,0.0,KMGN 132255Z AUTO 00000KT 10SM CLR 22/17 A3011 RMK AO2 T02250173,2024-08-13T22:55:00Z,22.5,17.3,10+,30.11
KMGG,45.2354,-93.9896,170,3,3.45,KMGG 132255Z AUTO 17003KT 10SM CLR 27/14 A3011 RMK AO2 T02650143,2024-08-13T22:55:00Z,26.5,14.3,10+,30.11
KMGE,33.9189,-84.5266,350,9,10.36,KMGE 132255Z 35009KT 10SM FEW065 FEW150 SCT200 SCT250 32/17 A3001 RMK AO2A SLP150 T03230169 $,2024-08-13T22:55:00Z,32.3,16.9,10+,30.01
KMGC,41.7048,-86.8183,350,4,4.6,KMGC 132255Z AUTO 35004KT 10SM CLR 25/15 A3012 RMK AO2,2024-08-13T22:55:00Z,25,15,10+,30.12
KMFV,37.646,-75.763,0,0,0.0,KMFV 132255Z AUTO 00000KT 10SM CLR 23/19 A3004 RMK AO2 T02320191,2024-08-13T22:55:00Z,23.2,19.1,10+,30.04
KMEZ,34.5414,-94.1918,VRB,3,3.45,KMEZ 132255Z AUTO VRB03KT 10SM SCT055 34/23 A3002 RMK AO2 T03440229,2024-08-13T22:55:00Z,34.4,22.9,10+,30.02
KMEV,38.9963,-119.75,270,16,18.41,KMEV 132255Z AUTO 27016KT 10SM CLR 29/M01 A3005 RMK AO2,2024-08-13T22:55:00Z,29,-1,10+,30.05
KMDZ,45.1013,-90.3064,0,0,0.0,KMDZ 132255Z AUTO 00000KT 10SM CLR 26/13 A3013 RMK AO2 T02610131 PWINO,2024-08-13T22:55:00Z,26.1,13.1,10+,30.13
KMDS,44.0141,-97.0817,140,8,9.21,KMDS 132255Z AUTO 14008G14KT 10SM BKN025 21/21 A3007 RMK AO2 TSNO,2024-08-13T22:55:00Z,21,21,10+,30.07
KMDQ,34.866,-86.559,30,6,6.9,KMDQ 132255Z AUTO 03006KT 10SM SCT060 SCT080 30/16 A3007 RMK A02 T03050158,2024-08-13T22:55:00Z,30.5,15.8,10+,30.07
KMDD,32.0359,-102.1,190,14,16.11,KMDD 132255Z AUTO 19014KT 10SM CLR 36/12 A2999 RMK AO2 T03610118,2024-08-13T22:55:00Z,36.1,11.8,10+,29.99
KMCJ,29.7139,-95.3967,110,8,9.21,KMCJ 132255Z AUTO 11008KT 070V130 10SM VCTS CLR 34/23 A2998 RMK A01 LTG DSNT SW AND W,2024-08-13T22:55:00Z,34,23,10+,29.98
KMCF,27.8598,-82.5133,310,7,8.06,KMCF 132255Z AUTO 31007KT 10SM CLR 32/24 A2998 RMK AO2 SLP155 T03170243 FZRANO $,2024-08-13T22:55:00Z,31.7,24.3,10+,29.98
KMCD,45.866,-84.634,260,6,6.9,KMCD 132255Z AUTO 26006KT 10SM CLR 24/13 A3011 RMK AO2 T02400126,2024-08-13T22:55:00Z,24,12.6,10+,30.11
KMCC,38.678,-121.403,VRB,6,6.9,KMCC 132255Z AUTO VRB06KT 6SM HZ CLR 31/10 A2989 RMK AO2 PWINO,2024-08-13T22:55:00Z,31,10,6,29.89
KMBY,39.464,-92.4244,100,7,8.06,KMBY 132255Z AUTO 10007KT 10SM SCT024 25/18 A3008 RMK AO2,2024-08-13T22:55:00Z,25,18,10+,30.08
KMBT,35.8767,-86.3793,10,7,8.06,KMBT 132255Z AUTO 01007KT 330V030 10SM CLR 30/17 A3005 RMK A01,2024-08-13T22:55:00Z,30,17,10+,30.05
KMBO,32.4385,-90.1014,VRB,5,5.75,KMBO 132255Z AUTO VRB05KT 10SM CLR 35/21 A3001 RMK AO2,2024-08-13T22:55:00Z,35,21,10+,30.01
KMAW,36.5945,-89.9865,0,0,0.0,KMAW 132255Z AUTO 00000KT 10SM BKN110 27/24 A3004 RMK AO1,2024-08-13T22:55:00Z,27,24,10+,30.04
KMAO,34.1852,-79.3341,40,6,6.9,KMAO 132255Z AUTO 04006KT 10SM 26/25 A3002 RMK AO2 P0001,2024-08-13T22:55:00Z,26,25,10+,30.02
KMAN,43.582,-116.521,310,6,6.9,KMAN 132255Z AUTO 31006G12KT 10SM CLR 30/09 A2987 RMK A01,2024-08-13T22:55:00Z,30,9,10+,29.87
KM91,36.5363,-86.919,360,4,4.6,KM91 132255Z AUTO 36004KT 10SM CLR 28/19 A3007 RMK A01,2024-08-13T22:55:00Z,28,19,10+,30.07
KM75,48.3686,-107.919,0,0,0.0,KM75 132255Z AUTO 00000KT 10SM CLR 31/08 A2976 RMK A01,2024-08-13T22:55:00Z,31,8,10+,29.76
KM40,33.8755,-88.4872,20,5,5.75,KM40 132255Z AUTO 02005KT 10SM CLR 32/22 A3005 RMK AO2,2024-08-13T22:55:00Z,32,22,10+,30.05
KM30,37.1824,-88.7487,50,3,3.45,KM30 132255Z AUTO 05003KT 1 1/2SM +RA SCT022 BKN037 OVC046 22/22 A3009 RMK AO2 P0022 T02240219,2024-08-13T22:55:00Z,22.4,21.9,1.5,30.09
KM25,36.764,-88.5829,80,3,3.45,KM25 132255Z AUTO 08003KT 10SM SCT050 OVC055 27/22 A3007 RMK AO2,2024-08-13T22:55:00Z,27,22,10+,30.07
KM21,37.2291,-87.1542,0,0,0.0,KM21 132255Z AUTO 00000KT 10SM CLR 27/19 A3008 RMK AO2 T02680188,2024-08-13T22:55:00Z,26.8,18.8,10+,30.08
KM08,35.2155,-89.0449,0,0,0.0,KM08 132255Z AUTO 00000KT 10SM CLR 31/21 A3003 RMK A01,2024-08-13T22:55:00Z,31,21,10+,30.03
KM02,36.1289,-87.4283,70,5,5.75,KM02 132255Z AUTO 07005KT 10SM BKN085 28/18 A3008 RMK A01,2024-08-13T22:55:00Z,28,18,10+,30.08
KM01,35.2004,-90.0548,340,5,5.75,KM01 132255Z AUTO 34005KT 9SM CLR 33/23 A3002 RMK AO2 T03320227 $,2024-08-13T22:55:00Z,33.2,22.7,9,30.02
KLYV,43.6217,-96.214,130,7,8.06,KLYV 132255Z AUTO 13007KT 10SM SCT029 OVC036 21/16 A3009 RMK AO2,2024-08-13T22:55:00Z,21,16,10+,30.09
KLYO,38.343,-98.2266,130,10,11.51,KLYO 132255Z AUTO 13010KT 10SM BKN033 31/23 A2997 RMK AO2 T03080230,2024-08-13T22:55:00Z,30.8,23,10+,29.97
KLXY,31.6446,-96.5122,,,,KLXY 132255Z AUTO 10SM CLR 35/22 A2998 RMK AO2 T03510219 TSNO,2024-08-13T22:55:00Z,35.1,21.9,10+,29.98
KLXN,40.7915,-99.775,120,6,6.9,KLXN 132255Z AUTO 12006KT 10SM SCT025 BKN030 OVC060 25/21 A3001 RMK AO2 T02510211,2024-08-13T22:55:00Z,25.1,21.1,10+,30.01
KLXL,45.9509,-94.3441,140,5,5.75,KLXL 132255Z AUTO 14005KT 10SM CLR 26/13 A3009 RMK AO2,2024-08-13T22:55:00Z,26,13,10+,30.09
KLWA,42.3476,-86.2578,290,5,5.75,KLWA 132255Z AUTO 29005KT 10SM CLR 25/16 A3012 RMK AO2 T02500155,2024-08-13T22:55:00Z,25,15.5,10+,30.12
KLVN,44.6252,-93.2273,150,4,4.6,KLVN 132255Z AUTO 15004KT 10SM CLR 26/14 A3011 RMK AO2,2024-08-13T22:55:00Z,26,14,10+,30.11
KLVL,36.7723,-77.7925,0,0,0.0,KLVL 132255Z AUTO 00000KT 10SM SCT043 OVC090 25/21 A3007 RMK AO1 T02500205,2024-08-13T22:55:00Z,25,20.5,10+,30.07
KLUX,34.508,-81.949,50,3,3.45,KLUX 132255Z AUTO 05003KT 10SM SCT020 26/22 A3005 RMK AO2,2024-08-13T22:55:00Z,26,22,10+,30.05
KLUV,32.7481,-101.913,150,14,16.11,KLUV 132255Z AUTO 15014G20KT 10SM SCT100 37/13 A3001 RMK AO2,2024-08-13T22:55:00Z,37,13,10+,30.01
KLUM,44.8936,-91.8665,190,3,3.45,KLUM 132255Z AUTO 19003KT 10SM CLR 28/15 A3011 RMK AO2 T02810154 PWINO,2024-08-13T22:55:00Z,28.1,15.4,10+,30.11
KLUL,31.6682,-89.1705,20,6,6.9,KLUL 132255Z AUTO 02006KT 10SM CLR 35/21 A3001 RMK A02 T03540206,2024-08-13T22:55:00Z,35.4,20.6,10+,30.01
KLUG,35.5082,-86.8055,360,6,6.9,KLUG 132255Z AUTO 36006KT 10SM FEW060 SCT075 30/17 A3006 RMK A01,2024-08-13T22:55:00Z,30,17,10+,30.06
KLUF,33.538,-112.38,180,10,11.51,KLUF 132255Z AUTO 18010G18KT 10SM CLR 41/13 A2979 RMK AO2 SLP069 T04070133 $,2024-08-13T22:55:00Z,40.7,13.3,10+,29.79
KLUD,33.2568,-97.5826,170,11,12.66,KLUD 132255Z AUTO 17011KT 10SM CLR 38/18 A2997 RMK AO2 T03790176,2024-08-13T22:55:00Z,37.9,17.6,10+,29.97
KLUA,38.667,-78.501,0,0,0.0,KLUA 132255Z AUTO 00000KT 10SM 26/15 A3007 RMK AO2,2024-08-13T22:55:00Z,26,15,10+,30.07
KLSV,36.236,-115.034,220,18,20.71,KLSV 132255Z AUTO 22018G24KT 10SM CLR 40/M02 A2974 RMK AO2 PK WND 20029/14 SLP037 T04001023 $,2024-08-13T22:55:00Z,40,-2.3,10+,29.74
KLSF,32.3239,-84.9826,10,7,8.06,KLSF 132255Z AUTO 01007KT 10SM FEW070 34/19 A2995 RMK AO2 SLP144 T03430187 RVRNO FZRANO VISNO RWY33 $,2024-08-13T22:55:00Z,34.3,18.7,10+,29.95
KLRY,38.6074,-94.3453,90,5,5.75,KLRY 132255Z AUTO 09005KT 10SM OVC007 23/21 A3008 RMK AO2,2024-08-13T22:55:00Z,23,21,10+,30.08
KLRU,32.2884,-106.913,220,4,4.6,KLRU 132255Z AUTO 22004G10KT 10SM CLR 34/07 A3005 RMK AO2 LTG DSNT S THRU NW T03440067,2024-08-13T22:55:00Z,34.4,6.7,10+,30.05
KLRO,32.8982,-79.7796,0,0,0.0,KLRO 132255Z AUTO 00000KT 7SM VCTS 25/25 A2999 RMK AO2 LTG DSNT E AND SE P0001,2024-08-13T22:55:00Z,25,25,7,29.99
KLRJ,42.7771,-96.195,120,7,8.06,KLRJ 132255Z AUTO 12007KT 10SM CLR 24/22 A3004 RMK AO2,2024-08-13T22:55:00Z,24,22,10+,30.04
KLRF,34.92,-92.131,50,8,9.21,KLRF 132255Z AUTO 05008KT 10SM FEW190 31/21 A3000 RMK AO2 SLP158 T03110212 $,2024-08-13T22:55:00Z,31.1,21.2,10+,30.00
KLQK,34.8069,-82.7047,70,6,6.9,KLQK 132255Z AUTO 07006KT 10SM BKN110 25/22 A3005 RMK AO2 T02510222,2024-08-13T22:55:00Z,25.1,22.2,10+,30.05
KLOR,31.36,-85.749,320,4,4.6,KLOR 132255Z AUTO 32004KT 10SM CLR 34/20 A2998 RMK AO2 SLP133 T03440200 $,2024-08-13T22:55:00Z,34.4,20,10+,29.98
KLOM,40.1376,-75.2684,320,3,3.45,KLOM 132255Z AUTO 32003KT 10SM CLR 26/13 A3002 RMK AO2 T02590130,2024-08-13T22:55:00Z,25.9,13,10+,30.02
KLNP,36.9884,-82.524,20,7,8.06,KLNP 132255Z AUTO 02007KT 10SM CLR 23/13 A3016 RMK AO2,2024-08-13T22:55:00Z,23,13,10+,30.16
KLNN,41.6839,-81.3896,0,0,0.0,KLNN 132255Z AUTO 00000KT 10SM CLR 24/10 A3012 RMK AO1 T02390104,2024-08-13T22:55:00Z,23.9,10.4,10+,30.12
KLNL,46.1515,-89.2108,270,3,3.45,KLNL 132255Z AUTO 27003KT 10SM SCT110 22/16 A3018 RMK AO2 T02230161,2024-08-13T22:55:00Z,22.3,16.1,10+,30.18
KLNC,32.5832,-96.7209,160,10,11.51,KLNC 132255Z AUTO 16010KT 10SM CLR 37/20 A2997 RMK AO2 T03650200,2024-08-13T22:55:00Z,36.5,20,10+,29.97
KLNA,26.5925,-80.0848,120,8,9.21,KLNA 132255Z AUTO 12008KT 10SM CLR 32/26 A2998 RMK AO2 T03170263,2024-08-13T22:55:00Z,31.7,26.3,10+,29.98
KLMS,33.15,-89.063,330,6,6.9,KLMS 132255Z AUTO 33006KT 10SM CLR 34/21 A3006 RMK AO2,2024-08-13T22:55:00Z,34,21,10+,30.06
KLMO,40.1612,-105.16,360,8,9.21,KLMO 132255Z AUTO 36008KT 4SM HZ BKN100 26/14 A3007 RMK AO2 T02560141,2024-08-13T22:55:00Z,25.6,14.1,4,30.07
KLLN,33.556,-102.375,160,9,10.36,KLLN 132255Z AUTO 16009G20KT 6SM HZ FEW090 34/11 A3004 RMK AO2,2024-08-13T22:55:00Z,34,11,6,30.04
KLKU,38.0085,-77.9681,0,0,0.0,KLKU 132255Z AUTO 00000KT 10SM OVC100 24/19 A3006 RMK AO2 T02410194,2024-08-13T22:55:00Z,24.1,19.4,10+,30.06
KLKR,34.7266,-80.8532,60,4,4.6,KLKR 132255Z AUTO 06004KT 10SM CLR 25/20 A3005 RMK AO2,2024-08-13T22:55:00Z,25,20,10+,30.05
KLJF,45.0948,-94.5084,160,3,3.45,KLJF 132255Z AUTO 16003KT 10SM SCT050 26/14 A3009 RMK AO2,2024-08-13T22:55:00Z,26,14,10+,30.09
KLIC,39.2733,-103.667,150,14,16.11,KLIC 132255Z AUTO 15014G22KT 10SM CLR 30/15 A3003 RMK AO2 LTG DSNT NW SLP083 T03000150,2024-08-13T22:55:00Z,30,15,10+,30.03
KLHW,31.8872,-81.5625,280,4,4.6,KLHW 132255Z 28004KT 10SM FEW050 34/21 A2991 RMK AO2A SLP131 T03380212 $,2024-08-13T22:55:00Z,33.8,21.2,10+,29.91
KLHM,38.9148,-121.352,240,7,8.06,KLHM 132255Z AUTO 24007KT 10SM CLR 32/08 A2989 RMK AO1,2024-08-13T22:55:00Z,32,8,10+,29.89
KLHB,30.8693,-96.6207,130,4,4.6,KLHB 132255Z AUTO 13004KT CLR 34/23 A2999 RMK AO2 T03370231 PWINO,2024-08-13T22:55:00Z,33.7,23.1,,29.99
KLGF,32.868,-114.393,250,4,4.6,KLGF 132255Z AUTO 25004KT 10SM CLR 42/14 A2975 RMK AO2 SLP069 T04170141 $,2024-08-13T22:55:00Z,41.7,14.1,10+,29.75
KLGC,33.0093,-85.0717,320,7,8.06,KLGC 132255Z AUTO 32007KT 10SM CLR 32/18 A3002 RMK AO2 T03210183,2024-08-13T22:55:00Z,32.1,18.3,10+,30.02
KLFI,37.088,-76.349,300,5,5.75,KLFI 132255Z AUTO 30005KT 10SM CLR 27/15 A3003 RMK AO2 SLP175 T02740151 $,2024-08-13T22:55:00Z,27.4,15.1,10+,30.03
KLDM,43.9614,-86.4107,310,4,4.6,KLDM 132255Z AUTO 31004KT 10SM CLR 24/15 A3012 RMK AO2 T02410146,2024-08-13T22:55:00Z,24.1,14.6,10+,30.12
KLCQ,30.1838,-82.5684,340,5,5.75,KLCQ 132255Z AUTO 34005KT 10SM SCT055 BKN080 32/21 A2997 RMK AO2,2024-08-13T22:55:00Z,32,21,10+,29.97
KLCK,39.83,-82.919,90,3,3.45,KLCK 132255Z AUTO 09003KT 10SM SCT070 SCT080 OVC110 26/16 A3008 RMK AO2 T02600159,2024-08-13T22:55:00Z,26,15.9,10+,30.08
KLCG,42.2423,-96.983,150,8,9.21,KLCG 132255Z AUTO 15008KT 10SM OVC033 25/19 A3004 RMK AO2 T02500187,2024-08-13T22:55:00Z,25,18.7,10+,30.04
KLBO,37.6449,-92.6544,150,4,4.6,KLBO 132255Z AUTO 15004KT 10SM DZ SCT006 BKN029 OVC043 22/21 A3010 RMK AO2,2024-08-13T22:55:00Z,22,21,10+,30.10
KLAM,35.8789,-106.262,70,8,9.21,KLAM 132255Z AUTO 07008KT 9SM BKN085 OVC110 24/10 A3023 RMK AO2 LTG DSNT E T02430103 $,2024-08-13T22:55:00Z,24.3,10.3,9,30.23
KL35,34.2626,-116.855,240,7,8.06,KL35 132255Z AUTO 24007G16KT 10SM CLR 22/03 A3027 RMK AO2,2024-08-13T22:55:00Z,22,3,10+,30.27
KL18,33.3551,-117.249,220,9,10.36,KL18 132255Z AUTO 22009KT 160V240 10SM CLR 29/14 A2992 RMK AO2,2024-08-13T22:55:00Z,29,14,10+,29.92
KL08,33.2604,-116.323,230,15,17.26,KL08 132255Z AUTO 23015G24KT 10SM CLR 41/07 A2976 RMK AO2,2024-08-13T22:55:00Z,41,7,10+,29.76
KKY8,37.953,-86.8592,30,3,3.45,KKY8 132255Z AUTO 03003KT 9SM CLR 28/14 A3008 RMK A01,2024-08-13T22:55:00Z,28,14,9,30.08
KKNB,37.0078,-112.53,60,3,3.45,KKNB 132255Z AUTO 06003KT 10SM BKN095 BKN120 29/M33 A3006 RMK A01,2024-08-13T22:55:00Z,29,-33,10+,30.06
KK88,37.8692,-95.384,VRB,4,4.6,KK88 132255Z AUTO VRB04KT 10SM BKN024 28/22 A3001 RMK AO2,2024-08-13T22:55:00Z,28,22,10+,30.01
KK83,39.9053,-95.7747,100,8,9.21,KK83 132255Z AUTO 10008KT 10SM OVC014 23/19 A3007 RMK AO2 T02330190,2024-08-13T22:55:00Z,23.3,19,10+,30.07
KK82,39.7606,-98.7957,130,10,11.51,KK82 132255Z AUTO 13010KT 10SM SCT035 BKN044 29/21 A2999 RMK AO2 T02910208,2024-08-13T22:55:00Z,29.1,20.8,10+,29.99
KK70,25.322,-80.277,80,6,6.9,KK70 132255Z AUTO 08006KT 10SM VCTS CLR 32/28 A2996 RMK AO2 LTG DSNT SW,2024-08-13T22:55:00Z,32,28,10+,29.96
KK62,38.7018,-84.3964,0,0,0.0,KK62 132255Z AUTO 00000KT 10SM OVC080 26/16 A3010 RMK AO2,2024-08-13T22:55:00Z,26,16,10+,30.10
KJZP,34.4542,-84.4597,330,7,8.06,KJZP 132255Z AUTO 33007KT 10SM CLR 29/17 A3008 RMK AO2 T02930174,2024-08-13T22:55:00Z,29.3,17.4,10+,30.08
KJZI,32.7025,-80.0058,60,5,5.75,KJZI 132255Z AUTO 06005KT 10SM FEW065 BKN090 24/24 A3000 RMK AO2 LTG DSNT E-SW P0007,2024-08-13T22:55:00Z,24,24,10+,30.00
KJYR,40.8942,-97.6258,120,13,14.96,KJYR 132255Z AUTO 12013KT 9SM SCT021 BKN034 24/19 A3002 RMK AO2,2024-08-13T22:55:00Z,24,19,9,30.02
KJYO,39.0826,-77.5605,340,4,4.6,KJYO 132255Z AUTO 34004KT 10SM CLR 27/14 A3006 RMK AO2,2024-08-13T22:55:00Z,27,14,10+,30.06
KJYM,41.9197,-84.5853,120,2,2.3,KJYM 132255Z AUTO 12002KT 10SM SCT070 BKN100 24/18 A3012 RMK AO2,2024-08-13T22:55:00Z,24,18,10+,30.12
KJYL,32.6459,-81.5894,40,7,8.06,KJYL 132255Z AUTO 04007KT 10SM SCT055 SCT120 30/24 A2999 RMK AO2 T02970241,2024-08-13T22:55:00Z,29.7,24.1,10+,29.99
KJYG,43.9855,-94.5527,150,7,8.06,KJYG 132255Z AUTO 15007KT 10SM OVC060 25/21 A3008 RMK AO2,2024-08-13T22:55:00Z,25,21,10+,30.08
KJXI,32.7036,-94.9471,180,7,8.06,KJXI 132255Z AUTO 18007KT 10SM CLR 35/19 A3000 RMK AO2 T03520190,2024-08-13T22:55:00Z,35.2,19,10+,30.00
KJWY,32.456,-96.914,170,10,11.51,KJWY 132255Z AUTO 17010KT 10SM FEW065 36/20 A2999 RMK AO2 T03640205 TSNO $,2024-08-13T22:55:00Z,36.4,20.5,10+,29.99
KJWG,35.863,-98.423,150,13,14.96,KJWG 132255Z AUTO 15013KT 10SM SCT085 37/20 A2996 RMK AO2 T03700197,2024-08-13T22:55:00Z,37,19.7,10+,29.96
KJVY,38.3692,-85.7366,340,3,3.45,KJVY 132255Z 34003KT 10SM CLR A3007 RMK AO2 TEMP/DEW PT/DENSITY ALT UNRELIABLE. RWY 18 PREFERRED CALM WIND,2024-08-13T22:55:00Z,,,10+,30.07
KJTC,34.1292,-109.309,270,19,21.86,KJTC 132255Z AUTO 27019G24KT 4SM -TSRA FEW001 FEW009 OVC060 18/14 A3032 RMK AO2 LTG DSNT ALQDS P0008,2024-08-13T22:55:00Z,18,14,4,30.32
KJSY,45.3556,-117.254,290,4,4.6,KJSY 132255Z AUTO 29004KT 10SM SCT085 22/10 A3002 RMK AO2 T02150095,2024-08-13T22:55:00Z,21.5,9.5,10+,30.02
KJSV,35.4381,-94.8012,120,8,9.21,KJSV 132255Z AUTO 12008KT 10SM CLR 34/24 A2997 RMK AO2,2024-08-13T22:55:00Z,34,24,10+,29.97
KJRO,38.9861,-82.5756,350,2,2.3,KJRO 132255Z AUTO 35002KT 10SM FEW110 28/13 A3007 RMK AO2,2024-08-13T22:55:00Z,28,13,10+,30.07
KJQF,35.3896,-80.7074,90,5,5.75,KJQF 132255Z 09005KT 10SM SCT050 24/19 A3010,2024-08-13T22:55:00Z,24,19,10+,30.10
KJPX,40.9605,-72.2511,220,5,5.75,KJPX 132255Z AUTO 22005KT 10SM CLR 23/15 A2998 RMK AO2 T02250151,2024-08-13T22:55:00Z,22.5,15.1,10+,29.98
KJOT,41.5176,-88.179,200,4,4.6,KJOT 132255Z AUTO 20004KT 10SM OVC065 28/15 A3011 RMK AO2 T02840153,2024-08-13T22:55:00Z,28.4,15.3,10+,30.11
KJMR,45.8885,-93.269,180,5,5.75,KJMR 132255Z AUTO 18005KT 10SM 26/12 A3014 RMK AO2,2024-08-13T22:55:00Z,26,12,10+,30.14
KJKJ,46.8404,-96.6545,160,9,10.36,KJKJ 132255Z AUTO 16009KT 10SM CLR 26/16 A3004 RMK AO2,2024-08-13T22:55:00Z,26,16,10+,30.04
KJHN,37.5782,-101.73,170,18,20.71,KJHN 132255Z AUTO 17018G23KT 10SM CLR 35/15 A2994 RMK AO2 LTG DSNT N T03490151,2024-08-13T22:55:00Z,34.9,15.1,10+,29.94
KJGG,37.24,-76.718,300,3,3.45,KJGG 132255Z AUTO 30003KT 10SM CLR 27/16 A3004 RMK AO2 T02690164 $,2024-08-13T22:55:00Z,26.9,16.4,10+,30.04
KJFZ,37.0634,-81.7969,0,0,0.0,KJFZ 132255Z AUTO 00000KT 10SM BKN060 BKN090 24/15 A3016 RMK AO2 T02400148,2024-08-13T22:55:00Z,24,14.8,10+,30.16
KJFX,33.9008,-87.3092,60,5,5.75,KJFX 132255Z AUTO 06005KT 10SM CLR 34/19 A3004 RMK AO2,2024-08-13T22:55:00Z,34,19,10+,30.04
KJES,31.5521,-81.8896,0,0,0.0,KJES 132255Z AUTO 00000KT 10SM CLR 34/21 A2998 RMK AO2,2024-08-13T22:55:00Z,34,21,10+,29.98
KJDD,32.7403,-95.4945,180,8,9.21,KJDD 132255Z AUTO 18008KT 140V200 10SM SCT055 35/22 A2999 RMK AO2,2024-08-13T22:55:00Z,35,22,10+,29.99
KJCA,34.1739,-83.5583,130,7,8.06,KJCA 132255Z AUTO 13007KT 10SM SCT065 BKN090 29/22 A3003 RMK AO2 T02920221,2024-08-13T22:55:00Z,29.2,22.1,10+,30.03
KJAS,30.8904,-94.0332,230,6,6.9,KJAS 132255Z AUTO 23006KT 9SM CLR 34/25 RMK AO2,2024-08-13T22:55:00Z,34,25,9,
KJAQ,38.3742,-120.794,270,10,11.51,KJAQ 132255Z AUTO 27010KT 10SM CLR 30/04 A2998 RMK AO1 T03030042,2024-08-13T22:55:00Z,30.3,4.2,10+,29.98
KIZA,34.6059,-120.076,280,12,13.81,KIZA 132255Z AUTO 28012G18KT 10SM CLR 28/10 A2992 RMK AO2,2024-08-13T22:55:00Z,28,10,10+,29.92
KIYA,29.976,-92.0826,,,,KIYA 132255Z AUTO 10SM FEW055 34/26 A3000 RMK AO2 T03360262 $,2024-08-13T22:55:00Z,33.6,26.2,10+,30.00
KIXA,36.331,-77.6333,0,0,0.0,KIXA 132255Z AUTO 00000KT 10SM BKN085 23/23 A3006 RMK AO2,2024-08-13T22:55:00Z,23,23,10+,30.06
KISQ,45.9729,-86.1728,200,7,8.06,KISQ 132255Z AUTO 20007KT 10SM CLR 23/16 A3011 RMK AO2 T02270159,2024-08-13T22:55:00Z,22.7,15.9,10+,30.11
KIRK,40.0966,-92.5469,90,8,9.21,KIRK 132255Z AUTO 09008KT 10SM FEW021 OVC029 23/18 A3011 RMK AO2 SLP194 T02280183,2024-08-13T22:55:00Z,22.8,18.3,10+,30.11
KIOB,38.0574,-83.9829,0,0,0.0,KIOB 132255Z AUTO 00000KT 10SM OVC080 27/15 A3011 RMK AO2 PWINO,2024-08-13T22:55:00Z,27,15,10+,30.11
KINS,36.586,-115.69,220,20,23.02,KINS 132255Z AUTO 22020G26KT 10SM CLR 37/M04 A2986 RMK AO2 PK WND 22029/20 SLP049 T03721044 $,2024-08-13T22:55:00Z,37.2,-4.4,10+,29.86
KINJ,32.0844,-97.0959,190,10,11.51,KINJ 132255Z AUTO 19010KT 10SM CLR 38/21 A2996 RMK AO2 T03770207,2024-08-13T22:55:00Z,37.7,20.7,10+,29.96
KINF,28.8062,-82.319,250,3,3.45,KINF 132255Z AUTO 25003KT 7SM CLR 32/25 A3000 RMK AO2,2024-08-13T22:55:00Z,32,25,7,30.00
KIMS,38.7515,-85.4689,0,0,0.0,KIMS 132255Z AUTO 00000KT 10SM CLR 27/17 A3012 RMK AO2,2024-08-13T22:55:00Z,27,17,10+,30.12
KIMM,26.4321,-81.4073,0,0,0.0,KIMM 132255Z AUTO 00000KT 10SM CLR 34/23 A2996 RMK AO2,2024-08-13T22:55:00Z,34,23,10+,29.96
KIKW,43.6643,-84.2613,240,3,3.45,KIKW 132255Z AUTO 24003KT 10SM CLR 27/14 A3010 RMK AO2,2024-08-13T22:55:00Z,27,14,10+,30.10
KIKV,41.6878,-93.5695,VRB,5,5.75,KIKV 132255Z AUTO VRB05KT OVC042 23/19 A3011 RMK AO2,2024-08-13T22:55:00Z,23,19,,30.11
KIKK,41.0687,-87.8537,0,0,0.0,KIKK 132255Z AUTO 00000KT 10SM CLR 27/15 A3012 RMK AO2 T02690150,2024-08-13T22:55:00Z,26.9,15,10+,30.12
KIKG,27.5464,-98.0292,110,15,17.26,KIKG 132255Z AUTO 11015G19KT 10SM CLR 34/24 A2996 RMK AO2 T03440239,2024-08-13T22:55:00Z,34.4,23.9,10+,29.96
KIJX,39.774,-90.2419,80,5,5.75,KIJX 132255Z AUTO 08005KT 10SM SCT034 OVC040 24/18 A3011 RMK AO2 T02410176,2024-08-13T22:55:00Z,24.1,17.6,10+,30.11
KIIY,33.7797,-82.8135,110,3,3.45,KIIY 132255Z AUTO 11003KT 7SM -RA SCT060 BKN070 OVC080 27/24 A3003 RMK AO2 T02680237,2024-08-13T22:55:00Z,26.8,23.7,7,30.03
KIIB,42.4544,-91.9504,190,5,5.75,KIIB 132255Z AUTO 19005KT 10SM SCT033 SCT039 25/18 A3014 RMK AO2 T02520180,2024-08-13T22:55:00Z,25.2,18,10+,30.14
KIGQ,41.5412,-87.5282,70,6,6.9,KIGQ 132255Z AUTO 07006KT 10SM CLR 27/15 A3011 RMK AO2 T02730151,2024-08-13T22:55:00Z,27.3,15.1,10+,30.11
KIFA,42.4691,-93.2651,140,6,6.9,KIFA 132255Z AUTO 14006KT 10SM SCT028 OVC047 24/17 A3013 RMK AO2 T02350170,2024-08-13T22:55:00Z,23.5,17,10+,30.13
KIER,31.736,-93.1003,0,0,0.0,KIER 132255Z AUTO 00000KT 10SM SCT055 38/23 A2999 RMK AO2 T03780230,2024-08-13T22:55:00Z,37.8,23,10+,29.99
KIDP,37.1566,-95.7792,140,5,5.75,KIDP 132255Z AUTO 14005KT 10SM SCT040 32/24 A2997 RMK AO2,2024-08-13T22:55:00Z,32,24,10+,29.97
KIDI,40.6337,-79.1036,VRB,3,3.45,KIDI 132255Z AUTO VRB03KT 10SM FEW049 25/14 A3014 RMK A01,2024-08-13T22:55:00Z,25,14,10+,30.14
KICL,40.7242,-95.0222,130,3,3.45,KICL 132255Z AUTO 13003KT 10SM OVC037 24/20 A3009 RMK AO2,2024-08-13T22:55:00Z,24,20,10+,30.09
KIBM,41.1894,-103.671,350,11,12.66,KIBM 132255Z AUTO 35011G21KT 10SM -VCTSRA BKN060 BKN070 OVC080 25/16 A3003 RMK AO2 LTG DSNT ALQS T02510163,2024-08-13T22:55:00Z,25.1,16.3,10+,30.03
KI95,40.6142,-83.6374,20,3,3.45,KI95 132255Z AUTO 02003KT 10SM CLR 26/16 A3010 RMK A01,2024-08-13T22:55:00Z,26,16,10+,30.10
KI75,41.0472,-93.6876,90,4,4.6,KI75 132255Z AUTO 09004KT 5SM HZ BKN029 OVC034 23/18 A3011 RMK AO2 T02260184,2024-08-13T22:55:00Z,22.6,18.4,5,30.11
KI74,40.1314,-83.757,0,0,0.0,KI74 132255Z AUTO 00000KT 10SM CLR 26/11 A3011 RMK AO2,2024-08-13T22:55:00Z,26,11,10+,30.11
KI68,39.4664,-84.2532,10,3,3.45,KI68 132255Z AUTO 01003KT 10SM SCT080 28/17 A3009 RMK AO2,2024-08-13T22:55:00Z,28,17,10+,30.09
KI67,39.2565,-84.7753,30,4,4.6,KI67 132255Z AUTO 03004KT 10SM CLR 27/15 A3008 RMK AO1,2024-08-13T22:55:00Z,27,15,10+,30.08
KI63,39.9883,-90.8023,80,3,3.45,KI63 132255Z AUTO 08003KT 10SM OVC037 24/18 A3012 RMK AO2 T02360179,2024-08-13T22:55:00Z,23.6,17.9,10+,30.12
KI40,40.3101,-81.8544,350,3,3.45,KI40 132255Z AUTO 35003KT 10SM SCT090 SCT110 26/12 A3012 RMK AO2,2024-08-13T22:55:00Z,26,12,10+,30.12
KI35,36.8577,-83.3586,310,3,3.45,KI35 132255Z AUTO 31003KT 10SM BKN060 28/16 A3010 RMK AO2 T02830161,2024-08-13T22:55:00Z,28.3,16.1,10+,30.10
KI23,39.5697,-83.4239,330,6,6.9,KI23 132255Z AUTO 33006KT 10SM CLR 26/14 A3009 RMK AO1,2024-08-13T22:55:00Z,26,14,10+,30.09
KI16,37.5998,-81.5589,,,,KI16 132255Z AUTO 10SM BKN090 25/16 A3015 RMK AO2 T02450164,2024-08-13T22:55:00Z,24.5,16.4,10+,30.15
KHZX,46.6189,-93.3128,180,5,5.75,KHZX 132255Z AUTO 18005G08KT 10SM CLR 26/13 A3011 RMK AO2,2024-08-13T22:55:00Z,26,13,10+,30.11
KHZR,30.718,-91.48,230,5,5.75,KHZR 132255Z AUTO 23005KT 10SM 31/22 A3000 RMK AO2 T03050219,2024-08-13T22:55:00Z,30.5,21.9,10+,30.00
KHZL,40.9845,-75.9901,0,0,0.0,KHZL 132255Z AUTO 00000KT BKN085 21/14 A3012 RMK AO2 PWINO,2024-08-13T22:55:00Z,21,14,,30.12
KHZE,47.288,-101.577,150,12,13.81,KHZE 132255Z AUTO 15012G18KT 10SM 25/16 A2992 RMK AO2,2024-08-13T22:55:00Z,25,16,10+,29.92
KHZD,36.089,-88.4654,70,4,4.6,KHZD 132255Z AUTO 07004KT 10SM FEW090 29/21 A3005 RMK A01,2024-08-13T22:55:00Z,29,21,10+,30.05
KHYX,43.4319,-83.8648,80,4,4.6,KHYX 132255Z AUTO 08004KT 10SM CLR 25/13 A3011 RMK AO2,2024-08-13T22:55:00Z,25,13,10+,30.11
KHYW,33.8256,-79.1259,0,0,0.0,KHYW 132255Z AUTO 00000KT 10SM CLR 25/23 A3001 RMK AO2 LTG DSNT S,2024-08-13T22:55:00Z,25,23,10+,30.01
KHWY,38.5876,-77.715,0,0,0.0,KHWY 132255Z AUTO 00000KT 10SM CLR 28/10 A3005 RMK AO2 T02800100,2024-08-13T22:55:00Z,28,10,10+,30.05
KHVS,34.4065,-80.1198,40,7,8.06,KHVS 132255Z AUTO 04007KT 10SM BKN060 OVC065 25/20 A3004 RMK AO2,2024-08-13T22:55:00Z,25,20,10+,30.04
KHVE,38.418,-110.704,140,3,3.45,KHVE 132255Z AUTO 14003KT 10SM CLR 22/15 RMK AO2,2024-08-13T22:55:00Z,22,15,10+,
KHTH,38.5448,-118.631,340,13,14.96,KHTH 132255Z AUTO 34013KT 10SM CLR 31/M07 A2998 RMK A01,2024-08-13T22:55:00Z,31,-7,10+,29.98
KHST,25.49,-80.379,90,5,5.75,KHST 132255Z AUTO 09005KT 10SM CLR 32/25 A2997 RMK AO2 LTG DSNT SW SLP152 T03190252,2024-08-13T22:55:00Z,31.9,25.2,10+,29.97
KHSP,37.9531,-79.8285,0,0,0.0,KHSP 132255Z AUTO 00000KT 10SM 21/14 A3021 RMK AO2 T02100135,2024-08-13T22:55:00Z,21,13.5,10+,30.21
KHSG,43.7178,-108.385,290,13,14.96,KHSG 132255Z AUTO 29013KT 10SM BKN110 29/06 A2994 RMK AO2 LTG DSNT S T02860059,2024-08-13T22:55:00Z,28.6,5.9,10+,29.94
KHSB,37.8128,-88.5449,0,0,0.0,KHSB 132255Z AUTO 00000KT 10SM CLR 27/21 A3008 RMK AO2 T02650210,2024-08-13T22:55:00Z,26.5,21,10+,30.08
KHRX,34.8628,-102.32,170,14,16.11,KHRX 132255Z AUTO 17014G25KT 10SM CLR 36/08 A3004 RMK AO2 T03640084 TSNO,2024-08-13T22:55:00Z,36.4,8.4,10+,30.04
KHRT,30.428,-86.69,260,8,9.21,KHRT 132255Z 26008KT 10SM SCT070 33/24 A2998 RMK AO2A SLP150 T03270239 PWINO $,2024-08-13T22:55:00Z,32.7,23.9,10+,29.98
KHRF,46.2575,-114.127,340,4,4.6,KHRF 132255Z AUTO 34004KT 10SM CLR 23/10 A2999 RMK AO2 P0001,2024-08-13T22:55:00Z,23,10,10+,29.99
KHQU,33.5279,-82.518,60,5,5.75,KHQU 132255Z AUTO 06005KT 10SM OVC120 A3001 RMK AO2 LTG DSNT SW,2024-08-13T22:55:00Z,,,10+,30.01
KHQG,37.1647,-101.371,190,14,16.11,KHQG 132255Z AUTO 19014KT 10SM CLR 35/17 A2995 RMK AO2,2024-08-13T22:55:00Z,35,17,10+,29.95
KHPT,42.7175,-93.2244,150,4,4.6,KHPT 132255Z AUTO 15004KT 10SM SCT050 22/17 A3012 RMK AO2,2024-08-13T22:55:00Z,22,17,10+,30.12
KHOP,36.672,-87.495,0,0,0.0,KHOP 132255Z AUTO 00000KT 10SM FEW075 28/19 A3006 RMK AO2 SLP176 T02840190 $,2024-08-13T22:55:00Z,28.4,19,10+,30.06
KHON,44.3792,-98.2227,160,15,17.26,KHON 132255Z AUTO 16015G23KT 10SM BKN021 23/17 A3001 RMK AO2 SLP159 T02280167,2024-08-13T22:55:00Z,22.8,16.7,10+,30.01
KHOE,31.0561,-82.7726,280,5,5.75,KHOE 132255Z AUTO 28005KT 10SM SCT055 33/21 A2998 RMK AO2 T03390210,2024-08-13T22:55:00Z,33.9,21,10+,29.98
KHNR,41.5841,-95.3358,120,6,6.9,KHNR 132255Z AUTO 12006G13KT 10SM FEW028 FEW032 BKN042 24/19 A3007 RMK A01,2024-08-13T22:55:00Z,24,19,10+,30.07
KHMZ,40.0863,-78.5167,0,0,0.0,KHMZ 132255Z AUTO 00000KT 10SM SCT065 BKN090 25/10 A3008 RMK AO2 T02540099,2024-08-13T22:55:00Z,25.4,9.9,10+,30.08
KHMT,33.7303,-117.027,200,15,17.26,KHMT 132255Z AUTO 20015KT 10SM CLR 35/10 A2991 RMK AO2,2024-08-13T22:55:00Z,35,10,10+,29.91
KHMP,33.3916,-84.3312,0,0,0.0,KHMP 132255Z AUTO 00000KT 10SM CLR 31/19 A3006 RMK AO2 T03100193,2024-08-13T22:55:00Z,31,19.3,10+,30.06
KHMN,32.852,-106.108,280,5,5.75,KHMN 132255Z AUTO 28005KT 10SM BKN140 BKN160 36/04 A3002 RMK AO2 SLP080 T03580041 $,2024-08-13T22:55:00Z,35.8,4.1,10+,30.02
KHLX,36.7637,-80.8211,200,4,4.6,KHLX 132255Z AUTO 20004KT 10SM OVC075 21/12 A3015 RMK AO2,2024-08-13T22:55:00Z,21,12,10+,30.15
KHLR,31.1361,-97.7149,150,12,13.81,KHLR 132255Z AUTO 15012KT 10SM FEW060 36/21 A2997 RMK AO2 SLP136 T03600210,2024-08-13T22:55:00Z,36,21,10+,29.97
KHLB,39.3463,-85.2602,0,0,0.0,KHLB 132255Z AUTO 00000KT 10SM CLR 26/18 A3011 RMK A01,2024-08-13T22:55:00Z,26,18,10+,30.11
KHJH,40.1493,-97.5872,130,9,10.36,KHJH 132255Z AUTO 13009KT 10SM SCT031 28/20 A3001 RMK AO2 T02750197,2024-08-13T22:55:00Z,27.5,19.7,10+,30.01
KHII,34.5659,-114.352,190,10,11.51,KHII 132255Z AUTO 19010G16KT 10SM CLR 42/08 A2975 RMK AO2,2024-08-13T22:55:00Z,42,8,10+,29.75
KHIF,41.111,-111.962,210,8,9.21,KHIF 132255Z 21008KT 10SM TS SCT075CB 29/11 A2993 RMK AO2A LTG DSNT S TSB53 SLP069 T02850111,2024-08-13T22:55:00Z,28.5,11.1,10+,29.93
KHHW,34.0308,-95.5401,180,7,8.06,KHHW 132255Z AUTO 18007KT 10SM CLR 36/20 A2998 RMK AO2,2024-08-13T22:55:00Z,36,20,10+,29.98
KHHG,40.8543,-85.4543,0,0,0.0,KHHG 132255Z AUTO 00000KT 10SM CLR 26/14 A3011 RMK AO2 T02640140,2024-08-13T22:55:00Z,26.4,14,10+,30.11
KHHF,35.8929,-100.405,190,11,12.66,KHHF 132255Z AUTO 19011G20KT 10SM CLR 37/15 A2994 RMK AO2 T03730145,2024-08-13T22:55:00Z,37.3,14.5,10+,29.94
KHFJ,36.9105,-94.0099,130,4,4.6,KHFJ 132255Z AUTO 13004KT 10SM CLR 26/22 A3005 RMK AO2,2024-08-13T22:55:00Z,26,22,10+,30.05
KHFF,35.0424,-79.4973,310,3,3.45,KHFF 132255Z 31003KT 10SM BKN050 25/21 A3007 RMK AO2A SLPNO WND DATA ESTMD ALSTG ESTMD,2024-08-13T22:55:00Z,25,21,10+,30.07
KHEY,31.348,-85.655,320,4,4.6,KHEY 132255Z AUTO 32004KT 10SM CLR 35/21 A2996 RMK AO2 SLP144 T03470206 $,2024-08-13T22:55:00Z,34.7,20.6,10+,29.96
KHEQ,40.5715,-102.277,130,11,12.66,KHEQ 132255Z AUTO 13011G16KT 10SM CLR 28/18 A2999 RMK AO2,2024-08-13T22:55:00Z,28,18,10+,29.99
KHEG,30.2771,-81.8087,240,4,4.6,KHEG 132255Z AUTO 24004KT 10SM CLR 34/22 A2998 RMK AO2 TSNO,2024-08-13T22:55:00Z,34,22,10+,29.98
KHDE,40.4496,-99.3363,140,6,6.9,KHDE 132255Z AUTO 14006KT 10SM SCT034 BKN040 OVC049 26/21 A3000 RMK AO2 T02600212,2024-08-13T22:55:00Z,26,21.2,10+,30.00
KHDC,30.5237,-90.4176,280,5,5.75,KHDC 132255Z AUTO 28005KT 10SM CLR 32/23 A3000 RMK AO2 T03150231,2024-08-13T22:55:00Z,31.5,23.1,10+,30.00
KHCR,40.4774,-111.433,180,8,9.21,KHCR 132255Z AUTO 18008KT 10SM SCT070 BKN100 26/11 A3003 RMK AO2 T02590109,2024-08-13T22:55:00Z,25.9,10.9,10+,30.03
KHCO,48.7524,-96.9376,180,10,11.51,KHCO 132255Z AUTO 18010G14KT 10SM CLR 27/14 A3002 RMK AO2,2024-08-13T22:55:00Z,27,14,10+,30.02
KHCD,44.8597,-94.3855,170,3,3.45,KHCD 132255Z AUTO 17003KT 10SM CLR 25/16 A3011 RMK AO2 T02510157 TSNO,2024-08-13T22:55:00Z,25.1,15.7,10+,30.11
KHAI,41.9591,-85.5933,60,4,4.6,KHAI 132255Z AUTO 06004KT 7SM BKN050 BKN060 27/15 A3011 RMK AO2 T02690147,2024-08-13T22:55:00Z,26.9,14.7,7,30.11
KHAF,37.5136,-122.5,300,10,11.51,KHAF 132255Z AUTO 30010KT 7SM CLR 17/13 A3002 RMK AO2,2024-08-13T22:55:00Z,17,13,7,30.02
KHAE,39.7262,-91.4425,80,7,8.06,KHAE 132255Z AUTO 08007KT 10SM OVC029 25/18 A3010 RMK AO2,2024-08-13T22:55:00Z,25,18,10+,30.10
KGZS,35.1533,-87.0543,0,0,0.0,KGZS 132255Z AUTO 00000KT 10SM CLR 31/18 A3005 RMK A01,2024-08-13T22:55:00Z,31,18,10+,30.05
KGZL,35.2913,-95.0956,160,8,9.21,KGZL 132255Z AUTO 16008KT 10SM CLR 36/24 A3007 RMK AO2,2024-08-13T22:55:00Z,36,24,10+,30.07
KGYL,44.7588,-94.0905,120,5,5.75,KGYL 132255Z AUTO 12005KT 10SM CLR 26/16 A3009 RMK AO2 T02620159,2024-08-13T22:55:00Z,26.2,15.9,10+,30.09
KGYF,26.1292,-94.8981,100,10,11.51,KGYF 132255Z AUTO 10010KT 10SM SCT027 30/24 A3000 RMK AO2 T03000238,2024-08-13T22:55:00Z,30,23.8,10+,30.00
KGXF,32.885,-112.721,250,13,14.96,KGXF 132255Z 25013KT 10SM FEW100 42/15 A2978 RMK AO2A CB DSNT NE-SE MOV SE SLP068 T04150147 FZRANO $,2024-08-13T22:55:00Z,41.5,14.7,10+,29.78
KGXA,34.565,-117.669,270,15,17.26,KGXA 132255Z AUTO 27015KT 230V310 10SM CLR 35/08 A2992 RMK AO2 SLP094 WND DATA ESTMD T03460075,2024-08-13T22:55:00Z,34.6,7.5,10+,29.92
KGWR,46.2185,-97.6396,120,14,16.11,KGWR 132255Z AUTO 12014KT 10SM SCT042 25/21 A3001 RMK A01,2024-08-13T22:55:00Z,25,21,10+,30.01
KGWB,41.3061,-85.0585,270,5,5.75,KGWB 132255Z AUTO 27005KT 10SM CLR 27/13 A3011 RMK AO2,2024-08-13T22:55:00Z,27,13,10+,30.11
KGVW,29.1303,-94.5466,120,6,6.9,KGVW 132255Z AUTO 12006KT 10SM CLR 31/25 A3002 RMK A01,2024-08-13T22:55:00Z,31,25,10+,30.02
KGVE,38.1569,-78.1656,0,0,0.0,KGVE 132255Z AUTO 00000KT 10SM OVC065 24/19 A3005 RMK AO1 T02410192,2024-08-13T22:55:00Z,24.1,19.2,10+,30.05
KGUS,40.6375,-86.1631,340,4,4.6,KGUS 132255Z AUTO 34004KT 10SM CLR 27/13 A3009 RMK AO2 SLP188 T02650132,2024-08-13T22:55:00Z,26.5,13.2,10+,30.09
KGUR,42.261,-104.732,260,14,16.11,KGUR 132255Z AUTO 26014KT 10SM CLR 33/11 A2991 RMK AO2 LTG DSNT S SLP089 T03270107,2024-08-13T22:55:00Z,32.7,10.7,10+,29.91
KGTB,44.0617,-75.7218,270,9,10.36,KGTB 132255Z AUTO 27009KT 10SM CLR 23/17 A3001 RMK AO2 SLP160 T02320169,2024-08-13T22:55:00Z,23.2,16.9,10+,30.01
KGSB,35.3446,-77.9458,50,4,4.6,KGSB 132255Z 05004KT 10SM SCT110 BKN130 27/19 A3001 RMK AO2A SLP165 T02660189 $,2024-08-13T22:55:00Z,26.6,18.9,10+,30.01
KGRN,42.8039,-102.181,170,15,17.26,KGRN 132255Z AUTO 17015G19KT 10SM CLR 26/18 A2995 RMK AO2 T02580178,2024-08-13T22:55:00Z,25.8,17.8,10+,29.95
KGRK,31.0779,-97.8323,140,12,13.81,KGRK 132255Z AUTO 14012KT 10SM CLR 37/20 A2997 RMK AO2 SLP133 T03650198,2024-08-13T22:55:00Z,36.5,19.8,10+,29.97
KGRF,47.079,-122.58,260,7,8.06,KGRF 132255Z AUTO 26007KT 10SM OVC036 21/12 A3003 RMK AO2 SLP172 T02120115 $,2024-08-13T22:55:00Z,21.2,11.5,10+,30.03
KGPI,48.3041,-114.264,150,7,8.06,KGPI 132255Z 15007KT 10SM CLR 26/10 A2989 RMK AO2 SLP107 T02610100,2024-08-13T22:55:00Z,26.1,10,10+,29.89
KGPH,39.3248,-94.3082,120,4,4.6,KGPH 132255Z AUTO 12004KT 10SM OVC013 22/19 A3007 RMK AO2,2024-08-13T22:55:00Z,22,19,10+,30.07
KGPC,39.635,-86.816,0,0,0.0,KGPC 132255Z AUTO 00000KT 10SM CLR 24/17 A3011 RMK AO2 T02390171,2024-08-13T22:55:00Z,23.9,17.1,10+,30.11
KGOV,44.681,-84.727,350,5,5.75,KGOV 132255Z AUTO 35005KT 10SM CLR 27/12 A3011 RMK AO2 SLP201 T02670123 $,2024-08-13T22:55:00Z,26.7,12.3,10+,30.11
KGOP,31.4208,-97.7951,150,9,10.36,KGOP 132255Z AUTO 15009G15KT 10SM VCTS CLR 36/21 A2998 RMK AO2 LTG DSNT NE AND SE,2024-08-13T22:55:00Z,36,21,10+,29.98
KGOO,39.224,-121.003,VRB,5,5.75,KGOO 132255Z AUTO VRB05G10KT 10SM CLR 28/05 A3004 RMK A01,2024-08-13T22:55:00Z,28,5,10+,30.04
KGNT,35.1653,-107.902,330,9,10.36,KGNT 132255Z AUTO 33009KT 10SM CLR 26/10 A3024 RMK AO2 LTG DSNT NE AND S T02550099,2024-08-13T22:55:00Z,25.5,9.9,10+,30.24
KGNG,42.9155,-114.765,300,14,16.11,KGNG 132255Z AUTO 30014G20KT 10SM CLR 30/04 A2992 RMK AO2,2024-08-13T22:55:00Z,30,4,10+,29.92
KGNC,32.678,-102.65,160,13,14.96,KGNC 132255Z AUTO 16013G20KT 10SM SCT100 36/10 A3004 RMK AO2 T03600101,2024-08-13T22:55:00Z,36,10.1,10+,30.04
KGNB,40.0904,-105.911,250,5,5.75,KGNB 132255Z AUTO 25005KT 10SM SCT016 BKN042 OVC065 14/M03 A3036 RMK AO2 LTG DSNT SE T01441034,2024-08-13T22:55:00Z,14.4,-3.4,10+,30.36
KGMJ,36.607,-94.7369,170,10,11.51,KGMJ 132255Z AUTO 17010KT 10SM CLR 33/24 A2998 RMK AO2 TSNO,2024-08-13T22:55:00Z,33,24,10+,29.98
KGLY,38.3572,-93.6774,60,5,5.75,KGLY 132255Z AUTO 06005KT 9SM BKN015 BKN050 25/22 A3005 RMK AO2,2024-08-13T22:55:00Z,25,22,9,30.05
KGLX,28.2347,-88.9843,0,0,0.0,KGLX 132255Z AUTO 00000KT 10SM FEW033 A3004 RMK A01,2024-08-13T22:55:00Z,,,10+,30.04
KGLW,37.0337,-85.9523,0,0,0.0,KGLW 132255Z AUTO 00000KT 10SM CLR 27/18 A3009 RMK AO2 T02720181,2024-08-13T22:55:00Z,27.2,18.1,10+,30.09
KGIC,45.9411,-116.133,60,7,8.06,KGIC 132255Z AUTO 06007KT 10SM CLR 20/08 A3000 RMK AO1,2024-08-13T22:55:00Z,20,8,10+,30.00
KGHG,42.0961,-70.6769,0,0,0.0,KGHG 132255Z AUTO 00000KT 10SM CLR 22/15 A2995 RMK AO2,2024-08-13T22:55:00Z,22,15,10+,29.95
KGHB,27.8403,-91.9878,,,,KGHB 132255Z AUTO 10SM CLR 31/24 A3003 RMK A01,2024-08-13T22:55:00Z,31,24,10+,30.03
KGGP,40.7127,-86.3673,0,0,0.0,KGGP 132255Z AUTO 00000KT 10SM CLR 26/14 A3012 RMK AO2,2024-08-13T22:55:00Z,26,14,10+,30.12
KGGI,41.7097,-92.7332,140,6,6.9,KGGI 132255Z AUTO 14006KT 10SM OVC040 24/18 A3013 RMK AO2 T02420182,2024-08-13T22:55:00Z,24.2,18.2,10+,30.13
KGGF,40.871,-101.734,130,16,18.41,KGGF 132255Z AUTO 13016KT 10SM FEW023 SCT029 SCT035 26/23 A2998 RMK AO2,2024-08-13T22:55:00Z,26,23,10+,29.98
KGGE,33.3138,-79.3187,0,0,0.0,KGGE 132255Z AUTO 00000KT 7SM VCTSRA SCT019 BKN034 OVC100 25/25 A3000 RMK AO2 LTG DSNT N AND NW P0004,2024-08-13T22:55:00Z,25,25,7,30.00
KGDK,39.6935,-83.9896,0,0,0.0,KGDK 132255Z AUTO 00000KT 10SM CLR 27/16 A3008 RMK AO2,2024-08-13T22:55:00Z,27,16,10+,30.08
KGDB,44.7521,-95.5591,110,4,4.6,KGDB 132255Z AUTO 11004KT 10SM SCT039 SCT060 26/18 A3008 RMK AO2 T02600179,2024-08-13T22:55:00Z,26,17.9,10+,30.08
KGDA,37.3344,-88.1095,80,3,3.45,KGDA 132255Z AUTO 08003KT 10SM BKN055 26/19 A3008 RMK AO2 T02600194 PWINO,2024-08-13T22:55:00Z,26,19.4,10+,30.08
KGCY,36.1924,-82.8135,0,0,0.0,KGCY 132255Z AUTO 00000KT 10SM BKN070 BKN080 27/15 A3008 RMK A01,2024-08-13T22:55:00Z,27,15,10+,30.08
KGCM,36.2918,-95.4825,180,9,10.36,KGCM 132255Z AUTO 18009KT 10SM FEW042 SCT050 33/28 A2996 RMK AO2,2024-08-13T22:55:00Z,33,28,10+,29.96
KGCD,44.4029,-118.967,300,10,11.51,KGCD 132255Z AUTO 30010G17KT 10SM CLR 28/M03 A2994 RMK AO2 T02771035,2024-08-13T22:55:00Z,27.7,-3.5,10+,29.94
KGBK,27.2039,-92.2025,0,0,0.0,KGBK 132255Z AUTO 00000KT 10SM CLR 33/24 A3001 RMK A01,2024-08-13T22:55:00Z,33,24,10+,30.01
KGBG,40.9329,-90.4334,80,3,3.45,KGBG 132255Z AUTO 08003KT 10SM CLR 28/19 A3013 RMK AO2 T02750185,2024-08-13T22:55:00Z,27.5,18.5,10+,30.13
KGAO,29.4352,-90.2599,0,0,0.0,KGAO 132255Z AUTO 00000KT 10SM CLR 34/23 A3001 RMK AO2 T03350234,2024-08-13T22:55:00Z,33.5,23.4,10+,30.01
KGAF,48.4081,-97.3694,160,12,13.81,KGAF 132255Z AUTO 16012KT 8SM CLR 26/16 A3002 RMK AO2,2024-08-13T22:55:00Z,26,16,8,30.02
KFZG,31.684,-83.2712,300,3,3.45,KFZG 132255Z AUTO 30003KT 10SM CLR 33/20 A2999 RMK AO2 T03310203,2024-08-13T22:55:00Z,33.1,20.3,10+,29.99
KFYM,35.0603,-86.5656,330,6,6.9,KFYM 132255Z AUTO 33006KT 10SM CLR 30/18 A3009 RMK A01,2024-08-13T22:55:00Z,30,18,10+,30.09
KFYJ,37.5224,-76.7663,0,0,0.0,KFYJ 132255Z AUTO 00000KT 10SM BKN060 24/19 A3005 RMK AO1 T02390194,2024-08-13T22:55:00Z,23.9,19.4,10+,30.05
KFYG,38.5877,-90.9915,110,6,6.9,KFYG 132255Z AUTO 11006KT 10SM 26/23 A3007 RMK AO2,2024-08-13T22:55:00Z,26,23,10+,30.07
KFYE,35.2061,-89.3929,0,0,0.0,KFYE 132255Z AUTO 00000KT 10SM CLR 32/21 A3002 RMK A01,2024-08-13T22:55:00Z,32,21,10+,30.02
KFXY,43.2323,-93.6237,150,6,6.9,KFXY 132255Z AUTO 15006KT 10SM OVC055 23/17 A3012 RMK AO2,2024-08-13T22:55:00Z,23,17,10+,30.12
KFWC,38.3796,-88.4135,0,0,0.0,KFWC 132255Z AUTO 00000KT 10SM BKN038 27/18 A3008 RMK AO2 T02680177,2024-08-13T22:55:00Z,26.8,17.7,10+,30.08
KFTN,28.2111,-100.024,140,13,14.96,KFTN 132255Z AUTO 14013G23KT 7SM CLR 40/17 A2991 RMK A01,2024-08-13T22:55:00Z,40,17,7,29.91
KFTK,37.907,-85.973,360,4,4.6,KFTK 132255Z AUTO 36004KT 10SM CLR 28/17 A3006 RMK AO2 SLP175 T02750170,2024-08-13T22:55:00Z,27.5,17,10+,30.06
KFSW,40.6615,-91.3267,90,4,4.6,KFSW 132255Z AUTO 09004KT 10SM OVC042 24/19 A3010 RMK AO2,2024-08-13T22:55:00Z,24,19,10+,30.10
KFSK,37.796,-94.7676,120,4,4.6,KFSK 132255Z AUTO 12004KT 10SM CLR 26/22 A3003 RMK AO2 T02610224,2024-08-13T22:55:00Z,26.1,22.4,10+,30.03
KFSI,34.6457,-98.404,160,13,14.96,KFSI 132255Z AUTO 16013G19KT 10SM CLR 40/17 A2988 RMK AO2 SLP103 T03970165 FZRANO $,2024-08-13T22:55:00Z,39.7,16.5,10+,29.88
KFSE,47.589,-95.773,150,7,8.06,KFSE 132255Z AUTO 15007KT 10SM CLR 26/11 A3008 RMK AO2,2024-08-13T22:55:00Z,26,11,10+,30.08
KFRR,38.9169,-78.2487,0,0,0.0,KFRR 132255Z AUTO 00000KT 10SM OVC075 25/15 A3006 RMK AO1,2024-08-13T22:55:00Z,25,15,10+,30.06
KFRI,39.0568,-96.7617,100,10,11.51,KFRI 132255Z 10010KT 10SM FEW160 28/22 A2998 RMK AO2A SLP141 T02810216 PNO $,2024-08-13T22:55:00Z,28.1,21.6,10+,29.98
KFRH,38.5034,-86.6442,0,0,0.0,KFRH 132255Z AUTO 00000KT 10SM CLR 25/14 A3010 RMK AO1,2024-08-13T22:55:00Z,25,14,10+,30.10
KFPY,30.0719,-83.5731,190,4,4.6,KFPY 132255Z AUTO 19004KT 10SM CLR 31/26 A2998 RMK AO2 T03110263,2024-08-13T22:55:00Z,31.1,26.3,10+,29.98
KFPK,42.5764,-84.8125,330,4,4.6,KFPK 132255Z AUTO 33004KT 10SM CLR 26/14 A3010 RMK AO2,2024-08-13T22:55:00Z,26,14,10+,30.10
KFOT,40.5529,-124.134,290,13,14.96,KFOT 132255Z AUTO 29013G17KT 10SM FEW100 FEW120 21/14 A3006 RMK AO1,2024-08-13T22:55:00Z,21,14,10+,30.06
KFOM,38.9618,-112.36,,,,KFOM 132255Z AUTO 10SM CLR 35/M02 A3001 RMK AO1,2024-08-13T22:55:00Z,35,-2,10+,30.01
KFMM,40.3315,-103.807,80,9,10.36,KFMM 132255Z AUTO 08009KT 10SM CLR 30/17 A2998 RMK AO2 LTG DSNT S AND SW,2024-08-13T22:55:00Z,30,17,10+,29.98
KFLY,38.9439,-104.568,170,18,20.71,KFLY 132255Z AUTO 17018G27KT 10SM -VCTSRA SCT028 SCT050 BKN090 24/12 A3018 RMK AO2 LTG DSNT SE THRU NW T02410123,2024-08-13T22:55:00Z,24.1,12.3,10+,30.18
KFKS,44.6246,-86.1985,290,5,5.75,KFKS 132255Z AUTO 29005KT 10SM CLR 25/15 A3013 RMK AO2 T02500145,2024-08-13T22:55:00Z,25,14.5,10+,30.13
KFKR,40.2748,-86.5644,40,6,6.9,KFKR 132255Z AUTO 04006KT 10SM FEW050 25/16 A3011 RMK AO2,2024-08-13T22:55:00Z,25,16,10+,30.11
KFKN,36.6984,-76.9032,230,3,3.45,KFKN 132255Z AUTO 23003KT 10SM CLR 26/17 A3005 RMK AO2 T02620168,2024-08-13T22:55:00Z,26.2,16.8,10+,30.05
KFKA,43.677,-92.174,170,6,6.9,KFKA 132255Z AUTO 17006KT 9SM CLR 26/15 A3012 RMK AO2,2024-08-13T22:55:00Z,26,15,9,30.12
KFHU,31.586,-110.348,300,8,9.21,KFHU 132255Z 30008KT 10SM VCTS SCT075CB BKN100 32/13 A3012 RMK AO2A SLP125 T03180126,2024-08-13T22:55:00Z,31.8,12.6,10+,30.12
KFHB,30.6131,-81.4623,160,8,9.21,KFHB 132255Z AUTO 16008KT 10SM SCT060 OVC095 30/25 A2996 RMK AO2,2024-08-13T22:55:00Z,30,25,10+,29.96
KFGX,38.5383,-83.7467,50,4,4.6,KFGX 132255Z AUTO 05004KT 10SM BKN070 OVC085 27/12 A3010 RMK AO2 T02730121,2024-08-13T22:55:00Z,27.3,12.1,10+,30.10
KFFX,43.4417,-85.9936,280,8,9.21,KFFX 132255Z AUTO 28008KT 10SM CLR 26/15 A3011 RMK AO2 T02620151,2024-08-13T22:55:00Z,26.2,15.1,10+,30.11
KFFO,39.837,-84.035,10,5,5.75,KFFO 132255Z AUTO 01005KT 10SM CLR 28/13 A3008 RMK AO2 SLP183 T02770125,2024-08-13T22:55:00Z,27.7,12.5,10+,30.08
KFFM,46.2865,-96.1534,150,10,11.51,KFFM 132255Z AUTO 15010G15KT 10SM SCT047 BKN060 OVC070 25/21 A3006 RMK AO2,2024-08-13T22:55:00Z,25,21,10+,30.06
KFFL,41.0521,-91.9834,140,4,4.6,KFFL 132255Z AUTO 14004KT 10SM OVC040 24/18 A3011 RMK A01,2024-08-13T22:55:00Z,24,18,10+,30.11
KFET,41.4489,-96.5237,150,7,8.06,KFET 132255Z AUTO 15007KT 10SM OVC040 26/19 A3005 RMK AO2 T02570185,2024-08-13T22:55:00Z,25.7,18.5,10+,30.05
KFEP,42.2475,-89.581,230,3,3.45,KFEP 132255Z AUTO 23003KT 10SM CLR 27/14 A3014 RMK AO2 T02660144,2024-08-13T22:55:00Z,26.6,14.4,10+,30.14
KFDW,34.3151,-81.1119,50,8,9.21,KFDW 132255Z AUTO 05008KT 10SM BKN018 BKN037 25/21 A3003 RMK AO1,2024-08-13T22:55:00Z,25,21,10+,30.03
KFCS,38.6756,-104.751,190,17,19.56,KFCS 132255Z COR 19017G31KT 10SM TS FEW014 BKN050 OVC090 23/12 A3007 RMK AO2A PK WND 18035/03 RAB38E47 TSB42 SLP127 P0000 T02310115 $ COR 2259,2024-08-13T22:55:00Z,23.1,11.5,10+,30.07
KFCH,36.7338,-119.82,290,9,10.36,KFCH 132255Z AUTO 29009KT 10SM CLR 36/01 A2988 RMK A01,2024-08-13T22:55:00Z,36,1,10+,29.88
KFBR,41.3941,-110.406,40,9,10.36,KFBR 132255Z AUTO 04009KT 10SM SCT060 SCT070 BKN110 17/12 A3017 RMK AO2 LTG DSNT NE AND E T01700124,2024-08-13T22:55:00Z,17,12.4,10+,30.17
KFBL,44.3298,-93.3119,130,6,6.9,KFBL 132255Z AUTO 13006KT 10SM SCT050 27/16 A3011 RMK AO2,2024-08-13T22:55:00Z,27,16,10+,30.11
KFBG,35.131,-78.932,0,0,0.0,KFBG 132255Z AUTO 00000KT 10SM BKN070 26/21 A3003 RMK AO2 SLP170 T02560210 $,2024-08-13T22:55:00Z,25.6,21,10+,30.03
KF70,33.577,-117.126,210,9,10.36,KF70 132255Z AUTO 21009G16KT 10SM CLR 33/10 A2992 RMK AO2,2024-08-13T22:55:00Z,33,10,10+,29.92
KF46,32.9322,-96.4349,160,8,9.21,KF46 132255Z AUTO 16008G14KT 120V190 10SM CLR 36/21 A2997 RMK AO2 T03620208,2024-08-13T22:55:00Z,36.2,20.8,10+,29.97
KF44,32.165,-95.829,150,7,8.06,KF44 132255Z AUTO 15007KT 10SM CLR 35/22 A2998 RMK AO2,2024-08-13T22:55:00Z,35,22,10+,29.98
KF17,31.8277,-94.154,0,0,0.0,KF17 132255Z AUTO 00000KT 10SM CLR 32/22 A3001 RMK AO2,2024-08-13T22:55:00Z,32,22,10+,30.01
KF05,34.2283,-99.2834,180,13,14.96,KF05 132255Z AUTO 18013G16KT 10SM CLR 41/16 A2991 RMK AO2 T04050155,2024-08-13T22:55:00Z,40.5,15.5,10+,29.91
KF00,33.6158,-96.1809,150,12,13.81,KF00 132255Z AUTO 15012KT 10SM SCT070 37/21 A2997 RMK AO2 T03660205,2024-08-13T22:55:00Z,36.6,20.5,10+,29.97
KEZZ,39.729,-94.2785,120,7,8.06,KEZZ 132255Z AUTO 12007KT 10SM OVC015 23/21 A3009 RMK AO2 T02290208,2024-08-13T22:55:00Z,22.9,20.8,10+,30.09
KEZS,44.787,-88.5639,120,3,3.45,KEZS 132255Z AUTO 12003KT 10SM CLR 29/17 A3011 RMK AO2 T02850168,2024-08-13T22:55:00Z,28.5,16.8,10+,30.11
KEZP,28.2198,-92.7944,90,4,4.6,KEZP 132255Z AUTO 09004KT 10SM FEW026 31/25 A3003 RMK A01,2024-08-13T22:55:00Z,31,25,10+,30.03
KEZM,32.2136,-83.1321,290,4,4.6,KEZM 132255Z AUTO 29004KT 10SM SCT065 33/18 A3000 RMK AO2,2024-08-13T22:55:00Z,33,18,10+,30.00
KEZF,38.2685,-77.448,0,0,0.0,KEZF 132255Z AUTO 00000KT 10SM CLR 28/12 A3003 RMK AO2 T02800115,2024-08-13T22:55:00Z,28,11.5,10+,30.03
KEVU,40.3524,-94.9137,110,6,6.9,KEVU 132255Z AUTO 11006KT 10SM OVC018 24/21 A3007 RMK AO2 T02420211,2024-08-13T22:55:00Z,24.2,21.1,10+,30.07
KEVM,47.4274,-92.4972,0,0,0.0,KEVM 132255Z AUTO 00000KT 10SM CLR 25/16 A3012 RMK AO2 T02530164,2024-08-13T22:55:00Z,25.3,16.4,10+,30.12
KETO,28.0336,-89.1008,0,0,0.0,KETO 132255Z AUTO 00000KT 10SM CLR 34/24 A3002 RMK A01,2024-08-13T22:55:00Z,34,24,10+,30.02
KETN,32.4164,-98.8113,180,11,12.66,KETN 132255Z AUTO 18011G20KT 10SM CLR 37/16 A2997 RMK AO2 T03740162,2024-08-13T22:55:00Z,37.4,16.2,10+,29.97
KETB,43.4225,-88.1326,130,4,4.6,KETB 132255Z AUTO 13004KT 10SM CLR 25/14 A3012 RMK AO2,2024-08-13T22:55:00Z,25,14,10+,30.12
KERY,46.3151,-85.4568,210,7,8.06,KERY 132255Z AUTO 21007KT 10SM BKN060 BKN070 26/13 A3010 RMK AO2 T02600134,2024-08-13T22:55:00Z,26,13.4,10+,30.10
KERV,29.9779,-99.0872,150,14,16.11,KERV 132255Z AUTO 15014G17KT 10SM SCT080 35/19 A3001 RMK AO2 T03500193,2024-08-13T22:55:00Z,35,19.3,10+,30.01
KEQA,37.7753,-96.8145,150,10,11.51,KEQA 132255Z AUTO 15010KT 10SM CLR 31/24 A2999 RMK AO2,2024-08-13T22:55:00Z,31,24,10+,29.99
KENL,38.5095,-89.09,0,0,0.0,KENL 132255Z AUTO 00000KT 10SM CLR 27/19 A3009 RMK AO2 T02690189,2024-08-13T22:55:00Z,26.9,18.9,10+,30.09
KEND,36.338,-97.919,170,15,17.26,KEND 132255Z AUTO 17015G20KT 10SM CLR 37/21 A2989 RMK AO2 SLP105 T03680209 $,2024-08-13T22:55:00Z,36.8,20.9,10+,29.89
KEMV,36.6858,-77.485,0,0,0.0,KEMV 132255Z AUTO 00000KT 10SM SCT110 25/18 A3007 RMK AO2 T02500184,2024-08-13T22:55:00Z,25,18.4,10+,30.07
KEMM,41.8224,-110.555,170,3,3.45,KEMM 132255Z AUTO 17003KT 10SM CLR 18/08 A3017 RMK AO2 LTG DSNT E AND SE,2024-08-13T22:55:00Z,18,8,10+,30.17
KELO,47.8287,-91.8371,140,5,5.75,KELO 132255Z AUTO 14005KT 10SM CLR 26/14 A3011 RMK AO2,2024-08-13T22:55:00Z,26,14,10+,30.11
KELK,35.4261,-99.3926,170,14,16.11,KELK 132255Z AUTO 17014KT 10SM CLR 37/17 A2994 RMK AO2 T03730168 $,2024-08-13T22:55:00Z,37.3,16.8,10+,29.94
KELA,29.602,-96.3239,,,,KELA 132255Z AUTO 10SM CLR 34/23 A2998 RMK AO2 T03430233,2024-08-13T22:55:00Z,34.3,23.3,10+,29.98
KEKX,37.6924,-85.9204,20,3,3.45,KEKX 132255Z AUTO 02003KT 10SM CLR 27/16 A3008 RMK AO2 T02660156,2024-08-13T22:55:00Z,26.6,15.6,10+,30.08
KEKS,45.276,-111.65,80,13,14.96,KEKS 132255Z AUTO 08013KT 3SM RA SCT033 BKN041 BKN050 13/10 A3015 RMK AO2 P0010,2024-08-13T22:55:00Z,13,10,3,30.15
KEKM,41.7222,-86,350,3,3.45,KEKM 132255Z 35003KT 10SM CLR 27/13 A3010 RMK AO2 T02730126 $,2024-08-13T22:55:00Z,27.3,12.6,10+,30.10
KEKE,28.4971,-91.5702,0,0,0.0,KEKE 132255Z AUTO 00000KT 10SM FEW026 35/25 A2996 RMK A01,2024-08-13T22:55:00Z,35,25,10+,29.96
KEIK,40.0117,-105.05,330,8,9.21,KEIK 132255Z AUTO 33008KT 8SM FEW160 24/14 A3005 RMK AO2 LTG DSNT NE AND E AND S AND SW T02400138,2024-08-13T22:55:00Z,24,13.8,8,30.05
KEHY,41.725,-106.459,220,17,19.56,KEHY 132255Z AUTO 22017G24KT 10SM CLR 22/03 A3015 RMK AO2 LTG DSNT N PWINO,2024-08-13T22:55:00Z,22,3,10+,30.15
KEHA,37.0011,-101.88,180,12,13.81,KEHA 132255Z AUTO 18012KT 10SM CLR 34/14 A3001 RMK AO2 T03380139,2024-08-13T22:55:00Z,33.8,13.9,10+,30.01
KEGV,45.9309,-89.267,0,0,0.0,KEGV 132255Z AUTO 00000KT 4SM RA SCT050 OVC060 19/18 A3016 RMK AO2 P0002 T01940177,2024-08-13T22:55:00Z,19.4,17.7,4,30.16
KEGT,37.3251,-97.3901,140,10,11.51,KEGT 132255Z AUTO 14010G17KT 10SM CLR 33/24 A2996 RMK AO2 T03320243,2024-08-13T22:55:00Z,33.2,24.3,10+,29.96
KEGI,30.653,-86.525,320,5,5.75,KEGI 132255Z AUTO 32005KT 10SM SCT090 35/18 A2999 RMK AO2 SLP154 T03520183 $,2024-08-13T22:55:00Z,35.2,18.3,10+,29.99
KEFT,42.6196,-89.5931,200,3,3.45,KEFT 132255Z AUTO 20003KT 10SM CLR 27/14 A3012 RMK AO2 T02680138,2024-08-13T22:55:00Z,26.8,13.8,10+,30.12
KEFK,44.8886,-72.2296,280,3,3.45,KEFK 132255Z AUTO 28003KT 10SM CLR 23/15 A3000 RMK AO2 T02260150,2024-08-13T22:55:00Z,22.6,15,10+,30.00
KEDW,34.908,-117.874,210,16,18.41,KEDW 132255Z 21016G27KT 90SM CLR 36/04 A2988 RMK AO2A PK WND 23028/13 SLP091 T03600043,2024-08-13T22:55:00Z,36,4.3,90,29.88
KEDJ,40.3714,-83.8142,0,0,0.0,KEDJ 132255Z AUTO 00000KT 10SM CLR 27/13 A3012 RMK A01,2024-08-13T22:55:00Z,27,13,10+,30.12
KECU,29.948,-100.174,140,15,17.26,KECU 132255Z AUTO 14015G21KT 10SM 35/16 A3006 RMK AO2,2024-08-13T22:55:00Z,35,16,10+,30.06
KECS,43.8845,-104.312,140,5,5.75,KECS 132255Z AUTO 14005KT 10SM CLR 31/06 A2991 RMK AO2,2024-08-13T22:55:00Z,31,6,10+,29.91
KEBS,42.4372,-93.8725,160,6,6.9,KEBS 132255Z AUTO 16006KT 10SM FEW035 OVC043 22/18 A3010 RMK AO2,2024-08-13T22:55:00Z,22,18,10+,30.10
KEBG,26.4433,-98.1255,150,18,20.71,KEBG 132255Z AUTO 15018KT 10SM SCT060 37/21 A2992 RMK AO2,2024-08-13T22:55:00Z,37,21,10+,29.92
KEBA,34.0957,-82.8121,70,4,4.6,KEBA 132255Z AUTO 07004KT 10SM SCT070 BKN080 BKN110 28/24 A3002 RMK AO2 T02810237,2024-08-13T22:55:00Z,28.1,23.7,10+,30.02
KEAT,47.3975,-120.201,130,9,10.36,KEAT 132255Z AUTO 13009G18KT 10SM CLR 27/11 A2986 RMK AO2 SLP103 T02720111,2024-08-13T22:55:00Z,27.2,11.1,10+,29.86
KEAN,42.0563,-104.939,280,11,12.66,KEAN 132255Z AUTO 28011G19KT 10SM CLR 32/07 A2997 RMK AO2 LTG DSNT SE T03160070,2024-08-13T22:55:00Z,31.6,7,10+,29.97
KE77,32.634,-110.647,280,11,12.66,KE77 132255Z AUTO 28011G16KT 10SM VCTS 32/15 A3007 RMK AO2 LTG DSNT S-NW,2024-08-13T22:55:00Z,32,15,10+,30.07
KE57,32.976,-102.843,180,13,14.96,KE57 132255Z AUTO 18013G21KT 10SM CLR 36/09 A3002 RMK AO2,2024-08-13T22:55:00Z,36,9,10+,30.02
KE42,36.2193,-101.194,180,12,13.81,KE42 132255Z AUTO 18012G17KT 10SM CLR 35/14 A2998 RMK AO2 T03530143,2024-08-13T22:55:00Z,35.3,14.3,10+,29.98
KE41,31.1945,-101.473,150,15,17.26,KE41 132255Z AUTO 15015KT 10SM CLR 35/14 A3001 RMK AO2 LTG DSNT SW T03540139,2024-08-13T22:55:00Z,35.4,13.9,10+,30.01
KE38,30.3851,-103.68,0,0,0.0,KE38 132255Z AUTO 00000KT 10SM CLR 34/09 A3011 RMK AO2 LTG DSNT SW T03370092,2024-08-13T22:55:00Z,33.7,9.2,10+,30.11
KE16,37.0797,-121.598,330,10,11.51,KE16 132255Z AUTO 33010KT 10SM CLR 30/07 A2995 RMK AO2,2024-08-13T22:55:00Z,30,7,10+,29.95
KE11,32.3281,-102.528,160,14,16.11,KE11 132255Z AUTO 16014G22KT 10SM SCT095 36/12 A3001 RMK AO2 T03580120,2024-08-13T22:55:00Z,35.8,12,10+,30.01
KE01,31.5804,-102.908,140,10,11.51,KE01 132255Z AUTO 14010G20KT 10SM FEW090 38/13 A2992 RMK AO2,2024-08-13T22:55:00Z,38,13,10+,29.92
KDZJ,34.8552,-84.0014,300,5,5.75,KDZJ 132255Z AUTO 30005KT 10SM CLR 26/18 A3011 RMK AO2 T02580179,2024-08-13T22:55:00Z,25.8,17.9,10+,30.11
KDZB,30.521,-98.3574,160,9,10.36,KDZB 132255Z AUTO 16009KT 10SM SCT065 36/18 A2999 RMK AO2 T03560184,2024-08-13T22:55:00Z,35.6,18.4,10+,29.99
KDYT,46.7231,-92.0438,VRB,4,4.6,KDYT 132255Z AUTO VRB04KT 7SM CLR 24/18 A3007 RMK AO2,2024-08-13T22:55:00Z,24,18,7,30.07
KDYS,32.406,-99.85,160,16,18.41,KDYS 132255Z AUTO 16016KT 10SM CLR 39/13 A2993 RMK AO2 SLP103 T03870131,2024-08-13T22:55:00Z,38.7,13.1,10+,29.93
KDYB,33.062,-80.28,360,3,3.45,KDYB 132255Z AUTO 36003KT 10SM FEW016 FEW070 BKN100 27/26 A2998 RMK AO2 LTG DSNT E,2024-08-13T22:55:00Z,27,26,10+,29.98
KDYA,32.4641,-87.9504,0,0,0.0,KDYA 132255Z AUTO 00000KT 10SM CLR 34/20 A3000 RMK AO2 T03400202,2024-08-13T22:55:00Z,34,20.2,10+,30.00
KDXX,44.9839,-96.1789,160,8,9.21,KDXX 132255Z AUTO 16008KT 10SM SCT055 26/21 A3007 RMK AO2,2024-08-13T22:55:00Z,26,21,10+,30.07
KDWX,41.037,-107.5,180,12,13.81,KDWX 132255Z AUTO 18012G15KT 10SM CLR 22/11 A3021 RMK AO2 LTG DSNT S T02230108,2024-08-13T22:55:00Z,22.3,10.8,10+,30.21
KDWA,38.5803,-121.854,180,9,10.36,KDWA 132255Z AUTO 18009KT 10SM CLR 31/12 A2991 RMK AO2,2024-08-13T22:55:00Z,31,12,10+,29.91
KDVO,38.1417,-122.555,270,9,10.36,KDVO 132255Z AUTO 27009G18KT 230V340 10SM CLR 30/10 A2992 RMK AO2,2024-08-13T22:55:00Z,30,10,10+,29.92
KDUX,35.8608,-102.009,160,15,17.26,KDUX 132255Z AUTO 16015KT 10SM CLR 35/09 A3001 RMK AO2 T03450094,2024-08-13T22:55:00Z,34.5,9.4,10+,30.01
KDUC,34.4778,-97.9616,160,15,17.26,KDUC 132255Z AUTO 16015G19KT 10SM SCT080 39/18 A2995 RMK AO2,2024-08-13T22:55:00Z,39,18,10+,29.95
KDUA,33.9427,-96.3967,190,8,9.21,KDUA 132255Z AUTO 19008KT 10SM SCT070 37/16 A2999 RMK AO2,2024-08-13T22:55:00Z,37,16,10+,29.99
KDTL,46.8286,-95.8857,180,7,8.06,KDTL 132255Z AUTO 18007KT 10SM FEW042 FEW070 25/16 A3007 RMK AO2,2024-08-13T22:55:00Z,25,16,10+,30.07
KDTA,39.3879,-112.504,220,15,17.26,KDTA 132255Z AUTO 22015G23KT 180V240 10SM SCT120 33/01 A2994 RMK AO1,2024-08-13T22:55:00Z,33,1,10+,29.94
KDRP,35.1213,-90.8246,0,0,0.0,KDRP 132255Z AUTO 00000KT 10SM CLR 26/16 A3002 RMK AO2,2024-08-13T22:55:00Z,26,16,10+,30.02
KDRM,46.009,-83.743,0,0,0.0,KDRM 132255Z AUTO 00000KT 10SM CLR 25/12 A3010 RMK AO2 T02480123,2024-08-13T22:55:00Z,24.8,12.3,10+,30.10
KDRI,30.8344,-93.3359,230,6,6.9,KDRI 132255Z AUTO 23006KT 10SM CLR 35/25 A2999 RMK AO2 T03520248,2024-08-13T22:55:00Z,35.2,24.8,10+,29.99
KDQH,31.4739,-82.8609,290,5,5.75,KDQH 132255Z AUTO 29005KT 10SM CLR 34/20 A2999 RMK AO2 T03350201,2024-08-13T22:55:00Z,33.5,20.1,10+,29.99
KDPG,40.187,-112.934,20,12,13.81,KDPG 132255Z 02012KT 35SM BKN080 BKN110 BKN140 22/15 A2992 RMK PK WND 35040/2210 SH DSNT NE SLP088 P0003 T02190146 LAST,2024-08-13T22:55:00Z,21.9,14.6,35,29.92
KDOV,39.13,-75.465,260,8,9.21,KDOV 132255Z AUTO 26008KT 10SM FEW095 27/14 A3000 RMK AO2 SLP162 T02650142,2024-08-13T22:55:00Z,26.5,14.2,10+,30.00
KDNV,40.2032,-87.5897,0,0,0.0,KDNV 132255Z AUTO 00000KT 1 1/4SM HZ VV007 27/15 A3011 RMK AO2 VIS 1/2V5 T02670146,2024-08-13T22:55:00Z,26.7,14.6,1.25,30.11
KDNS,41.9842,-95.38,110,9,10.36,KDNS 132255Z AUTO 11009KT 10SM SCT034 25/19 A3008 RMK AO2,2024-08-13T22:55:00Z,25,19,10+,30.08
KDNN,34.727,-84.8733,360,6,6.9,KDNN 132255Z AUTO 36006KT 10SM CLR 30/18 A3003 RMK AO2 T03020183,2024-08-13T22:55:00Z,30.2,18.3,10+,30.03
KDNA,31.875,-106.694,VRB,3,3.45,KDNA 132255Z AUTO VRB03KT 10SM FEW120 34/09 A3002 RMK AO2 LTG DSNT S AND NW,2024-08-13T22:55:00Z,34,9,10+,30.02
KDMA,32.165,-110.887,270,7,8.06,KDMA 132255Z AUTO 27007KT 10SM CLR 36/14 A2993 RMK AO2 LTG DSNT NE TSE17 SLP085 T03570143 $,2024-08-13T22:55:00Z,35.7,14.3,10+,29.93
KDLZ,40.281,-83.114,50,6,6.9,KDLZ 132255Z AUTO 05006KT 10SM CLR 27/14 A3010 RMK AO2,2024-08-13T22:55:00Z,27,14,10+,30.10
KDLO,35.7449,-119.239,20,4,4.6,KDLO 132255Z AUTO 02004KT 10SM CLR 34/05 A2986 RMK AO2 T03400046,2024-08-13T22:55:00Z,34,4.6,10+,29.86
KDLL,43.5236,-89.7736,0,0,0.0,KDLL 132255Z AUTO 00000KT 10SM SCT060 27/17 A3012 RMK AO2 T02660169,2024-08-13T22:55:00Z,26.6,16.9,10+,30.12
KDLH,46.8435,-92.1866,160,7,8.06,KDLH 132255Z 16007KT 10SM FEW055 27/14 A3011 RMK AO2 SLP192 T02670144,2024-08-13T22:55:00Z,26.7,14.4,10+,30.11
KDLF,29.3666,-100.785,150,18,20.71,KDLF 132255Z AUTO 15018G24KT 10SM CLR 40/15 A2986 RMK AO2 PK WND 11027/24 SLP095 T03960152 $,2024-08-13T22:55:00Z,39.6,15.2,10+,29.86
KDKX,35.9658,-83.8717,0,0,0.0,KDKX 132255Z AUTO 00000KT 10SM BKN070 27/19 A3005 RMK A01,2024-08-13T22:55:00Z,27,19,10+,30.05
KDKR,31.3097,-95.4039,160,6,6.9,KDKR 132255Z AUTO 16006KT 10SM CLR 34/25 A2999 RMK AO2,2024-08-13T22:55:00Z,34,25,10+,29.99
KDKB,41.9338,-88.7066,0,0,0.0,KDKB 132255Z AUTO 00000KT 10SM SCT050 25/16 A3012 RMK AO2 T02520158,2024-08-13T22:55:00Z,25.2,15.8,10+,30.12
KDEH,43.2755,-91.7433,150,5,5.75,KDEH 132255Z AUTO 15005KT 10SM CLR 26/13 A3011 RMK AO2,2024-08-13T22:55:00Z,26,13,10+,30.11
KDCY,38.6953,-87.1314,0,0,0.0,KDCY 132255Z AUTO 00000KT 10SM CLR 27/14 A3009 RMK AO2 T02680144,2024-08-13T22:55:00Z,26.8,14.4,10+,30.09
KDCM,34.7908,-81.1987,70,5,5.75,KDCM 132255Z AUTO 07005KT 10SM CLR 25/19 A3007 RMK AO2 LTG DSNT SE,2024-08-13T22:55:00Z,25,19,10+,30.07
KDAA,38.714,-77.178,300,6,6.9,KDAA 132255Z 30006KT 9999 CLR 29/12 A3001 RMK AO2A SLPNO T02900120 $,2024-08-13T22:55:00Z,29,12,6+,30.01
KD95,43.0675,-83.2702,20,9,10.36,KD95 132255Z AUTO 02009KT 10SM CLR 27/14 A3012 RMK AO2 T02650141,2024-08-13T22:55:00Z,26.5,14.1,10+,30.12
KD73,33.7826,-83.6948,350,3,3.45,KD73 132255Z AUTO 35003KT 10SM CLR 32/19 A3002 RMK AO2 T03180187,2024-08-13T22:55:00Z,31.8,18.7,10+,30.02
KD60,48.3834,-102.898,160,12,13.81,KD60 132255Z AUTO 16012G19KT 10SM OVC030 25/19 A2992 RMK AO2,2024-08-13T22:55:00Z,25,19,10+,29.92
KD57,46.814,-101.864,110,13,14.96,KD57 132255Z AUTO 11013G19KT 10SM SCT055 SCT070 BKN110 23/19 A2989 RMK AO2,2024-08-13T22:55:00Z,23,19,10+,29.89
KD50,48.9248,-103.296,160,14,16.11,KD50 132255Z AUTO 16014KT 10SM CLR 29/16 A2987 RMK AO2,2024-08-13T22:55:00Z,29,16,10+,29.87
KD39,45.7057,-94.9308,130,8,9.21,KD39 132255Z AUTO 13008KT 10SM SCT120 26/14 A3010 RMK AO2 T02560138,2024-08-13T22:55:00Z,25.6,13.8,10+,30.10
KD09,48.83,-100.417,130,13,14.96,KD09 132255Z AUTO 13013G19KT 10SM FEW100 23/18 A2996 RMK AO2,2024-08-13T22:55:00Z,23,18,10+,29.96
KCYD,28.1694,-89.2228,0,0,0.0,KCYD 132255Z AUTO 00000KT 7SM HZ BKN033 BKN040 30/24 A3004 RMK A02 T03050242,2024-08-13T22:55:00Z,30.5,24.2,7,30.04
KCXU,31.2141,-84.2358,0,0,0.0,KCXU 132255Z AUTO 00000KT 10SM CLR 33/23 A2998 RMK AO1 T03290226,2024-08-13T22:55:00Z,32.9,22.6,10+,29.98
KCXP,39.1905,-119.732,260,12,13.81,KCXP 132255Z AUTO 26012G21KT 10SM CLR 28/00 A3008 RMK AO2,2024-08-13T22:55:00Z,28,0,10+,30.08
KCXE,36.7923,-78.5027,0,0,0.0,KCXE 132255Z AUTO 00000KT 10SM SCT065 OVC085 23/22 A3008 RMK AO1 T02330220,2024-08-13T22:55:00Z,23.3,22,10+,30.08
KCWV,32.193,-81.873,320,5,5.75,KCWV 132255Z AUTO 32005KT 10SM CLR 34/21 A2995 RMK AO2,2024-08-13T22:55:00Z,34,21,10+,29.95
KCWN,38.748,-104.847,190,27,31.07,KCWN 132255Z AUTO 19027G33KT 9SM +TSRA OVC090 20/12 A2999 RMK AO2 RAB16E28RAB45 TSB40 PRESFR SLP976 P0005 T01970124 $,2024-08-13T22:55:00Z,19.7,12.4,9,29.99
KCWC,33.8629,-98.4914,160,14,16.11,KCWC 132255Z AUTO 16014G24KT 10SM CLR 39/17 A2993 RMK AO2 T03890174,2024-08-13T22:55:00Z,38.9,17.4,10+,29.93
KCVX,45.304,-85.2689,290,6,6.9,KCVX 132255Z AUTO 29006KT 10SM CLR 23/17 A3012 RMK AO2 T02330170,2024-08-13T22:55:00Z,23.3,17,10+,30.12
KCVS,34.381,-103.322,140,18,20.71,KCVS 132255Z AUTO 14018G22KT 10SM FEW100 35/06 A3003 RMK AO2 PK WND 17026/04 SLP087 T03480061 $,2024-08-13T22:55:00Z,34.8,6.1,10+,30.03
KCVH,36.8919,-121.41,250,15,17.26,KCVH 132255Z AUTO 25015KT 10SM CLR 27/09 A2995 RMK A01,2024-08-13T22:55:00Z,27,9,10+,29.95
KCVC,33.6312,-83.8482,290,6,6.9,KCVC 132255Z AUTO 29006KT 10SM FEW070 32/19 A2999 RMK AO2,2024-08-13T22:55:00Z,32,19,10+,29.99
KCVB,29.343,-98.8497,150,11,12.66,KCVB 132255Z AUTO 15011G16KT 10SM SCT080 SCT090 A2996 RMK AO2,2024-08-13T22:55:00Z,,,10+,29.96
KCUH,35.949,-96.768,170,10,11.51,KCUH 132255Z AUTO 17010G15KT 140V200 10SM CLR 35/21 A2994 RMK AO2 T03500212,2024-08-13T22:55:00Z,35,21.2,10+,29.94
KCTJ,33.6313,-85.1538,300,4,4.6,KCTJ 132255Z AUTO 30004KT 10SM SCT060 BKN090 31/18 A3009 RMK AO2 T03050182,2024-08-13T22:55:00Z,30.5,18.2,10+,30.09
KCSQ,41.0188,-94.361,90,9,10.36,KCSQ 132255Z AUTO 09009KT 080V140 10SM FEW035 24/19 A3008 RMK AO2,2024-08-13T22:55:00Z,24,19,10+,30.08
KCSB,40.307,-100.162,110,8,9.21,KCSB 132255Z AUTO 11008KT 10SM FEW031 FEW042 OVC050 26/21 A2998 RMK AO2,2024-08-13T22:55:00Z,26,21,10+,29.98
KCRX,34.9209,-88.6071,350,4,4.6,KCRX 132255Z AUTO 35004KT 10SM CLR 32/20 A3005 RMK AO2,2024-08-13T22:55:00Z,32,20,10+,30.05
KCQW,34.7128,-79.9622,0,0,0.0,KCQW 132255Z AUTO 00000KT 10SM CLR 25/22 A3004 RMK AO2,2024-08-13T22:55:00Z,25,22,10+,30.04
KCQF,30.4618,-87.8749,250,5,5.75,KCQF 132255Z AUTO 25005KT 10SM CLR 28/23 A3001 RMK AO2,2024-08-13T22:55:00Z,28,23,10+,30.01
KCPW,37.464,-106.804,240,10,11.51,KCPW 132255Z AUTO 24010G18KT 10SM VCTS SCT075 OVC090 11/05 A3064 RMK AO2 LTG DSNT ALQS,2024-08-13T22:55:00Z,11,5,10+,30.64
KCPU,38.1445,-120.645,300,9,10.36,KCPU 132255Z AUTO 30009KT 10SM CLR 32/04 A2996 RMK AO2 T03170037,2024-08-13T22:55:00Z,31.7,3.7,10+,29.96
KCPT,32.3526,-97.435,160,13,14.96,KCPT 132255Z AUTO 16013KT 10SM CLR 37/20 A2998 RMK A01,2024-08-13T22:55:00Z,37,20,10+,29.98
KCPP,33.5991,-83.1401,70,7,8.06,KCPP 132255Z AUTO 07007KT 10SM CLR 27/24 A2999 RMK AO2,2024-08-13T22:55:00Z,27,24,10+,29.99
KCPK,36.6631,-76.3264,220,3,3.45,KCPK 132255Z AUTO 22003KT 10SM CLR 26/18 A3003 RMK AO2 T02570184,2024-08-13T22:55:00Z,25.7,18.4,10+,30.03
KCPF,37.3869,-83.2593,0,0,0.0,KCPF 132255Z AUTO 00000KT 10SM BKN065 OVC075 27/14 A3010 RMK AO2,2024-08-13T22:55:00Z,27,14,10+,30.10
KCOQ,46.6986,-92.5034,0,0,0.0,KCOQ 132255Z AUTO 00000KT 10SM CLR 25/14 A3010 RMK AO2 TSNO,2024-08-13T22:55:00Z,25,14,10+,30.10
KCOM,31.8415,-99.4058,190,12,13.81,KCOM 132255Z AUTO 19012KT 10SM SCT090 37/14 A2998 RMK AO2 T03730139 PWINO,2024-08-13T22:55:00Z,37.3,13.9,10+,29.98
KCOF,28.242,-80.608,150,11,12.66,KCOF 132255Z AUTO 15011KT 10SM CLR 30/24 A2995 RMK AO2 LTG DSNT N SLP147 T03010240 $,2024-08-13T22:55:00Z,30.1,24,10+,29.95
KCNW,31.637,-97.071,140,10,11.51,KCNW 132255Z 14010G18KT 10SM SCT050 37/18 A2997,2024-08-13T22:55:00Z,37,18,10+,29.97
KCNK,39.5513,-97.6508,120,11,12.66,KCNK 132255Z AUTO 12011KT 10SM BKN035 28/22 A2999 RMK AO2 SLP141 T02830217,2024-08-13T22:55:00Z,28.3,21.7,10+,29.99
KCNI,34.31,-84.424,340,8,9.21,KCNI 132255Z AUTO 34008KT 10SM CLR 30/17 A3006 RMK AO2 T02990171,2024-08-13T22:55:00Z,29.9,17.1,10+,30.06
KCNC,41.0185,-93.3608,150,4,4.6,KCNC 132255Z AUTO 15004KT 10SM OVC036 22/20 A3010 RMK AO2,2024-08-13T22:55:00Z,22,20,10+,30.10
KCNB,44.7297,-96.2623,110,9,10.36,KCNB 132255Z AUTO 11009KT 10SM SCT050 25/17 A3007 RMK AO2 T02540168,2024-08-13T22:55:00Z,25.4,16.8,10+,30.07
KCMY,43.9581,-90.7398,0,0,0.0,KCMY 132255Z AUTO 00000KT 10SM FEW050 26/17 A3008 RMK AO2 SLP188 T02590167,2024-08-13T22:55:00Z,25.9,16.7,10+,30.08
KCMR,35.3016,-112.197,230,13,14.96,KCMR 132255Z AUTO 23013G18KT 10SM FEW060 26/11 A3023 RMK AO2,2024-08-13T22:55:00Z,26,11,10+,30.23
KCMD,34.2722,-86.8583,VRB,5,5.75,KCMD 132255Z AUTO VRB05KT 10SM CLR 31/19 A3007 RMK AO2,2024-08-13T22:55:00Z,31,19,10+,30.07
KCMA,34.2114,-119.088,270,8,9.21,KCMA 132255Z 27008KT 10SM CLR 28/17 A2991 RMK AO2 SLP134 T02780172,2024-08-13T22:55:00Z,27.8,17.2,10+,29.91
KCLW,27.9741,-82.7563,290,5,5.75,KCLW 132255Z AUTO 29005KT 10SM CLR 31/24 A3000 RMK AO2,2024-08-13T22:55:00Z,31,24,10+,30.00
KCLS,46.6774,-122.986,VRB,3,3.45,KCLS 132255Z AUTO VRB03KT 10SM OVC046 20/13 A3007 RMK AO2,2024-08-13T22:55:00Z,20,13,10+,30.07
KCLK,35.5381,-98.9336,200,12,13.81,KCLK 132255Z AUTO 20012G16KT 10SM SCT090 37/15 A2994 RMK AO2,2024-08-13T22:55:00Z,37,15,10+,29.94
KCLI,44.6152,-88.7313,,,,KCLI 132255Z AUTO 7SM HZ SCT060 27/16 A3012 RMK AO2 T02720162,2024-08-13T22:55:00Z,27.2,16.2,7,30.12
KCKZ,40.3864,-75.2953,0,0,0.0,KCKZ 132255Z AUTO 00000KT 10SM CLR 24/14 A3003 RMK AO2,2024-08-13T22:55:00Z,24,14,10+,30.03
KCKP,42.7304,-95.5538,120,9,10.36,KCKP 132255Z AUTO 12009KT 10SM FEW024 24/19 A3008 RMK AO2,2024-08-13T22:55:00Z,24,19,10+,30.08
KCKN,47.8404,-96.6201,160,9,10.36,KCKN 132255Z AUTO 16009KT 10SM CLR 27/14 A3004 RMK AO2,2024-08-13T22:55:00Z,27,14,10+,30.04
KCKM,34.2945,-90.5146,10,4,4.6,KCKM 132255Z AUTO 01004KT 10SM 34/34 A3003 RMK A01,2024-08-13T22:55:00Z,34,34,10+,30.03
KCKF,31.9889,-83.7739,0,0,0.0,KCKF 132255Z AUTO 00000KT 10SM CLR 32/20 A2999 RMK AO2 T03200200,2024-08-13T22:55:00Z,32,20,10+,29.99
KCKC,47.8366,-90.3864,200,3,3.45,KCKC 132255Z AUTO 20003KT 7SM CLR 23/03 A3014 RMK AO2,2024-08-13T22:55:00Z,23,3,7,30.14
KCJR,38.5261,-77.8574,0,0,0.0,KCJR 132255Z AUTO 00000KT 10SM CLR 28/11 A3006 RMK AO2 T02800109,2024-08-13T22:55:00Z,28,10.9,10+,30.06
KCIR,37.0639,-89.2232,50,6,6.9,KCIR 132255Z AUTO 05006KT 10SM CLR 26/22 A3005 RMK AO2 T02550215,2024-08-13T22:55:00Z,25.5,21.5,10+,30.05
KCIN,42.0444,-94.7888,100,11,12.66,KCIN 132255Z AUTO 10011KT 10SM FEW026 SCT033 BKN043 24/18 A3008 RMK AO2,2024-08-13T22:55:00Z,24,18,10+,30.08
KCHK,35.0927,-97.9709,140,12,13.81,KCHK 132255Z AUTO 14012G18KT 10SM SCT090 37/20 A2991 RMK AO2 T03730200,2024-08-13T22:55:00Z,37.3,20,10+,29.91
KCGC,28.866,-82.5741,260,8,9.21,KCGC 132255Z AUTO 26008KT 10SM CLR 31/25 A3000 RMK AO2,2024-08-13T22:55:00Z,31,25,10+,30.00
KCFS,43.4624,-83.4428,0,0,0.0,KCFS 132255Z AUTO 00000KT 10SM CLR 25/14 A3012 RMK AO2 T02460135,2024-08-13T22:55:00Z,24.6,13.5,10+,30.12
KCFJ,39.9767,-86.9148,0,0,0.0,KCFJ 132255Z AUTO 00000KT 10SM CLR 25/11 A3011 RMK AO2 T02480109,2024-08-13T22:55:00Z,24.8,10.9,10+,30.11
KCFE,45.1601,-93.846,110,4,4.6,KCFE 132255Z AUTO 11004KT 10SM SCT050 SCT060 26/15 A3009 RMK AO2,2024-08-13T22:55:00Z,26,15,10+,30.09
KCFD,30.7171,-96.3347,150,8,9.21,KCFD 132255Z AUTO 15008KT 10SM CLR 33/23 A3001 RMK AO2 T03310232,2024-08-13T22:55:00Z,33.1,23.2,10+,30.01
KCEY,36.664,-88.372,0,0,0.0,KCEY 132255Z AUTO 00000KT 10SM FEW046 SCT050 OVC060 27/22 A3008 RMK A01,2024-08-13T22:55:00Z,27,22,10+,30.08
KCEF,42.201,-72.525,0,0,0.0,KCEF 132255Z 00000KT 10SM FEW060 BKN250 24/16 A2995 RMK AO2A FU BKN250 SLP145 T02430160,2024-08-13T22:55:00Z,24.3,16,10+,29.95
KCDN,34.2815,-80.5636,50,5,5.75,KCDN 132255Z AUTO 05005KT 10SM CLR 26/21 A3004 RMK AO2,2024-08-13T22:55:00Z,26,21,10+,30.04
KCDI,39.976,-81.577,0,0,0.0,KCDI 132255Z AUTO 00000KT 10SM CLR 27/13 A3009 RMK AO2 T02730128,2024-08-13T22:55:00Z,27.3,12.8,10+,30.09
KCDH,33.619,-92.765,0,0,0.0,KCDH 132255Z AUTO 00000KT 10SM CLR 36/23 A2999 RMK AO2,2024-08-13T22:55:00Z,36,23,10+,29.99
KCDA,44.5677,-72.0191,270,4,4.6,KCDA 132255Z AUTO 27004KT 10SM CLR 22/14 A3001 RMK AO2 T02200141,2024-08-13T22:55:00Z,22,14.1,10+,30.01
KCCY,43.073,-92.6132,170,6,6.9,KCCY 132255Z AUTO 17006KT 10SM SCT036 25/19 A3012 RMK AO2,2024-08-13T22:55:00Z,25,19,10+,30.12
KCCU,39.475,-106.152,230,7,8.06,KCCU 132255Z AUTO 23007G19KT 190V260 3/4SM RA OVC001 08/06 A3063 RMK AO2 P0007,2024-08-13T22:55:00Z,8,6,0.75,30.63
KCCO,33.3107,-84.7713,310,5,5.75,KCCO 132255Z AUTO 31005KT 10SM CLR 32/18 A3005 RMK AO2 T03160175,2024-08-13T22:55:00Z,31.6,17.5,10+,30.05
KCCB,34.1118,-117.685,250,12,13.81,KCCB 132255Z AUTO 25012KT 10SM CLR 33/11 A2992 RMK AO2,2024-08-13T22:55:00Z,33,11,10+,29.92
KCCA,35.5946,-92.4455,0,0,0.0,KCCA 132255Z AUTO 00000KT 29/22 A3006 RMK AO2 PWINO,2024-08-13T22:55:00Z,29,22,,30.06
KCBM,33.6519,-88.4567,360,7,8.06,KCBM 132255Z 36007KT 10SM SCT060 33/21 A2999 RMK AO2A SLP156 T03330208 $,2024-08-13T22:55:00Z,33.3,20.8,10+,29.99
KCBK,39.4301,-101.051,90,16,18.41,KCBK 132255Z AUTO 09016G20KT 10SM CLR 30/20 A2998 RMK AO2 T02990205,2024-08-13T22:55:00Z,29.9,20.5,10+,29.98
KCBG,45.557,-93.264,160,7,8.06,KCBG 132255Z AUTO 16007KT 10SM SCT055 27/18 A3010 RMK AO2,2024-08-13T22:55:00Z,27,18,10+,30.10
KCBF,41.2611,-95.7604,150,7,8.06,KCBF 132255Z AUTO 15007KT 10SM OVC036 25/20 A3004 RMK AO2,2024-08-13T22:55:00Z,25,20,10+,30.04
KCAV,42.743,-93.7592,180,7,8.06,KCAV 132255Z AUTO 18007KT 10SM FEW028 FEW034 OVC050 23/18 A3012 RMK A01,2024-08-13T22:55:00Z,23,18,10+,30.12
KCAO,36.4483,-103.154,180,16,18.41,KCAO 132255Z AUTO 18016KT 10SM CLR 32/10 A3009 RMK AO2 PK WND 19029/2159 SLP103 T03170100,2024-08-13T22:55:00Z,31.7,10,10+,30.09
KCAD,44.2785,-85.4207,0,0,0.0,KCAD 132255Z AUTO 00000KT 10SM CLR 26/12 A3012 RMK AO2,2024-08-13T22:55:00Z,26,12,10+,30.12
KC83,37.8276,-121.624,210,10,11.51,KC83 132255Z AUTO 21010G16KT 9SM CLR 33/02 A2990 RMK AO2,2024-08-13T22:55:00Z,33,2,9,29.90
KC75,41.0231,-89.3886,,,,KC75 132255Z AUTO 10SM CLR 26/13 A3011 RMK AO2 T02620134,2024-08-13T22:55:00Z,26.2,13.4,10+,30.11
KC65,41.3636,-86.2998,50,3,3.45,KC65 132255Z AUTO 05003KT 10SM CLR 27/14 A3011 RMK A01,2024-08-13T22:55:00Z,27,14,10+,30.11
KC35,43.5261,-89.9809,210,3,3.45,KC35 132255Z AUTO 21003KT 10SM OVC060 27/15 A3011 RMK AO2 T02700154 PWINO,2024-08-13T22:55:00Z,27,15.4,10+,30.11
KC09,41.4317,-88.4152,300,5,5.75,KC09 132255Z AUTO 30005KT 10SM CLR 27/17 A3010 RMK AO2 T02700169,2024-08-13T22:55:00Z,27,16.9,10+,30.10
KC08,38.0138,-105.373,180,6,6.9,KC08 132255Z AUTO 18006KT 10SM VCTS RA BKN075 OVC085 18/09 A3031 RMK AO2 LTG DSNT ALQDS,2024-08-13T22:55:00Z,18,9,10+,30.31
KC07,40.3544,-106.699,240,3,3.45,KC07 132255Z AUTO 24003KT 10SM SCT055 SCT080 09/09 A3047 RMK AO2 LTG DSNT SE AND S,2024-08-13T22:55:00Z,9,9,10+,30.47
KBYY,28.9717,-95.8584,170,7,8.06,KBYY 132255Z AUTO 17007KT 10SM SCT036 SCT043 32/23 A2999 RMK AO2 T03310244,2024-08-13T22:55:00Z,32,23,10+,29.99
KBYS,35.271,-116.634,190,19,21.86,KBYS 132255Z AUTO 19019G30KT 10SM CLR 38/04 A2983 RMK AO2 PK WND 16030/49 SLP067 T03810037 $,2024-08-13T22:55:00Z,38.1,3.7,10+,29.83
KBYL,36.7954,-84.2013,320,3,3.45,KBYL 132255Z AUTO 32003KT 10SM CLR 25/17 A3010 RMK AO1,2024-08-13T22:55:00Z,25,17,10+,30.10
KBXK,33.4178,-112.688,210,8,9.21,KBXK 132255Z AUTO 21008G13KT 10SM FEW100 40/14 A2980 RMK A01,2024-08-13T22:55:00Z,40,14,10+,29.80
KBXA,30.8104,-89.8627,220,7,8.06,KBXA 132255Z AUTO 22007KT 10SM BKN070 34/02 A3001 RMK AO2 T03420016,2024-08-13T22:55:00Z,34.2,1.6,10+,30.01
KBWW,46.1656,-103.296,90,8,9.21,KBWW 132255Z AUTO 09008G17KT 10SM CLR 27/19 A2989 RMK AO2,2024-08-13T22:55:00Z,27,19,10+,29.89
KBWP,46.2444,-96.6046,150,12,13.81,KBWP 132255Z AUTO 15012G18KT 10SM FEW060 25/18 A3003 RMK AO2,2024-08-13T22:55:00Z,25,18,10+,30.03
KBWD,31.7898,-98.9522,150,9,10.36,KBWD 132255Z AUTO 15009KT 130V190 10SM 37/17 A2986 RMK AO2 T03690165 $,2024-08-13T22:55:00Z,36.9,16.5,10+,29.86
KBVU,35.9489,-114.863,250,19,21.86,KBVU 132255Z AUTO 25019G27KT 10SM CLR 40/M04 A2981 RMK AO2,2024-08-13T22:55:00Z,40,-4,10+,29.81
KBVS,48.4696,-122.419,0,0,0.0,KBVS 132255Z AUTO 00000KT 10SM OVC037 18/18 A3006 RMK A01,2024-08-13T22:55:00Z,18,18,10+,30.06
KBVN,41.7301,-98.0546,130,8,9.21,KBVN 132255Z AUTO 13008KT 10SM OVC036 24/21 A3003 RMK AO2 T02430206,2024-08-13T22:55:00Z,24.3,20.6,10+,30.03
KBVI,40.7735,-80.3825,20,4,4.6,KBVI 132255Z AUTO 02004KT 10SM CLR 26/12 A3012 RMK AO2 T02590118,2024-08-13T22:55:00Z,25.9,11.8,10+,30.12
KBUU,42.6908,-88.308,110,3,3.45,KBUU 132255Z AUTO 11003KT 10SM BKN060 OVC080 24/18 A3012 RMK AO2 T02430177 PWINO,2024-08-13T22:55:00Z,24.3,17.7,10+,30.12
KBTN,45.8186,-97.7457,150,13,14.96,KBTN 132255Z AUTO 15013KT 10SM CLR 26/17 A3000 RMK AO2,2024-08-13T22:55:00Z,26,17,10+,30.00
KBTA,41.415,-96.109,150,5,5.75,KBTA 132255Z AUTO 15005KT 10SM OVC034 25/20 A3005 RMK AO2 T02500199,2024-08-13T22:55:00Z,25,19.9,10+,30.05
KBRY,37.8079,-85.5011,310,3,3.45,KBRY 132255Z AUTO 31003KT 10SM SCT070 27/18 A3008 RMK AO2 T02680183 $,2024-08-13T22:55:00Z,26.8,18.3,10+,30.08
KBRG,34.6477,-106.833,290,13,14.96,KBRG 132255Z AUTO 29013G23KT 10SM CLR 29/10 A3012 RMK AO2 LTG DSNT ALQS T02880098,2024-08-13T22:55:00Z,28.8,9.8,10+,30.12
KBQP,32.7583,-91.8793,0,0,0.0,KBQP 132255Z AUTO 00000KT 10SM CLR 36/20 A3000 RMK AO2 T03630203,2024-08-13T22:55:00Z,36.3,20.3,10+,30.00
KBQK,31.2567,-81.4754,270,3,3.45,KBQK 132255Z AUTO 27003KT 10SM CLR 33/24 A2995 RMK AO2 T03310236,2024-08-13T22:55:00Z,33.1,23.6,10+,29.95
KBPG,32.2097,-101.525,170,17,19.56,KBPG 132255Z AUTO 17017KT 10SM CLR 37/12 A2998 RMK AO2 T03680122,2024-08-13T22:55:00Z,36.8,12.2,10+,29.98
KBPC,35.8913,-101.027,,,,KBPC 132255Z AUTO 10SM CLR 35/13 A2996 RMK AO2,2024-08-13T22:55:00Z,35,13,10+,29.96
KBOW,27.9471,-81.7811,320,7,8.06,KBOW 132255Z AUTO 32007KT 10SM SCT080 31/24 A3000 RMK AO2 PWINO,2024-08-13T22:55:00Z,31,24,10+,30.00
KBNW,42.0486,-93.8486,130,8,9.21,KBNW 132255Z AUTO 13008KT 10SM FEW020 FEW025 OVC040 22/18 A3010 RMK AO2,2024-08-13T22:55:00Z,22,18,10+,30.10
KBNL,33.2601,-81.387,0,0,0.0,KBNL 132255Z AUTO 00000KT 10SM SCT080 BKN120 26/24 A3000 RMK AO2 LTG DSNT SE,2024-08-13T22:55:00Z,26,24,10+,30.00
KBMT,30.0686,-94.2155,0,0,0.0,KBMT 132255Z AUTO 00000KT 10SM CLR 34/22 A3000 RMK AO2 T03360221,2024-08-13T22:55:00Z,33.6,22.1,10+,30.00
KBMC,41.5463,-112.06,250,5,5.75,KBMC 132255Z AUTO 25005KT 10SM CLR 29/10 A2994 RMK AO1 T02900097,2024-08-13T22:55:00Z,29,9.7,10+,29.94
KBLV,38.54,-89.845,140,3,3.45,KBLV 132255Z 14003KT 10SM OVC034 26/20 A3006 RMK AO2A SLP179 T02610199 $,2024-08-13T22:55:00Z,26.1,19.9,10+,30.06
KBKT,37.082,-77.953,230,5,5.75,KBKT 132255Z AUTO 23005KT 10SM CLR 25/19 A3006 RMK AO2 SLP179 T02470186 $,2024-08-13T22:55:00Z,24.7,18.6,10+,30.06
KBKS,27.2064,-98.1216,130,12,13.81,KBKS 132255Z AUTO 13012G20KT 10SM CLR 35/25 A2994 RMK AO2 SLP098 T03480248 $,2024-08-13T22:55:00Z,34.8,24.8,10+,29.94
KBKN,36.7431,-97.3479,130,10,11.51,KBKN 132255Z AUTO 13010KT 10SM FEW070 35/24 A2992 RMK AO2,2024-08-13T22:55:00Z,35,24,10+,29.92
KBKD,32.7206,-98.8931,,,,KBKD 132255Z AUTO 7SM CLR 39/16 A2994 RMK AO2 T03880161,2024-08-13T22:55:00Z,38.8,16.1,7,29.94
KBJI,47.5076,-94.9279,180,6,6.9,KBJI 132255Z AUTO 18006KT 10SM SCT055 26/14 A3009 RMK AO2 T02630135,2024-08-13T22:55:00Z,26.3,13.5,10+,30.09
KBIX,30.415,-88.922,0,0,0.0,KBIX 132255Z AUTO 00000KT 10SM SCT170 BKN200 27/23 A2999 RMK AO2 SLP158 T02650229,2024-08-13T22:55:00Z,26.5,22.9,10+,29.99
KBIJ,31.4,-84.8939,300,3,3.45,KBIJ 132255Z AUTO 30003KT 10SM CLR 34/18 A2998 RMK AO2,2024-08-13T22:55:00Z,34,18,10+,29.98
KBIF,31.861,-106.369,200,10,11.51,KBIF 132255Z AUTO 20010KT 10SM CLR 36/09 A2998 RMK AO2 LTG DSNT S AND NW SLP076 T03570092 $,2024-08-13T22:55:00Z,35.7,9.2,10+,29.98
KBIE,40.3005,-96.7517,120,7,8.06,KBIE 132255Z AUTO 12007KT 10SM BKN025 26/20 A3002 RMK AO2 T02600200,2024-08-13T22:55:00Z,26,20,10+,30.02
KBHC,31.712,-82.3902,290,4,4.6,KBHC 132255Z AUTO 29004KT 10SM CLR 33/20 A2997 RMK AO2,2024-08-13T22:55:00Z,33,20,10+,29.97
KBGF,35.174,-86.0678,,,,KBGF 132255Z AUTO CLR 30/18 A3007 RMK A01 P0002,2024-08-13T22:55:00Z,30,18,,30.07
KBGE,30.9709,-84.6344,340,5,5.75,KBGE 132255Z AUTO 34005KT 10SM BKN085 34/20 A2998 RMK AO2 T03410197,2024-08-13T22:55:00Z,34.1,19.7,10+,29.98
KBFA,45.166,-84.924,300,4,4.6,KBFA 132255Z AUTO 30004KT 10SM CLR 24/14 A3011 RMK AO2,2024-08-13T22:55:00Z,24,14,10+,30.11
KBEC,37.694,-97.215,150,8,9.21,KBEC 132255Z AUTO 15008KT 10SM SCT040 32/22 A2997 RMK AO2 T03210224,2024-08-13T22:55:00Z,32.1,22.4,10+,29.97
KBDU,40.0377,-105.227,270,3,3.45,KBDU 132255Z AUTO 27003KT 10SM BKN095 BKN120 20/20 A3008 RMK AO2 LTG DSNT S AND SW,2024-08-13T22:55:00Z,20,20,10+,30.08
KBDN,44.1006,-121.198,20,11,12.66,KBDN 132255Z AUTO 02011G18KT 350V050 10SM CLR 25/00 A2999 RMK AO2,2024-08-13T22:55:00Z,25,0,10+,29.99
KBDH,45.1111,-95.1258,150,9,10.36,KBDH 132255Z AUTO 15009KT 10SM FEW042 SCT049 26/17 A3008 RMK AO2,2024-08-13T22:55:00Z,26,17,10+,30.08
KBDG,37.587,-109.481,VRB,3,3.45,KBDG 132255Z AUTO VRB03KT 10SM 29/10 A3013 RMK AO2 LTG DSNT SE AND W T02860097 PNO $,2024-08-13T22:55:00Z,28.6,9.7,10+,30.13
KBCK,44.2499,-90.85,240,4,4.6,KBCK 132255Z AUTO 24004KT 10SM CLR 28/16 A3011 RMK AO2 T02800156,2024-08-13T22:55:00Z,28,15.6,10+,30.11
KBCB,37.208,-80.4127,110,4,4.6,KBCB 132255Z AUTO 11004KT 10SM SCT080 SCT120 24/16 A3016 RMK AO2 T02380156,2024-08-13T22:55:00Z,23.8,15.6,10+,30.16
KBBP,34.6228,-79.7354,40,6,6.9,KBBP 132255Z AUTO 04006KT 10SM SCT070 BKN080 OVC120 25/22 A3004 RMK AO2,2024-08-13T22:55:00Z,25,22,10+,30.04
KBBD,31.1766,-99.3229,150,9,10.36,KBBD 132255Z AUTO 15009G24KT 10SM FEW075 36/15 A2999 RMK AO2,2024-08-13T22:55:00Z,36,15,10+,29.99
KBBB,45.331,-95.6469,150,8,9.21,KBBB 132255Z AUTO 15008KT 10SM SCT065 24/16 A3008 RMK AO2,2024-08-13T22:55:00Z,24,16,10+,30.08
KBAX,43.7774,-82.9828,80,5,5.75,KBAX 132255Z AUTO 08005KT 10SM CLR 24/14 A3011 RMK AO2 T02380140,2024-08-13T22:55:00Z,23.8,14,10+,30.11
KBAM,40.6048,-116.872,240,15,17.26,KBAM 132255Z AUTO 24015G18KT 10SM CLR 31/M05 A3000 RMK AO1,2024-08-13T22:55:00Z,31,-5,10+,30.00
KBAD,32.488,-93.658,150,5,5.75,KBAD 132255Z AUTO 15005KT 10SM SCT055 SCT070 37/23 A2997 RMK AO2 SLP151 T03650226,2024-08-13T22:55:00Z,36.5,22.6,10+,29.97
KBAC,46.9419,-98.0179,130,15,17.26,KBAC 132255Z AUTO 13015KT 9SM SCT036 25/18 A3002 RMK AO2,2024-08-13T22:55:00Z,25,18,9,30.02
KBAB,39.145,-121.436,220,7,8.06,KBAB 132255Z AUTO 22007KT 10SM CLR 31/10 A2988 RMK AO2 SLP120 T03140101 $,2024-08-13T22:55:00Z,31.4,10.1,10+,29.88
KAZE,31.8792,-82.6454,0,0,0.0,KAZE 132255Z AUTO 00000KT 10SM CLR 33/20 A2997 RMK AO2 T03340202,2024-08-13T22:55:00Z,33.4,20.2,10+,29.97
KAZC,36.959,-113.013,230,17,19.56,KAZC 132255Z AUTO 23017G21KT 10SM CLR 36/07 A3006 RMK AO2,2024-08-13T22:55:00Z,36,7,10+,30.06
KAYS,31.2466,-82.4014,350,5,5.75,KAYS 132255Z AUTO 35005KT CLR 34/22 A2997 RMK AO2 T03370216 PWINO,2024-08-13T22:55:00Z,33.7,21.6,,29.97
KAXX,36.422,-105.29,0,0,0.0,KAXX 132255Z AUTO 00000KT 10SM -RA OVC070 15/12 A3040 RMK AO2 P0004 T01490116,2024-08-13T22:55:00Z,14.9,11.6,10+,30.40
KAXV,40.4959,-84.2929,0,0,0.0,KAXV 132255Z AUTO 00000KT 10SM BKN055 BKN065 27/15 A3010 RMK AO2,2024-08-13T22:55:00Z,27,15,10+,30.10
KAXS,34.6963,-99.3402,180,16,18.41,KAXS 132255Z AUTO 18016G22KT 10SM FEW090 40/16 A2991 RMK AO2,2024-08-13T22:55:00Z,40,16,10+,29.91
KAXA,43.0796,-94.2723,150,7,8.06,KAXA 132255Z AUTO 15007KT 10SM FEW024 OVC050 23/19 A3010 RMK A01,2024-08-13T22:55:00Z,23,19,10+,30.10
KAWG,41.2749,-91.6746,150,6,6.9,KAWG 132255Z AUTO 15006KT 10SM OVC045 24/18 A3010 RMK AO2,2024-08-13T22:55:00Z,24,18,10+,30.10
KAVQ,32.4112,-111.216,VRB,5,5.75,KAVQ 132255Z AUTO VRB05KT 10SM CLR 37/17 A2989 RMK AO2,2024-08-13T22:55:00Z,37,17,10+,29.89
KAVK,36.7765,-98.6724,190,13,14.96,KAVK 132255Z AUTO 19013G18KT 10SM CLR 38/19 A2990 RMK AO2,2024-08-13T22:55:00Z,38,19,10+,29.90
KAVC,36.6854,-78.0523,0,0,0.0,KAVC 132255Z AUTO 00000KT 10SM OVC090 25/21 A3013 RMK AO2 T02480213,2024-08-13T22:55:00Z,24.8,21.3,10+,30.13
KAUN,38.9553,-121.087,VRB,5,5.75,KAUN 132255Z AUTO VRB05G11KT 10SM CLR 30/06 A2997 RMK A01,2024-08-13T22:55:00Z,30,6,10+,29.97
KAUH,40.8966,-97.9974,130,12,13.81,KAUH 132255Z AUTO 13012KT 10SM SCT024 SCT030 25/20 A3001 RMK AO2 T02500203,2024-08-13T22:55:00Z,25,20.3,10+,30.01
KATS,32.8524,-104.464,VRB,6,6.9,KATS 132255Z AUTO VRB06G15KT 10SM VCTS CLR 36/11 A2999 RMK AO2 LTG DSNT NW,2024-08-13T22:55:00Z,36,11,10+,29.99
KATA,33.1017,-94.1937,140,3,3.45,KATA 132255Z AUTO 14003KT 10SM CLR 34/25 A2997 RMK AO2 SLP047 T03440251 $,2024-08-13T22:55:00Z,34.4,25.1,10+,29.97
KASW,41.274,-85.842,0,0,0.0,KASW 132255Z AUTO 00000KT 10SM CLR 26/11 A3011 RMK AO2 T02660114,2024-08-13T22:55:00Z,26.6,11.4,10+,30.11
KAST,46.157,-123.883,240,9,10.36,KAST 132255Z AUTO 24009KT 10SM SCT021 BKN050 21/13 A3008 RMK AO2 SLP185 T02060133,2024-08-13T22:55:00Z,20.6,13.3,10+,30.08
KASN,33.569,-86.0519,340,5,5.75,KASN 132255Z AUTO 34005KT 10SM CLR 32/21 A3001 RMK AO2,2024-08-13T22:55:00Z,32,21,10+,30.01
KASL,32.5207,-94.3066,170,6,6.9,KASL 132255Z AUTO 17006KT 10SM CLR 36/24 A2998 RMK AO2 T03550239 $,2024-08-13T22:55:00Z,35.5,23.9,10+,29.98
KARW,32.4104,-80.6335,60,14,16.11,KARW 132255Z AUTO 06014G17KT 10SM SCT048 SCT060 27/23 A2998 RMK AO2 LTG DSNT E AND SE,2024-08-13T22:55:00Z,27,23,10+,29.98
KARM,29.2515,-96.1508,140,6,6.9,KARM 132255Z AUTO 14006KT 10SM CLR 32/25 A3000 RMK AO2 T03230246 TSNO,2024-08-13T22:55:00Z,32.3,24.6,10+,30.00
KAQX,32.9941,-81.271,20,4,4.6,KAQX 132255Z AUTO 02004KT 10SM SCT065 BKN085 OVC110 26/24 A2999 RMK AO2 TSNO,2024-08-13T22:55:00Z,26,24,10+,29.99
KAQO,30.7873,-98.6608,170,10,11.51,KAQO 132255Z AUTO 17010G15KT 140V200 10SM CLR 37/18 A2996 RMK AO2,2024-08-13T22:55:00Z,37,18,10+,29.96
KAPY,26.969,-99.249,150,11,12.66,KAPY 132255Z AUTO 15011G20KT 10SM SCT070 37/19 A2991 RMK AO2 T03690190 TSNO,2024-08-13T22:55:00Z,36.9,19,10+,29.91
KAPG,39.474,-76.166,310,3,3.45,KAPG 132255Z AUTO 31003KT 10SM CLR 27/15 A3002 RMK AO2 SLPNO T02700150 $,2024-08-13T22:55:00Z,27,15,10+,30.02
KANW,42.5748,-99.9984,190,14,16.11,KANW 132255Z AUTO 19014G20KT 10SM SCT031 27/19 A2998 RMK AO2 T02710186 PWINO,2024-08-13T22:55:00Z,27.1,18.6,10+,29.98
KANQ,41.6404,-85.0852,300,3,3.45,KANQ 132255Z AUTO 30003KT 10SM CLR 26/14 A3011 RMK AO2,2024-08-13T22:55:00Z,26,14,10+,30.11
KANK,38.538,-106.049,300,4,4.6,KANK 132255Z AUTO 30004KT 6SM -TSRA BKN070 16/10 A3032 RMK AO2 PRESRR P0000 T01630099 $,2024-08-13T22:55:00Z,16.3,9.9,6,30.32
KANJ,46.48,-84.3581,290,3,3.45,KANJ 132255Z AUTO 29003KT 10SM CLR 26/14 A3010 RMK AO2 SLP188 T02610139,2024-08-13T22:55:00Z,26.1,13.9,10+,30.10
KAMN,43.3209,-84.6871,360,6,6.9,KAMN 132255Z AUTO 36006KT 10SM CLR 26/14 A3011 RMK AO2,2024-08-13T22:55:00Z,26,14,10+,30.11
KALX,32.916,-85.964,350,6,6.9,KALX 132255Z AUTO 35006KT 10SM CLR 34/18 A3002 RMK AO2 T03360180,2024-08-13T22:55:00Z,33.6,18,10+,30.02
KALM,32.8351,-105.994,270,11,12.66,KALM 132255Z AUTO 27011KT 10SM CLR 36/08 A3000 RMK AO2 LTG DSNT S AND W,2024-08-13T22:55:00Z,36,8,10+,30.00
KAJR,34.5006,-83.5519,80,3,3.45,KAJR 132255Z AUTO 08003KT 10SM SCT055 28/22 A3005 RMK AO2 T02840221,2024-08-13T22:55:00Z,28.4,22.1,10+,30.05
KAJG,38.6093,-87.7251,360,3,3.45,KAJG 132255Z AUTO 36003KT 10SM CLR 27/17 A3009 RMK AO2 T02690174,2024-08-13T22:55:00Z,26.9,17.4,10+,30.09
KAIT,46.5483,-93.6754,160,7,8.06,KAIT 132255Z AUTO 16007KT 10SM CLR 26/14 A3010 RMK AO2,2024-08-13T22:55:00Z,26,14,10+,30.10
KAIO,41.4059,-95.0465,100,8,9.21,KAIO 132255Z AUTO 10008G14KT 10SM FEW030 OVC040 24/20 A3006 RMK AO2,2024-08-13T22:55:00Z,24,20,10+,30.06
KAIG,45.1566,-89.1115,0,0,0.0,KAIG 132255Z AUTO 00000KT 10SM BKN060 BKN070 27/13 A3014 RMK AO2 T02650134,2024-08-13T22:55:00Z,26.5,13.4,10+,30.14
KAID,40.1061,-85.6097,340,6,6.9,KAID 132255Z AUTO 34006KT 10SM CLR 27/13 A3012 RMK AO2 T02690130,2024-08-13T22:55:00Z,26.9,13,10+,30.12
KAHQ,41.241,-96.594,140,6,6.9,KAHQ 132255Z AUTO 14006KT 10SM OVC031 25/20 A3005 RMK AO2 T02450201,2024-08-13T22:55:00Z,24.5,20.1,10+,30.05
KAGO,33.2266,-93.2154,0,0,0.0,KAGO 132255Z AUTO 00000KT 10SM CLR 35/23 A2998 RMK A01,2024-08-13T22:55:00Z,35,23,10+,29.98
KAFO,42.7139,-110.944,50,13,14.96,KAFO 132255Z AUTO 05013KT 5SM -RA SCT050 OVC070 11/09 A3021 RMK AO2,2024-08-13T22:55:00Z,11,9,5,30.21
KAFK,40.6065,-95.8635,150,6,6.9,KAFK 132255Z AUTO 15006KT 10SM SCT021 OVC026 24/20 A3006 RMK AO2 T02420197,2024-08-13T22:55:00Z,24.2,19.7,10+,30.06
KAFF,38.971,-104.816,170,22,25.32,KAFF 132255Z 17022G34KT 10SM BKN095 OVC120 25/11 A3013 RMK AO2A PK WND 16034/44 SLP106 T02450114,2024-08-13T22:55:00Z,24.5,11.4,10+,30.13
KAEL,43.6823,-93.3722,20,8,9.21,KAEL 132255Z AUTO 02008KT 10SM SCT035 BKN065 25/18 A3012 RMK AO2,2024-08-13T22:55:00Z,25,18,10+,30.12
KAEJ,38.8116,-106.121,,,,KAEJ 132255Z AUTO 7SM SCT070 BKN090 OVC110 16/11 A3033 RMK AO2 LTG DSNT N THRU S T01590106,2024-08-13T22:55:00Z,15.9,10.6,7,30.33
KADW,38.8215,-76.8654,0,0,0.0,KADW 132255Z AUTO 00000KT 10SM FEW075 SCT095 26/14 A3001 RMK AO2 SLP167 T02560138 $,2024-08-13T22:55:00Z,25.6,13.8,10+,30.01
KADU,41.6993,-94.9204,100,8,9.21,KADU 132255Z AUTO 10008KT 10SM BKN024 BKN036 OVC055 24/20 A3009 RMK AO2 PWINO,2024-08-13T22:55:00Z,24,20,10+,30.09
KADT,39.8401,-101.045,130,16,18.41,KADT 132255Z AUTO 13016G20KT 10SM SCT042 BKN050 28/20 A3003 RMK AO2 T02810195,2024-08-13T22:55:00Z,28.1,19.5,10+,30.03
KADH,34.8021,-96.6701,160,9,10.36,KADH 132255Z AUTO 16009G14KT 10SM CLR 36/22 A2998 RMK AO2,2024-08-13T22:55:00Z,36,22,10+,29.98
KADC,46.4502,-95.2135,180,6,6.9,KADC 132255Z AUTO 18006KT 10SM CLR 24/15 A3009 RMK AO2,2024-08-13T22:55:00Z,24,15,10+,30.09
KACQ,44.0702,-93.5535,0,0,0.0,KACQ 132255Z AUTO 00000KT 10SM OVC070 24/17 A3013 RMK AO2,2024-08-13T22:55:00Z,24,17,10+,30.13
KACP,30.7469,-92.687,0,0,0.0,KACP 132255Z AUTO 00000KT 10SM CLR 41/22 A2999 RMK AO2,2024-08-13T22:55:00Z,41,22,10+,29.99
KACJ,32.1106,-84.1841,330,5,5.75,KACJ 132255Z AUTO 33005KT 10SM FEW070 33/19 A2997 RMK AO2 T03340185 $,2024-08-13T22:55:00Z,33.4,18.5,10+,29.97
KACB,44.9867,-85.2022,310,3,3.45,KACB 132255Z AUTO 31003KT 10SM CLR 25/13 A3012 RMK AO2 T02520133,2024-08-13T22:55:00Z,25.2,13.3,10+,30.12
KABH,38.7587,-104.299,180,17,19.56,KABH 132255Z AUTO 18017KT 10SM VCTS -RA FEW017 SCT090 BKN140 22/16 A3011 RMK AO2 PK WND 19045/35 RAB41 TSB29E53 SLP125 P0002 T02160163,2024-08-13T22:55:00Z,21.6,16.3,10+,30.11
KAAT,41.4836,-120.561,270,14,16.11,KAAT 132255Z AUTO 27014G22KT 10SM CLR 27/01 A3004 RMK AO2 SLP131 T02720006,2024-08-13T22:55:00Z,27.2,0.6,10+,30.04
KAAS,37.3569,-85.3151,0,0,0.0,KAAS 132255Z AUTO 00000KT 10SM CLR 26/16 A3009 RMK AO1,2024-08-13T22:55:00Z,26,16,10+,30.09
KAAA,40.1584,-89.339,0,0,0.0,KAAA 132255Z AUTO 00000KT 10SM SCT041 BKN050 26/17 A3012 RMK AO2 T02600173,2024-08-13T22:55:00Z,26,17.3,10+,30.12
KA39,32.9875,-111.922,240,4,4.6,KA39 132255Z AUTO 24004KT 10SM BKN110 39/17 A2985 RMK AO2,2024-08-13T22:55:00Z,39,17,10+,29.85
K9Y1,47.3941,-102.773,140,8,9.21,K9Y1 132255Z AUTO 14008KT 10SM FEW030 BKN038 26/20 A2989 RMK AO2,2024-08-13T22:55:00Z,26,20,10+,29.89
K9V9,43.7653,-99.3163,120,17,19.56,K9V9 132255Z AUTO 12017G22KT 10SM CLR 22/19 A2998 RMK AO2 T02200194,2024-08-13T22:55:00Z,22,19.4,10+,29.98
K9S9,45.4551,-119.686,280,13,14.96,K9S9 132255Z AUTO 28013G18KT 10SM CLR 25/05 A2997 RMK AO2,2024-08-13T22:55:00Z,25,5,10+,29.97
K9MN,44.0198,-92.4829,160,3,3.45,K9MN 132255Z AUTO 16003KT 10SM CLR 26/11 A3013 RMK AO1 T02620111,2024-08-13T22:55:00Z,26.2,11.1,10+,30.13
K9L2,34.996,-117.857,250,20,23.02,K9L2 132255Z AUTO 25020G26KT 7SM CLR 38/03 A2989 RMK AO2 PK WND 28027/51 SLP093 T03750032 $,2024-08-13T22:55:00Z,37.5,3.2,7,29.89
K9D7,48.4816,-99.2346,,,,K9D7 132255Z AUTO 10SM BKN038 BKN065 23/20 A3002 RMK AO2,2024-08-13T22:55:00Z,23,20,10+,30.02
K9A5,34.6846,-85.2899,40,4,4.6,K9A5 132255Z AUTO 04004KT 7SM SCT065 BKN080 30/18 A3005 RMK AO2 T03020178,2024-08-13T22:55:00Z,30.2,17.8,7,30.05
K96D,48.9402,-97.9053,160,9,10.36,K96D 132255Z AUTO 16009KT 10SM CLR 26/17 A3002 RMK AO2,2024-08-13T22:55:00Z,26,17,10+,30.02
K8W2,38.6554,-78.7083,0,0,0.0,K8W2 132255Z AUTO 00000KT 10SM OVC110 26/15 A3007 RMK AO1 T02570146,2024-08-13T22:55:00Z,25.7,14.6,10+,30.07
K8V7,37.4547,-102.619,190,25,28.77,K8V7 132255Z AUTO 19025KT 10SM CLR 34/11 A2999 RMK AO2,2024-08-13T22:55:00Z,34,11,10+,29.99
K8T6,28.3656,-98.1174,150,15,17.26,K8T6 132255Z AUTO 15015KT 9SM CLR 37/22 A2993 RMK AO2,2024-08-13T22:55:00Z,37,22,9,29.93
K8B0,44.99,-70.6624,300,4,4.6,K8B0 132255Z AUTO 30004G10KT 10SM CLR 20/15 A3000 RMK AO2,2024-08-13T22:55:00Z,20,15,10+,30.00
K8A3,36.4164,-85.3061,10,4,4.6,K8A3 132255Z AUTO 01004KT 10SM SCT055 25/17 A3010 RMK A01,2024-08-13T22:55:00Z,25,17,10+,30.10
K8A0,34.2316,-86.2481,360,9,10.36,K8A0 132255Z AUTO 36009KT 10SM CLR 31/18 A3006 RMK AO2,2024-08-13T22:55:00Z,31,18,10+,30.06
K82V,41.151,-104.129,260,6,6.9,K82V 132255Z AUTO 26006KT 10SM VCTS 20/15 A3005 RMK AO2 LTG DSNT ALQS,2024-08-13T22:55:00Z,20,15,10+,30.05
K82C,43.8385,-90.1345,0,0,0.0,K82C 132255Z AUTO 00000KT 10SM BKN050 28/17 A3010 RMK AO2 T02800166,2024-08-13T22:55:00Z,28,16.6,10+,30.10
K81R,31.2321,-98.7154,150,8,9.21,K81R 132255Z AUTO 15008KT 10SM SCT075 37/18 A2999 RMK AO2 T03720180,2024-08-13T22:55:00Z,37.2,18,10+,29.99
K7W4,37.9667,-77.7453,0,0,0.0,K7W4 132255Z AUTO 00000KT 10SM SCT070 SCT110 24/18 A3006 RMK AO1 T02370184,2024-08-13T22:55:00Z,23.7,18.4,10+,30.06
K7L2,46.219,-100.245,140,11,12.66,K7L2 132255Z AUTO 14011G20KT 10SM 25/20 A2996 RMK AO2,2024-08-13T22:55:00Z,25,20,10+,29.96
K7BM,38.799,-106.219,280,17,19.56,K7BM 132255Z AUTO 28017G30KT 250V320 10SM BKN110 13/06 A3044 RMK AO2 LTG DSNT ALQS,2024-08-13T22:55:00Z,13,6,10+,30.44
K79S,47.845,-110.636,30,6,6.9,K79S 132255Z AUTO 03006KT 10SM SCT150 29/08 A2982 RMK AO2 T02880080 $,2024-08-13T22:55:00Z,28.8,8,10+,29.82
K77S,43.9324,-123.006,VRB,6,6.9,K77S 132255Z AUTO VRB06KT 10SM CLR 25/08 A3003 RMK A01,2024-08-13T22:55:00Z,25,8,10+,30.03
K74V,40.2799,-110.05,0,0,0.0,K74V 132255Z AUTO 00000KT 9SM SCT075 22/15 A3013 RMK AO2 LTG DSNT SW,2024-08-13T22:55:00Z,22,15,9,30.13
K6S2,43.9838,-124.11,330,9,10.36,K6S2 132255Z AUTO 33009KT 10SM CLR 20/12 A3007 RMK AO2,2024-08-13T22:55:00Z,20,12,10+,30.07
K6S0,45.8063,-109.974,180,10,11.51,K6S0 132255Z AUTO 18010G15KT 10SM CLR 25/07 A2998 RMK A01,2024-08-13T22:55:00Z,25,7,10+,29.98
K6R3,30.358,-95.007,0,0,0.0,K6R3 132255Z AUTO 00000KT 10SM CLR 34/26 A3001 RMK AO2 T03410257,2024-08-13T22:55:00Z,34.1,25.7,10+,30.01
K6P9,32.4294,-98.5959,150,12,13.81,K6P9 132255Z AUTO 15012G17KT 10SM CLR A2998 RMK AO2,2024-08-13T22:55:00Z,,,10+,29.98
K6L4,37.8553,-81.915,0,0,0.0,K6L4 132255Z AUTO 00000KT 10SM OVC080 27/10 A3010 RMK AO2,2024-08-13T22:55:00Z,27,10,10+,30.10
K6I2,37.6352,-85.2418,350,4,4.6,K6I2 132255Z AUTO 35004KT 10SM OVC070 27/16 A3010 RMK AO2,2024-08-13T22:55:00Z,27,16,10+,30.10
K6B9,42.9141,-76.4428,0,0,0.0,K6B9 132255Z AUTO 00000KT 10SM CLR 21/15 A3008 RMK AO2,2024-08-13T22:55:00Z,21,15,10+,30.08
K6B0,43.9888,-73.0952,0,0,0.0,K6B0 132255Z AUTO 00000KT 10SM SCT055 22/19 A2999 RMK AO2 T02170186 TSNO,2024-08-13T22:55:00Z,21.7,18.6,10+,29.99
K6A2,33.227,-84.275,350,3,3.45,K6A2 132255Z AUTO 35003KT 10SM CLR 31/17 A3003 RMK AO2,2024-08-13T22:55:00Z,31,17,10+,30.03
K6A1,32.5733,-84.247,20,5,5.75,K6A1 132255Z AUTO 02005KT 10SM SCT065 33/19 A3001 RMK AO2 T03260187,2024-08-13T22:55:00Z,32.6,18.7,10+,30.01
K66R,29.6382,-96.5137,170,5,5.75,K66R 132255Z AUTO 17005KT 10SM CLR 33/25 A3000 RMK AO2 T03280247,2024-08-13T22:55:00Z,32.8,24.7,10+,30.00
K65S,48.7255,-116.293,0,0,0.0,K65S 132255Z AUTO 00000G10KT 10SM CLR 27/08 A2988 RMK AO2,2024-08-13T22:55:00Z,27,8,10+,29.88
K63S,48.544,-117.884,120,5,5.75,K63S 132255Z 12005KT 10SM CLR 27/07 A2989 RMK A01 EAST/WEST TURF RUNWAY CLOSED FOR FIRE FIGHTING HELICOPTER USE,2024-08-13T22:55:00Z,27,7,10+,29.89
K60R,30.368,-96.113,150,7,8.06,K60R 132255Z AUTO 15007KT 10SM FEW260 32/27 A2996 RMK AO2 SLP063 T03220270 $,2024-08-13T22:55:00Z,32.2,27,10+,29.96
K5T9,28.8568,-100.516,140,12,13.81,K5T9 132255Z AUTO 14012G22KT 5SM HZ CLR 40/17 A2987 RMK A01,2024-08-13T22:55:00Z,40,17,5,29.87
K5SM,39.426,-107.38,0,0,0.0,K5SM 132255Z AUTO 00000KT 1SM RA OVC003 08/07 A3056 RMK AO2 LTG DSNT E THRU S,2024-08-13T22:55:00Z,8,7,1,30.56
K5R8,30.4368,-93.4696,230,3,3.45,K5R8 132255Z AUTO 23003KT 10SM CLR 33/24 A3000 RMK AO2 T03300243,2024-08-13T22:55:00Z,33,24.3,10+,30.00
K5H4,47.7906,-99.9346,130,13,14.96,K5H4 132255Z AUTO 13013G18KT 10SM SCT032 26/13 A2997 RMK AO2,2024-08-13T22:55:00Z,26,13,10+,29.97
K5C1,29.7267,-98.6964,150,8,9.21,K5C1 132255Z AUTO 15008KT 120V190 10SM CLR 34/18 A3001 RMK AO1,2024-08-13T22:55:00Z,34,18,10+,30.01
K57C,42.7971,-88.3655,0,0,0.0,K57C 132255Z AUTO 00000KT 10SM SCT085 24/18 A3012 RMK AO2 T02380184,2024-08-13T22:55:00Z,23.8,18.4,10+,30.12
K54A,26.8601,-82.2468,300,7,8.06,K54A 132255Z AUTO 30007KT 10SM CLR 33/M15 A2997 RMK AO2,2024-08-13T22:55:00Z,33,-15,10+,29.97
K4V1,37.6941,-104.788,190,14,16.11,K4V1 132255Z AUTO 19014G28KT 9SM -RA FEW013 SCT060 BKN095 19/13 A3017 RMK AO2 LTG DSNT N AND S AND NW,2024-08-13T22:55:00Z,19,13,9,30.17
K4V0,40.0956,-108.762,200,7,8.06,K4V0 132255Z AUTO 20007KT 10SM CLR A3013 RMK AO2,2024-08-13T22:55:00Z,,,10+,30.13
K4S2,45.6746,-121.535,290,6,6.9,K4S2 132255Z AUTO 29006G19KT 240V350 10SM SCT060 21/08 A3001 RMK AO2,2024-08-13T22:55:00Z,21,8,10+,30.01
K4S1,42.4161,-124.426,320,5,5.75,K4S1 132255Z AUTO 32005KT 5SM HZ CLR 20/12 A3007 RMK AO2,2024-08-13T22:55:00Z,20,12,5,30.07
K4R5,46.7887,-90.7559,120,6,6.9,K4R5 132255Z AUTO 12006KT 10SM SCT110 A3010 RMK AO2,2024-08-13T22:55:00Z,,,10+,30.10
K4O4,33.9133,-94.8546,160,10,11.51,K4O4 132255Z AUTO 16010KT 9SM CLR 35/24 A2999 RMK AO2,2024-08-13T22:55:00Z,35,24,9,29.99
K4MR,34.29,-103.791,160,13,14.96,K4MR 132255Z AUTO 16013G19KT 10SM BKN110 BKN140 35/12 A2998 RMK AO2 LTG DSNT NW-N SLP049 T03520115 $,2024-08-13T22:55:00Z,35.2,11.5,10+,29.98
K4M9,36.404,-90.647,270,5,5.75,K4M9 132255Z AUTO 27005KT 10SM CLR 27/27 A3004 RMK A01,2024-08-13T22:55:00Z,27,27,10+,30.04
K4I3,40.3268,-82.5201,50,5,5.75,K4I3 132255Z AUTO 05005KT 10SM CLR 25/15 A3012 RMK AO2,2024-08-13T22:55:00Z,25,15,10+,30.12
K4F2,32.18,-94.2976,150,4,4.6,K4F2 132255Z AUTO 15004KT 10SM CLR 35/23 A2999 RMK AO2 T03470231,2024-08-13T22:55:00Z,34.7,23.1,10+,29.99
K4BM,39.05,-105.514,160,20,23.02,K4BM 132255Z AUTO 16020G26KT 10SM VCTS SCT041 SCT060 BKN070 13/05 A3054 RMK AO2 LTG DSNT NE SE AND NW,2024-08-13T22:55:00Z,13,5,10+,30.54
K4B8,41.69,-72.865,320,6,6.9,K4B8 132255Z AUTO 32006KT 9SM CLR 25/16 A2997 RMK AO2 T02550155,2024-08-13T22:55:00Z,25.5,15.5,9,29.97
K4A9,34.4759,-85.717,330,7,8.06,K4A9 132255Z AUTO 33007KT 290V350 10SM CLR 30/17 A3005 RMK AO2 T03050174,2024-08-13T22:55:00Z,30.5,17.4,10+,30.05
K4A6,34.688,-86.006,360,5,5.75,K4A6 132255Z AUTO 36005KT 10SM CLR 33/20 A3005 RMK AO2,2024-08-13T22:55:00Z,33,20,10+,30.05
K49B,44.4284,-103.38,50,7,8.06,K49B 132255Z AUTO 05007KT 10SM FEW100 FEW120 32/15 A2985 RMK AO2,2024-08-13T22:55:00Z,32,15,10+,29.85
K49A,34.6301,-84.5271,0,0,0.0,K49A 132255Z AUTO 00000KT 10SM CLR 29/20 A3008 RMK AO2,2024-08-13T22:55:00Z,29,20,10+,30.08
K48I,38.684,-80.649,0,0,0.0,K48I 132255Z AUTO 00000KT 10SM OVC090 23/14 A3010 RMK AO2,2024-08-13T22:55:00Z,23,14,10+,30.10
K48A,32.3993,-83.2785,280,5,5.75,K48A 132255Z AUTO 28005KT 10SM CLR 34/18 A2998 RMK AO2 T03380184,2024-08-13T22:55:00Z,33.8,18.4,10+,29.98
K46U,43.181,-111.037,140,9,10.36,K46U 132255Z AUTO 14009KT 10SM BKN075 15/13 A3017 RMK A01 P0006,2024-08-13T22:55:00Z,15,13,10+,30.17
K46D,47.4509,-99.1479,140,12,13.81,K46D 132255Z AUTO 14012G18KT 10SM CLR 25/18 A2999 RMK A01,2024-08-13T22:55:00Z,25,18,10+,29.99
K42J,29.844,-82.05,220,10,11.51,K42J 132255Z AUTO 22010KT 9SM CLR 32/24 A2997 RMK A01,2024-08-13T22:55:00Z,32,24,9,29.97
K42A,36.0713,-91.8287,260,3,3.45,K42A 132255Z AUTO 26003KT 10SM CLR 25/25 A3006 RMK AO2,2024-08-13T22:55:00Z,25,25,10+,30.06
K41U,39.3323,-111.614,330,10,11.51,K41U 132255Z AUTO 33010G17KT 10SM CLR 20/15 A3008 RMK AO1 T02010152,2024-08-13T22:55:00Z,20.1,15.2,10+,30.08
K40U,40.986,-109.678,90,12,13.81,K40U 132255Z AUTO 09012KT 10SM CLR 23/11 A3010 RMK AO2 T02300107,2024-08-13T22:55:00Z,23,10.7,10+,30.10
K3W7,47.9219,-119.077,170,6,6.9,K3W7 132255Z AUTO 17006G20KT 10SM CLR 28/06 A2989 RMK AO2,2024-08-13T22:55:00Z,28,6,10+,29.89
K3T5,29.9064,-96.9478,130,9,10.36,K3T5 132255Z AUTO 13009KT 10SM CLR 35/24 A2996 RMK AO2 T03480236 $,2024-08-13T22:55:00Z,34.8,23.6,10+,29.96
K3S8,42.51,-123.388,0,0,0.0,K3S8 132255Z AUTO 00000KT 10SM CLR 28/08 A3002 RMK AO2,2024-08-13T22:55:00Z,28,8,10+,30.02
K3R7,30.2426,-92.6759,160,5,5.75,K3R7 132255Z AUTO 16005KT 10SM CLR 33/24 A3000 RMK AO2 LTG DSNT NW THRU SE T03300242,2024-08-13T22:55:00Z,33,24.2,10+,30.00
K3N8,47.26,-95.928,160,5,5.75,K3N8 132255Z AUTO 16005KT 10SM BKN050 BKN060 26/14 A3007 RMK AO2 T02560142,2024-08-13T22:55:00Z,25.6,14.2,10+,30.07
K3LF,39.1605,-89.6742,0,0,0.0,K3LF 132255Z AUTO 00000KT 10SM CLR 25/17 A3012 RMK AO2 T02500165,2024-08-13T22:55:00Z,25,16.5,10+,30.12
K3L4,29.8,-92.804,190,5,5.75,K3L4 132255Z AUTO 19005KT 10SM CLR 33/26 A3000 RMK A01,2024-08-13T22:55:00Z,33,26,10+,30.00
K3K7,38.4566,-101.353,140,11,12.66,K3K7 132255Z AUTO 14011KT 10SM CLR 34/19 A2992 RMK AO2,2024-08-13T22:55:00Z,34,19,10+,29.92
K3K3,37.9988,-101.75,170,20,23.02,K3K3 132255Z AUTO 17020G26KT 10SM 36/16 A2991 RMK AO2,2024-08-13T22:55:00Z,36,16,10+,29.91
K3F3,32.0718,-93.7641,170,9,10.36,K3F3 132255Z AUTO 17009KT 10SM CLR 36/23 A3003 RMK AO2 T03550229,2024-08-13T22:55:00Z,35.5,22.9,10+,30.03
K3D2,45.1348,-87.1881,180,6,6.9,K3D2 132255Z AUTO 18006KT 10SM CLR 25/13 A3012 RMK AO2 T02450128,2024-08-13T22:55:00Z,24.5,12.8,10+,30.12
K36K,37.9707,-101.255,170,16,18.41,K36K 132255Z AUTO 17016G22KT 10SM CLR 35/17 A2995 RMK AO2,2024-08-13T22:55:00Z,35,17,10+,29.95
K35A,34.6849,-81.6421,60,5,5.75,K35A 132255Z AUTO 06005KT 10SM SCT028 BKN037 26/21 A3008 RMK A02 T02610215,2024-08-13T22:55:00Z,26.1,21.5,10+,30.08
K33N,39.218,-75.597,280,3,3.45,K33N 132255Z AUTO 28003KT 10SM CLR 26/16 A3001 RMK A01,2024-08-13T22:55:00Z,26,16,10+,30.01
K2V5,40.1,-102.241,120,11,12.66,K2V5 132255Z AUTO 12011G16KT 10SM CLR 30/18 A2998 RMK AO2,2024-08-13T22:55:00Z,30,18,10+,29.98
K2R9,28.8267,-97.8676,120,11,12.66,K2R9 132255Z AUTO 12011G18KT 10SM SCT050 36/23 A2996 RMK AO2 T03580230,2024-08-13T22:55:00Z,35.8,23,10+,29.96
K2R2,39.7511,-86.4732,360,3,3.45,K2R2 132255Z AUTO 36003KT 10SM SCT065 26/16 A3011 RMK AO2 T02600160 $,2024-08-13T22:55:00Z,26,16,10+,30.11
K2P2,45.388,-86.924,200,5,5.75,K2P2 132255Z AUTO 20005KT 10SM CLR 24/18 A3011 RMK AO2 T02350176,2024-08-13T22:55:00Z,23.5,17.6,10+,30.11
K2M8,35.276,-89.931,340,5,5.75,K2M8 132255Z AUTO 34005KT 9SM FEW200 32/22 A3003 RMK AO2 T03210218 $,2024-08-13T22:55:00Z,32.1,21.8,9,30.03
K2M2,35.2372,-87.2611,,,,K2M2 132255Z AUTO 10SM FEW080 30/18 A3006 RMK A01,2024-08-13T22:55:00Z,30,18,10+,30.06
K2J9,30.5987,-84.555,10,4,4.6,K2J9 132255Z AUTO 01004KT 10SM CLR 33/22 A2999 RMK AO2,2024-08-13T22:55:00Z,33,22,10+,29.99
K2J5,32.8913,-81.9664,20,8,9.21,K2J5 132255Z AUTO 02008KT 10SM SCT080 BKN120 28/23 A3000 RMK AO2 T02800231,2024-08-13T22:55:00Z,28,23.1,10+,30.00
K2I0,37.3582,-87.3977,0,0,0.0,K2I0 132255Z AUTO 00000KT 10SM CLR 27/17 A3009 RMK AO2 T02710174,2024-08-13T22:55:00Z,27.1,17.4,10+,30.09
K2G9,40.0401,-79.0158,310,4,4.6,K2G9 132255Z AUTO 31004KT 10SM CLR 21/10 A3014 RMK AO2,2024-08-13T22:55:00Z,21,10,10+,30.14
K2G2,40.359,-80.7,10,3,3.45,K2G2 132255Z AUTO 01003KT 10SM CLR 25/10 A3010 RMK A01,2024-08-13T22:55:00Z,25,10,10+,30.10
K2D5,46.1739,-98.083,130,14,16.11,K2D5 132255Z AUTO 13014G19KT 3SM BR CLR 26/26 A3001 RMK AO2,2024-08-13T22:55:00Z,26,26,3,30.01
K2C8,48.7838,-97.6297,170,11,12.66,K2C8 132255Z AUTO 17011KT 5SM HZ CLR 25/18 A3001 RMK AO2,2024-08-13T22:55:00Z,25,18,5,30.01
K28J,29.6602,-81.6918,230,5,5.75,K28J 132255Z AUTO 23005KT 10SM CLR 33/25 A2996 RMK AO2,2024-08-13T22:55:00Z,33,25,10+,29.96
K27K,38.239,-84.4336,0,0,0.0,K27K 132255Z AUTO 00000KT 10SM OVC080 26/15 A3010 RMK AO1,2024-08-13T22:55:00Z,26,15,10+,30.10
K24J,30.299,-83.0226,0,0,0.0,K24J 132255Z AUTO 00000KT 10SM FEW060 32/24 A2997 RMK A01,2024-08-13T22:55:00Z,32,24,10+,29.97
K22N,40.8116,-75.7647,0,0,0.0,K22N 132255Z AUTO 00000KT 10SM CLR 25/13 A3004 RMK AO2,2024-08-13T22:55:00Z,25,13,10+,30.04
K21D,45.0002,-92.8549,160,6,6.9,K21D 132255Z AUTO 16006KT 10SM SCT050 26/15 A3012 RMK AO2,2024-08-13T22:55:00Z,26,15,10+,30.12
K20V,40.0563,-106.374,210,6,6.9,K20V 132255Z AUTO 21006KT 10SM CLR 17/12 A3031 RMK AO2 P0001 LTG DSNT SE,2024-08-13T22:55:00Z,17,12,10+,30.31
K20U,46.9251,-103.985,150,11,12.66,K20U 132255Z AUTO 15011G20KT 9SM 24/18 A2991 RMK AO2,2024-08-13T22:55:00Z,24,18,9,29.91
K1YT,46.668,-120.457,250,5,5.75,K1YT 132255Z AUTO 25005KT 10SM CLR 29/06 A2983 RMK AO2 SLP096 T02880056 $,2024-08-13T22:55:00Z,28.8,5.6,10+,29.83
K1V6,38.4256,-105.105,90,10,11.51,K1V6 132255Z AUTO 09010KT 10SM VCTS SCT120 22/17 A3006 RMK AO2 P0001 LTG DSNT SW THRU NE,2024-08-13T22:55:00Z,22,17,10+,30.06
K1U7,42.252,-111.337,350,22,25.32,K1U7 132255Z AUTO 35022G35KT 10SM BKN055 BKN065 BKN110 16/11 A3012 RMK A01,2024-08-13T22:55:00Z,16,11,10+,30.12
K1S5,46.3288,-119.974,70,3,3.45,K1S5 132255Z AUTO 07003KT 10SM CLR 27/09 A2987 RMK AO2 LTG DSNT NE T02720090,2024-08-13T22:55:00Z,27.2,9,10+,29.87
K1R8,30.8691,-87.8184,260,6,6.9,K1R8 132255Z AUTO 26006KT 10SM CLR 34/22 A3000 RMK AO2,2024-08-13T22:55:00Z,34,22,10+,30.00
K1R7,31.6057,-90.4072,310,5,5.75,K1R7 132255Z AUTO 31005KT 10SM CLR 35/20 A3003 RMK A01 TSNO,2024-08-13T22:55:00Z,35,20,10+,30.03
K1P1,43.7771,-71.756,300,3,3.45,K1P1 132255Z AUTO 30003KT 10SM CLR 23/15 A2997 RMK AO2 T02300150,2024-08-13T22:55:00Z,23,15,10+,29.97
K1OW,40.885,-103.999,270,20,23.02,K1OW 132255Z AUTO 27020G25KT 10SM TS SCT065 BKN080 BKN110 OVC140 23/15 A3018 RMK AO2 TSB49 SLP162 T02260149 PNO $,2024-08-13T22:55:00Z,22.6,14.9,10+,30.18
K1ON,48.82,-101.28,,,,K1ON 132255Z AUTO M M M M M M RMK AO2 SLPNO RVRNO PWINO PNO $,2024-08-13T22:55:00Z,,,,
K1NW,40.632,-103.836,210,6,6.9,K1NW 132255Z AUTO 21006KT 10SM BKN070 OVC110 30/13 A2998 RMK AO2 LTG DSNT N AND SW SLP084 T02960133 $,2024-08-13T22:55:00Z,29.6,13.3,10+,29.98
K1NN,48.76,-101.59,120,10,11.51,K1NN 132255Z AUTO 12010G15KT 10SM FEW034 BKN041 25/18 M RMK AO2 SLPNO T02450182 $,2024-08-13T22:55:00Z,24.5,18.2,10+,
K1MN,48.67,-101.88,110,11,12.66,K1MN 132255Z AUTO 11011KT M M BKN039 OVC049 24/19 A2990 RMK AO2 SLP127 T02380186 RVRNO PWINO TSNO $,2024-08-13T22:55:00Z,23.8,18.6,,29.90
K1M5,36.5956,-86.478,360,5,5.75,K1M5 132255Z AUTO 36005KT 10SM CLR 28/19 A3008 RMK A01,2024-08-13T22:55:00Z,28,19,10+,30.08
K1KW,41.137,-103.488,80,9,10.36,K1KW 132255Z AUTO 08009KT 10SM FEW065 SCT080 SCT100 27/16 A2996 RMK AO2 LTG DSNT NE AND SW AND NW SLPNO T02690159 $,2024-08-13T22:55:00Z,26.9,15.9,10+,29.96
K1KN,48.55,-102.12,100,10,11.51,K1KN 132255Z AUTO 10010KT 10SM OVC032 23/18 A2992 RMK AO2 SLP129 T02290182 $,2024-08-13T22:55:00Z,22.9,18.2,10+,29.92
K1K8,36.543,-95.012,170,9,10.36,K1K8 132255Z AUTO 17009G14KT 10SM SCT043 SCT048 34/24 A2997 RMK AO2,2024-08-13T22:55:00Z,34,24,10+,29.97
K1JW,40.961,-103.199,140,14,16.11,K1JW 132255Z AUTO 14014KT 10SM CLR 28/17 A2996 RMK AO2 LTG DSNT W-N SLP086 T02790168 $,2024-08-13T22:55:00Z,27.9,16.8,10+,29.96
K1JN,48.41,-101.89,100,13,14.96,K1JN 132255Z AUTO 10013KT 10SM BKN037 OVC050 23/18 A2991 RMK AO2 SLP126 T02340183 $,2024-08-13T22:55:00Z,23.4,18.3,10+,29.91
K1IW,41.046,-102.865,160,14,16.11,K1IW 132255Z AUTO 16014KT 10SM CLR 28/18 A2995 RMK AO2 LTG DSNT N SLP090 T02830175 $,2024-08-13T22:55:00Z,28.3,17.5,10+,29.95
K1IN,48.34,-102.3,150,8,9.21,K1IN 132255Z AUTO 15008KT 10SM OVC033 25/18 A2989 RMK AO2 SLP120 T02520184 $,2024-08-13T22:55:00Z,25.2,18.4,10+,29.89
K1H2,39.0712,-88.5293,0,0,0.0,K1H2 132255Z AUTO 00000KT 10SM OVC042 25/19 A3012 RMK AO2 T02530185,2024-08-13T22:55:00Z,25.3,18.5,10+,30.12
K1GW,41.208,-103.097,360,7,8.06,K1GW 132255Z AUTO 36007KT 10SM VCTS OVC055 25/15 A2997 RMK AO2 SLP097 T02530150 $,2024-08-13T22:55:00Z,25.3,15,10+,29.97
K1GN,48.12,-101.96,140,12,13.81,K1GN 132255Z AUTO 14012G18KT 10SM BKN044 27/19 A2988 RMK AO2 SLP115 T02660189 $,2024-08-13T22:55:00Z,26.6,18.9,10+,29.88
K1FW,41.364,-103.489,160,4,4.6,K1FW 132255Z AUTO 16004KT 10SM VCTS FEW044 SCT070 BKN095 23/17 A2998 RMK AO2 RAB02E51 SLP097 P0008 T02250165 $,2024-08-13T22:55:00Z,22.5,16.5,10+,29.98
K1EW,41.103,-103.983,200,14,16.11,K1EW 132255Z AUTO 20014KT 10SM VCTS +RA SCT075 OVC100 21/16 A3004 RMK AO2 RAB44 PRESRR SLP120 P0002 T02130156 $,2024-08-13T22:55:00Z,21.3,15.6,10+,30.04
K1EN,47.75,-101.67,150,14,16.11,K1EN 132255Z AUTO 15014KT 10SM SCT030 BKN036 26/18 M RMK AO2 SLPNO T02550184 $,2024-08-13T22:55:00Z,25.5,18.4,10+,
K1DW,41.361,-103.794,0,0,0.0,K1DW 132255Z AUTO 00000KT 10SM -TSRA FEW039 SCT049 BKN070 OVC100 19/16 A3004 RMK AO2 RAB37 TSB26 PRESFR SLP125 P0006 T01930159 $,2024-08-13T22:55:00Z,19.3,15.9,10+,30.04
K1D8,44.86,-98.529,140,13,14.96,K1D8 132255Z AUTO 14013G19KT 10SM BKN023 23/22 A3001 RMK AO2,2024-08-13T22:55:00Z,23,22,10+,30.01
K1D1,45.231,-96.566,160,11,12.66,K1D1 132255Z AUTO 16011G18KT 10SM CLR 26/18 A3004 RMK AO2,2024-08-13T22:55:00Z,26,18,10+,30.04
K1CW,41.581,-103.573,150,5,5.75,K1CW 132255Z AUTO 15005KT 10SM VCTS FEW080 BKN100 23/16 A2999 RMK AO2 SLP107 T02320160 $,2024-08-13T22:55:00Z,23.2,16,10+,29.99
K1B9,42,-71.197,340,4,4.6,K1B9 132255Z AUTO 34004KT 9SM CLR 24/15 A2994 RMK AO2 T02430155 $,2024-08-13T22:55:00Z,24.3,15.5,9,29.94
K1AW,41.329,-104.265,210,8,9.21,K1AW 132255Z AUTO 21008KT 10SM -RA FEW047 OVC110 21/15 A3006 RMK AO2 LTG DSNT E-SE AND NW RAE19RAB21 SLP118 P0000 T02120148 $,2024-08-13T22:55:00Z,21.2,14.8,10+,30.06
K1A9,32.4374,-86.5098,350,3,3.45,K1A9 132255Z AUTO 35003KT 10SM CLR 34/19 A2999 RMK AO2 T03370192,2024-08-13T22:55:00Z,33.7,19.2,10+,29.99
K1A6,36.6087,-83.7369,0,0,0.0,K1A6 132255Z AUTO 00000KT 10SM CLR 27/17 A3010 RMK AO2 T02700168,2024-08-13T22:55:00Z,27,16.8,10+,30.10
K19S,37.496,-100.834,180,13,14.96,K19S 132255Z AUTO 18013G18KT 10SM CLR 35/17 A2995 RMK AO2 T03470168,2024-08-13T22:55:00Z,34.7,16.8,10+,29.95
K18H,26.1283,-92.0333,40,6,6.9,K18H 132255Z AUTO 04006KT 10SM FEW027 32/24 A3000 RMK A01,2024-08-13T22:55:00Z,32,24,10+,30.00
K18A,34.3418,-83.1316,130,6,6.9,K18A 132255Z AUTO 13006KT 10SM CLR 29/22 A3003 RMK AO2 T02850223,2024-08-13T22:55:00Z,28.5,22.3,10+,30.03
K17J,31.0038,-84.8794,0,0,0.0,K17J 132255Z AUTO 00000KT 10SM SCT085 33/19 A3000 RMK AO2,2024-08-13T22:55:00Z,33,19,10+,30.00
K15M,34.7745,-88.1676,0,0,0.0,K15M 132255Z AUTO 00000KT 10SM CLR 29/20 A3005 RMK AO2 T02940197 $,2024-08-13T22:55:00Z,29.4,19.7,10+,30.05
K13K,37.8519,-96.2929,140,7,8.06,K13K 132255Z AUTO 14007KT 10SM BKN027 29/23 A3002 RMK AO2 T02910230,2024-08-13T22:55:00Z,29.1,23,10+,30.02
K11R,30.2232,-96.3734,120,5,5.75,K11R 132255Z AUTO 12005KT 10SM CLR 34/24 A2999 RMK AO2 T03360238,2024-08-13T22:55:00Z,33.6,23.8,10+,29.99
K10G,40.5357,-81.9531,0,0,0.0,K10G 132255Z AUTO 00000KT 10SM CLR 24/15 A3013 RMK AO2,2024-08-13T22:55:00Z,24,15,10+,30.13
K0VG,36.6576,-83.2147,280,4,4.6,K0VG 132255Z AUTO 28004KT 10SM OVC060 27/18 A3009 RMK AO2,2024-08-13T22:55:00Z,27,18,10+,30.09
K0V4,37.1399,-79.0171,180,8,9.21,K0V4 132255Z AUTO 18008KT 10SM OVC120 25/18 A3008 RMK AO1,2024-08-13T22:55:00Z,25,18,10+,30.08
K0S9,48.0554,-122.812,120,4,4.6,K0S9 132255Z AUTO 12004KT 10SM FEW020 FEW024 OVC039 19/14 A3005 RMK AO2,2024-08-13T22:55:00Z,19,14,10+,30.05
K0R4,31.5637,-91.5098,0,0,0.0,K0R4 132255Z AUTO 00000KT 10SM CLR 36/22 A3002 RMK AO2 T03620216,2024-08-13T22:55:00Z,36.2,21.6,10+,30.02
K0E0,34.9837,-105.996,210,5,5.75,K0E0 132255Z AUTO 21005KT 10SM -VCTSRA SCT025 BKN070 OVC080 19/16 A3027 RMK AO2 LTG DSNT SW THRU NE P0009 T01900156,2024-08-13T22:55:00Z,19,15.6,10+,30.27
K0CO,39.794,-105.764,290,20,23.02,K0CO 132255Z AUTO 29020G26KT 05/04 A3060 RMK AO2 PWINO,2024-08-13T22:55:00Z,5,4,,30.60
K0A9,36.3711,-82.1768,VRB,5,5.75,K0A9 132255Z AUTO VRB05KT 10SM OVC100 26/18 A3007 RMK AO2,2024-08-13T22:55:00Z,26,18,10+,30.07
K0A0,32.99,-106.967,310,7,8.06,K0A0 132255Z AUTO 31007G13KT 290V350 10SM FEW095 34/09 A3005 RMK AO2 LTG DSNT SE AND S,2024-08-13T22:55:00Z,34,9,10+,30.05
K08D,48.3018,-102.404,170,13,14.96,K08D 132255Z AUTO 17013KT 10SM OVC032 25/18 A2992 RMK AO2,2024-08-13T22:55:00Z,25,18,10+,29.92
K06D,48.8821,-99.6217,150,12,13.81,K06D 132255Z AUTO 15012G21KT 10SM OVC032 22/18 A3001 RMK AO2,2024-08-13T22:55:00Z,22,18,10+,30.01
K06C,41.9924,-88.1091,120,9,10.36,K06C 132255Z AUTO 12009KT 10SM BKN065 28/15 A3010 RMK AO2 T02760145,2024-08-13T22:55:00Z,27.6,14.5,10+,30.10
K04W,46.0244,-92.8991,200,4,4.6,K04W 132255Z AUTO 20004KT 10SM CLR 27/15 A3011 RMK AO2,2024-08-13T22:55:00Z,27,15,10+,30.11
K04V,38.099,-106.17,300,9,10.36,K04V 132255Z AUTO 30009KT 10SM TS OVC060 15/12 A3035 RMK AO2 LTG DSNT NE AND E,2024-08-13T22:55:00Z,15,12,10+,30.35
K00U,45.7453,-107.661,230,4,4.6,K00U 132255Z AUTO 23004KT 10SM CLR 32/08 A2981 RMK A01,2024-08-13T22:55:00Z,32,8,10+,29.81
FJDG,-7.313,72.411,170,15,17.26,FJDG 132255Z 17015G21KT 9999 SCT016 BKN080 OVC220 26/25 A2978 RMK SLP081 T02580250,2024-08-13T22:55:00Z,25.8,25,6+,29.78
ETOU,50.048,8.329,30,6,6.9,ETOU 132255Z AUTO 03006KT 9999 -TSRA FEW060 OVC080 22/19 A2985 RMK AO2 DZB09E12RAB12 TSE07TSB48 SLP107 P0002 T02170185 403440203 $,2024-08-13T22:55:00Z,21.7,18.5,6+,29.85
ETIK,49.472,10.39,0,0,0.0,ETIK 132255Z AUTO 00000KT 9999 FEW085 23/17 A2987 RMK AO2 LTG DSNT NW SLP108 T02300172 403350171 $,2024-08-13T22:55:00Z,23,17.2,6+,29.87
ETIH,49.216,11.839,0,0,0.0,ETIH 132255Z AUTO 00000KT 9999 CLR 19/17 A2986 RMK AO2 DZE06DZB19E20 SLP103 P0000 T01870170 $,2024-08-13T22:55:00Z,18.7,17,6+,29.86
ETIC,49.696,11.941,0,0,0.0,ETIC 132255Z AUTO 00000KT 9000 HZ CLR 21/16 A2984 RMK AO2 SLP098 T02050161 $,2024-08-13T22:55:00Z,20.5,16.1,5.59,29.84
ETEB,49.308,10.639,200,6,6.9,ETEB 132255Z AUTO 20006KT 9999 CLR 23/15 A2987 RMK AO2 SLP116 T02290152 403370194 $,2024-08-13T22:55:00Z,22.9,15.2,6+,29.87
ETAR,49.437,7.6,50,5,5.75,ETAR 132255Z AUTO 05005KT 9999 CLR 21/17 A2984 RMK AO2 SLP102 T02070173 403420184,2024-08-13T22:55:00Z,20.7,17.3,6+,29.84
ETAD,49.979,6.698,340,4,4.6,ETAD 132255Z AUTO 34004KT 9999 FEW055 FEW075 BKN100 21/17 A2987 RMK AO2 LTG DSNT NE AND W RAB16E23 SLP098 P0000 T02090167 403340195 $,2024-08-13T22:55:00Z,20.9,16.7,6+,29.87
EHWO,51.448,4.342,280,6,6.9,EHWO 132255Z AUTO 28006KT 250V330 9999 OVC350 19/17 Q1010 BLU,2024-08-13T22:55:00Z,19,17,6+,29.82
EHVL,53.297,5.086,230,5,5.75,EHVL 132255Z AUTO 23005KT 190V270 9999 FEW044 SCT055 OVC130 20/17 Q1010 BLU,2024-08-13T22:55:00Z,20,17,6+,29.82
EHVK,51.658,5.707,VRB,2,2.3,EHVK 132255Z AUTO VRB02KT 9999 OVC140 20/18 Q1009 BLU,2024-08-13T22:55:00Z,20,18,6+,29.79
EHSC,51.926,3.67,240,10,11.51,EHSC 132255Z AUTO 24010KT 9999 ///////// 20/17 Q1011 W21/H6,2024-08-13T22:55:00Z,20,17,6+,29.85
EHSA,51.998,3.275,220,15,17.26,EHSA 132255Z AUTO 22015KT 9999 ///////// 19/17 Q1010 W20/H8,2024-08-13T22:55:00Z,19,17,6+,29.82
EHRD,51.954,4.444,270,3,3.45,EHRD 132255Z AUTO 27003KT 230V310 9999 NSC 19/16 Q1010 NOSIG,2024-08-13T22:55:00Z,19,16,6+,29.82
EHPG,52.36,3.342,220,14,16.11,EHPG 132255Z AUTO 22014KT 9999 NSC 19/17 Q1011,2024-08-13T22:55:00Z,19,17,6+,29.85
EHMG,53.614,4.96,200,4,4.6,EHMG 132255Z AUTO 20004KT 190V250 9999 -DZ FEW015CB 20/19 Q1011,2024-08-13T22:55:00Z,20,19,6+,29.85
EHMA,53.492,5.942,VRB,3,3.45,EHMA 132255Z AUTO VRB03KT 7000 NSC 21/20 Q1010,2024-08-13T22:55:00Z,21,20,4.35,29.82
EHLW,53.223,5.752,240,4,4.6,EHLW 132255Z AUTO 24004KT 9999 OVC130 19/18 Q1010 BLU,2024-08-13T22:55:00Z,19,18,6+,29.82
EHLE,52.456,5.522,20,7,8.06,EHLE 132255Z AUTO 02007KT 340V050 9999 NSC 21/17 Q1010,2024-08-13T22:55:00Z,21,17,6+,29.82
EHKV,53.269,3.628,200,5,5.75,EHKV 132255Z AUTO 20005KT 9999 NSC 20/18 Q1010,2024-08-13T22:55:00Z,20,18,6+,29.82
EHKD,52.927,4.781,VRB,2,2.3,EHKD 132255Z AUTO VRB02KT 9999 BKN120 OVC200 19/17 Q1010 BLU,2024-08-13T22:55:00Z,19,17,6+,29.82
EHJR,53.218,3.22,190,7,8.06,EHJR 132255Z AUTO 19007KT //// // ///////// 19/18 Q1010 RE// W19/H6,2024-08-13T22:55:00Z,19,18,,29.82
EHJA,53.824,2.945,160,7,8.06,EHJA 132255Z AUTO 16007KT 9999 NSC 19/18 Q1010,2024-08-13T22:55:00Z,19,18,6+,29.82
EHHW,54.037,6.042,240,15,17.26,EHHW 132255Z AUTO 24015KT 210V280 9999 -RA FEW039/// SCT048/// 20/17 Q1010 RERA REDZ,2024-08-13T22:55:00Z,20,17,6+,29.82
EHGR,51.565,4.935,240,4,4.6,EHGR 132255Z AUTO 24004KT 2400 BR OVC180 20/20 Q1009 YLO,2024-08-13T22:55:00Z,20,20,1.49,29.79
EHGG,53.12,6.579,VRB,2,2.3,EHGG 132255Z AUTO VRB02KT 9999 NSC 21/19 Q1010,2024-08-13T22:55:00Z,21,19,6+,29.82
EHFS,51.441,3.596,230,10,11.51,EHFS 132255Z AUTO 23010KT 210V270 9999 NCD 20/16 Q1010,2024-08-13T22:55:00Z,20,16,6+,29.82
EHFD,54.854,4.696,VRB,3,3.45,EHFD 132255Z AUTO VRB03KT 9999 SCT028/// 19/17 Q1010,2024-08-13T22:55:00Z,19,17,6+,29.82
EHEH,51.45,5.377,180,1,1.15,EHEH 132255Z AUTO 18001KT 9999 SCT150 OVC270 21/19 Q1009 BLU,2024-08-13T22:55:00Z,21,19,6+,29.79
EHDV,54.326,2.936,140,8,9.21,EHDV 132255Z AUTO 14008KT 9999 NSC 19/18 Q1010,2024-08-13T22:55:00Z,19,18,6+,29.82
EHDL,52.061,5.887,60,9,10.36,EHDL 132255Z AUTO 06009KT 350V130 9999 OVC140 20/18 Q1010 BLU,2024-08-13T22:55:00Z,20,18,6+,29.82
EHBK,50.905,5.762,340,3,3.45,EHBK 132255Z AUTO 34003KT 280V050 6000 NSC 20/20 Q1010,2024-08-13T22:55:00Z,20,20,3.73,29.82
EHAM,52.315,4.79,350,5,5.75,EHAM 132255Z 35005KT 320V020 CAVOK 20/18 Q1010 NOSIG,2024-08-13T22:55:00Z,20,18,6+,29.82
EHAK,55.399,3.81,160,9,10.36,EHAK 132255Z AUTO 16009KT //// // NSC 19/15 Q1010 RE//,2024-08-13T22:55:00Z,19,15,,29.82
EGVA,51.682,-1.79,210,6,6.9,EGVA 132255Z AUTO 21006KT 9999 OVC013 18/15 A2981 RMK AO2 DZE2157 SLP097 P0000 T01780150 TSNO $,2024-08-13T22:55:00Z,17.8,15,6+,29.81
EGUN,52.362,0.486,240,6,6.9,EGUN 132255Z 24006KT 9999 OVC100 20/13 A2982 RMK AO2A RAB00E27 SLP101 P0000 T01980125 $,2024-08-13T22:55:00Z,19.8,12.5,6+,29.82
EGUL,52.409,0.561,240,5,5.75,EGUL 132255Z AUTO 24005KT 9999 -DZ FEW100 19/13 A2981 RMK AO2 DZB07E12RAB12E16DZB54 SLP098 P0000 T01890129 FZRANO $,2024-08-13T22:55:00Z,18.9,12.9,6+,29.81
EBLB,50.482,6.181,VRB,1,1.15,EBLB 132255Z AUTO VRB01KT //// /// ///// Q////,2024-08-13T22:55:00Z,,,,
EBFS,50.243,4.646,310,5,5.75,EBFS 132255Z AUTO 31005KT 9999 FEW085/// SCT160/// 20/17 Q1011 BLU,2024-08-13T22:55:00Z,20,17,6+,29.85
EBFN,51.09,2.653,VRB,2,2.3,EBFN 132255Z AUTO VRB02KT 5000 FEW130/// OVC160/// 17/15 Q1010 WHT,2024-08-13T22:55:00Z,17,15,3.11,29.82
EBDT,51.005,5.067,VRB,2,2.3,EBDT 132255Z AUTO VRB02KT 9999 NCD 21/18 Q1010 BLU,2024-08-13T22:55:00Z,21,18,6+,29.82
EBCV,50.576,3.831,280,6,6.9,EBCV 132255Z AUTO 28006KT 9999 /// 19/16 Q1010 BLU,2024-08-13T22:55:00Z,19,16,6+,29.82
EBBL,51.168,5.47,170,4,4.6,EBBL 132255Z AUTO 17004KT 9999 FEW230/// 20/20 Q1010 BLU,2024-08-13T22:55:00Z,20,20,6+,29.82
EBBE,50.759,4.768,300,5,5.75,EBBE 132255Z AUTO 30005KT 9999 FEW085/// 21/18 Q1010 BLU,2024-08-13T22:55:00Z,21,18,6+,29.82
CYSF,59.252,-105.837,,,,CYSF 132255Z AUTO /////KT 6SM HZ FEW096 30/14 A2973 RMK WIND MISG SLP071 DENSITY ALT 2900FT,2024-08-13T22:55:00Z,30,14,6,29.73
CYQZ,53.027,-122.506,10,9,10.36,CYQZ 132255Z AUTO 01009KT 5SM -RA FEW032 BKN043 BKN066 OVC110 20/15 A2993 RMK SLP138 DENSITY ALT 2800FT,2024-08-13T22:55:00Z,20,15,5,29.93
BGTL,76.527,-68.758,0,0,0.0,BGTL 132255Z AUTO 00000KT 9999 OVC001 03/02 A2926 RMK AO2 RAB29E47 SLP890 P0000 T00340024 TSNO $,2024-08-13T22:55:00Z,3.4,2.4,6+,29.26
PTTP,6.96,158.21,110,4,4.6,PTTP 132254Z 11004KT 14SM -SHRA SCT017TCU BKN120 OVC300 31/26 A2988 RMK SHRAB49 TCU NE-SE-S SLP117 T03070260,2024-08-13T22:54:00Z,30.7,26,14,29.88
PHOG,20.8887,-156.435,40,17,19.56,PHOG 132254Z 04017G27KT 10SM FEW035 SCT050 28/19 A3005 RMK AO2 PK WND 04031/2242 SLP180 T02830194,2024-08-13T22:54:00Z,28.3,19.4,10+,30.05
PHMK,21.1545,-157.096,70,19,21.86,PHMK 132254Z 07019G32KT 10SM SCT040 29/18 A3006 RMK AO2 PK WND 03035/2231 SLP178 T02890183,2024-08-13T22:54:00Z,28.9,18.3,10+,30.06
PGUM,13.4796,144.796,130,4,4.6,PGUM 132254Z 13004KT 8SM -RA FEW011 SCT023 BKN033 27/26 A2988 RMK AO2 RAB22 SLP110 P0013 T02720261,2024-08-13T22:54:00Z,27.2,26.1,8,29.88
PGSN,15.116,145.72,120,10,11.51,PGSN 132254Z 12010KT 10SM FEW019 32/26 A2987 RMK AO2 SLP136 T03170261,2024-08-13T22:54:00Z,31.7,26.1,10+,29.87
PAKN,58.683,-156.656,200,8,9.21,PAKN 132254Z 20008KT 10SM OVC025 13/08 A3015 RMK AO2 SLP208 T01280083,2024-08-13T22:54:00Z,12.8,8.3,10+,30.15
PAHN,59.243,-135.511,60,6,6.9,PAHN 132254Z AUTO 06006KT 9SM -RA FEW033 BKN045 OVC055 14/12 A2998 RMK AO2 SLP155 P0004 T01440117,2024-08-13T22:54:00Z,14.4,11.7,9,29.98
MMBT,15.775,-96.26,0,0,0.0,MMBT 132254Z 00000KT 8SM BKN020 BKN150 28/25 A2984 RMK 8/430 MSGTX MMMX,2024-08-13T22:54:00Z,28,25,8,29.84
KWLD,37.1649,-97.035,160,10,11.51,KWLD 132254Z AUTO 16010KT 10SM CLR 33/25 A2996 RMK AO2 SLP131 T03330250,2024-08-13T22:54:00Z,33.3,25,10+,29.96
KWAL,37.9372,-75.4662,170,6,6.9,KWAL 132254Z AUTO 17006KT 10SM FEW075 23/19 A3005 RMK AO2 SLP171 T02330189,2024-08-13T22:54:00Z,23.3,18.9,10+,30.05
KVTA,40.0263,-82.4635,10,4,4.6,KVTA 132254Z AUTO 01004KT 10SM CLR 28/13 A3009 RMK AO2 SLP182 T02780133,2024-08-13T22:54:00Z,27.8,13.3,10+,30.09
KVSF,43.3421,-72.5213,340,3,3.45,KVSF 132254Z AUTO 34003KT 10SM CLR 24/16 A2999 RMK AO2 SLP154 T02390156,2024-08-13T22:54:00Z,23.9,15.6,10+,29.99
KVAY,39.9408,-74.8407,10,5,5.75,KVAY 132254Z AUTO 01005KT 10SM CLR 26/13 A2999 RMK AO2 SLP154 T02610128,2024-08-13T22:54:00Z,26.1,12.8,10+,29.99
KUIN,39.9371,-91.1966,90,7,8.06,KUIN 132254Z AUTO 09007KT 10SM OVC036 24/18 A3010 RMK AO2 SLP187 T02440183,2024-08-13T22:54:00Z,24.4,18.3,10+,30.10
KTQE,41.763,-96.1797,140,7,8.06,KTQE 132254Z AUTO 14007KT 10SM OVC043 27/19 A3003 RMK AO2 SLP159 T02720189,2024-08-13T22:54:00Z,27.2,18.9,10+,30.03
KTAD,37.2618,-104.332,180,11,12.66,KTAD 132254Z AUTO 18011KT 10SM FEW047 BKN120 26/08 A3013 RMK AO2 RAE2159B29E53 SLP118 P0000 T02610083,2024-08-13T22:54:00Z,26.1,8.3,10+,30.13
KSYR,43.1111,-76.1038,300,8,9.21,KSYR 132254Z 30008KT 10SM FEW040 BKN250 24/14 A3006 RMK AO2 SLP174 T02440144,2024-08-13T22:54:00Z,24.4,14.4,10+,30.06
KSUS,38.6575,-90.6557,110,4,4.6,KSUS 132254Z 11004KT 10SM BKN070 25/20 A3006 RMK AO2 SLP175 T02500200,2024-08-13T22:54:00Z,25,20,10+,30.06
KSLC,40.7707,-111.965,170,15,17.26,KSLC 132254Z 17015G23KT 10SM SCT080 SCT120 BKN180 BKN250 30/12 A2990 RMK AO2 SLP069 OCNL LTGCG DSNT NW CB DSNT S AND SW-NW T03000117,2024-08-13T22:54:00Z,30,11.7,10+,29.90
KSET,38.9304,-90.4329,110,5,5.75,KSET 132254Z AUTO 11005KT 10SM CLR 27/19 A3007 RMK AO2 SLP178 T02670194,2024-08-13T22:54:00Z,26.7,19.4,10+,30.07
KSBY,38.3409,-75.5132,170,5,5.75,KSBY 132254Z 17005KT 10SM CLR 25/17 A3003 RMK AO2 SLP172 T02500172,2024-08-13T22:54:00Z,25,17.2,10+,30.03
KSBN,41.7072,-86.3163,330,7,8.06,KSBN 132254Z 33007KT 10SM CLR 27/15 A3011 RMK AO2 SLP193 T02720150,2024-08-13T22:54:00Z,27.2,15,10+,30.11
KRST,43.904,-92.4921,150,5,5.75,KRST 132254Z 15005KT 10SM CLR 25/14 A3013 RMK AO2 SLP199 T02500144,2024-08-13T22:54:00Z,25,14.4,10+,30.13
KRSP,39.646,-77.468,310,4,4.6,KRSP 132254Z AUTO 31004KT 10SM CLR 22/13 A3010 RMK AO2 SLP190 T02220128 PWINO $,2024-08-13T22:54:00Z,22.2,12.8,10+,30.10
KROC,43.1172,-77.6754,340,4,4.6,KROC 132254Z 34004KT 10SM BKN250 24/14 A3009 RMK AO2 SLP188 T02440144,2024-08-13T22:54:00Z,24.4,14.4,10+,30.09
KROA,37.3172,-79.9737,160,6,6.9,KROA 132254Z 16006KT 10SM FEW060 SCT080 27/16 A3010 RMK AO2 SLP181 T02720156 $,2024-08-13T22:54:00Z,27.2,15.6,10+,30.10
KRKS,41.5947,-109.053,210,19,21.86,KRKS 132254Z AUTO 21019G25KT 10SM SCT060 SCT100 SCT110 23/10 A3012 RMK AO2 SLP124 T02280100,2024-08-13T22:54:00Z,22.8,10,10+,30.12
KRIC,37.5115,-77.3234,110,4,4.6,KRIC 132254Z 11004KT 10SM FEW045 FEW060 BKN150 25/19 A3004 RMK AO2 SLP177 T02500189,2024-08-13T22:54:00Z,25,18.9,10+,30.04
KRFD,42.1915,-89.0876,0,0,0.0,KRFD 132254Z 00000KT 10SM SCT060 SCT300 27/15 A3012 RMK AO2 SLP197 T02720150,2024-08-13T22:54:00Z,27.2,15,10+,30.12
KRDG,40.3734,-75.9593,340,7,8.06,KRDG 132254Z 34007KT 10SM FEW075 27/14 A3001 RMK AO2 SLP167 T02670139,2024-08-13T22:54:00Z,26.7,13.9,10+,30.01
KRBL,40.1519,-122.255,130,11,12.66,KRBL 132254Z AUTO 13011G15KT 10SM CLR 33/06 A2988 RMK AO2 SLP114 T03330056,2024-08-13T22:54:00Z,33.3,5.6,10+,29.88
KPTW,40.238,-75.5549,300,4,4.6,KPTW 132254Z AUTO 30004KT 10SM CLR 26/13 A3004 RMK AO2 SLP167 T02560128,2024-08-13T22:54:00Z,25.6,12.8,10+,30.04
KPSF,42.4268,-73.2891,300,3,3.45,KPSF 132254Z AUTO 30003KT 9SM SCT050 22/14 A3002 RMK AO2 SLPNO T02220144,2024-08-13T22:54:00Z,22.2,14.4,9,30.02
KPNE,40.0789,-75.0133,10,6,6.9,KPNE 132254Z 01006KT 10SM CLR 28/13 A3001 RMK AO2 SLP159 T02780128,2024-08-13T22:54:00Z,27.8,12.8,10+,30.01
KPLN,45.5644,-84.7929,300,5,5.75,KPLN 132254Z AUTO 30005KT 10SM CLR 26/11 A3012 RMK AO2 SLP198 T02610106,2024-08-13T22:54:00Z,26.1,10.6,10+,30.12
KPIA,40.6675,-89.6842,130,6,6.9,KPIA 132254Z 13006KT 10SM CLR 27/15 A3011 RMK AO2 SLP193 T02720150,2024-08-13T22:54:00Z,27.2,15,10+,30.11
KPHL,39.8733,-75.2268,300,9,10.36,KPHL 132254Z 30009KT 10SM FEW065 SCT095 BKN260 28/11 A3001 RMK AO2 SLP160 T02780111,2024-08-13T22:54:00Z,27.8,11.1,10+,30.01
KPHF,37.1322,-76.494,330,3,3.45,KPHF 132254Z AUTO 33003KT 10SM CLR 26/15 A3004 RMK AO2 SLP172 T02610150,2024-08-13T22:54:00Z,26.1,15,10+,30.04
KORH,42.2706,-71.8731,320,4,4.6,KORH 132254Z 32004KT 10SM CLR 23/15 A3000 RMK AO2 SLP156 T02330150,2024-08-13T22:54:00Z,23.3,15,10+,30.00
KOLS,31.4208,-110.847,VRB,5,5.75,KOLS 132254Z AUTO VRB05G14KT 10SM CLR 33/16 A3005 RMK AO2 LTG DSNT NE AND E SLP100 T03280156,2024-08-13T22:54:00Z,32.8,15.6,10+,30.05
KOLM,46.9737,-122.905,250,7,8.06,KOLM 132254Z 25007KT 10SM FEW043 OVC060 20/12 A3006 RMK AO2 SLP180 T02000122,2024-08-13T22:54:00Z,20,12.2,10+,30.06
KOFP,37.7093,-77.4349,0,0,0.0,KOFP 132254Z AUTO 00000KT 10SM CLR 27/17 A3006 RMK AO2 SLP176 T02670167,2024-08-13T22:54:00Z,26.7,16.7,10+,30.06
KNAK,38.9913,-76.4891,200,5,5.75,KNAK 132254Z AUTO 20005KT 10SM OVC095 26/14 A3003 RMK AO2 SLP169 T02610144,2024-08-13T22:54:00Z,26.1,14.4,10+,30.03
KN60,47.654,-101.436,160,12,13.81,KN60 132254Z AUTO 16012G21KT 27/18 A2991 RMK AO1 PK WND 16027/2230 SLP122 T02670178,2024-08-13T22:54:00Z,26.7,17.8,,29.91
KMVL,44.5328,-72.6152,310,4,4.6,KMVL 132254Z AUTO 31004KT 10SM CLR 23/16 A3000 RMK AO2 SLP159 T02280156,2024-08-13T22:54:00Z,22.8,15.6,10+,30.00
KMTP,41.073,-71.9235,230,5,5.75,KMTP 132254Z AUTO 23005KT 24/17 A2998 RMK AO1 SLP153 T02440167,2024-08-13T22:54:00Z,24.4,16.7,,29.98
KMTN,39.3214,-76.4065,160,4,4.6,KMTN 132254Z 16004KT 10SM SCT065 26/17 A3004,2024-08-13T22:54:00Z,26,17,10+,30.04
KMRY,36.5904,-121.849,320,8,9.21,KMRY 132254Z 32008KT 10SM CLR 19/12 A3001 RMK AO2 SLP175 T01890117,2024-08-13T22:54:00Z,18.9,11.7,10+,30.01
KMOT,48.252,-101.269,100,9,10.36,KMOT 132254Z 10009KT 10SM BKN040 BKN048 26/18 A2990 RMK AO2 SLP122 T02610183,2024-08-13T22:54:00Z,26.1,18.3,10+,29.90
KMKC,39.1279,-94.5892,90,6,6.9,KMKC 132254Z 09006KT 10SM OVC011 23/20 A3005 RMK AO2 SLP171 T02280200,2024-08-13T22:54:00Z,22.8,20,10+,30.05
KMIV,39.3662,-75.0778,280,4,4.6,KMIV 132254Z AUTO 28004KT 10SM CLR 26/16 A3001 RMK AO2 SLP161 T02610156,2024-08-13T22:54:00Z,26.1,15.6,10+,30.01
KMGJ,41.509,-74.2645,40,4,4.6,KMGJ 132254Z AUTO 04004KT 10SM CLR 24/14 A2999 RMK AO2 SLP154 T02440139,2024-08-13T22:54:00Z,24.4,13.9,10+,29.99
KMFI,44.6379,-90.1875,0,0,0.0,KMFI 132254Z AUTO 00000KT 10SM CLR 28/16 A3012 RMK AO2 SLP195 T02780156,2024-08-13T22:54:00Z,27.8,15.6,10+,30.12
KMER,37.392,-120.577,330,10,11.51,KMER 132254Z 33010KT 10SM CLR 35/09 A2987,2024-08-13T22:54:00Z,35,9,10+,29.87
KMEM,35.0564,-89.9864,VRB,4,4.6,KMEM 132254Z VRB04KT 10SM FEW085 SCT190 BKN250 32/21 A3003 RMK AO2 SLP165 T03220206,2024-08-13T22:54:00Z,32.2,20.6,10+,30.03
KLYH,37.3213,-79.2065,210,3,3.45,KLYH 132254Z 21003KT 10SM FEW090 23/18 A3009 RMK AO2 SLP181 T02330183,2024-08-13T22:54:00Z,23.3,18.3,10+,30.09
KLWM,42.7125,-71.1256,0,0,0.0,KLWM 132254Z 00000KT 10SM CLR 24/16 A2997 RMK AO2 SLP147 T02440156,2024-08-13T22:54:00Z,24.4,15.6,10+,29.97
KLNK,40.8478,-96.7647,120,11,12.66,KLNK 132254Z 12011KT 7SM OVC025 25/19 A3004 RMK AO2 SLP165 T02500194,2024-08-13T22:54:00Z,25,19.4,7,30.04
KLEX,38.0339,-84.6114,330,4,4.6,KLEX 132254Z 33004KT 10SM OVC075 28/16 A3009 RMK AO2 SLP181 T02780156,2024-08-13T22:54:00Z,27.8,15.6,10+,30.09
KLAF,40.4124,-86.9474,330,5,5.75,KLAF 132254Z 33005KT 10SM CLR 27/13 A3010 RMK AO2 SLP190 T02720133,2024-08-13T22:54:00Z,27.2,13.3,10+,30.10
KJST,40.3149,-78.8307,320,6,6.9,KJST 132254Z AUTO 32006KT 10SM CLR 22/11 A3014 RMK AO2 SLP197 T02220111 $,2024-08-13T22:54:00Z,22.2,11.1,10+,30.14
KJAN,32.3198,-90.0778,20,4,4.6,KJAN 132254Z 02004KT 10SM FEW075 SCT250 34/21 A3001 RMK AO2 SLP158 T03440206,2024-08-13T22:54:00Z,34.4,20.6,10+,30.01
KIZG,43.9899,-70.9501,0,0,0.0,KIZG 132254Z AUTO 00000KT 10SM CLR 23/17 A2995 RMK AO2 SLP142 T02280172,2024-08-13T22:54:00Z,22.8,17.2,10+,29.95
KISW,44.3591,-89.837,0,0,0.0,KISW 132254Z AUTO 00000KT 10SM OVC100 28/13 A3012 RMK AO2 SLP195 T02830133,2024-08-13T22:54:00Z,28.3,13.3,10+,30.12
KIPT,41.243,-76.9217,330,3,3.45,KIPT 132254Z 33003KT 10SM BKN110 25/14 A3004 RMK AO2 SLP169 T02500144 $,2024-08-13T22:54:00Z,25,14.4,10+,30.04
KINL,48.5594,-93.3955,150,5,5.75,KINL 132254Z AUTO 15005KT 10SM FEW065 26/13 A3008 RMK AO2 SLP187 T02610133,2024-08-13T22:54:00Z,26.1,13.3,10+,30.08
KIND,39.7252,-86.2816,200,6,6.9,KIND 132254Z 20006KT 10SM BKN070 BKN250 26/14 A3010 RMK AO2 SLP186 T02610144,2024-08-13T22:54:00Z,26.1,14.4,10+,30.10
KIMT,45.8134,-88.1129,40,3,3.45,KIMT 132254Z AUTO 04003KT 10SM CLR 28/12 A3010 RMK AO2 SLP191 T02780122,2024-08-13T22:54:00Z,27.8,12.2,10+,30.10
KHWD,37.6589,-122.121,280,10,11.51,KHWD 132254Z 28010KT 10SM CLR 23/11 A2997 RMK AO2 SLP159 T02330111,2024-08-13T22:54:00Z,23.3,11.1,10+,29.97
KGSO,36.0969,-79.9432,130,3,3.45,KGSO 132254Z 13003KT 10SM FEW015 BKN065 BKN120 BKN250 22/18 A3009 RMK AO2 SLP179 T02220183,2024-08-13T22:54:00Z,22.2,18.3,10+,30.09
KGED,38.6898,-75.3625,190,5,5.75,KGED 132254Z AUTO 19005KT 10SM BKN100 24/16 A3003 RMK AO2 SLP167 T02440156,2024-08-13T22:54:00Z,24.4,15.6,10+,30.03
KGCN,35.9458,-112.155,240,12,13.81,KGCN 132254Z 24012G26KT 10SM FEW065 FEW090 SCT110 27/09 A3021 RMK AO2 PK WND 23026/2247 LTG DSNT E-S SLP128 T02670094,2024-08-13T22:54:00Z,26.7,9.4,10+,30.21
KGCK,37.9221,-100.723,180,17,19.56,KGCK 132254Z 18017G26KT 10SM CLR 35/15 A2992 RMK AO2 PK WND 19026/2243 SLP092 T03500150,2024-08-13T22:54:00Z,35,15,10+,29.92
KFZY,43.3504,-76.3831,290,5,5.75,KFZY 132254Z AUTO 29005KT 10SM CLR 23/17 A3006 RMK AO2 SLP178 T02280167,2024-08-13T22:54:00Z,22.8,16.7,10+,30.06
KFWA,40.9725,-85.2064,330,5,5.75,KFWA 132254Z 33005KT 10SM FEW065 27/13 A3011 RMK AO2 SLP191 T02720133,2024-08-13T22:54:00Z,27.2,13.3,10+,30.11
KFIG,41.0465,-78.4112,,,,KFIG 132254Z AUTO 10SM CLR 24/14 A3010 RMK AO2 SLP188 T02440139 $,2024-08-13T22:54:00Z,24.4,13.9,10+,30.10
KFFZ,33.4659,-111.721,250,6,6.9,KFFZ 132254Z 25006KT 10SM CLR 39/16 A2982 RMK AO2 SLP068 T03890156,2024-08-13T22:54:00Z,38.9,15.6,10+,29.82
KEWN,35.0684,-77.0478,80,3,3.45,KEWN 132254Z 08003KT 10SM FEW090 SCT110 26/19 A3005 RMK AO2 SLP175 T02560189,2024-08-13T22:54:00Z,25.6,18.9,10+,30.05
KEVV,38.0502,-87.5147,100,4,4.6,KEVV 132254Z 10004KT 10SM SCT050 28/18 A3008 RMK AO2 SLP182 T02780178,2024-08-13T22:54:00Z,27.8,17.8,10+,30.08
KEUG,44.1331,-123.216,330,8,9.21,KEUG 132254Z 33008G15KT 10SM FEW050 SCT200 25/09 A3004 RMK AO2 SLP171 T02500089,2024-08-13T22:54:00Z,25,8.9,10+,30.04
KEFD,29.606,-95.16,50,7,8.06,KEFD 132254Z 05007KT 10SM SCT055 34/23 A2998,2024-08-13T22:54:00Z,34,23,10+,29.98
KECG,36.2571,-76.1716,280,3,3.45,KECG 132254Z 28003KT 10SM CLR 26/19 A3004 RMK AO2 SLP172 T02560194,2024-08-13T22:54:00Z,25.6,19.4,10+,30.04
KDYL,40.3302,-75.1228,330,4,4.6,KDYL 132254Z AUTO 33004KT 10SM CLR 27/13 A3000 RMK AO2 SLP155 T02720128,2024-08-13T22:54:00Z,27.2,12.8,10+,30.00
KDSV,42.5699,-77.7142,10,5,5.75,KDSV 132254Z AUTO 01005KT 10SM CLR 24/14 A3009 RMK AO2 SLP196 T02390144,2024-08-13T22:54:00Z,23.9,14.4,10+,30.09
KDSM,41.534,-93.6531,200,4,4.6,KDSM 132254Z 20004KT 10SM FEW026 SCT033 OVC040 23/18 A3011 RMK AO2 SLP192 T02280183,2024-08-13T22:54:00Z,22.8,18.3,10+,30.11
KDEC,39.8308,-88.8719,90,6,6.9,KDEC 132254Z 09006KT 10SM BKN048 26/18 A3011 RMK AO2 SLP193 T02560178,2024-08-13T22:54:00Z,25.6,17.8,10+,30.11
KDDH,42.8935,-73.2488,0,0,0.0,KDDH 132254Z AUTO 00000KT 10SM CLR 23/17 A3000 RMK AO2 SLP157 T02280167,2024-08-13T22:54:00Z,22.8,16.7,10+,30.00
KCRW,38.3795,-81.5911,20,3,3.45,KCRW 132254Z 02003KT 10SM BKN100 29/11 A3006 RMK AO2 SLP170 T02890106,2024-08-13T22:54:00Z,28.9,10.6,10+,30.06
KCOU,38.8171,-92.2148,130,6,6.9,KCOU 132254Z 13006KT 10SM BKN022 24/20 A3008 RMK AO2 SLP179 T02440200,2024-08-13T22:54:00Z,24.4,20,10+,30.08
KCEU,34.6722,-82.8814,50,9,10.36,KCEU 132254Z AUTO 05009KT 5SM -RA FEW036 BKN055 OVC070 26/22 A3005 RMK AO2 RAB47 SLP164 P0002 T02560222,2024-08-13T22:54:00Z,25.6,22.2,5,30.05
KCDD,48.2601,-92.4748,0,0,0.0,KCDD 132254Z AUTO 00000KT 10SM CLR 27/12 A3011 RMK AO2,2024-08-13T22:54:00Z,27,12,10+,30.11
KCAR,46.8705,-68.0172,VRB,4,4.6,KCAR 132254Z AUTO VRB04KT 7SM CLR 22/13 A2986 RMK AO2 SLP114 T02170133,2024-08-13T22:54:00Z,21.7,13.3,7,29.86
KBWI,39.1733,-76.684,VRB,5,5.75,KBWI 132254Z VRB05KT 10SM SCT065 SCT110 BKN150 27/15 A3002 RMK AO2 SLP165 T02720150,2024-08-13T22:54:00Z,27.2,15,10+,30.02
KBUY,36.0475,-79.4737,0,0,0.0,KBUY 132254Z AUTO 00000KT 10SM OVC070 23/18 A3008 RMK AO2 SLP179 T02280183,2024-08-13T22:54:00Z,22.8,18.3,10+,30.08
KBUF,42.94,-78.7361,350,4,4.6,KBUF 132254Z 35004KT 10SM FEW090 BKN250 24/13 A3009 RMK AO2 SLP188 T02440133,2024-08-13T22:54:00Z,24.4,13.3,10+,30.09
KBTV,44.4683,-73.1499,360,6,6.9,KBTV 132254Z 36006KT 10SM CLR 26/16 A2998 RMK AO2 SLP152 T02610161,2024-08-13T22:54:00Z,26.1,16.1,10+,29.98
KBOS,42.3606,-71.0097,350,8,9.21,KBOS 132254Z 35008KT 10SM FEW045 SCT250 26/14 A2995 RMK AO2 SLP140 T02560144,2024-08-13T22:54:00Z,25.6,14.4,10+,29.95
KBFL,35.4342,-119.055,310,8,9.21,KBFL 132254Z 31008G15KT 10SM CLR 37/07 A2986 RMK AO2 SLP103 T03670072,2024-08-13T22:54:00Z,36.7,7.2,10+,29.86
KAVP,41.3335,-75.7227,VRB,5,5.75,KAVP 132254Z VRB05KT 9SM FEW055 24/16 A3004 RMK AO2 SLP168 T02440156,2024-08-13T22:54:00Z,24.4,15.6,9,30.04
KAVL,35.4318,-82.5379,VRB,3,3.45,KAVL 132254Z VRB03KT 10SM OVC020 23/18 A3013 RMK AO2 SLP179 T02280183,2024-08-13T22:54:00Z,22.8,18.3,10+,30.13
KAUW,44.9265,-89.6248,120,5,5.75,KAUW 132254Z AUTO 12005KT 10SM BKN065 OVC080 28/13 A3011 RMK AO2 SLP194 T02780133,2024-08-13T22:54:00Z,27.8,13.3,10+,30.11
KAPN,45.0716,-83.5645,120,6,6.9,KAPN 132254Z AUTO 12006KT 10SM CLR 23/16 A3012 RMK AO2 SLP198 T02280161,2024-08-13T22:54:00Z,22.8,16.1,10+,30.12
KAPC,38.2075,-122.28,200,14,16.11,KAPC 132254Z 20014KT 10SM CLR 24/12 A2993 RMK AO2 SLP128 T02440122,2024-08-13T22:54:00Z,24.4,12.2,10+,29.93
KALO,42.5544,-92.4013,180,4,4.6,KALO 132254Z 18004KT 10SM FEW039 SCT060 27/17 A3010 RMK AO2 SLP189 T02670172,2024-08-13T22:54:00Z,26.7,17.2,10+,30.10
KAKR,41.0373,-81.4634,360,8,9.21,KAKR 132254Z AUTO 36008KT 10SM CLR 26/13 A3011 RMK AO2 SLP189 T02560128 PWINO $,2024-08-13T22:54:00Z,25.6,12.8,10+,30.11
KAKQ,36.9827,-77.0014,310,3,3.45,KAKQ 132254Z AUTO 31003KT 10SM CLR 27/18 A3004 RMK AO2 SLP173 T02720178,2024-08-13T22:54:00Z,27.2,17.8,10+,30.04
KAKH,35.1968,-81.1555,30,5,5.75,KAKH 132254Z AUTO 03005KT 10SM FEW024 SCT041 24/20 A3007 RMK AO2 SLP177 T02390200,2024-08-13T22:54:00Z,23.9,20,10+,30.07
KACY,39.452,-74.567,290,5,5.75,KACY 132254Z 29005KT 10SM CLR 25/15 A3000 RMK AO2 SLP157 T02500150,2024-08-13T22:54:00Z,25,15,10+,30.00
KAAO,37.7496,-97.2191,130,8,9.21,KAAO 132254Z AUTO 13008KT 10SM SCT039 32/23 A2997 RMK AO2 SLP135 T03170228,2024-08-13T22:54:00Z,31.7,22.8,10+,29.97
K1V4,44.42,-72.019,,,,K1V4 132254Z AUTO 23/16 A2996 RMK AO1 SLP140 T02330156,2024-08-13T22:54:00Z,23.3,15.6,,29.96
K12N,41.0093,-74.7363,0,0,0.0,K12N 132254Z AUTO 00000KT 24/16 A3001 RMK AO1 SLP157 T02390156,2024-08-13T22:54:00Z,23.9,15.6,,30.01
FAGG,-34.006,22.379,250,25,28.77,FAGG 132254Z AUTO 25025G35KT 8000 -RA SCT010/// BKN014/// OVC017/// 10/08 Q1015,2024-08-13T22:54:00Z,10,8,4.97,29.97
TJNR,18.253,-65.638,360,6,6.9,TJNR 132253Z AUTO 36006KT 9SM SCT018 BKN039 29/26 A2975 RMK AO2 RAB10E24 SLP075 T02890256 PNO,2024-08-13T22:53:00Z,28.9,25.6,9,29.75
TISX,17.6997,-64.8126,270,4,4.6,TISX 132253Z AUTO 27004KT 8SM -RA FEW016 BKN047 OVC110 28/26 A2971 RMK AO2 RAB07 SLP060 P0000 T02780261 $,2024-08-13T22:53:00Z,27.8,26.1,8,29.71
PHTO,19.7191,-155.049,60,10,11.51,PHTO 132253Z COR 06010KT 10SM SCT023 SCT032 BKN039 28/22 A3005 RMK AO2 SLP175 T02780222,2024-08-13T22:53:00Z,27.8,22.2,10+,30.05
PHNL,21.3151,-157.924,60,12,13.81,PHNL 132253Z 06012G22KT 10SM FEW025 SCT041 31/18 A3005 RMK AO2 PK WND 09026/2232 SLP174 T03110183 $,2024-08-13T22:53:00Z,31.1,18.3,10+,30.05
PHLI,21.9805,-159.339,50,15,17.26,PHLI 132253Z 05015KT 10SM FEW022 29/22 A3010 RMK AO2 SLP190 T02940217,2024-08-13T22:53:00Z,29.4,21.7,10+,30.10
PHKO,19.7378,-156.048,200,10,11.51,PHKO 132253Z 20010KT 10SM SCT050 BKN080 29/22 A3002 RMK AO2 SLP163 T02890217,2024-08-13T22:53:00Z,28.9,21.7,10+,30.02
PHJR,21.312,-158.07,60,8,9.21,PHJR 132253Z 06008G19KT 020V100 10SM FEW046 32/18 A3006 RMK AO2 SLP184 T03220183,2024-08-13T22:53:00Z,32.2,18.3,10+,30.06
PGWT,14.997,145.624,110,10,11.51,PGWT 132253Z 11010KT 7SM FEW018 SCT120 30/25 A2988,2024-08-13T22:53:00Z,30,25,7,29.88
PAYA,59.512,-139.671,200,5,5.75,PAYA 132253Z AUTO 20005KT 10SM CLR 16/11 A3003 RMK AO2 SLP168 T01560111 TSNO $,2024-08-13T22:53:00Z,15.6,11.1,10+,30.03
PAWD,60.129,-149.418,290,11,12.66,PAWD 132253Z AUTO 29011G21KT 10SM CLR 19/05 A3000 RMK AO2 SLP160 T01940050 TSNO,2024-08-13T22:53:00Z,19.4,5,10+,30.00
PAVL,67.731,-164.548,180,28,32.22,PAVL 132253Z AUTO 18028KT 9SM OVC017 09/08 A2967 RMK AO2 PK WND 18036/2219 RAE2156 SLP048 T00940083 TSNO PNO $,2024-08-13T22:53:00Z,9.4,8.3,9,29.67
PATO,60.783,-148.843,290,7,8.06,PATO 132253Z AUTO 29007KT 270V350 10SM FEW050 17/09 A3005 RMK AO2 SLP175 T01720089 TSNO,2024-08-13T22:53:00Z,17.2,8.9,10+,30.05
PATK,62.319,-150.097,220,4,4.6,PATK 132253Z 22004KT 10SM CLR 17/08 A3004 RMK AO2 SLP177 T01670083,2024-08-13T22:53:00Z,16.7,8.3,10+,30.04
PASO,59.443,-151.702,20,7,8.06,PASO 132253Z AUTO 02007KT 10SM CLR 19/09 A3010 RMK AO2 SLP191 T01940094 TSNO,2024-08-13T22:53:00Z,19.4,9.4,10+,30.10
PASN,57.155,-170.223,210,9,10.36,PASN 132253Z AUTO 21009KT 7SM OVC026 09/07 A3015 RMK AO2 SLP211 T00940067 TSNO $,2024-08-13T22:53:00Z,9.4,6.7,7,30.15
PASI,57.047,-135.364,240,10,11.51,PASI 132253Z 24010KT 10SM SCT030 BKN065 17/10 A3006 RMK AO2 SLP178 T01670100 $,2024-08-13T22:53:00Z,16.7,10,10+,30.06
PASC,70.191,-148.48,210,14,16.11,PASC 132253Z 21014KT 10SM OVC090 16/05 A2976 RMK AO2 SLP078 T01610050 PNO $,2024-08-13T22:53:00Z,16.1,5,10+,29.76
PAQT,70.213,-150.994,210,8,9.21,PAQT 132253Z AUTO 21008KT 10SM OVC050 13/08 A2978 RMK AO2 SLP086 T01330083 TSNO $,2024-08-13T22:53:00Z,13.3,8.3,10+,29.78
PAPT,62.087,-152.722,220,5,5.75,PAPT 132253Z 22005KT 25SM BKN070 15/10 A3004 RMK NO SPECI 401510051 70004,2024-08-13T22:53:00Z,15,10,25,30.04
PAOT,66.886,-162.607,190,18,20.71,PAOT 132253Z 19018G26KT 10SM OVC025 11/08 A2977 RMK AO2 PK WND 19028/2155 SLP080 T01060078,2024-08-13T22:53:00Z,10.6,7.8,10+,29.77
PAOM,64.5111,-165.44,190,17,19.56,PAOM 132253Z 19017G26KT 4SM -RA BR OVC005 08/07 A2989 RMK AO2 PK WND 19026/2248 SLP123 P0000 T00830072,2024-08-13T22:53:00Z,8.3,7.2,4,29.89
PANN,64.547,-149.087,190,3,3.45,PANN 132253Z AUTO 19003KT 10SM FEW032 SCT041 OVC055 14/08 A3005 RMK AO2 RAB06E24 SLP183 P0000 T01390083 TSNO,2024-08-13T22:53:00Z,13.9,8.3,10+,30.05
PANC,61.1691,-150.028,VRB,3,3.45,PANC 132253Z VRB03KT 10SM FEW033 SCT039 BKN050 16/09 A3007 RMK AO2 SLP182 T01610089,2024-08-13T22:53:00Z,16.1,8.9,10+,30.07
PAMR,61.215,-149.85,300,5,5.75,PAMR 132253Z 30005KT 10SM OVC030 15/09 A3007 RMK AO2 SLP182 T01500094,2024-08-13T22:53:00Z,15,9.4,10+,30.07
PAMC,62.957,-155.61,170,8,9.21,PAMC 132253Z 17008KT 10SM BKN028 12/07 A3011 RMK AO2 SLP200 T01220067,2024-08-13T22:53:00Z,12.2,6.7,10+,30.11
PALH,61.179,-149.962,0,0,0.0,PALH 132253Z 00000KT 10SM BKN035 15/09 A3008 RMK AO2 SLP185 T01500089,2024-08-13T22:53:00Z,15,8.9,10+,30.08
PAKW,55.582,-133.075,VRB,5,5.75,PAKW 132253Z AUTO VRB05KT 10SM CLR 19/10 A3004 RMK AO2 SLP173 T01890100 TSNO,2024-08-13T22:53:00Z,18.9,10,10+,30.04
PAKV,64.321,-158.732,210,6,6.9,PAKV 132253Z AUTO 21006G15KT 10SM BKN042 16/06 A3002 RMK AO2 SLP168 T01610056 TSNO $,2024-08-13T22:53:00Z,16.1,5.6,10+,30.02
PAKT,55.3592,-131.722,340,4,4.6,PAKT 132253Z 34004KT 10SM SCT060 20/11 A3001 RMK AO2 SLP162 HARBOR WIND 16010KT T02000111,2024-08-13T22:53:00Z,20,11.1,10+,30.01
PAJN,58.354,-134.556,250,8,9.21,PAJN 132253Z 25008KT 10SM -RA FEW050 SCT065 OVC075 17/08 A3002 RMK AO2 RAB01 SLP165 BINOVC P0000 T01720083,2024-08-13T22:53:00Z,17.2,8.3,10+,30.02
PAIL,59.7492,-154.909,250,11,12.66,PAIL 132253Z 25011G18KT 10SM FEW035 OVC045 17/09 A3014 RMK AO2 SLP206 T01670094,2024-08-13T22:53:00Z,16.7,9.4,10+,30.14
PAHO,59.642,-151.491,250,11,12.66,PAHO 132253Z 25011G19KT 10SM SCT037 OVC050 15/10 A3009 RMK AO2 SLP190 T01500100,2024-08-13T22:53:00Z,15,10,10+,30.09
PAGK,62.1592,-145.459,350,5,5.75,PAGK 132253Z AUTO 35005KT 10SM FEW075 18/03 A3001 RMK AO2 SLP164 T01830028 TSNO,2024-08-13T22:53:00Z,18.3,2.8,10+,30.01
PAFA,64.8031,-147.876,310,8,9.21,PAFA 132253Z 31008KT 10SM FEW045 BKN065 BKN080 16/07 A3006 RMK AO2 SLP185 T01560067,2024-08-13T22:53:00Z,15.6,6.7,10+,30.06
PAEN,60.579,-151.242,260,7,8.06,PAEN 132253Z AUTO 26007KT 10SM CLR 16/09 A3008 RMK AO2 SLP187 T01610089 TSNO $,2024-08-13T22:53:00Z,16.1,8.9,10+,30.08
PAEG,64.7761,-141.164,VRB,4,4.6,PAEG 132253Z AUTO VRB04KT 10SM SCT050 BKN065 17/04 A2999 RMK AO2 SLP162 T01670044 TSNO,2024-08-13T22:53:00Z,16.7,4.4,10+,29.99
PADQ,57.7507,-152.488,90,9,10.36,PADQ 132253Z 09009KT 10SM CLR 16/07 A3011 RMK AO2 SLP198 T01560072,2024-08-13T22:53:00Z,15.6,7.2,10+,30.11
PADE,66.0695,-162.761,160,27,31.07,PADE 132253Z AUTO 16027G35KT 10SM CLR 14/08 A2974 RMK AO2 PK WND 17039/2225 SLP071 T01440083 TSNO,2024-08-13T22:53:00Z,14.4,8.3,10+,29.74
PACV,60.486,-145.445,VRB,3,3.45,PACV 132253Z VRB03KT 10SM CLR 22/11 A2998 RMK AO2 SLP152 T02170106 PNO,2024-08-13T22:53:00Z,21.7,10.6,10+,29.98
PACD,55.2207,-162.732,60,5,5.75,PACD 132253Z 06005KT 10SM CLR 13/08 A3022 RMK AO2 SLP235 T01280083,2024-08-13T22:53:00Z,12.8,8.3,10+,30.22
PABT,66.9176,-151.519,230,6,6.9,PABT 132253Z 23006KT 10SM FEW018 SCT030 BKN050 14/07 A2999 RMK AO2 RAE20 SLP164 P0000 T01390072 $,2024-08-13T22:53:00Z,13.9,7.2,10+,29.99
PABI,63.9931,-145.721,320,7,8.06,PABI 132253Z 32007KT 10SM FEW035 SCT047 BKN060 BKN180 13/02 A3010 RMK AO2 SLP199 T01330022 $,2024-08-13T22:53:00Z,13.3,2.2,10+,30.10
PABE,60.785,-161.829,180,13,14.96,PABE 132253Z 18013KT 3SM -RA BR SCT008 OVC014 10/09 A3013 RMK AO2 RAB47 SLP204 P0000 T01000094,2024-08-13T22:53:00Z,10,9.4,3,30.13
PAAQ,61.5951,-149.092,150,3,3.45,PAAQ 132253Z 15003KT 10SM SCT024 OVC032 14/08 A3005 RMK AO2 SLP179 T01440083,2024-08-13T22:53:00Z,14.4,8.3,10+,30.05
KZZV,39.9461,-81.8932,,,,KZZV 132253Z AUTO 10SM CLR 27/13 A3009 RMK AO2 SLP184 T02720133,2024-08-13T22:53:00Z,27.2,13.3,10+,30.09
KYKM,46.564,-120.535,VRB,3,3.45,KYKM 132253Z VRB03KT 10SM CLR 28/07 A2988 RMK AO2 SLP109 T02780067,2024-08-13T22:53:00Z,27.8,6.7,10+,29.88
KYIP,42.242,-83.5214,130,8,9.21,KYIP 132253Z 13008KT 10SM FEW055 FEW070 BKN100 26/15 A3011 RMK AO2 SLP189 T02610150,2024-08-13T22:53:00Z,26.1,15,10+,30.11
KXVG,46.9942,-94.206,160,6,6.9,KXVG 132253Z AUTO 16006KT 10SM CLR 24/15 A3010 RMK AO2,2024-08-13T22:53:00Z,24,15,10+,30.10
KXNA,36.2897,-94.3115,180,10,11.51,KXNA 132253Z 18010KT 10SM CLR 31/22 A3003 RMK AO2 SLP152 T03110222,2024-08-13T22:53:00Z,31.1,22.2,10+,30.03
KWVI,36.9394,-121.79,180,9,10.36,KWVI 132253Z AUTO 18009KT 10SM CLR 21/13 A2999 RMK AO2 SLP155 T02060128,2024-08-13T22:53:00Z,20.6,12.8,10+,29.99
KWST,41.3509,-71.8055,250,4,4.6,KWST 132253Z AUTO 25004KT 10SM CLR 23/16 A2997 RMK AO2 SLP147 T02330156,2024-08-13T22:53:00Z,23.3,15.6,10+,29.97
KWRL,43.9654,-107.95,310,17,19.56,KWRL 132253Z AUTO 31017G26KT 10SM CLR 26/09 A2989 RMK AO2 PK WND 33028/2231 SLP086 T02560094,2024-08-13T22:53:00Z,25.6,9.4,10+,29.89
KVUO,45.621,-122.654,170,3,3.45,KVUO 132253Z AUTO 17003KT 10SM BKN050 OVC070 22/08 A3007 RMK AO2 SLP183 T02170083,2024-08-13T22:53:00Z,21.7,8.3,10+,30.07
KVRB,27.6553,-80.4142,140,10,11.51,KVRB 132253Z 14010KT 10SM CLR 31/24 A2998 RMK AO2 LTG DSNT W SLP152 T03110239,2024-08-13T22:53:00Z,31.1,23.9,10+,29.98
KVLD,30.7763,-83.2739,0,0,0.0,KVLD 132253Z 00000KT 10SM CLR 34/21 A2997 RMK AO2 SLP156 T03390211,2024-08-13T22:53:00Z,33.9,21.1,10+,29.97
KVGT,36.2121,-115.194,220,16,18.41,KVGT 132253Z 22016G27KT 10SM CLR 40/04 A2979 RMK AO2 PK WND 21028/2242 SLP071 T04000039,2024-08-13T22:53:00Z,40,3.9,10+,29.79
KVEL,40.4429,-109.513,VRB,4,4.6,KVEL 132253Z AUTO VRB04KT 10SM CLR 23/14 A3012 RMK AO2 SLP141 T02280139,2024-08-13T22:53:00Z,22.8,13.9,10+,30.12
KVCB,38.3775,-121.959,190,10,11.51,KVCB 132253Z AUTO 19010G18KT 160V220 10SM CLR 32/11 A2990 RMK AO2 SLP124 T03220111,2024-08-13T22:53:00Z,32.2,11.1,10+,29.90
KUUU,41.5299,-71.2833,210,3,3.45,KUUU 132253Z AUTO 21003KT 10SM BKN050 23/16 A2996 RMK AO2 SLP142 T02330161,2024-08-13T22:53:00Z,23.3,16.1,10+,29.96
KUTS,30.7443,-95.5866,190,7,8.06,KUTS 132253Z AUTO 19007KT 10SM CLR 33/24 A3000 RMK AO2 SLP152 T03280239,2024-08-13T22:53:00Z,32.8,23.9,10+,30.00
KUNO,36.8791,-91.9052,0,0,0.0,KUNO 132253Z AUTO 00000KT 10SM -RA FEW009 SCT043 BKN110 23/21 A3009 RMK AO2 SLP179 P0003 T02280211,2024-08-13T22:53:00Z,22.8,21.1,10+,30.09
KUIL,47.937,-124.558,260,7,8.06,KUIL 132253Z AUTO 26007KT 10SM BKN025 OVC055 18/13 A3007 RMK AO2 SLP184 T01830128,2024-08-13T22:53:00Z,18.3,12.8,10+,30.07
KUAO,45.2466,-122.771,0,0,0.0,KUAO 132253Z 00000KT 10SM OVC060 20/09 A3008 RMK AO2 SLP183 T02000094,2024-08-13T22:53:00Z,20,9.4,10+,30.08
KTYS,35.818,-83.9857,350,6,6.9,KTYS 132253Z 35006KT 10SM SCT065 OVC250 28/17 A3005 RMK AO2 SLP165 T02830172,2024-08-13T22:53:00Z,28.3,17.2,10+,30.05
KTYR,32.3587,-95.404,170,7,8.06,KTYR 132253Z 17007KT 10SM CLR 35/22 A2999 RMK AO2 SLP148 T03500222,2024-08-13T22:53:00Z,35,22.2,10+,29.99
KTXK,33.4561,-93.9878,180,4,4.6,KTXK 132253Z AUTO 18004KT 10SM CLR 37/22 A3000 RMK AO2 SLP152 T03670222,2024-08-13T22:53:00Z,36.7,22.2,10+,30.00
KTWF,42.4785,-114.477,50,5,5.75,KTWF 132253Z 05005KT 10SM CLR 29/04 A2993 RMK AO2 SLP069 T02940044,2024-08-13T22:53:00Z,29.4,4.4,10+,29.93
KTVR,32.3481,-91.0299,60,5,5.75,KTVR 132253Z AUTO 06005KT 10SM CLR 36/22 A3000 RMK AO2 SLP165 T03560217,2024-08-13T22:53:00Z,35.6,21.7,10+,30.00
KTVL,38.8984,-119.996,,,,KTVL 132253Z AUTO 10SM CLR 23/01 A3018 RMK AO2 SLP170 T02330011,2024-08-13T22:53:00Z,23.3,1.1,10+,30.18
KTVC,44.739,-85.5694,30,6,6.9,KTVC 132253Z 03006KT 10SM FEW055 FEW250 25/17 A3010 RMK AO2 SLP191 T02500167,2024-08-13T22:53:00Z,25,16.7,10+,30.10
KTUS,32.1315,-110.956,290,6,6.9,KTUS 132253Z 29006KT 10SM CLR 36/16 A2996 RMK AO2 LTG DSNT NE AND SE TSE20 SLP090 T03560156,2024-08-13T22:53:00Z,35.6,15.6,10+,29.96
KTUP,34.2622,-88.7713,40,8,9.21,KTUP 132253Z 04008KT 10SM CLR 34/21 A3004 RMK AO2 SLP167 T03390206,2024-08-13T22:53:00Z,33.9,20.6,10+,30.04
KTUL,36.1985,-95.8783,160,13,14.96,KTUL 132253Z 16013G20KT 10SM SCT048 SCT250 35/25 A2994 RMK AO2 SLP127 T03500250,2024-08-13T22:53:00Z,35,25,10+,29.94
KTTN,40.2768,-74.8159,310,4,4.6,KTTN 132253Z 31004KT 10SM CLR 26/13 A2999 RMK AO2 SLP148 T02610133,2024-08-13T22:53:00Z,26.1,13.3,10+,29.99
KTTD,45.551,-122.41,140,4,4.6,KTTD 132253Z 14004KT 10SM OVC065 22/08 A3006 RMK AO2 SLP179 T02170083,2024-08-13T22:53:00Z,21.7,8.3,10+,30.06
KTRL,32.7131,-96.2688,150,11,12.66,KTRL 132253Z AUTO 15011KT 10SM CLR 36/21 A2998 RMK AO2 SLP143 T03610206,2024-08-13T22:53:00Z,36.1,20.6,10+,29.98
KTRI,36.4797,-82.3989,350,4,4.6,KTRI 132253Z 35004KT 10SM SCT055 SCT100 BKN250 28/16 A3007 RMK AO2 SLP158 T02830156,2024-08-13T22:53:00Z,28.3,15.6,10+,30.07
KTPA,27.9633,-82.54,280,7,8.06,KTPA 132253Z 28007KT 10SM FEW026 SCT140 BKN250 32/24 A3000 RMK AO2 SLP157 T03170244 $,2024-08-13T22:53:00Z,31.7,24.4,10+,30.00
KTOR,42.0613,-104.158,140,14,16.11,KTOR 132253Z AUTO 14014KT 10SM SCT095 28/16 A2992 RMK AO2 SLP078 T02830156,2024-08-13T22:53:00Z,28.3,15.6,10+,29.92
KTOP,39.0724,-95.626,70,11,12.66,KTOP 132253Z 07011KT 10SM OVC018 25/21 A3003 RMK AO2 SLP162 T02500211,2024-08-13T22:53:00Z,25,21.1,10+,30.03
KTOI,31.8574,-86.0103,290,6,6.9,KTOI 132253Z AUTO 29006KT 10SM CLR 33/20 A3001 RMK AO2 SLP157 T03330200,2024-08-13T22:53:00Z,33.3,20,10+,30.01
KTMB,25.6423,-80.4347,110,7,8.06,KTMB 132253Z 11007KT 10SM CLR 32/26 A2997 RMK AO2 SLP149 T03170256 $,2024-08-13T22:53:00Z,31.7,25.6,10+,29.97
KTLH,30.3935,-84.3513,10,7,8.06,KTLH 132253Z 01007KT 10SM FEW060 36/19 A2997 RMK AO2 LTG DSNT SE SLP146 CB DSNT SE T03560194,2024-08-13T22:53:00Z,35.6,19.4,10+,29.97
KTKI,33.1828,-96.5899,140,12,13.81,KTKI 132253Z 14012KT 10SM CLR 37/19 A2996 RMK AO2 SLP135 T03720194,2024-08-13T22:53:00Z,37.2,19.4,10+,29.96
KTIW,47.2674,-122.576,300,8,9.21,KTIW 132253Z 30008KT 10SM FEW060 OVC070 23/12 A3006 RMK AO2 SLP175 T02280117,2024-08-13T22:53:00Z,22.8,11.7,10+,30.06
KTHV,39.9194,-76.8768,290,3,3.45,KTHV 132253Z AUTO 29003KT 10SM BKN100 25/14 A3004 RMK AO2 SLP173 T02500144,2024-08-13T22:53:00Z,25,14.4,10+,30.04
KTDZ,41.5633,-83.4767,100,7,8.06,KTDZ 132253Z AUTO 10007KT 10SM CLR 28/13 A3011 RMK AO2 SLP190 T02780128,2024-08-13T22:53:00Z,27.8,12.8,10+,30.11
KTCS,33.2369,-107.268,280,19,21.86,KTCS 132253Z AUTO 28019G26KT 10SM CLR 30/11 A3008 RMK AO2 PK WND 27027/2243 LTG DSNT SW RAB2157E21 SLP096 P0000 T03000106,2024-08-13T22:53:00Z,30,10.6,10+,30.08
KTCL,33.2122,-87.6155,320,5,5.75,KTCL 132253Z 32005KT 10SM CLR 33/21 A3001 RMK AO2 SLP160 T03330206,2024-08-13T22:53:00Z,33.3,20.6,10+,30.01
KSWO,36.1624,-97.0832,180,13,14.96,KSWO 132253Z 18013G22KT 10SM CLR 37/23 A2993 RMK AO2 SLP120 T03670228,2024-08-13T22:53:00Z,36.7,22.8,10+,29.93
KSTS,38.5037,-122.811,180,6,6.9,KSTS 132253Z 18006KT 10SM CLR 32/10 A2991 RMK AO2 SLP122 T03170100,2024-08-13T22:53:00Z,31.7,10,10+,29.91
KSTP,44.9324,-93.0559,160,7,8.06,KSTP 132253Z 16007KT 10SM CLR 27/14 A3010 RMK AO2 SLP189 T02720139,2024-08-13T22:53:00Z,27.2,13.9,10+,30.10
KSTJ,39.7683,-94.9095,130,6,6.9,KSTJ 132253Z 13006KT 10SM OVC014 23/20 A3006 RMK AO2 SLP174 T02330200,2024-08-13T22:53:00Z,23.3,20,10+,30.06
KSTC,45.5442,-94.0517,170,7,8.06,KSTC 132253Z 17007KT 10SM CLR 27/14 A3010 RMK AO2 SLP198 T02670139,2024-08-13T22:53:00Z,26.7,13.9,10+,30.10
KSSF,29.339,-98.472,120,12,13.81,KSSF 132253Z 12012KT 10SM CLR 37/20 A2993 RMK AO2 SLP120 T03670200 $,2024-08-13T22:53:00Z,36.7,20,10+,29.93
KSRQ,27.4015,-82.5596,300,11,12.66,KSRQ 132253Z 30011KT 10SM CLR 31/24 A2999 RMK AO2 SLP154 T03110244,2024-08-13T22:53:00Z,31.1,24.4,10+,29.99
KSPW,43.1682,-95.2101,130,12,13.81,KSPW 132253Z AUTO 13012KT 10SM FEW022 BKN046 24/17 A3009 RMK AO2 SLP187 T02390172,2024-08-13T22:53:00Z,23.9,17.2,10+,30.09
KSPG,27.7685,-82.6257,280,10,11.51,KSPG 132253Z 28010KT 10SM SCT030 32/26 A2998 RMK AO2 WSHFT 2157 SLP150 T03220261 $,2024-08-13T22:53:00Z,32.2,26.1,10+,29.98
KSPB,45.7691,-122.864,220,4,4.6,KSPB 132253Z AUTO 22004KT 10SM BKN048 OVC065 A3005 RMK AO2 SLPNO,2024-08-13T22:53:00Z,,,10+,30.05
KSNY,41.0993,-102.986,160,12,13.81,KSNY 132253Z AUTO 16012G19KT 10SM FEW100 29/16 A2997 RMK AO2 LTG DSNT N AND NE SLP093 T02940161,2024-08-13T22:53:00Z,29.4,16.1,10+,29.97
KSNS,36.6635,-121.609,310,10,11.51,KSNS 132253Z 31010KT 10SM CLR 21/12 A2999 RMK AO2 SLP163 T02060117,2024-08-13T22:53:00Z,20.6,11.7,10+,29.99
KSNA,33.6798,-117.867,210,10,11.51,KSNA 132253Z 21010KT 10SM CLR 26/16 A2990 RMK AO2 SLP122 T02610156 $,2024-08-13T22:53:00Z,26.1,15.6,10+,29.90
KSMQ,40.6241,-74.669,0,0,0.0,KSMQ 132253Z AUTO 00000KT 10SM CLR 26/16 A2997 RMK AO2 SLP148 T02610161,2024-08-13T22:53:00Z,26.1,16.1,10+,29.97
KSMF,38.7007,-121.595,190,5,5.75,KSMF 132253Z 19005KT 10SM FEW250 32/12 A2989 RMK AO2 SLP121 T03220117,2024-08-13T22:53:00Z,32.2,11.7,10+,29.89
KSLN,38.78,-97.6446,140,10,11.51,KSLN 132253Z 14010KT 10SM FEW036 31/23 A2997 RMK AO2 SLP135 T03060228,2024-08-13T22:53:00Z,30.6,22.8,10+,29.97
KSJC,37.3594,-121.924,340,12,13.81,KSJC 132253Z 34012KT 10SM CLR 28/11 A2996 RMK AO2 SLP143 T02780111 $,2024-08-13T22:53:00Z,27.8,11.1,10+,29.96
KSIY,41.7737,-122.468,VRB,5,5.75,KSIY 132253Z AUTO VRB05KT 10SM CLR 29/03 A2998 RMK AO2 SLP140 T02940033,2024-08-13T22:53:00Z,29.4,3.3,10+,29.98
KSHR,44.7603,-106.974,140,3,3.45,KSHR 132253Z AUTO 14003KT 10SM FEW055 SCT070 BKN100 31/09 A2986 RMK AO2 LTG DSNT NW RAB35E45 SLP074 P0000 T03060089,2024-08-13T22:53:00Z,30.6,8.9,10+,29.86
KSHN,47.2384,-123.142,240,13,14.96,KSHN 132253Z AUTO 24013G19KT 10SM BKN032 OVC065 20/12 A3004 RMK AO2 SLP171 T02000117,2024-08-13T22:53:00Z,20,11.7,10+,30.04
KSGR,29.6197,-95.6575,230,5,5.75,KSGR 132253Z 23005KT 10SM TS CLR 34/26 A2998 RMK AO2 TSB30 SLP151 T03440256,2024-08-13T22:53:00Z,34.4,25.6,10+,29.98
KSFB,28.7795,-81.2436,310,11,12.66,KSFB 132253Z 31011KT 10SM CLR 33/23 A2998 RMK AO2 LTG DSNT E AND SE SLP151 T03280228,2024-08-13T22:53:00Z,32.8,22.8,10+,29.98
KSEG,40.8193,-76.8658,10,3,3.45,KSEG 132253Z AUTO 01003KT 10SM CLR 23/16 A3005 RMK AO2 SLP174 T02330161,2024-08-13T22:53:00Z,23.3,16.1,10+,30.05
KSEA,47.4447,-122.314,250,7,8.06,KSEA 132253Z 25007G15KT 10SM FEW033 BKN050 BKN070 21/11 A3006 RMK AO2 SLP183 T02110106,2024-08-13T22:53:00Z,21.1,10.6,10+,30.06
KSDM,32.5758,-116.994,260,9,10.36,KSDM 132253Z 26009KT 10SM CLR 28/17 A2991 RMK AO2 SLP123 T02830172,2024-08-13T22:53:00Z,28.3,17.2,10+,29.91
KSDL,33.6124,-111.923,180,5,5.75,KSDL 132253Z 18005KT 10SM CLR 39/16 A2984 RMK AO2 SLP075 T03890156,2024-08-13T22:53:00Z,38.9,15.6,10+,29.84
KSBM,43.7748,-87.849,100,5,5.75,KSBM 132253Z AUTO 10005KT 10SM CLR 26/17 A3012 RMK AO2 SLP196 T02610167,2024-08-13T22:53:00Z,26.1,16.7,10+,30.12
KSBA,34.4241,-119.842,220,5,5.75,KSBA 132253Z 22005KT 7SM CLR 23/16 A2991 RMK AO2 SLP128 T02330156 $,2024-08-13T22:53:00Z,23.3,15.6,7,29.91
KSAV,32.1313,-81.2023,310,8,9.21,KSAV 132253Z 31008KT 10SM FEW065 SCT200 34/21 A2995 RMK AO2 SLP141 T03330206,2024-08-13T22:53:00Z,33.3,20.6,10+,29.95
KSAF,35.611,-106.096,,,,KSAF 132253Z 10SM FEW110 30/08 A3016 RMK AO2 LTG DSNT S SLP099 T03000078,2024-08-13T22:53:00Z,30,7.8,10+,30.16
KSAC,38.5066,-121.496,250,7,8.06,KSAC 132253Z 25007KT 10SM CLR 31/12 A2990 RMK AO2 SLP125 T03060117,2024-08-13T22:53:00Z,30.6,11.7,10+,29.90
KRXE,43.8321,-111.808,100,7,8.06,KRXE 132253Z AUTO 10007KT 060V120 10SM FEW032 14/14 A3004 RMK AO2 LTG DSNT E RAE38 TSB29E44 SLP146 P0015 T01440139,2024-08-13T22:53:00Z,14.4,13.9,10+,30.04
KRWL,41.8065,-107.195,200,20,23.02,KRWL 132253Z AUTO 20020G29KT 10SM CLR 22/09 A3015 RMK AO2 PK WND 18032/2218 SLP120 T02220089,2024-08-13T22:53:00Z,22.2,8.9,10+,30.15
KRWI,35.8502,-77.8951,0,0,0.0,KRWI 132253Z AUTO 00000KT 10SM OVC100 24/21 A3006 RMK AO2 RAE03 SLP177 P0000 T02440211,2024-08-13T22:53:00Z,24.4,21.1,10+,30.06
KRWF,44.5483,-95.0804,140,12,13.81,KRWF 132253Z AUTO 14012KT 10SM FEW060 26/17 A3007 RMK AO2 SLP180 T02560167,2024-08-13T22:53:00Z,25.6,16.7,10+,30.07
KRVS,36.0424,-95.9902,170,12,13.81,KRVS 132253Z 17012KT 10SM FEW060 35/23 A2994 RMK AO2 SLP140 T03500228,2024-08-13T22:53:00Z,35,22.8,10+,29.94
KRUE,35.2573,-93.095,80,6,6.9,KRUE 132253Z AUTO 08006KT 10SM CLR 31/20 A3002 RMK AO2 SLP157 T03110200 $,2024-08-13T22:53:00Z,31.1,20,10+,30.02
KRSW,26.538,-81.7567,310,7,8.06,KRSW 132253Z 31007KT 10SM CLR 32/22 A2997 RMK AO2 SLP147 T03220222,2024-08-13T22:53:00Z,32.2,22.2,10+,29.97
KRSL,38.8725,-98.8093,140,11,12.66,KRSL 132253Z AUTO 14011KT 10SM SCT039 BKN046 30/22 A2995 RMK AO2 SLP123 T03000222,2024-08-13T22:53:00Z,30,22.2,10+,29.95
KRQE,35.6571,-109.06,300,6,6.9,KRQE 132253Z AUTO 30006KT 10SM FEW065 SCT090 21/13 A3025 RMK AO2 LTG DSNT SW AND NW SLP144 T02060133,2024-08-13T22:53:00Z,20.6,13.3,10+,30.25
KRNT,47.4951,-122.214,260,4,4.6,KRNT 132253Z 26004KT 10SM SCT045 OVC055 22/11 A3004 RMK AO2 SLP177 T02220111,2024-08-13T22:53:00Z,22.2,11.1,10+,30.04
KRNM,33.038,-116.916,270,10,11.51,KRNM 132253Z 27010G15KT 10SM CLR 34/12 A2993 RMK AO2 SLP118 T03440117,2024-08-13T22:53:00Z,34.4,11.7,10+,29.93
KRMG,34.3483,-85.1616,20,5,5.75,KRMG 132253Z AUTO 02005KT 10SM SCT070 SCT095 33/17 A3002 RMK AO2 SLP153 T03330172,2024-08-13T22:53:00Z,33.3,17.2,10+,30.02
KRME,43.2242,-75.3956,300,8,9.21,KRME 132253Z 30008KT 10SM CLR 23/17 A3005 RMK AO2 SLP172 T02280167,2024-08-13T22:53:00Z,22.8,16.7,10+,30.05
KRKP,28.0837,-97.0467,140,12,13.81,KRKP 132253Z AUTO 14012KT 8SM CLR 33/26 A2997 RMK AO2 SLP151 T03280256,2024-08-13T22:53:00Z,32.8,25.6,8,29.97
KRIW,43.0622,-108.447,350,12,13.81,KRIW 132253Z AUTO 35012KT 10SM VCTS -RA FEW046 SCT060 BKN090 22/13 A3000 RMK AO2 PK WND 23049/2227 LTG DSNT W RAB22 SLP099 P0014 T02220128 $,2024-08-13T22:53:00Z,22.2,12.8,10+,30.00
KRIL,39.5279,-107.72,VRB,4,4.6,KRIL 132253Z AUTO VRB04KT 10SM FEW029 22/14 A3019 RMK AO2 SLP162 T02170139,2024-08-13T22:53:00Z,21.7,13.9,10+,30.19
KRHI,45.6315,-89.4822,280,5,5.75,KRHI 132253Z AUTO 28005KT 10SM CLR 28/13 A3014 RMK AO2 LTG DSNT NE SLP203 T02780128,2024-08-13T22:53:00Z,27.8,12.8,10+,30.14
KRDD,40.5146,-122.298,VRB,6,6.9,KRDD 132253Z VRB06KT 10SM CLR 33/03 A2986 RMK AO2 SLP105 T03330028,2024-08-13T22:53:00Z,33.3,2.8,10+,29.86
KRBG,43.2337,-123.358,VRB,3,3.45,KRBG 132253Z AUTO VRB03KT 10SM CLR 26/11 A3001 RMK AO2 SLP160 T02610106,2024-08-13T22:53:00Z,26.1,10.6,10+,30.01
KRBD,32.6782,-96.8677,160,11,12.66,KRBD 132253Z 16011G17KT 10SM FEW070 37/18 A2996 RMK AO2 SLP135 T03670183,2024-08-13T22:53:00Z,36.7,18.3,10+,29.96
KRAL,33.9528,-117.435,270,14,16.11,KRAL 132253Z 27014G19KT 10SM CLR 35/11 A2988 RMK AO2 SLP100 T03500106,2024-08-13T22:53:00Z,35,10.6,10+,29.88
KRAC,42.7586,-87.8178,120,4,4.6,KRAC 132253Z AUTO 12004KT 10SM CLR 26/16 A3013 RMK AO2 SLP199 T02560156,2024-08-13T22:53:00Z,25.6,15.6,10+,30.13
KPWA,35.5411,-97.6472,160,16,18.41,KPWA 132253Z 16016G20KT 10SM CLR 36/23 A2994 RMK AO2 SLP119 T03560233,2024-08-13T22:53:00Z,35.6,23.3,10+,29.94
KPUW,46.7438,-117.116,190,6,6.9,KPUW 132253Z AUTO 19006KT 10SM FEW065 BKN090 OVC110 16/07 A3002 RMK AO2 SLP159 T01610072,2024-08-13T22:53:00Z,16.1,7.2,10+,30.02
KPUC,39.6089,-110.755,0,0,0.0,KPUC 132253Z AUTO 00000KT 10SM FEW060 OVC085 17/14 A3019 RMK AO2 WSHFT 2207 LTG DSNT ALQDS RAE49 TSE29 SLP169 P0005 T01720139,2024-08-13T22:53:00Z,17.2,13.9,10+,30.19
KPUB,38.2887,-104.506,350,5,5.75,KPUB 132253Z 35005KT 10SM FEW043 SCT110 24/19 A3000 RMK AO2 PK WND 27029/2211 LTG DSNT NW-NE RAB2156E04B13E40 TSB04E31 SLP100 P0003 T02440189 $,2024-08-13T22:53:00Z,24.4,18.9,10+,30.00
KPTK,42.6632,-83.41,360,6,6.9,KPTK 132253Z 36006KT 10SM SCT060 26/14 A3011 RMK AO2 SLP190 T02610139,2024-08-13T22:53:00Z,26.1,13.9,10+,30.11
KPSX,28.7248,-96.2535,160,12,13.81,KPSX 132253Z AUTO 16012KT 10SM CLR 33/26 A2999 RMK AO2 SLP153 T03280256,2024-08-13T22:53:00Z,32.8,25.6,10+,29.99
KPSP,33.8222,-116.504,340,17,19.56,KPSP 132253Z 34017G26KT 10SM CLR 44/07 A2976 RMK AO2 PK WND 32027/2231 SLP070 T04390072 $,2024-08-13T22:53:00Z,43.9,7.2,10+,29.76
KPSC,46.2695,-119.118,200,7,8.06,KPSC 132253Z 20007KT 10SM CLR 28/07 A2988 RMK AO2 SLP117 T02830067,2024-08-13T22:53:00Z,28.3,6.7,10+,29.88
KPRC,34.6491,-112.422,210,10,11.51,KPRC 132253Z 21010G19KT 10SM CLR 31/11 A3012 RMK AO2 SLP108 T03060106,2024-08-13T22:53:00Z,30.6,10.6,10+,30.12
KPRB,35.6693,-120.629,0,0,0.0,KPRB 132253Z AUTO 00000KT 10SM CLR 34/04 A2990 RMK AO2 SLP115 T03440044,2024-08-13T22:53:00Z,34.4,4.4,10+,29.90
KPQL,30.4631,-88.5316,140,5,5.75,KPQL 132253Z AUTO 14005KT 10SM CLR 28/24 A3002 RMK AO2 SLP166 T02830239,2024-08-13T22:53:00Z,28.3,23.9,10+,30.02
KPOU,41.6257,-73.8816,50,5,5.75,KPOU 132253Z 05005KT 10SM CLR 25/15 A2998 RMK AO2 SLP148 T02500150,2024-08-13T22:53:00Z,25,15,10+,29.98
KPOF,36.7697,-90.3224,340,5,5.75,KPOF 132253Z AUTO 34005KT 10SM BKN025 OVC110 25/22 A3004 RMK AO2 RAE04 SLP169 P0000 T02500222,2024-08-13T22:53:00Z,25,22.2,10+,30.04
KPNS,30.478,-87.1869,250,9,10.36,KPNS 132253Z AUTO 25009KT 10SM FEW065 30/22 A3000 RMK AO2 SLP160 T03000222,2024-08-13T22:53:00Z,30,22.2,10+,30.00
KPNC,36.7369,-97.1024,120,11,12.66,KPNC 132253Z AUTO 12011KT 10SM CLR 35/26 A2992 RMK AO2 SLP117 T03500256,2024-08-13T22:53:00Z,35,25.6,10+,29.92
KPMP,26.2464,-80.111,100,9,10.36,KPMP 132253Z AUTO 10009KT 10SM CLR 31/26 A2998 RMK AO2 SLP151 T03110261,2024-08-13T22:53:00Z,31.1,26.1,10+,29.98
KPMD,34.6295,-118.083,230,18,20.71,KPMD 132253Z 23018G26KT 10SM CLR 34/07 A2996 RMK AO2 PK WND 24026/2249 SLP112 T03390067,2024-08-13T22:53:00Z,33.9,6.7,10+,29.96
KPKD,46.8971,-95.0695,190,8,9.21,KPKD 132253Z AUTO 19008KT 10SM CLR 26/13 A3009 RMK AO2 SLP188 T02610128,2024-08-13T22:53:00Z,26.1,12.8,10+,30.09
KPKB,39.3395,-81.4438,120,3,3.45,KPKB 132253Z 12003KT 10SM BKN075 OVC100 27/13 A3008 RMK AO2 SLP180 T02670128,2024-08-13T22:53:00Z,26.7,12.8,10+,30.08
KPIR,44.3819,-100.286,120,21,24.17,KPIR 132253Z AUTO 12021G29KT 10SM CLR 26/18 A2990 RMK AO2 PK WND 12029/2253 SLP114 T02560183,2024-08-13T22:53:00Z,25.6,18.3,10+,29.90
KPIL,26.1597,-97.3378,110,14,16.11,KPIL 132253Z AUTO 11014G20KT 10SM CLR 32/25 A2997 RMK AO2 SLP149 T03220250,2024-08-13T22:53:00Z,32.2,25,10+,29.97
KPIH,42.9197,-112.572,120,6,6.9,KPIH 132253Z 12006KT 10SM FEW060 25/13 A2997 RMK AO2 SLP094 T02500128,2024-08-13T22:53:00Z,25,12.8,10+,29.97
KPIE,27.9126,-82.6855,290,8,9.21,KPIE 132253Z 29008KT 10SM CLR 32/25 A3000 RMK AO2 SLP157 T03220250,2024-08-13T22:53:00Z,32.2,25,10+,30.00
KPHD,40.4703,-81.4218,360,6,6.9,KPHD 132253Z AUTO 36006KT 10SM CLR 28/11 A3010 RMK AO2 SLP187 T02780111,2024-08-13T22:53:00Z,27.8,11.1,10+,30.10
KPGD,26.9185,-81.9939,270,8,9.21,KPGD 132253Z 27008KT 10SM CLR 34/23 A2999 RMK AO2 SLP152 T03390228,2024-08-13T22:53:00Z,33.9,22.8,10+,29.99
KPGA,36.9211,-111.449,330,10,11.51,KPGA 132253Z AUTO 33010KT 10SM CLR 29/14 A3003 RMK AO2 PK WND 29033/2215 LTG DSNT ALQDS SLP099 T02890139,2024-08-13T22:53:00Z,28.9,13.9,10+,30.03
KPEO,42.6441,-77.0528,340,4,4.6,KPEO 132253Z AUTO 34004KT 10SM CLR 22/13 A3010 RMK AO2 SLP186 T02220128,2024-08-13T22:53:00Z,22.2,12.8,10+,30.10
KPDX,45.5958,-122.609,360,4,4.6,KPDX 132253Z 36004KT 10SM BKN049 OVC070 22/08 A3006 RMK AO2 SLP176 T02220083,2024-08-13T22:53:00Z,22.2,8.3,10+,30.06
KPDT,45.6975,-118.834,310,8,9.21,KPDT 132253Z 31008G15KT 10SM CLR 26/07 A2993 RMK AO2 SLP121 T02610067,2024-08-13T22:53:00Z,26.1,6.7,10+,29.93
KPDK,33.8783,-84.298,330,11,12.66,KPDK 132253Z 33011KT 10SM CLR 32/17 A3002 RMK AO2 SLP148 T03170167,2024-08-13T22:53:00Z,31.7,16.7,10+,30.02
KPBI,26.6851,-80.0992,100,10,11.51,KPBI 132253Z 10010KT 10SM FEW035 FEW250 32/26 A2998 RMK AO2 SLP151 T03170256,2024-08-13T22:53:00Z,31.7,25.6,10+,29.98
KPBG,44.6392,-73.4631,290,6,6.9,KPBG 132253Z AUTO 29006KT 10SM CLR 26/16 A2998 RMK AO2 SLP150 T02610156,2024-08-13T22:53:00Z,26.1,15.6,10+,29.98
KPBF,34.1798,-91.9344,80,5,5.75,KPBF 132253Z AUTO 08005KT 10SM CLR 35/21 A3001 RMK AO2 SLP160 T03500211,2024-08-13T22:53:00Z,35,21.1,10+,30.01
KPAH,37.0652,-88.7793,360,7,8.06,KPAH 132253Z 36007KT 10SM OVC043 25/22 A3007 RMK AO2 RAE2159 SLP177 P0001 T02500222,2024-08-13T22:53:00Z,25,22.2,10+,30.07
KPAE,47.9232,-122.283,280,6,6.9,KPAE 132253Z 28006KT 10SM OVC042 19/13 A3007 RMK AO2 SLP180 T01890128,2024-08-13T22:53:00Z,18.9,12.8,10+,30.07
KP68,39.602,-116.006,,,,KP68 132253Z AUTO 29/M09 A3005 RMK AO1 SLP091 T02891089,2024-08-13T22:53:00Z,28.9,-8.9,,30.05
KOXB,38.3091,-75.1234,180,3,3.45,KOXB 132253Z AUTO 18003KT 10SM SCT095 23/16 A3004 RMK AO2 SLP173 T02330161 PWINO,2024-08-13T22:53:00Z,23.3,16.1,10+,30.04
KOWD,42.1912,-71.1732,320,4,4.6,KOWD 132253Z 32004KT 10SM CLR 26/16 A2995 RMK AO2 SLP142 T02560156 $,2024-08-13T22:53:00Z,25.6,15.6,10+,29.95
KOWA,44.1191,-93.2569,180,9,10.36,KOWA 132253Z AUTO 18009KT 10SM BKN043 BKN050 26/17 A3011 RMK AO2,2024-08-13T22:53:00Z,26,17,10+,30.11
KOVS,43.1561,-90.6775,0,0,0.0,KOVS 132253Z AUTO 00000KT 10SM CLR 28/16 A3010 RMK AO2 SLP193 T02830161,2024-08-13T22:53:00Z,28.3,16.1,10+,30.10
KOVE,39.4943,-121.622,180,8,9.21,KOVE 132253Z AUTO 18008KT 10SM CLR 32/12 A2990 RMK AO2 SLP125 T03220117,2024-08-13T22:53:00Z,32.2,11.7,10+,29.90
KOTM,41.1008,-92.4445,150,5,5.75,KOTM 132253Z AUTO 15005KT 10SM OVC041 23/18 A3011 RMK AO2 SLP191 T02280183,2024-08-13T22:53:00Z,22.8,18.3,10+,30.11
KOSU,40.0784,-83.0782,360,6,6.9,KOSU 132253Z COR 36006KT 10SM FEW080 28/14 A3009 RMK AO2 SLP183 T02780144,2024-08-13T22:53:00Z,27.8,14.4,10+,30.09
KOSH,43.9669,-88.5582,130,5,5.75,KOSH 132253Z 13005KT 10SM CLR 28/15 A3011 RMK AO2 SLP184 T02780150,2024-08-13T22:53:00Z,27.8,15,10+,30.11
KORL,28.5465,-81.3354,290,11,12.66,KORL 132253Z 29011KT 10SM CLR 33/24 A2998 RMK AO1 LTG DSNT NE AND E SLP154 T03330239,2024-08-13T22:53:00Z,33.3,23.9,10+,29.98
KORB,48.0171,-92.8538,200,3,3.45,KORB 132253Z AUTO 20003KT 10SM 27/13 A3008 RMK AO2,2024-08-13T22:53:00Z,27,13,10+,30.08
KOQT,36.023,-84.2336,VRB,3,3.45,KOQT 132253Z AUTO VRB03KT 10SM OVC055 29/17 A3007 RMK AO2 SLP169 T02890172,2024-08-13T22:53:00Z,28.9,17.2,10+,30.07
KOPF,25.9102,-80.2828,140,7,8.06,KOPF 132253Z 14007KT 10SM CLR 31/24 A2998 RMK AO2 SLP153 T03110244,2024-08-13T22:53:00Z,31.1,24.4,10+,29.98
KONT,34.0531,-117.577,240,11,12.66,KONT 132253Z 24011G18KT 10SM FEW090 34/10 A2989 RMK AO2 SLP102 T03390100,2024-08-13T22:53:00Z,33.9,10,10+,29.89
KONO,44.0143,-117.008,0,0,0.0,KONO 132253Z AUTO 00000KT 10SM CLR 31/08 A2986 RMK AO2 SLP089 T03060078,2024-08-13T22:53:00Z,30.6,7.8,10+,29.86
KOMK,48.4611,-119.521,160,13,14.96,KOMK 132253Z AUTO 16013G21KT 150V220 10SM CLR 31/10 A2986 RMK AO2 SLP104 T03060100,2024-08-13T22:53:00Z,30.6,10,10+,29.86
KOLF,48.0942,-105.578,100,7,8.06,KOLF 132253Z AUTO 10007KT 10SM CLR 33/11 A2978 RMK AO2 SLP072 T03330106,2024-08-13T22:53:00Z,33.3,10.6,10+,29.78
KOJC,38.85,-94.7395,70,7,8.06,KOJC 132253Z 07007KT 10SM OVC007 22/21 A3006 RMK AO2 SLP168 T02220206,2024-08-13T22:53:00Z,22.2,20.6,10+,30.06
KOGD,41.1941,-112.017,230,8,9.21,KOGD 132253Z 23008KT 10SM VCTS SCT070 BKN095 BKN110 31/12 A2993 RMK AO2 LTG DSNT S AND SW SLP071 T03060122,2024-08-13T22:53:00Z,30.6,12.2,10+,29.93
KODX,41.6234,-98.9489,130,9,10.36,KODX 132253Z AUTO 13009G18KT 10SM BKN024 BKN031 BKN049 26/19 A3000 RMK AO2 SLP150 T02560194,2024-08-13T22:53:00Z,25.6,19.4,10+,30.00
KODO,31.925,-102.387,150,15,17.26,KODO 132253Z AUTO 15015G25KT 10SM CLR 37/13 A3000 RMK AO2 SLP102 T03670128 $,2024-08-13T22:53:00Z,36.7,12.8,10+,30.00
KOAK,37.7178,-122.233,280,12,13.81,KOAK 132253Z 28012KT 10SM CLR 22/11 A2999 RMK AO2 SLP154 T02220111,2024-08-13T22:53:00Z,22.2,11.1,10+,29.99
KNUI,38.152,-76.432,150,4,4.6,KNUI 132253Z AUTO 15004KT 10SM CLR 26/16 A3003 RMK AO2 SLP167 T02560161,2024-08-13T22:53:00Z,25.6,16.1,10+,30.03
KNQX,24.5801,-81.6829,110,9,10.36,KNQX 132253Z 11009KT 10SM -TSRA SCT025CB SCT050 BKN250 30/24 A2998 RMK AO2 WSHFT 2234 RAB39 TSB10 SLP151 OCNL LTGICCG OHD TS OHD MOV SW T1 SET P0000 T03000244 $,2024-08-13T22:53:00Z,30,24.4,10+,29.98
KNIP,30.2346,-81.6746,300,7,8.06,KNIP 132253Z 30007KT 10SM FEW065 SCT100 SCT250 36/20 A2996 RMK AO2 SLP139 T03610200 $,2024-08-13T22:53:00Z,36.1,20,10+,29.96
KNEW,30.0494,-90.029,300,3,3.45,KNEW 132253Z 30003KT 10SM CLR 35/22 A3000 RMK AO2 SLP153 T03500222,2024-08-13T22:53:00Z,35,22.2,10+,30.00
KMYV,39.102,-121.569,210,8,9.21,KMYV 132253Z AUTO 21008KT 10SM CLR 32/12 A2989 RMK AO2 SLP126 T03220117,2024-08-13T22:53:00Z,32.2,11.7,10+,29.89
KMYF,32.8145,-117.137,240,8,9.21,KMYF 132253Z 24008KT 10SM CLR 27/17 A2991 RMK AO2 SLP124 T02720172,2024-08-13T22:53:00Z,27.2,17.2,10+,29.91
KMWT,34.5466,-93.5779,0,0,0.0,KMWT 132253Z AUTO 00000KT 10SM BKN065 35/19 A3000 RMK AO2 SLP143 T03500194,2024-08-13T22:53:00Z,35,19.4,10+,30.00
KMWL,32.7816,-98.0602,160,12,13.81,KMWL 132253Z AUTO 16012G18KT 10SM CLR 38/18 A2994 RMK AO2 SLP122 T03830183,2024-08-13T22:53:00Z,38.3,18.3,10+,29.94
KMVY,41.393,-70.6159,250,4,4.6,KMVY 132253Z 25004KT 10SM CLR 22/16 A2996 RMK AO2 SLP143 T02220156,2024-08-13T22:53:00Z,22.2,15.6,10+,29.96
KMTO,39.4744,-88.2724,30,5,5.75,KMTO 132253Z AUTO 03005KT 10SM BKN042 26/17 A3010 RMK AO2 SLP189 T02610172,2024-08-13T22:53:00Z,26.1,17.2,10+,30.10
KMTJ,38.5054,-107.898,140,6,6.9,KMTJ 132253Z AUTO 14006KT 10SM CLR 22/14 A3021 RMK AO2 SLP157 T02220144,2024-08-13T22:53:00Z,22.2,14.4,10+,30.21
KMTH,24.7262,-81.0477,100,4,4.6,KMTH 132253Z AUTO 10004KT 10SM BKN025 BKN031 32/27 A2997 RMK AO2 LTG DSNT NE AND SW AND W SLP149 T03170267,2024-08-13T22:53:00Z,31.7,26.7,10+,29.97
KMSY,29.9974,-90.2777,180,8,9.21,KMSY 132253Z 18008KT 10SM FEW055 SCT070 SCT250 34/24 A3000 RMK AO2 SLP162 CB DSNT N T03390244,2024-08-13T22:53:00Z,33.9,24.4,10+,30.00
KMSS,44.9334,-74.8484,300,4,4.6,KMSS 132253Z AUTO 30004KT 10SM CLR 25/16 A3001 RMK AO2 SLP160 T02500156 $,2024-08-13T22:53:00Z,25,15.6,10+,30.01
KMSP,44.8852,-93.2313,160,8,9.21,KMSP 132253Z 16008KT 10SM FEW060 27/12 A3010 RMK AO2 SLP189 T02670122,2024-08-13T22:53:00Z,26.7,12.2,10+,30.10
KMSO,46.9208,-114.094,140,11,12.66,KMSO 132253Z 14011G17KT 9SM -RA FEW065 OVC090 18/14 A2998 RMK AO2 PK WND 17033/2206 WSHFT 2200 LTG DSNT E RAB47 SLP139 P0000 T01830144,2024-08-13T22:53:00Z,18.3,14.4,9,29.98
KMSN,43.1407,-89.3452,0,0,0.0,KMSN 132253Z 00000KT 10SM SCT065 28/16 A3010 RMK AO2 SLP189 T02830156,2024-08-13T22:53:00Z,28.3,15.6,10+,30.10
KMSL,34.7439,-87.5997,10,3,3.45,KMSL 132253Z AUTO 01003KT 10SM CLR 33/17 A3004 RMK AO2 SLP166 T03330172,2024-08-13T22:53:00Z,33.3,17.2,10+,30.04
KMRB,39.4037,-77.975,350,4,4.6,KMRB 132253Z 35004KT 10SM CLR 27/12 A3004 RMK AO2 SLP169 T02670122,2024-08-13T22:53:00Z,26.7,12.2,10+,30.04
KMPO,41.1368,-75.3771,310,5,5.75,KMPO 132253Z AUTO 31005KT 10SM FEW090 21/14 A3007 RMK AO2 SLP179 T02060139 $,2024-08-13T22:53:00Z,20.6,13.9,10+,30.07
KMOD,37.6254,-120.955,VRB,6,6.9,KMOD 132253Z VRB06KT 10SM CLR 33/08 A2989 RMK AO2 SLP120 T03330078,2024-08-13T22:53:00Z,33.3,7.8,10+,29.89
KMNN,40.6158,-83.0673,10,6,6.9,KMNN 132253Z AUTO 01006KT 10SM CLR 27/14 A3011 RMK AO2 SLP192 T02670144,2024-08-13T22:53:00Z,26.7,14.4,10+,30.11
KMMV,45.1957,-123.134,190,3,3.45,KMMV 132253Z AUTO 19003KT 10SM FEW048 OVC065 21/11 A3006 RMK AO2 SLP177 T02060106,2024-08-13T22:53:00Z,20.6,10.6,10+,30.06
KMMK,41.5097,-72.8278,310,7,8.06,KMMK 132253Z AUTO 31007KT 10SM BKN060 26/14 A2997 RMK AO2 SLP147 T02560139,2024-08-13T22:53:00Z,25.6,13.9,10+,29.97
KMLU,32.5155,-92.03,70,3,3.45,KMLU 132253Z 07003KT 10SM CLR 37/22 A2999 RMK AO2 SLP154 T03720217,2024-08-13T22:53:00Z,37.2,21.7,10+,29.99
KMLT,45.6478,-68.6925,350,3,3.45,KMLT 132253Z AUTO 35003KT 10SM CLR 25/14 A2989 RMK AO2 SLP123 T02500139,2024-08-13T22:53:00Z,25,13.9,10+,29.89
KMLS,46.4265,-105.883,,,,KMLS 132253Z AUTO 10SM CLR 32/16 A2980 RMK AO2 SLP069 T03170156,2024-08-13T22:53:00Z,31.7,15.6,10+,29.80
KMLP,47.4548,-115.671,,,,KMLP 132253Z AUTO 10SM OVC070 12/03 A3010 RMK AO2 SLP113 T01170028 $,2024-08-13T22:53:00Z,11.7,2.8,10+,30.10
KMLC,34.8824,-95.7815,170,4,4.6,KMLC 132253Z AUTO 17004KT 10SM CLR 34/23 A2998 RMK AO2 SLP141 T03440228,2024-08-13T22:53:00Z,34.4,22.8,10+,29.98
KMLB,28.0997,-80.6356,140,11,12.66,KMLB 132253Z 14011KT 10SM CLR 31/22 A2997 RMK AO2 LTG DSNT S SLP148 T03110222,2024-08-13T22:53:00Z,31.1,22.2,10+,29.97
KMKO,35.6576,-95.3658,140,8,9.21,KMKO 132253Z AUTO 14008KT 10SM BKN050 BKN065 34/24 A2998 RMK AO2 SLP145 T03440244,2024-08-13T22:53:00Z,34.4,24.4,10+,29.98
KMKL,35.5933,-88.917,340,4,4.6,KMKL 132253Z 34004KT 10SM CLR 32/21 A3005 RMK AO2 SLP170 T03170206,2024-08-13T22:53:00Z,31.7,20.6,10+,30.05
KMIW,42.1106,-92.9163,160,6,6.9,KMIW 132253Z AUTO 16006KT 10SM SCT028 BKN035 OVC049 24/19 A3011 RMK AO2 SLP192 T02440189,2024-08-13T22:53:00Z,24.4,18.9,10+,30.11
KMIE,40.2345,-85.3936,350,7,8.06,KMIE 132253Z 35007KT 10SM FEW055 27/14 A3010 RMK AO2 SLP185 T02670144,2024-08-13T22:53:00Z,26.7,14.4,10+,30.10
KMIC,45.0623,-93.3511,160,9,10.36,KMIC 132253Z 16009KT 10SM FEW065 27/14 A3008 RMK AO2 SLP184 T02720139,2024-08-13T22:53:00Z,27.2,13.9,10+,30.08
KMIA,25.7881,-80.3169,100,6,6.9,KMIA 132253Z COR 10006KT 10SM FEW032 SCT250 32/24 A2998 RMK AO2 SLP151 CB DSNT SW-W T03170244,2024-08-13T22:53:00Z,31.7,24.4,10+,29.98
KMHT,42.9245,-71.4377,330,7,8.06,KMHT 132253Z 33007KT 10SM BKN250 26/13 A2995 RMK AO2 SLP150 T02610133,2024-08-13T22:53:00Z,26.1,13.3,10+,29.95
KMHE,43.7743,-98.0384,130,10,11.51,KMHE 132253Z AUTO 13010KT 10SM CLR 22/18 A3002 RMK AO2 SLP163 T02170178,2024-08-13T22:53:00Z,21.7,17.8,10+,30.02
KMGY,39.5918,-84.2263,0,0,0.0,KMGY 132253Z AUTO 00000KT 10SM OVC070 28/13 A3009 RMK AO2 SLP182 T02830133,2024-08-13T22:53:00Z,28.3,13.3,10+,30.09
KMGW,39.6498,-79.9206,10,7,8.06,KMGW 132253Z 01007KT 10SM CLR 26/12 A3011 RMK AO2 SLP189 T02560122,2024-08-13T22:53:00Z,25.6,12.2,10+,30.11
KMGM,32.2997,-86.4074,310,7,8.06,KMGM 132253Z 31007KT 10SM CLR 34/19 A3000 RMK AO2 SLP154 T03440189,2024-08-13T22:53:00Z,34.4,18.9,10+,30.00
KMFR,42.375,-122.877,VRB,5,5.75,KMFR 132253Z VRB05KT 10SM CLR 28/05 A2998 RMK AO2 SLP145 T02830050,2024-08-13T22:53:00Z,28.3,5,10+,29.98
KMFE,26.1791,-98.2445,130,15,17.26,KMFE 132253Z 13015G23KT 10SM FEW065 37/22 A2993 RMK AO2 SLP134 T03670222,2024-08-13T22:53:00Z,36.7,22.2,10+,29.93
KMDW,41.7841,-87.7551,90,8,9.21,KMDW 132253Z 09008KT 10SM FEW060 FEW100 28/13 A3010 RMK AO2 SLP184 T02780133,2024-08-13T22:53:00Z,27.8,13.3,10+,30.10
KMCW,43.1543,-93.3262,170,7,8.06,KMCW 132253Z AUTO 17007KT 10SM CLR 24/17 A3013 RMK AO2 SLP194 T02440172,2024-08-13T22:53:00Z,24.4,17.2,10+,30.13
KMCO,28.4182,-81.3241,270,10,11.51,KMCO 132253Z 27010KT 10SM FEW040 FEW075 SCT300 33/24 A2998 RMK AO2 SLP150 CB DSNT E T03280244,2024-08-13T22:53:00Z,32.8,24.4,10+,29.98
KMCN,32.6889,-83.6529,290,8,9.21,KMCN 132253Z 29008KT 10SM FEW065 33/19 A2997 RMK AO2 SLP145 T03330194,2024-08-13T22:53:00Z,33.3,19.4,10+,29.97
KMCK,40.204,-100.59,120,13,14.96,KMCK 132253Z AUTO 12013KT 10SM OVC055 27/21 A2998 RMK AO2 SLP129 T02720211,2024-08-13T22:53:00Z,27.2,21.1,10+,29.98
KMCI,39.2975,-94.7309,100,7,8.06,KMCI 132253Z 10007KT 10SM OVC011 22/19 A3006 RMK AO2 SLP170 T02220194,2024-08-13T22:53:00Z,22.2,19.4,10+,30.06
KMCE,37.286,-120.518,330,6,6.9,KMCE 132253Z AUTO 33006KT 10SM CLR 34/08 A2988 RMK AO2 SLP116 T03440078,2024-08-13T22:53:00Z,34.4,7.8,10+,29.88
KMCB,31.1823,-90.4721,40,6,6.9,KMCB 132253Z AUTO 04006KT 10SM BKN075 37/19 A3000 RMK AO2 SLP151 T03670189,2024-08-13T22:53:00Z,36.7,18.9,10+,30.00
KMBS,43.5281,-84.0813,70,3,3.45,KMBS 132253Z 07003KT 10SM CLR 27/15 A3012 RMK AO2 SLP197 T02670150,2024-08-13T22:53:00Z,26.7,15,10+,30.12
KMAI,30.837,-85.1835,320,6,6.9,KMAI 132253Z AUTO 32006KT 10SM CLR 36/21 A2997 RMK AO2 SLP147 T03560206,2024-08-13T22:53:00Z,35.6,20.6,10+,29.97
KMAF,31.9475,-102.209,200,17,19.56,KMAF 132253Z 20017G23KT 10SM CLR 36/13 A2998 RMK AO2 SLP098 T03610128,2024-08-13T22:53:00Z,36.1,12.8,10+,29.98
KMAE,36.9851,-120.111,290,7,8.06,KMAE 132253Z AUTO 29007G16KT 10SM CLR 36/07 A2989 RMK AO2 SLP116 T03610072,2024-08-13T22:53:00Z,36.1,7.2,10+,29.89
KLXT,38.9577,-94.3712,70,5,5.75,KLXT 132253Z AUTO 07005KT 10SM OVC007 22/21 A3007 RMK AO2 SLP176 T02170206 $,2024-08-13T22:53:00Z,21.7,20.6,10+,30.07
KLWV,38.7604,-87.599,0,0,0.0,KLWV 132253Z AUTO 00000KT 10SM CLR 27/17 A3009 RMK AO2 SLP187 T02720172,2024-08-13T22:53:00Z,27.2,17.2,10+,30.09
KLVM,45.6984,-110.442,220,15,17.26,KLVM 132253Z AUTO 22015KT 10SM OVC120 24/09 A2998 RMK AO2 PK WND 22032/2154 SLP110 T02440089,2024-08-13T22:53:00Z,24.4,8.9,10+,29.98
KLVK,37.6931,-121.815,290,14,16.11,KLVK 132253Z 29014KT 10SM CLR 29/07 A2994 RMK AO2 SLP134 T02890067,2024-08-13T22:53:00Z,28.9,6.7,10+,29.94
KLVJ,29.5192,-95.2423,160,5,5.75,KLVJ 132253Z AUTO 16005KT 10SM BKN047 34/24 A3000 RMK AO2 LTG DSNT W AND NW SLP158 T03440239,2024-08-13T22:53:00Z,34.4,23.9,10+,30.00
KLUK,39.106,-84.4161,0,0,0.0,KLUK 132253Z 00000KT 10SM SCT075 OVC090 27/17 A3008 RMK AO2 SLP181 T02720172,2024-08-13T22:53:00Z,27.2,17.2,10+,30.08
KLSE,43.8792,-91.253,220,8,9.21,KLSE 132253Z 22008KT 10SM CLR 28/14 A3009 RMK AO2 SLP182 T02830139,2024-08-13T22:53:00Z,28.3,13.9,10+,30.09
KLPR,41.3463,-82.1788,10,5,5.75,KLPR 132253Z AUTO 01005KT 10SM CLR 25/14 A3012 RMK AO2 SLP196 T02500144,2024-08-13T22:53:00Z,25,14.4,10+,30.12
KLOZ,37.0896,-84.0688,30,3,3.45,KLOZ 132253Z AUTO 03003KT 10SM CLR 28/15 A3010 RMK AO2 SLP180 T02780150,2024-08-13T22:53:00Z,27.8,15,10+,30.10
KLOU,38.2302,-85.6629,270,3,3.45,KLOU 132253Z 27003KT 10SM CLR 27/16 A3008 RMK AO2 SLP182 T02720161,2024-08-13T22:53:00Z,27.2,16.1,10+,30.08
KLOL,40.0685,-118.57,280,16,18.41,KLOL 132253Z AUTO 28016G22KT 10SM CLR 32/M04 A2997 RMK AO2 PK WND 29026/2235 SLPNO T03171039,2024-08-13T22:53:00Z,31.7,-3.9,10+,29.97
KLNS,40.1206,-76.2944,340,7,8.06,KLNS 132253Z 34007KT 10SM CLR 26/14 A3003 RMK AO2 SLP167 T02560139,2024-08-13T22:53:00Z,25.6,13.9,10+,30.03
KLND,42.8154,-108.726,320,12,13.81,KLND 132253Z AUTO 32012KT 10SM CLR 29/08 A2998 RMK AO2 LTG DSNT W-NE SLP076 T02890083,2024-08-13T22:53:00Z,28.9,8.3,10+,29.98
KLMT,42.147,-121.726,260,11,12.66,KLMT 132253Z 26011G19KT 10SM CLR 25/05 A3005 RMK AO2 SLP139 T02500050,2024-08-13T22:53:00Z,25,5,10+,30.05
KLLQ,33.636,-91.7555,70,6,6.9,KLLQ 132253Z AUTO 07006KT 10SM CLR 34/23 A3001 RMK AO2 SLP157 T03440228,2024-08-13T22:53:00Z,34.4,22.8,10+,30.01
KLKV,42.1538,-120.403,240,9,10.36,KLKV 132253Z AUTO 24009G14KT 10SM CLR 26/00 A3006 RMK AO2 SLP144 T02610000,2024-08-13T22:53:00Z,26.1,0,10+,30.06
KLIT,34.7273,-92.2358,70,8,9.21,KLIT 132253Z 07008KT 10SM BKN065 BKN085 33/21 A3002 RMK AO2 SLP166 T03280211,2024-08-13T22:53:00Z,32.8,21.1,10+,30.02
KLHQ,39.7573,-82.6633,,,,KLHQ 132253Z AUTO 10SM SCT110 27/14 A3009 RMK AO2 SLP183 T02670139,2024-08-13T22:53:00Z,26.7,13.9,10+,30.09
KLGB,33.8118,-118.147,160,8,9.21,KLGB 132253Z 16008KT 10SM CLR 28/16 A2989 RMK AO2 SLP120 T02830156,2024-08-13T22:53:00Z,28.3,15.6,10+,29.89
KLFT,30.1986,-91.9896,210,6,6.9,KLFT 132253Z 21006KT 10SM CLR 34/22 A3001 RMK AO2 LTG DSNT W SLP160 T03440222,2024-08-13T22:53:00Z,34.4,22.2,10+,30.01
KLFK,31.2359,-94.7546,VRB,4,4.6,KLFK 132253Z AUTO VRB04KT 10SM FEW050 SCT065 34/24 A2999 RMK AO2 SLP152 T03440239,2024-08-13T22:53:00Z,34.4,23.9,10+,29.99
KLEE,28.8214,-81.8006,230,5,5.75,KLEE 132253Z 23005KT 10SM CLR 31/26 A3000 RMK AO2 LTG DSNT N SLP156 T03110256,2024-08-13T22:53:00Z,31.1,25.6,10+,30.00
KLEB,43.6271,-72.3054,0,0,0.0,KLEB 132253Z 00000KT 10SM CLR 26/16 A2998 RMK AO2 SLP145 T02560156,2024-08-13T22:53:00Z,25.6,15.6,10+,29.98
KLCH,30.1255,-93.2277,220,6,6.9,KLCH 132253Z AUTO 22006KT 10SM CLR 32/24 A3000 RMK AO2 LTG DSNT NE SLP165 T03220239,2024-08-13T22:53:00Z,32.2,23.9,10+,30.00
KLBX,29.1154,-95.4632,170,8,9.21,KLBX 132253Z AUTO 17008KT 10SM CLR 33/24 A2999 RMK AO2 SLP156 T03330244,2024-08-13T22:53:00Z,33.3,24.4,10+,29.99
KLBF,41.122,-100.669,120,12,13.81,KLBF 132253Z AUTO 12012KT 10SM OVC024 25/20 A2999 RMK AO2 SLP132 T02500200,2024-08-13T22:53:00Z,25,20,10+,29.99
KLBB,33.6658,-101.823,160,11,12.66,KLBB 132253Z 16011G22KT 10SM FEW070 36/14 A3001 RMK AO2 SLP102 T03560139,2024-08-13T22:53:00Z,35.6,13.9,10+,30.01
KLAX,33.9382,-118.387,260,12,13.81,KLAX 132253Z 26012G20KT 10SM FEW010 24/18 A2991 RMK AO2 SLP126 T02390183,2024-08-13T22:53:00Z,23.9,18.3,10+,29.91
KLAW,34.5577,-98.4172,140,10,11.51,KLAW 132253Z 14010G23KT 10SM CLR 39/17 A2991 RMK AO2 SLP113 T03940172,2024-08-13T22:53:00Z,39.4,17.2,10+,29.91
KLAR,41.3165,-105.673,210,19,21.86,KLAR 132253Z AUTO 21019G28KT 10SM CLR 23/10 A3020 RMK AO2 PK WND 23031/2210 SLP116 T02280100,2024-08-13T22:53:00Z,22.8,10,10+,30.20
KLAN,42.7761,-84.5997,290,5,5.75,KLAN 132253Z 29005KT 10SM CLR 27/14 A3011 RMK AO2 SLP193 T02720144,2024-08-13T22:53:00Z,27.2,14.4,10+,30.11
KLAA,38.0718,-102.687,120,10,11.51,KLAA 132253Z AUTO 12010KT 10SM CLR 32/16 A2992 RMK AO2 PK WND 15043/2203 LTG DSNT E AND SE RAB2159E19 TSE29 SLP073 P0000 T03220156,2024-08-13T22:53:00Z,32.2,15.6,10+,29.92
KJLN,37.1522,-94.4952,50,3,3.45,KJLN 132253Z 05003KT 10SM SCT033 SCT250 29/23 A3002 RMK AO2 SLP153 T02890228,2024-08-13T22:53:00Z,28.9,22.8,10+,30.02
KJKL,37.5913,-83.3137,310,3,3.45,KJKL 132253Z AUTO 31003KT 10SM BKN080 27/13 A3009 RMK AO2 SLP176 T02720133,2024-08-13T22:53:00Z,27.2,13.3,10+,30.09
KJER,42.7274,-114.455,,,,KJER 132253Z AUTO 10SM CLR 29/06 A2992 RMK AO2 SLP086 T02890056 $,2024-08-13T22:53:00Z,28.9,5.6,10+,29.92
KJEF,38.5945,-92.1567,130,7,8.06,KJEF 132253Z 13007KT 10SM OVC020 25/21 A3006 RMK AO2 SLP166 T02500206,2024-08-13T22:53:00Z,25,20.6,10+,30.06
KJBR,35.8357,-90.6442,140,6,6.9,KJBR 132253Z AUTO 14006KT 10SM CLR 32/22 A3003 RMK AO2 SLP164 T03220217 $,2024-08-13T22:53:00Z,32.2,21.7,10+,30.03
KIXD,38.8221,-94.8902,70,7,8.06,KIXD 132253Z 07007KT 10SM OVC009 23/21 A3006 RMK AO2 SLP169 T02330206,2024-08-13T22:53:00Z,23.3,20.6,10+,30.06
KIWI,43.9639,-69.7114,0,0,0.0,KIWI 132253Z AUTO 00000KT 10SM CLR 24/18 A2991 RMK AO2 SLP129 T02390183,2024-08-13T22:53:00Z,23.9,18.3,10+,29.91
KITR,39.2415,-102.282,130,10,11.51,KITR 132253Z AUTO 13010G18KT 10SM CLR 32/ A2999 RMK AO2 SLP092 T0317 $,2024-08-13T22:53:00Z,31.7,,10+,29.99
KIPL,32.8346,-115.577,,,,KIPL 132253Z AUTO A2970 RMK AO2 SLPNO PWINO $,2024-08-13T22:53:00Z,,,,29.70
KINK,31.7801,-103.202,130,13,14.96,KINK 132253Z AUTO 13013G25KT FEW095 38/13 A2992 RMK AO2 PK WND 14028/2212 SLP078 T03780128,2024-08-13T22:53:00Z,37.8,12.8,,29.92
KIML,40.5106,-101.624,130,13,14.96,KIML 132253Z AUTO 13013G22KT 10SM FEW033 SCT043 28/21 A2997 RMK AO2 PK WND 12027/2201 SLP118 T02780206,2024-08-13T22:53:00Z,27.8,20.6,10+,29.97
KILM,34.2668,-77.8999,70,4,4.6,KILM 132253Z 07004KT 10SM OVC110 27/20 A3001 RMK AO2 SLP161 T02670200,2024-08-13T22:53:00Z,26.7,20,10+,30.01
KIDA,43.5204,-112.068,40,13,14.96,KIDA 132253Z 04013KT 10SM CLR 21/13 A3002 RMK AO2 PK WND 36026/2213 SLP132 T02060133,2024-08-13T22:53:00Z,20.6,13.3,10+,30.02
KICT,37.6475,-97.43,140,11,12.66,KICT 132253Z 14011KT 10SM FEW037 FEW170 FEW220 32/24 A2996 RMK AO2 SLP127 T03220239,2024-08-13T22:53:00Z,32.2,23.9,10+,29.96
KICR,43.391,-99.8462,120,16,18.41,KICR 132253Z AUTO 12016KT 10SM BKN047 28/18 A2995 RMK AO2 SLP126 T02780183,2024-08-13T22:53:00Z,27.8,18.3,10+,29.95
KIAH,29.9844,-95.3607,120,6,6.9,KIAH 132253Z 12006KT 10SM FEW040 BKN250 34/23 A2999 RMK AO2 SLP154 SHRA DSNT SW CB DSNT SW MOV NW T03390233,2024-08-13T22:53:00Z,33.9,23.3,10+,29.99
KIAG,43.1083,-78.9382,0,0,0.0,KIAG 132253Z 00000KT 10SM CLR 25/13 A3008 RMK AO2 SLP184 T02500133,2024-08-13T22:53:00Z,25,13.3,10+,30.08
KHZY,41.7794,-80.6968,0,0,0.0,KHZY 132253Z AUTO 00000KT 10SM CLR 23/15 A3013 RMK AO2 SLP198 T02330150,2024-08-13T22:53:00Z,23.3,15,10+,30.13
KHYR,46.0303,-91.4426,130,3,3.45,KHYR 132253Z AUTO 13003KT 10SM CLR 24/18 A3012 RMK AO2 SLP200 T02390183,2024-08-13T22:53:00Z,23.9,18.3,10+,30.12
KHWO,25.9996,-80.2412,,,,KHWO 132253Z 10SM CLR 33/25 A2999 RMK AO2 SLP154 T03280250 $,2024-08-13T22:53:00Z,32.8,25,10+,29.99
KHVR,48.5425,-109.764,230,4,4.6,KHVR 132253Z AUTO 23004KT 10SM CLR 31/09 A2980 RMK AO2 SLP074 T03060089,2024-08-13T22:53:00Z,30.6,8.9,10+,29.80
KHVN,41.259,-72.8891,320,8,9.21,KHVN 132253Z 32008KT 10SM FEW060 27/16 A2997 RMK AO2 SLP148 T02670156 $,2024-08-13T22:53:00Z,26.7,15.6,10+,29.97
KHUL,46.1185,-67.7929,340,3,3.45,KHUL 132253Z AUTO 34003KT 9SM CLR 22/16 A2985 RMK AO2 SLP108 T02170156,2024-08-13T22:53:00Z,21.7,15.6,9,29.85
KHUF,39.4429,-87.3221,0,0,0.0,KHUF 132253Z 00000KT 10SM CLR 27/17 A3010 RMK AO2 SLP188 T02720172,2024-08-13T22:53:00Z,27.2,17.2,10+,30.10
KHSV,34.6441,-86.7861,20,7,8.06,KHSV 132253Z 02007KT 10SM FEW065 BKN250 32/18 A3005 RMK AO2 SLP168 T03170178,2024-08-13T22:53:00Z,31.7,17.8,10+,30.05
KHSI,40.6002,-98.4264,140,10,11.51,KHSI 132253Z AUTO 14010KT 10SM SCT037 28/20 A3001 RMK AO2 SLP147 T02780200,2024-08-13T22:53:00Z,27.8,20,10+,30.01
KHRO,36.2673,-93.1566,160,9,10.36,KHRO 132253Z AUTO 16009KT 10SM CLR 26/21 A3007 RMK AO2 SLP168 T02610211 $,2024-08-13T22:53:00Z,26.1,21.1,10+,30.07
KHRI,45.8259,-119.261,260,14,16.11,KHRI 132253Z AUTO 26014G21KT 10SM CLR 28/06 A2990 RMK AO2 SLP121 T02780056,2024-08-13T22:53:00Z,27.8,5.6,10+,29.90
KHQM,46.9729,-123.931,280,7,8.06,KHQM 132253Z AUTO 28007KT 10SM OVC036 17/13 A3009 RMK AO2 SLP191 T01720133,2024-08-13T22:53:00Z,17.2,13.3,10+,30.09
KHOU,29.6458,-95.2821,130,7,8.06,KHOU 132253Z 13007KT 10SM FEW045 SCT200 BKN250 35/23 A2998 RMK AO2 SLP155 OCNL LTGIC DSNT NW CB DSNT NW MOV NW T03500228,2024-08-13T22:53:00Z,35,22.8,10+,29.98
KHOT,34.4755,-93.1041,170,5,5.75,KHOT 132253Z AUTO 17005KT 10SM CLR 35/21 A3001 RMK AO2 SLP154 T03500211 $,2024-08-13T22:53:00Z,35,21.1,10+,30.01
KHLN,46.6045,-111.989,240,10,11.51,KHLN 132253Z 24010KT 5SM -RA FEW070 BKN090 OVC100 21/12 A2995 RMK AO2 PK WND 20032/2234 LTG DSNT SE AND SW RAB37 SLP130 P0004 T02110122,2024-08-13T22:53:00Z,21.1,12.2,5,29.95
KHLG,40.1699,-80.6441,360,6,6.9,KHLG 132253Z 36006KT 10SM CLR 27/10 A3010 RMK AO2 SLP189 T02670100,2024-08-13T22:53:00Z,26.7,10,10+,30.10
KHLC,39.3741,-99.8299,110,13,14.96,KHLC 132253Z AUTO 11013G18KT 10SM BKN050 31/ A2997 RMK AO2 SLP124 T0306 $,2024-08-13T22:53:00Z,30.6,,10+,29.97
KHKY,35.742,-81.3822,90,3,3.45,KHKY 132253Z 09003KT 10SM SCT025 BKN031 24/18 A3009 RMK AO2 SLP168 T02440183,2024-08-13T22:53:00Z,24.4,18.3,10+,30.09
KHKS,32.3376,-90.2214,360,4,4.6,KHKS 132253Z 36004KT 10SM CLR 36/21 A3002 RMK AO2 SLP155 T03560206,2024-08-13T22:53:00Z,35.6,20.6,10+,30.02
KHKA,35.9378,-89.8332,230,3,3.45,KHKA 132253Z AUTO 23003KT 10SM -RA FEW049 SCT070 SCT100 29/22 A3003 RMK AO2 RAB30 SLP167 P0000 T02940222 $,2024-08-13T22:53:00Z,29.4,22.2,10+,30.03
KHJO,36.3114,-119.623,320,8,9.21,KHJO 132253Z AUTO 32008KT 10SM SCT110 37/06 A2987 RMK AO2 SLP115 T03670061,2024-08-13T22:53:00Z,36.7,6.1,10+,29.87
KHIO,45.5476,-122.956,0,0,0.0,KHIO 132253Z 00000KT 10SM OVC055 19/09 A3006 RMK AO2 SLP177 T01940094,2024-08-13T22:53:00Z,19.4,9.4,10+,30.06
KHIB,47.3804,-92.8325,160,3,3.45,KHIB 132253Z AUTO 16003KT 10SM CLR 24/11 A3010 RMK AO2 SLP193 T02440106 $,2024-08-13T22:53:00Z,24.4,10.6,10+,30.10
KHHR,33.9235,-118.333,270,11,12.66,KHHR 132253Z 27011KT 10SM CLR 26/17 A2990 RMK AO2 SLP125 T02610172 $,2024-08-13T22:53:00Z,26.1,17.2,10+,29.90
KHGR,39.7062,-77.7304,330,5,5.75,KHGR 132253Z 33005KT 10SM CLR 27/13 A3005 RMK AO2 SLP182 T02720133,2024-08-13T22:53:00Z,27.2,13.3,10+,30.05
KHFD,41.7352,-72.6512,350,7,8.06,KHFD 132253Z 35007KT 10SM SCT070 27/14 A2996 RMK AO2 SLP144 T02670139,2024-08-13T22:53:00Z,26.7,13.9,10+,29.96
KHEI,46.0108,-102.652,140,13,14.96,KHEI 132253Z AUTO 14013G19KT 10SM SCT049 BKN060 31/18 A2986 RMK AO2 SLP091 T03110178,2024-08-13T22:53:00Z,31.1,17.8,10+,29.86
KHBR,34.9891,-99.0528,170,15,17.26,KHBR 132253Z AUTO 17015G25KT 10SM SCT090 39/17 A2993 RMK AO2 PK WND 17026/2156 SLP109 T03890172,2024-08-13T22:53:00Z,38.9,17.2,10+,29.93
KHBG,31.2648,-89.2561,180,5,5.75,KHBG 132253Z AUTO 18005KT 10SM FEW075 35/24 A3001 RMK AO2 SLP156 T03500239,2024-08-13T22:53:00Z,35,23.9,10+,30.01
KHAO,39.3612,-84.5206,320,6,6.9,KHAO 132253Z AUTO 32006KT 10SM CLR 29/14 A3009 RMK AO2 SLP186 T02890139,2024-08-13T22:53:00Z,28.9,13.9,10+,30.09
KGZH,31.4191,-87.0484,360,4,4.6,KGZH 132253Z AUTO 36004KT 10SM CLR 34/21 A3001 RMK AO2 SLP157 T03440206,2024-08-13T22:53:00Z,34.4,20.6,10+,30.01
KGWO,33.4961,-90.0894,350,5,5.75,KGWO 132253Z AUTO 35005KT 10SM CLR 35/22 A3002 RMK AO2 SLP163 T03500222,2024-08-13T22:53:00Z,35,22.2,10+,30.02
KGVL,34.2721,-83.8305,300,8,9.21,KGVL 132253Z AUTO 30008KT 10SM CLR 32/17 A3006 RMK AO2 SLP160 T03170172,2024-08-13T22:53:00Z,31.7,17.2,10+,30.06
KGUY,36.6819,-101.505,170,12,13.81,KGUY 132253Z AUTO 17012G22KT 10SM CLR 35/14 A2994 RMK AO2 SLP085 T03500144,2024-08-13T22:53:00Z,35,14.4,10+,29.94
KGUP,35.5086,-108.793,VRB,4,4.6,KGUP 132253Z AUTO VRB04KT 10SM CLR 27/08 A3021 RMK AO2 LTG DSNT W SLP071 T02670078,2024-08-13T22:53:00Z,26.7,7.8,10+,30.21
KGTF,47.4733,-111.383,140,14,16.11,KGTF 132253Z 14014G19KT 10SM CLR 27/10 A2987 RMK AO2 LTG DSNT SE AND S SLP088 T02670100,2024-08-13T22:53:00Z,26.7,10,10+,29.87
KGSP,34.8842,-82.2209,20,7,8.06,KGSP 132253Z 02007KT 10SM OVC110 24/20 A3007 RMK AO2 SLP173 T02440200,2024-08-13T22:53:00Z,24.4,20,10+,30.07
KGSH,41.5265,-85.7872,220,4,4.6,KGSH 132253Z AUTO 22004KT 10SM FEW060 26/12 A3010 RMK AO2 SLP190 T02610122,2024-08-13T22:53:00Z,26.1,12.2,10+,30.10
KGRR,42.8821,-85.523,120,3,3.45,KGRR 132253Z 12003KT 10SM FEW060 SCT250 25/14 A3011 RMK AO2 SLP193 T02500144,2024-08-13T22:53:00Z,25,14.4,10+,30.11
KGRI,40.9615,-98.313,140,10,11.51,KGRI 132253Z 14010G16KT 10SM SCT036 BKN043 27/21 A3002 RMK AO2 SLP155 T02670206,2024-08-13T22:53:00Z,26.7,20.6,10+,30.02
KGRB,44.4796,-88.137,140,9,10.36,KGRB 132253Z AUTO 14009KT 10SM CLR 27/17 A3011 RMK AO2 SLP194 T02670167,2024-08-13T22:53:00Z,26.7,16.7,10+,30.11
KGPT,30.4121,-89.0809,0,0,0.0,KGPT 132253Z 00000KT 10SM CLR 27/24 A3001 RMK AO2 RAE01 SLP160 P0000 T02670239,2024-08-13T22:53:00Z,26.7,23.9,10+,30.01
KGOK,35.8517,-97.4142,160,13,14.96,KGOK 132253Z AUTO 16013G20KT 10SM 36/23 A2993 RMK AO2 SLP121 T03560233 $,2024-08-13T22:53:00Z,35.6,23.3,10+,29.93
KGNV,29.6917,-82.276,160,3,3.45,KGNV 132253Z 16003KT 10SM FEW048 BKN060 OVC075 29/25 A3000 RMK AO2 TSB22E37 SLP156 T02940250,2024-08-13T22:53:00Z,29.4,25,10+,30.00
KGMU,34.8487,-82.3501,50,8,9.21,KGMU 132253Z 05008KT 10SM FEW025 BKN070 25/21 A3007 RMK AO2 SLP174 T02500206,2024-08-13T22:53:00Z,25,20.6,10+,30.07
KGLR,45.0166,-84.6894,310,3,3.45,KGLR 132253Z AUTO 31003KT 10SM CLR 26/09 A3013 RMK AO2 SLP200 T02610094,2024-08-13T22:53:00Z,26.1,9.4,10+,30.13
KGLH,33.4772,-90.9847,40,6,6.9,KGLH 132253Z 04006KT 10SM CLR 33/24 A3000 RMK AO2 SLP165 T03280244,2024-08-13T22:53:00Z,32.8,24.4,10+,30.00
KGLD,39.3673,-101.693,140,8,9.21,KGLD 132253Z AUTO 14008KT 10SM CLR 30/20 A2997 RMK AO2 SLP100 T03000200,2024-08-13T22:53:00Z,30,20,10+,29.97
KGKY,32.6583,-97.0951,140,9,10.36,KGKY 132253Z 14009G18KT 10SM CLR 38/19 A2996 RMK AO2 SLP134 T03780194,2024-08-13T22:53:00Z,37.8,19.4,10+,29.96
KGKJ,41.6258,-80.2123,350,5,5.75,KGKJ 132253Z AUTO 35005KT 10SM CLR 23/13 A3013 RMK AO2 SLP198 T02280128,2024-08-13T22:53:00Z,22.8,12.8,10+,30.13
KGJT,39.1344,-108.541,0,0,0.0,KGJT 132253Z 00000KT 10SM CLR 24/13 A3013 RMK AO2 SLP139 T02440133,2024-08-13T22:53:00Z,24.4,13.3,10+,30.13
KGIF,28.0614,-81.7568,300,7,8.06,KGIF 132253Z AUTO 30007KT 10SM OVC095 31/24 A3000 RMK AO2 SLP158 T03060244,2024-08-13T22:53:00Z,30.6,24.4,10+,30.00
KGGW,48.2142,-106.621,120,7,8.06,KGGW 132253Z AUTO 12007KT 10SM CLR 33/11 A2978 RMK AO2 SLP070 T03330111,2024-08-13T22:53:00Z,33.3,11.1,10+,29.78
KGGG,32.3909,-94.714,190,7,8.06,KGGG 132253Z 19007KT 10SM CLR 36/22 A2998 RMK AO2 SLP144 T03610222,2024-08-13T22:53:00Z,36.1,22.2,10+,29.98
KGFL,43.3385,-73.6102,190,4,4.6,KGFL 132253Z AUTO 19004KT 10SM CLR 24/18 A2998 RMK AO2 SLP152 T02390178,2024-08-13T22:53:00Z,23.9,17.8,10+,29.98
KGFK,47.9428,-97.1829,150,12,13.81,KGFK 132253Z 15012KT 10SM FEW055 BKN140 28/16 A3001 RMK AO2 SLP160 T02830156,2024-08-13T22:53:00Z,28.3,15.6,10+,30.01
KGEZ,39.5854,-85.7998,0,0,0.0,KGEZ 132253Z AUTO 00000KT 10SM CLR 29/15 A3010 RMK AO2 SLP185 T02890150,2024-08-13T22:53:00Z,28.9,15,10+,30.10
KGEY,44.5173,-108.075,300,21,24.17,KGEY 132253Z AUTO 30021G30KT 10SM CLR 27/09 A2990 RMK AO2 PK WND 26040/2217 WSHFT 2154 SLP091 T02670089,2024-08-13T22:53:00Z,26.7,8.9,10+,29.90
KGEG,47.6217,-117.528,200,9,10.36,KGEG 132253Z 20009KT 10SM FEW100 SCT160 SCT250 23/06 A2996 RMK AO2 SLP133 CB DSNT NW T02330056,2024-08-13T22:53:00Z,23.3,5.6,10+,29.96
KGCC,44.3398,-105.542,40,4,4.6,KGCC 132253Z AUTO 04004KT 10SM CLR 33/06 A2989 RMK AO2 SLP066 T03280056,2024-08-13T22:53:00Z,32.8,5.6,10+,29.89
KGAG,36.2966,-99.7686,180,12,13.81,KGAG 132253Z AUTO 18012G22KT 10SM FEW095 38/16 A2993 RMK AO2 SLP099 T03830156,2024-08-13T22:53:00Z,38.3,15.6,10+,29.93
KFYV,36.0103,-94.1624,180,12,13.81,KFYV 132253Z 18012KT 10SM CLR 32/23 A3003 RMK AO2 SLP152 T03170228,2024-08-13T22:53:00Z,31.7,22.8,10+,30.03
KFXE,26.199,-80.1776,100,6,6.9,KFXE 132253Z 10006KT 10SM CLR 32/26 A2997 RMK AO2 SLP150 T03220256,2024-08-13T22:53:00Z,32.2,25.6,10+,29.97
KFWN,41.1993,-74.6259,0,0,0.0,KFWN 132253Z AUTO 00000KT 10SM FEW095 25/17 A3000 RMK AO2 SLP158 T02500167,2024-08-13T22:53:00Z,25,16.7,10+,30.00
KFVE,47.2852,-68.3072,310,6,6.9,KFVE 132253Z AUTO 31006KT 6SM HZ CLR 21/13 A2988 RMK AO2 SLP115 T02110128,2024-08-13T22:53:00Z,21.1,12.8,6,29.88
KFUL,33.8715,-117.986,200,8,9.21,KFUL 132253Z 20008KT 10SM CLR 29/14 A2988 RMK AO2 SLP116 T02940139,2024-08-13T22:53:00Z,29.4,13.9,10+,29.88
KFTY,33.7776,-84.5247,350,4,4.6,KFTY 132253Z 35004KT 10SM FEW070 BKN090 32/18 A3002 RMK AO2 SLP153 T03220178,2024-08-13T22:53:00Z,32.2,17.8,10+,30.02
KFTW,32.8248,-97.364,140,13,14.96,KFTW 132253Z 14013KT 10SM CLR 38/19 A2994 RMK AO2 SLP128 T03780194,2024-08-13T22:53:00Z,37.8,19.4,10+,29.94
KFST,30.9119,-102.917,130,14,16.11,KFST 132253Z AUTO 13014G22KT 10SM CLR 36/14 A2996 RMK AO2 PK WND 12026/2154 SLP087 T03610139,2024-08-13T22:53:00Z,36.1,13.9,10+,29.96
KFSM,35.3335,-94.3653,110,8,9.21,KFSM 132253Z 11008KT 10SM CLR 34/23 A2998 RMK AO2 SLP147 T03440233,2024-08-13T22:53:00Z,34.4,23.3,10+,29.98
KFRG,40.7344,-73.4164,320,5,5.75,KFRG 132253Z 32005KT 10SM CLR 27/13 A2998 RMK AO2 SLP153 T02670128,2024-08-13T22:53:00Z,26.7,12.8,10+,29.98
KFPR,27.4981,-80.3763,110,9,10.36,KFPR 132253Z 11009KT 10SM CLR 31/23 A2998 RMK AO2 LTG DSNT W AND NW SLP151 T03110228,2024-08-13T22:53:00Z,31.1,22.8,10+,29.98
KFOZ,47.7832,-93.6533,200,5,5.75,KFOZ 132253Z AUTO 20005KT 10SM 27/14 A3014 RMK AO2,2024-08-13T22:53:00Z,27,14,10+,30.14
KFOK,40.8506,-72.6193,,,,KFOK 132253Z 10SM CLR 23/17 A2999 RMK AO2 SLP156 T02330172 $,2024-08-13T22:53:00Z,23.3,17.2,10+,29.99
KFOE,38.9414,-95.6513,100,5,5.75,KFOE 132253Z 10005KT 10SM CLR 24/22 A3003 RMK AO2 SLP161 T02440217,2024-08-13T22:53:00Z,24.4,21.7,10+,30.03
KFNT,42.9669,-83.75,360,6,6.9,KFNT 132253Z AUTO 36006KT 10SM SCT060 27/15 A3011 RMK AO2 SLP193 T02720150,2024-08-13T22:53:00Z,27.2,15,10+,30.11
KFNB,40.0791,-95.5893,100,8,9.21,KFNB 132253Z AUTO 10008KT 10SM OVC017 23/19 A3005 RMK AO2 SLP168 T02330194,2024-08-13T22:53:00Z,23.3,19.4,10+,30.05
KFMY,26.584,-81.8615,310,7,8.06,KFMY 132253Z 31007KT 10SM CLR 31/24 A2997 RMK AO2 SLP151 T03110239,2024-08-13T22:53:00Z,31.1,23.9,10+,29.97
KFMN,36.7435,-108.229,270,7,8.06,KFMN 132253Z 27007KT 10SM FEW110 25/08 A3013 RMK AO2 SLPNO T02500078 $,2024-08-13T22:53:00Z,25,7.8,10+,30.13
KFLO,34.1877,-79.7308,40,9,10.36,KFLO 132253Z AUTO 04009KT 10SM SCT060 OVC080 27/22 A3003 RMK AO2 SLP164 T02720222,2024-08-13T22:53:00Z,27.2,22.2,10+,30.03
KFLL,26.0787,-80.1622,100,8,9.21,KFLL 132253Z 10008KT 10SM FEW024 FEW250 31/24 A2997 RMK AO2 SLP147 T03110244,2024-08-13T22:53:00Z,31.1,24.4,10+,29.97
KFLD,43.7695,-88.4907,70,4,4.6,KFLD 132253Z AUTO 07004KT 10SM CLR 27/16 A3011 RMK AO2 SLP193 T02720161,2024-08-13T22:53:00Z,27.2,16.1,10+,30.11
KFHR,48.52,-123.026,200,5,5.75,KFHR 132253Z AUTO 20005KT 10SM OVC027 18/12 A3006 RMK AO2 SLP178 T01780122,2024-08-13T22:53:00Z,17.8,12.2,10+,30.06
KFGN,49.318,-94.902,0,0,0.0,KFGN 132253Z AUTO 00000KT 2SM HZ 26/13 A3007 RMK AO2,2024-08-13T22:53:00Z,26,13,2,30.07
KFFT,38.1846,-84.9039,290,3,3.45,KFFT 132253Z AUTO 29003KT 10SM OVC075 28/16 A3008 RMK AO2 SLP180 T02780161,2024-08-13T22:53:00Z,27.8,16.1,10+,30.08
KFFC,33.3543,-84.5689,VRB,6,6.9,KFFC 132253Z AUTO VRB06KT 10SM CLR 32/19 A3002 RMK AO2 SLP159 T03170189,2024-08-13T22:53:00Z,31.7,18.9,10+,30.02
KFDY,41.0137,-83.6681,110,4,4.6,KFDY 132253Z AUTO 11004KT 10SM BKN065 BKN080 28/14 A3009 RMK AO2 SLP182 T02780144,2024-08-13T22:53:00Z,27.8,14.4,10+,30.09
KFDR,34.3531,-98.9876,180,12,13.81,KFDR 132253Z AUTO 18012KT 10SM CLR 40/17 A2989 RMK AO2 PK WND 16026/2209 SLP098 T04000172,2024-08-13T22:53:00Z,40,17.2,10+,29.89
KFCM,44.8321,-93.4705,160,5,5.75,KFCM 132253Z 16005KT 10SM CLR 28/13 A3009 RMK AO2 SLP184 T02780133,2024-08-13T22:53:00Z,27.8,13.3,10+,30.09
KFAY,34.9895,-78.8801,30,4,4.6,KFAY 132253Z 03004KT 10SM OVC080 26/21 A3004 RMK AO2 SLP165 T02560211,2024-08-13T22:53:00Z,25.6,21.1,10+,30.04
KFAT,36.78,-119.72,310,8,9.21,KFAT 132253Z 31008KT 280V350 10SM FEW050 FEW130 36/04 A2987 RMK AO2 SLP111 T03610039,2024-08-13T22:53:00Z,36.1,3.9,10+,29.87
KFAR,46.9242,-96.8119,150,10,11.51,KFAR 132253Z 15010KT 10SM FEW048 BKN060 27/16 A3003 RMK AO2 SLP165 T02720161,2024-08-13T22:53:00Z,27.2,16.1,10+,30.03
KEYW,24.5571,-81.7554,20,7,8.06,KEYW 132253Z 02007KT 10SM CLR 32/27 A2998 RMK AO2 LTG DSNT E TSB22E37 SLP158 T03170267,2024-08-13T22:53:00Z,31.7,26.7,10+,29.98
KEYE,39.8248,-86.2958,VRB,6,6.9,KEYE 132253Z AUTO VRB06KT 10SM FEW060 28/14 A3009 RMK AO2 SLP184 T02830144,2024-08-13T22:53:00Z,28.3,14.4,10+,30.09
KEWB,41.6791,-70.9591,230,5,5.75,KEWB 132253Z 23005KT 10SM CLR 23/18 A2995 RMK AO2 SLP140 T02330183,2024-08-13T22:53:00Z,23.3,18.3,10+,29.95
KEVW,41.2727,-111.031,210,18,20.71,KEVW 132253Z AUTO 21018G29KT 10SM FEW060 26/10 A3013 RMK AO2 PK WND 21029/2252 SLP102 T02610100,2024-08-13T22:53:00Z,26.1,10,10+,30.13
KETH,45.7828,-96.5461,170,13,14.96,KETH 132253Z AUTO 17013G16KT 10SM CLR 26/16 A3005 RMK AO2,2024-08-13T22:53:00Z,26,16,10+,30.05
KEQY,35.0147,-80.6242,60,5,5.75,KEQY 132253Z AUTO 06005KT 10SM CLR 24/20 A3006 RMK AO2 SLP180 T02440200,2024-08-13T22:53:00Z,24.4,20,10+,30.06
KEPH,47.3078,-119.516,,,,KEPH 132253Z AUTO 10SM CLR 27/08 A2989 RMK AO2 SLP113 T02720083,2024-08-13T22:53:00Z,27.2,8.3,10+,29.89
KENW,42.5953,-87.9383,100,6,6.9,KENW 132253Z 10006KT 10SM BKN095 26/16 A3012 RMK AO2 SLP195 T02610161,2024-08-13T22:53:00Z,26.1,16.1,10+,30.12
KEMP,38.3291,-96.1945,80,10,11.51,KEMP 132253Z AUTO 08010KT 10SM BKN025 OVC033 27/23 A3001 RMK AO2 SLP151 T02720228,2024-08-13T22:53:00Z,27.2,22.8,10+,30.01
KELY,39.2954,-114.847,260,8,9.21,KELY 132253Z AUTO 26008G17KT 10SM SCT120 29/M02 A3006 RMK AO2 WSHFT 2148 SLP062 T02941017,2024-08-13T22:53:00Z,29.4,-1.7,10+,30.06
KELN,47.0338,-120.531,310,13,14.96,KELN 132253Z AUTO 31013KT 10SM CLR 27/09 A2991 RMK AO2 SLP117 T02670089,2024-08-13T22:53:00Z,26.7,8.9,10+,29.91
KELM,42.1601,-76.89,VRB,5,5.75,KELM 132253Z VRB05KT 10SM CLR 24/15 A3007 RMK AO2 SLP180 T02390150,2024-08-13T22:53:00Z,23.9,15,10+,30.07
KELD,33.2207,-92.814,60,5,5.75,KELD 132253Z AUTO 06005KT 10SM CLR 34/23 A3000 RMK AO2 SLP155 T03390233,2024-08-13T22:53:00Z,33.9,23.3,10+,30.00
KEET,33.1783,-86.7818,300,4,4.6,KEET 132253Z AUTO 30004KT 10SM CLR 31/21 A3002 RMK AO2 SLP158 T03110211,2024-08-13T22:53:00Z,31.1,21.1,10+,30.02
KEEO,40.0444,-107.888,110,7,8.06,KEEO 132253Z AUTO 11007KT 10SM CLR 19/12 A3021 RMK AO2 SLP156 T01890122,2024-08-13T22:53:00Z,18.9,12.2,10+,30.21
KECP,30.3487,-85.7884,330,8,9.21,KECP 132253Z 33008KT 10SM CLR 35/22 A2998 RMK AO1 SLP160 T03500217,2024-08-13T22:53:00Z,35,21.7,10+,29.98
KDXR,41.3722,-73.4834,350,6,6.9,KDXR 132253Z 35006KT 10SM CLR 24/14 A3001 RMK AO2 SLP158 T02440139 $,2024-08-13T22:53:00Z,24.4,13.9,10+,30.01
KDVT,33.6902,-112.066,230,8,9.21,KDVT 132253Z COR 23008G11KT 10SM CLR 39/16 A2984 RMK AO2 SLP073 T03890161,2024-08-13T22:53:00Z,38.9,16.1,10+,29.84
KDVP,43.9906,-95.781,150,8,9.21,KDVP 132253Z AUTO 15008KT 10SM SCT039 23/12 A3011 RMK AO2 T02270120,2024-08-13T22:53:00Z,22.7,12,10+,30.11
KDUJ,41.1795,-78.8933,300,3,3.45,KDUJ 132253Z AUTO 30003KT 10SM CLR 23/13 A3011 RMK AO2 SLP189 T02330128,2024-08-13T22:53:00Z,23.3,12.8,10+,30.11
KDTW,42.2311,-83.3312,160,6,6.9,KDTW 132253Z 16006KT 10SM FEW065 BKN110 24/14 A3011 RMK AO2 SLP194 T02440144,2024-08-13T22:53:00Z,24.4,14.4,10+,30.11
KDTS,30.3933,-86.4674,260,7,8.06,KDTS 132253Z 26007KT 220V300 10SM SCT085 33/24 A2999 RMK AO2 SLP155 T03280244,2024-08-13T22:53:00Z,32.8,24.4,10+,29.99
KDTO,33.2088,-97.1992,180,9,10.36,KDTO 132253Z 18009G20KT 10SM CLR 38/19 A2995 RMK AO2 SLP131 T03780194,2024-08-13T22:53:00Z,37.8,19.4,10+,29.95
KDTN,32.5429,-93.745,0,0,0.0,KDTN 132253Z 00000KT 10SM SCT055 37/22 A2998 RMK AO2 SLP150 T03670217,2024-08-13T22:53:00Z,36.7,21.7,10+,29.98
KDRT,29.3784,-100.927,140,19,21.86,KDRT 132253Z AUTO 14019G26KT 10SM CLR 41/16 A2987 RMK AO2 PK WND 13030/2154 SLP103 T04060156,2024-08-13T22:53:00Z,40.6,15.6,10+,29.87
KDRO,37.1431,-107.76,350,8,9.21,KDRO 132253Z AUTO 35008KT 10SM SCT095 BKN110 19/13 A3024 RMK AO2 PK WND 32026/2205 LTG DSNT NW-E RAE07 TSB02E42 SLP163 P0001 T01940133,2024-08-13T22:53:00Z,19.4,13.3,10+,30.24
KDRA,36.621,-116.029,230,17,19.56,KDRA 132253Z AUTO 23017G25KT 10SM CLR 36/02 A2990 RMK AO2 PK WND 21030/2242 SLP064 T03610017,2024-08-13T22:53:00Z,36.1,1.7,10+,29.90
KDNL,33.4668,-82.0385,50,5,5.75,KDNL 132253Z AUTO 05005KT 10SM FEW028 FEW033 29/22 A3001 RMK AO2 SLP155 T02940222,2024-08-13T22:53:00Z,29.4,22.2,10+,30.01
KDMO,38.712,-93.1747,90,4,4.6,KDMO 132253Z AUTO 09004KT 10SM OVC011 22/20 A3009 RMK AO2 SLP182 T02220200,2024-08-13T22:53:00Z,22.2,20,10+,30.09
KDMN,32.2592,-107.721,240,8,9.21,KDMN 132253Z AUTO 24008KT 10SM CLR 34/11 A3004 RMK AO2 SLP087 T03440106,2024-08-13T22:53:00Z,34.4,10.6,10+,30.04
KDMH,39.281,-76.611,,,,KDMH 132253Z AUTO 28/13 A3003 RMK AO1 SLP168 T02830133,2024-08-13T22:53:00Z,28.3,13.3,,30.03
KDLS,45.619,-121.166,300,19,21.86,KDLS 132253Z AUTO 30019G28KT 10SM CLR 24/09 A2996 RMK AO2 PK WND 30034/2210 SLP143 T02390089 $,2024-08-13T22:53:00Z,23.9,8.9,10+,29.96
KDLN,45.2584,-112.555,90,12,13.81,KDLN 132253Z AUTO 09012KT 10SM CLR 16/11 A3008 RMK AO2 WSHFT 2142 RAE04 SLP149 P0000 T01560106,2024-08-13T22:53:00Z,15.6,10.6,10+,30.08
KDKK,42.4932,-79.2762,270,3,3.45,KDKK 132253Z AUTO 27003KT 10SM CLR 25/12 A3011 RMK AO2 SLP193 T02500117,2024-08-13T22:53:00Z,25,11.7,10+,30.11
KDHT,36.0252,-102.549,200,18,20.71,KDHT 132253Z AUTO 20018G25KT 10SM CLR 35/09 A3002 RMK AO2 PK WND 20030/2224 SLP098 T03500094,2024-08-13T22:53:00Z,35,9.4,10+,30.02
KDHN,31.3177,-85.4432,280,9,10.36,KDHN 132253Z 28009KT 10SM CLR 34/21 A3003 RMK AO2 SLP161 T03440206,2024-08-13T22:53:00Z,34.4,20.6,10+,30.03
KDGW,42.796,-105.38,300,4,4.6,KDGW 132253Z AUTO 30004KT 10SM BKN100 BKN120 30/08 A2993 RMK AO2 SLP067 T03000083,2024-08-13T22:53:00Z,30,8.3,10+,29.93
KDFW,32.8974,-97.0219,150,14,16.11,KDFW 132253Z 15014G19KT 10SM FEW070 FEW250 37/19 A2994 RMK AO2 SLP128 T03720194,2024-08-13T22:53:00Z,37.2,19.4,10+,29.94
KDFI,41.3357,-84.4285,350,5,5.75,KDFI 132253Z AUTO 35005KT 10SM CLR 28/14 A3010 RMK AO2 SLP190 T02780144,2024-08-13T22:53:00Z,27.8,14.4,10+,30.10
KDEW,47.9742,-117.429,230,11,12.66,KDEW 132253Z AUTO 23011G15KT 10SM CLR 27/04 A2995 RMK AO2 SLP130 T02670039,2024-08-13T22:53:00Z,26.7,3.9,10+,29.95
KDET,42.4072,-83.009,170,5,5.75,KDET 132253Z 17005KT 10SM BKN070 OVC100 27/15 A3010 RMK AO2 SLP190 T02670150 $,2024-08-13T22:53:00Z,26.7,15,10+,30.10
KDEQ,34.048,-94.4016,170,7,8.06,KDEQ 132253Z AUTO 17007KT 10SM CLR 36/23 A2997 RMK AO2 SLP143 T03560233,2024-08-13T22:53:00Z,35.6,23.3,10+,29.97
KDEN,39.8466,-104.656,80,8,9.21,KDEN 132253Z 08008KT 10SM R35L/1800VP6000FT TSRA FEW033 BKN065CB BKN150 BKN200 18/16 A3010 RMK AO2 PK WND 33028/2218 WSHFT 2217 RAB21GRB32E38 TSB15 SLP128 FRQ LTGICCG NE-SE TS NE-SE MOV NE P0020 T01830161,2024-08-13T22:53:00Z,18.3,16.1,10+,30.10
KDCU,34.658,-86.9434,360,7,8.06,KDCU 132253Z AUTO 36007KT 10SM CLR 32/18 A3006 RMK AO2 SLP170 T03220183,2024-08-13T22:53:00Z,32.2,18.3,10+,30.06
KDBQ,42.3984,-90.7092,170,4,4.6,KDBQ 132253Z 17004KT 10SM CLR 26/15 A3013 RMK AO2 SLP198 T02610150,2024-08-13T22:53:00Z,26.1,15,10+,30.13
KDAN,36.5729,-79.335,0,0,0.0,KDAN 132253Z AUTO 00000KT 10SM BKN095 24/19 A3008 RMK AO2 SLP177 T02440189,2024-08-13T22:53:00Z,24.4,18.9,10+,30.08
KDAL,32.8384,-96.8358,170,7,8.06,KDAL 132253Z 17007G17KT 10SM FEW065 FEW180 FEW250 37/20 A2995 RMK AO2 SLP133 T03720200,2024-08-13T22:53:00Z,37.2,20,10+,29.95
KDAB,29.1735,-81.0719,250,8,9.21,KDAB 132253Z 25008KT 10SM FEW042CB FEW085 SCT200 33/23 A2998 RMK AO2 LTG DSNT N AND SE SLP151 CB N-NE MOV E T03280233,2024-08-13T22:53:00Z,32.8,23.3,10+,29.98
KCYS,41.1579,-104.808,220,14,16.11,KCYS 132253Z 22014G21KT 10SM -RA SCT100 BKN120 19/13 A3011 RMK AO2 LTG DSNT NE AND SE RAB2154E03B35 SLP123 P0000 T01940133,2024-08-13T22:53:00Z,19.4,13.3,10+,30.11
KCXO,30.3611,-95.4176,VRB,4,4.6,KCXO 132253Z VRB04KT 10SM CLR 32/24 A3001 RMK AO2 TSE11 SLP157 T03220244,2024-08-13T22:53:00Z,32.2,24.4,10+,30.01
KCUT,43.7331,-103.615,130,8,9.21,KCUT 132253Z AUTO 13008G15KT 10SM SCT065 BKN120 26/11 A3003 RMK AO2 SLP095 T02610111 $,2024-08-13T22:53:00Z,26.1,11.1,10+,30.03
KCUB,33.972,-80.9939,VRB,5,5.75,KCUB 132253Z AUTO VRB05KT 10SM BKN036 28/22 A3002 RMK AO2 SLP162 T02780217 $,2024-08-13T22:53:00Z,27.8,21.7,10+,30.02
KCSM,35.3568,-99.2041,180,14,16.11,KCSM 132253Z 18014G23KT 10SM CLR 38/17 A2994 RMK AO2 PK WND 18027/2202 SLP109 T03780167,2024-08-13T22:53:00Z,37.8,16.7,10+,29.94
KCRS,32.0316,-96.3994,150,10,11.51,KCRS 132253Z AUTO 15010KT 10SM CLR 36/21 A2999 RMK AO2 SLP147 T03610211,2024-08-13T22:53:00Z,36.1,21.1,10+,29.99
KCRQ,33.1299,-117.277,250,7,8.06,KCRQ 132253Z 25007KT 10SM CLR 24/17 A2991 RMK AO2 SLP124 T02390172,2024-08-13T22:53:00Z,23.9,17.2,10+,29.91
KCRG,30.3371,-81.5128,130,6,6.9,KCRG 132253Z 13006KT 10SM CLR 31/24 A2996 RMK AO2 SLP144 T03110244,2024-08-13T22:53:00Z,31.1,24.4,10+,29.96
KCRE,33.8162,-78.7204,60,6,6.9,KCRE 132253Z 06006KT 10SM FEW095 26/24 A2999 RMK AO1 SLP157 P0001 T02610239 $,2024-08-13T22:53:00Z,26.1,23.9,10+,29.99
KCQC,35.003,-105.663,180,13,14.96,KCQC 132253Z AUTO 18013KT 10SM -RA BKN100 21/11 A3026 RMK AO2 PK WND 16027/2155 RAB40 SLP151 P0000 T02060111 $,2024-08-13T22:53:00Z,20.6,11.1,10+,30.26
KCPS,38.57,-90.156,150,6,6.9,KCPS 132253Z 15006KT 10SM FEW033 27/20 A3007 RMK AO2 SLP180 T02670200,2024-08-13T22:53:00Z,26.7,20,10+,30.07
KCPR,42.8978,-106.474,230,14,16.11,KCPR 132253Z 23014G22KT 10SM CLR 30/08 A2997 RMK AO2 PK WND 20027/2227 SLP072 T03000078,2024-08-13T22:53:00Z,30,7.8,10+,29.97
KCOT,28.4585,-99.2228,140,16,18.41,KCOT 132253Z AUTO 14016KT 10SM SCT090 40/17 A2990 RMK AO2 SLP116 T04000172,2024-08-13T22:53:00Z,40,17.2,10+,29.90
KCNY,38.7501,-109.763,80,7,8.06,KCNY 132253Z AUTO 08007KT 10SM CLR 24/14 A3008 RMK AO2 LTG DSNT SW AND NW SLP137 T02440144,2024-08-13T22:53:00Z,24.4,14.4,10+,30.08
KCNO,33.9756,-117.625,250,12,13.81,KCNO 132253Z 25012KT 10SM CLR 35/10 A2989 RMK AO2 SLP114 T03500100 $,2024-08-13T22:53:00Z,35,10,10+,29.89
KCNM,32.3335,-104.258,160,9,10.36,KCNM 132253Z AUTO 16009KT 10SM FEW110 36/11 A2995 RMK AO2 SLP076 T03610106,2024-08-13T22:53:00Z,36.1,10.6,10+,29.95
KCMX,47.1705,-88.4854,350,3,3.45,KCMX 132253Z AUTO 35003KT 7SM CLR 27/15 A3011 RMK AO2 SLP195 T02720150,2024-08-13T22:53:00Z,27.2,15,7,30.11
KCMI,40.0324,-88.2755,100,4,4.6,KCMI 132253Z 10004KT 10SM CLR 26/15 A3012 RMK AO2 SLP195 T02610150,2024-08-13T22:53:00Z,26.1,15,10+,30.12
KCLM,48.1219,-123.507,290,5,5.75,KCLM 132253Z AUTO 29005KT 10SM OVC035 18/13 A3006 RMK AO2 SLP179 T01830133,2024-08-13T22:53:00Z,18.3,13.3,10+,30.06
KCLL,30.5912,-96.3631,150,10,11.51,KCLL 132253Z 15010KT 10SM CLR 33/24 A2999 RMK AO2 SLP149 T03330239,2024-08-13T22:53:00Z,33.3,23.9,10+,29.99
KCKB,39.3022,-80.2239,50,7,8.06,KCKB 132253Z 05007KT 10SM CLR 26/13 A3009 RMK AO2 SLP178 T02560133,2024-08-13T22:53:00Z,25.6,13.3,10+,30.09
KCHO,38.1374,-78.4551,230,3,3.45,KCHO 132253Z 23003KT 10SM BKN110 26/15 A3005 RMK AO2 SLP171 T02560150,2024-08-13T22:53:00Z,25.6,15,10+,30.05
KCHA,35.0336,-85.2004,330,10,11.51,KCHA 132253Z 33010G20KT 10SM FEW060 BKN250 32/17 A3005 RMK AO2 SLP165 MDT CU S T03170172,2024-08-13T22:53:00Z,31.7,17.2,10+,30.05
KCGI,37.2254,-89.5785,70,8,9.21,KCGI 132253Z 07008KT 6SM -RA HZ FEW100 BKN150 OVC250 25/22 A3004 RMK AO2 RAB36 SLP169 P0000 T02500222,2024-08-13T22:53:00Z,25,22.2,6,30.04
KCEZ,37.3071,-108.626,VRB,3,3.45,KCEZ 132253Z AUTO VRB03KT 10SM FEW034 SCT100 21/16 A3016 RMK AO2 PK WND 18043/2201 WSHFT 2157 LTG DSNT NE AND E RAB2154RAEMM TSE34 SLP143 P0024 T02110156 $,2024-08-13T22:53:00Z,21.1,15.6,10+,30.16
KCEW,30.7771,-86.5194,350,3,3.45,KCEW 132253Z AUTO 35003KT 10SM FEW090 35/21 A3001 RMK AO2 SLP157 T03500211,2024-08-13T22:53:00Z,35,21.1,10+,30.01
KCDW,40.8764,-74.2829,350,3,3.45,KCDW 132253Z 35003KT 10SM CLR 28/12 A2999 RMK AO2 SLP159 T02780117 $,2024-08-13T22:53:00Z,27.8,11.7,10+,29.99
KCDS,34.4275,-100.284,200,11,12.66,KCDS 132253Z AUTO 20011G27KT 10SM CLR 39/14 A2991 RMK AO2 PK WND 19027/2246 SLP095 T03890144,2024-08-13T22:53:00Z,38.9,14.4,10+,29.91
KCDR,42.8374,-103.098,170,23,26.47,KCDR 132253Z AUTO 17023G30KT 10SM CLR 32/17 A2986 RMK AO2 PK WND 15030/2237 LTG DSNT NE SLP083 T03170167,2024-08-13T22:53:00Z,31.7,16.7,10+,29.86
KCDC,37.7067,-113.097,210,23,26.47,KCDC 132253Z AUTO 21023G31KT 10SM CLR 31/ A3006 RMK AO2 PK WND 22032/2220 SLP083 T0311 $,2024-08-13T22:53:00Z,31.1,,10+,30.06
KCCR,37.9916,-122.053,VRB,4,4.6,KCCR 132253Z VRB04G16KT 10SM CLR 31/07 A2992 RMK AO2 SLP118 T03110067,2024-08-13T22:53:00Z,31.1,6.7,10+,29.92
KCAG,40.493,-107.524,,,,KCAG 132253Z AUTO A3018 RMK AO2 SLPNO PWINO $,2024-08-13T22:53:00Z,,,,30.18
KBYI,42.5452,-113.769,280,9,10.36,KBYI 132253Z AUTO 28009KT 10SM CLR 28/M01 A2993 RMK AO2 SLP083 T02781006,2024-08-13T22:53:00Z,27.8,-0.6,10+,29.93
KBYG,44.3812,-106.719,130,6,6.9,KBYG 132253Z AUTO 13006KT 10SM SCT120 29/06 A2993 RMK AO2 SLP074 T02940061,2024-08-13T22:53:00Z,29.4,6.1,10+,29.93
KBWG,36.9647,-86.4238,0,0,0.0,KBWG 132253Z AUTO 00000KT 10SM CLR 28/17 A3008 RMK AO2 SLP181 T02830172,2024-08-13T22:53:00Z,28.3,17.2,10+,30.08
KBVY,42.5841,-70.9153,290,4,4.6,KBVY 132253Z 29004KT 10SM FEW055 24/16 A2994 RMK AO2 SLP133 T02440156,2024-08-13T22:53:00Z,24.4,15.6,10+,29.94
KBVO,36.7664,-96.0129,170,6,6.9,KBVO 132253Z AUTO 17006KT 10SM SCT047 33/25 A2996 RMK AO2 SLP132 T03330250,2024-08-13T22:53:00Z,33.3,25,10+,29.96
KBUR,34.1996,-118.365,190,10,11.51,KBUR 132253Z 19010KT 10SM CLR 31/14 A2990 RMK AO2 SLP110 T03110144,2024-08-13T22:53:00Z,31.1,14.4,10+,29.90
KBTR,30.5378,-91.1468,200,4,4.6,KBTR 132253Z 20004KT 10SM CLR 32/24 A2999 RMK AO2 SLP154 T03170239 $,2024-08-13T22:53:00Z,31.7,23.9,10+,29.99
KBTM,45.9644,-112.501,150,17,19.56,KBTM 132253Z AUTO 15017KT 10SM -RA SCT070 OVC090 14/09 A3008 RMK AO2 PK WND 17031/2154 LTG DSNT W SLP160 P0005 T01440089,2024-08-13T22:53:00Z,14.4,8.9,10+,30.08
KBTL,42.3119,-85.2415,360,6,6.9,KBTL 132253Z 36006KT 10SM CLR 27/14 A3011 RMK AO2 SLP193 T02720139,2024-08-13T22:53:00Z,27.2,13.9,10+,30.11
KBRO,25.9146,-97.4231,130,11,12.66,KBRO 132253Z 13011G20KT 10SM FEW035 32/24 A2997 RMK AO2 SLP146 T03220244,2024-08-13T22:53:00Z,32.2,24.4,10+,29.97
KBRL,40.7729,-91.1255,110,4,4.6,KBRL 132253Z AUTO 11004KT 10SM OVC046 24/18 A3011 RMK AO2 SLP191 T02440178,2024-08-13T22:53:00Z,24.4,17.8,10+,30.11
KBRD,46.4021,-94.1273,190,8,9.21,KBRD 132253Z AUTO 19008KT 10SM CLR 27/13 A3010 RMK AO2 SLP191 T02670133,2024-08-13T22:53:00Z,26.7,13.3,10+,30.10
KBPT,29.9521,-94.0262,0,0,0.0,KBPT 132253Z 00000KT 10SM CLR 34/23 A2999 RMK AO2 SLP156 T03440233,2024-08-13T22:53:00Z,34.4,23.3,10+,29.99
KBPK,36.3705,-92.4719,170,5,5.75,KBPK 132253Z AUTO 17005KT 10SM FEW010 BKN015 23/21 A3007 RMK AO2 SLP174 T02330211,2024-08-13T22:53:00Z,23.3,21.1,10+,30.07
KBPI,42.578,-110.11,70,14,16.11,KBPI 132253Z AUTO 07014KT 10SM SCT110 16/07 A3017 RMK AO2 PK WND 04028/2222 LTG DSNT ALQDS RAB16E39 SLP148 P0000 T01610072,2024-08-13T22:53:00Z,16.1,7.2,10+,30.17
KBOI,43.567,-116.241,350,13,14.96,KBOI 132253Z 35013G18KT 10SM CLR 32/06 A2988 RMK AO2 SLP081 T03170056,2024-08-13T22:53:00Z,31.7,5.6,10+,29.88
KBNO,43.5949,-118.958,270,13,14.96,KBNO 132253Z AUTO 27013G22KT 10SM CLR 28/M01 A2998 RMK AO2 SLP110 T02831006,2024-08-13T22:53:00Z,28.3,-0.6,10+,29.98
KBNA,36.1105,-86.6881,30,9,10.36,KBNA 132253Z 03009KT 10SM FEW060 BKN250 29/17 A3008 RMK AO2 SLP179 T02890172,2024-08-13T22:53:00Z,28.9,17.2,10+,30.08
KBMQ,30.7407,-98.2354,130,8,9.21,KBMQ 132253Z AUTO 13008G15KT 10SM CLR 35/19 A3001 RMK AO2 SLP141 T03500194,2024-08-13T22:53:00Z,35,19.4,10+,30.01
KBMG,39.1432,-86.6168,VRB,5,5.75,KBMG 132253Z VRB05KT 10SM OVC050 28/16 A3010 RMK AO2 SLP183 T02780161,2024-08-13T22:53:00Z,27.8,16.1,10+,30.10
KBLI,48.7991,-122.541,180,7,8.06,KBLI 132253Z 18007KT 10SM BKN050 18/13 A3004 RMK AO2 SLP179 T01780133,2024-08-13T22:53:00Z,17.8,13.3,10+,30.04
KBKV,28.4739,-82.4537,260,7,8.06,KBKV 132253Z 26007KT 10SM CLR 31/24 A3001 RMK AO2 SLP159 T03060244,2024-08-13T22:53:00Z,30.6,24.4,10+,30.01
KBKL,41.5173,-81.6832,30,5,5.75,KBKL 132253Z 03005KT 10SM CLR 26/15 A3011 RMK AO2 SLP192 T02560150,2024-08-13T22:53:00Z,25.6,15,10+,30.11
KBKE,44.843,-117.81,80,3,3.45,KBKE 132253Z AUTO 08003KT 10SM SCT120 27/12 A2992 RMK AO2 SLP103 T02720117,2024-08-13T22:53:00Z,27.2,11.7,10+,29.92
KBIV,42.7463,-86.0968,280,5,5.75,KBIV 132253Z AUTO 28005KT 10SM CLR 25/16 A3012 RMK AO2 SLP197 T02500156,2024-08-13T22:53:00Z,25,15.6,10+,30.12
KBHM,33.5655,-86.7449,10,7,8.06,KBHM 132253Z 01007KT 10SM SCT065 SCT080 BKN250 32/19 A3005 RMK AO2 SLP166 T03220189,2024-08-13T22:53:00Z,32.2,18.9,10+,30.05
KBGR,44.7979,-68.8195,310,7,8.06,KBGR 132253Z 31007KT 10SM FEW060 SCT250 25/14 A2988 RMK AO2 SLP114 T02500144 $,2024-08-13T22:53:00Z,25,14.4,10+,29.88
KBGM,42.2068,-75.9799,360,10,11.51,KBGM 132253Z AUTO 36010KT 10SM CLR 21/13 A3008 RMK AO2 SLP180 T02110133,2024-08-13T22:53:00Z,21.1,13.3,10+,30.08
KBFM,30.6147,-88.063,250,5,5.75,KBFM 132253Z 25005KT 10SM FEW030 27/21 A3002 RMK AO2 SLP165 T02720211,2024-08-13T22:53:00Z,27.2,21.1,10+,30.02
KBFI,47.5455,-122.315,270,7,8.06,KBFI 132253Z 27007KT 10SM FEW041 OVC055 22/12 A3004 RMK AO2 SLP173 T02170117,2024-08-13T22:53:00Z,21.7,11.7,10+,30.04
KBFF,41.8747,-103.601,130,12,13.81,KBFF 132253Z AUTO 13012KT 10SM CLR 25/17 A2995 RMK AO2 LTG DSNT E-S SLP097 T02500167,2024-08-13T22:53:00Z,25,16.7,10+,29.95
KBFD,41.7984,-78.6354,340,3,3.45,KBFD 132253Z AUTO 34003KT 10SM CLR 22/16 A3013 RMK AO2 SLP193 T02170156,2024-08-13T22:53:00Z,21.7,15.6,10+,30.13
KBEH,42.129,-86.4152,300,4,4.6,KBEH 132253Z AUTO 30004KT 10SM CLR 26/17 A3011 RMK AO2 SLP195 T02610167,2024-08-13T22:53:00Z,26.1,16.7,10+,30.11
KBDE,48.7261,-94.6122,200,8,9.21,KBDE 132253Z AUTO 20008KT 10SM CLR 28/13 A3008 RMK AO2 SLP185 T02830128,2024-08-13T22:53:00Z,28.3,12.8,10+,30.08
KBCT,26.379,-80.106,130,10,11.51,KBCT 132253Z 13010KT 10SM CLR 32/26 A2998,2024-08-13T22:53:00Z,32,26,10+,29.98
KBCE,37.7013,-112.149,130,13,14.96,KBCE 132253Z AUTO 13013KT 10SM SCT080 SCT090 SCT110 20/13 A3025 RMK AO2 LTG DSNT N SLP128 T02000128,2024-08-13T22:53:00Z,20,12.8,10+,30.25
KBBW,41.4365,-99.6385,,,,KBBW 132253Z AUTO 10SM SCT024 BKN030 BKN050 25/20 A3001 RMK AO2 SLP143 T02500200 $,2024-08-13T22:53:00Z,25,20,10+,30.01
KBAF,42.16,-72.7124,300,6,6.9,KBAF 132253Z 30006KT 10SM BKN055 25/16 A2998 RMK AO2 SLP150 T02500156,2024-08-13T22:53:00Z,25,15.6,10+,29.98
KAZO,42.2283,-85.546,0,0,0.0,KAZO 132253Z 00000KT 10SM BKN060 28/14 A3011 RMK AO2 SLP193 T02830139,2024-08-13T22:53:00Z,28.3,13.9,10+,30.11
KAXN,45.868,-95.394,140,8,9.21,KAXN 132253Z AUTO 14008KT 10SM CLR 25/15 A3010 RMK AO2 SLP190 T02500150,2024-08-13T22:53:00Z,25,15,10+,30.10
KAWM,35.1401,-90.2359,0,0,0.0,KAWM 132253Z AUTO 00000KT 10SM CLR 32/21 A3002 RMK AO2 SLP160 T03220211,2024-08-13T22:53:00Z,32.2,21.1,10+,30.02
KAUS,30.2099,-97.6806,150,11,12.66,KAUS 132253Z 15011KT 10SM SCT065 BKN250 36/22 A2996 RMK AO2 SLP130 T03560217,2024-08-13T22:53:00Z,35.6,21.7,10+,29.96
KAUG,44.3161,-69.797,0,0,0.0,KAUG 132253Z AUTO 00000KT 10SM CLR 25/16 A2991 RMK AO2 SLP127 T02500161,2024-08-13T22:53:00Z,25,16.1,10+,29.91
KATY,44.9045,-97.1496,160,16,18.41,KATY 132253Z AUTO 16016G21KT 10SM CLR 23/17 A3004 RMK AO2 SLP169 T02280167,2024-08-13T22:53:00Z,22.8,16.7,10+,30.04
KASX,46.5468,-90.9184,60,7,8.06,KASX 132253Z AUTO 06007KT 8SM CLR 27/17 A3011 RMK AO2 SLP194 T02670172,2024-08-13T22:53:00Z,26.7,17.2,8,30.11
KASE,39.2299,-106.871,150,3,3.45,KASE 132253Z 15003KT 10SM BKN030 OVC038 13/11 A3036 RMK AO2 RAE21 SLP186 P0000 T01330111,2024-08-13T22:53:00Z,13.3,11.1,10+,30.36
KASD,30.3436,-89.8224,210,4,4.6,KASD 132253Z AUTO 21004KT 10SM CLR 36/21 A3000 RMK AO2 SLP157 T03560206,2024-08-13T22:53:00Z,35.6,20.6,10+,30.00
KARB,42.2239,-83.7398,350,6,6.9,KARB 132253Z 35006KT 10SM OVC060 27/14 A3010 RMK AO2 SLP188 T02720139,2024-08-13T22:53:00Z,27.2,13.9,10+,30.10
KARA,30.0292,-91.8845,220,6,6.9,KARA 132253Z 22006KT 10SM FEW041 33/26 A3000 RMK AO2 SLP158 T03330261,2024-08-13T22:53:00Z,33.3,26.1,10+,30.00
KAQP,45.2249,-96.0041,170,9,10.36,KAQP 132253Z AUTO 17009KT 10SM SCT042 27/17 A3005 RMK AO2 TSNO,2024-08-13T22:53:00Z,27,17,10+,30.05
KAPF,26.155,-81.7751,300,9,10.36,KAPF 132253Z AUTO 30009KT 10SM CLR 32/ A2998 RMK AO2 SLP149 T0322,2024-08-13T22:53:00Z,32.2,,10+,29.98
KAPA,39.5599,-104.848,330,7,8.06,KAPA 132253Z 33007KT 10SM FEW065 SCT090 BKN130 BKN220 24/14 A3010 RMK AO2 TSE13 SLP126 OCNL LTGICCG DSNT NE-SE CB DSNT NE-SE MOV NE SHRA DSNT W-N T02440144 $,2024-08-13T22:53:00Z,24.4,14.4,10+,30.10
KAOO,40.2999,-78.3168,20,4,4.6,KAOO 132253Z AUTO 02004KT 10SM FEW060 OVC085 23/14 A3010 RMK AO2 SLP187 T02330139,2024-08-13T22:53:00Z,23.3,13.9,10+,30.10
KAOH,40.7081,-84.0214,0,0,0.0,KAOH 132253Z AUTO 00000KT 10SM CLR 24/18 A3011 RMK AO2 SLPNO T02390183 $,2024-08-13T22:53:00Z,23.9,18.3,10+,30.11
KANB,33.5904,-85.8479,300,7,8.06,KANB 132253Z AUTO 30007KT 10SM FEW055 32/19 A3003 RMK AO2 SLP159 T03220189,2024-08-13T22:53:00Z,32.2,18.9,10+,30.03
KAMW,41.9905,-93.6185,130,3,3.45,KAMW 132253Z AUTO 13003KT 10SM OVC042 23/18 A3011 RMK AO2 SLP188 T02330183,2024-08-13T22:53:00Z,23.3,18.3,10+,30.11
KAMG,31.5401,-82.5074,270,4,4.6,KAMG 132253Z AUTO 27004KT 2 1/2SM HZ CLR 33/20 A2996 RMK AO2 SLP144 T03330200,2024-08-13T22:53:00Z,33.3,20,2.5,29.96
KAMA,35.2203,-101.717,210,17,19.56,KAMA 132253Z 21017G24KT 10SM CLR 37/11 A3002 RMK AO2 SLP101 T03670111,2024-08-13T22:53:00Z,36.7,11.1,10+,30.02
KALW,46.0946,-118.286,,,,KALW 132253Z 10SM CLR 26/07 A2992 RMK AO2 SLP125 T02610067,2024-08-13T22:53:00Z,26.1,6.7,10+,29.92
KALI,27.7413,-98.0251,150,14,16.11,KALI 132253Z AUTO 15014G24KT 10SM FEW050 36/22 A2995 RMK AO2 SLP139 T03560222,2024-08-13T22:53:00Z,35.6,22.2,10+,29.95
KAKO,40.1743,-103.215,120,11,12.66,KAKO 132253Z AUTO 12011KT 10SM FEW055 30/16 A3000 RMK AO2 LTG DSNT S AND SW SLP091 T03000161,2024-08-13T22:53:00Z,30,16.1,10+,30.00
KAIA,42.0573,-102.802,140,12,13.81,KAIA 132253Z AUTO 14012KT 10SM FEW120 26/19 A2994 RMK AO2 LTG DSNT SE-SW RAB13E24 SLP096 P0000 T02560189,2024-08-13T22:53:00Z,25.6,18.9,10+,29.94
KAGS,33.3652,-81.9635,70,5,5.75,KAGS 132253Z 07005KT 10SM CLR 29/23 A2998 RMK AO2 SLP149 T02890228 $,2024-08-13T22:53:00Z,28.9,22.8,10+,29.98
KAGC,40.3551,-79.9215,330,4,4.6,KAGC 132253Z 33004KT 10SM SCT080 25/12 A3010 RMK AO2 SLP190 T02500117,2024-08-13T22:53:00Z,25,11.7,10+,30.10
KAFW,32.99,-97.32,170,14,16.11,KAFW 132253Z 17014KT 10SM FEW065 SCT250 38/19 A2995 RMK AO2 SLP122 T03780189,2024-08-13T22:53:00Z,37.8,18.9,10+,29.95
KAEX,31.3346,-92.5585,210,3,3.45,KAEX 132253Z 21003KT 10SM CLR 36/23 A2998 RMK AO2 SLP152 T03560228,2024-08-13T22:53:00Z,35.6,22.8,10+,29.98
KADG,41.8678,-84.0794,VRB,3,3.45,KADG 132253Z AUTO VRB03KT 10SM FEW060 SCT070 OVC110 25/15 A3012 RMK AO2 SLP195 T02500150,2024-08-13T22:53:00Z,25,15,10+,30.12
KACV,40.9784,-124.105,310,12,13.81,KACV 132253Z AUTO 31012KT 10SM CLR 19/12 A3006 RMK AO2 SLP184 T01890122,2024-08-13T22:53:00Z,18.9,12.2,10+,30.06
KACK,41.2541,-70.0589,240,9,10.36,KACK 132253Z 24009KT 10SM CLR 21/17 A2997 RMK AO2 SLP148 T02110172,2024-08-13T22:53:00Z,21.1,17.2,10+,29.97
KABY,31.5364,-84.1958,340,9,10.36,KABY 132253Z 34009KT 10SM FEW070 36/18 A2999 RMK AO2 SLP152 T03560178,2024-08-13T22:53:00Z,35.6,17.8,10+,29.99
KABR,45.4436,-98.4138,170,14,16.11,KABR 132253Z AUTO 17014G22KT 10SM CLR 25/17 A3000 RMK AO2 SLP154 T02500172,2024-08-13T22:53:00Z,25,17.2,10+,30.00
KAAF,29.7268,-85.0248,300,9,10.36,KAAF 132253Z AUTO 30009KT 10SM CLR 34/22 A2997 RMK AO2 SLP147 T03440222,2024-08-13T22:53:00Z,34.4,22.2,10+,29.97
PTYA,9.487,138.077,0,0,0.0,PTYA 132252Z 00000KT 12SM FEW017 SCT300 30/26 A2984 RMK SLP107 T02970256,2024-08-13T22:52:00Z,29.7,25.6,12,29.84
PATA,65.173,-152.107,,,,PATA 132252Z 10SM FEW043 BKN060 15/09 A3004 RMK AO2 RAE2159 SLP176 P0000 T01500089 $,2024-08-13T22:52:00Z,15,8.9,10+,30.04
PABA,70.135,-143.585,230,4,4.6,PABA 132252Z AUTO 23004KT 10SM CLR 15/05 A2984 RMK AO2 SLP111 T01500050,2024-08-13T22:52:00Z,15,5,10+,29.84
MMMX,19.436,-99.072,30,10,11.51,MMMX 132252Z 03010KT 8SM BKN020CB BKN080 21/12 A3026 NOSIG RMK 8/360 HZY CI DSNT PCPN 3RD QUAD,2024-08-13T22:52:00Z,21,12,8,30.26
KVTN,42.8585,-100.551,150,15,17.26,KVTN 132252Z AUTO 15015G24KT 10SM BKN033 28/18 A2995 RMK AO2 SLP122 T02780183,2024-08-13T22:52:00Z,27.8,18.3,10+,29.95
KTRM,33.6317,-116.164,VRB,3,3.45,KTRM 132252Z AUTO VRB03KT 10SM CLR 42/11 A2970 RMK AO2 SLP059 T04220106,2024-08-13T22:52:00Z,42.2,10.6,10+,29.70
KTOL,41.5871,-83.8054,260,4,4.6,KTOL 132252Z 26004KT 10SM FEW055 26/17 A3010 RMK AO2 SLP192 T02610172 $,2024-08-13T22:52:00Z,26.1,17.2,10+,30.10
KTAN,41.8756,-71.0208,0,0,0.0,KTAN 132252Z AUTO 00000KT 10SM BKN060 24/18 A2994 RMK AO2 SLP139 T02390183,2024-08-13T22:52:00Z,23.9,18.3,10+,29.94
KSUX,42.3917,-96.3795,120,11,12.66,KSUX 132252Z 12011KT 10SM FEW041 25/19 A3004 RMK AO2 SLP167 T02500194,2024-08-13T22:52:00Z,25,19.4,10+,30.04
KSPS,33.9785,-98.493,150,12,13.81,KSPS 132252Z 15012KT 10SM FEW060 SCT090 39/17 A2991 RMK AO2 SLP110 T03890172,2024-08-13T22:52:00Z,38.9,17.2,10+,29.91
KSPI,39.8453,-89.684,140,5,5.75,KSPI 132252Z 14005KT 10SM FEW040 26/18 A3011 RMK AO2 SLP191 T02560178,2024-08-13T22:52:00Z,25.6,17.8,10+,30.11
KSGF,37.2398,-93.39,130,8,9.21,KSGF 132252Z 13008KT 10SM CLR 23/22 A3006 RMK AO2 SLP168 T02330217,2024-08-13T22:52:00Z,23.3,21.7,10+,30.06
KREO,42.5902,-117.865,250,17,19.56,KREO 132252Z AUTO 25017G28KT 28/03 A2995 RMK AO1 PK WND 25028/2245 SLP095 T02830028,2024-08-13T22:52:00Z,28.3,2.8,,29.95
KRAP,44.0458,-103.054,150,15,17.26,KRAP 132252Z 15015G22KT 10SM CLR 34/14 A2985 RMK AO2 SLP075 T03390139,2024-08-13T22:52:00Z,33.9,13.9,10+,29.85
KPYM,41.9085,-70.7278,130,3,3.45,KPYM 132252Z AUTO 13003KT 10SM SCT055 23/16 A2995 RMK AO2 SLP144 T02330156,2024-08-13T22:52:00Z,23.3,15.6,10+,29.95
KPWK,42.1208,-87.9048,VRB,5,5.75,KPWK 132252Z VRB05KT 10SM CLR 27/14 A3012 RMK AO2 SLP195 T02720144 $,2024-08-13T22:52:00Z,27.2,14.4,10+,30.12
KPPF,37.3281,-95.5044,0,0,0.0,KPPF 132252Z AUTO 00000KT 10SM FEW036 30/23 A3000 RMK AO2 SLP148 T03000233,2024-08-13T22:52:00Z,30,23.3,10+,30.00
KP69,46.144,-115.597,0,0,0.0,KP69 132252Z AUTO 00000KT 25/13 A2991 RMK AO1 SLP108 T02500128,2024-08-13T22:52:00Z,25,12.8,,29.91
KORE,42.57,-72.287,270,3,3.45,KORE 132252Z AUTO 27003KT 10SM SCT055 24/16 A2999 RMK AO2 SLP155 T02390156,2024-08-13T22:52:00Z,23.9,15.6,10+,29.99
KOMA,41.3119,-95.9018,140,9,10.36,KOMA 132252Z 14009KT 10SM FEW030 OVC037 26/19 A3005 RMK AO2 SLP167 T02560189,2024-08-13T22:52:00Z,25.6,18.9,10+,30.05
KOKC,35.3843,-97.6003,150,15,17.26,KOKC 132252Z 15015G21KT 10SM FEW070 SCT250 35/22 A2995 RMK AO2 SLP124 T03500222,2024-08-13T22:52:00Z,35,22.2,10+,29.95
KOKB,33.2195,-117.35,260,8,9.21,KOKB 132252Z AUTO 26008KT 7SM CLR 27/18 A2990 RMK AO2 SLP123 T02720183,2024-08-13T22:52:00Z,27.2,18.3,7,29.90
KNRB,30.396,-81.423,160,11,12.66,KNRB 132252Z 16011KT 10SM SCT035 32/25 A2996 RMK AO2 SLP144 T03170250,2024-08-13T22:52:00Z,31.7,25,10+,29.96
KNHK,38.284,-76.408,90,4,4.6,KNHK 132252Z 09004KT 10SM FEW065 FEW090 28/14 A3003 RMK AO2 SLP169 T02780144 $,2024-08-13T22:52:00Z,27.8,14.4,10+,30.03
KNFW,32.781,-97.436,150,12,13.81,KNFW 132252Z 15012G18KT 10SM FEW060 FEW250 38/18 A2995 RMK AO2 SLP126 T03780183 $,2024-08-13T22:52:00Z,37.8,18.3,10+,29.95
KMWN,44.271,-71.304,310,26,29.92,KMWN 132252Z 31026G36KT 0SM FG VV000 09/09 RMK,2024-08-13T22:52:00Z,9,9,0,
KMWH,47.193,-119.315,VRB,4,4.6,KMWH 132252Z VRB04G15KT 10SM CLR 27/09 A2990 RMK AO2 SLP118 T02720094,2024-08-13T22:52:00Z,27.2,9.4,10+,29.90
KMLI,41.4482,-90.5237,150,3,3.45,KMLI 132252Z 15003KT 10SM CLR 27/17 A3010 RMK AO2 SLP191 T02670167,2024-08-13T22:52:00Z,26.7,16.7,10+,30.10
KMLF,38.4225,-113.011,220,20,23.02,KMLF 132252Z AUTO 22020G32KT 10SM CLR 33/02 A2998 RMK AO2 PK WND 21036/2207 SLP078 T03280022,2024-08-13T22:52:00Z,32.8,2.2,10+,29.98
KMKE,42.9549,-87.9045,100,4,4.6,KMKE 132252Z 10004KT 10SM FEW110 26/18 A3011 RMK AO2 SLP190 T02560178,2024-08-13T22:52:00Z,25.6,17.8,10+,30.11
KMHK,39.1346,-96.6789,150,7,8.06,KMHK 132252Z AUTO 15007KT 10SM CLR 28/22 A2999 RMK AO2 SLP147 T02830217,2024-08-13T22:52:00Z,28.3,21.7,10+,29.99
KMFD,40.8204,-82.5177,360,5,5.75,KMFD 132252Z 36005KT 10SM CLR 26/12 A3012 RMK AO2 SLP193 T02610122,2024-08-13T22:52:00Z,26.1,12.2,10+,30.12
KMEB,34.7913,-79.3683,40,7,8.06,KMEB 132252Z AUTO 04007KT 10SM BKN065 OVC080 25/22 A3005 RMK AO2 SLP172 T02500217,2024-08-13T22:52:00Z,25,21.7,10+,30.05
KMDH,37.7833,-89.2453,0,0,0.0,KMDH 132252Z 00000KT 10SM SCT039 27/20 A3007 RMK AO2 SLP178 T02670200,2024-08-13T22:52:00Z,26.7,20,10+,30.07
KMBG,45.543,-100.404,150,18,20.71,KMBG 132252Z AUTO 15018G30KT 10SM BKN049 28/16 A2990 RMK AO2 PK WND 15031/2208 SLP114 T02780161,2024-08-13T22:52:00Z,27.8,16.1,10+,29.90
KLWC,39.0078,-95.2115,100,7,8.06,KLWC 132252Z AUTO 10007KT 9SM SCT011 OVC016 23/21 A3005 RMK AO1 SLP168 T02330211,2024-08-13T22:52:00Z,23.3,21.1,9,30.05
KIOW,41.6394,-91.5445,90,4,4.6,KIOW 132252Z AUTO 09004KT 10SM FEW049 26/16 A3012 RMK AO2 SLP197 T02560156,2024-08-13T22:52:00Z,25.6,15.6,10+,30.12
KIJD,41.7425,-72.1825,320,4,4.6,KIJD 132252Z AUTO 32004KT 10SM BKN060 25/16 A2998 RMK AO2 SLP150 T02500161,2024-08-13T22:52:00Z,25,16.1,10+,29.98
KIEN,43.0261,-102.52,180,14,16.11,KIEN 132252Z AUTO 18014G20KT 10SM SCT110 29/16 A2991 RMK AO2 LTG DSNT W SLP093 T02940161,2024-08-13T22:52:00Z,29.4,16.1,10+,29.91
KIAD,38.9348,-77.4473,320,6,6.9,KIAD 132252Z 32006KT 10SM CLR 28/12 A3004 RMK AO2 SLP171 T02780117,2024-08-13T22:52:00Z,27.8,11.7,10+,30.04
KHUT,38.0682,-97.8607,120,11,12.66,KHUT 132252Z 12011G18KT 10SM CLR 31/23 A2996 RMK AO2 SLP121 T03110233,2024-08-13T22:52:00Z,31.1,23.3,10+,29.96
KHRL,26.2303,-97.6556,130,16,18.41,KHRL 132252Z 13016G23KT 10SM FEW042 34/24 A2995 RMK AO2 PK WND 12028/2227 SLP142 T03390239,2024-08-13T22:52:00Z,33.9,23.9,10+,29.95
KHIE,44.3659,-71.5522,270,3,3.45,KHIE 132252Z AUTO 27003KT 10SM FEW049 SCT060 22/16 A2999 RMK AO2 SLP155 T02220156,2024-08-13T22:52:00Z,22.2,15.6,10+,29.99
KGLS,29.2704,-94.8642,160,7,8.06,KGLS 132252Z AUTO 16007KT 10SM CLR 33/26 A3001 RMK AO2 SLP162 T03280261,2024-08-13T22:52:00Z,32.8,26.1,10+,30.01
KFIT,42.5549,-71.757,360,3,3.45,KFIT 132252Z AUTO 36003KT 8SM CLR 25/15 A2997 RMK AO2 SLP149 T02500150,2024-08-13T22:52:00Z,25,15,8,29.97
KEST,43.4008,-94.7476,150,8,9.21,KEST 132252Z AUTO 15008KT 10SM FEW035 BKN050 23/18 A3011 RMK AO2 SLP191 T02330178,2024-08-13T22:52:00Z,23.3,17.8,10+,30.11
KDVN,41.6133,-90.5948,100,6,6.9,KDVN 132252Z AUTO 10006KT 10SM CLR 26/16 A3013 RMK AO2 SLP196 T02560156,2024-08-13T22:52:00Z,25.6,15.6,10+,30.13
KDPA,41.8964,-88.2512,140,7,8.06,KDPA 132252Z 14007KT 10SM SCT055 27/16 A3010 RMK AO2 SLP188 T02720161,2024-08-13T22:52:00Z,27.2,16.1,10+,30.10
KDDC,37.7711,-99.9692,150,16,18.41,KDDC 132252Z AUTO 15016KT 9SM CLR 34/21 A2994 RMK AO2 SLP103 T03440206,2024-08-13T22:52:00Z,34.4,20.6,9,29.94
KDCA,38.8472,-77.0345,320,9,10.36,KDCA 132252Z 32009KT 10SM FEW070 SCT090 28/12 A3003 RMK AO2 SLP167 T02830117,2024-08-13T22:52:00Z,28.3,11.7,10+,30.03
KCVG,39.0444,-84.6724,340,5,5.75,KCVG 132252Z 34005KT 10SM FEW065 BKN080 BKN300 27/15 A3009 RMK AO2 SLP180 T02720150,2024-08-13T22:52:00Z,27.2,15,10+,30.09
KCQX,41.6878,-69.9932,VRB,3,3.45,KCQX 132252Z AUTO VRB03KT 10SM CLR 23/19 A2996 RMK AO2 SLP147 T02330189,2024-08-13T22:52:00Z,23.3,18.9,10+,29.96
KCNU,37.6705,-95.4846,120,6,6.9,KCNU 132252Z AUTO 12006KT 10SM CLR 29/23 A3001 RMK AO2 SLP151 T02890228,2024-08-13T22:52:00Z,28.9,22.8,10+,30.01
KCLT,35.2225,-80.9543,50,7,8.06,KCLT 132252Z 05007KT 10SM BKN024 BKN120 25/19 A3007 RMK AO2 SLP189 T02500194,2024-08-13T22:52:00Z,25,19.4,10+,30.07
KCKV,36.6169,-87.4118,VRB,3,3.45,KCKV 132252Z AUTO VRB03KT 10SM SCT075 BKN095 29/18 A3007 RMK AO2 SLP179 T02890178,2024-08-13T22:52:00Z,28.9,17.8,10+,30.07
KCID,41.8829,-91.7246,130,4,4.6,KCID 132252Z 13004KT 10SM FEW037 SCT046 24/18 A3011 RMK AO2 SLP193 T02390183,2024-08-13T22:52:00Z,23.9,18.3,10+,30.11
KCFV,37.0912,-95.5726,190,8,9.21,KCFV 132252Z AUTO 19008KT 10SM FEW044 32/23 A2996 RMK AO2 SLP138 T03170233,2024-08-13T22:52:00Z,31.7,23.3,10+,29.96
KBML,44.576,-71.1782,330,4,4.6,KBML 132252Z AUTO 33004KT 10SM CLR 22/14 A2998 RMK AO2 SLP151 T02220139,2024-08-13T22:52:00Z,22.2,13.9,10+,29.98
KBLU,39.2762,-120.709,240,7,8.06,KBLU 132252Z AUTO 24007G17KT 170V270 10SM CLR 23/03 A3018 RMK AO2 SLP134 T02280028 TSNO,2024-08-13T22:52:00Z,22.8,2.8,10+,30.18
KBLH,33.6188,-114.715,230,12,13.81,KBLH 132252Z AUTO 23012G20KT 10SM FEW110 43/07 A2974 RMK AO2 SLP061 T04280067,2024-08-13T22:52:00Z,42.8,6.7,10+,29.74
KBLF,37.2978,-81.2036,0,0,0.0,KBLF 132252Z AUTO 00000KT 10SM OVC075 22/13 A3016 RMK AO2 SLP185 T02170128,2024-08-13T22:52:00Z,21.7,12.8,10+,30.16
KBIS,46.7823,-100.757,50,13,14.96,KBIS 132252Z AUTO 05013G21KT 10SM VCTS OVC035 21/19 A2995 RMK AO2 PK WND 32041/2218 WSHFT 2219 LTG DSNT NW-E RAB06E51 TSB07E52 SLP139 P0077 T02060189,2024-08-13T22:52:00Z,20.6,18.9,10+,29.95
KBDR,41.1642,-73.1266,330,6,6.9,KBDR 132252Z 33006KT 10SM CLR 26/13 A2997 RMK AO2 SLP148 T02610133 $,2024-08-13T22:52:00Z,26.1,13.3,10+,29.97
KATL,33.6297,-84.4422,310,9,10.36,KATL 132252Z 31009KT 10SM FEW065 SCT250 33/17 A3002 RMK AO2 SLP155 MDT CU NW T03280172,2024-08-13T22:52:00Z,32.8,17.2,10+,30.02
KARR,41.7713,-88.4815,260,6,6.9,KARR 132252Z 26006KT 9SM CLR 28/16 A3010 RMK AO2 SLP191 T02780156,2024-08-13T22:52:00Z,27.8,15.6,9,30.10
KALS,37.4393,-105.862,150,13,14.96,KALS 132252Z AUTO 15013KT 10SM FEW100 20/12 A3024 RMK AO2 LTG DSNT NW RAE2159B28E38 SLP153 P0000 T02000122,2024-08-13T22:52:00Z,20,12.2,10+,30.24
KAFN,42.8067,-72.0013,0,0,0.0,KAFN 132252Z AUTO 00000KT 10SM CLR A3000 RMK AO2 SLPNO,2024-08-13T22:52:00Z,,,10+,30.00
KABQ,35.0419,-106.615,270,12,13.81,KABQ 132252Z 27012G19KT 10SM SCT090 BKN140 BKN250 28/10 A3012 RMK AO2 PK WND 24031/2212 SLP107 CB DSNT SW SHRA DSNT SW T02830100,2024-08-13T22:52:00Z,28.3,10,10+,30.12
KABI,32.4106,-99.6821,160,9,10.36,KABI 132252Z 16009G21KT 10SM CLR 38/15 A2996 RMK AO2 SLP114 T03830150 $,2024-08-13T22:52:00Z,38.3,15,10+,29.96
PTKK,7.462,151.843,VRB,4,4.6,PTKK 132251Z VRB04KT 15SM FEW014 BKN120 OVC280 29/26 A2983 RMK SLP105 T02940260,2024-08-13T22:51:00Z,29.4,26,15,29.83
MUGM,19.909,-75.206,360,11,12.66,MUGM 132251Z 36011KT 10SM FEW030 SCT250 33/23 A2992 RMK AO2 SLP132 T03280233 $,2024-08-13T22:51:00Z,32.8,23.3,10+,29.92
MMUN,21.038,-86.855,90,6,6.9,MMUN 132251Z 09006KT 7SM FEW015CB BKN250 30/27 A2996 RMK 8/308,2024-08-13T22:51:00Z,30,27,7,29.96
MMCL,24.766,-107.476,260,4,4.6,MMCL 132251Z 26004KT 10SM SCT025TCU 34/22 A2985 RMK 8/200 DNST CB NE,2024-08-13T22:51:00Z,34,22,10+,29.85
KYNG,41.2548,-80.6736,20,8,9.21,KYNG 132251Z 02008KT 10SM FEW055 FEW220 24/13 A3013 RMK AO2 SLP198 T02440128,2024-08-13T22:51:00Z,24.4,12.8,10+,30.13
KXWA,48.2542,-103.747,150,16,18.41,KXWA 132251Z AUTO 15016KT 10SM CLR 28/17 A2988 RMK AO2 SLP111 T02780172,2024-08-13T22:51:00Z,27.8,17.2,10+,29.88
KVNY,34.2121,-118.491,140,10,11.51,KVNY 132251Z 14010G17KT 10SM CLR 32/11 A2989 RMK AO2 SLP110 T03220111,2024-08-13T22:51:00Z,32.2,11.1,10+,29.89
KVCT,28.8624,-96.9301,170,14,16.11,KVCT 132251Z 17014G18KT 10SM SCT044 34/24 A2997 RMK AO2 WSHFT 2221 SLP146 T03440244,2024-08-13T22:51:00Z,34.4,24.4,10+,29.97
KUGN,42.4255,-87.8634,100,5,5.75,KUGN 132251Z 10005KT 10SM BKN085 OVC100 26/16 A3011 RMK AO2 SLP187 T02560156,2024-08-13T22:51:00Z,25.6,15.6,10+,30.11
KTPL,31.157,-97.4094,140,12,13.81,KTPL 132251Z AUTO 14012KT 10SM FEW060 36/21 A2998 RMK AO2 SLP140 T03560211,2024-08-13T22:51:00Z,35.6,21.1,10+,29.98
KTEB,40.859,-74.0562,350,4,4.6,KTEB 132251Z 35004KT 10SM CLR 27/13 A2997 RMK AO2 SLP147 T02720128,2024-08-13T22:51:00Z,27.2,12.8,10+,29.97
KSTL,38.7524,-90.3734,120,8,9.21,KSTL 132251Z 12008KT 10SM BKN030 BKN036 OVC250 27/19 A3008 RMK AO2 SLP177 T02670189 $,2024-08-13T22:51:00Z,26.7,18.9,10+,30.08
KSMX,34.894,-120.452,300,12,13.81,KSMX 132251Z 30012KT 8SM CLR 21/13 A2996 RMK AO2 SLP145 T02110133 $,2024-08-13T22:51:00Z,21.1,13.3,8,29.96
KSMO,34.021,-118.447,220,8,9.21,KSMO 132251Z 22008KT 10SM CLR 25/19 A2991 RMK AO2 SLP126 T02500189,2024-08-13T22:51:00Z,25,18.9,10+,29.91
KSLK,44.3928,-74.2029,VRB,3,3.45,KSLK 132251Z AUTO VRB03KT 10SM FEW039 FEW050 SCT065 22/14 A3005 RMK AO2 SLP173 T02170139,2024-08-13T22:51:00Z,21.7,13.9,10+,30.05
KSJT,31.3517,-100.495,190,11,12.66,KSJT 132251Z 19011G22KT 10SM CLR 38/14 A2996 RMK AO2 PK WND 16027/2235 SLP113 T03780144,2024-08-13T22:51:00Z,37.8,14.4,10+,29.96
KSAT,29.5443,-98.4839,130,11,12.66,KSAT 132251Z 13011G21KT 10SM SCT070 BKN250 37/21 A2996 RMK AO2 SLP124 T03720206,2024-08-13T22:51:00Z,37.2,20.6,10+,29.96
KSAN,32.7365,-117.197,280,8,9.21,KSAN 132251Z 28008KT 10SM FEW015 27/19 A2992 RMK AO2 SLP131 T02670189,2024-08-13T22:51:00Z,26.7,18.9,10+,29.92
KSAD,32.8565,-109.636,290,12,13.81,KSAD 132251Z AUTO 29012KT 10SM CLR 33/16 A2997 RMK AO2 LTG DSNT NE SLP093 T03280156,2024-08-13T22:51:00Z,32.8,15.6,10+,29.97
KROW,33.3074,-104.508,250,17,19.56,KROW 132251Z 25017G27KT 9SM -RA FEW044 BKN100 33/13 A2999 RMK AO2 PK WND 25027/2246 LTG DSNT SW RAB48 SLP080 P0000 T03280133,2024-08-13T22:51:00Z,32.8,13.3,9,29.99
KRDU,35.8923,-78.782,10,3,3.45,KRDU 132251Z 01003KT 10SM FEW014 BKN075 OVC130 23/21 A3007 RMK AO2 SLP179 T02330211,2024-08-13T22:51:00Z,23.3,21.1,10+,30.07
KPWM,43.6424,-70.3044,280,5,5.75,KPWM 132251Z 28005KT 10SM CLR 24/16 A2992 RMK AO2 SLP132 T02390156,2024-08-13T22:51:00Z,23.9,15.6,10+,29.92
KPVD,41.7225,-71.4325,300,5,5.75,KPVD 132251Z 30005KT 10SM SCT065 BKN250 24/16 A2996 RMK AO2 SLP144 T02440156,2024-08-13T22:51:00Z,24.4,15.6,10+,29.96
KPIT,40.4814,-80.2083,10,6,6.9,KPIT 132251Z 01006KT 10SM FEW060 FEW085 26/12 A3010 RMK AO2 SLP196 T02610117,2024-08-13T22:51:00Z,26.1,11.7,10+,30.10
KPHX,33.4278,-112.004,VRB,5,5.75,KPHX 132251Z VRB05KT 10SM FEW095 SCT130 SCT200 SCT250 41/13 A2978 RMK AO2 SLP061 CB DSNT N AND SE T04110128,2024-08-13T22:51:00Z,41.1,12.8,10+,29.78
KP59,47.467,-87.875,0,0,0.0,KP59 132251Z AUTO 00000KT 23/18 A3009 RMK AO1 SLP184 T02330178,2024-08-13T22:51:00Z,23.3,17.8,,30.09
KOXR,34.2001,-119.204,280,12,13.81,KOXR 132251Z 28012KT 10SM CLR 22/16 A2992 RMK AO2 SLP130 T02220156 $,2024-08-13T22:51:00Z,22.2,15.6,10+,29.92
KORF,36.9037,-76.1927,80,4,4.6,KORF 132251Z 08004KT 10SM CLR 27/15 A3003 RMK AO2 SLP169 T02720150,2024-08-13T22:51:00Z,27.2,15,10+,30.03
KORD,41.9602,-87.9316,80,9,10.36,KORD 132251Z 08009KT 10SM FEW055 SCT100 28/14 A3009 RMK AO2 SLP186 T02780144,2024-08-13T22:51:00Z,27.8,14.4,10+,30.09
KOCF,29.1636,-82.221,250,5,5.75,KOCF 132251Z 25005KT 10SM FEW044 32/24 A2999 RMK AO2 LTG DSNT E SLP156 T03220244 PNO $,2024-08-13T22:51:00Z,32.2,24.4,10+,29.99
KNYC,40.779,-73.9692,60,4,4.6,KNYC 132251Z AUTO 06004KT 10SM CLR 26/12 A3001 RMK AO2 SLP152 T02560122 $,2024-08-13T22:51:00Z,25.6,12.2,10+,30.01
KNBT,35.022,-76.463,80,7,8.06,KNBT 132251Z AUTO 08007KT 10SM FEW110 29/21 A3004 RMK AO2 SLP178 T02940206 $,2024-08-13T22:51:00Z,29.4,20.6,10+,30.04
KMYL,44.8943,-116.1,270,10,11.51,KMYL 132251Z AUTO 27010G17KT 230V300 10SM BKN075 23/05 A3002 RMK AO2 SLP123 T02330050,2024-08-13T22:51:00Z,23.3,5,10+,30.02
KMPV,44.205,-72.5655,300,6,6.9,KMPV 132251Z AUTO 30006KT 10SM FEW050 22/14 A3005 RMK AO2 SLP173 T02220139,2024-08-13T22:51:00Z,22.2,13.9,10+,30.05
KLWB,37.8633,-80.3923,120,3,3.45,KLWB 132251Z 12003KT 10SM SCT080 23/13 A3014,2024-08-13T22:51:00Z,23,13,10+,30.14
KLGA,40.7794,-73.8803,360,6,6.9,KLGA 132251Z 36006KT 10SM FEW060 FEW250 27/12 A2997 RMK AO2 SLP149 T02720122,2024-08-13T22:51:00Z,27.2,12.2,10+,29.97
KJFK,40.6392,-73.7639,180,6,6.9,KJFK 132251Z 18006KT 10SM SCT060 SCT250 24/18 A2998 RMK AO2 SLP153 T02440178 $,2024-08-13T22:51:00Z,24.4,17.8,10+,29.98
KJCT,30.5105,-99.7665,130,10,11.51,KJCT 132251Z AUTO 13010G19KT 10SM FEW075 36/18 A2999 RMK AO2 SLP114 T03610183,2024-08-13T22:51:00Z,36.1,18.3,10+,29.99
KILG,39.6744,-75.6057,320,5,5.75,KILG 132251Z 32005KT 10SM CLR 27/14 A3002 RMK AO2 SLP164 T02670144,2024-08-13T22:51:00Z,26.7,14.4,10+,30.02
KIGM,35.2575,-113.934,220,14,16.11,KIGM 132251Z AUTO 22014G27KT 10SM CLR 35/08 A2997 RMK AO2 PK WND 24027/2242 SLP069 T03500083,2024-08-13T22:51:00Z,35,8.3,10+,29.97
KHTS,38.3653,-82.5548,340,7,8.06,KHTS 132251Z 34007KT 10SM BKN085 31/13 A3006 RMK AO2 SLP172 T03110128,2024-08-13T22:51:00Z,31.1,12.8,10+,30.06
KHSE,35.2324,-75.6223,50,4,4.6,KHSE 132251Z AUTO 05004KT 10SM CLR 25/21 A3004 RMK AO2 SLP173 T02500206,2024-08-13T22:51:00Z,25,20.6,10+,30.04
KHDO,29.3601,-99.1742,130,13,14.96,KHDO 132251Z AUTO 13013G20KT 10SM SCT080 37/18 A2995 RMK AO2 SLP124 T03670183,2024-08-13T22:51:00Z,36.7,18.3,10+,29.95
KGEU,33.528,-112.293,230,10,11.51,KGEU 132251Z 23010KT 10SM SCT110 SCT130 41/13 A2977,2024-08-13T22:51:00Z,41,13,10+,29.77
KEWR,40.6828,-74.1692,340,9,10.36,KEWR 132251Z 34009KT 10SM FEW065 SCT250 28/12 A2997 RMK AO2 SLP150 T02780122,2024-08-13T22:51:00Z,27.8,12.2,10+,29.97
KERI,42.0803,-80.1824,310,4,4.6,KERI 132251Z 31004KT 10SM CLR 23/13 A3011 RMK AO2 SLP194 T02330128,2024-08-13T22:51:00Z,23.3,12.8,10+,30.11
KELP,31.8123,-106.377,240,4,4.6,KELP 132251Z 24004KT 10SM FEW100 SCT160 BKN250 36/10 A2999 RMK AO2 SLP071 CB DSNT NE AND SE-SW T03610100,2024-08-13T22:51:00Z,36.1,10,10+,29.99
KEKN,38.8899,-79.8554,350,3,3.45,KEKN 132251Z AUTO 35003KT 10SM BKN080 BKN090 24/13 A3013 RMK AO2 SLP198 T02440133,2024-08-13T22:51:00Z,24.4,13.3,10+,30.13
KDAW,43.2794,-70.9243,0,0,0.0,KDAW 132251Z AUTO 00000KT 10SM CLR 25/16 A2994 RMK AO2 SLP135 T02500161 $,2024-08-13T22:51:00Z,25,16.1,10+,29.94
KCWF,30.2216,-93.1467,220,7,8.06,KCWF 132251Z 22007KT 10SM CLR 34/24 A2999,2024-08-13T22:51:00Z,34,24,10+,29.99
KCSG,32.5163,-84.9422,350,8,9.21,KCSG 132251Z 35008KT 10SM CLR 34/18 A2999 RMK AO2 SLP148 T03440178,2024-08-13T22:51:00Z,34.4,17.8,10+,29.99
KCRP,27.7733,-97.513,130,15,17.26,KCRP 132251Z 13015G21KT 10SM FEW035 FEW060 FEW250 33/25 A2997 RMK AO2 SLP146 CB DSNT SW TCU DSNT N E SE SW W NW T03280250,2024-08-13T22:51:00Z,32.8,25,10+,29.97
KCON,43.2049,-71.5026,320,5,5.75,KCON 132251Z AUTO 32005KT 10SM CLR 24/14 A2996 RMK AO2 SLP144 T02390139,2024-08-13T22:51:00Z,23.9,13.9,10+,29.96
KCMH,39.9907,-82.8771,30,6,6.9,KCMH 132251Z 03006KT 10SM SCT065 BKN085 27/15 A3008 RMK AO2 SLP180 T02670150,2024-08-13T22:51:00Z,26.7,15,10+,30.08
KCLE,41.4057,-81.8519,360,7,8.06,KCLE 132251Z 36007KT 10SM CLR 26/12 A3011 RMK AO2 SLP206 T02560122,2024-08-13T22:51:00Z,25.6,12.2,10+,30.11
KCDJ,39.8198,-93.577,100,6,6.9,KCDJ 132251Z AUTO 10006KT 24/20 A3008 RMK AO1 SLP174 T02440200,2024-08-13T22:51:00Z,24.4,20,,30.08
KCAK,40.9181,-81.4434,30,6,6.9,KCAK 132251Z 03006KT 10SM R23/6000FT SCT075 26/13 A3011 RMK AO2 SLP190 T02560128,2024-08-13T22:51:00Z,25.6,12.8,10+,30.11
KBKW,37.7836,-81.1228,20,4,4.6,KBKW 132251Z AUTO 02004KT 10SM OVC075 24/09 A3014 RMK AO2 SLP179 T02440094,2024-08-13T22:51:00Z,24.4,9.4,10+,30.14
KBHK,46.3521,-104.261,120,9,10.36,KBHK 132251Z AUTO 12009KT 10SM CLR 27/18 A2989 RMK AO2 SLP097 T02720183,2024-08-13T22:51:00Z,27.2,18.3,10+,29.89
KBGD,35.695,-101.396,180,12,13.81,KBGD 132251Z AUTO 18012G22KT 10SM CLR 37/12 A2998 RMK AO2 SLP099 T03720122,2024-08-13T22:51:00Z,37.2,12.2,10+,29.98
KBED,42.4681,-71.2946,330,4,4.6,KBED 132251Z 33004KT 10SM CLR 24/14 A2994 RMK AO2 SLP151 T02440144,2024-08-13T22:51:00Z,24.4,14.4,10+,29.94
KBDL,41.9374,-72.682,330,4,4.6,KBDL 132251Z 33004KT 10SM FEW075 BKN250 26/16 A2997 RMK AO2 SLP148 FU BKN250 T02560161,2024-08-13T22:51:00Z,25.6,16.1,10+,29.97
KBAZ,29.7089,-98.0459,150,14,16.11,KBAZ 132251Z 15014G20KT 10SM SCT060 37/23 A2996 RMK AO2 SLP132 T03720228,2024-08-13T22:51:00Z,37.2,22.8,10+,29.96
KAVX,33.4042,-118.415,260,7,8.06,KAVX 132251Z AUTO 26007KT 10SM CLR 25/16 A2998 RMK AO2 SLP122 T02500156,2024-08-13T22:51:00Z,25,15.6,10+,29.98
KATT,30.3208,-97.7604,VRB,5,5.75,KATT 132251Z AUTO VRB05KT 10SM FEW070 36/19 A2998 RMK AO2 SLP134 T03610194,2024-08-13T22:51:00Z,36.1,19.4,10+,29.98
KALB,42.7473,-73.7991,120,4,4.6,KALB 132251Z 12004KT 10SM FEW055 SCT260 26/16 A2998 RMK AO2 SLP153 T02560161,2024-08-13T22:51:00Z,25.6,16.1,10+,29.98
KAHN,33.9477,-83.3274,90,7,8.06,KAHN 132251Z 09007KT 10SM CLR 28/22 A3001 RMK AO2 SLP155 T02830222,2024-08-13T22:51:00Z,28.3,22.2,10+,30.01
KAFP,35.0194,-80.0784,0,0,0.0,KAFP 132251Z AUTO 00000KT 10SM BKN065 BKN080 24/22 A3006 RMK AO2 T02430222,2024-08-13T22:51:00Z,24.3,22.2,10+,30.06
KACT,31.618,-97.2283,150,12,13.81,KACT 132251Z 15012KT 10SM CLR 37/20 A2996 RMK AO2 SLP135 T03670200,2024-08-13T22:51:00Z,36.7,20,10+,29.96
KABE,40.658,-75.4347,350,7,8.06,KABE 132251Z 35007KT 10SM CLR 25/14 A3001 RMK AO2 SLP162 T02500139,2024-08-13T22:51:00Z,25,13.9,10+,30.01
K6R6,30.0482,-102.213,110,14,16.11,K6R6 132251Z AUTO 11014G23KT 37/17 A2994 RMK AO1 SLP096 T03720167,2024-08-13T22:51:00Z,37.2,16.7,,29.94
CYXY,60.71,-135.059,190,8,9.21,CYXY 132251Z 19008KT 20SM -SHRA FEW015 BKN048 BKN080 11/07 A2990 RMK SC1SC5AC1 CVCTV CLD EMBD SLP148,2024-08-13T22:51:00Z,11,7,20,29.90
TJBQ,18.494,-67.128,60,9,10.36,TJBQ 132250Z 06009KT 10SM SCT013 BKN037 BKN048 27/24 A2983 RMK LTG DSNT E-W,2024-08-13T22:50:00Z,27,24,10+,29.83
RJTU,36.514,139.871,VRB,1,1.15,RJTU 132250Z VRB01KT 7000 +RA FEW020 SCT030 BKN040 26/25 Q1009 RMK 1CU020 3CU030 5SC040 A2980,2024-08-13T22:50:00Z,26,25,4.35,29.79
PTRO,7.367,134.544,290,4,4.6,PTRO 132250Z 29004KT 15SM FEW016TCU SCT130 SCT320 31/25 A2985 RMK TCU NE,2024-08-13T22:50:00Z,31,25,15,29.85
PGRO,14.172,145.24,90,10,11.51,PGRO 132250Z 09010KT 7SM SCT016 BKN120 29/26 A2984,2024-08-13T22:50:00Z,29,26,7,29.84
PALJ,60.204,-154.316,0,0,0.0,PALJ 132250Z 00000KT 30SM BKN100 18/12 A3010 RMK EST PASS OPN NOSPECI,2024-08-13T22:50:00Z,18,12,30,30.10
PAEL,58.196,-136.347,270,8,9.21,PAEL 132250Z 27008KT 15SM SCT030 16/10 A3002 RMK MAX 15.6 70002 SPB E23012KT SEA 1 SWELL 2 SW NOSPECI,2024-08-13T22:50:00Z,16,10,15,30.02
OOSH,24.388,56.624,120,6,6.9,OOSH 132250Z AUTO 12006KT //// ////// 31/27 Q1001,2024-08-13T22:50:00Z,31,27,,29.56
OOSA,17.044,54.102,140,4,4.6,OOSA 132250Z 14004KT 6000 SCT006 BKN009 OVC018 25/24 Q1004 NOSIG,2024-08-13T22:50:00Z,25,24,3.73,29.65
OOMS,23.595,58.298,290,2,2.3,OOMS 132250Z 29002KT CAVOK 30/27 Q1000 NOSIG,2024-08-13T22:50:00Z,30,27,6+,29.53
OOKB,26.168,56.239,130,13,14.96,OOKB 132250Z AUTO 13013KT 100V160 CAVOK 33/25 Q0999 NOSIG,2024-08-13T22:50:00Z,33,25,6+,29.50
OODQ,19.511,57.657,210,26,29.92,OODQ 132250Z AUTO 21026KT //// R22///// BKN008 OVC049 25/23 Q1001 NOSIG,2024-08-13T22:50:00Z,25,23,,29.56
OOAD,22.5,57.37,100,11,12.66,OOAD 132250Z AUTO 10011KT 9999 // ///////// 29/22 Q1004 NOSIG,2024-08-13T22:50:00Z,29,22,6+,29.65
MUVR,23.033,-81.435,160,6,6.9,MUVR 132250Z 16006KT 9000 TS SCT018CB BKN020 22/22 Q1016,2024-08-13T22:50:00Z,22,22,5.59,30.00
MUHG,20.786,-76.316,80,12,13.81,MUHG 132250Z 08012KT 7000 FEW048 BKN225 30/22 Q1014,2024-08-13T22:50:00Z,30,22,4.35,29.94
MUHA,22.991,-82.41,10,4,4.6,MUHA 132250Z 01004KT 330V130 8000 SCT020 BKN060 25/24 Q1016,2024-08-13T22:50:00Z,25,24,4.97,30.00
MUCU,19.971,-75.837,VRB,3,3.45,MUCU 132250Z VRB03KT 9000 SCT020 SCT060 30/25 Q1013,2024-08-13T22:50:00Z,30,25,5.59,29.91
MUCM,21.42,-77.85,60,9,10.36,MUCM 132250Z 06009KT 9000 SCT025 BKN300 30/25 Q1015,2024-08-13T22:50:00Z,30,25,5.59,29.97
MUCL,21.621,-81.552,350,5,5.75,MUCL 132250Z 35005KT 300V360 9000 FEW020 32/24 Q1014,2024-08-13T22:50:00Z,32,24,5.59,29.94
MUCC,22.456,-78.339,100,10,11.51,MUCC 132250Z 10010KT 9000 SCT020CB 31/26 Q1014,2024-08-13T22:50:00Z,31,26,5.59,29.94
MMSD,23.157,-109.72,120,8,9.21,MMSD 132250Z 12008KT 10SM FEW040 SCT100 BKN200 32/21 A2985 RMK 8/434,2024-08-13T22:50:00Z,32,21,10+,29.85
LXGB,36.151,-5.35,250,12,13.81,LXGB 132250Z AUTO 25012KT 9999 NCD 24/15 Q1012,2024-08-13T22:50:00Z,24,15,6+,29.88
LWSK,41.952,21.627,70,3,3.45,LWSK 132250Z 07003KT 030V100 CAVOK 24/11 Q1011 NOSIG,2024-08-13T22:50:00Z,24,11,6+,29.85
LWOH,41.181,20.744,330,4,4.6,LWOH 132250Z 33004KT 300V360 9999 FEW045 18/14 Q1015,2024-08-13T22:50:00Z,18,14,6+,29.97
LTFO,41.179,40.845,VRB,2,2.3,LTFO 132250Z VRB02KT 9999 SCT035 24/20 Q1013,2024-08-13T22:50:00Z,24,20,6+,29.91
LTFM,41.262,28.74,80,7,8.06,LTFM 132250Z 08007KT 050V110 CAVOK 26/22 Q1012 NOSIG RMK RWY17L 09006KT RWY34L 08009KT RWY16R 09007KT RWY36 09006KT 030V110 RWY18 09006KT,2024-08-13T22:50:00Z,26,22,6+,29.88
LTFJ,40.899,29.309,30,12,13.81,LTFJ 132250Z 03012KT CAVOK 24/19 Q1010 NOSIG RMK RWY24R 03006KT RWY06R 03013KT RWY24L 01006KT,2024-08-13T22:50:00Z,24,19,6+,29.82
LTFH,41.255,36.567,160,4,4.6,LTFH 132250Z 16004KT CAVOK 18/16 Q1012 NOSIG,2024-08-13T22:50:00Z,18,16,6+,29.88
LTFG,36.299,32.3,120,5,5.75,LTFG 132250Z 12005KT CAVOK 25/14 Q1006,2024-08-13T22:50:00Z,25,14,6+,29.70
LTFE,37.245,27.673,0,0,0.0,LTFE 132250Z 00000KT CAVOK 22/17 Q1007 NOSIG RMK RWY10 05001KT,2024-08-13T22:50:00Z,22,17,6+,29.73
LTFD,39.559,27.025,70,14,16.11,LTFD 132250Z 07014KT CAVOK 28/14 Q1008,2024-08-13T22:50:00Z,28,14,6+,29.76
LTFC,37.855,30.368,360,5,5.75,LTFC 132250Z 36005KT CAVOK 22/07 Q1013 RMK RWY23 33003KT 320V020,2024-08-13T22:50:00Z,22,7,6+,29.91
LTDA,36.361,36.283,220,11,12.66,LTDA 132250Z 22011KT CAVOK 27/24 Q1006 NOSIG,2024-08-13T22:50:00Z,27,24,6+,29.70
LTCW,37.55,44.238,230,1,1.15,LTCW 132250Z 23001KT 9999 FEW035 13/09 Q1020,2024-08-13T22:50:00Z,13,9,6+,30.12
LTCV,37.365,42.06,250,3,3.45,LTCV 132250Z 25003KT CAVOK 26/05 Q1007,2024-08-13T22:50:00Z,26,5,6+,29.73
LTCT,39.977,43.878,290,9,10.36,LTCT 132250Z 29009KT 9999 FEW040 24/12 Q1013,2024-08-13T22:50:00Z,24,12,6+,29.91
LTCS,37.445,38.904,260,6,6.9,LTCS 132250Z 26006KT CAVOK 27/13 Q1009 RMK RWY22 28005KT SKC,2024-08-13T22:50:00Z,27,13,6+,29.79
LTCN,37.539,36.953,60,7,8.06,LTCN 132250Z 06007KT 040V100 CAVOK 25/19 Q1008,2024-08-13T22:50:00Z,25,19,6+,29.76
LTCJ,37.93,41.117,30,6,6.9,LTCJ 132250Z 03006KT CAVOK 22/16 Q1006 NOSIG RMK RWY20 36006KT SKC,2024-08-13T22:50:00Z,22,16,6+,29.70
LTCI,38.469,43.337,VRB,2,2.3,LTCI 132250Z VRB02KT 9999 FEW040 17/09 Q1017 NOSIG,2024-08-13T22:50:00Z,17,9,6+,30.03
LTCG,40.995,39.782,200,5,5.75,LTCG 132250Z 20005KT CAVOK 24/20 Q1013 NOSIG RMK RWY29 18004KT,2024-08-13T22:50:00Z,24,20,6+,29.91
LTCF,40.562,43.115,60,8,9.21,LTCF 132250Z 06008KT CAVOK 12/09 Q1020 NOSIG,2024-08-13T22:50:00Z,12,9,6+,30.12
LTCE,39.956,41.17,300,4,4.6,LTCE 132250Z 30004KT CAVOK 13/09 Q1019 NOSIG RMK RWY08R 00000KT RWY26R 31002KT RWY08L 00000KT SKC,2024-08-13T22:50:00Z,13,9,6+,30.09
LTCD,39.71,39.527,310,6,6.9,LTCD 132250Z 31006KT CAVOK 21/11 Q1015 NOSIG,2024-08-13T22:50:00Z,21,11,6+,29.97
LTCC,37.894,40.201,320,3,3.45,LTCC 132250Z 32003KT 260V050 CAVOK 26/08 Q1007 NOSIG RMK RWY16 00000KT SKC,2024-08-13T22:50:00Z,26,8,6+,29.73
LTCB,40.967,38.081,VRB,2,2.3,LTCB 132250Z VRB02KT CAVOK 21/18 Q1012 NOSIG,2024-08-13T22:50:00Z,21,18,6+,29.88
LTCA,38.607,39.291,270,5,5.75,LTCA 132250Z 27005KT 230V290 CAVOK 25/06 Q1011 NOSIG,2024-08-13T22:50:00Z,25,6,6+,29.85
LTBY,39.81,30.519,240,3,3.45,LTBY 132250Z 24003KT CAVOK 19/11 Q1014,2024-08-13T22:50:00Z,19,11,6+,29.94
LTBU,41.139,27.919,20,12,13.81,LTBU 132250Z 02012KT CAVOK 23/20 Q1011 RMK RWY22 03009KT,2024-08-13T22:50:00Z,23,20,6+,29.85
LTBS,36.713,28.793,50,4,4.6,LTBS 132250Z 05004KT CAVOK 25/18 Q1006 NOSIG RMK RWY19 35004KT SKC,2024-08-13T22:50:00Z,25,18,6+,29.70
LTBR,40.255,29.562,10,2,2.3,LTBR 132250Z 01002KT CAVOK 19/14 Q1011 NOSIG RMK RWY07 VRB02KT,2024-08-13T22:50:00Z,19,14,6+,29.85
LTBQ,40.735,30.083,VRB,1,1.15,LTBQ 132250Z VRB01KT CAVOK 16/15 Q1011 NOSIG,2024-08-13T22:50:00Z,16,15,6+,29.85
LTBJ,38.285,27.155,170,3,3.45,LTBJ 132250Z 17003KT 090V240 CAVOK 25/19 Q1007 NOSIG RMK RWY16 19005KT,2024-08-13T22:50:00Z,25,19,6+,29.73
LTBH,40.14,26.425,30,3,3.45,LTBH 132250Z 03003KT CAVOK 23/16 Q1009,2024-08-13T22:50:00Z,23,16,6+,29.79
LTBF,39.619,27.926,0,0,0.0,LTBF 132250Z 00000KT CAVOK 22/15 Q1009 NOSIG,2024-08-13T22:50:00Z,22,15,6+,29.79
LTBD,37.816,27.886,0,0,0.0,LTBD 132250Z 00000KT CAVOK 25/17 Q1007,2024-08-13T22:50:00Z,25,17,6+,29.73
LTBA,40.982,28.821,70,7,8.06,LTBA 132250Z 07007KT CAVOK 26/18 Q1010 RMK RWY23 08006KT 040V120,2024-08-13T22:50:00Z,26,18,6+,29.82
LTAZ,38.771,34.521,30,7,8.06,LTAZ 132250Z 03007KT 310V110 CAVOK 25/09 Q1015 RMK RWY29 VRB07KT,2024-08-13T22:50:00Z,25,9,6+,29.97
LTAY,37.785,29.701,VRB,1,1.15,LTAY 132250Z VRB01KT CAVOK 20/05 Q1013 NOSIG,2024-08-13T22:50:00Z,20,5,6+,29.91
LTAU,38.77,35.495,30,7,8.06,LTAU 132250Z 03007KT CAVOK 20/11 Q1016 NOSIG RMK RWY07 04008KT,2024-08-13T22:50:00Z,20,11,6+,30.00
LTAT,38.435,38.092,VRB,3,3.45,LTAT 132250Z VRB03KT CAVOK 22/07 Q1011 NOSIG RMK RWY03 23006KT,2024-08-13T22:50:00Z,22,7,6+,29.85
LTAR,39.798,36.894,320,4,4.6,LTAR 132250Z 32004KT CAVOK 12/09 Q1020,2024-08-13T22:50:00Z,12,9,6+,30.12
LTAP,40.826,35.52,250,6,6.9,LTAP 132250Z 25006KT CAVOK 16/11 Q1014 NOSIG RMK RWY23 23005KT,2024-08-13T22:50:00Z,16,11,6+,29.94
LTAN,37.979,32.562,340,8,9.21,LTAN 132250Z 34008KT CAVOK 23/05 Q1015 NOSIG,2024-08-13T22:50:00Z,23,5,6+,29.97
LTAJ,36.947,37.479,270,3,3.45,LTAJ 132250Z 27003KT 240V300 CAVOK 25/14 Q1009 NOSIG RMK RWY10 26004KT 230V310 SKC,2024-08-13T22:50:00Z,25,14,6+,29.79
LTAI,36.9,30.798,340,4,4.6,LTAI 132250Z 34004KT CAVOK 27/21 Q1006 NOSIG RMK RWY18C 34004KT RWY36R 34003KT 310V030 RWY18L 34003KT,2024-08-13T22:50:00Z,27,21,6+,29.70
LTAG,37.002,35.426,170,4,4.6,LTAG 132250Z 17004KT 9999 FEW030 28/24 Q1006 NOSIG RMK 2CU030,2024-08-13T22:50:00Z,28,24,6+,29.70
LTAF,36.989,35.293,130,4,4.6,LTAF 132250Z 13004KT 9999 FEW030 28/27 Q1006 NOSIG RMK RWY23 18004KT 2CU030,2024-08-13T22:50:00Z,28,27,6+,29.70
LTAC,40.128,32.995,50,11,12.66,LTAC 132250Z 05011KT CAVOK 22/12 Q1016 NOSIG RMK RWY21L 03010KT RWY03L 04009KT RWY21R 02010KT,2024-08-13T22:50:00Z,22,12,6+,30.00
LSZS,46.526,9.879,130,2,2.3,LSZS 132250Z AUTO 13002KT 9999 //////TCU 10/10 Q1022,2024-08-13T22:50:00Z,10,10,6+,30.18
LSZR,47.485,9.561,160,5,5.75,LSZR 132250Z AUTO 16005KT 120V220 9999 FEW085 23/16 Q1010,2024-08-13T22:50:00Z,23,16,6+,29.82
LSZL,46.164,8.878,VRB,2,2.3,LSZL 132250Z AUTO VRB02KT 9999NDV FEW090 SCT130 24/19 Q1011 RMK,2024-08-13T22:50:00Z,24,19,,29.85
LSZH,47.48,8.536,200,6,6.9,LSZH 132250Z AUTO 20006KT 170V260 9999 SCT///CB 24/16 Q1012 TEMPO TS,2024-08-13T22:50:00Z,24,16,6+,29.88
LSZG,47.179,7.415,VRB,6,6.9,LSZG 132250Z AUTO VRB06KT 9999 -RA BKN///CB 19/18 Q1012 RETSRA,2024-08-13T22:50:00Z,19,18,6+,29.88
LSZC,46.972,8.392,VRB,3,3.45,LSZC 132250Z AUTO VRB03KT 9999 FEW090 SCT///CB 23/16 Q1012,2024-08-13T22:50:00Z,23,16,6+,29.88
LSZB,46.914,7.497,150,4,4.6,LSZB 132250Z AUTO 15004KT 090V170 9999 FEW120 //////TCU 18/18 Q1014,2024-08-13T22:50:00Z,18,18,6+,29.94
LSZA,46.004,8.91,350,5,5.75,LSZA 132250Z AUTO 35005KT 320V030 9999 VCTS SCT///CB 25/19 Q1012,2024-08-13T22:50:00Z,25,19,6+,29.88
LSMP,46.844,6.916,210,5,5.75,LSMP 132250Z AUTO 21005KT 160V250 9999NDV -SHRA FEW100 BKN130 BKN160 20/17 Q1014 RMK,2024-08-13T22:50:00Z,20,17,,29.94
LSMM,46.743,8.11,320,3,3.45,LSMM 132250Z AUTO 32003KT 9999NDV FEW150 BKN180 18/16 Q1015 RMK,2024-08-13T22:50:00Z,18,16,,29.97
LSME,47.092,8.305,VRB,2,2.3,LSME 132250Z AUTO VRB02KT 9999NDV FEW047 BKN100 BKN150 21/20 Q1012 RESHRA RMK,2024-08-13T22:50:00Z,21,20,,29.88
LSMD,47.399,8.648,0,0,0.0,LSMD 132250Z AUTO 00000KT 9999NDV FEW100 BKN120 24/19 Q1012 RMK,2024-08-13T22:50:00Z,24,19,,29.88
LSMA,46.943,8.286,0,0,0.0,LSMA 132250Z AUTO 00000KT 9999NDV BKN094 BKN150 21/19 Q1012 RMK,2024-08-13T22:50:00Z,21,19,,29.88
LSGS,46.219,7.33,70,6,6.9,LSGS 132250Z AUTO 07006KT 040V100 9999 FEW120 SCT130 //////TCU 21/15 Q1014,2024-08-13T22:50:00Z,21,15,6+,29.94
LSGG,46.248,6.128,230,12,13.81,LSGG 132250Z AUTO 23012KT 9999 FEW093 FEW///TCU 21/17 Q1015 NOSIG,2024-08-13T22:50:00Z,21,17,6+,29.97
LSGC,47.083,6.792,200,11,12.66,LSGC 132250Z AUTO 20011KT 9999 TS SCT///CB 20/12 Q1016,2024-08-13T22:50:00Z,20,12,6+,30.00
LOWW,48.117,16.582,60,2,2.3,LOWW 132250Z 06002KT CAVOK 23/20 Q1012 NOSIG,2024-08-13T22:50:00Z,23,20,6+,29.88
LOWS,47.789,13.009,110,6,6.9,LOWS 132250Z AUTO 11006KT 080V170 9999 FEW130 20/17 Q1012,2024-08-13T22:50:00Z,20,17,6+,29.88
LOWL,48.233,14.188,140,4,4.6,LOWL 132250Z AUTO 14004KT 100V170 9999 NCD 21/16 Q1012,2024-08-13T22:50:00Z,21,16,6+,29.88
LOWK,46.648,14.318,270,4,4.6,LOWK 132250Z AUTO 27004KT 240V300 9999 NCD 24/17 Q1013,2024-08-13T22:50:00Z,24,17,6+,29.91
LOWI,47.26,11.344,VRB,2,2.3,LOWI 132250Z AUTO VRB02KT 9999 FEW100 18/16 Q1015,2024-08-13T22:50:00Z,18,16,6+,29.97
LOWG,46.997,15.447,0,0,0.0,LOWG 132250Z AUTO 00000KT 9999 NCD 23/20 Q1013,2024-08-13T22:50:00Z,23,20,6+,29.91
LLBG,32.011,34.887,70,2,2.3,LLBG 132250Z 07002KT CAVOK 26/23 Q1007 NOSIG,2024-08-13T22:50:00Z,26,23,6+,29.73
LIRQ,43.81,11.205,150,4,4.6,LIRQ 132250Z 15004KT 090V210 CAVOK 27/17 Q1011,2024-08-13T22:50:00Z,27,17,6+,29.85
LIRN,40.885,14.292,VRB,1,1.15,LIRN 132250Z VRB01KT CAVOK 28/23 Q1011 NOSIG,2024-08-13T22:50:00Z,28,23,6+,29.85
LIRF,41.8,12.239,10,5,5.75,LIRF 132250Z 01005KT CAVOK 26/19 Q1010 NOSIG,2024-08-13T22:50:00Z,26,19,6+,29.82
LIRA,41.808,12.585,0,0,0.0,LIRA 132250Z 00000KT CAVOK 27/24 Q1011,2024-08-13T22:50:00Z,27,24,6+,29.85
LIPZ,45.505,12.352,VRB,2,2.3,LIPZ 132250Z VRB02KT CAVOK 27/23 Q1009 NOSIG,2024-08-13T22:50:00Z,27,23,6+,29.79
LIPY,43.617,13.36,VRB,1,1.15,LIPY 132250Z AUTO VRB01KT //// // ///////// 26/16 Q1009,2024-08-13T22:50:00Z,26,16,,29.79
LIPX,45.387,10.872,330,5,5.75,LIPX 132250Z 33005KT 300V360 9999 FEW085 27/20 Q1010,2024-08-13T22:50:00Z,27,20,6+,29.82
LIPR,44.02,12.612,310,3,3.45,LIPR 132250Z AUTO 31003KT 9999 NCD 25/17 Q1009,2024-08-13T22:50:00Z,25,17,6+,29.79
LIPQ,45.828,13.472,90,2,2.3,LIPQ 132250Z AUTO 09002KT 9999 NCD 24/23 Q1010,2024-08-13T22:50:00Z,24,23,6+,29.82
LIPO,45.429,10.331,20,7,8.06,LIPO 132250Z AUTO 02007KT 340V060 9999 -RA FEW022/// BKN085/// 27/20 Q1010 RERA,2024-08-13T22:50:00Z,27,20,6+,29.82
LIPH,45.648,12.194,VRB,1,1.15,LIPH 132250Z AUTO VRB01KT 9999 NCD 25/23 Q1009,2024-08-13T22:50:00Z,25,23,6+,29.79
LIPE,44.531,11.297,210,6,6.9,LIPE 132250Z 21006KT CAVOK 29/17 Q1009,2024-08-13T22:50:00Z,29,17,6+,29.79
LIMZ,44.547,7.623,180,4,4.6,LIMZ 132250Z AUTO 18004KT 9999 NCD 18/17 Q1013,2024-08-13T22:50:00Z,18,17,6+,29.91
LIML,45.461,9.263,320,3,3.45,LIML 132250Z AUTO 32003KT 9999 NCD 26/21 Q1010,2024-08-13T22:50:00Z,26,21,6+,29.82
LIMJ,44.413,8.838,VRB,2,2.3,LIMJ 132250Z VRB02KT CAVOK 28/18 Q1010,2024-08-13T22:50:00Z,28,18,6+,29.82
LIMF,45.203,7.649,280,3,3.45,LIMF 132250Z 28003KT 240V300 9999 FEW090 23/19 Q1012,2024-08-13T22:50:00Z,23,19,6+,29.88
LIME,45.674,9.704,350,4,4.6,LIME 132250Z 35004KT 320V020 CAVOK 26/18 Q1011 NOSIG,2024-08-13T22:50:00Z,26,18,6+,29.85
LIMC,45.631,8.728,40,3,3.45,LIMC 132250Z 04003KT CAVOK 26/21 Q1010 NOSIG,2024-08-13T22:50:00Z,26,21,6+,29.82
LIEO,40.899,9.518,VRB,1,1.15,LIEO 132250Z VRB01KT CAVOK 27/23 Q1009,2024-08-13T22:50:00Z,27,23,6+,29.79
LIEE,39.243,9.06,200,3,3.45,LIEE 132250Z 20003KT 170V230 CAVOK 27/25 Q1009,2024-08-13T22:50:00Z,27,25,6+,29.79
LIEA,40.631,8.289,220,1,1.15,LIEA 132250Z 22001KT CAVOK 25/23 Q1009,2024-08-13T22:50:00Z,25,23,6+,29.79
LICR,38.072,15.654,360,8,9.21,LICR 132250Z AUTO 36008KT 9999 NCD 29/22 Q1011,2024-08-13T22:50:00Z,29,22,6+,29.85
LICJ,38.176,13.091,200,5,5.75,LICJ 132250Z 20005KT CAVOK 28/23 Q1011,2024-08-13T22:50:00Z,28,23,6+,29.85
LICD,35.498,12.618,160,5,5.75,LICD 132250Z AUTO 16005KT 9999 // NCD 28/24 Q1011,2024-08-13T22:50:00Z,28,24,6+,29.85
LICC,37.467,15.064,260,7,8.06,LICC 132250Z 26007KT CAVOK 28/17 Q1010,2024-08-13T22:50:00Z,28,17,6+,29.82
LICB,36.994,14.606,60,4,4.6,LICB 132250Z AUTO 06004KT 9999 NCD 24/18 Q1012,2024-08-13T22:50:00Z,24,18,6+,29.88
LICA,38.908,16.242,VRB,1,1.15,LICA 132250Z AUTO VRB01KT 9999 FEW024/// 26/20 Q1011,2024-08-13T22:50:00Z,26,20,6+,29.85
LIBR,40.658,17.951,240,8,9.21,LIBR 132250Z 24008KT CAVOK 27/21 Q1009,2024-08-13T22:50:00Z,27,21,6+,29.79
LIBP,42.432,14.181,200,5,5.75,LIBP 132250Z AUTO 20005KT 9999 NCD 23/20 Q1010,2024-08-13T22:50:00Z,23,20,6+,29.82
LIBD,41.138,16.765,270,4,4.6,LIBD 132250Z 27004KT CAVOK 26/19 Q1010,2024-08-13T22:50:00Z,26,19,6+,29.82
LGTS,40.52,22.971,80,6,6.9,LGTS 132250Z 08006KT CAVOK 26/14 Q1010 NOSIG,2024-08-13T22:50:00Z,26,14,6+,29.82
LGSR,36.399,25.479,0,0,0.0,LGSR 132250Z 00000KT CAVOK 25/20 Q1008,2024-08-13T22:50:00Z,25,20,6+,29.76
LGSO,37.422,24.95,VRB,2,2.3,LGSO 132250Z AUTO VRB02KT //// // ////// 27/15 Q1008 RE//,2024-08-13T22:50:00Z,27,15,,29.76
LGSA,35.54,24.141,300,8,9.21,LGSA 132250Z 30008KT CAVOK 24/22 Q1009,2024-08-13T22:50:00Z,24,22,6+,29.79
LGRX,38.151,21.426,0,0,0.0,LGRX 132250Z 00000KT CAVOK 24/21 Q1009,2024-08-13T22:50:00Z,24,21,6+,29.79
LGRP,36.405,28.086,230,11,12.66,LGRP 132250Z 23011KT CAVOK 27/20 Q1006 NOSIG,2024-08-13T22:50:00Z,27,20,6+,29.70
LGPZ,38.921,20.761,0,0,0.0,LGPZ 132250Z 00000KT CAVOK 24/22 Q1009,2024-08-13T22:50:00Z,24,22,6+,29.79
LGPA,37.022,25.114,VRB,3,3.45,LGPA 132250Z AUTO VRB03KT //// // ////// 25/18 Q1008 RE//,2024-08-13T22:50:00Z,25,18,,29.76
LGLM,39.917,25.236,VRB,3,3.45,LGLM 132250Z VRB03KT CAVOK 26/21 Q1008,2024-08-13T22:50:00Z,26,21,6+,29.76
LGKZ,40.288,21.842,320,4,4.6,LGKZ 132250Z AUTO 32004KT //// // ////// 22/08 Q1015 RE//,2024-08-13T22:50:00Z,22,8,,29.97
LGKR,39.61,19.913,0,0,0.0,LGKR 132250Z 00000KT CAVOK 25/22 Q1009 NOSIG,2024-08-13T22:50:00Z,25,22,6+,29.79
LGKO,36.801,27.091,290,8,9.21,LGKO 132250Z 29008KT CAVOK 25/22 Q1007,2024-08-13T22:50:00Z,25,22,6+,29.73
LGKL,37.068,22.026,300,4,4.6,LGKL 132250Z AUTO 30004KT //// // ////// 22/18 Q1009 RE//,2024-08-13T22:50:00Z,22,18,,29.79
LGIR,35.337,25.173,170,4,4.6,LGIR 132250Z 17004KT CAVOK 24/21 Q1009 NOSIG,2024-08-13T22:50:00Z,24,21,6+,29.79
LGIO,39.696,20.823,VRB,1,1.15,LGIO 132250Z AUTO VRB01KT //// // ////// 21/14 Q1013 RE//,2024-08-13T22:50:00Z,21,14,,29.91
LGEL,38.064,23.556,350,4,4.6,LGEL 132250Z AUTO 35004KT //// // ////// 27/09 Q1009 RE//,2024-08-13T22:50:00Z,27,9,,29.79
LGBL,39.22,22.794,270,4,4.6,LGBL 132250Z 27004KT CAVOK 23/12 Q1010,2024-08-13T22:50:00Z,23,12,6+,29.82
LGAV,37.936,23.945,260,3,3.45,LGAV 132250Z 26003KT CAVOK 24/09 Q1009 NOSIG,2024-08-13T22:50:00Z,24,9,6+,29.79
LGAD,37.923,21.287,VRB,3,3.45,LGAD 132250Z VRB03KT CAVOK 24/22 Q1009,2024-08-13T22:50:00Z,24,22,6+,29.79
LCRA,34.59,32.988,250,7,8.06,LCRA 132250Z 25007KT CAVOK 27/25 Q1005 NOSIG,2024-08-13T22:50:00Z,27,25,6+,29.68
LCEN,35.155,33.496,260,8,9.21,LCEN 132250Z 26008KT CAVOK 27/25 Q1006 NOSIG RMK RWY11R 28010KT RWY29R 28010KT RWY11L 29010KT,2024-08-13T22:50:00Z,27,25,6+,29.70
LATI,41.419,19.716,VRB,2,2.3,LATI 132250Z VRB02KT CAVOK 25/17 Q1010 NOSIG,2024-08-13T22:50:00Z,25,17,6+,29.82
KWDG,36.3781,-97.7888,170,13,14.96,KWDG 132250Z 17013G19KT 10SM SCT130 38/20 A2991,2024-08-13T22:50:00Z,38,20,10+,29.91
KVQQ,30.2035,-81.8725,280,5,5.75,KVQQ 132250Z 28005KT 10SM FEW060 35/21 A2995,2024-08-13T22:50:00Z,35,21,10+,29.95
KUCY,36.3778,-88.9878,60,5,5.75,KUCY 132250Z AUTO 06005KT 9SM SCT090 29/23 A3002 RMK A01,2024-08-13T22:50:00Z,29,23,9,30.02
KTIX,28.508,-80.798,180,8,9.21,KTIX 132250Z 18008KT 7SM SCT060 33/24 A2999,2024-08-13T22:50:00Z,33,24,7,29.99
KSUT,33.9292,-78.0722,50,4,4.6,KSUT 132250Z AUTO 05004KT 10SM SCT120 27/21 A3001 RMK AO2 T02650209,2024-08-13T22:50:00Z,26.5,20.9,10+,30.01
KSNH,35.1731,-88.2146,360,7,8.06,KSNH 132250Z AUTO 36007KT 10SM CLR 31/20 A3003 RMK A01,2024-08-13T22:50:00Z,31,20,10+,30.03
KRYY,34.0146,-84.5964,330,8,9.21,KRYY 132250Z 33008G15KT 10SM CLR 32/18 A3005 RMK AO2 SLP152 T03200180 $,2024-08-13T22:50:00Z,32,18,10+,30.05
KRCZ,34.8955,-79.7576,20,3,3.45,KRCZ 132250Z AUTO 02003KT 10SM SCT055 SCT075 24/20 A3005 RMK AO2 T02400200,2024-08-13T22:50:00Z,24,20,10+,30.05
KQFW,-99.99,-99.99,360,5,5.75,KQFW 132250Z AUTO 36005KT 9999 CLR 25/23 A2969 RMK A02 TSNO,2024-08-13T22:50:00Z,25,23,6+,29.69
KQEY,-99.99,-99.99,30,1,1.15,KQEY 132250Z AUTO 03001KT 9999 CLR 26/22 A2956 RMK A02 TSNO,2024-08-13T22:50:00Z,26,22,6+,29.56
KQER,-99.99,-99.99,20,2,2.3,KQER 132250Z AUTO 02002KT 9999 CLR 26/24 A2982 RMK A02 TSNO,2024-08-13T22:50:00Z,26,24,6+,29.82
KPGV,35.6374,-77.3851,0,0,0.0,KPGV 132250Z AUTO 00000KT 7SM OVC090 25/23 A3005 RMK AO2 TSNO,2024-08-13T22:50:00Z,25,23,7,30.05
KOQU,41.5995,-71.4111,320,7,8.06,KOQU 132250Z AUTO 32007KT 10SM SCT070 26/15 A2997,2024-08-13T22:50:00Z,26,15,10+,29.97
KOMN,29.3009,-81.111,40,14,16.11,KOMN 132250Z COR 04014KT 7SM VCSH SCT045 BKN060 33/27 A2997 RMK LAST,2024-08-13T22:50:00Z,33,27,7,29.97
KOLV,34.9808,-89.7851,90,4,4.6,KOLV 132250Z 09004KT 10SM FEW085 32/21 A3002,2024-08-13T22:50:00Z,32,21,10+,30.02
KNQA,35.3619,-89.8612,0,0,0.0,KNQA 132250Z 00000KT 10SM CLR 31/22 A3003,2024-08-13T22:50:00Z,31,22,10+,30.03
KMZJ,32.5147,-111.335,100,4,4.6,KMZJ 132250Z AUTO 10004KT 10SM CLR 38/15 A2989 RMK AO2 LTG DSNT E AND SE,2024-08-13T22:50:00Z,38,15,10+,29.89
KMWK,36.4568,-80.5548,150,3,3.45,KMWK 132250Z AUTO 15003KT 10SM OVC120 24/18 A3012 RMK AO2 T02350180,2024-08-13T22:50:00Z,23.5,18,10+,30.12
KMRC,35.5579,-87.1778,340,3,3.45,KMRC 132250Z AUTO 34003KT 10SM CLR 31/16 A3004 RMK A01,2024-08-13T22:50:00Z,31,16,10+,30.04
KMNV,35.5429,-84.3808,320,4,4.6,KMNV 132250Z AUTO 32004KT 10SM CLR 28/20 A3006 RMK A01,2024-08-13T22:50:00Z,28,20,10+,30.06
KM54,36.1932,-86.3139,310,4,4.6,KM54 132250Z AUTO 31004KT 10SM CLR 28/19 A3005 RMK A01,2024-08-13T22:50:00Z,28,19,10+,30.05
KM04,35.5819,-89.5858,0,0,0.0,KM04 132250Z AUTO 00000KT 10SM CLR 31/22 A3003 RMK A01,2024-08-13T22:50:00Z,31,22,10+,30.03
KLAL,27.9866,-82.0193,320,5,5.75,KLAL 132250Z 32005KT 10SM FEW050 31/26 A3001,2024-08-13T22:50:00Z,31,26,10+,30.01
KJWN,36.1852,-86.8833,360,6,6.9,KJWN 132250Z 36006KT 10SM CLR 28/18 A3006,2024-08-13T22:50:00Z,28,18,10+,30.06
KJAU,36.3351,-84.1635,360,3,3.45,KJAU 132250Z AUTO 36003KT 10SM SCT060 27/14 A3011 RMK A01,2024-08-13T22:50:00Z,27,14,10+,30.11
KHVC,36.8603,-87.4478,10,3,3.45,KHVC 132250Z AUTO 01003KT 10SM BKN070 BKN085 27/19 A3008 RMK AO2,2024-08-13T22:50:00Z,27,19,10+,30.08
KHUM,29.5634,-90.6629,0,0,0.0,KHUM 132250Z 00000KT 7SM CLR 34/24 A3001,2024-08-13T22:50:00Z,34,24,7,30.01
KHSA,30.3765,-89.4554,140,8,9.21,KHSA 132250Z 14008KT 10SM SCT060 29/22 A3001,2024-08-13T22:50:00Z,29,22,10+,30.01
KHRJ,35.3794,-78.7356,50,4,4.6,KHRJ 132250Z AUTO 05004KT 10SM OVC070 25/20 A3006 RMK AO2 T02530202,2024-08-13T22:50:00Z,25.3,20.2,10+,30.06
KHQZ,32.7514,-96.5291,160,9,10.36,KHQZ 132250Z 16009G16KT 10SM CLR 38/19 A2997,2024-08-13T22:50:00Z,38,19,10+,29.97
KHOB,32.6797,-103.222,130,13,14.96,KHOB 132250Z 13013G20KT 10SM SCT110 36/07 A3000,2024-08-13T22:50:00Z,36,7,10+,30.00
KGYI,33.7231,-96.6714,140,12,13.81,KGYI 132250Z 14012G16KT 10SM CLR 36/21 A2998,2024-08-13T22:50:00Z,36,21,10+,29.98
KGWW,35.4637,-77.9604,0,0,0.0,KGWW 132250Z AUTO 00000KT 10SM OVC110 25/20 A3005 RMK AO2 T02470198,2024-08-13T22:50:00Z,24.7,19.8,10+,30.05
KGRY,27.6247,-90.4411,0,0,0.0,KGRY 132250Z AUTO 00000KT 10SM CLR 30/23 A3003 RMK A01,2024-08-13T22:50:00Z,30,23,10+,30.03
KGPM,32.6928,-97.0485,160,10,11.51,KGPM 132250Z 16010KT 10SM SKC 37/17 A2997,2024-08-13T22:50:00Z,37,17,10+,29.97
KFWS,32.558,-97.308,160,11,12.66,KFWS 132250Z 16011KT 10SM FEW070 38/18 A2997,2024-08-13T22:50:00Z,38,18,10+,29.97
KFIN,29.467,-81.207,0,0,0.0,KFIN 132250Z 00000KT 10SM SCT041 BKN050 BKN070 28/24 A2999,2024-08-13T22:50:00Z,28,24,10+,29.99
KFFA,36.0165,-75.6739,0,0,0.0,KFFA 132250Z AUTO 00000KT 10SM SCT120 24/20 A3004 RMK AO2 T02370199,2024-08-13T22:50:00Z,23.7,19.9,10+,30.04
KEYF,34.6042,-78.579,0,0,0.0,KEYF 132250Z AUTO 00000KT 10SM OVC090 26/21 A3003 RMK AO2 T02610210,2024-08-13T22:50:00Z,26.1,21,10+,30.03
KEVB,29.0568,-80.9491,160,5,5.75,KEVB 132250Z 16005KT 10SM SCT035 31/25 A2999,2024-08-13T22:50:00Z,31,25,10+,29.99
KESN,38.804,-76.069,280,3,3.45,KESN 132250Z 28003KT 10SM CLR 26/15 A3003,2024-08-13T22:50:00Z,26,15,10+,30.03
KEDE,36.0286,-76.5668,0,0,0.0,KEDE 132250Z AUTO 00000KT 10SM SCT100 BKN120 26/24 A3005 RMK AO2 T02580242,2024-08-13T22:50:00Z,25.8,24.2,10+,30.05
KDAG,34.8537,-116.787,260,8,9.21,KDAG 132250Z AUTO 26008G22KT 10SM CLR 38/06 A2984 RMK AO2 PK WND 27029/2210 SLP070 T03830056,2024-08-13T22:50:00Z,38.3,5.6,10+,29.84
KCGS,38.9806,-76.9251,320,4,4.6,KCGS 132250Z AUTO 32004KT 10SM OVC100 27/14 A3003 RMK AO2 T02750138,2024-08-13T22:50:00Z,27.5,13.8,10+,30.03
KANE,45.1426,-93.2127,130,8,9.21,KANE 132250Z 13008KT 10SM CLR 27/12 A3010,2024-08-13T22:50:00Z,27,12,10+,30.10
KALN,38.8897,-90.0316,120,5,5.75,KALN 132250Z 12005KT 10SM SCT028 SCT043 25/19 A3009,2024-08-13T22:50:00Z,25,19,10+,30.09
KAEG,35.15,-106.793,220,12,13.81,KAEG 132250Z 22012G21KT 10SM CLR120 27/10 A3015 RMK LTG VC & DSNT SE&NW,2024-08-13T22:50:00Z,27,10,10+,30.15
KADM,34.3007,-97.0089,140,12,13.81,KADM 132250Z 14012KT 10SM CLR 36/21 A2994,2024-08-13T22:50:00Z,36,21,10+,29.94
K2W6,38.315,-76.55,0,0,0.0,K2W6 132250Z AUTO 00000KT 10SM SCT100 26/15 A3005 RMK AO1,2024-08-13T22:50:00Z,26,15,10+,30.05
K24A,35.3156,-83.2071,0,0,0.0,K24A 132250Z AUTO 00000KT 10SM BKN044 BKN049 24/17 A3014 RMK AO2 LTG DSNT SE T02440172,2024-08-13T22:50:00Z,24.4,17.2,10+,30.14
K05U,39.6015,-116.006,230,11,12.66,K05U 132250Z AUTO 23011G18KT 10SM CLR 29/M09 A3008 RMK A01,2024-08-13T22:50:00Z,29,-9,10+,30.08
FHAW,-7.97,-14.394,140,13,14.96,FHAW 132250Z 14013KT 9999 SCT020 24/19 Q1017 TEMPO FEW020 RMK WHT TEMPO BLU,2024-08-13T22:50:00Z,24,19,6+,30.03
EYVI,54.634,25.286,VRB,1,1.15,EYVI 132250Z VRB01KT 9999 MIFG NSC 11/11 Q1019 TEMPO 0350 FG VV002,2024-08-13T22:50:00Z,11,11,6+,30.09
EYSA,55.894,23.395,0,0,0.0,EYSA 132250Z AUTO 00000KT CAVOK 12/10 Q1019 NOSIG,2024-08-13T22:50:00Z,12,10,6+,30.09
EYPA,55.973,21.092,60,2,2.3,EYPA 132250Z AUTO 06002KT 9999 FEW003/// 13/12 Q1019,2024-08-13T22:50:00Z,13,12,6+,30.09
EYKA,54.962,24.069,0,0,0.0,EYKA 132250Z AUTO 00000KT 9999 NCD 12/11 Q1019,2024-08-13T22:50:00Z,12,11,6+,30.09
EVVA,57.361,21.545,0,0,0.0,EVVA 132250Z AUTO 00000KT 0650 FG VV001 12/12 Q1019,2024-08-13T22:50:00Z,12,12,0.4,30.09
EVRA,56.924,23.968,VRB,1,1.15,EVRA 132250Z VRB01KT 9999 1300 R18/P2000N BCFG SCT002 11/11 Q1018 NOSIG,2024-08-13T22:50:00Z,11,11,6+,30.06
EVLA,56.517,21.097,80,3,3.45,EVLA 132250Z AUTO 08003KT 2300 R24/1400U R06/P2000N BR FEW003/// 11/11 Q1018,2024-08-13T22:50:00Z,11,11,1.43,30.06
EVGA,56.778,24.854,210,2,2.3,EVGA 132250Z 21002KT CAVOK 13/12 Q1018 NOSIG,2024-08-13T22:50:00Z,13,12,6+,30.06
ETNG,50.964,6.032,VRB,2,2.3,ETNG 132250Z VRB02KT 9999 FEW046 BKN250 20/20 Q1010,2024-08-13T22:50:00Z,20,20,6+,29.82
ESUT,65.806,15.083,VRB,1,1.15,ESUT 132250Z AUTO VRB01KT 9999 NCD 10/10 Q1014,2024-08-13T22:50:00Z,10,10,6+,29.94
ESUP,67.246,23.069,0,0,0.0,ESUP 132250Z AUTO 00000KT 9999 // NCD 10/10 Q1016,2024-08-13T22:50:00Z,10,10,6+,30.00
ESTL,56.083,13.213,100,3,3.45,ESTL 132250Z AUTO 10003KT 9999 NCD 14/14 Q1016,2024-08-13T22:50:00Z,14,14,6+,30.00
ESTA,56.294,12.848,110,9,10.36,ESTA 132250Z AUTO 11009KT 9999 SCT140/// 15/13 Q1016,2024-08-13T22:50:00Z,15,13,6+,30.00
ESSV,57.662,18.348,160,3,3.45,ESSV 132250Z AUTO 16003KT 9999 SCT170/// 14/12 Q1019,2024-08-13T22:50:00Z,14,12,6+,30.09
ESST,60.158,12.992,0,0,0.0,ESST 132250Z AUTO 00000KT 9999 BKN110/// 11/11 Q1016,2024-08-13T22:50:00Z,11,11,6+,30.00
ESSP,58.584,16.255,70,4,4.6,ESSP 132250Z AUTO 07004KT 9999 OVC140/// 15/12 Q1017,2024-08-13T22:50:00Z,15,12,6+,30.03
ESSL,58.406,15.681,170,6,6.9,ESSL 132250Z AUTO 17006KT 9999 ///////// 18/12 Q1017,2024-08-13T22:50:00Z,18,12,6+,30.03
ESSD,60.422,15.515,210,3,3.45,ESSD 132250Z AUTO 21003KT 9999 OVC100/// 16/14 Q1016,2024-08-13T22:50:00Z,16,14,6+,30.00
ESSB,59.356,17.933,140,3,3.45,ESSB 132250Z AUTO 14003KT 9999 BKN150/// OVC170/// 17/13 Q1018,2024-08-13T22:50:00Z,17,13,6+,30.06
ESSA,59.664,17.92,210,5,5.75,ESSA 132250Z 21005KT CAVOK 16/12 Q1017 NOSIG,2024-08-13T22:50:00Z,16,12,6+,30.03
ESPE,65.875,20.144,270,1,1.15,ESPE 132250Z AUTO 27001KT 9999 NCD 11/11 Q1016,2024-08-13T22:50:00Z,11,11,6+,30.00
ESPA,65.541,22.126,0,0,0.0,ESPA 132250Z AUTO 00000KT 9999 BR NCD 14/13 Q1016,2024-08-13T22:50:00Z,14,13,6+,30.00
ESOW,59.595,16.638,160,3,3.45,ESOW 132250Z AUTO 16003KT 9999 BKN120/// 18/12 Q1017,2024-08-13T22:50:00Z,18,12,6+,30.03
ESOK,59.442,13.342,80,3,3.45,ESOK 132250Z AUTO 08003KT 9999 NCD 11/11 Q1016,2024-08-13T22:50:00Z,11,11,6+,30.00
ESOH,60.02,13.579,0,0,0.0,ESOH 132250Z AUTO 00000KT 9999 NCD 10/09 Q1016,2024-08-13T22:50:00Z,10,9,6+,30.00
ESOE,59.229,15.046,VRB,2,2.3,ESOE 132250Z VRB02KT CAVOK 15/14 Q1017,2024-08-13T22:50:00Z,15,14,6+,30.03
ESNZ,63.199,14.489,170,15,17.26,ESNZ 132250Z AUTO 17015KT 9999 FEW130/// SCT150/// 17/07 Q1013,2024-08-13T22:50:00Z,17,7,6+,29.91
ESNX,65.592,19.283,110,5,5.75,ESNX 132250Z AUTO 11005KT 9999 NCD 12/12 Q1016,2024-08-13T22:50:00Z,12,12,6+,30.00
ESNV,64.579,16.839,70,4,4.6,ESNV 132250Z AUTO 07004KT 9999 NCD ///// Q1015,2024-08-13T22:50:00Z,,,6+,29.97
ESNU,63.789,20.285,VRB,1,1.15,ESNU 132250Z VRB01KT 9999 BCFG NSC 10/10 Q1016,2024-08-13T22:50:00Z,10,10,6+,30.00
ESNS,64.625,21.077,270,2,2.3,ESNS 132250Z AUTO 27002KT 0350 R10/1900N R28/P2000N BCFG NCD 11/11 Q1016,2024-08-13T22:50:00Z,11,11,0.22,30.00
ESNQ,67.823,20.34,250,3,3.45,ESNQ 132250Z AUTO 25003KT 9999 NCD 11/10 Q1016,2024-08-13T22:50:00Z,11,10,6+,30.00
ESNO,63.412,18.98,VRB,1,1.15,ESNO 132250Z AUTO VRB01KT 0100 R12/0375U R30/P2000N FG BKN001/// 10/10 Q1016,2024-08-13T22:50:00Z,10,10,0.06,30.00
ESNN,62.532,17.436,330,2,2.3,ESNN 132250Z AUTO 33002KT 9999 OVC120/// 15/14 Q1016,2024-08-13T22:50:00Z,15,14,6+,30.00
ESNL,64.552,18.711,VRB,2,2.3,ESNL 132250Z AUTO VRB02KT 7000 NCD 13/12 Q1016,2024-08-13T22:50:00Z,13,12,4.35,30.00
ESNK,63.047,17.766,0,0,0.0,ESNK 132250Z AUTO 00000KT 9999 OVC110/// 15/14 Q1016,2024-08-13T22:50:00Z,15,14,6+,30.00
ESNG,67.133,20.81,0,0,0.0,ESNG 132250Z AUTO 00000KT 8000 BR NCD 10/09 Q1016,2024-08-13T22:50:00Z,10,9,4.97,30.00
ESND,62.047,14.416,120,1,1.15,ESND 132250Z AUTO 12001KT 9999 SCT098/// BKN130/// OVC160/// 14/10 Q1016,2024-08-13T22:50:00Z,14,10,6+,30.00
ESMX,56.927,14.73,140,6,6.9,ESMX 132250Z 14006KT 100V160 CAVOK 16/10 Q1018,2024-08-13T22:50:00Z,16,10,6+,30.06
ESMV,57.29,14.134,120,3,3.45,ESMV 132250Z AUTO 12003KT 9999 OVC150/// 16/11 Q1017,2024-08-13T22:50:00Z,16,11,6+,30.03
ESMT,56.691,12.82,140,7,8.06,ESMT 132250Z AUTO 14007KT 110V170 9999 NCD 16/12 Q1016,2024-08-13T22:50:00Z,16,12,6+,30.00
ESMS,55.539,13.373,110,8,9.21,ESMS 132250Z 11008KT CAVOK 17/14 Q1015,2024-08-13T22:50:00Z,17,14,6+,29.97
ESMQ,56.685,16.284,310,2,2.3,ESMQ 132250Z AUTO 31002KT 6000 NCD 09/09 Q1018,2024-08-13T22:50:00Z,9,9,3.73,30.06
ESMK,55.922,14.085,VRB,3,3.45,ESMK 132250Z AUTO VRB03KT 2300 NCD 14/14 Q1017,2024-08-13T22:50:00Z,14,14,1.43,30.03
ESKS,61.165,12.834,130,6,6.9,ESKS 132250Z AUTO 13006KT 9999 FEW092/// 11/09 Q1016,2024-08-13T22:50:00Z,11,9,6+,30.00
ESKN,58.786,16.918,190,3,3.45,ESKN 132250Z 19003KT CAVOK 16/11 Q1018,2024-08-13T22:50:00Z,16,11,6+,30.06
ESKM,60.96,14.507,220,3,3.45,ESKM 132250Z AUTO 22003KT 9999 BKN120/// 15/12 Q1016,2024-08-13T22:50:00Z,15,12,6+,30.00
ESIB,58.431,12.71,150,6,6.9,ESIB 132250Z AUTO 15006KT 9999 NCD 15/11 Q1015,2024-08-13T22:50:00Z,15,11,6+,29.97
ESIA,58.514,14.507,220,5,5.75,ESIA 132250Z AUTO 22005KT 9999 OVC130/// 18/15 Q1017,2024-08-13T22:50:00Z,18,15,6+,30.03
ESGT,58.314,12.347,150,7,8.06,ESGT 132250Z AUTO 15007KT 9999 NCD 14/11 Q1016,2024-08-13T22:50:00Z,14,11,6+,30.00
ESGP,57.781,11.869,130,6,6.9,ESGP 132250Z AUTO 13006KT 9999 SCT170/// 17/09 Q1015,2024-08-13T22:50:00Z,17,9,6+,29.97
ESGJ,57.752,14.069,170,5,5.75,ESGJ 132250Z 17005KT CAVOK 17/11 Q1017,2024-08-13T22:50:00Z,17,11,6+,30.03
ESGG,57.667,12.285,150,6,6.9,ESGG 132250Z 15006KT CAVOK 16/09 Q1016,2024-08-13T22:50:00Z,16,9,6+,30.00
ESDF,56.266,15.267,90,4,4.6,ESDF 132250Z AUTO 09004KT 9999 BKN190/// 14/14 Q1017,2024-08-13T22:50:00Z,14,14,6+,30.03
ESCM,59.899,17.589,,,,ESCM 132250Z AUTO /////KT 9999 BKN120/// 18/14 Q1017,2024-08-13T22:50:00Z,18,14,6+,30.03
ESCF,58.398,15.526,180,5,5.75,ESCF 132250Z AUTO 18005KT 9999 2300// OVC150/// 17/13 Q1017,2024-08-13T22:50:00Z,17,13,6+,30.03
ENZV,58.884,5.637,150,9,10.36,ENZV 132250Z 15009KT CAVOK 20/14 Q1009,2024-08-13T22:50:00Z,20,14,6+,29.79
ENWV,56.278,3.395,170,17,19.56,ENWV 132250Z AUTO 17017KT 9999NDV NCD 17/15 Q1010 W///S3,2024-08-13T22:50:00Z,17,15,,29.82
ENVD,70.065,29.835,70,5,5.75,ENVD 132250Z AUTO 07005KT 1000 BR VV001 12/11 Q1018,2024-08-13T22:50:00Z,12,11,0.62,30.06
ENVA,63.46,10.931,80,7,8.06,ENVA 132250Z 08007KT CAVOK 20/08 Q1009 RMK WIND 670FT 13010KT,2024-08-13T22:50:00Z,20,8,6+,29.79
ENUN,-99.99,-99.99,120,15,17.26,ENUN 132250Z AUTO 12015KT CAVOK 15/14 Q1007 W14/S3,2024-08-13T22:50:00Z,15,14,6+,29.73
ENUG,71.305,22.253,90,15,17.26,ENUG 132250Z AUTO 09015KT 9999NDV NCD 15/13 Q1013 W///S3,2024-08-13T22:50:00Z,15,13,,29.91
ENTO,59.184,10.255,360,2,2.3,ENTO 132250Z AUTO 36002KT 9999 OVC110/// 15/13 Q1015,2024-08-13T22:50:00Z,15,13,6+,29.97
ENTC,69.675,18.916,0,0,0.0,ENTC 132250Z AUTO 00000KT 9999 NCD 13/11 Q1013 RMK WIND 2600FT 18022KT,2024-08-13T22:50:00Z,13,11,6+,29.91
ENSS,70.355,31.044,0,0,0.0,ENSS 132250Z AUTO 00000KT 2200 BR BKN001/// OVC002/// 11/11 Q1018 RMK WIND 0500FT 06004KT,2024-08-13T22:50:00Z,11,11,1.37,30.06
ENSR,69.789,20.955,VRB,1,1.15,ENSR 132250Z AUTO VRB01KT 9999 NCD 12/12 Q1013 RMK WIND RWY 32 00000KT WIND 1119FT 13011KT,2024-08-13T22:50:00Z,12,12,6+,29.91
ENSL,58.367,1.907,200,25,28.77,ENSL 132250Z AUTO 20025KT 9999 OVC036/// 16/14 Q1006 W15/S4,2024-08-13T22:50:00Z,16,14,6+,29.70
ENSK,68.58,15.029,60,1,1.15,ENSK 132250Z AUTO 06001KT 9999 NCD 16/14 Q1011,2024-08-13T22:50:00Z,16,14,6+,29.85
ENSH,68.245,14.669,110,10,11.51,ENSH 132250Z AUTO 11010KT 9999 NCD 20/13 Q1010 RMK WIND 0150FT /////KT,2024-08-13T22:50:00Z,20,13,6+,29.82
ENSG,61.158,7.141,70,4,4.6,ENSG 132250Z AUTO 07004KT 020V110 9999 NCD 16/09 Q1010 RMK WIND 3806FT 12016KT,2024-08-13T22:50:00Z,16,9,6+,29.82
ENSF,61.25,1.85,190,37,42.58,ENSF 132250Z AUTO 19037KT 4600 BR OVC019/// 15/12 Q1002 W///S4,2024-08-13T22:50:00Z,15,12,2.86,29.59
ENSE,61.45,2.15,160,27,31.07,ENSE 132250Z AUTO 16027KT 8000 OVC041/// 14/13 Q1003 W///S4,2024-08-13T22:50:00Z,14,13,4.97,29.62
ENSD,61.829,6.104,VRB,2,2.3,ENSD 132250Z AUTO VRB02KT 9999 FEW062/// 15/13 Q1007 RMK WIND RWY 26 00000KT WIND 1140FT VRB03KT,2024-08-13T22:50:00Z,15,13,6+,29.73
ENSB,78.246,15.466,VRB,4,4.6,ENSB 132250Z VRB04KT 9999 SCT020 BKN028 09/05 Q1010 RMK WIND 1400FT 21008KT,2024-08-13T22:50:00Z,9,5,6+,29.82
ENRY,59.381,10.783,60,2,2.3,ENRY 132250Z 06002KT CAVOK 14/12 Q1015,2024-08-13T22:50:00Z,14,12,6+,29.97
ENRS,67.527,12.104,110,10,11.51,ENRS 132250Z AUTO 11010KT 9999 SCT108/// BKN147/// 17/15 Q1009,2024-08-13T22:50:00Z,17,15,6+,29.79
ENRO,62.578,11.342,180,5,5.75,ENRO 132250Z AUTO 18005KT 100V220 9999 OVC157/// 14/05 Q1013,2024-08-13T22:50:00Z,14,5,6+,29.91
ENRM,64.835,11.141,100,7,8.06,ENRM 132250Z AUTO 10007KT 060V130 //// R22///// NCD 19/12 Q1008,2024-08-13T22:50:00Z,19,12,,29.76
ENRA,66.364,14.302,110,6,6.9,ENRA 132250Z AUTO 11006KT 060V150 9999 ///////// 20/12 Q1011,2024-08-13T22:50:00Z,20,12,6+,29.85
ENQR,61.53,2.22,160,28,32.22,ENQR 132250Z AUTO 16028KT 9999 -SHRA OVC047/// 15/13 Q1003 W25/S5,2024-08-13T22:50:00Z,15,13,6+,29.62
ENQC,60.886,3.61,170,33,37.98,ENQC 132250Z AUTO 17033KT 0750 -RAFG VV250 15/15 Q1004 W///S4,2024-08-13T22:50:00Z,15,15,0.47,29.65
ENQA,60.645,3.725,180,37,42.58,ENQA 132250Z AUTO 18037KT 0100 -SHRA OVC001/// 15/15 Q1005 W///S5,2024-08-13T22:50:00Z,15,15,0.06,29.68
ENOV,62.18,6.078,VRB,2,2.3,ENOV 132250Z AUTO VRB02KT 9999 BKN066/// 14/13 Q1006 RMK WIND RWY 24 VRB02KT WIND 2090FT 16015KT,2024-08-13T22:50:00Z,14,13,6+,29.70
ENOL,63.703,9.609,120,15,17.26,ENOL 132250Z 12015KT CAVOK 19/11 Q1007,2024-08-13T22:50:00Z,19,11,6+,29.73
ENOA,60.492,2.827,170,32,36.82,ENOA 132250Z 17032KT 9999 FEW005 BKN050 15/15 Q1004 W///S5,2024-08-13T22:50:00Z,15,15,6+,29.65
ENNM,64.471,11.57,70,4,4.6,ENNM 132250Z AUTO 07004KT 030V150 9999 OVC127/// 17/12 Q1009,2024-08-13T22:50:00Z,17,12,6+,29.79
ENNE,66.03,8.08,110,8,9.21,ENNE 132250Z AUTO 11008KT CAVOK 16/14 Q1006 W///S3,2024-08-13T22:50:00Z,16,14,6+,29.70
ENNA,70.059,24.971,VRB,2,2.3,ENNA 132250Z AUTO VRB02KT 9999 FEW100/// 10/10 Q1016 RMK WIND 1800FT 17017KT,2024-08-13T22:50:00Z,10,10,6+,30.00
ENMS,65.784,13.218,0,0,0.0,ENMS 132250Z AUTO 00000KT 9999 NCD 14/12 Q1011 RMK WIND 412FT VRB02KT,2024-08-13T22:50:00Z,14,12,6+,29.85
ENML,62.744,7.262,260,5,5.75,ENML 132250Z AUTO 26005KT 9999NDV SCT190/// 16/15 Q1006,2024-08-13T22:50:00Z,16,15,,29.70
ENMH,71.029,27.829,VRB,2,2.3,ENMH 132250Z AUTO VRB02KT 9999 BKN226/// 09/09 Q1016,2024-08-13T22:50:00Z,9,9,6+,30.00
ENLA,57.111,2.846,170,19,21.86,ENLA 132250Z AUTO 17019KT 9999NDV BKN041/// 17/16 Q1008 W///S3,2024-08-13T22:50:00Z,17,16,,29.76
ENKR,69.725,29.898,110,3,3.45,ENKR 132250Z AUTO 11003KT 9999 OVC004/// 12/11 Q1018 RMK WIND 731FT 10005KT,2024-08-13T22:50:00Z,12,11,6+,30.06
ENKB,63.109,7.816,120,5,5.75,ENKB 132250Z AUTO 12005KT 060V160 9999 FEW130/// BKN170/// 20/10 Q1006 RMK WIND 745FT 15014KT,2024-08-13T22:50:00Z,20,10,6+,29.70
ENJS,58.835,2.545,170,31,35.67,ENJS 132250Z 17031KT 9999 BKN030 16/14 Q1006 W15/S4,2024-08-13T22:50:00Z,16,14,6+,29.70
ENHV,71.009,25.982,0,0,0.0,ENHV 132250Z AUTO 00000KT 9999 NCD 13/12 Q1015,2024-08-13T22:50:00Z,13,12,6+,29.97
ENHK,70.487,22.14,90,10,11.51,ENHK 132250Z AUTO 09010KT 9999 NCD 18/13 Q1013,2024-08-13T22:50:00Z,18,13,6+,29.91
ENHF,70.681,23.677,260,3,3.45,ENHF 132250Z AUTO 26003KT 190V320 9999 NCD 17/12 Q1014 RMK WIND 1254FT 19013KT,2024-08-13T22:50:00Z,17,12,6+,29.94
ENHE,65.325,2.327,120,7,8.06,ENHE 132250Z 12007KT CAVOK 16/13 Q1006 W///S3,2024-08-13T22:50:00Z,16,13,6+,29.70
ENHD,59.341,5.22,180,9,10.36,ENHD 132250Z AUTO 18009KT 9999 BKN036/// OVC100/// 19/14 Q1009,2024-08-13T22:50:00Z,19,14,6+,29.79
ENGM,60.201,11.08,330,2,2.3,ENGM 132250Z 33002KT CAVOK 12/11 Q1015,2024-08-13T22:50:00Z,12,11,6+,29.97
ENGC,61.033,2.033,180,29,33.37,ENGC 132250Z 18029KT 4500 BR SCT006 BKN045 14/14 Q1003 W13/S4,2024-08-13T22:50:00Z,14,14,2.8,29.62
ENFL,61.582,5.02,160,15,17.26,ENFL 132250Z AUTO 16015KT 9999NDV OVC030/// 19/14 Q1007,2024-08-13T22:50:00Z,19,14,,29.73
ENFB,61.206,1.829,160,39,44.88,ENFB 132250Z AUTO 16039KT 9000 -SHRA BKN017/// 14/13 Q1001 W///S4,2024-08-13T22:50:00Z,14,13,5.59,29.56
ENEV,68.491,16.683,VRB,2,2.3,ENEV 132250Z VRB02KT CAVOK 14/13 Q1012 RMK WIND 1400FT 15012KT,2024-08-13T22:50:00Z,14,13,6+,29.88
ENDU,69.058,18.544,0,0,0.0,ENDU 132250Z 00000KT 9999 FEW001 12/11 Q1013 RMK WIND 1100FT 17007KT WIND 2200FT 15010KT,2024-08-13T22:50:00Z,12,11,6+,29.91
ENCN,58.2,8.077,50,8,9.21,ENCN 132250Z AUTO 05008KT 9999 FEW028/// SCT035/// OVC048/// 17/15 Q1013,2024-08-13T22:50:00Z,17,15,6+,29.91
ENBV,70.871,29.032,VRB,1,1.15,ENBV 132250Z AUTO VRB01KT 9999 NCD 10/10 Q1017,2024-08-13T22:50:00Z,10,10,6+,30.03
ENBS,70.601,29.698,190,10,11.51,ENBS 132250Z AUTO 19010KT 9999 NCD 11/11 Q1018,2024-08-13T22:50:00Z,11,11,6+,30.06
ENBR,60.29,5.222,170,5,5.75,ENBR 132250Z 17005KT 9999 BKN040 17/16 Q1008 RMK WIND 1200FT 17017KT,2024-08-13T22:50:00Z,17,16,6+,29.76
ENBO,67.267,14.359,110,14,16.11,ENBO 132250Z AUTO 11014KT 9999 NCD 20/12 Q1010,2024-08-13T22:50:00Z,20,12,6+,29.82
ENBN,65.458,12.216,110,10,11.51,ENBN 132250Z AUTO 11010KT 080V150 9999NDV BKN130/// BKN150/// 21/11 Q1009,2024-08-13T22:50:00Z,21,11,,29.79
ENBL,61.391,5.76,0,0,0.0,ENBL 132250Z AUTO 00000KT 9999 OVC051/// 14/13 Q1008,2024-08-13T22:50:00Z,14,13,6+,29.76
ENAT,69.978,23.358,160,5,5.75,ENAT 132250Z AUTO 16005KT 9999 NCD 18/11 Q1015 RMK WIND 700FT 17010KT,2024-08-13T22:50:00Z,18,11,6+,29.97
ENAN,69.307,16.131,180,6,6.9,ENAN 132250Z AUTO 18006KT 9999 NCD 14/11 Q1011,2024-08-13T22:50:00Z,14,11,6+,29.85
ENAL,62.562,6.115,VRB,2,2.3,ENAL 132250Z AUTO VRB02KT 9999 FEW069/// 15/12 Q1006,2024-08-13T22:50:00Z,15,12,6+,29.70
ELLX,49.626,6.204,340,9,10.36,ELLX 132250Z 34009KT 9999 FEW040CB 20/18 Q1011 NOSIG,2024-08-13T22:50:00Z,20,18,6+,29.85
EKYT,57.093,9.879,110,14,16.11,EKYT 132250Z AUTO 11014KT 9999 -RA FEW076/// BKN130/// 18/14 Q1012,2024-08-13T22:50:00Z,18,14,6+,29.88
EKVJ,55.991,8.354,170,12,13.81,EKVJ 132250Z AUTO 17012KT 120V210 0600 R27/P1500N +RA FEW025/// BKN075/// 19/18 Q1012 TEST,2024-08-13T22:50:00Z,19,18,0.37,29.88
EKVG,62.065,-7.282,270,6,6.9,EKVG 132250Z AUTO 27006KT 9999 OVC005/// 12/12 Q0994 RMK OVC004/// WIND SKEID 27009KT,2024-08-13T22:50:00Z,12,12,6+,29.35
EKVD,55.436,9.329,70,9,10.36,EKVD 132250Z AUTO 07009KT //// ///////// 18/17 Q1014,2024-08-13T22:50:00Z,18,17,,29.94
EKSP,55.225,9.263,60,9,10.36,EKSP 132250Z 06009KT 010V090 9999 TS FEW022 SCT060CB BKN100 18/17 Q1013,2024-08-13T22:50:00Z,18,17,6+,29.91
EKSB,54.962,9.787,VRB,3,3.45,EKSB 132250Z AUTO VRB03G17KT 9999 FEW023/// BKN060/// BKN140/// 21/17 Q1013,2024-08-13T22:50:00Z,21,17,6+,29.91
EKRS,55.426,11.807,110,5,5.75,EKRS 132250Z AUTO 11005KT 040V180 9999 NCD 17/17 Q1014,2024-08-13T22:50:00Z,17,17,6+,29.94
EKRN,55.068,14.749,110,11,12.66,EKRN 132250Z AUTO 11011KT 9999 NCD 18/14 Q1016,2024-08-13T22:50:00Z,18,14,6+,30.00
EKRK,55.587,12.136,120,11,12.66,EKRK 132250Z AUTO 12011KT 9999 NCD 17/16 Q1015,2024-08-13T22:50:00Z,17,16,6+,29.97
EKKA,56.293,9.114,180,7,8.06,EKKA 132250Z 18007KT 130V230 9999 SHRA FEW070CB BKN110 18/17 Q1012,2024-08-13T22:50:00Z,18,17,6+,29.88
EKEB,55.528,8.563,70,21,24.17,EKEB 132250Z AUTO 07021KT 9999 -RA NCD 19/18 Q1010 RERA,2024-08-13T22:50:00Z,19,18,6+,29.82
EKCH,55.618,12.656,120,12,13.81,EKCH 132250Z AUTO 12012KT 9999 BKN170/// 18/15 Q1015 NOSIG,2024-08-13T22:50:00Z,18,15,6+,29.97
EKBI,55.74,9.152,140,10,11.51,EKBI 132250Z 14010KT 9999 TSRA SCT060CB BKN096 18/16 Q1014,2024-08-13T22:50:00Z,18,16,6+,29.94
EKAH,56.3,10.619,120,3,3.45,EKAH 132250Z AUTO 12003KT 9999 FEW057/// OVC120/// 19/16 Q1014,2024-08-13T22:50:00Z,19,16,6+,29.94
EGYP,-51.82,-58.448,110,10,11.51,EGYP 132250Z 11010KT 9999 BKN045 M02/M04 Q1014,2024-08-13T22:50:00Z,-2,-4,6+,29.94
EGYM,52.648,0.567,260,6,6.9,EGYM 132250Z 26006KT 9999 -RA BKN100 19/14 Q1010 RMK BLU,2024-08-13T22:50:00Z,19,14,6+,29.82
EGYH,52.873,0.139,310,6,6.9,EGYH 132250Z AUTO 31006KT 9999 BKN100/// 17/11 Q1010,2024-08-13T22:50:00Z,17,11,6+,29.82
EGYE,52.962,-0.562,290,7,8.06,EGYE 132250Z AUTO 29007KT //// BKN180/// 16/12 Q1011,2024-08-13T22:50:00Z,16,12,,29.85
EGYD,53.031,-0.503,300,3,3.45,EGYD 132250Z AUTO 30003KT 9999 OVC170/// 18/12 Q1010,2024-08-13T22:50:00Z,18,12,6+,29.82
EGXZ,54.205,-1.39,320,5,5.75,EGXZ 132250Z AUTO 32005KT 9999 // OVC026/// 16/14 Q1010,2024-08-13T22:50:00Z,16,14,6+,29.82
EGXW,53.175,-0.523,300,6,6.9,EGXW 132250Z AUTO 30006KT 9999 OVC180/// 18/13 Q1010,2024-08-13T22:50:00Z,18,13,6+,29.82
EGXV,53.876,-0.435,280,5,5.75,EGXV 132250Z AUTO 28005KT 9999 FEW200/// 18/14 Q1009,2024-08-13T22:50:00Z,18,14,6+,29.79
EGXT,52.611,-0.461,260,4,4.6,EGXT 132250Z AUTO 26004KT 9999 OVC160/// 17/11 Q1010,2024-08-13T22:50:00Z,17,11,6+,29.82
EGXS,53.475,0.152,310,6,6.9,EGXS 132250Z AUTO 31006KT 9999 NCD 18/13 Q1010,2024-08-13T22:50:00Z,18,13,6+,29.82
EGXE,54.297,-1.533,310,4,4.6,EGXE 132250Z AUTO 31004KT 9999 OVC029/// 15/14 Q1010,2024-08-13T22:50:00Z,15,14,6+,29.82
EGXC,53.094,-0.173,350,2,2.3,EGXC 132250Z 35002KT CAVOK 19/12 Q1010 RMK BLU,2024-08-13T22:50:00Z,19,12,6+,29.82
EGWU,51.549,-0.417,250,6,6.9,EGWU 132250Z AUTO 25006KT 9999 FEW094/// SCT100/// BKN230/// 18/14 Q1011,2024-08-13T22:50:00Z,18,14,6+,29.85
EGWC,52.64,-2.311,330,8,9.21,EGWC 132250Z AUTO 33008KT //// ///////// ///// Q////,2024-08-13T22:50:00Z,,,,
EGVP,51.139,-1.569,230,2,2.3,EGVP 132250Z 23002KT 9999 SCT013 BKN016 17/15 Q1011 TEMPO FEW014 RMK GRN TEMPO WHT,2024-08-13T22:50:00Z,17,15,6+,29.85
EGVO,51.239,-0.945,210,4,4.6,EGVO 132250Z 21004KT CAVOK 17/14 Q1011 TEMPO BKN020 RMK BLU TEMPO WHT,2024-08-13T22:50:00Z,17,14,6+,29.85
EGVN,51.758,-1.578,190,3,3.45,EGVN 132250Z 19003KT 9999 FEW014 SCT026 BKN080 18/16 Q1011 BECMG BKN014 RMK BLU BECMG GRN,2024-08-13T22:50:00Z,18,16,6+,29.85
EGUW,52.124,0.957,260,8,9.21,EGUW 132250Z AUTO 26008KT 9999 -RA OVC100/// 19/16 Q1010,2024-08-13T22:50:00Z,19,16,6+,29.82
EGUB,51.62,-1.099,190,5,5.75,EGUB 132250Z 19005KT 9999 -RA BKN028 BKN070 17/14 Q1011 TEMPO SCT020 RMK BLU TEMPO WHT,2024-08-13T22:50:00Z,17,14,6+,29.85
EGTE,50.737,-3.406,240,4,4.6,EGTE 132250Z 24004KT 9999 SCT014 BKN030 17/17 Q1010,2024-08-13T22:50:00Z,17,17,6+,29.82
EGSY,51.406,-3.434,260,3,3.45,EGSY 132250Z AUTO 26003KT 9999 OVC018/// 18/17 Q1010,2024-08-13T22:50:00Z,18,17,6+,29.82
EGSS,51.881,0.223,260,3,3.45,EGSS 132250Z AUTO 26003KT 9999 NCD 19/13 Q1011,2024-08-13T22:50:00Z,19,13,6+,29.85
EGSH,52.676,1.283,240,4,4.6,EGSH 132250Z AUTO 24004KT 9999 NCD 20/14 Q1010,2024-08-13T22:50:00Z,20,14,6+,29.82
EGQS,57.711,-3.324,250,20,23.02,EGQS 132250Z 25020KT 9999 BKN034 14/09 Q1005 RMK BLU,2024-08-13T22:50:00Z,14,9,6+,29.68
EGQM,55.421,-1.601,260,4,4.6,EGQM 132250Z AUTO 26004KT 9999 OVC200/// 13/09 Q1010,2024-08-13T22:50:00Z,13,9,6+,29.82
EGQL,56.377,-2.862,250,11,12.66,EGQL 132250Z 25011KT CAVOK 13/09 Q1008 RMK BLU,2024-08-13T22:50:00Z,13,9,6+,29.76
EGQK,57.646,-3.563,250,15,17.26,EGQK 132250Z AUTO 25015KT 9999 OVC026/// 14/09 Q1006,2024-08-13T22:50:00Z,14,9,6+,29.70
EGQA,57.825,-3.955,250,12,13.81,EGQA 132250Z AUTO 25012KT 9999 BKN029/// BKN043/// 14/08 Q1005,2024-08-13T22:50:00Z,14,8,6+,29.68
EGPO,58.215,-6.329,240,6,6.9,EGPO 132250Z AUTO 24006KT 9999 FEW021/// 12/09 Q1006,2024-08-13T22:50:00Z,12,9,6+,29.70
EGPL,57.475,-7.364,270,18,20.71,EGPL 132250Z AUTO 27018KT 9999 SCT005/// 13/10 Q1008,2024-08-13T22:50:00Z,13,10,6+,29.76
EGPK,55.509,-4.587,280,9,10.36,EGPK 132250Z 28009KT 9999 FEW019 SCT031 BKN047 14/10 Q1011,2024-08-13T22:50:00Z,14,10,6+,29.85
EGPI,55.681,-6.25,300,8,9.21,EGPI 132250Z AUTO 30008KT 9999 FEW019/// FEW037/// 13/11 Q1011,2024-08-13T22:50:00Z,13,11,6+,29.85
EGPH,55.952,-3.36,240,7,8.06,EGPH 132250Z 24007KT 9999 BKN037 13/10 Q1010,2024-08-13T22:50:00Z,13,10,6+,29.82
EGPF,55.867,-4.433,250,9,10.36,EGPF 132250Z AUTO 25009KT 9999 BKN042 13/10 Q1010,2024-08-13T22:50:00Z,13,10,6+,29.82
EGPE,57.538,-4.053,250,13,14.96,EGPE 132250Z AUTO 25013KT 2400 -RA BKN029/// 14/09 Q1007,2024-08-13T22:50:00Z,14,9,1.49,29.73
EGPD,57.205,-2.205,240,6,6.9,EGPD 132250Z AUTO 24006KT 200V270 9999 SCT039 13/09 Q1007 NOSIG,2024-08-13T22:50:00Z,13,9,6+,29.73
EGPC,58.459,-3.093,260,15,17.26,EGPC 132250Z AUTO 26015KT 9999 SCT023/// BKN028/// 14/09 Q1004,2024-08-13T22:50:00Z,14,9,6+,29.65
EGPB,59.88,-1.296,210,16,18.41,EGPB 132250Z AUTO 21016KT 9999 SCT038/// 14/11 Q1000,2024-08-13T22:50:00Z,14,11,6+,29.53
EGPA,58.958,-2.905,250,28,32.22,EGPA 132250Z AUTO 25028KT 9999 BKN010/// BKN017/// OVC026/// 13/10 Q1001,2024-08-13T22:50:00Z,13,10,6+,29.56
EGOV,53.252,-4.536,360,6,6.9,EGOV 132250Z AUTO 36006KT 9999 FEW007/// 14/12 Q1011,2024-08-13T22:50:00Z,14,12,6+,29.85
EGOS,52.795,-2.665,10,3,3.45,EGOS 132250Z AUTO 01003KT 9999 // OVC030/// 15/15 Q1011,2024-08-13T22:50:00Z,15,15,6+,29.85
EGOP,51.714,-4.367,30,10,11.51,EGOP 132250Z AUTO 03010KT 9999 // OVC036/// 16/15 Q1010,2024-08-13T22:50:00Z,16,15,6+,29.82
EGOM,55.05,-2.554,300,7,8.06,EGOM 132250Z AUTO 30007KT 9999 OVC190/// 10/09 Q1010,2024-08-13T22:50:00Z,10,9,6+,29.82
EGNX,52.833,-1.333,270,8,9.21,EGNX 132250Z 27008KT 9999 8000W FEW010 BKN036 16/15 Q1010,2024-08-13T22:50:00Z,16,15,6+,29.82
EGNT,55.037,-1.702,290,7,8.06,EGNT 132250Z 29007KT CAVOK 14/10 Q1010,2024-08-13T22:50:00Z,14,10,6+,29.82
EGNS,54.085,-4.632,360,4,4.6,EGNS 132250Z 36004KT CAVOK 14/11 Q1012,2024-08-13T22:50:00Z,14,11,6+,29.88
EGNM,53.862,-1.665,300,8,9.21,EGNM 132250Z 30008KT 9999 -RA BKN035 15/13 Q1011,2024-08-13T22:50:00Z,15,13,6+,29.85
EGNJ,53.58,-0.341,VRB,1,1.15,EGNJ 132250Z AUTO VRB01KT 9999 NCD 17/13 Q1010,2024-08-13T22:50:00Z,17,13,6+,29.82
EGMD,50.956,0.939,240,6,6.9,EGMD 132250Z AUTO 24006KT 9999 NCD 19/16 Q1011,2024-08-13T22:50:00Z,19,16,6+,29.85
EGLL,51.477,-0.461,230,6,6.9,EGLL 132250Z AUTO 23006KT 200V270 9999 NCD 19/14 Q1011 NOSIG,2024-08-13T22:50:00Z,19,14,6+,29.85
EGLF,51.28,-0.773,170,3,3.45,EGLF 132250Z AUTO 17003KT 130V200 9999 NCD 16/14 Q1011,2024-08-13T22:50:00Z,16,14,6+,29.85
EGLC,51.505,0.055,230,7,8.06,EGLC 132250Z AUTO 23007KT 210V270 9999 NCD 20/14 Q1011,2024-08-13T22:50:00Z,20,14,6+,29.85
EGKK,51.148,-0.19,220,3,3.45,EGKK 132250Z 22003KT CAVOK 17/14 Q1011,2024-08-13T22:50:00Z,17,14,6+,29.85
EGJJ,49.21,-2.194,250,6,6.9,EGJJ 132250Z AUTO 25006KT 9000 FEW026/// BKN046/// 18/16 Q1011,2024-08-13T22:50:00Z,18,16,5.59,29.85
EGJB,49.433,-2.598,160,5,5.75,EGJB 132250Z 16005KT 9999 VCSH FEW003 SCT012 BKN029 18/17 Q1011,2024-08-13T22:50:00Z,18,17,6+,29.85
EGHQ,50.438,-4.998,320,8,9.21,EGHQ 132250Z AUTO 32008KT 9999 FEW023/// BKN047/// 16/16 Q1011,2024-08-13T22:50:00Z,16,16,6+,29.85
EGGW,51.875,-0.368,190,2,2.3,EGGW 132250Z AUTO 19002KT 9999 NCD 17/12 Q1011,2024-08-13T22:50:00Z,17,12,6+,29.85
EGGP,53.334,-2.85,320,4,4.6,EGGP 132250Z 32004KT 9999 SCT048 16/15 Q1011,2024-08-13T22:50:00Z,16,15,6+,29.85
EGGD,51.383,-2.719,190,7,8.06,EGGD 132250Z AUTO 19007KT 9999 BKN002 OVC007 17/17 Q1010,2024-08-13T22:50:00Z,17,17,6+,29.82
EGFF,51.397,-3.343,270,4,4.6,EGFF 132250Z AUTO 27004KT 9999 FEW012 OVC017 18/18 Q1010,2024-08-13T22:50:00Z,18,18,6+,29.82
EGDY,51.006,-2.643,170,7,8.06,EGDY 132250Z AUTO 17007KT 9999 OVC005/// 18/17 Q1010,2024-08-13T22:50:00Z,18,17,6+,29.82
EGDR,50.084,-5.257,290,6,6.9,EGDR 132250Z AUTO 29006KT 9999 OVC028/// 16/15 Q1011,2024-08-13T22:50:00Z,16,15,6+,29.85
EGDM,51.153,-1.75,200,4,4.6,EGDM 132250Z AUTO 20004KT 9999 OVC011/// 17/15 Q1011,2024-08-13T22:50:00Z,17,15,6+,29.85
EGCK,53.104,-4.34,20,4,4.6,EGCK 132250Z AUTO 02004KT 010V090 9999 NCD 13/12 Q1012,2024-08-13T22:50:00Z,13,12,6+,29.88
EGCC,53.354,-2.275,VRB,2,2.3,EGCC 132250Z AUTO VRB02KT 9999 FEW011 SCT035 BKN047 16/15 Q1011,2024-08-13T22:50:00Z,16,15,6+,29.85
EGBB,52.46,-1.758,VRB,1,1.15,EGBB 132250Z VRB01KT 9000 -DZ FEW010 BKN018 17/16 Q1011 RERA REDZ,2024-08-13T22:50:00Z,17,16,5.59,29.85
EGAC,54.614,-5.873,280,5,5.75,EGAC 132250Z AUTO 28005KT 250V330 9999 NCD 14/10 Q1012,2024-08-13T22:50:00Z,14,10,6+,29.88
EGAA,54.654,-6.225,300,8,9.21,EGAA 132250Z AUTO 30008KT 8000 NCD 12/10 Q1012,2024-08-13T22:50:00Z,12,10,4.97,29.88
EFVA,63.051,21.762,190,1,1.15,EFVA 132250Z AUTO 19001KT 9999 0400 R16/P2000D BCFG SCT004 14/14 Q1017,2024-08-13T22:50:00Z,14,14,6+,30.03
EFUT,60.896,26.938,330,2,2.3,EFUT 132250Z AUTO 33002KT CAVOK 16/16 Q1016,2024-08-13T22:50:00Z,16,16,6+,30.00
EFTU,60.514,22.263,290,3,3.45,EFTU 132250Z AUTO 29003KT 3200 0500 R26/0550 BCFG FEW002 13/13 Q1018,2024-08-13T22:50:00Z,13,13,1.99,30.06
EFTP,61.419,23.616,VRB,1,1.15,EFTP 132250Z AUTO VRB01KT CAVOK 16/15 Q1017,2024-08-13T22:50:00Z,16,15,6+,30.03
EFSI,62.693,22.83,280,5,5.75,EFSI 132250Z AUTO 28005KT 0500 R14/0600N FG VV001 15/15 Q1017,2024-08-13T22:50:00Z,15,15,0.31,30.03
EFSA,61.943,28.945,310,2,2.3,EFSA 132250Z AUTO 31002KT CAVOK 14/14 Q1015,2024-08-13T22:50:00Z,14,14,6+,29.97
EFRO,66.562,25.829,VRB,2,2.3,EFRO 132250Z AUTO VRB02KT CAVOK 15/12 Q1016,2024-08-13T22:50:00Z,15,12,6+,30.00
EFPO,61.462,21.8,290,3,3.45,EFPO 132250Z AUTO 29003KT 260V340 9999 OVC013 15/14 Q1017,2024-08-13T22:50:00Z,15,14,6+,30.03
EFOU,64.93,25.355,VRB,2,2.3,EFOU 132250Z AUTO VRB02KT 9999 VV001 14/13 Q1016,2024-08-13T22:50:00Z,14,13,6+,30.00
EFMI,61.687,27.201,VRB,1,1.15,EFMI 132250Z AUTO VRB01KT 9999 BCFG NCD 11/11 Q1016,2024-08-13T22:50:00Z,11,11,6+,30.00
EFMA,60.125,19.903,210,4,4.6,EFMA 132250Z AUTO 21004KT CAVOK 16/14 Q1017,2024-08-13T22:50:00Z,16,14,6+,30.03
EFLP,61.044,28.151,330,5,5.75,EFLP 132250Z AUTO 33005KT CAVOK 15/14 Q1016,2024-08-13T22:50:00Z,15,14,6+,30.00
EFKU,63.008,27.799,VRB,2,2.3,EFKU 132250Z AUTO VRB02KT CAVOK 16/15 Q1015,2024-08-13T22:50:00Z,16,15,6+,29.97
EFKT,67.701,24.847,300,2,2.3,EFKT 132250Z AUTO 30002KT CAVOK 11/09 Q1016,2024-08-13T22:50:00Z,11,9,6+,30.00
EFKS,65.992,29.236,320,3,3.45,EFKS 132250Z AUTO 32003KT CAVOK 12/11 Q1016,2024-08-13T22:50:00Z,12,11,6+,30.00
EFKK,63.721,23.143,170,1,1.15,EFKK 132250Z AUTO 17001KT 9999 BCFG VV001 11/11 Q1016,2024-08-13T22:50:00Z,11,11,6+,30.00
EFKI,64.283,27.673,70,3,3.45,EFKI 132250Z AUTO 07003KT 9999 3000 NCD 09/09 Q1016,2024-08-13T22:50:00Z,9,9,6+,30.00
EFKE,65.784,24.579,VRB,1,1.15,EFKE 132250Z AUTO VRB01KT 9999 1100 R18/P2000U NCD 10/09 Q1016,2024-08-13T22:50:00Z,10,9,6+,30.00
EFJY,62.404,25.675,VRB,1,1.15,EFJY 132250Z AUTO VRB01KT 9999 0900 R30/P2000 NCD 11/11 Q1016,2024-08-13T22:50:00Z,11,11,6+,30.00
EFJO,62.66,29.611,340,4,4.6,EFJO 132250Z AUTO 34004KT CAVOK 14/13 Q1015,2024-08-13T22:50:00Z,14,13,6+,29.97
EFIV,68.607,27.405,250,5,5.75,EFIV 132250Z AUTO 25005KT CAVOK 11/09 Q1017,2024-08-13T22:50:00Z,11,9,6+,30.03
EFHK,60.327,24.957,VRB,2,2.3,EFHK 132250Z VRB02KT CAVOK 14/12 Q1017 NOSIG,2024-08-13T22:50:00Z,14,12,6+,30.03
EFHA,61.855,24.805,VRB,1,1.15,EFHA 132250Z AUTO VRB01KT 1000 R26/P2000D BCFG NSC 13/13 Q1016,2024-08-13T22:50:00Z,13,13,0.62,30.00
EFET,68.363,23.424,60,3,3.45,EFET 132250Z AUTO 06003KT CAVOK 10/08 Q1016,2024-08-13T22:50:00Z,10,8,6+,30.00
EETU,58.307,26.691,280,5,5.75,EETU 132250Z AUTO 28005KT 9999 NCD 14/12 Q1017,2024-08-13T22:50:00Z,14,12,6+,30.03
EETN,59.413,24.801,260,6,6.9,EETN 132250Z 26006KT CAVOK 16/14 Q1017,2024-08-13T22:50:00Z,16,14,6+,30.03
EEPU,58.419,24.473,290,1,1.15,EEPU 132250Z AUTO 29001KT 9999 NCD 13/12 Q1018,2024-08-13T22:50:00Z,13,12,6+,30.06
EEKE,58.23,22.509,350,1,1.15,EEKE 132250Z AUTO 35001KT 9999 BKN230/// 12/11 Q1018,2024-08-13T22:50:00Z,12,11,6+,30.06
EEEI,59.26,24.209,240,5,5.75,EEEI 132250Z AUTO 24005KT CAVOK 12/12 Q1018,2024-08-13T22:50:00Z,12,12,6+,30.06
EDXW,54.913,8.341,90,14,16.11,EDXW 132250Z AUTO 09014KT 9999 // FEW050/// BKN160/// 20/18 Q1011,2024-08-13T22:50:00Z,20,18,6+,29.85
EDWE,53.388,7.229,130,4,4.6,EDWE 132250Z AUTO 13004KT 090V150 9999 SCT094/// OVC120/// 20/18 Q1011,2024-08-13T22:50:00Z,20,18,6+,29.85
EDVK,51.421,9.388,250,5,5.75,EDVK 132250Z AUTO 25005KT 9999 // FEW150/// 23/19 Q1011,2024-08-13T22:50:00Z,23,19,6+,29.85
EDVE,52.319,10.558,90,7,8.06,EDVE 132250Z AUTO 09007KT 9999 NCD 23/13 Q1010,2024-08-13T22:50:00Z,23,13,6+,29.82
EDTY,49.118,9.784,VRB,2,2.3,EDTY 132250Z AUTO VRB02KT 9999 // FEW130/// SCT150/// 20/18 Q1011,2024-08-13T22:50:00Z,20,18,6+,29.85
EDTL,48.369,7.828,VRB,1,1.15,EDTL 132250Z AUTO VRB01KT 9999 // NCD 21/18 Q1010,2024-08-13T22:50:00Z,21,18,6+,29.82
EDSB,48.779,8.081,350,5,5.75,EDSB 132250Z AUTO 35005KT 9999 NCD 21/18 Q1009,2024-08-13T22:50:00Z,21,18,6+,29.79
EDQM,50.289,11.86,140,4,4.6,EDQM 132250Z AUTO 14004KT 100V180 9999 // NCD 22/16 Q1013,2024-08-13T22:50:00Z,22,16,6+,29.91
EDNY,47.671,9.511,30,5,5.75,EDNY 132250Z AUTO 03005KT 9999 // FEW075/// BKN110/// OVC180/// 21/21 Q1010,2024-08-13T22:50:00Z,21,21,6+,29.82
EDMO,48.081,11.283,40,3,3.45,EDMO 132250Z AUTO 04003KT 9999 // NCD 16/15 Q1013,2024-08-13T22:50:00Z,16,15,6+,29.91
EDMA,48.425,10.932,140,6,6.9,EDMA 132250Z AUTO 14006KT 9999 // SCT200/// 20/15 Q1011,2024-08-13T22:50:00Z,20,15,6+,29.85
EDLW,51.518,7.612,30,5,5.75,EDLW 132250Z AUTO 03005KT 330V060 9999 // BKN120/// OVC140/// 22/18 Q1012,2024-08-13T22:50:00Z,22,18,6+,29.88
EDLV,51.602,6.142,70,8,9.21,EDLV 132250Z AUTO 07008KT 9999 // FEW120/// BKN170/// 21/19 Q1010,2024-08-13T22:50:00Z,21,19,6+,29.82
EDLP,51.614,8.616,20,3,3.45,EDLP 132250Z 02003KT 350V060 CAVOK 21/16 Q1012,2024-08-13T22:50:00Z,21,16,6+,29.88
EDLN,51.23,6.504,110,3,3.45,EDLN 132250Z AUTO 11003KT 050V140 9999 // OVC140/// 20/20 Q//// RETSRA,2024-08-13T22:50:00Z,20,20,6+,
EDJA,47.989,10.239,60,3,3.45,EDJA 132250Z AUTO 06003KT 9999 3600 // NCD 17/14 Q1012,2024-08-13T22:50:00Z,17,14,6+,29.88
EDHL,53.805,10.719,140,5,5.75,EDHL 132250Z AUTO 14005KT 070V200 9999 // SCT250/// 24/13 Q1012,2024-08-13T22:50:00Z,24,13,6+,29.88
EDHK,54.376,10.143,120,4,4.6,EDHK 132250Z AUTO 12004KT 100V160 9999 // FEW067/// BKN250/// 22/12 Q1011,2024-08-13T22:50:00Z,22,12,6+,29.85
EDHI,53.536,9.837,VRB,2,2.3,EDHI 132250Z AUTO VRB02KT 9999 // FEW072/// OVC210/// 24/14 Q1011,2024-08-13T22:50:00Z,24,14,6+,29.85
EDGS,50.708,8.083,VRB,3,3.45,EDGS 132250Z AUTO VRB03KT 9999 // NCD 22/12 Q1013,2024-08-13T22:50:00Z,22,12,6+,29.91
EDFM,49.474,8.515,50,4,4.6,EDFM 132250Z AUTO 05004KT 330V130 9999 OVC120/// 22/20 Q1009,2024-08-13T22:50:00Z,22,20,6+,29.79
EDFH,49.946,7.265,50,6,6.9,EDFH 132250Z 05006KT 020V090 CAVOK 19/17 Q1013,2024-08-13T22:50:00Z,19,17,6+,29.91
EDDW,53.047,8.787,50,3,3.45,EDDW 132250Z AUTO 05003KT 360V120 CAVOK 22/19 Q1010,2024-08-13T22:50:00Z,22,19,6+,29.82
EDDV,52.466,9.68,340,7,8.06,EDDV 132250Z AUTO 34007KT CAVOK 24/17 Q1010,2024-08-13T22:50:00Z,24,17,6+,29.82
EDDS,48.69,9.222,280,1,1.15,EDDS 132250Z AUTO 28001KT CAVOK 20/18 Q1011,2024-08-13T22:50:00Z,20,18,6+,29.85
EDDR,49.213,7.108,50,4,4.6,EDDR 132250Z AUTO 05004KT CAVOK 21/16 Q1011,2024-08-13T22:50:00Z,21,16,6+,29.85
EDDP,51.435,12.24,70,9,10.36,EDDP 132250Z AUTO 07009KT CAVOK 23/14 Q1011,2024-08-13T22:50:00Z,23,14,6+,29.85
EDDN,49.503,11.055,180,6,6.9,EDDN 132250Z AUTO 18006KT 150V210 CAVOK 24/17 Q1010,2024-08-13T22:50:00Z,24,17,6+,29.82
EDDM,48.348,11.813,60,4,4.6,EDDM 132250Z AUTO 06004KT 350V100 CAVOK 18/16 Q1012 NOSIG,2024-08-13T22:50:00Z,18,16,6+,29.88
EDDL,51.296,6.769,360,4,4.6,EDDL 132250Z AUTO 36004KT 9999 -SHRA FEW///TCU 21/20 Q1011 RESHRA TEMPO SHRA,2024-08-13T22:50:00Z,21,20,6+,29.85
EDDK,50.865,7.157,60,4,4.6,EDDK 132250Z AUTO 06004KT 030V140 CAVOK 20/19 Q1010 TEMPO SHRA,2024-08-13T22:50:00Z,20,19,6+,29.82
EDDH,53.633,9.988,170,6,6.9,EDDH 132250Z AUTO 17006KT 120V280 CAVOK 24/14 Q1011 NOSIG,2024-08-13T22:50:00Z,24,14,6+,29.85
EDDG,52.135,7.697,350,4,4.6,EDDG 132250Z AUTO 35004KT 320V100 9999 -RA NSC 22/18 Q1011 TEMPO RA,2024-08-13T22:50:00Z,22,18,6+,29.85
EDDF,50.045,8.598,90,14,16.11,EDDF 132250Z AUTO 09014KT 7000 +TSGRRA FEW031 BKN///CB 22/18 Q1010 BECMG +SHRA,2024-08-13T22:50:00Z,22,18,4.35,29.82
EDDE,50.983,10.961,340,4,4.6,EDDE 132250Z AUTO 34004KT CAVOK 23/16 Q1011,2024-08-13T22:50:00Z,23,16,6+,29.85
EDDC,51.128,13.7543,90,6,6.9,EDDC 132250Z AUTO 09006KT CAVOK 22/14 Q1012,2024-08-13T22:50:00Z,22,14,6+,29.88
EDDB,52.3807,13.5306,80,8,9.21,EDDB 132250Z AUTO 08008KT CAVOK 20/10 Q1013,2024-08-13T22:50:00Z,20,10,6+,29.91
EDBC,51.856,11.42,60,3,3.45,EDBC 132250Z AUTO 06003KT 030V090 9999 // NCD 22/12 Q1012,2024-08-13T22:50:00Z,22,12,6+,29.88
EDAH,53.879,14.152,120,10,11.51,EDAH 132250Z AUTO 12010KT 9999 // NCD 20/12 Q1015,2024-08-13T22:50:00Z,20,12,6+,29.97
EDAC,50.982,12.506,VRB,1,1.15,EDAC 132250Z AUTO VRB01KT 9999 // NCD 22/// Q1011,2024-08-13T22:50:00Z,,,6+,29.85
EBOS,51.199,2.862,230,3,3.45,EBOS 132250Z 23003KT CAVOK 17/14 Q1011 NOSIG,2024-08-13T22:50:00Z,17,14,6+,29.85
EBLG,50.637,5.443,310,3,3.45,EBLG 132250Z 31003KT CAVOK 21/19 Q1010 NOSIG,2024-08-13T22:50:00Z,21,19,6+,29.82
EBCI,50.459,4.454,300,5,5.75,EBCI 132250Z 30005KT 270V340 9999 BKN025 21/16 Q1011 TEMPO 3000 SHRA TSRA BKN020CB,2024-08-13T22:50:00Z,21,16,6+,29.85
EBBR,50.896,4.526,300,8,9.21,EBBR 132250Z 30008KT 9999 BKN033 20/17 Q1011 NOSIG,2024-08-13T22:50:00Z,20,17,6+,29.85
EBAW,51.189,4.46,290,6,6.9,EBAW 132250Z AUTO 29006KT 9999 // VV/// 22/18 Q1010,2024-08-13T22:50:00Z,22,18,6+,29.82
CYCG,49.295,-117.634,340,12,13.81,CYCG 132250Z 34012G19KT 230V020 15SM -TSRA BKN070CB BKN160 BKN220 25/15 A2985 RMK CB5AC1CI1 SLP106 DENSITY ALT 3300FT,2024-08-13T22:50:00Z,25,15,15,29.85
BGSF,67.013,-50.718,30,6,6.9,BGSF 132250Z AUTO 03006KT 9999NDV NCD 10/02 Q0996,2024-08-13T22:50:00Z,10,2,,29.41
BGKK,65.575,-37.133,VRB,3,3.45,BGKK 132250Z AUTO VRB03KT 9999NDV BKN210/// 06/02 Q0992,2024-08-13T22:50:00Z,6,2,,29.29
BGJN,69.24,-51.064,350,4,4.6,BGJN 132250Z 35004KT 320V020 9999 BKN150 09/02 Q0996,2024-08-13T22:50:00Z,9,2,6+,29.41
BGGH,64.191,-51.677,360,6,6.9,BGGH 132250Z 36006KT 9999 SCT220 07/02 Q0999,2024-08-13T22:50:00Z,7,2,6+,29.50
BGBW,61.164,-45.42,230,11,12.66,BGBW 132250Z 23011KT 9999 SCT200 12/04 Q0996,2024-08-13T22:50:00Z,12,4,6+,29.41
RJSS,38.14,140.917,VRB,1,1.15,RJSS 132249Z VRB01KT 9999 FEW003 BKN007 27/26 Q1008 RMK 1ST003 5ST007 A2977,2024-08-13T22:49:00Z,27,26,6+,29.76
RJCH,41.77,140.822,70,2,2.3,RJCH 132249Z 07002KT 2300 -SHRA BR FEW002 BKN005 BKN008 24/24 Q1007 RMK 1ST002 5ST005 6ST008 A2975,2024-08-13T22:49:00Z,24,24,1.43,29.73
MMMZ,23.161,-106.271,260,7,8.06,MMMZ 132249Z 26007KT 14SM SCT025TCU BKN240 32/25 A2984 RMK 8/203 CB NE-SE,2024-08-13T22:49:00Z,32,25,14,29.84
KFME,39.086,-76.757,310,3,3.45,KFME 132249Z AUTO 31003KT 10SM SCT090 SCT110 25/16 A3006 RMK AO1,2024-08-13T22:49:00Z,25,16,10+,30.06
KBKB,31.022,-92.911,0,0,0.0,KBKB 132249Z AUTO 00000KT 10SM CLR 32/24 A2997 RMK AO2 SLP172 T03220244,2024-08-13T22:49:00Z,32.2,24.4,10+,29.97
CYTL,53.816,-89.892,310,6,6.9,CYTL 132249Z AUTO 31006KT 3SM HZ CLR 28/15 A2997 RMK SLP153 DENSITY ALT 2300FT,2024-08-13T22:49:00Z,28,15,3,29.97
CYPH,58.47,-78.08,210,7,8.06,CYPH 132249Z AUTO 21007KT 5SM BR CLR 15/13 A2982 RMK SLP100 DENSITY ALT 300FT,2024-08-13T22:49:00Z,15,13,5,29.82
CWSA,43.933,-60.002,,,,CWSA 132249Z AUTO /////KT 9SM BKN020 20/18 A2979 RMK WIND MISG SLP088 DENSITY ALT 700FT,2024-08-13T22:49:00Z,20,18,9,29.79
MMTM,22.29,-97.863,70,4,4.6,MMTM 132248Z 07004KT 8SM BKN220 29/26 A2995 RMK 8/008 SC,2024-08-13T22:48:00Z,29,26,8,29.95
MMML,32.631,-115.238,170,5,5.75,MMML 132248Z 17005KT 10SM SKC 42/04 A2973,2024-08-13T22:48:00Z,42,4,10+,29.73
MMLT,25.993,-111.35,40,10,11.51,MMLT 132248Z 04010KT 10SM SCT030 33/24 A2980 RMK 8/900 HZY,2024-08-13T22:48:00Z,33,24,10+,29.80
KRHV,37.3331,-121.82,310,10,11.51,KRHV 132248Z 31010KT 10SM SKC 27/08 A2996,2024-08-13T22:48:00Z,27,8,10+,29.96
KRHP,35.1939,-83.8618,0,0,0.0,KRHP 132248Z AUTO 00000KT 10SM CLR 27/17 A3009 RMK AO2 T02710174,2024-08-13T22:48:00Z,27.1,17.4,10+,30.09
KIWA,33.3008,-111.644,210,12,13.81,KIWA 132248Z 21012G19KT 160V260 10SM SCT090 39/14 A2984 RMK CB DSNT N-SE TCU DSNT ALQDS,2024-08-13T22:48:00Z,39,14,10+,29.84
KASG,36.1802,-94.1176,120,5,5.75,KASG 132248Z 12005G12KT 10SM CLR 30/26 A3005,2024-08-13T22:48:00Z,30,26,10+,30.05
CZBF,47.628,-65.746,60,8,9.21,CZBF 132248Z AUTO 06008KT 020V080 9SM -RA FEW042 BKN055 BKN077 BKN100 18/16 A2986 RMK SLP115 DENSITY ALT 700FT,2024-08-13T22:48:00Z,18,16,9,29.86
CYVC,55.15,-105.264,90,7,8.06,CYVC 132248Z 09007KT 12SM -SHRA BKN100 23/17 A2985 RMK AC7 SLP114 DENSITY ALT 2500FT,2024-08-13T22:48:00Z,23,17,12,29.85
RJOZ,34.047,131.052,360,4,4.6,RJOZ 132247Z 36004KT 9999 SCT015 BKN090 29/25 Q1007 RMK 4CU015 6AC090 A2976,2024-08-13T22:47:00Z,29,25,6+,29.73
RJAW,24.784,141.322,210,26,29.92,RJAW 132247Z 21026G44KT 4000 SHRA BR FEW006 BKN008 BKN015 25/24 Q1001 RMK 1ST006 5ST008 7CU015 A2956,2024-08-13T22:47:00Z,25,24,2.49,29.56
MMOX,17.002,-96.724,100,7,8.06,MMOX 132247Z 10007KT 10SM BKN030TCU BKN100 BKN210 26/14 A3016 RMK 8/232 MDT CU ARND HZY,2024-08-13T22:47:00Z,26,14,10+,30.16
MMLO,20.997,-101.481,320,7,8.06,MMLO 132247Z E32007KT 10SM BKN030CB BKN090 OVC220 21/16 A3015 RMK 8/363 -RA E40 CB E,2024-08-13T22:47:00Z,21,16,10+,30.15
KTZR,39.8988,-83.1357,300,8,9.21,KTZR 132247Z 30008KT 10SM SCT090 28/14 A3009,2024-08-13T22:47:00Z,28,14,10+,30.09
KTRK,39.3154,-120.137,230,15,17.26,KTRK 132247Z 23015G23KT 10SM CLR 24/M02 A3018,2024-08-13T22:47:00Z,24,-2,10+,30.18
KTOA,33.803,-118.336,270,15,17.26,KTOA 132247Z 27015KT 10SM SKC 24/18 A2990,2024-08-13T22:47:00Z,24,18,10+,29.90
KSUA,27.1815,-80.2252,100,10,11.51,KSUA 132247Z 10010KT 7SM FEW030 32/26 A2998,2024-08-13T22:47:00Z,32,26,7,29.98
KSQL,37.5119,-122.248,260,13,14.96,KSQL 132247Z 26013KT 10SM CLR 26/09 A2997,2024-08-13T22:47:00Z,26,9,10+,29.97
KSEE,32.8273,-116.974,230,7,8.06,KSEE 132247Z 23007KT 10SM SKC 32/16 A2990,2024-08-13T22:47:00Z,32,16,10+,29.90
KPOC,34.0928,-117.779,270,7,8.06,KPOC 132247Z 27007KT 10SM CLR 33/12 A2992,2024-08-13T22:47:00Z,33,12,10+,29.92
KPAO,37.458,-122.112,340,14,16.11,KPAO 132247Z 34014KT 10SM SKC 23/13 A2997,2024-08-13T22:47:00Z,23,13,10+,29.97
KLBE,40.2767,-79.4039,VRB,5,5.75,KLBE 132247Z VRB05KT 15SM CLR 25/12 A3010,2024-08-13T22:47:00Z,25,12,15,30.10
KIFP,35.1487,-114.561,150,16,18.41,KIFP 132247Z 15016G20KT 10SM CLR 42/06 A2972,2024-08-13T22:47:00Z,42,6,10+,29.72
KGYR,33.428,-112.368,230,9,10.36,KGYR 132247Z 23009G14KT 10SM SCT100 SCT250 41/15 A2980,2024-08-13T22:47:00Z,41,15,10+,29.80
KGYH,34.763,-82.375,60,8,9.21,KGYH 132247Z 06008KT 10SM BKN019 BKN026 25/21 A3006,2024-08-13T22:47:00Z,25,21,10+,30.06
KFDK,39.4177,-77.3696,0,0,0.0,KFDK 132247Z 00000KT 10SM SCT060 27/14 A3005,2024-08-13T22:47:00Z,27,14,10+,30.05
KCWA,44.7795,-89.671,130,4,4.6,KCWA 132247Z 13004KT 10SM FEW080 SCT090 26/16 A3012,2024-08-13T22:47:00Z,26,16,10+,30.12
KCHD,33.2669,-111.809,220,12,13.81,KCHD 132247Z 22012G21KT 160V280 10SM FEW050 FEW080 40/14 A2982,2024-08-13T22:47:00Z,40,14,10+,29.82
KCFO,39.7948,-104.54,330,15,17.26,KCFO 132247Z 33015G21KT 4SM +TSRA OVC060 18/16 A3013,2024-08-13T22:47:00Z,18,16,4,30.13
KAQV,31.396,-93.297,0,0,0.0,KAQV 132247Z AUTO 00000KT 8SM CLR 36/23 A3000 RMK AO2 SLP153 T03560233,2024-08-13T22:47:00Z,35.6,23.3,8,30.00
KADS,32.9634,-96.8354,,,,KADS 132247Z 14011G1 6KT 13SM SKC 37/18 A2998,2024-08-13T22:47:00Z,37,18,13,29.98
RJCK,43.041,144.193,VRB,2,2.3,RJCK 132246Z AUTO VRB02KT 1700 R17/1200V2000U -RA BR OVC001 23/23 Q1010 RMK A2982,2024-08-13T22:46:00Z,23,23,1.06,29.82
MMPQ,17.534,-92.017,80,5,5.75,MMPQ 132246Z 08005KT 6SM SCT040TCU 32/25 A2976 RMK 8/200,2024-08-13T22:46:00Z,32,25,6,29.76
KOUN,35.2436,-97.4713,130,10,11.51,KOUN 132246Z 13010G17KT 10SM CLR 36/22 A2995,2024-08-13T22:46:00Z,36,22,10+,29.95
KBJC,39.9008,-105.104,330,10,11.51,KBJC 132246Z 33010KT 10SM -VCTS SCT037 BKN080 22/16 A3010,2024-08-13T22:46:00Z,22,16,10+,30.10
EQYS,37.4,14.92,300,6,6.9,EQYS 132246Z AUTO 30006KT 10SM CLR 29/18 A2985 RMK AO2 SLP106 T02890178 403830239 $ ,2024-08-13T22:46:00Z,28.9,17.8,10+,29.85
CYXJ,56.247,-120.737,300,6,6.9,CYXJ 132246Z 30006KT 1SM R30/P6000FT/N -RA FU VV013 15/14 A2990 RMK FU8 SLP136 DENSITY ALT 2900FT,2024-08-13T22:46:00Z,15,14,1,29.90
YPJT,-32.101,115.879,280,21,24.17,YPJT 132245Z AUTO 28021KT 9999 DZ FEW032 BKN041 BKN049 15/11 Q1013,2024-08-13T22:45:00Z,15,11,6+,29.91
TJIG,18.457,-66.094,40,10,11.51,TJIG 132245Z 04010KT 6SM SHRA SCT025 BKN055 27/25 A2977,2024-08-13T22:45:00Z,27,25,6,29.77
SBTF,-3.383,-64.724,0,0,0.0,SBTF 132245Z 00000KT 7000 NSC 29/24 Q1012,2024-08-13T22:45:00Z,29,24,4.35,29.88
RKJB,34.991,126.383,80,3,3.45,RKJB 132245Z 08003KT 050V110 6000 FEW006 27/25 Q1009 NOSIG,2024-08-13T22:45:00Z,27,25,3.73,29.79
RJCM,43.881,144.164,190,9,10.36,RJCM 132245Z 19009KT 9999 FEW010 28/23 Q1008 RMK 1ST010 A2977,2024-08-13T22:45:00Z,28,23,6+,29.76
PAKU,70.331,-149.613,230,14,16.11,PAKU 132245Z 23014KT 10SM R24/P6000FT BKN080 BKN180 16/ A2977,2024-08-13T22:45:00Z,16,,10+,29.77
MMTG,16.571,-93.03,20,3,3.45,MMTG 132245Z 02003KT 7SM SCT300 30/22 A2991 RMK 8/003 HZY CB DSNT WSW/N,2024-08-13T22:45:00Z,30,22,7,29.91
MMMD,20.936,-89.659,130,7,8.06,MMMD 132245Z 13007KT 3SM -RA BKN007CB OVC300 24/24 A2997 RMK 61115 8/307 HZY AC TSE35,2024-08-13T22:45:00Z,24,24,3,29.97
MMLP,24.077,-110.364,360,11,12.66,MMLP 132245Z 36011KT 10SM FEW030 37/16 A2983 RMK 8/100,2024-08-13T22:45:00Z,37,16,10+,29.83
MMGL,20.523,-103.312,280,5,5.75,MMGL 132245Z 28005KT 8SM SCT020CB BKN080 BKN300 24/18 A3015 RMK 8/963,2024-08-13T22:45:00Z,24,18,8,30.15
MMCE,18.651,-91.8,0,0,0.0,MMCE 132245Z 00000KT 7SM FEW015 BKN260 30/25 A2989 RMK 8/203 CB E,2024-08-13T22:45:00Z,30,25,7,29.89
LMML,35.858,14.477,270,3,3.45,LMML 132245Z 27003KT 230V300 CAVOK 26/22 Q1012 NOSIG RMK FU TO N,2024-08-13T22:45:00Z,26,22,6+,29.88
LHSN,47.123,20.235,60,7,8.06,LHSN 132245Z 06007KT CAVOK 24/14 Q1012 NOSIG RMK BLU,2024-08-13T22:45:00Z,24,14,6+,29.88
LHSM,46.689,17.161,VRB,3,3.45,LHSM 132245Z AUTO VRB03KT CAVOK 23/20 Q1011,2024-08-13T22:45:00Z,23,20,6+,29.85
LHPR,47.627,17.808,110,5,5.75,LHPR 132245Z AUTO 11005KT 080V140 CAVOK 23/17 Q1011,2024-08-13T22:45:00Z,23,17,6+,29.85
LHPP,45.991,18.241,50,5,5.75,LHPP 132245Z AUTO 05005KT 9999 //////CB 28/15 Q1011,2024-08-13T22:45:00Z,28,15,6+,29.85
LHPA,47.362,17.494,VRB,2,2.3,LHPA 132245Z VRB02KT CAVOK 23/18 Q1011 NOSIG RMK BLU,2024-08-13T22:45:00Z,23,18,6+,29.85
LHNY,47.985,21.692,10,6,6.9,LHNY 132245Z AUTO 01006KT CAVOK 19/13 Q1014,2024-08-13T22:45:00Z,19,13,6+,29.94
LHKE,46.917,19.749,60,8,9.21,LHKE 132245Z 06008KT CAVOK 25/15 Q1012 NOSIG RMK BLU,2024-08-13T22:45:00Z,25,15,6+,29.88
LHDC,47.489,21.615,30,9,10.36,LHDC 132245Z AUTO 03009KT CAVOK 23/13 Q1013 NOSIG,2024-08-13T22:45:00Z,23,13,6+,29.91
KW40,35.2211,-78.0404,40,3,3.45,KW40 132245Z AUTO 04003KT 10SM SCT090 SCT110 26/20 A3005 RMK AO2 T02560201,2024-08-13T22:45:00Z,25.6,20.1,10+,30.05
KW29,38.9777,-76.3276,0,0,0.0,KW29 132245Z AUTO 00000KT 10SM CLR 26/15 A3003 RMK AO2 P0151 T02630152,2024-08-13T22:45:00Z,26.3,15.2,10+,30.03
KVUJ,35.4173,-80.1508,40,5,5.75,KVUJ 132245Z AUTO 04005KT 10SM BKN055 24/20 A3011 RMK AO2 T02370203,2024-08-13T22:45:00Z,23.7,20.3,10+,30.11
KUKF,36.2188,-81.1002,0,0,0.0,KUKF 132245Z AUTO 00000KT 10SM SCT120 23/18 A3015 RMK AO2,2024-08-13T22:45:00Z,23,18,10+,30.15
KUES,43.0425,-88.2465,110,5,5.75,KUES 132245Z 11005KT 10SM SCT110 25/14 A3013,2024-08-13T22:45:00Z,25,14,10+,30.13
KTTA,35.5762,-79.1035,30,4,4.6,KTTA 132245Z AUTO 03004KT 10SM OVC075 23/21 A3006 RMK AO2 T02260212,2024-08-13T22:45:00Z,22.6,21.2,10+,30.06
KTDF,36.284,-78.9884,0,0,0.0,KTDF 132245Z AUTO 00000KT 10SM OVC085 22/18 A3010 RMK AO2,2024-08-13T22:45:00Z,22,18,10+,30.10
KSWF,41.5045,-74.0999,80,5,5.75,KSWF 132245Z 08005KT 10SM FEW080 25/15 A3000,2024-08-13T22:45:00Z,25,15,10+,30.00
KSVH,35.7635,-80.9473,100,4,4.6,KSVH 132245Z AUTO 10004KT 10SM SCT043 SCT090 25/18 A3010 RMK AO2 T02470181,2024-08-13T22:45:00Z,24.7,18.1,10+,30.10
KSIF,36.4408,-79.8544,0,0,0.0,KSIF 132245Z AUTO 00000KT 5SM BR OVC080 22/20 A3009 RMK AO2 T02240199,2024-08-13T22:45:00Z,22.4,19.9,5,30.09
KSCR,35.7058,-79.5051,0,0,0.0,KSCR 132245Z AUTO 00000KT 10SM OVC090 22/22 A3008 RMK AO2 T02200215,2024-08-13T22:45:00Z,22,21.5,10+,30.08
KSAW,46.341,-87.395,50,7,8.06,KSAW 132245Z 05007KT 10SM CLR 26/11 A3012,2024-08-13T22:45:00Z,26,11,10+,30.12
KRUQ,35.6441,-80.5236,50,4,4.6,KRUQ 132245Z AUTO 05004KT 10SM SCT100 23/18 A3009 RMK AO2 T02330182,2024-08-13T22:45:00Z,23.3,18.2,10+,30.09
KMWC,43.1095,-88.0343,110,3,3.45,KMWC 132245Z 11003KT 10SM CLR 26/14 A3013,2024-08-13T22:45:00Z,26,14,10+,30.13
KMWA,37.7544,-89.0118,140,6,6.9,KMWA 132245Z 14006KT 20SM BKN037 OVC049 27/20 A3007,2024-08-13T22:45:00Z,27,20,20,30.07
KMRN,35.8192,-81.6097,0,0,0.0,KMRN 132245Z AUTO 00000KT 10SM SCT027 SCT095 25/20 A3010 RMK AO2 T02460201,2024-08-13T22:45:00Z,24.6,20.1,10+,30.10
KMQI,35.9188,-75.6989,40,3,3.45,KMQI 132245Z AUTO 04003KT 10SM SCT120 25/18 A3005 RMK AO2 T02450179,2024-08-13T22:45:00Z,24.5,17.9,10+,30.05
KMCZ,35.862,-77.178,0,0,0.0,KMCZ 132245Z AUTO 00000KT 10SM SCT050 SCT070 OVC090 25/23 A3006 RMK AO2 T02460226,2024-08-13T22:45:00Z,24.6,22.6,10+,30.06
KLOT,41.6031,-88.1017,180,3,3.45,KLOT 132245Z 18003KT 10SM FEW060 SCT090 28/17 A3011,2024-08-13T22:45:00Z,28,17,10+,30.11
KLHZ,36.0229,-78.3341,0,0,0.0,KLHZ 132245Z AUTO 00000KT 5SM BR OVC090 22/21 A3009 RMK AO2,2024-08-13T22:45:00Z,22,21,5,30.09
KJVL,42.6213,-89.0419,290,5,5.75,KJVL 132245Z 29005KT 10SM SCT060 25/15 A3011,2024-08-13T22:45:00Z,25,15,10+,30.11
KJNX,35.5369,-78.3934,10,4,4.6,KJNX 132245Z AUTO 01004KT 10SM OVC085 25/18 A3005 RMK AO2,2024-08-13T22:45:00Z,25,18,10+,30.05
KIPJ,35.4861,-81.1564,40,4,4.6,KIPJ 132245Z AUTO 04004KT 10SM SCT022 24/20 A3008 RMK AO2 T02400198,2024-08-13T22:45:00Z,24,19.8,10+,30.08
KHBI,35.6527,-79.8942,0,0,0.0,KHBI 132245Z AUTO 00000KT 10SM SCT060 OVC090 22/19 A3009 RMK AO2 T02230191,2024-08-13T22:45:00Z,22.3,19.1,10+,30.09
KGYY,41.6121,-87.4091,60,6,6.9,KGYY 132245Z 06006KT 10SM CLR 28/16 A3011,2024-08-13T22:45:00Z,28,16,10+,30.11
KGEV,36.4312,-81.4206,0,0,0.0,KGEV 132245Z AUTO 00000KT 10SM SCT060 OVC080 19/16 A3019 RMK AO2 T01900161,2024-08-13T22:45:00Z,19,16.1,10+,30.19
KFQD,35.43,-81.936,140,3,3.45,KFQD 132245Z AUTO 14003KT 10SM BKN017 OVC027 23/19 A3010 RMK AO2,2024-08-13T22:45:00Z,23,19,10+,30.10
KFMH,41.6608,-70.5221,250,6,6.9,KFMH 132245Z 25006KT 10SM CLR 22/17 A2997,2024-08-13T22:45:00Z,22,17,10+,29.97
KEXX,35.7804,-80.3084,30,3,3.45,KEXX 132245Z AUTO 03003KT 10SM BKN050 OVC100 23/22 A3009 RMK AO2 T02250224,2024-08-13T22:45:00Z,22.5,22.4,10+,30.09
KEMT,34.0882,-118.034,190,9,10.36,KEMT 132245Z 19009G14KT 10SM CLR 33/14 A2988,2024-08-13T22:45:00Z,33,14,10+,29.88
KDPL,34.9994,-77.9799,50,3,3.45,KDPL 132245Z AUTO 05003KT 10SM OVC100 25/21 A3005 RMK AO2,2024-08-13T22:45:00Z,25,21,10+,30.05
KCTZ,34.9752,-78.3627,0,0,0.0,KCTZ 132245Z AUTO 00000KT 10SM OVC090 26/21 A3005 RMK AO2 T02570212,2024-08-13T22:45:00Z,25.7,21.2,10+,30.05
KCPC,34.2753,-78.7146,40,3,3.45,KCPC 132245Z AUTO 04003KT 10SM BKN042 BKN120 27/21 A3003 RMK AO2 T02660209,2024-08-13T22:45:00Z,26.6,20.9,10+,30.03
KCGF,41.566,-81.4827,350,4,4.6,KCGF 132245Z 35004KT 10SM CLR 24/13 A3013,2024-08-13T22:45:00Z,24,13,10+,30.13
KCGE,38.5372,-76.0309,0,0,0.0,KCGE 132245Z AUTO 00000KT 10SM CLR 26/15 A3003 RMK A01,2024-08-13T22:45:00Z,26,15,10+,30.03
KCBE,39.6182,-78.7598,340,10,11.51,KCBE 132245Z AUTO 34010KT 10SM SCT085 27/11 A3010 RMK AO2 T02730109,2024-08-13T22:45:00Z,27.3,10.9,10+,30.10
KBBG,36.5259,-93.1969,0,0,0.0,KBBG 132245Z 00000KT 10SM CLR 24/23 A3008,2024-08-13T22:45:00Z,24,23,10+,30.08
KBAK,39.2664,-85.8926,20,3,3.45,KBAK 132245Z 02003KT 10SM CLR 28/12 A3010,2024-08-13T22:45:00Z,28,12,10+,30.10
KATW,44.2519,-88.526,0,0,0.0,KATW 132245Z 00000KT 10SM SCT050 28/15 A3012,2024-08-13T22:45:00Z,28,15,10+,30.12
KASJ,36.2941,-77.1724,0,0,0.0,KASJ 132245Z AUTO 00000KT 10SM SCT120 24/24 A3005 RMK AO2 T02360236,2024-08-13T22:45:00Z,23.6,23.6,10+,30.05
KACZ,34.718,-78.005,60,5,5.75,KACZ 132245Z AUTO 06005KT 10SM CLR 26/21 A3003 RMK AO2 T02610210,2024-08-13T22:45:00Z,26.1,21,10+,30.03
K7W6,35.5594,-75.955,0,0,0.0,K7W6 132245Z AUTO 00000KT 10SM CLR 25/21 A3005 RMK AO2 T02510207,2024-08-13T22:45:00Z,25.1,20.7,10+,30.05
K2G4,39.5827,-79.3418,VRB,3,3.45,K2G4 132245Z AUTO VRB03KT 10SM CLR 21/11 A3017 RMK AO2,2024-08-13T22:45:00Z,21,11,10+,30.17
K1A5,35.2228,-83.415,320,5,5.75,K1A5 132245Z AUTO 32005KT 10SM CLR 27/17 A3012 RMK AO2 T02730168,2024-08-13T22:45:00Z,27.3,16.8,10+,30.12
K0W3,39.566,-76.202,340,3,3.45,K0W3 132245Z AUTO 34003KT 10SM CLR 26/15 A3003 RMK AO2 T02550147 $,2024-08-13T22:45:00Z,25.5,14.7,10+,30.03
CYZX,44.985,-64.912,250,6,6.9,CYZX 132245Z 25006KT 10SM TS VCSH FEW008 SCT030CB BKN120 22/15 A2982 RMK SF1CB4AC1 DENSITY ALT 1289FT OCNL LTGCC 7SM NW MOV S SLP099,2024-08-13T22:45:00Z,22,15,10+,29.82
CYLW,49.953,-119.375,280,15,17.26,CYLW 132245Z AUTO 28015KT 270V330 9SM CLR 31/10 A2982 RMK LTNG DIST W SLP086 DENSITY ALT 3700FT,2024-08-13T22:45:00Z,31,10,9,29.82
CWPF,48.432,-123.439,170,5,5.75,CWPF 132245Z AUTO 17005KT 18/12 RMK AO1 SLP168 T01750117 50003,2024-08-13T22:45:00Z,17.5,11.7,,
MMVR,19.144,-96.189,70,8,9.21,MMVR 132244Z 07008KT 7SM FEW250 31/24 A2991 RMK 8/008 HZY DSNT CB 2ND 3TH QUAD,2024-08-13T22:44:00Z,31,24,7,29.91
MMSM,19.763,-99.002,60,16,18.41,MMSM 132244Z 06016KT 9SM BKN020CB OVC080 20/13 A3028 RMK 8/36/ HZY DSNT PCPN S/W BINOVC,2024-08-13T22:44:00Z,20,13,9,30.28
MMPN,19.396,-102.041,0,0,0.0,MMPN 132244Z 00000KT 9SM SCT030 BKN090 OVC270 21/18 A3017 RMK 8/463,2024-08-13T22:44:00Z,21,18,9,30.17
MMPR,20.68,-105.25,220,4,4.6,MMPR 132243Z 22004KT 13SM FEW030TCU SCT100 BKN210 30/24 A2983 RMK 8/263,2024-08-13T22:43:00Z,30,24,13,29.83
MMCB,18.83,-99.265,220,2,2.3,MMCB 132243Z 22002KT 8SM BKN015CB BKN120 BKN250 28/17 A3008 RMK 8/963,2024-08-13T22:43:00Z,28,17,8,30.08
CZFA,62.211,-133.385,280,5,5.75,CZFA 132243Z 28005KT 30SM FEW012 SCT075 BKN100 OVC130 11/09 A2986 RMK ST1AC4AC2AC2 ST TR SLP137,2024-08-13T22:43:00Z,11,9,30,29.86
CYZR,42.995,-82.307,30,6,6.9,CYZR 132243Z AUTO 03006KT 6SM HZ CLR 23/17 A3010 RMK SLP193 DENSITY ALT 1500FT,2024-08-13T22:43:00Z,23,17,6,30.10
MMTL,20.1725,-87.6622,0,0,0.0,MMTL 132242Z 00000KT 6SM SCT020 BKN060 OVC200 28/24 A2995 RMK 8/777 DSNT CB BINOVC,2024-08-13T22:42:00Z,28,24,6,29.95
MMCN,27.395,-109.837,260,6,6.9,MMCN 132242Z 26006KT 10SM SCT030 38/19 A2977 RMK 8/200 DSNT TCU N HZY,2024-08-13T22:42:00Z,38,19,10+,29.77
MMCM,18.504,-88.326,60,6,6.9,MMCM 132242Z 06006KT 7SM FEW020 BKN100 28/25 A2990 RMK 8/520 LWR SC,2024-08-13T22:42:00Z,28,25,7,29.90
MMAS,21.702,-102.318,260,4,4.6,MMAS 132242Z 26004KT 9SM SCT020CB BKN100 BKN200 24/16 A3023 RMK 8/363 HZY,2024-08-13T22:42:00Z,24,16,9,30.23
MMAA,16.758,-99.754,220,3,3.45,MMAA 132242Z 22003KT 7SM SCT100 BKN300 30/23 A2981 RMK 8/062 HZY DSNT CB N NE,2024-08-13T22:42:00Z,30,23,7,29.81
KOXD,39.5047,-84.7838,350,3,3.45,KOXD 132242Z AUTO 35003KT 10SM CLR 28/14 A3011 RMK AO2,2024-08-13T22:42:00Z,28,14,10+,30.11
RJSK,39.616,140.219,260,4,4.6,RJSK 132241Z 26004KT 1600 -SHRA BR FEW000 SCT002 BKN004 25/25 Q1008 RMK 1ST000 3ST002 5ST004 A2979,2024-08-13T22:41:00Z,25,25,0.99,29.76
MMPB,19.17,-98.371,200,5,5.75,MMPB 132241Z 20005KT 4SM RA SCT020CB OVC090 16/13 A3032 RMK 8/96/ HZY,2024-08-13T22:41:00Z,16,13,4,30.32
MMPA,20.601,-97.459,80,6,6.9,MMPA 132241Z 08006KT 4SM SCT030 33/25 A2994 RMK 8/100 HZY DSNT CB AND TCU 3TH QUAD,2024-08-13T22:41:00Z,33,25,4,29.94
MMMM,19.844,-101.037,220,10,11.51,MMMM 132241Z 22010KT 8SM SCT020CB BKN090 BKN250 22/15 A3019 RMK 8/363 HZY PCPN N,2024-08-13T22:41:00Z,22,15,8,30.19
MMIA,19.276,-103.576,30,5,5.75,MMIA 132241Z 03005KT 5SM BKN020CB BKN100 24/22 A2999 RMK 8/360,2024-08-13T22:41:00Z,24,22,5,29.99
MMCZ,20.516,-86.932,70,6,6.9,MMCZ 132241Z 07006KT 8SM FEW015 SCT120 BKN250 30/27 A2994 RMK 8/463,2024-08-13T22:41:00Z,30,27,8,29.94
KDUB,43.5485,-109.684,120,6,6.9,KDUB 132241Z AUTO 12006KT 10SM -RA BKN060 OVC075 12/08 A3019 RMK AO2,2024-08-13T22:41:00Z,12,8,10+,30.19
CYED,53.676,-113.471,250,3,3.45,CYED 132241Z 25003KT 200V340 15SM FEW064 FEW250 26/10 A2979 RMK CU1CI1 DENSITY ALT 4451FT LAST OBS /NEXT 141300 UTC SLP088,2024-08-13T22:41:00Z,26,10,15,29.79
CYCQ,55.689,-121.62,70,3,3.45,CYCQ 132241Z 07003KT 360V090 7SM FEW013 BKN016 BKN021 OVC040 17/15 A2989 RMK SC1SC5SC2SC1 SC TR VIS DUE FG BNK S+VLY W FU ALQDS SLP134 DENSITY ALT 2700FT,2024-08-13T22:41:00Z,17,15,7,29.89
RJSI,39.429,141.135,130,4,4.6,RJSI 132240Z 13004KT 8000 FEW002 BKN007 BKN015 26/25 Q1008 RMK 1ST002 5ST007 6CU015 A2978,2024-08-13T22:40:00Z,26,25,4.97,29.76
RJSC,38.412,140.371,360,5,5.75,RJSC 132240Z 36005KT 9999 FEW005 SCT010 BKN030 27/26 Q1008 RMK 1ST005 3ST010 5CU030 A2979,2024-08-13T22:40:00Z,27,26,6+,29.76
RJCB,42.733,143.217,VRB,2,2.3,RJCB 132240Z VRB02KT 5000 BR FEW003 BKN004 BKN005 23/23 Q1009 RMK 1ST003 5ST004 7ST005 A2982,2024-08-13T22:40:00Z,23,23,3.11,29.79
RJBD,33.662,135.364,20,3,3.45,RJBD 132240Z 02003KT 340V050 9999 FEW030 29/23 Q1008 RMK 1CU030 A2978,2024-08-13T22:40:00Z,29,23,6+,29.76
MMZC,22.904,-102.68,0,0,0.0,MMZC 132240Z E00000KT 8SM BKN050 BKN200 23/14 A3025 RMK 8/304 HZY,2024-08-13T22:40:00Z,23,14,8,30.25
MMVA,17.998,-92.817,30,8,9.21,MMVA 132240Z 03008KT 7SM SCT025CB BKN070 BKN230 33/23 A2985 RMK 8/368,2024-08-13T22:40:00Z,33,23,7,29.85
MMTP,14.795,-92.371,230,4,4.6,MMTP 132240Z 23004KT 7SM SCT020CB BKN090 29/25 A2984 RMK 8/360 HZY LWR ST ARND STN,2024-08-13T22:40:00Z,29,25,7,29.84
MMTO,19.343,-99.568,170,10,11.51,MMTO 132240Z 17010KT 6SM SCT020CB BKN070 18/12 A3035 RMK 8/360 HZY,2024-08-13T22:40:00Z,18,12,6,30.35
MMTJ,32.544,-116.982,270,10,11.51,MMTJ 132240Z 27010KT 10SM SKC 29/15 A2994,2024-08-13T22:40:00Z,29,15,10+,29.94
MMSP,22.256,-100.93,80,10,11.51,MMSP 132240Z 08010KT 10SM BKN030TCU BKN250 24/12 A3025 RMK 8/208,2024-08-13T22:40:00Z,24,12,10+,30.25
MMSL,22.948,-109.936,180,9,10.36,MMSL 132240Z 18009KT 9SM FEW035 FEW250 32/22 A2986 RMK 8/101 ISOL AC,2024-08-13T22:40:00Z,32,22,9,29.86
MMRX,26.01,-98.232,190,10,11.51,MMRX 132240Z 19010G20KT 8SM FEW050 FEW250 36/22 A2993 RMK 8/508,2024-08-13T22:40:00Z,36,22,8,29.93
MMPE,31.354,-113.519,150,10,11.51,MMPE 132240Z 15010KT 10SM FEW030 36/19 A2979 RMK 8/100 HZY,2024-08-13T22:40:00Z,36,19,10+,29.79
MMNL,27.448,-99.574,130,16,18.41,MMNL 132240Z 13016KT 10SM FEW030 SCT200 38/19 A2989 RMK 8/102,2024-08-13T22:40:00Z,38,19,10+,29.89
MMMY,25.774,-100.104,120,14,16.11,MMMY 132240Z 12014KT 15SM FEW040 FEW200 36/18 A2996 RMK 8/504,2024-08-13T22:40:00Z,36,18,15,29.96
MMMT,18.098,-94.583,340,5,5.75,MMMT 132240Z 34005KT 7SM BKN200 30/25 A2990 RMK 8/007 VC HZ,2024-08-13T22:40:00Z,30,25,7,29.90
MMMA,25.77,-97.523,130,14,16.11,MMMA 132240Z 13014KT 10SM BKN025 BKN200 33/24 A2997 RMK 8/108,2024-08-13T22:40:00Z,33,24,10+,29.97
MMLM,25.688,-109.085,250,9,10.36,MMLM 132240Z 25009KT 10SM SCT030 34/23 A2982 RMK 8/500,2024-08-13T22:40:00Z,34,23,10+,29.82
MMHO,29.097,-111.051,240,5,5.75,MMHO 132240Z 24005KT 10SM SCT030 40/18 A2985 RMK 8/100 ISOL TCU CI DSNT CB N,2024-08-13T22:40:00Z,40,18,10+,29.85
MMGM,27.964,-110.928,220,12,13.81,MMGM 132240Z 22012KT 10SM FEW030 35/27 A2978 RMK 8/200 DSNT TCU NE,2024-08-13T22:40:00Z,35,27,10+,29.78
MMDO,24.124,-104.532,170,10,11.51,MMDO 132240Z 17010KT 10SM BKN040CB BKN090 OVC220 22/13 A3019 RMK 8/967 DSNT PCPN E BINOVC,2024-08-13T22:40:00Z,22,13,10+,30.19
MMCV,23.706,-98.959,90,11,12.66,MMCV 132240Z 09011KT 10SM FEW020TCU SCT200 34/23 A2996 RMK 8/208 DSNT CB NW/SE,2024-08-13T22:40:00Z,34,23,10+,29.96
MMCS,31.636,-106.427,0,0,0.0,MMCS 132240Z 00000KT 10SM FEW045 SCT080 35/10 A3002 RMK 8/170,2024-08-13T22:40:00Z,35,10,10+,30.02
MMCP,19.817,-90.502,130,6,6.9,MMCP 132240Z 13006KT 4SM -TSRA SCT008CB OVC070 23/23 A2995 RMK 8/97/ FQT LTGICCG W,2024-08-13T22:40:00Z,23,23,4,29.95
MMAN,25.865,-100.239,150,14,16.11,MMAN 132240Z 15014KT 15SM SKC 35/17 A2996 RMK ISOL SC CI,2024-08-13T22:40:00Z,35,17,15,29.96
KOCW,35.5703,-77.05,40,3,3.45,KOCW 132240Z AUTO 04003KT 10SM OVC100 25/19 A3006 RMK AO2 T02540185,2024-08-13T22:40:00Z,25.4,18.5,10+,30.06
KMHV,35.0626,-118.157,290,20,23.02,KMHV 132240Z AUTO 29020G26KT 10SM CLR 34/02 A2995 RMK AO2,2024-08-13T22:40:00Z,34,2,10+,29.95
KGZN,32.3682,-99.026,130,14,16.11,KGZN 132240Z AUTO 13014G20KT 10SM CLR 37/15 A2996 RMK AO2,2024-08-13T22:40:00Z,37,15,10+,29.96
KETC,35.9363,-77.5416,0,0,0.0,KETC 132240Z AUTO 00000KT 5SM -RA BR SCT070 SCT080 OVC100 24/22 A3006 RMK AO2 T02360223,2024-08-13T22:40:00Z,23.6,22.3,5,30.06
KEHO,35.2556,-81.5986,40,4,4.6,KEHO 132240Z AUTO 04004KT 10SM BKN021 BKN036 23/20 A3008 RMK AO2 T02340196,2024-08-13T22:40:00Z,23.4,19.6,10+,30.08
KDMW,39.61,-77.007,310,3,3.45,KDMW 132240Z AUTO 31003KT 10SM SCT065 BKN080 OVC090 27/14 A3006 RMK AO2,2024-08-13T22:40:00Z,27,14,10+,30.06
CYZY,55.303,-123.135,120,6,6.9,CYZY 132239Z AUTO 12006KT 090V160 9SM OVC035 18/15 A2990 RMK SLP131 DENSITY ALT 3200FT,2024-08-13T22:39:00Z,18,15,9,29.90
ROAH,26.196,127.646,230,4,4.6,ROAH 132238Z 23004KT 9999 SHRA FEW020 FEW025TCU BKN/// 31/27 Q1006 RMK 1CU020 1TCU025 A2972 TCU 7KM NW MOV E,2024-08-13T22:38:00Z,31,27,6+,29.70
CYYY,48.609,-68.208,0,0,0.0,CYYY 132238Z 00000KT 15SM BKN069 19/14 A2985 WS RWY06 RMK AC6 SLP113 DENSITY ALT 800FT,2024-08-13T22:38:00Z,19,14,15,29.85
CYKJ,57.256,-105.618,180,11,12.66,CYKJ 132238Z AUTO 18011G19KT 3SM HZ BKN042 27/10 A2983 RMK SLP100 DENSITY ALT 3600FT,2024-08-13T22:38:00Z,27,10,3,29.83
CYGR,47.425,-61.775,20,10,11.51,CYGR 132238Z 02010KT 15SM BKN011 BKN098 19/17 A2979 RMK SC5AC2 SLP090 DENSITY ALT 700FT,2024-08-13T22:38:00Z,19,17,15,29.79
DABC,36.278,6.629,220,4,4.6,DABC 132237Z 22004KT 9999 FEW033 25/16 Q1014,2024-08-13T22:37:00Z,25,16,6+,29.94
CYOJ,58.628,-117.174,330,11,12.66,CYOJ 132236Z 33011KT 6SM -SHRA FU BKN007 OVC039CB 15/14 A2981 RMK FU3SF4CB1 SLP103 DENSITY ALT 1500FT,2024-08-13T22:36:00Z,15,14,6,29.81
RJCA,43.794,142.365,VRB,2,2.3,RJCA 132235Z VRB02KT 9999 FEW008 SCT050 BKN060 25/23 Q1009 RMK 1ST008 3CU050 6CU060 A2979,2024-08-13T22:35:00Z,25,23,6+,29.79
KOWX,41.0341,-83.9862,0,0,0.0,KOWX 132235Z AUTO 00000KT 10SM CLR 27/15 A3090 RMK AO1,2024-08-13T22:35:00Z,27,15,10+,30.90
KOEL,39.1139,-100.819,120,11,12.66,KOEL 132235Z AUTO 12011KT 10SM SCT050 SCT060 31/20 A2997 RMK AO1 T03080196,2024-08-13T22:35:00Z,30.8,19.6,10+,29.97
KO22,38.03,-120.415,VRB,5,5.75,KO22 132235Z AUTO VRB05G10KT 10SM CLR 32/01 A2998 RMK A01,2024-08-13T22:35:00Z,32,1,10+,29.98
KJSO,31.869,-95.2145,230,5,5.75,KJSO 132235Z AUTO 23005KT 10SM SCT049 34/22 A3004 RMK AO2 T03420217,2024-08-13T22:35:00Z,34.2,21.7,10+,30.04
KHNZ,36.3635,-78.5289,190,3,3.45,KHNZ 132235Z AUTO 19003KT 10SM CLR 23/17 A3007 RMK AO2 T02300174,2024-08-13T22:35:00Z,23,17.4,10+,30.07
KCZL,34.45,-84.936,VRB,3,3.45,KCZL 132235Z AUTO VRB03KT 10SM 32/18 A3001 RMK AO2,2024-08-13T22:35:00Z,32,18,10+,30.01
KAIK,33.651,-81.6821,50,7,8.06,KAIK 132235Z AUTO 05007KT 10SM SCT018 SCT025 28/24 A3003 RMK AO2 T02770237,2024-08-13T22:35:00Z,27.7,23.7,10+,30.03
CYET,53.58,-116.455,30,24,27.62,CYET 132235Z AUTO 03024G32KT 300V040 6SM -TSRA BKN060 OVC076 19/12 A2985 RMK LTNG DIST SW PRESRR SLP105 DENSITY ALT 4300FT,2024-08-13T22:35:00Z,19,12,6,29.85
CYBQ,58.707,-98.511,220,8,9.21,CYBQ 132235Z AUTO 22008KT 2SM HZ CLR 26/12 A2984 RMK SLP107 DENSITY ALT 2600FT,2024-08-13T22:35:00Z,26,12,2,29.84
YBWW,-27.558,151.793,90,10,11.51,YBWW 132234Z AUTO 09010KT 9999 // FEW045 BKN057 OVC070 16/14 Q1018,2024-08-13T22:34:00Z,16,14,6+,30.06
KC99,39.869,-105.553,300,19,21.86,KC99 132234Z AUTO 30019G30KT 10SM SCT011 SCT042 BKN060 10/08 A3047 RMK AO2 LTG DSNT ALQS,2024-08-13T22:34:00Z,10,8,10+,30.47
CYMH,52.304,-55.833,110,6,6.9,CYMH 132233Z AUTO 11006KT 9SM BKN019 08/05 A2995 RMK SLP144,2024-08-13T22:33:00Z,8,5,9,29.95
CYYW,50.296,-88.912,120,3,3.45,CYYW 132232Z AUTO 12003KT 9SM BKN086 25/18 A3005 RMK LTNG DIST E SE SW SLP162 DENSITY ALT 2300FT,2024-08-13T22:32:00Z,25,18,9,30.05
CYRB,74.713,-94.982,270,22,25.32,CYRB 132232Z 27022G28KT 2SM -SN BR BKN004 OVC011 M00/M01 A2948 RMK ST7ST1 SLP990,2024-08-13T22:32:00Z,0,-1,2,29.48
ZYTX,41.639,123.485,50,6,6.9,ZYTX 132230Z 05003MPS 030V090 CAVOK 25/22 Q1010 NOSIG,2024-08-13T22:30:00Z,25,22,6+,29.82
ZYTL,38.961,121.556,VRB,2,2.3,ZYTL 132230Z VRB01MPS 6000 -SHRA FEW013 SCT023 27/25 Q1009 NOSIG,2024-08-13T22:30:00Z,27,25,3.73,29.79
ZWWW,43.907,87.474,170,10,11.51,ZWWW 132230Z 17005MPS CAVOK 24/08 Q1013 NOSIG,2024-08-13T22:30:00Z,24,8,6+,29.91
ZSSS,31.209,121.337,80,6,6.9,ZSSS 132230Z 08003MPS CAVOK 29/25 Q1007 NOSIG,2024-08-13T22:30:00Z,29,25,6+,29.73
ZSPD,31.146,121.8,70,8,9.21,ZSPD 132230Z 07004MPS CAVOK 30/24 Q1007 NOSIG,2024-08-13T22:30:00Z,30,24,6+,29.73
ZSHC,30.229,120.434,240,6,6.9,ZSHC 132230Z 24003MPS 9999 BKN017 28/25 Q1007 NOSIG,2024-08-13T22:30:00Z,28,25,6+,29.73
ZGGG,23.392,113.307,80,4,4.6,ZGGG 132230Z 08002MPS CAVOK 28/26 Q1006 NOSIG,2024-08-13T22:30:00Z,28,26,6+,29.70
ZBYN,37.747,112.628,60,8,9.21,ZBYN 132230Z 06004MPS 030V090 9999 BKN033 22/16 Q1015 NOSIG,2024-08-13T22:30:00Z,22,16,6+,29.97
ZBTJ,39.124,117.346,340,6,6.9,ZBTJ 132230Z 34003MPS CAVOK 25/23 Q1011 NOSIG,2024-08-13T22:30:00Z,25,23,6+,29.85
ZBAD,39.501,116.412,10,4,4.6,ZBAD 132230Z 01002MPS 9999 FEW033 25/21 Q1012 NOSIG,2024-08-13T22:30:00Z,25,21,6+,29.88
ZBAA,40.082,116.603,360,6,6.9,ZBAA 132230Z 36003MPS CAVOK 24/22 Q1012 NOSIG,2024-08-13T22:30:00Z,24,22,6+,29.88
YWLM,-32.794,151.836,10,3,3.45,YWLM 132230Z 01003KT 9999 -SHRA VCSH FEW015 OVC100 16/16 Q1022,2024-08-13T22:30:00Z,16,16,6+,30.18
YSTW,-31.084,150.847,150,6,6.9,YSTW 132230Z AUTO 15006KT 9999 -RA BKN067 OVC077 OVC086 15/13 Q1021,2024-08-13T22:30:00Z,15,13,6+,30.15
YSSY,-33.946,151.173,290,5,5.75,YSSY 132230Z 29005KT 260V320 9999 -DZ VCSH FEW026 BKN060 BKN110 17/17 Q1022,2024-08-13T22:30:00Z,17,17,6+,30.18
YSNF,-29.039,167.941,100,9,10.36,YSNF 132230Z 10009KT 9999 FEW025 BKN038 17/11 Q1028 RF00.0/000.0,2024-08-13T22:30:00Z,17,11,6+,30.35
YPWR,-31.156,136.805,30,7,8.06,YPWR 132230Z AUTO 03007KT 9999 // NCD 14/07 Q1018 RF00.0/000.0,2024-08-13T22:30:00Z,14,7,6+,30.06
YPTN,-14.523,132.383,150,4,4.6,YPTN 132230Z 15004KT CAVOK 18/10 Q1016,2024-08-13T22:30:00Z,18,10,6+,30.00
YPPH,-31.927,115.976,270,7,8.06,YPPH 132230Z 27007KT 9999 VCSH FEW030 SCT048 15/10 Q1012 RF00.0/007.2,2024-08-13T22:30:00Z,15,10,6+,29.88
YPPD,-20.372,118.632,190,7,8.06,YPPD 132230Z AUTO 19007KT 9999 // ////// 17/12 Q1015 RF00.0/000.2,2024-08-13T22:30:00Z,17,12,6+,29.97
YPLM,-22.241,114.097,230,7,8.06,YPLM 132230Z AUTO 23007KT 9999 // NCD 13/10 Q1018 RF00.0/000.0,2024-08-13T22:30:00Z,13,10,6+,30.06
YPKU,-15.781,128.71,0,0,0.0,YPKU 132230Z AUTO 00000KT 9999 // NCD 15/12 Q1016 RF00.0/000.0,2024-08-13T22:30:00Z,15,12,6+,30.00
YPKG,-30.785,121.453,290,8,9.21,YPKG 132230Z AUTO 29008KT 9999 // NCD 11/08 Q1014 RF00.0/000.0,2024-08-13T22:30:00Z,11,8,6+,29.94
YPGV,-12.274,136.82,,,,YPGV 132230Z AUTO /////KT 9999 // NCD 23/22 Q1014 RF00.0/000.0,2024-08-13T22:30:00Z,23,22,6+,29.94
YPEA,-31.667,116.019,350,5,5.75,YPEA 132230Z AUTO 35005KT 9999 // NCD 12/11 Q1013 RF00.0/008.6,2024-08-13T22:30:00Z,12,11,6+,29.91
YPDN,-12.424,130.893,70,5,5.75,YPDN 132230Z 07005KT 9999 FEW020 23/20 Q1015,2024-08-13T22:30:00Z,23,20,6+,29.97
YPCC,-12.189,96.834,100,8,9.21,YPCC 132230Z AUTO 10008KT 9999 // FEW031 SCT038 BKN045 25/22 Q1012,2024-08-13T22:30:00Z,25,22,6+,29.88
YPAD,-34.952,138.52,10,3,3.45,YPAD 132230Z 01003KT CAVOK 14/06 Q1017,2024-08-13T22:30:00Z,14,6,6+,30.03
YMML,-37.666,144.832,10,18,20.71,YMML 132230Z 01018KT 9999 FEW025 BKN098 15/11 Q1019 RF00.0/000.0,2024-08-13T22:30:00Z,15,11,6+,30.09
YMHB,-42.834,147.503,160,4,4.6,YMHB 132230Z 16004KT 130V230 9999 VCSH FEW038 BKN047 BKN180 13/10 Q1015,2024-08-13T22:30:00Z,13,10,6+,29.97
YMAV,-38.029,144.478,360,7,8.06,YMAV 132230Z AUTO 36007KT 9999 // SCT077 OVC110 15/10 Q1018,2024-08-13T22:30:00Z,15,10,6+,30.06
YLHI,-31.538,159.077,80,18,20.71,YLHI 132230Z 08018KT 9999 FEW028 OVC175 18/13 Q1026 RF00.0/000.0,2024-08-13T22:30:00Z,18,13,6+,30.30
YHID,-10.584,142.29,140,7,8.06,YHID 132230Z AUTO 14007KT 9999 // FEW020 26/22 Q1014 RF00.0/000.0,2024-08-13T22:30:00Z,26,22,6+,29.94
YGEL,-28.805,114.699,240,14,16.11,YGEL 132230Z AUTO 24014KT 9999 // FEW022 SCT029 BKN042 17/15 Q1016,2024-08-13T22:30:00Z,17,15,6+,30.00
YFRT,-30.848,128.114,30,9,10.36,YFRT 132230Z AUTO 03009KT 8000 RA BKN067 OVC085 12/11 Q1017,2024-08-13T22:30:00Z,12,11,4.97,30.03
YCIN,-17.574,123.831,160,8,9.21,YCIN 132230Z AUTO 16008KT 9999 // NCD 18/08 Q1014 RF00.0/000.0,2024-08-13T22:30:00Z,18,8,6+,29.94
YCFS,-30.317,153.119,360,1,1.15,YCFS 132230Z AUTO 36001KT 9999 // SCT026 BKN036 OVC046 17/16 Q1021 RESHRA,2024-08-13T22:30:00Z,17,16,6+,30.15
YBTL,-19.248,146.766,0,0,0.0,YBTL 132230Z AUTO 00000KT 9999 // NCD 20/17 Q1016 RF00.0/000.0,2024-08-13T22:30:00Z,20,17,6+,30.00
YBRM,-17.948,122.235,0,0,0.0,YBRM 132230Z AUTO 00000KT 9999 // NCD 14/13 Q1015 RF00.0/000.0,2024-08-13T22:30:00Z,14,13,6+,29.97
YBRK,-23.375,150.477,140,4,4.6,YBRK 132230Z AUTO 14004KT 9999 // FEW008 BKN020 BKN027 21/20 Q1015,2024-08-13T22:30:00Z,21,20,6+,29.97
YBMA,-20.678,139.488,140,4,4.6,YBMA 132230Z AUTO 14004KT 9999 // NCD 18/09 Q1018 RF00.0/000.0,2024-08-13T22:30:00Z,18,9,6+,30.06
YBLN,-33.688,115.402,280,7,8.06,YBLN 132230Z AUTO 28007KT 9999 // NCD 12/08 Q1010 RF00.0/009.0,2024-08-13T22:30:00Z,12,8,6+,29.82
YBHM,-20.357,148.949,0,0,0.0,YBHM 132230Z AUTO 00000KT 9999 // NCD 21/18 Q1015 RF00.0/000.2,2024-08-13T22:30:00Z,21,18,6+,29.97
YBCS,-16.874,145.745,,,,YBCS 132230Z AUTO /////KT 9999 // NCD 21/18 Q1015 RF00.0/000.0,2024-08-13T22:30:00Z,21,18,6+,29.97
YBBN,-27.391,153.13,30,6,6.9,YBBN 132230Z 03006KT 4000 RA SCT010 OVC029 18/18 Q1019 RF00/6/031/4,2024-08-13T22:30:00Z,18,18,2.49,30.09
YBAS,-23.795,133.889,290,5,5.75,YBAS 132230Z AUTO 29005KT 9999 // NCD 10/04 Q1019 RF00.0/000.0,2024-08-13T22:30:00Z,10,4,6+,30.09
WMKP,5.297,100.277,VRB,3,3.45,WMKP 132230Z VRB03KT 6000 -TSRA FEW010 FEW017CB SCT025 25/23 Q1008 NOSIG,2024-08-13T22:30:00Z,25,23,3.73,29.76
WMKK,2.747,101.714,0,0,0.0,WMKK 132230Z 00000KT 9999 FEW030 27/25 Q1009 NOSIG,2024-08-13T22:30:00Z,27,25,6+,29.79
WIPP,-2.898,104.7,180,2,2.3,WIPP 132230Z 18002KT 5000 HZ FEW012 25/23 Q1010 NOSIG,2024-08-13T22:30:00Z,25,23,3.11,29.82
WIOO,-0.151,109.404,100,2,2.3,WIOO 132230Z 10002KT 6000 SCT013 26/26 Q1009 NOSIG,2024-08-13T22:30:00Z,26,26,3.73,29.79
WIMM,3.636,98.874,300,2,2.3,WIMM 132230Z 30002KT 3000 BR SCT018 25/25 Q1008 NOSIG,2024-08-13T22:30:00Z,25,25,1.86,29.76
WILL,-5.242,105.179,0,0,0.0,WILL 132230Z 00000KT 4000 BR NSC 22/21 Q1010 TEMPO TL0100 4000 BR,2024-08-13T22:30:00Z,22,21,2.49,29.82
WIHH,-6.267,106.891,0,0,0.0,WIHH 132230Z 00000KT 7000 NSC 24/22 Q1010 NOSIG METAR ,2024-08-13T22:30:00Z,24,22,4.35,29.82
WIEE,-0.783,100.283,30,2,2.3,WIEE 132230Z 03002KT 6000 SCT020 23/22 Q1008 NOSIG,2024-08-13T22:30:00Z,23,22,3.73,29.76
WIDN,0.923,104.532,120,2,2.3,WIDN 132230Z 12002KT 9999 FEW017 26/25 Q1009 NOSIG,2024-08-13T22:30:00Z,26,25,6+,29.79
WIDD,1.121,104.119,0,0,0.0,WIDD 132230Z 00000KT 9999 FEW014 27/25 Q1010 NOSIG,2024-08-13T22:30:00Z,27,25,6+,29.82
WIBB,0.461,101.445,180,5,5.75,WIBB 132230Z 18005KT 7000 FEW014 25/24 Q1008 NOSIG,2024-08-13T22:30:00Z,25,24,4.35,29.76
WBSB,4.944,114.928,190,4,4.6,WBSB 132230Z 19004KT 9999 FEW004 SCT014 BKN140 25/24 Q1009 NOSIG,2024-08-13T22:30:00Z,25,24,6+,29.79
WBKK,5.937,116.051,110,7,8.06,WBKK 132230Z 11007KT 9999 FEW015 24/22 Q1009 NOSIG,2024-08-13T22:30:00Z,24,22,6+,29.79
WBGG,1.484,110.34,VRB,2,2.3,WBGG 132230Z VRB02KT 9999 SCT020 25/25 Q1010 NOSIG,2024-08-13T22:30:00Z,25,25,6+,29.82
WAYY,-4.528,136.887,0,0,0.0,WAYY 132230Z 00000KT 9000 SCT014 23/22 Q1014 NOSIG,2024-08-13T22:30:00Z,23,22,5.59,29.94
WATT,-10.172,123.671,90,7,8.06,WATT 132230Z 09007KT 9999 FEW020 23/20 Q1015 NOSIG,2024-08-13T22:30:00Z,23,20,6+,29.97
WARR,-7.38,112.787,210,3,3.45,WARR 132230Z 21003KT 4000 HZ FEW020 23/21 Q1011 NOSIG,2024-08-13T22:30:00Z,23,21,2.49,29.85
WAQQ,3.327,117.568,30,3,3.45,WAQQ 132230Z 03003KT 6000 -SHRA FEW015 BKN065 25/25 Q1010,2024-08-13T22:30:00Z,25,25,3.73,29.82
WAPP,-3.71,128.089,VRB,2,2.3,WAPP 132230Z VRB02KT 9000 SCT016 25/24 Q1013 NOSIG,2024-08-13T22:30:00Z,25,24,5.59,29.91
WAOO,-3.44,114.759,300,2,2.3,WAOO 132230Z 30002KT 9999 FEW020 24/24 Q1010 NOSIG,2024-08-13T22:30:00Z,24,24,6+,29.82
WALL,-1.268,116.894,250,5,5.75,WALL 132230Z 25005KT 5000 -RA FEW016CB SCT017 25/24 Q1010 RMK CB TO E,2024-08-13T22:30:00Z,25,24,3.11,29.82
WAKK,-8.52,140.417,130,6,6.9,WAKK 132230Z 13006KT 9999 FEW016 25/23 Q1012 NOSIG,2024-08-13T22:30:00Z,25,23,6+,29.88
WAHS,-6.973,110.375,140,2,2.3,WAHS 132230Z 14002KT 7000 FEW014 24/19 Q1010 NOSIG,2024-08-13T22:30:00Z,24,19,4.35,29.82
WADD,-8.748,115.167,100,11,12.66,WADD 132230Z 10011KT 9999 SCT017 25/23 Q1012 NOSIG,2024-08-13T22:30:00Z,25,23,6+,29.88
WABB,-1.19,136.108,VRB,2,2.3,WABB 132230Z VRB02KT 9999 -RA FEW015CB SCT016 BKN100 25/25 Q1012 NOSIG RMK CB AT S,2024-08-13T22:30:00Z,25,25,6+,29.88
WAAA,-5.062,119.554,170,2,2.3,WAAA 132230Z 17002KT 9999 FEW020 21/18 Q1011 NOSIG,2024-08-13T22:30:00Z,21,18,6+,29.85
VYYY,16.906,96.137,160,3,3.45,VYYY 132230Z 16003KT 6000 BKN015 FEW020CB BKN100 26/25 Q1006,2024-08-13T22:30:00Z,26,25,3.73,29.70
VVVD,21.118,107.414,40,3,3.45,VVVD 132230Z 04003KT 9999 FEW012 26/26 Q1006 NOSIG,2024-08-13T22:30:00Z,26,26,6+,29.70
VVTS,10.817,106.667,210,4,4.6,VVTS 132230Z 21004KT CAVOK 27/25 Q1008 NOSIG,2024-08-13T22:30:00Z,27,25,6+,29.76
VVPQ,10.169,103.995,0,0,0.0,VVPQ 132230Z 00000KT 9999 FEW015 26/25 Q1008 NOSIG,2024-08-13T22:30:00Z,26,25,6+,29.76
VVPB,16.399,107.699,60,1,1.15,VVPB 132230Z 06001KT 9999 FEW015 27/25 Q1006 NOSIG,2024-08-13T22:30:00Z,27,25,6+,29.70
VVNB,21.218,105.805,250,3,3.45,VVNB 132230Z 25003KT 220V280 7000 FEW004 BKN021 FEW030TCU BKN044 27/26 Q1005 TEMPO FM2310 3200 SHRA,2024-08-13T22:30:00Z,27,26,4.35,29.68
VVDN,16.044,108.199,230,3,3.45,VVDN 132230Z 23003KT CAVOK 26/24 Q1007 NOSIG,2024-08-13T22:30:00Z,26,24,6+,29.73
VVCT,10.085,105.712,180,1,1.15,VVCT 132230Z 18001KT 9999 FEW015 SCT050 26/26 Q1008 NOSIG,2024-08-13T22:30:00Z,26,26,6+,29.76
VVCR,11.998,109.219,330,2,2.3,VVCR 132230Z 33002KT 9999 FEW017 28/24 Q1008 NOSIG,2024-08-13T22:30:00Z,28,24,6+,29.76
VVCI,20.823,106.727,290,3,3.45,VVCI 132230Z 29003KT 7000 NSC 27/26 Q1005 NOSIG,2024-08-13T22:30:00Z,27,26,4.35,29.68
VTSS,6.933,100.393,170,3,3.45,VTSS 132230Z 17003KT 150V210 8000 FEW020 26/25 Q1008 NOSIG,2024-08-13T22:30:00Z,26,25,4.97,29.76
VTSP,8.105,98.308,340,3,3.45,VTSP 132230Z 34003KT 300V010 9999 FEW020 26/25 Q1008 NOSIG,2024-08-13T22:30:00Z,26,25,6+,29.76
VTCC,18.771,98.963,70,2,2.3,VTCC 132230Z 07002KT 9999 FEW035 25/22 Q1007 NOSIG,2024-08-13T22:30:00Z,25,22,6+,29.73
VTBU,12.68,101.001,0,0,0.0,VTBU 132230Z 00000KT 9999 FEW020 27/25 Q1007 NOSIG,2024-08-13T22:30:00Z,27,25,6+,29.73
VTBS,13.686,100.767,30,3,3.45,VTBS 132230Z 03003KT 9999 FEW020 27/26 Q1007 NOSIG,2024-08-13T22:30:00Z,27,26,6+,29.73
VTBD,13.913,100.607,50,3,3.45,VTBD 132230Z 05003KT 9999 FEW020 27/25 Q1007 NOSIG,2024-08-13T22:30:00Z,27,25,6+,29.73
VQPR,27.403,89.425,VRB,1,1.15,VQPR 132230Z VRB01KT 4000 BR SCT007 SCT020 OVC040 16/16 Q1023,2024-08-13T22:30:00Z,16,16,2.49,30.21
VOGO,15.378,73.828,10,6,6.9,VOGO 132230Z 01006KT 6000 SCT010 FEW070 27/25 Q1006 NOSIG,2024-08-13T22:30:00Z,27,25,3.73,29.70
VOBG,12.949,77.663,120,3,3.45,VOBG 132230Z 12003KT 3000 BR SCT008 SCT012 BKN080 25/23 Q1011 NOSIG,2024-08-13T22:30:00Z,25,23,1.86,29.85
VMMC,22.141,113.596,220,4,4.6,VMMC 132230Z 22004KT 9999 FEW015 SCT030 28/26 Q1006 NOSIG,2024-08-13T22:30:00Z,28,26,6+,29.70
VGHS,23.846,90.4,0,0,0.0,VGHS 132230Z 00000KT 3500 HZ SCT010 BKN100 28/26 Q1004 NOSIG,2024-08-13T22:30:00Z,28,26,2.17,29.65
VEPT,25.591,85.088,0,0,0.0,VEPT 132230Z 00000KT 3000 BR SCT018 FEW030CB BKN100 31/30 Q1003 NOSIG,2024-08-13T22:30:00Z,31,30,1.86,29.62
VDSV,10.582,103.637,30,2,2.3,VDSV 132230Z 03002KT 9000 SCT015 25/25 Q1008,2024-08-13T22:30:00Z,25,25,5.59,29.76
VDSA,13.371,104.225,270,5,5.75,VDSA 132230Z 27005KT 9999 SCT015 27/25 Q1007,2024-08-13T22:30:00Z,27,25,6+,29.73
VDPP,11.547,104.844,VRB,3,3.45,VDPP 132230Z VRB03KT 9000 SCT015 28/27 Q1007,2024-08-13T22:30:00Z,28,27,5.59,29.73
VAID,22.722,75.801,250,5,5.75,VAID 132230Z 25005KT 2000 BR FEW010 SCT020 23/22 Q1009 NOSIG,2024-08-13T22:30:00Z,23,22,1.24,29.79
UTDT,37.866,68.865,80,4,4.6,UTDT 132230Z 08002MPS 9999 FEW120 26/15 Q1005 R35/CLRD70 RMK QFE715/0953,2024-08-13T22:30:00Z,26,15,6+,29.68
UTDL,40.215,69.695,230,6,6.9,UTDL 132230Z 23003MPS 9999 FEW066CB BKN086 28/12 Q1008 R26/CLRD70 NOSIG RMK QFE718/0958,2024-08-13T22:30:00Z,28,12,6+,29.76
UTDK,37.988,69.805,20,14,16.11,UTDK 132230Z 02007MPS 9999 NSC 29/11 Q1008 R01/09//70 RMK QFE699/0932,2024-08-13T22:30:00Z,29,11,6+,29.76
UTDD,38.543,68.825,0,0,0.0,UTDD 132230Z 00000MPS 9999 NSC 24/13 Q1010 R09/D NOSIG RMK QFE689/0919,2024-08-13T22:30:00Z,24,13,6+,29.82
UDYZ,40.147,44.396,20,8,9.21,UDYZ 132230Z 02008KT 9999 NSC 24/11 Q1012 NOSIG,2024-08-13T22:30:00Z,24,11,6+,29.88
UDSG,40.75,43.859,VRB,2,2.3,UDSG 132230Z VRB02KT 9999 NSC 16/10 Q1019 NOSIG,2024-08-13T22:30:00Z,16,10,6+,30.09
UCFO,40.61,72.791,170,4,4.6,UCFO 132230Z 17002MPS 9999 FEW050 23/12 Q1011 NOSIG,2024-08-13T22:30:00Z,23,12,6+,29.85
UCFM,43.061,74.478,170,8,9.21,UCFM 132230Z 17004MPS CAVOK 23/10 Q1010 NOSIG,2024-08-13T22:30:00Z,23,10,6+,29.82
UAUU,53.215,63.553,180,10,11.51,UAUU 132230Z 18005MPS CAVOK 14/12 Q0998 NOSIG RMK QFE732/0977,2024-08-13T22:30:00Z,14,12,6+,29.47
UATT,50.248,57.203,230,10,11.51,UATT 132230Z 23005MPS CAVOK 17/09 Q1003 NOSIG RMK QFE733/0977,2024-08-13T22:30:00Z,17,9,6+,29.62
UATG,47.122,51.829,220,8,9.21,UATG 132230Z 22004MPS CAVOK 20/16 Q1007 NOSIG RMK QFE757/1010,2024-08-13T22:30:00Z,20,16,6+,29.73
UATE,43.86,51.092,40,6,6.9,UATE 132230Z 04003MPS CAVOK 20/10 Q1010 NOSIG RMK QFE756/1008,2024-08-13T22:30:00Z,20,10,6+,29.82
UASP,52.202,77.078,310,14,16.11,UASP 132230Z 31007MPS CAVOK 19/14 Q1006 NOSIG RMK QFE743/0991,2024-08-13T22:30:00Z,19,14,6+,29.70
UASK,50.027,82.5,0,0,0.0,UASK 132230Z 00000MPS 9999 NSC 12/11 Q1011 NOSIG RMK QFE733/0978,2024-08-13T22:30:00Z,12,11,6+,29.85
UARR,51.151,51.541,260,8,9.21,UARR 132230Z 26004MPS 9999 -SHRA SCT040CB 16/13 Q1002 NOSIG RMK QFE748/0997,2024-08-13T22:30:00Z,16,13,6+,29.59
UAOO,44.707,65.593,30,8,9.21,UAOO 132230Z 03004MPS CAVOK 24/12 Q1008 NOSIG RMK QFE744/0992,2024-08-13T22:30:00Z,24,12,6+,29.76
UAKK,49.672,73.333,40,8,9.21,UAKK 132230Z 04004MPS CAVOK 14/11 Q1009 NOSIG RMK QFE710/0947,2024-08-13T22:30:00Z,14,11,6+,29.79
UAIT,43.311,68.55,50,8,9.21,UAIT 132230Z 05004MPS CAVOK 27/09 Q1008 NOSIG RMK QFE729/0972,2024-08-13T22:30:00Z,27,9,6+,29.76
UAII,42.366,69.476,160,6,6.9,UAII 132230Z 16003MPS 9999 SCT050CB 24/12 Q1008 NOSIG RMK QFE721/0961,2024-08-13T22:30:00Z,24,12,6+,29.76
UADD,42.854,71.304,210,6,6.9,UADD 132230Z 21003MPS 9999 NSC 25/11 Q1011 NOSIG RMK QFE701/0935,2024-08-13T22:30:00Z,25,11,6+,29.85
UACC,51.024,71.468,210,6,6.9,UACC 132230Z 21003MPS 9999 SCT036CB 14/13 Q1007 NOSIG RMK QFE724/0966,2024-08-13T22:30:00Z,14,13,6+,29.73
UAAA,43.35,77.027,VRB,2,2.3,UAAA 132230Z VRB01MPS 9999 SCT100 BKN200 22/13 Q1010 NOSIG,2024-08-13T22:30:00Z,22,13,6+,29.82
RKSI,37.469,126.451,40,9,10.36,RKSI 132230Z 04009KT CAVOK 28/25 Q1009 NOSIG,2024-08-13T22:30:00Z,28,25,6+,29.79
RJTT,35.553,139.781,180,7,8.06,RJTT 132230Z 18007KT 150V220 9999 FEW015 31/26 Q1008 NOSIG RMK 1CU015 A2978,2024-08-13T22:30:00Z,31,26,6+,29.76
RJSN,37.956,139.121,50,2,2.3,RJSN 132230Z 05002KT 9999 FEW007 SCT015 BKN025 27/25 Q1009,2024-08-13T22:30:00Z,27,25,6+,29.79
RJOC,35.414,132.89,VRB,3,3.45,RJOC 132230Z VRB03KT 9999 FEW010 28/25 Q1008,2024-08-13T22:30:00Z,28,25,6+,29.76
RJOA,34.436,132.919,80,5,5.75,RJOA 132230Z 08005KT 9999 FEW020 BKN/// 26/23 Q1010,2024-08-13T22:30:00Z,26,23,6+,29.82
RJNS,34.796,138.189,50,4,4.6,RJNS 132230Z 05004KT 330V110 9999 FEW030 SCT/// 29/25 Q1009,2024-08-13T22:30:00Z,29,25,6+,29.79
RJGG,34.858,136.805,330,8,9.21,RJGG 132230Z 33008KT 9999 FEW015 30/26 Q1008 NOSIG,2024-08-13T22:30:00Z,30,26,6+,29.76
RJFM,31.877,131.449,310,6,6.9,RJFM 132230Z 31006KT 9999 FEW020 29/23 Q1007,2024-08-13T22:30:00Z,29,23,6+,29.73
RJFF,33.584,130.452,160,5,5.75,RJFF 132230Z 16005KT 130V210 CAVOK 29/24 Q1007 NOSIG RMK A2976,2024-08-13T22:30:00Z,29,24,6+,29.73
RJDT,34.288,129.325,30,6,6.9,RJDT 132230Z 03006KT 360V070 9999 FEW010 SCT015 28/25 Q1008,2024-08-13T22:30:00Z,28,25,6+,29.76
RJDC,33.93,131.279,60,6,6.9,RJDC 132230Z 06006KT 9999 FEW010 SCT090 28/25 Q1007,2024-08-13T22:30:00Z,28,25,6+,29.73
RJCC,42.774,141.693,150,10,11.51,RJCC 132230Z 15010KT 8000 -SHRA FEW003 BKN006 BKN007 24/23 Q1008 RMK 1ST003 5ST006 7ST007 A2977,2024-08-13T22:30:00Z,24,23,4.97,29.76
RJBB,34.434,135.233,10,4,4.6,RJBB 132230Z 01004KT 9999 FEW025 28/26 Q1008 NOSIG,2024-08-13T22:30:00Z,28,26,6+,29.76
RJAA,35.765,140.386,170,5,5.75,RJAA 132230Z 17005KT 140V200 9999 FEW013 29/27 Q1008 NOSIG RMK 1CU013 A2979,2024-08-13T22:30:00Z,29,27,6+,29.76
RCTP,25.078,121.233,170,5,5.75,RCTP 132230Z 17005KT 140V200 9999 FEW020 BKN180 29/26 Q1006 NOSIG RMK A2973,2024-08-13T22:30:00Z,29,26,6+,29.70
RCSS,25.069,121.552,VRB,1,1.15,RCSS 132230Z VRB01KT 9999 FEW025 BKN150 28/25 Q1006 NOSIG RMK A2973,2024-08-13T22:30:00Z,28,25,6+,29.70
RCNN,22.95,120.206,100,3,3.45,RCNN 132230Z 10003KT 9999 FEW012 SCT040 BKN080 30/26 Q1007 NOSIG RMK A2974,2024-08-13T22:30:00Z,30,26,6+,29.73
RCMQ,24.265,120.621,180,5,5.75,RCMQ 132230Z 18005KT 9999 FEW010 SCT030 BKN100 27/26 Q1007 NOSIG RMK A2976,2024-08-13T22:30:00Z,27,26,6+,29.73
RCKH,22.577,120.35,70,3,3.45,RCKH 132230Z 07003KT 9999 FEW014 SCT060 28/26 Q1006 NOSIG RMK A2973,2024-08-13T22:30:00Z,28,26,6+,29.70
RCFN,22.755,121.102,320,4,4.6,RCFN 132230Z 32004KT 280V360 9999 FEW020 SCT200 27/25 Q1008 NOSIG RMK A2978,2024-08-13T22:30:00Z,27,25,6+,29.76
OTBD,25.261,51.565,90,2,2.3,OTBD 132230Z 09002KT 4500 HZ NSC 34/29 Q0998 NOSIG,2024-08-13T22:30:00Z,34,29,2.8,29.47
OPPS,33.996,71.515,310,6,6.9,OPPS 132230Z 31006KT 5000 FEW040 BKN070 30/27 Q1004,2024-08-13T22:30:00Z,30,27,3.11,29.65
OPIS,33.551,72.827,90,6,6.9,OPIS 132230Z 09006KT 6000 FEW040 27/26 Q1005 NOSIG,2024-08-13T22:30:00Z,27,26,3.73,29.68
OBBI,26.271,50.634,310,3,3.45,OBBI 132230Z 31003KT CAVOK 35/26 Q0998 NOSIG,2024-08-13T22:30:00Z,35,26,6+,29.47
LKPD,50.016,15.74,70,6,6.9,LKPD 132230Z 07006KT CAVOK 23/12 Q1013 RMK BLU,2024-08-13T22:30:00Z,23,12,6+,29.91
LKNA,49.166,16.125,80,5,5.75,LKNA 132230Z 08005KT CAVOK 23/09 Q1014 RMK BLACK,2024-08-13T22:30:00Z,23,9,6+,29.94
LKCV,49.94,15.382,VRB,2,2.3,LKCV 132230Z VRB02KT CAVOK 23/15 Q1013 NOSIG RMK BLU BLU,2024-08-13T22:30:00Z,23,15,6+,29.91
LEVS,40.371,-3.785,VRB,2,2.3,LEVS 132230Z AUTO VRB02KT CAVOK 24/12 Q1014,2024-08-13T22:30:00Z,24,12,6+,29.94
LETU,-99.99,-99.99,290,3,3.45,LETU 132230Z AUTO 29003KT CAVOK 20/17 Q1015,2024-08-13T22:30:00Z,20,17,6+,29.97
LETO,40.489,-3.451,40,7,8.06,LETO 132230Z 04007KT 010V080 CAVOK 23/12 Q1014 NOSIG,2024-08-13T22:30:00Z,23,12,6+,29.94
LESB,39.599,2.703,140,5,5.75,LESB 132230Z AUTO 14005KT 9999 FEW024 SCT028 BKN035 28/23 Q1009,2024-08-13T22:30:00Z,28,23,6+,29.79
LERT,36.645,-6.349,300,13,14.96,LERT 132230Z 30013KT 260V340 CAVOK 26/18 Q1013 NOSIG,2024-08-13T22:30:00Z,26,18,6+,29.91
LEMO,37.175,-5.616,200,11,12.66,LEMO 132230Z 20011KT 170V230 CAVOK 23/13 Q1012 NOSIG,2024-08-13T22:30:00Z,23,13,6+,29.88
LELO,42.452,-2.331,0,0,0.0,LELO 132230Z AUTO 00000KT 9999 BKN029 19/18 Q1015,2024-08-13T22:30:00Z,19,18,6+,29.97
LELL,41.521,2.105,350,4,4.6,LELL 132230Z AUTO 35004KT 310V050 CAVOK 27/17 Q1010,2024-08-13T22:30:00Z,27,17,6+,29.82
LEHC,42.082,-0.324,VRB,2,2.3,LEHC 132230Z AUTO VRB02KT 9999 -RA NSC 18/15 Q1014,2024-08-13T22:30:00Z,18,15,6+,29.94
LEGT,40.299,-3.723,80,7,8.06,LEGT 132230Z AUTO 08007KT 040V110 CAVOK 24/13 Q1014,2024-08-13T22:30:00Z,24,13,6+,29.94
LEBT,39.58,-0.45,VRB,2,2.3,LEBT 132230Z AUTO VRB02KT CAVOK 24/16 Q1010,2024-08-13T22:30:00Z,24,16,6+,29.82
LEBR,42.2,-1.43,330,3,3.45,LEBR 132230Z AUTO 33003KT 280V020 CAVOK 19/17 Q1015,2024-08-13T22:30:00Z,19,17,6+,29.97
LEBA,37.842,-4.849,240,7,8.06,LEBA 132230Z AUTO 24007KT 210V280 CAVOK 25/13 Q1011,2024-08-13T22:30:00Z,25,13,6+,29.85
LEAB,38.952,-1.863,0,0,0.0,LEAB 132230Z 00000KT CAVOK 24/03 Q1014 NOSIG,2024-08-13T22:30:00Z,24,3,6+,29.94
KTQK,38.4782,-100.882,170,8,9.21,KTQK 132230Z AUTO 17008KT 10SM CLR 34/19 A2995 RMK AO2 T03440188,2024-08-13T22:30:00Z,34.4,18.8,10+,29.95
KRNH,45.1476,-92.5335,190,4,4.6,KRNH 132230Z AUTO 19004KT 10SM SCT050 26/16 A3012 RMK AO2 T02640157,2024-08-13T22:30:00Z,26.4,15.7,10+,30.12
KOPL,30.5643,-92.1021,150,3,3.45,KOPL 132230Z AUTO 15003KT 10SM CLR 35/23 A3000 RMK AO2 T03500230,2024-08-13T22:30:00Z,35,23,10+,30.00
KHBV,27.3516,-98.7415,150,10,11.51,KHBV 132230Z AUTO 15010G20KT 10SM SCT070 37/20 A2995 RMK AO2 T03670197,2024-08-13T22:30:00Z,36.7,19.7,10+,29.95
KFOA,38.6673,-88.4527,70,4,4.6,KFOA 132230Z AUTO 07004KT 10SM OVC040 26/19 A3010 RMK AO2,2024-08-13T22:30:00Z,26,19,10+,30.10
KDVK,37.5764,-84.7641,280,5,5.75,KDVK 132230Z AUTO 28005KT 10SM SCT065 OVC075 27/15 A3011 RMK AO2,2024-08-13T22:30:00Z,27,15,10+,30.11
KDED,29.075,-81.286,250,6,6.9,KDED 132230Z AUTO 25006KT 10SM SCT100 SCT120 33/22 A2999 RMK AO2 LTG DSNT N THRU SE T03290223,2024-08-13T22:30:00Z,32.9,22.3,10+,29.99
KCZT,28.5204,-99.8192,150,15,17.26,KCZT 132230Z AUTO 15015G18KT 10SM SCT095 40/17 A2989 RMK AO2,2024-08-13T22:30:00Z,40,17,10+,29.89
KAXH,29.505,-95.476,160,7,8.06,KAXH 132230Z AUTO 16007KT 10SM 35/23 A3000 RMK AO2 T03500229 TSNO,2024-08-13T22:30:00Z,35,22.9,10+,30.00
HUEN,0.036,32.437,0,0,0.0,HUEN 132230Z 00000KT 9999 FEW021 FEW023CB 23/19 Q1016 NOSIG,2024-08-13T22:30:00Z,23,19,6+,30.00
GQNO,18.31,-15.97,310,14,16.11,GQNO 132230Z 31014KT 8000 BKN013 27/21 Q1009 NOSIG,2024-08-13T22:30:00Z,27,21,4.97,29.79
GOBD,14.671,-17.067,320,7,8.06,GOBD 132230Z 32007KT 9999 FEW020 27/25 Q1012 NOSIG,2024-08-13T22:30:00Z,27,25,6+,29.88
GECE,35.893,-5.306,220,10,11.51,GECE 132230Z AUTO 22010KT 150V250 CAVOK 25/13 Q1012,2024-08-13T22:30:00Z,25,13,6+,29.88
GABS,12.534,-7.95,180,3,3.45,GABS 132230Z 18003KT 150V220 9999 SCT015 23/23 Q1012 TEMPO 3000 BR,2024-08-13T22:30:00Z,23,23,6+,29.88
FZAA,-4.387,15.448,220,10,11.51,FZAA 132230Z 22010KT 7000 FEW016 26/17 Q1016 NOSIG,2024-08-13T22:30:00Z,26,17,4.35,30.00
FOOL,0.459,9.412,200,5,5.75,FOOL 132230Z 20005KT 170V250 9000 SCT011 25/22 Q1015 NOSIG,2024-08-13T22:30:00Z,25,22,5.59,29.97
FMEP,-21.32,55.425,70,7,8.06,FMEP 132230Z AUTO 07007KT 040V110 CAVOK 20/12 Q1020,2024-08-13T22:30:00Z,20,12,6+,30.12
FMEE,-20.887,55.51,130,11,12.66,FMEE 132230Z AUTO 13011KT 9999 FEW047 SCT054 21/13 Q1020 NOSIG,2024-08-13T22:30:00Z,21,13,6+,30.12
FKYS,3.833,11.521,260,5,5.75,FKYS 132230Z 26005KT 6000 BKN006 21/19 Q1019 NOSIG,2024-08-13T22:30:00Z,21,19,3.73,30.09
FKKD,4.006,9.72,VRB,2,2.3,FKKD 132230Z VRB02KT 9999 BKN013 FEW016CB 24/23 Q1015 NOSIG,2024-08-13T22:30:00Z,24,23,6+,29.97
FGSL,3.756,8.71,0,0,0.0,FGSL 132230Z 00000KT 9999 FEW010 23/21 Q1015 NOSIG,2024-08-13T22:30:00Z,23,21,6+,29.97
FEFF,4.399,18.519,0,0,0.0,FEFF 132230Z 00000KT 9999 FEW010 22/22 Q1015 NOSIG,2024-08-13T22:30:00Z,22,22,6+,29.97
FCPP,-4.816,11.887,240,4,4.6,FCPP 132230Z 24004KT 6000 FEW007 SCT023 22/21 Q1016 NOSIG,2024-08-13T22:30:00Z,22,21,3.73,30.00
DTTA,36.851,10.227,120,4,4.6,DTTA 132230Z 12004KT 080V150 9999 FEW026 31/19 Q1009,2024-08-13T22:30:00Z,31,19,6+,29.79
DTNH,36.074,10.436,VRB,1,1.15,DTNH 132230Z VRB01KT CAVOK 28/24 Q1010 NOSIG,2024-08-13T22:30:00Z,28,24,6+,29.82
DTMB,35.758,10.755,140,10,11.51,DTMB 132230Z 14010KT CAVOK 29/24 Q1010,2024-08-13T22:30:00Z,29,24,6+,29.82
DAOO,35.623,-0.624,220,7,8.06,DAOO 132230Z 22007KT 9999 FEW020 25/19 Q1011,2024-08-13T22:30:00Z,25,19,6+,29.85
DAON,35.013,-1.457,80,3,3.45,DAON 132230Z 08003KT 9999 FEW030 26/11 Q1013,2024-08-13T22:30:00Z,26,11,6+,29.91
DAAT,22.824,5.452,170,9,10.36,DAAT 132230Z 17009KT 9999 SCT033 30/11 Q1018,2024-08-13T22:30:00Z,30,11,6+,30.06
DAAG,36.691,3.215,330,2,2.3,DAAG 132230Z 33002KT 9999 FEW023 26/23 Q1010,2024-08-13T22:30:00Z,26,23,6+,29.82
FABL,-29.093,26.302,250,13,14.96,FABL 132229Z AUTO 25013G23KT //// R02///// // ///////// 15/M07 Q1017,2024-08-13T22:29:00Z,15,-7,,30.03
CYJT,48.545,-58.564,40,13,14.96,CYJT 132228Z 04013G18KT 12SM -RA FEW034 BKN066 BKN120 16/13 A2979 RMK SC1AS5AC1 SLP091 DENSITY ALT 400FT,2024-08-13T22:28:00Z,16,13,12,29.79
RJCT,42.891,143.159,VRB,2,2.3,RJCT 132227Z VRB02KT 9999 SCT007 BKN010 BKN020 24/24 Q1011 RMK 4ST007 6ST010 7CU020 A2988,2024-08-13T22:27:00Z,24,24,6+,29.85
CYYN,50.292,-107.691,230,19,21.86,CYYN 132226Z AUTO 23019KT 9SM FEW091 32/08 A2978 RMK LTNG DIST N SLP057 DENSITY ALT 5400FT,2024-08-13T22:26:00Z,32,8,9,29.78
CYIV,53.857,-94.655,210,5,5.75,CYIV 132225Z AUTO 21005KT 190V280 8SM CLR 28/12 A2997 RMK ICE MISG SLP152 DENSITY ALT 2500FT,2024-08-13T22:25:00Z,28,12,8,29.97
PAMO,62.095,-163.686,200,14,16.11,PAMO 132223Z AUTO 20014G20KT 10SM BKN005 OVC010 10/09 A3006 RMK AO2 RAE20 CIG 002V009 P0000,2024-08-13T22:23:00Z,10,9,10+,30.06
CYHZ,44.8781,-63.5136,10,6,6.9,CYHZ 132223Z 01006KT 15SM FEW036TCU SCT110 BKN250 20/18 A2981 RMK TCU1AC2CI3 SH DIST E SLP098 DENSITY ALT 1300FT,2024-08-13T22:23:00Z,20,18,15,29.81
RJSO,41.233,141.132,210,3,3.45,RJSO 132222Z 21003KT 180V250 4000 -SHRA BR SCT004 BKN012 BKN030 25/25 Q1008 RMK 4ST004 6ST012 7CU030 A2977,2024-08-13T22:22:00Z,25,25,2.49,29.76
CYMM,56.65,-111.221,130,14,16.11,CYMM 132221Z AUTO 13014KT 9SM FEW130 BKN160 26/13 A2973 RMK SLP069 DENSITY ALT 3000FT,2024-08-13T22:21:00Z,26,13,9,29.73
LGMK,37.435,25.348,20,9,10.36,LGMK 132220Z 02009KT CAVOK 27/16 Q1008,2024-08-13T22:20:00Z,27,16,6+,29.76
KF45,26.8419,-80.224,110,8,9.21,KF45 132220Z AUTO 11008KT 10SM CLR 32/24 A2997 RMK AO2,2024-08-13T22:20:00Z,32,24,10+,29.97
ETWM,52.725,7.33,260,3,3.45,ETWM 132220Z AUTO 26003KT //// // ////// 19/18 Q1011 ///,2024-08-13T22:20:00Z,19,18,,29.85
ETSN,48.71,11.21,330,6,6.9,ETSN 132220Z 33006KT 9999 SHRA FEW040 BKN100 19/18 Q1011 RETS BLU,2024-08-13T22:20:00Z,19,18,6+,29.85
ETSL,48.185,10.861,20,6,6.9,ETSL 132220Z 02006KT 9999 FEW060 BKN350 18/15 Q1012 BLU+,2024-08-13T22:20:00Z,18,15,6+,29.88
ETSI,48.716,11.534,VRB,3,3.45,ETSI 132220Z AUTO VRB03KT //// // ////// 19/18 Q1011 ///,2024-08-13T22:20:00Z,19,18,,29.85
ETSH,51.768,13.168,80,5,5.75,ETSH 132220Z 08005KT 9999 SCT320 22/11 Q1012 BLU+,2024-08-13T22:20:00Z,22,11,6+,29.88
ETSB,50.175,7.06,20,6,6.9,ETSB 132220Z AUTO 02006KT //// // ////// 21/16 Q1011 ///,2024-08-13T22:20:00Z,21,16,,29.85
ETNW,52.457,9.427,330,14,16.11,ETNW 132220Z 33014KT 9999 FEW040CB SCT080 BKN220 25/18 Q1011 RETS BLU+,2024-08-13T22:20:00Z,25,18,6+,29.85
ETNS,54.457,9.52,60,5,5.75,ETNS 132220Z AUTO 06005KT //// // ////// 20/16 Q1011 ///,2024-08-13T22:20:00Z,20,16,,29.85
ETNN,50.829,6.66,180,6,6.9,ETNN 132220Z 18006KT 9999 FEW050 SCT160 BKN270 22/17 Q1009 BLU+,2024-08-13T22:20:00Z,22,17,6+,29.79
ETNL,53.916,12.279,90,4,4.6,ETNL 132220Z 09004KT 9999 BKN300 19/15 Q1013 BLU+,2024-08-13T22:20:00Z,19,15,6+,29.91
ETNH,54.312,9.538,110,4,4.6,ETNH 132220Z AUTO 11004KT //// // ////// 23/14 Q1010 ///,2024-08-13T22:20:00Z,23,14,,29.82
ETMN,53.765,8.658,220,11,12.66,ETMN 132220Z 22011KT 9999 -RA SCT050 BKN100 20/19 Q1010 RETSRA BLU,2024-08-13T22:20:00Z,20,19,6+,29.82
ETHS,52.918,10.184,90,5,5.75,ETHS 132220Z 09005KT 9999 SCT070 BKN250 23/10 Q1010 BLU+,2024-08-13T22:20:00Z,23,10,6+,29.82
ETHL,48.218,9.91,50,4,4.6,ETHL 132220Z 05004KT 9999 FEW210 SCT330 21/14 Q1011 BLU+,2024-08-13T22:20:00Z,21,14,6+,29.85
ETHF,51.114,9.286,310,5,5.75,ETHF 132220Z 31005KT 9999 BKN140 BKN340 21/19 Q1010 BLU,2024-08-13T22:20:00Z,21,19,6+,29.82
ETHC,52.591,10.022,50,5,5.75,ETHC 132220Z 05005KT 9999 BKN250 24/13 Q1010 BLU+,2024-08-13T22:20:00Z,24,13,6+,29.82
ETHB,52.279,9.082,40,3,3.45,ETHB 132220Z 04003KT 9999 VCTS VCSH FEW035CB SCT055 BKN120 22/18 Q1011 BLU,2024-08-13T22:20:00Z,22,18,6+,29.85
ETHA,47.834,10.867,0,0,0.0,ETHA 132220Z AUTO 00000KT 9999 // ////// 16/14 Q1013 ///,2024-08-13T22:20:00Z,16,14,6+,29.91
ETGG,54.827,9.506,330,12,13.81,ETGG 132220Z AUTO 33012KT 9999 // ////// 20/18 Q1011 ///,2024-08-13T22:20:00Z,20,18,6+,29.85
ENLE,56.535,3.205,160,15,17.26,ENLE 132220Z 16015KT CAVOK 17/15 Q1009 W17/S3,2024-08-13T22:20:00Z,17,15,6+,29.79
EGHH,50.779,-1.836,180,3,3.45,EGHH 132220Z 18003KT 9999 FEW018 18/15 Q1011,2024-08-13T22:20:00Z,18,15,6+,29.85
CYRV,50.958,-118.176,VRB,3,3.45,CYRV 132218Z AUTO VRB03KT 9SM SCT100 BKN140 BKN160 23/16 A2984 RMK SLP099 DENSITY ALT 2900FT,2024-08-13T22:18:00Z,23,16,9,29.84
CYQM,46.107,-64.682,80,4,4.6,CYQM 132218Z 08004KT 15SM -SHRA FEW045TCU BKN130 BKN190 BKN220 19/16 A2979 RMK TCU1AC4AC1CI1 DIST TCU TOP SW-W VIS LWR W-NW SLP092 DENSITY ALT 1000FT,2024-08-13T22:18:00Z,19,16,15,29.79
LIRP,43.684,10.393,VRB,2,2.3,LIRP 132215Z VRB02KT CAVOK 27/23 Q1010 NOSIG,2024-08-13T22:15:00Z,27,23,6+,29.82
KPHT,36.3322,-88.3871,0,0,0.0,KPHT 132215Z AUTO 00000KT 10SM OVC070 28/21 A3007 RMK A01,2024-08-13T22:15:00Z,28,21,10+,30.07
CYDB,61.37,-139.032,260,8,9.21,CYDB 132213Z 26008KT 10SM SCT030 OVC040 07/04 A3000 RMK SC4SC4 SLP191,2024-08-13T22:13:00Z,7,4,10+,30.00
VCBI,7.181,79.884,250,5,5.75,VCBI 132210Z 25005KT 220V300 9999 BKN016 27/26 Q1005 NOSIG,2024-08-13T22:10:00Z,27,26,6+,29.68
CYDF,49.212,-57.394,50,10,11.51,CYDF 132209Z 05010G15KT 15SM BKN030 OVC100 12/09 A2987 RMK SC5AC3 SLP117,2024-08-13T22:09:00Z,12,9,15,29.87
RJSA,40.733,140.689,VRB,1,1.15,RJSA 132208Z VRB01KT 7000 FEW003 BKN007 BKN020 24/24 Q1008 RMK 1ST003 5ST007 7CU020 A2978,2024-08-13T22:08:00Z,24,24,4.35,29.76
CYHY,60.839,-115.781,340,4,4.6,CYHY 132206Z 34004KT 300V050 10SM -RA BKN027 OVC100 16/13 A2987 RMK SC6AS2 FU PCPN VRY LGT SLP121 DENSITY ALT 900FT,2024-08-13T22:06:00Z,16,13,10+,29.87
SVVL,9.34,-70.585,,,,SVVL 132203Z AUTO ///01KT NCD ///// Q////,2024-08-13T22:03:00Z,,,,
SVVA,10.154,-67.92,210,6,6.9,SVVA 132203Z AUTO 21006KT NCD 24/21 Q1014,2024-08-13T22:03:00Z,24,21,,29.94
SVSR,7.881,-67.443,,,,SVSR 132203Z AUTO NIL,2024-08-13T22:03:00Z,,,,
SVSA,7.841,-72.441,120,14,16.11,SVSA 132203Z AUTO 12014KT NCD 31/17 Q1008,2024-08-13T22:03:00Z,31,17,,29.76
SVPR,8.288,-62.76,210,4,4.6,SVPR 132203Z AUTO 21004KT NCD 31/19 Q1013,2024-08-13T22:03:00Z,31,19,,29.91
SVPA,5.622,-67.605,,,,SVPA 132203Z AUTO NIL,2024-08-13T22:03:00Z,,,,
SVMT,9.748,-63.156,210,4,4.6,SVMT 132203Z AUTO 21004KT NCD 30/30 Q1011,2024-08-13T22:03:00Z,30,30,,29.85
SVMG,10.913,-63.968,240,8,9.21,SVMG 132203Z AUTO 24008KT NCD 35/25 Q1011,2024-08-13T22:03:00Z,35,25,,29.85
SVMC,10.558,-71.728,360,9,10.36,SVMC 132203Z AUTO 36009KT NCD 29/22 Q1008,2024-08-13T22:03:00Z,29,22,,29.76
SVLO,11.805,-66.192,,,,SVLO 132203Z AUTO NIL,2024-08-13T22:03:00Z,,,,
SVJM,9.909,-67.377,200,3,3.45,SVJM 132203Z AUTO 20003KT NCD 24/23 Q1014,2024-08-13T22:03:00Z,24,23,,29.94
SVGU,9.027,-69.755,,,,SVGU 132203Z AUTO ///01KT NCD ///// Q1014,2024-08-13T22:03:00Z,,,,29.94
SVGD,7.212,-70.755,330,2,2.3,SVGD 132203Z AUTO 33002KT NCD 27/26 Q1013,2024-08-13T22:03:00Z,27,26,,29.91
SVFM,10.487,-66.846,,,,SVFM 132203Z AUTO NIL,2024-08-13T22:03:00Z,,,,
SVCS,10.287,-66.816,,,,SVCS 132203Z AUTO NIL,2024-08-13T22:03:00Z,,,,
SVCB,8.121,-63.533,,,,SVCB 132203Z AUTO NIL,2024-08-13T22:03:00Z,,,,
SVBS,10.25,-67.649,20,1,1.15,SVBS 132203Z AUTO 02001KT NCD 25/22 Q1015,2024-08-13T22:03:00Z,25,22,,29.97
SVBM,10.043,-69.358,170,18,20.71,SVBM 132203Z AUTO 17018KT NCD 28/18 Q1013,2024-08-13T22:03:00Z,28,18,,29.91
SVBI,8.62,-70.22,,,,SVBI 132203Z AUTO NIL,2024-08-13T22:03:00Z,,,,
SVBC,10.107,-64.689,190,4,4.6,SVBC 132203Z AUTO 19004KT NCD 28/25 Q1012,2024-08-13T22:03:00Z,28,25,,29.88
ZYHB,45.628,126.259,VRB,2,2.3,ZYHB 132200Z VRB01MPS CAVOK 22/21 Q1013 NOSIG,2024-08-13T22:00:00Z,22,21,6+,29.91
ZYCC,43.993,125.682,20,4,4.6,ZYCC 132200Z 02002MPS CAVOK 21/21 Q1013 NOSIG,2024-08-13T22:00:00Z,21,21,6+,29.91
ZWSH,39.542,76.019,320,8,9.21,ZWSH 132200Z 32004MPS CAVOK 26/09 Q1017 NOSIG,2024-08-13T22:00:00Z,26,9,6+,30.03
ZUUU,30.576,103.95,VRB,2,2.3,ZUUU 132200Z VRB01MPS CAVOK 24/21 Q1008 NOSIG,2024-08-13T22:00:00Z,24,21,6+,29.76
ZUTF,30.304,104.436,320,2,2.3,ZUTF 132200Z 32001MPS CAVOK 24/22 Q1007 NOSIG,2024-08-13T22:00:00Z,24,22,6+,29.73
ZUGY,26.538,106.801,VRB,2,2.3,ZUGY 132200Z VRB01MPS 9999 FEW033 19/18 Q1014 NOSIG,2024-08-13T22:00:00Z,19,18,6+,29.94
ZUCK,29.718,106.639,180,2,2.3,ZUCK 132200Z 18001MPS CAVOK 27/20 Q1007 NOSIG,2024-08-13T22:00:00Z,27,20,6+,29.73
ZSQD,36.362,120.087,10,2,2.3,ZSQD 132200Z 01001MPS 5000 BR NSC 26/26 Q1009 NOSIG,2024-08-13T22:00:00Z,26,26,3.11,29.79
ZSOF,31.99,116.965,70,4,4.6,ZSOF 132200Z 07002MPS 9999 BKN033 26/24 Q1007 NOSIG,2024-08-13T22:00:00Z,26,24,6+,29.73
ZSNJ,31.739,118.863,VRB,2,2.3,ZSNJ 132200Z VRB01MPS 3000 BR OVC026 27/27 Q1007 NOSIG,2024-08-13T22:00:00Z,27,27,1.86,29.73
ZSNB,29.827,121.462,VRB,2,2.3,ZSNB 132200Z VRB01MPS 8000 SCT020 29/26 Q1006 NOSIG,2024-08-13T22:00:00Z,29,26,4.97,29.70
ZSFZ,25.936,119.666,270,4,4.6,ZSFZ 132200Z 27002MPS 9999 BKN020 27/25 Q1006 NOSIG,2024-08-13T22:00:00Z,27,25,6+,29.70
ZSAM,24.546,118.131,260,2,2.3,ZSAM 132200Z 26001MPS 9999 SCT023 28/27 Q1005 NOSIG,2024-08-13T22:00:00Z,28,27,6+,29.68
ZPPP,25.107,102.934,VRB,2,2.3,ZPPP 132200Z VRB01MPS CAVOK 15/13 Q1022 NOSIG,2024-08-13T22:00:00Z,15,13,6+,30.18
ZLXY,34.449,108.752,50,6,6.9,ZLXY 132200Z 05003MPS CAVOK 23/19 Q1010 NOSIG,2024-08-13T22:00:00Z,23,19,6+,29.82
ZLLL,36.513,103.623,310,4,4.6,ZLLL 132200Z 31002MPS 9999 -SHRA FEW033CB BKN040 14/13 Q1022 NOSIG,2024-08-13T22:00:00Z,14,13,6+,30.18
ZJSY,18.303,109.412,340,2,2.3,ZJSY 132200Z 34001MPS 9999 FEW015 BKN060 28/26 Q1006 NOSIG,2024-08-13T22:00:00Z,28,26,6+,29.70
ZJHK,19.934,110.445,220,4,4.6,ZJHK 132200Z 22002MPS CAVOK 27/26 Q1006 NOSIG,2024-08-13T22:00:00Z,27,26,6+,29.70
ZHHH,30.783,114.205,30,2,2.3,ZHHH 132200Z 03001MPS CAVOK 26/25 Q1006 NOSIG,2024-08-13T22:00:00Z,26,25,6+,29.70
ZHCC,34.52,113.834,10,6,6.9,ZHCC 132200Z 01003MPS 350V060 8000 NSC 26/24 Q1010 NOSIG,2024-08-13T22:00:00Z,26,24,4.97,29.82
ZGSZ,22.639,113.803,210,4,4.6,ZGSZ 132200Z 21002MPS 180V250 9999 FEW020 SCT043 29/27 Q1006 NOSIG,2024-08-13T22:00:00Z,29,27,6+,29.70
ZGOW,23.55,116.505,250,4,4.6,ZGOW 132200Z 25002MPS CAVOK 26/25 Q1006 NOSIG,2024-08-13T22:00:00Z,26,25,6+,29.70
ZGNN,22.609,108.173,30,4,4.6,ZGNN 132200Z 03002MPS 4000 BR FEW002 SCT004 FEW030CB BKN030 26/26 Q1006 BECMG TL2340 FEW003 SCT007 OVC026,2024-08-13T22:00:00Z,26,26,2.49,29.70
ZGKL,25.22,110.04,VRB,2,2.3,ZGKL 132200Z VRB01MPS 6000 FEW010 SCT026 OVC046 25/25 Q1007 NOSIG,2024-08-13T22:00:00Z,25,25,3.73,29.73
ZGHA,28.18,113.219,40,4,4.6,ZGHA 132200Z 04002MPS 7000 BKN040 25/24 Q1006 NOSIG,2024-08-13T22:00:00Z,25,24,4.35,29.70
ZBSJ,38.281,114.697,320,6,6.9,ZBSJ 132200Z 32003MPS 9999 BKN046 23/23 Q1012 NOSIG,2024-08-13T22:00:00Z,23,23,6+,29.88
ZBHH,40.854,111.827,20,2,2.3,ZBHH 132200Z 02001MPS CAVOK 16/13 Q1016 NOSIG,2024-08-13T22:00:00Z,16,13,6+,30.00
WMSA,3.13,101.552,0,0,0.0,WMSA 132200Z 00000KT 9999 FEW017CB 27/25 Q1009,2024-08-13T22:00:00Z,27,25,6+,29.79
WMKN,5.383,103.103,170,3,3.45,WMKN 132200Z 17003KT 140V230 9999 FEW022 26/24 Q1008,2024-08-13T22:00:00Z,26,24,6+,29.76
WMKM,2.263,102.252,0,0,0.0,WMKM 132200Z 00000KT 9999 FEW028 26/24 Q1010,2024-08-13T22:00:00Z,26,24,6+,29.82
WMKL,6.33,99.729,0,0,0.0,WMKL 132200Z 00000KT 9999 -TSRA FEW017CB SCT025 27/25 Q1008,2024-08-13T22:00:00Z,27,25,6+,29.76
WMKJ,1.641,103.67,VRB,2,2.3,WMKJ 132200Z VRB02KT 6000 FEW008 25/24 Q1009,2024-08-13T22:00:00Z,25,24,3.73,29.79
WMKI,4.568,101.092,60,4,4.6,WMKI 132200Z 06004KT 030V100 7000 -RA FEW004 SCT025 26/25 Q1009,2024-08-13T22:00:00Z,26,25,4.35,29.79
WMKE,4.537,103.427,0,0,0.0,WMKE 132200Z AUTO 00000KT //// // ////// 24/23 Q1009,2024-08-13T22:00:00Z,24,23,,29.79
WMKD,3.775,103.209,VRB,2,2.3,WMKD 132200Z VRB02KT 9999 FEW005 FEW017CB 25/23 Q1009 NOSIG,2024-08-13T22:00:00Z,25,23,6+,29.79
WMKC,6.167,102.293,VRB,2,2.3,WMKC 132200Z VRB02KT 9999 FEW020 25/24 Q1009,2024-08-13T22:00:00Z,25,24,6+,29.79
WMKB,5.466,100.391,VRB,3,3.45,WMKB 132200Z VRB03KT 7000 -TSRA FEW010 FEW017CB SCT024 25/24 Q1008 NOSIG,2024-08-13T22:00:00Z,25,24,4.35,29.76
WMKA,6.19,100.398,VRB,2,2.3,WMKA 132200Z VRB02KT 8000 FEW012 25/24 Q1009 RERA,2024-08-13T22:00:00Z,25,24,4.97,29.79
WMBA,4.221,100.701,0,0,0.0,WMBA 132200Z 00000KT 8000 FEW031 25/24 Q1008,2024-08-13T22:00:00Z,25,24,4.97,29.76
WMAU,2.387,103.876,240,5,5.75,WMAU 132200Z 24005KT 7000 FEW003 25/24 Q1009,2024-08-13T22:00:00Z,25,24,4.35,29.79
WBKW,4.316,118.119,VRB,1,1.15,WBKW 132200Z VRB01KT 9999 FEW008 25/24 Q1011,2024-08-13T22:00:00Z,25,24,6+,29.85
WBKT,6.922,116.837,0,0,0.0,WBKT 132200Z AUTO 00000KT //// // ////// 25/24 Q1009,2024-08-13T22:00:00Z,25,24,,29.79
WBKS,5.901,118.059,VRB,2,2.3,WBKS 132200Z VRB02KT 9999 FEW016 25/24 Q1010,2024-08-13T22:00:00Z,25,24,6+,29.82
WBKL,5.301,115.25,60,5,5.75,WBKL 132200Z 06005KT 010V100 9999 FEW015 27/23 Q1008,2024-08-13T22:00:00Z,27,23,6+,29.76
WBGY,1.222,111.466,VRB,1,1.15,WBGY 132200Z AUTO VRB01KT //// // ////// 26/26 Q1009,2024-08-13T22:00:00Z,26,26,,29.79
WBGS,2.264,111.983,170,3,3.45,WBGS 132200Z 17003KT 100V250 9999 FEW015CB SCT018 24/24 Q1008,2024-08-13T22:00:00Z,24,24,6+,29.76
WBGR,4.322,113.987,0,0,0.0,WBGR 132200Z 00000KT 9999 SCT016 24/23 Q1008,2024-08-13T22:00:00Z,24,23,6+,29.76
WBGB,3.12,113.025,VRB,1,1.15,WBGB 132200Z VRB01KT 9999 FEW016 25/24 Q1008,2024-08-13T22:00:00Z,25,24,6+,29.76
VTUW,17.384,104.643,VRB,2,2.3,VTUW 132200Z VRB02KT 9999 SCT030 24/24 Q1007 NOSIG,2024-08-13T22:00:00Z,24,24,6+,29.73
VTUV,16.117,103.772,220,2,2.3,VTUV 132200Z 22002KT 9000 NSC 26/25 Q1007 NOSIG,2024-08-13T22:00:00Z,26,25,5.59,29.73
VTUU,15.251,104.87,VRB,1,1.15,VTUU 132200Z VRB01KT CAVOK 26/26 Q1008 NOSIG,2024-08-13T22:00:00Z,26,26,6+,29.76
VTUQ,14.95,102.313,0,0,0.0,VTUQ 132200Z 00000KT 9000 NSC 24/24 Q1008 NOSIG,2024-08-13T22:00:00Z,24,24,5.59,29.76
VTUO,15.227,103.244,190,3,3.45,VTUO 132200Z 19003KT 9000 NSC 25/25 Q1008 NOSIG,2024-08-13T22:00:00Z,25,25,5.59,29.76
VTUL,17.445,101.725,20,1,1.15,VTUL 132200Z 02001KT 9999 BKN030 25/25 Q1008 NOSIG,2024-08-13T22:00:00Z,25,25,6+,29.76
VTUK,16.462,102.786,210,4,4.6,VTUK 132200Z 21004KT CAVOK 26/26 Q1008 NOSIG,2024-08-13T22:00:00Z,26,26,6+,29.76
VTUI,17.195,104.119,30,2,2.3,VTUI 132200Z 03002KT 9999 BKN030 25/25 Q1007 NOSIG,2024-08-13T22:00:00Z,25,25,6+,29.73
VTUD,17.382,102.799,310,1,1.15,VTUD 132200Z 31001KT CAVOK 25/24 Q1007 NOSIG,2024-08-13T22:00:00Z,25,24,6+,29.73
VTST,7.512,99.621,120,2,2.3,VTST 132200Z 12002KT 8000 FEW025 26/25 Q1008 NOSIG,2024-08-13T22:00:00Z,26,25,4.97,29.76
VTSR,9.773,98.587,0,0,0.0,VTSR 132200Z 00000KT 9999 FEW020 25/24 Q1008 NOSIG,2024-08-13T22:00:00Z,25,24,6+,29.76
VTSM,9.548,100.062,VRB,1,1.15,VTSM 132200Z VRB01KT 9999 FEW020 28/25 Q1008 NOSIG,2024-08-13T22:00:00Z,28,25,6+,29.76
VTSG,8.099,98.986,350,3,3.45,VTSG 132200Z 35003KT 8000 FEW020 24/24 Q1008 NOSIG,2024-08-13T22:00:00Z,24,24,4.97,29.76
VTSF,8.546,99.94,0,0,0.0,VTSF 132200Z 00000KT 9999 FEW020 26/25 Q1008 NOSIG,2024-08-13T22:00:00Z,26,25,6+,29.76
VTSC,6.52,101.743,200,5,5.75,VTSC 132200Z 20005KT 9999 FEW020 26/24 Q1009 NOSIG,2024-08-13T22:00:00Z,26,24,6+,29.79
VTSB,9.133,99.152,190,3,3.45,VTSB 132200Z 19003KT 150V220 7000 FEW020 25/25 Q1007 NOSIG,2024-08-13T22:00:00Z,25,25,4.35,29.73
VTPT,16.897,99.254,,,,VTPT 132200Z /////KT 9000 FEW028 26/24 Q1007 NOSIG,2024-08-13T22:00:00Z,26,24,5.59,29.73
VTPO,17.238,99.818,VRB,2,2.3,VTPO 132200Z VRB02KT 9999 SCT022 26/24 Q1007 NOSIG,2024-08-13T22:00:00Z,26,24,6+,29.73
VTPM,16.703,98.542,190,2,2.3,VTPM 132200Z 19002KT 9000 BKN029 BKN039 OVC065 24/24 Q1008 NOSIG,2024-08-13T22:00:00Z,24,24,5.59,29.76
VTPH,12.633,99.951,VRB,1,1.15,VTPH 132200Z VRB01KT 9999 FEW030 26/24 Q1007 NOSIG,2024-08-13T22:00:00Z,26,24,6+,29.73
VTPB,16.676,101.195,VRB,1,1.15,VTPB 132200Z VRB01KT 9999 FEW030 25/25 Q1007 NOSIG,2024-08-13T22:00:00Z,25,25,6+,29.73
VTCT,19.961,99.881,150,3,3.45,VTCT 132200Z 15003KT 110V170 9999 SCT010 BKN022 25/24 Q1008 NOSIG,2024-08-13T22:00:00Z,25,24,6+,29.76
VTCP,18.129,100.162,150,2,2.3,VTCP 132200Z 15002KT 8000 FEW008 24/24 Q1007 NOSIG,2024-08-13T22:00:00Z,24,24,4.97,29.73
VTCN,18.807,100.787,0,0,0.0,VTCN 132200Z 00000KT 9999 FEW005 25/25 Q1007 NOSIG,2024-08-13T22:00:00Z,25,25,6+,29.73
VTCH,19.302,97.972,0,0,0.0,VTCH 132200Z 00000KT 5000 BR FEW012 BKN025 24/24 Q1008,2024-08-13T22:00:00Z,24,24,3.11,29.76
VTBO,12.275,102.319,0,0,0.0,VTBO 132200Z 00000KT 6000 VCSH FEW018CB SCT020 BKN100 25/25 Q1008,2024-08-13T22:00:00Z,25,25,3.73,29.76
VOMD,9.835,78.093,220,6,6.9,VOMD 132200Z 22006KT 5000 BR FEW018 SCT100 26/24 Q1006 NOSIG,2024-08-13T22:00:00Z,26,24,3.11,29.70
VILK,26.761,80.889,VRB,2,2.3,VILK 132200Z VRB02KT 4000 BR SCT020 BKN100 27/26 Q1003 NOSIG,2024-08-13T22:00:00Z,27,26,2.49,29.62
VERC,23.314,85.322,0,0,0.0,VERC 132200Z 00000KT 2500 BR SCT018 BKN100 24/23 Q1009 NOSIG,2024-08-13T22:00:00Z,24,23,1.55,29.79
VEBN,25.452,82.859,0,0,0.0,VEBN 132200Z 00000KT 2000 BR SCT020 BKN100 28/28 Q1003 NOSIG,2024-08-13T22:00:00Z,28,28,1.24,29.62
UTAV,39.083,63.613,10,8,9.21,UTAV 132200Z 01008KT 9000 NSC 31/12 Q1006 R13/CLRD70 NOSIG,2024-08-13T22:00:00Z,31,12,5.59,29.70
UCFL,42.585,76.702,310,6,6.9,UCFL 132200Z 31003MPS 9999 SCT030CB 17/10 Q1020,2024-08-13T22:00:00Z,17,10,6+,30.12
UBBQ,40.809,47.729,0,0,0.0,UBBQ 132200Z 00000KT 9999 BKN100 21/17 Q1012 NOSIG,2024-08-13T22:00:00Z,21,17,6+,29.88
TNCC,12.189,-68.96,120,11,12.66,TNCC 132200Z 12011KT 9999 FEW020 30/23 Q1009 NOSIG,2024-08-13T22:00:00Z,30,23,6+,29.79
TGPY,12.006,-61.797,180,11,12.66,TGPY 132200Z 18011KT 9999 FEW020 29/25 Q1013 NOSIG,2024-08-13T22:00:00Z,29,25,6+,29.91
TDPD,15.547,-61.299,140,5,5.75,TDPD 132200Z 14005KT 9999 SCT022 BKN033 28/26 Q1013,2024-08-13T22:00:00Z,28,26,6+,29.91
TAPA,17.135,-61.797,150,8,9.21,TAPA 132200Z 15008KT 080V210 9999 SCT016 28/24 Q1012 NOSIG,2024-08-13T22:00:00Z,28,24,6+,29.88
SYEC,6.809,-58.104,60,6,6.9,SYEC 132200Z 06006KT 9999 FEW018CB 29/26 Q1013 NOSIG RMK CB SSE-W,2024-08-13T22:00:00Z,29,26,6+,29.91
SUSO,-31.438,-57.982,80,3,3.45,SUSO 132200Z 08003KT CAVOK 12/02 Q1020,2024-08-13T22:00:00Z,12,2,6+,30.12
SUCA,-34.452,-57.768,10,7,8.06,SUCA 132200Z 01007KT CAVOK 13/01 Q1018,2024-08-13T22:00:00Z,13,1,6+,30.06
SPST,-6.509,-76.373,60,5,5.75,SPST 132200Z 06005KT 9999 FEW015 32/18 Q1012 RMK TX35.7 PP000,2024-08-13T22:00:00Z,32,18,6+,29.88
SPNC,-9.879,-76.207,60,16,18.41,SPNC 132200Z 06016KT 9999 FEW040 23/11 Q1021 RMK TX27.8 PP000,2024-08-13T22:00:00Z,23,11,6+,30.15
SLSV,-16.401,-61.046,0,0,0.0,SLSV 132200Z 00000KT 5000 FU NSC 26/14 Q1014,2024-08-13T22:00:00Z,26,14,3.11,29.94
SLRY,-14.303,-67.353,0,0,0.0,SLRY 132200Z 00000KT 9999 NSC 26/15 Q1013,2024-08-13T22:00:00Z,26,15,6+,29.91
SLRQ,-14.429,-67.503,0,0,0.0,SLRQ 132200Z 00000KT 9999 NSC 26/11 Q1015,2024-08-13T22:00:00Z,26,11,6+,29.97
SLRI,-11.007,-66.076,0,0,0.0,SLRI 132200Z 00000KT 3000 FU NSC 30/12 Q1014,2024-08-13T22:00:00Z,30,12,1.86,29.94
SLRB,-18.33,-59.763,0,0,0.0,SLRB 132200Z 00000KT 9999 NSC 25/12 Q1018,2024-08-13T22:00:00Z,25,12,6+,30.06
SLPS,-18.981,-57.821,0,0,0.0,SLPS 132200Z 00000KT 9999 NSC 23/15 Q1015,2024-08-13T22:00:00Z,23,15,6+,29.97
SLPO,-19.543,-65.724,240,8,9.21,SLPO 132200Z 24008KT 9999 FEW023 SCT070 11/M04 Q1040,2024-08-13T22:00:00Z,11,-4,6+,30.71
SLMG,-13.262,-64.059,0,0,0.0,SLMG 132200Z 00000KT 5000 NSC 26/16 Q1012,2024-08-13T22:00:00Z,26,16,3.11,29.88
SLJE,-17.832,-60.744,0,0,0.0,SLJE 132200Z 00000KT 9999 NSC 28/14 Q1018,2024-08-13T22:00:00Z,28,14,6+,30.06
SLCP,-16.138,-62.028,0,0,0.0,SLCP 132200Z 00000KT 2000 FU NSC 25/09 Q1017,2024-08-13T22:00:00Z,25,9,1.24,30.03
SLCA,-20.006,-63.528,360,5,5.75,SLCA 132200Z 36005KT 9999 SCT080 21/M02 Q1018,2024-08-13T22:00:00Z,21,-2,6+,30.06
SKVV,4.162,-73.618,340,4,4.6,SKVV 132200Z 34004KT 9999 SCT020 BKN090 27/22 Q1014,2024-08-13T22:00:00Z,27,22,6+,29.94
SKVP,10.436,-73.248,230,3,3.45,SKVP 132200Z 23003KT 9999 FEW020 SCT080 31/23 Q1011,2024-08-13T22:00:00Z,31,23,6+,29.85
SKUI,5.691,-76.644,320,8,9.21,SKUI 132200Z 32008KT 9999 FEW030 32/23 Q1007,2024-08-13T22:00:00Z,32,23,6+,29.73
SKUC,7.066,-70.735,VRB,2,2.3,SKUC 132200Z VRB02KT 9999 SCT025 29/25 Q1012,2024-08-13T22:00:00Z,29,25,6+,29.88
SKSM,11.12,-74.231,20,9,10.36,SKSM 132200Z 02009KT 9999 FEW020 SCT070 32/25 Q1009,2024-08-13T22:00:00Z,32,25,6+,29.79
SKSA,6.955,-71.86,350,3,3.45,SKSA 132200Z 35003KT 9999 FEW006 BKN012 24/24 Q1012,2024-08-13T22:00:00Z,24,24,6+,29.88
SKRH,11.528,-72.918,30,9,10.36,SKRH 132200Z 03009KT 350V080 9999 FEW018 30/27 Q1009,2024-08-13T22:00:00Z,30,27,6+,29.79
SKQU,5.213,-74.884,VRB,5,5.75,SKQU 132200Z AUTO VRB05KT 9999 BKN130/// 34/18 Q1008,2024-08-13T22:00:00Z,34,18,6+,29.76
SKPV,13.358,-81.358,100,6,6.9,SKPV 132200Z 10006KT 060V130 9999 FEW017 30/29 Q1010,2024-08-13T22:00:00Z,30,29,6+,29.82
SKPS,1.394,-77.291,120,4,4.6,SKPS 132200Z 12004KT 070V210 9999 FEW030 23/09 Q1019,2024-08-13T22:00:00Z,23,9,6+,30.09
SKPP,2.453,-76.609,170,11,12.66,SKPP 132200Z 17011KT 140V210 9999 SCT045 25/09 Q1017,2024-08-13T22:00:00Z,25,9,6+,30.03
SKPC,6.184,-67.491,200,4,4.6,SKPC 132200Z 20004KT 9999 FEW020 32/22 Q1011,2024-08-13T22:00:00Z,32,22,6+,29.85
SKNV,2.949,-75.294,210,14,16.11,SKNV 132200Z 21014KT 9999 FEW045 32/16 Q1011,2024-08-13T22:00:00Z,32,16,6+,29.85
SKMZ,5.03,-75.47,VRB,5,5.75,SKMZ 132200Z VRB05KT 9000 FEW010SCT050 22/12 Q1024,2024-08-13T22:00:00Z,22,12,5.59,30.24
SKMR,8.826,-75.825,320,6,6.9,SKMR 132200Z 32006KT 9999 BKN016 31/25 Q1007,2024-08-13T22:00:00Z,31,25,6+,29.73
SKMD,6.221,-75.59,210,8,9.21,SKMD 132200Z 21008KT 9999 VCSH SCT035CB SCT080 25/16 Q1017 RMK CB VCSH/S/SW,2024-08-13T22:00:00Z,25,16,6+,30.03
SKLC,7.817,-76.718,150,6,6.9,SKLC 132200Z 15006KT 130V190 9999 SCT020 31/24 Q1008,2024-08-13T22:00:00Z,31,24,6+,29.76
SKIP,0.858,-77.677,110,9,10.36,SKIP 132200Z 11009KT 9999 FEW020 13/06 Q1029,2024-08-13T22:00:00Z,13,6,6+,30.38
SKIB,4.418,-75.13,200,6,6.9,SKIB 132200Z 20006KT 9999 SCT030 29/19 Q1017,2024-08-13T22:00:00Z,29,19,6+,30.03
SKGP,2.57,-77.899,0,0,0.0,SKGP 132200Z 00000KT 7000 VCSH BKN015 29/24 Q1009,2024-08-13T22:00:00Z,29,24,4.35,29.79
SKEJ,7.026,-73.809,220,3,3.45,SKEJ 132200Z 22003KT 9999 SCT015 33/22 Q1007,2024-08-13T22:00:00Z,33,22,6+,29.73
SKCZ,9.334,-75.283,330,3,3.45,SKCZ 132200Z 33003KT 280V010 9999 FEW042 32/22 Q1008,2024-08-13T22:00:00Z,32,22,6+,29.76
SKCO,1.814,-78.749,270,9,10.36,SKCO 132200Z 27009KT 9999 BKN036 27/23 Q1009,2024-08-13T22:00:00Z,27,23,6+,29.79
SKCL,3.543,-76.382,340,8,9.21,SKCL 132200Z 34008KT 310V040 9999 FEW023 BKN120 29/19 Q1012 NOSIG,2024-08-13T22:00:00Z,29,19,6+,29.88
SKCC,7.93,-72.509,160,21,24.17,SKCC 132200Z 16021G31KT 9999 SCT022 31/18 Q1011,2024-08-13T22:00:00Z,31,18,6+,29.85
SKBU,3.82,-76.992,240,3,3.45,SKBU 132200Z 24003KT 9999 FEW020 SCT035 28/25 Q1008,2024-08-13T22:00:00Z,28,25,6+,29.76
SKBS,6.203,-77.395,VRB,3,3.45,SKBS 132200Z VRB03KT 9999 SCT023 29/26 Q1008,2024-08-13T22:00:00Z,29,26,6+,29.76
SKAS,0.505,-76.501,350,4,4.6,SKAS 132200Z 35004KT 310V020 8000 BKN009 BKN015 25/23 Q1013,2024-08-13T22:00:00Z,25,23,4.97,29.91
SKAR,4.455,-75.766,220,7,8.06,SKAR 132200Z 22007KT 170V260 9999 FEW022CB SCT027 29/19 Q1013 RMK CB/NE/N,2024-08-13T22:00:00Z,29,19,6+,29.91
SETN,0.979,-79.627,210,6,6.9,SETN 132200Z 21006KT 180V290 9999 FEW026 BKN100 28/23 Q1009 RMK A2981,2024-08-13T22:00:00Z,28,23,6+,29.79
SEST,-0.906,-89.619,160,13,14.96,SEST 132200Z 16013KT 9999 FEW016 BKN070 23/18 Q1010 RMK A2984,2024-08-13T22:00:00Z,23,18,6+,29.82
SESM,-1.505,-78.063,60,2,2.3,SESM 132200Z 06002KT 090V150 9999 SCT023 SCT100 22/19 Q1018 RMK A3008,2024-08-13T22:00:00Z,22,19,6+,30.06
SENL,0.092,-76.869,310,4,4.6,SENL 132200Z 31004KT 9999 FEW026 BKN100 23/22 Q1014 RMK A2995,2024-08-13T22:00:00Z,23,22,6+,29.94
SEGS,-0.445,-90.269,120,16,18.41,SEGS 132200Z 12016KT CAVOK 24/16 Q1012 RMK A2989,2024-08-13T22:00:00Z,24,16,6+,29.88
SECO,-0.461,-76.988,110,3,3.45,SECO 132200Z 11003KT 9999 SCT026 SCT100 26/24 Q1014 RMK A2995,2024-08-13T22:00:00Z,26,24,6+,29.94
SCTB,-33.456,-70.547,240,4,4.6,SCTB 132200Z 24004KT 8000 SCT110 BKN200 19/10 Q1016,2024-08-13T22:00:00Z,19,10,4.97,30.00
SCRG,-34.174,-70.776,190,8,9.21,SCRG 132200Z 19008KT 8000 NSC 17/11 Q1016,2024-08-13T22:00:00Z,17,11,4.97,30.00
SCRD,-33.068,-71.557,350,5,5.75,SCRD 132200Z 35005KT 0100 FG VV000 10/10 Q1018,2024-08-13T22:00:00Z,10,10,0.06,30.06
SCPD,-33.1173,-70.6838,130,7,8.06,SCPD 132200Z 13007KT 8000 FEW070 SCT200 18/12 Q1015,2024-08-13T22:00:00Z,18,12,4.97,29.97
SCNT,-51.672,-72.528,350,5,5.75,SCNT 132200Z 35005KT 9999 FEW050 BKN100 BKN200 05/M01 Q1005,2024-08-13T22:00:00Z,5,-1,6+,29.68
SCBA,-45.913,-71.694,270,8,9.21,SCBA 132200Z 27008KT 9999 BKN050 06/02 Q1009,2024-08-13T22:00:00Z,6,2,6+,29.79
SBYS,-21.982,-47.34,170,8,9.21,SBYS 132200Z 17008KT CAVOK 16/06 Q1022,2024-08-13T22:00:00Z,16,6,6+,30.18
SBVH,-12.694,-60.098,190,6,6.9,SBVH 132200Z 19006KT 7000 NSC 27/10 Q1016,2024-08-13T22:00:00Z,27,10,4.35,30.00
SBUY,-4.884,-65.354,0,0,0.0,SBUY 132200Z 00000KT 8000 NSC 27/23 Q1011,2024-08-13T22:00:00Z,27,23,4.97,29.85
SBUR,-19.765,-47.965,200,4,4.6,SBUR 132200Z 20004KT CAVOK 21/M02 Q1021,2024-08-13T22:00:00Z,21,-2,6+,30.15
SBUL,-18.883,-48.226,220,3,3.45,SBUL 132200Z 22003KT CAVOK 21/M02 Q1022,2024-08-13T22:00:00Z,21,-2,6+,30.18
SBUF,-9.4,-38.25,130,14,16.11,SBUF 132200Z AUTO 13014KT CAVOK 28/19 Q1017,2024-08-13T22:00:00Z,28,19,6+,30.03
SBTU,-3.786,-49.72,,,,SBTU 132200Z AUTO /////KT ///V/// //// // ///////// ///// Q////,2024-08-13T22:00:00Z,,,,
SBTA,-23.04,-45.516,170,4,4.6,SBTA 132200Z 17004KT 120V240 CAVOK 12/07 Q1024,2024-08-13T22:00:00Z,12,7,6+,30.24
SBSR,-20.817,-49.407,180,5,5.75,SBSR 132200Z 18005KT CAVOK 22/M00 Q1020,2024-08-13T22:00:00Z,22,0,6+,30.12
SBSM,-29.711,-53.688,100,3,3.45,SBSM 132200Z 10003KT CAVOK 11/07 Q1023,2024-08-13T22:00:00Z,11,7,6+,30.21
SBSC,-22.932,-43.719,160,3,3.45,SBSC 132200Z 16003KT 9999 FEW030 SCT070 16/11 Q1025,2024-08-13T22:00:00Z,16,11,6+,30.27
SBNT,-5.911,-35.248,150,6,6.9,SBNT 132200Z 15006KT 9999 FEW018 24/20 Q1015,2024-08-13T22:00:00Z,24,20,6+,29.97
SBNM,-28.282,-54.169,130,2,2.3,SBNM 132200Z 13002KT CAVOK 14/07 Q1021,2024-08-13T22:00:00Z,14,7,6+,30.15
SBMT,-23.509,-46.638,130,8,9.21,SBMT 132200Z 13008KT 9999 FEW020 10/06 Q1025,2024-08-13T22:00:00Z,10,6,6+,30.27
SBMS,-5.202,-37.364,40,12,13.81,SBMS 132200Z AUTO 04012KT CAVOK 27/24 Q1013,2024-08-13T22:00:00Z,27,24,6+,29.91
SBMK,-16.705,-43.819,160,7,8.06,SBMK 132200Z 16007KT CAVOK 27/03 Q1019,2024-08-13T22:00:00Z,27,3,6+,30.09
SBMG,-23.476,-52.017,80,9,10.36,SBMG 132200Z 08009KT CAVOK 18/01 Q1020,2024-08-13T22:00:00Z,18,1,6+,30.12
SBME,-22.343,-41.766,240,6,6.9,SBME 132200Z 24006KT CAVOK 18/12 Q1025,2024-08-13T22:00:00Z,18,12,6+,30.27
SBLS,-19.662,-43.896,140,11,12.66,SBLS 132200Z 14011KT CAVOK 18/04 Q1023,2024-08-13T22:00:00Z,18,4,6+,30.21
SBLE,-12.482,-41.277,90,4,4.6,SBLE 132200Z AUTO 09004KT CAVOK ///// Q////,2024-08-13T22:00:00Z,,,6+,
SBKG,-7.27,-35.895,110,10,11.51,SBKG 132200Z 11010KT CAVOK 23/19 Q1018,2024-08-13T22:00:00Z,23,19,6+,30.06
SBJV,-26.224,-48.797,0,0,0.0,SBJV 132200Z 00000KT CAVOK 11/07 Q1026,2024-08-13T22:00:00Z,11,7,6+,30.30
SBJU,-7.219,-39.27,40,2,2.3,SBJU 132200Z 04002KT CAVOK 31/14 Q1015,2024-08-13T22:00:00Z,31,14,6+,29.97
SBJR,-22.988,-43.37,320,1,1.15,SBJR 132200Z 32001KT 9999 FEW040 15/12 Q1025,2024-08-13T22:00:00Z,15,12,6+,30.27
SBIZ,-5.53,-47.458,60,2,2.3,SBIZ 132200Z 06002KT CAVOK 32/20 Q1012,2024-08-13T22:00:00Z,32,20,6+,29.88
SBIP,-19.471,-42.488,0,0,0.0,SBIP 132200Z AUTO 00000KT CAVOK 16/07 Q1022,2024-08-13T22:00:00Z,16,7,6+,30.18
SBIL,-14.816,-39.033,200,15,17.26,SBIL 132200Z 20015KT 6000 2500W -RA SCT008 BKN015 FEW020TCU BKN050 24/23 Q1020,2024-08-13T22:00:00Z,24,23,3.73,30.12
SBHT,-3.251,-52.252,50,2,2.3,SBHT 132200Z 05002KT CAVOK 28/24 Q1011,2024-08-13T22:00:00Z,28,24,6+,29.85
SBGW,-22.792,-45.205,350,2,2.3,SBGW 132200Z 35002KT CAVOK 13/04 Q1024,2024-08-13T22:00:00Z,13,4,6+,30.24
SBFN,-3.855,-32.423,130,13,14.96,SBFN 132200Z AUTO 13013KT 9999 SCT020 26/22 Q1015,2024-08-13T22:00:00Z,26,22,6+,29.97
SBES,-22.813,-42.093,230,7,8.06,SBES 132200Z 23007KT 200V260 CAVOK 18/13 Q1025,2024-08-13T22:00:00Z,18,13,6+,30.27
SBDN,-22.175,-51.427,130,7,8.06,SBDN 132200Z 13007KT CAVOK 18/05 Q1020,2024-08-13T22:00:00Z,18,5,6+,30.12
SBCZ,-7.597,-72.774,150,4,4.6,SBCZ 132200Z 15004KT 8000 NSC 30/18 Q1014,2024-08-13T22:00:00Z,30,18,4.97,29.94
SBCO,-29.945,-51.144,90,5,5.75,SBCO 132200Z 09005KT CAVOK 11/06 Q1024,2024-08-13T22:00:00Z,11,6,6+,30.24
SBCH,-27.132,-52.662,140,8,9.21,SBCH 132200Z 14008KT CAVOK 12/04 Q1022,2024-08-13T22:00:00Z,12,4,6+,30.18
SBCA,-25,-53.501,200,4,4.6,SBCA 132200Z 20004KT CAVOK 15/01 Q1022,2024-08-13T22:00:00Z,15,1,6+,30.18
SBBU,-22.345,-49.054,140,10,11.51,SBBU 132200Z 14010KT CAVOK 17/07 Q1021,2024-08-13T22:00:00Z,17,7,6+,30.15
SBBI,-25.404,-49.232,90,9,10.36,SBBI 132200Z 09009KT 7000 NSC 08/05 Q1025,2024-08-13T22:00:00Z,8,5,4.35,30.27
SBBH,-19.851,-43.951,90,8,9.21,SBBH 132200Z 09008KT CAVOK 18/04 Q1023,2024-08-13T22:00:00Z,18,4,6+,30.21
SBAX,-19.563,-46.96,80,3,3.45,SBAX 132200Z 08003KT CAVOK 22/M02 Q1022,2024-08-13T22:00:00Z,22,-2,6+,30.18
SBAU,-21.141,-50.425,140,8,9.21,SBAU 132200Z 14008KT CAVOK 20/02 Q1019,2024-08-13T22:00:00Z,20,2,6+,30.09
SBAN,-16.229,-48.964,130,6,6.9,SBAN 132200Z 13006KT CAVOK 22/03 Q1021,2024-08-13T22:00:00Z,22,3,6+,30.15
SBAF,-22.875,-43.385,220,3,3.45,SBAF 132200Z 22003KT 9999 BKN040 16/10 Q1025,2024-08-13T22:00:00Z,16,10,6+,30.27
ROYN,24.467,122.978,170,2,2.3,ROYN 132200Z AUTO 17002KT 9999 //////TCU 27/26 Q1006,2024-08-13T22:00:00Z,27,26,6+,29.70
RORY,27.044,128.4,VRB,2,2.3,RORY 132200Z AUTO VRB02KT 9999 //////TCU 30/27 Q1006,2024-08-13T22:00:00Z,30,27,6+,29.70
RORT,24.653,124.674,110,2,2.3,RORT 132200Z AUTO 11002KT 9999 FEW070 //////TCU 27/26 Q1006,2024-08-13T22:00:00Z,27,26,6+,29.70
RORS,24.827,125.145,150,3,3.45,RORS 132200Z AUTO 15003KT 9999 BKN025 BKN031 //////TCU 27/26 Q1006,2024-08-13T22:00:00Z,27,26,6+,29.70
RORK,25.944,131.326,280,2,2.3,RORK 132200Z AUTO 28002KT 9999 NSC 30/26 Q1006,2024-08-13T22:00:00Z,30,26,6+,29.70
ROMY,24.782,125.295,140,4,4.6,ROMY 132200Z AUTO 14004KT 9999 NCD 27/26 Q1006,2024-08-13T22:00:00Z,27,26,6+,29.70
ROMD,25.847,131.264,310,2,2.3,ROMD 132200Z AUTO 31002KT 9999 NCD 30/26 Q1006,2024-08-13T22:00:00Z,30,26,6+,29.70
ROIG,24.395,124.245,300,2,2.3,ROIG 132200Z AUTO 30002KT 9999 NCD 26/26 Q1006,2024-08-13T22:00:00Z,26,26,6+,29.70
RKTU,36.717,127.499,50,3,3.45,RKTU 132200Z 05003KT CAVOK 25/24 Q1009,2024-08-13T22:00:00Z,25,24,6+,29.79
RKTN,35.894,128.659,80,1,1.15,RKTN 132200Z 08001KT 9999 FEW040 25/22 Q1010,2024-08-13T22:00:00Z,25,22,6+,29.82
RKSS,37.558,126.791,330,4,4.6,RKSS 132200Z 33004KT CAVOK 29/28 Q1009 NOSIG,2024-08-13T22:00:00Z,29,28,6+,29.79
RKPK,35.179,128.938,320,3,3.45,RKPK 132200Z 32003KT 9999 FEW030 25/21 Q1009,2024-08-13T22:00:00Z,25,21,6+,29.79
RKPC,33.511,126.493,80,9,10.36,RKPC 132200Z 08009KT 060V120 6000 -RA FEW010 BKN030 BKN080 26/24 Q1009 NOSIG,2024-08-13T22:00:00Z,26,24,3.73,29.79
RKNY,38.061,128.669,280,2,2.3,RKNY 132200Z AUTO 28002KT 9999 NCD 25/22 Q1010,2024-08-13T22:00:00Z,25,22,6+,29.82
RJSY,38.812,139.787,300,6,6.9,RJSY 132200Z 30006KT 9999 -SHRA FEW003 SCT010 BKN020 26/25 Q1009,2024-08-13T22:00:00Z,26,25,6+,29.79
RJSM,40.705,141.372,120,3,3.45,RJSM 132200Z 12003KT 6000 FEW005 BKN040 24/23 Q1007,2024-08-13T22:00:00Z,24,23,3.73,29.73
RJSF,37.227,140.428,100,2,2.3,RJSF 132200Z AUTO 10002KT 9999 BKN060 BKN070 OVC080 25/24 Q1010,2024-08-13T22:00:00Z,25,24,6+,29.82
RJOT,34.214,134.016,140,4,4.6,RJOT 132200Z 14004KT 9999 FEW025 SCT/// 26/24 Q1009,2024-08-13T22:00:00Z,26,24,6+,29.79
RJOS,34.132,134.609,270,5,5.75,RJOS 132200Z 27005KT 9999 FEW030 SCT/// 27/23 Q1008,2024-08-13T22:00:00Z,27,23,6+,29.76
RJOR,35.53,134.165,150,4,4.6,RJOR 132200Z 15004KT 9999 FEW010 SCT/// 27/23 Q1008,2024-08-13T22:00:00Z,27,23,6+,29.76
RJOO,34.784,135.439,VRB,2,2.3,RJOO 132200Z VRB02KT 9999 FEW030 29/24 Q1008 RMK 1CU030 A2978,2024-08-13T22:00:00Z,29,24,6+,29.76
RJOM,33.83,132.698,110,4,4.6,RJOM 132200Z 11004KT 9999 FEW025 29/23 Q1007,2024-08-13T22:00:00Z,29,23,6+,29.73
RJOK,33.546,133.669,360,7,8.06,RJOK 132200Z 36007KT 9999 FEW020 SCT/// 28/21 Q1007,2024-08-13T22:00:00Z,28,21,6+,29.73
RJOH,35.493,133.239,VRB,2,2.3,RJOH 132200Z VRB02KT 9999 FEW010 27/26 Q1008,2024-08-13T22:00:00Z,27,26,6+,29.76
RJOB,34.757,133.855,350,4,4.6,RJOB 132200Z 35004KT 9999 FEW025 27/24 Q1009,2024-08-13T22:00:00Z,27,24,6+,29.79
RJNT,36.641,137.187,220,3,3.45,RJNT 132200Z 22003KT 200V270 9999 VCSH FEW010 SCT035 BKN120 27/25 Q1009,2024-08-13T22:00:00Z,27,25,6+,29.79
RJNK,36.394,136.407,VRB,1,1.15,RJNK 132200Z VRB01KT 9999 FEW015 BKN030 28/27 Q1009,2024-08-13T22:00:00Z,28,27,6+,29.79
RJKI,28.321,129.928,VRB,2,2.3,RJKI 132200Z AUTO VRB02KT 9999 SCT026 SCT036 28/25 Q1006,2024-08-13T22:00:00Z,28,25,6+,29.70
RJKB,27.432,128.706,VRB,1,1.15,RJKB 132200Z AUTO VRB01KT 9999 FEW050 //////TCU 30/25 Q1006,2024-08-13T22:00:00Z,30,25,6+,29.70
RJKA,28.431,129.713,340,2,2.3,RJKA 132200Z AUTO 34002KT 9999 NCD 28/25 Q1006,2024-08-13T22:00:00Z,28,25,6+,29.70
RJFU,32.917,129.914,140,4,4.6,RJFU 132200Z 14004KT 9999 FEW020 27/25 Q1007,2024-08-13T22:00:00Z,27,25,6+,29.73
RJFT,32.837,130.855,VRB,2,2.3,RJFT 132200Z VRB02KT CAVOK 24/22 Q1008,2024-08-13T22:00:00Z,24,22,6+,29.76
RJFS,33.15,130.302,50,3,3.45,RJFS 132200Z 05003KT CAVOK 27/25 Q1007,2024-08-13T22:00:00Z,27,25,6+,29.73
RJFR,33.846,131.035,20,4,4.6,RJFR 132200Z 02004KT 9999 FEW010 28/25 Q1007,2024-08-13T22:00:00Z,28,25,6+,29.73
RJFO,33.479,131.737,VRB,2,2.3,RJFO 132200Z VRB02KT 9999 FEW025 27/24 Q1007,2024-08-13T22:00:00Z,27,24,6+,29.73
RJFK,31.803,130.719,360,3,3.45,RJFK 132200Z 36003KT 330V030 9999 BCFG FEW025 BKN130 24/23 Q1008 RMK 1CU025 6AC130 A2979 FG N-E,2024-08-13T22:00:00Z,24,23,6+,29.76
RJEC,43.671,142.447,180,4,4.6,RJEC 132200Z AUTO 18004KT 9999 SCT050 BKN080 BKN110 25/22 Q1008,2024-08-13T22:00:00Z,25,22,6+,29.76
RJDB,33.749,129.785,60,5,5.75,RJDB 132200Z AUTO 06005KT 010V110 9999 FEW010 28/26 Q1007,2024-08-13T22:00:00Z,28,26,6+,29.73
RJCO,43.117,141.381,140,9,10.36,RJCO 132200Z 14009KT 9999 FEW010 SCT050 BKN080 25/24 Q1009,2024-08-13T22:00:00Z,25,24,6+,29.79
RJBE,34.633,135.224,60,4,4.6,RJBE 132200Z 06004KT 9999 FEW030 SCT/// 29/24 Q1008,2024-08-13T22:00:00Z,29,24,6+,29.76
RJAH,36.182,140.415,180,4,4.6,RJAH 132200Z 18004KT 8000 FEW015 BKN160 29/25 Q1008,2024-08-13T22:00:00Z,29,25,4.97,29.76
OTHH,25.273,51.609,60,4,4.6,OTHH 132200Z 06004KT 4500 HZ NSC 34/29 Q0998 NOSIG,2024-08-13T22:00:00Z,34,29,2.8,29.47
ORKK,35.469,44.3494,40,6,6.9,ORKK 132200Z 04006KT CAVOK 34/09 Q1003,2024-08-13T22:00:00Z,34,9,6+,29.62
OPSK,27.722,68.792,0,0,0.0,OPSK 132200Z 00000KT 4000 HZ NSC 32/27 Q1001 NOSIG,2024-08-13T22:00:00Z,32,27,2.49,29.56
OKKK,29.227,47.969,190,3,3.45,OKKK 132200Z 19003KT CAVOK 35/08 Q0999 NOSIG,2024-08-13T22:00:00Z,35,8,6+,29.50
OJAM,31.973,35.992,290,6,6.9,OJAM 132200Z 29006KT 8000 NSC 25/10 Q1012 NOSIG,2024-08-13T22:00:00Z,25,10,4.97,29.88
OJAI,31.723,35.993,90,4,4.6,OJAI 132200Z 09004KT 5000 HZ NSC 22/14 Q1012 NOSIG,2024-08-13T22:00:00Z,22,14,3.11,29.88
OIKO,27.1,57.083,VRB,2,2.3,OIKO 132200Z AUTO VRB02KT //// // ////// 31/25 Q1001,2024-08-13T22:00:00Z,31,25,,29.56
OIGG,37.325,49.606,0,0,0.0,OIGG 132200Z 00000KT 9999 FEW090 23/22 Q1009,2024-08-13T22:00:00Z,23,22,6+,29.79
OIFK,33.895,51.577,0,0,0.0,OIFK 132200Z 00000KT CAVOK 31/10 Q1008 A2977,2024-08-13T22:00:00Z,31,10,6+,29.76
NFNL,-16.467,179.339,120,24,27.62,NFNL 132200Z 12024KT 9999 SCT030 SCT120 26/16 Q1018,2024-08-13T22:00:00Z,26,16,6+,30.06
MYNN,25.04,-77.467,160,9,10.36,MYNN 132200Z 16009KT 9999 FEW015CB SCT020 31/25 A3000,2024-08-13T22:00:00Z,31,25,6+,30.00
MYCB,24.315,-75.452,90,9,10.36,MYCB 132200Z AUTO 09009KT 9999 SCT023 30/26 A3000,2024-08-13T22:00:00Z,30,26,6+,30.00
MYAF,24.689,-77.796,100,5,5.75,MYAF 132200Z AUTO 10005KT 070V130 9999 //////CB 30/26 A2998,2024-08-13T22:00:00Z,30,26,6+,29.98
MPTO,9.056,-79.391,160,4,4.6,MPTO 132200Z 16004KT 9000 VCSH SCT018CB SCT090 30/25 Q1008 TEMPO TS,2024-08-13T22:00:00Z,30,25,5.59,29.76
MNRS,11.417,-85.833,100,6,6.9,MNRS 132200Z 10006KT 9999 FEW014CB BKN015 29/26 Q1009 CB ALRD,2024-08-13T22:00:00Z,29,26,6+,29.79
MNPC,14.045,-83.388,360,4,4.6,MNPC 132200Z 36004KT 3000 -TSRA FEW014CB BKN016TCU 24/24 Q1010 CBRA/N/NE/E/SE/S TCURA/W/NW,2024-08-13T22:00:00Z,24,24,1.86,29.82
MNJU,12.1,-85.367,0,0,0.0,MNJU 132200Z 00000KT 9999 SCT020TCU SCT080 27/26 Q1010 TCU ALRD RESHRA,2024-08-13T22:00:00Z,27,26,6+,29.82
MNJG,13.141,-86.019,90,6,6.9,MNJG 132200Z 09006KT 5000 BKN010TCU 23/20 Q1011 TCU 4/C BR,2024-08-13T22:00:00Z,23,20,3.11,29.85
MNCH,12.638,-87.136,90,4,4.6,MNCH 132200Z 09004KT 4000 TSRA FEW024CB SCT025TCU 27/26 Q1009 CB/N/NE/E/NW TCU/SE/S,2024-08-13T22:00:00Z,27,26,2.49,29.79
MNBL,11.995,-83.768,350,4,4.6,MNBL 132200Z 35004KT 8000 VCRA OVC016 27/26 Q1010 RA ALRD,2024-08-13T22:00:00Z,27,26,4.97,29.82
MKJP,17.942,-76.798,150,14,16.11,MKJP 132200Z 15014KT 9999 FEW020 FEW022CB 33/27 Q1011,2024-08-13T22:00:00Z,33,27,6+,29.85
MGSJ,13.934,-90.832,,,,MGSJ 132200Z METAR ,2024-08-13T22:00:00Z,,,,
MBPV,21.772,-72.265,90,8,9.21,MBPV 132200Z 09008KT 9999 SCT018 31/24 Q1014,2024-08-13T22:00:00Z,31,24,6+,29.94
LKLN,49.675,13.275,260,4,4.6,LKLN 132200Z AUTO 26004KT 220V310 9999 FEW072 SCT130 BKN150 24/16 Q1012,2024-08-13T22:00:00Z,24,16,6+,29.88
LKKB,50.123,14.538,80,7,8.06,LKKB 132200Z 08007KT CAVOK 24/15 Q1012,2024-08-13T22:00:00Z,24,15,6+,29.88
LFGA,48.11,7.359,VRB,2,2.3,LFGA 132200Z AUTO VRB02KT CAVOK 24/19 Q1009,2024-08-13T22:00:00Z,24,19,6+,29.79
LEGA,37.136,-3.633,240,3,3.45,LEGA 132200Z 24003KT CAVOK 22/06 Q1014,2024-08-13T22:00:00Z,22,6,6+,29.94
LBIA,42.456,26.352,70,6,6.9,LBIA 132200Z 07006KT 9999 SKC 25/14 Q1012,2024-08-13T22:00:00Z,25,14,6+,29.88
KNEL,40.037,-74.326,VRB,5,5.75,KNEL 132200Z AUTO VRB05KT CLR 28/13 A2997 RMK AO2 SLP146 T02780133 $,2024-08-13T22:00:00Z,27.8,13.3,,29.97
HKNK,-0.298,36.159,0,0,0.0,HKNK 132200Z 00000KT 9999 BKN024 BKN080 15/13,2024-08-13T22:00:00Z,15,13,6+,
HKMO,-4.015,39.606,VRB,3,3.45,HKMO 132200Z VRB03KT 9999 SCT020 24/22 Q1014 NOSIG,2024-08-13T22:00:00Z,24,22,6+,29.94
HKLO,3.122,35.609,0,0,0.0,HKLO 132200Z 00000KT 9999 FEW025CB BKN278 29/17 Q1009,2024-08-13T22:00:00Z,29,17,6+,29.79
HKJK,-1.319,36.928,40,6,6.9,HKJK 132200Z 04006KT CAVOK 15/12 Q1023,2024-08-13T22:00:00Z,15,12,6+,30.21
HETR,28.209,33.646,300,15,17.26,HETR 132200Z 30015KT CAVOK 30/26 Q1004,2024-08-13T22:00:00Z,30,26,6+,29.65
HESX,30.108,30.896,360,8,9.21,HESX 132200Z 36008KT CAVOK 25/21 Q1009 NOSIG,2024-08-13T22:00:00Z,25,21,6+,29.79
HESW,29.346,25.507,20,6,6.9,HESW 132200Z 02006KT CAVOK 30/10 Q1009,2024-08-13T22:00:00Z,30,10,6+,29.79
HESN,23.964,32.82,340,6,6.9,HESN 132200Z 34006KT 8000 NSC 35/13 Q1007 NOSIG,2024-08-13T22:00:00Z,35,13,4.97,29.73
HESH,27.977,34.395,270,4,4.6,HESH 132200Z 27004KT CAVOK 35/13 Q1004 NOSIG,2024-08-13T22:00:00Z,35,13,6+,29.65
HESG,26.343,31.743,300,6,6.9,HESG 132200Z 30006KT CAVOK 32/10 Q1005 NOSIG,2024-08-13T22:00:00Z,32,10,6+,29.68
HEPS,31.279,32.238,10,4,4.6,HEPS 132200Z 01004KT CAVOK 28/23 Q1008 NOSIG,2024-08-13T22:00:00Z,28,23,6+,29.76
HEMM,31.325,27.222,250,2,2.3,HEMM 132200Z 25002KT CAVOK 27/23 Q1010 NOSIG,2024-08-13T22:00:00Z,27,23,6+,29.82
HEMA,25.557,34.584,310,9,10.36,HEMA 132200Z 31009KT CAVOK 35/12 Q1004 NOSIG,2024-08-13T22:00:00Z,35,12,6+,29.65
HELX,25.671,32.706,320,3,3.45,HELX 132200Z 32003KT CAVOK 34/16 Q1006 NOSIG,2024-08-13T22:00:00Z,34,16,6+,29.70
HEGN,27.179,33.801,300,7,8.06,HEGN 132200Z 30007KT CAVOK 34/10 Q1004 NOSIG,2024-08-13T22:00:00Z,34,10,6+,29.65
HEBL,22.376,31.612,360,8,9.21,HEBL 132200Z 36008KT CAVOK 36/14 Q1007 NOSIG,2024-08-13T22:00:00Z,36,14,6+,29.73
HEBA,30.918,29.696,310,6,6.9,HEBA 132200Z 31006KT CAVOK 26/22 Q1008 NOSIG,2024-08-13T22:00:00Z,26,22,6+,29.76
HEAT,27.049,31.014,330,9,10.36,HEAT 132200Z 33009KT CAVOK 32/10 Q1010 NOSIG,2024-08-13T22:00:00Z,32,10,6+,29.82
HDAM,11.547,43.16,VRB,2,2.3,HDAM 132200Z VRB02KT 9999 FEW023 35/20 Q1004,2024-08-13T22:00:00Z,35,20,6+,29.65
GUCY,9.577,-13.612,280,10,11.51,GUCY 132200Z 28010KT 8000 -RA BKN013 BKN100 25/25 Q1012 NOSIG,2024-08-13T22:00:00Z,25,25,4.97,29.88
GOTK,12.572,-12.22,280,4,4.6,GOTK 132200Z 28004KT 9999 FEW010 28/25 Q1010,2024-08-13T22:00:00Z,28,25,6+,29.82
GOSS,16.051,-16.461,300,8,9.21,GOSS 132200Z 30008KT 270V350 9999 SCT011 28/24 Q1011,2024-08-13T22:00:00Z,28,24,6+,29.85
GOSP,16.677,-14.964,240,4,4.6,GOSP 132200Z 24004KT CAVOK 30/24 Q1009,2024-08-13T22:00:00Z,30,24,6+,29.79
GOSM,15.597,-13.326,280,4,4.6,GOSM 132200Z 28004KT CAVOK 33/24 Q1008,2024-08-13T22:00:00Z,33,24,6+,29.76
GOOY,14.741,-17.49,280,6,6.9,GOOY 132200Z 28006KT 250V330 9999 SCT013 28/25 Q1011,2024-08-13T22:00:00Z,28,25,6+,29.85
GOOK,14.147,-16.052,320,12,13.81,GOOK 132200Z 32012KT 9999 FEW013 29/24 Q1011,2024-08-13T22:00:00Z,29,24,6+,29.85
GOOG,15.4,-15.084,300,8,9.21,GOOG 132200Z 30008KT CAVOK 29/22 Q1008,2024-08-13T22:00:00Z,29,22,6+,29.76
GOOD,14.65,-16.23,360,6,6.9,GOOD 132200Z 36006KT CAVOK 29/25 Q1011,2024-08-13T22:00:00Z,29,25,6+,29.85
GOGS,12.389,-16.742,280,4,4.6,GOGS 132200Z 28004KT 9999 SCT013 28/26 Q1012,2024-08-13T22:00:00Z,28,26,6+,29.88
GOGK,12.898,-14.967,280,2,2.3,GOGK 132200Z 28002KT CAVOK 29/25 Q1009,2024-08-13T22:00:00Z,29,25,6+,29.79
GOGG,12.556,-16.282,280,4,4.6,GOGG 132200Z 28004KT 9999 FEW015 28/26 Q1012,2024-08-13T22:00:00Z,28,26,6+,29.88
GMMB,33.655,-7.221,340,4,4.6,GMMB 132200Z AUTO 34004KT 9999 NSC 20/20 Q1016 NOSIG,2024-08-13T22:00:00Z,20,20,6+,30.00
GMFB,32.514,-1.978,20,12,13.81,GMFB 132200Z AUTO 02012KT 9999 NSC 30/09 Q1017 NOSIG,2024-08-13T22:00:00Z,30,9,6+,30.03
GLRB,6.234,-10.362,220,8,9.21,GLRB 132200Z 22008KT 7000 -DZ FEW004 BKN011 FEW023CB 25/24 Q1014 CB/SE-S NOSIG,2024-08-13T22:00:00Z,25,24,4.35,29.94
GGOV,11.895,-15.654,280,5,5.75,GGOV 132200Z 28005KT 220V320 9999 FEW012 27/25 Q1011 NOSIG,2024-08-13T22:00:00Z,27,25,6+,29.85
FYRU,-17.956,19.724,170,3,3.45,FYRU 132200Z AUTO 17003KT //// // ////// 19/M10 Q1022,2024-08-13T22:00:00Z,19,-10,,30.18
FTTJ,12.134,15.034,180,4,4.6,FTTJ 132200Z 18004KT 4000 BR FEW020 25/25 Q1013 NOSIG,2024-08-13T22:00:00Z,25,25,2.49,29.91
FQNP,-15.106,39.282,40,2,2.3,FQNP 132200Z 04002KT CAVOK 20/18 Q1018,2024-08-13T22:00:00Z,20,18,6+,30.06
FQLC,-13.271,35.265,110,3,3.45,FQLC 132200Z 11003KT CAVOK 16/10 Q1022,2024-08-13T22:00:00Z,16,10,6+,30.18
FOOG,-0.712,8.754,200,5,5.75,FOOG 132200Z 20005KT 9000 SCT008 BKN033 24/21 Q1015,2024-08-13T22:00:00Z,24,21,5.59,29.97
FNUE,-11.768,19.898,160,3,3.45,FNUE 132200Z AUTO 16003KT 6000 ////// ///// Q////,2024-08-13T22:00:00Z,,,3.73,
FNUB,-14.925,13.575,190,7,8.06,FNUB 132200Z AUTO 19007KT 9999 // ////// 17/00 Q1026,2024-08-13T22:00:00Z,17,0,6+,30.30
FNLU,-8.858,13.231,190,5,5.75,FNLU 132200Z 19005KT 8000 NSC 21/19 Q1015 NOSIG,2024-08-13T22:00:00Z,21,19,4.97,29.97
FNHU,-12.809,15.761,120,5,5.75,FNHU 132200Z AUTO 12005KT 090V160 //// // NCD 19/M03 Q1023,2024-08-13T22:00:00Z,19,-3,,30.21
FNGI,-17.044,15.684,VRB,1,1.15,FNGI 132200Z AUTO VRB01KT 9999 // NCD 17/M15 Q1020,2024-08-13T22:00:00Z,17,-15,6+,30.12
FNCT,-12.479,13.487,90,2,2.3,FNCT 132200Z AUTO 09002KT 9999 ////// 19/17 Q1015,2024-08-13T22:00:00Z,19,17,6+,29.97
FNCA,-5.59,12.188,VRB,2,2.3,FNCA 132200Z AUTO VRB02KT 9999 FEW035 22/20 Q1016,2024-08-13T22:00:00Z,22,20,6+,30.00
FMSD,-25.038,46.956,60,14,16.11,FMSD 132200Z 06014KT 9999 FEW016 22/19 Q1017,2024-08-13T22:00:00Z,22,19,6+,30.03
FMNM,-15.667,46.352,90,4,4.6,FMNM 132200Z 09004KT 9999 FEW040 21/18 Q1017,2024-08-13T22:00:00Z,21,18,6+,30.03
FMMT,-18.11,49.392,290,3,3.45,FMMT 132200Z 29003KT 9999 VCSH SCT017 BKN033 20/19 Q1019,2024-08-13T22:00:00Z,20,19,6+,30.09
FIMP,-20.434,57.684,120,9,10.36,FIMP 132200Z 12009KT 9999 SCT017 22/16 Q1021,2024-08-13T22:00:00Z,22,16,6+,30.15
FDBB,-26.815,31.934,100,1,1.15,FDBB 132200Z AUTO 10001KT //// // ////// 18/14 Q1009,2024-08-13T22:00:00Z,18,14,,29.79
FBSK,-24.555,25.918,,,,FBSK 132200Z /////KT CAVOK 14/01 Q1018 NOSIG,2024-08-13T22:00:00Z,14,1,6+,30.06
FBPM,-21.159,27.477,40,6,6.9,FBPM 132200Z 04006KT CAVOK 16/07 Q1020,2024-08-13T22:00:00Z,16,7,6+,30.12
FBMN,-19.973,23.431,100,5,5.75,FBMN 132200Z 10005KT 070V140 CAVOK 20/M08 Q1019,2024-08-13T22:00:00Z,20,-8,6+,30.09
FAWK,-25.83,28.223,340,5,5.75,FAWK 132200Z AUTO 34005KT //// // ////// 16/04 Q1020,2024-08-13T22:00:00Z,16,4,,30.12
FAWB,-25.654,28.224,170,2,2.3,FAWB 132200Z AUTO 17002KT //// // ////// 12/04 Q1018,2024-08-13T22:00:00Z,12,4,,30.06
FAUT,-31.546,28.673,310,14,16.11,FAUT 132200Z AUTO 31014KT //// // ////// 23/M02 Q1006,2024-08-13T22:00:00Z,23,-2,,29.70
FAUP,-28.399,21.26,250,8,9.21,FAUP 132200Z AUTO 25008KT //// // ////// 14/M09 Q1021,2024-08-13T22:00:00Z,14,-9,,30.15
FAPP,-23.845,29.459,200,3,3.45,FAPP 132200Z AUTO 20003KT //// // ////// 12/08 Q1022,2024-08-13T22:00:00Z,12,8,,30.18
FAPN,-25.334,27.173,330,9,10.36,FAPN 132200Z AUTO 33009G22KT //// // ////// 23/08 Q1017,2024-08-13T22:00:00Z,23,8,,30.03
FAPE,-33.985,25.617,250,27,31.07,FAPE 132200Z 25027G37KT 9999 -RA SCT025 17/12 Q1007 NOSIG,2024-08-13T22:00:00Z,17,12,6+,29.73
FAMM,-25.798,25.548,330,7,8.06,FAMM 132200Z AUTO 33007KT //// // ////// 18/M11 Q1020,2024-08-13T22:00:00Z,18,-11,,30.12
FALW,-32.972,18.158,180,4,4.6,FALW 132200Z AUTO 18004KT //// // ////// 12/10 Q1020,2024-08-13T22:00:00Z,12,10,,30.12
FALE,-29.602,31.13,VRB,2,2.3,FALE 132200Z VRB02KT CAVOK 17/13 Q1002 NOSIG,2024-08-13T22:00:00Z,17,13,6+,29.59
FALA,-25.939,27.926,90,4,4.6,FALA 132200Z AUTO 09004KT 040V110 //// ///////// 13/04 Q1020,2024-08-13T22:00:00Z,13,4,,30.12
FAKN,-25.383,31.106,270,1,1.15,FAKN 132200Z AUTO 27001KT //// // ////// 18/11 Q1016,2024-08-13T22:00:00Z,18,11,,30.00
FAKM,-28.803,24.765,250,11,12.66,FAKM 132200Z AUTO 25011KT //// // ////// 15/09 Q1018,2024-08-13T22:00:00Z,15,9,,30.06
FAHS,-24.381,31.044,320,1,1.15,FAHS 132200Z AUTO 32001KT //// // ////// 17/13 Q1016,2024-08-13T22:00:00Z,17,13,,30.00
FACT,-33.965,18.602,200,10,11.51,FACT 132200Z 20010KT 180V240 9999 BKN033 12/06 Q1020 NOSIG,2024-08-13T22:00:00Z,12,6,6+,30.12
EIME,53.306,-6.442,310,4,4.6,EIME 132200Z 31004KT 9999 FEW034 14/08 Q1012,2024-08-13T22:00:00Z,14,8,6+,29.88
DXXX,6.166,1.254,230,10,11.51,DXXX 132200Z 23010KT 9999 SCT010 26/24 Q1015 NOSIG,2024-08-13T22:00:00Z,26,24,6+,29.97
DTTZ,33.94,8.111,90,23,26.47,DTTZ 132200Z 09023KT 4000 SA NSC 34/15 Q1007,2024-08-13T22:00:00Z,34,15,2.49,29.73
DTTX,34.718,10.691,110,9,10.36,DTTX 132200Z 11009KT CAVOK 29/24 Q1010,2024-08-13T22:00:00Z,29,24,6+,29.82
DTTR,31.703,9.257,100,8,9.21,DTTR 132200Z AUTO 10008KT NCD 35/09 Q1010,2024-08-13T22:00:00Z,35,9,,29.82
DTTN,36.483,8.8,350,7,8.06,DTTN 132200Z AUTO 35007KT 320V020 NCD 31/22 Q1009,2024-08-13T22:00:00Z,31,22,,29.79
DTTL,36.85,11.083,170,4,4.6,DTTL 132200Z AUTO 17004KT 110V220 NCD 29/25 Q1010,2024-08-13T22:00:00Z,29,25,,29.82
DTTJ,33.875,10.775,130,11,12.66,DTTJ 132200Z 13011KT CAVOK 29/25 Q1009 NOSIG,2024-08-13T22:00:00Z,29,25,6+,29.79
DTTG,33.733,9.918,90,12,13.81,DTTG 132200Z 09012KT CAVOK 30/15 Q1010,2024-08-13T22:00:00Z,30,15,6+,29.82
DTTF,34.422,8.822,180,8,9.21,DTTF 132200Z 18008KT 6000 NSC 31/14 Q1011 NOSIG,2024-08-13T22:00:00Z,31,14,3.73,29.85
DTKA,36.98,8.877,VRB,2,2.3,DTKA 132200Z VRB02KT 9999 FEW020 26/24 Q1009 NOSIG,2024-08-13T22:00:00Z,26,24,6+,29.79
DRRN,13.483,2.17,210,10,11.51,DRRN 132200Z 21010KT 9999 FEW016 27/23 Q1013 NOSIG,2024-08-13T22:00:00Z,27,23,6+,29.91
DNYO,9.267,12.429,260,7,8.06,DNYO 132200Z 26007KT CAVOK 28/23 Q1014,2024-08-13T22:00:00Z,28,23,6+,29.94
DNSO,12.917,5.202,0,0,0.0,DNSO 132200Z 00000KT 9999 FEW010 25/24 Q1014,2024-08-13T22:00:00Z,25,24,6+,29.94
DNPO,4.848,7.022,0,0,0.0,DNPO 132200Z 00000KT 9999 BKN008 25/24 Q1014 NOSIG,2024-08-13T22:00:00Z,25,24,6+,29.94
DNMN,9.652,6.462,210,3,3.45,DNMN 132200Z 21003KT CAVOK 25/23 Q1014,2024-08-13T22:00:00Z,25,23,6+,29.94
DNMM,6.577,3.321,220,7,8.06,DNMM 132200Z 22007KT 9999 SCT010 26/24 Q1015 NOSIG,2024-08-13T22:00:00Z,26,24,6+,29.97
DNKN,12.048,8.525,220,8,9.21,DNKN 132200Z 22008KT CAVOK 24/22 Q1016 NOSIG,2024-08-13T22:00:00Z,24,22,6+,30.00
DNIL,8.438,4.491,180,8,9.21,DNIL 132200Z 18008KT 9999 FEW010 24/22 Q1015,2024-08-13T22:00:00Z,24,22,6+,29.97
DNEN,6.474,7.562,220,8,9.21,DNEN 132200Z 22008KT 9999 SCT010 26/22 Q1015 NOSIG,2024-08-13T22:00:00Z,26,22,6+,29.97
DNAA,9.007,7.263,40,2,2.3,DNAA 132200Z 04002KT 9999 BKN009 26/23 Q1015 NOSIG,2024-08-13T22:00:00Z,26,23,6+,29.97
DIYO,6.903,-5.366,190,4,4.6,DIYO 132200Z 19004KT 9999 BKN010 23/22 Q1015 NOSIG,2024-08-13T22:00:00Z,23,22,6+,29.97
DIBK,7.739,-5.074,200,12,13.81,DIBK 132200Z 20012KT 6000 RA SCT010 22/22 Q1015 NOSIG,2024-08-13T22:00:00Z,22,22,3.73,29.97
DGAA,5.6,-0.17,210,12,13.81,DGAA 132200Z 21012KT 8000 -RA BKN005 OVC022 24/23 Q1015 NOSIG,2024-08-13T22:00:00Z,24,23,4.97,29.97
DFOO,11.163,-4.322,220,4,4.6,DFOO 132200Z 22004KT 9999 SCT010 23/23 Q1013,2024-08-13T22:00:00Z,23,23,6+,29.91
DFFD,12.356,-1.512,220,4,4.6,DFFD 132200Z 22004KT 9999 FEW016 26/24 Q1012 NOSIG,2024-08-13T22:00:00Z,26,24,6+,29.88
DBBB,6.357,2.384,210,11,12.66,DBBB 132200Z 21011KT 9999 SCT010 26/24 Q1014 NOSIG,2024-08-13T22:00:00Z,26,24,6+,29.94
DAUZ,28.052,9.643,30,8,9.21,DAUZ 132200Z 03008KT CAVOK 31/02 Q1012,2024-08-13T22:00:00Z,31,2,6+,29.88
DAUU,31.917,5.413,260,4,4.6,DAUU 132200Z 26004KT 8000 NSC 35/01 Q1007,2024-08-13T22:00:00Z,35,1,4.97,29.73
DAUT,29.237,0.276,80,4,4.6,DAUT 132200Z 08004KT CAVOK 36/02 Q1008,2024-08-13T22:00:00Z,36,2,6+,29.76
DAUO,33.513,6.782,100,10,11.51,DAUO 132200Z 10010KT 060V130 7000 NSC 36/15 Q1006,2024-08-13T22:00:00Z,36,15,4.35,29.70
DAUL,33.764,2.928,340,6,6.9,DAUL 132200Z 34006KT 5000 FEW030 BKN033 34/05 Q1013,2024-08-13T22:00:00Z,34,5,3.11,29.91
DAUK,33.068,6.089,40,3,3.45,DAUK 132200Z 04003KT 8000 NSC 33/11 Q1006,2024-08-13T22:00:00Z,33,11,4.97,29.70
DAUI,27.251,2.512,60,13,14.96,DAUI 132200Z 06013KT CAVOK 36/M00 Q1007,2024-08-13T22:00:00Z,36,0,6+,29.73
DAUH,31.673,6.14,190,2,2.3,DAUH 132200Z 19002KT 6000 NSC 36/05 Q1007,2024-08-13T22:00:00Z,36,5,3.73,29.73
DAUG,32.384,3.794,0,0,0.0,DAUG 132200Z 00000KT CAVOK 35/02 Q1011,2024-08-13T22:00:00Z,35,2,6+,29.85
DAUE,30.571,2.86,VRB,2,2.3,DAUE 132200Z VRB02KT 6000 NSC 37/06 Q1010,2024-08-13T22:00:00Z,37,6,3.73,29.82
DAUB,34.793,5.738,100,5,5.75,DAUB 132200Z 10005KT 8000 FEW040 35/08 Q1007,2024-08-13T22:00:00Z,35,8,4.97,29.73
DAUA,27.839,-0.186,30,5,5.75,DAUA 132200Z 03005KT CAVOK 37/02 Q1007,2024-08-13T22:00:00Z,37,2,6+,29.73
DAOY,33.721,1.091,30,9,10.36,DAOY 132200Z 03009KT 8000 FEW026CB SCT030 25/07 Q1019,2024-08-13T22:00:00Z,25,7,4.97,30.09
DAOV,35.208,0.147,270,5,5.75,DAOV 132200Z 27005KT 9999 FEW033 SCT233 26/06 Q1014,2024-08-13T22:00:00Z,26,6,6+,29.94
DAOR,31.65,-2.261,20,11,12.66,DAOR 132200Z 02011KT 8000 FEW030CB SCT033 37/// Q1013,2024-08-13T22:00:00Z,,,4.97,29.91
DAOL,35.542,-0.532,240,10,11.51,DAOL 132200Z 24010KT 9999 FEW026 SCT200 27/17 Q1011,2024-08-13T22:00:00Z,27,17,6+,29.85
DAOI,36.213,1.332,240,4,4.6,DAOI 132200Z 24004KT CAVOK 28/09 Q1012,2024-08-13T22:00:00Z,28,9,6+,29.88
DAOF,27.7,-8.167,320,10,11.51,DAOF 132200Z 32010KT 7000 FEW046 38/02 Q1010,2024-08-13T22:00:00Z,38,2,4.35,29.82
DAOB,35.345,1.476,190,2,2.3,DAOB 132200Z 19002KT CAVOK 24/07 Q1017,2024-08-13T22:00:00Z,24,7,6+,30.03
DABT,35.752,6.309,160,11,12.66,DABT 132200Z 16011KT 9999 FEW026 25/10 Q1016,2024-08-13T22:00:00Z,25,10,6+,30.00
DABS,35.432,8.121,260,3,3.45,DABS 132200Z 26003KT 8000 SCT033 25/12 Q1016,2024-08-13T22:00:00Z,25,12,4.97,30.00
DABB,36.822,7.809,220,3,3.45,DABB 132200Z 22003KT 8000 FEW020 SCT033 27/25 Q1009,2024-08-13T22:00:00Z,27,25,4.97,29.79
DAAY,33.532,-0.248,20,8,9.21,DAAY 132200Z 02008KT 6000 FEW030 SCT033 28/06 Q1019,2024-08-13T22:00:00Z,28,6,3.73,30.09
DAAV,36.795,5.877,0,0,0.0,DAAV 132200Z 00000KT 8000 NSC 25/22 Q1009,2024-08-13T22:00:00Z,25,22,4.97,29.79
DAAS,36.18,5.33,50,4,4.6,DAAS 132200Z 05004KT 9999 FEW030 27/14 Q1016,2024-08-13T22:00:00Z,27,14,6+,30.00
DAAP,26.724,8.622,80,4,4.6,DAAP 132200Z 08004KT CAVOK 33/M00 Q1011,2024-08-13T22:00:00Z,33,0,6+,29.85
DAAJ,24.286,9.464,90,10,11.51,DAAJ 132200Z 09010KT CAVOK 31/01 Q1014,2024-08-13T22:00:00Z,31,1,6+,29.94
DAAE,36.712,5.07,180,3,3.45,DAAE 132200Z 18003KT 8000 SCT016 27/24 Q1010,2024-08-13T22:00:00Z,27,24,4.97,29.82
CZZJ,53.583,-116.462,250,4,4.6,CZZJ 132200Z AUTO 25004KT 26/10 RMK AO1 SLP094 T02620096 58004,2024-08-13T22:00:00Z,26.2,9.6,,
CZVL,53.67,-113.863,260,5,5.75,CZVL 132200Z AUTO 26005KT 230V350 9SM CLR 26/10 A2978 RMK SLP083 DENSITY ALT 4300FT,2024-08-13T22:00:00Z,26,10,9,29.78
CZUM,53.562,-64.107,330,7,8.06,CZUM 132200Z AUTO 33007KT 9SM CLR 18/04 A2987 RMK SLP127 DENSITY ALT 2200FT,2024-08-13T22:00:00Z,18,4,9,29.87
CZTB,48.369,-89.327,200,8,9.21,CZTB 132200Z AUTO 20008KT 28/16 RMK AO1 SLP183 T02780160 56007,2024-08-13T22:00:00Z,27.8,16,,
CZST,55.935,-129.984,190,5,5.75,CZST 132200Z 19005KT 150V240 15SM SCT055 SCT075 BKN220 BKN240 18/13 A2995 RMK CU3AC1CI2CC1 CC TR SLP145 DENSITY ALT 400FT,2024-08-13T22:00:00Z,18,13,15,29.95
CZSP,46.45,-62.576,330,5,5.75,CZSP 132200Z AUTO 33005KT 20/17 RMK AO1 SLP092 T02020169 53017,2024-08-13T22:00:00Z,20.2,16.9,,
CZSM,60.026,-111.929,330,5,5.75,CZSM 132200Z AUTO 33005KT 24/16 RMK AO1 SLP077 T02380158 53001,2024-08-13T22:00:00Z,23.8,15.8,,
CZSJ,53.063,-93.344,190,3,3.45,CZSJ 132200Z AUTO 19003KT 150V250 9SM BKN076 28/12 A3002 RMK SLP169 DENSITY ALT 2500FT,2024-08-13T22:00:00Z,28,12,9,30.02
CZRP,75.377,-105.715,280,23,26.47,CZRP 132200Z AUTO 28023G28KT 02/M01 RMK AO1 PK WND 28030/2124 SLP995 T00171009 52013,2024-08-13T22:00:00Z,1.7,-0.9,,
CZPC,49.522,-114.005,260,14,16.11,CZPC 132200Z AUTO 26014G20KT 220V280 9SM FEW086 27/06 A2988 RMK SLP098 DENSITY ALT 6200FT,2024-08-13T22:00:00Z,27,6,9,29.88
CZOL,53.642,-113.364,330,2,2.3,CZOL 132200Z AUTO 33002KT 27/11 RMK AO1 T02660106,2024-08-13T22:00:00Z,26.6,10.6,,
CZMU,53.563,-112.296,320,5,5.75,CZMU 132200Z AUTO 32005KT 26/14 RMK AO1 T02580140,2024-08-13T22:00:00Z,25.8,14,,
CZMT,54.023,-132.12,330,16,18.41,CZMT 132200Z 33016G21KT 10SM SCT032 SCT230 18/10 A3007 RMK SC4CC1 CC TR SLP185,2024-08-13T22:00:00Z,18,10,10+,30.07
CZMJ,50.332,-105.538,170,7,8.06,CZMJ 132200Z AUTO 17007G15KT 32/08 RMK AO1 PK WND 16018/2144 SLP094 T03200080 58013,2024-08-13T22:00:00Z,32,8,,
CZMD,53.439,-91.766,200,7,8.06,CZMD 132200Z AUTO 20007KT 180V250 6SM HZ SCT066 28/14 A3000 RMK SLP164 DENSITY ALT 2600FT,2024-08-13T22:00:00Z,28,14,6,30.00
CZKD,56.037,-96.51,230,4,4.6,CZKD 132200Z AUTO 23004KT 29/12 RMK AO1 SLP135 T02850119 56007,2024-08-13T22:00:00Z,28.5,11.9,,
CZHY,60.839,-115.781,10,7,8.06,CZHY 132200Z AUTO 01007KT 17/13 RMK AO1 SLP116 T01660131 50002,2024-08-13T22:00:00Z,16.6,13.1,,
CZFS,61.76,-121.23,300,9,10.36,CZFS 132200Z AUTO 30009KT 20/09 RMK AO1 SLP139 T02020089 57003,2024-08-13T22:00:00Z,20.2,8.9,,
CZFN,64.908,-125.563,VRB,3,3.45,CZFN 132200Z VRB03KT 15SM FEW034 BKN110 BKN220 20/09 A2997 RMK CU2AC3CI1 CI TR SLP156 DENSITY ALT 1000FT,2024-08-13T22:00:00Z,20,9,15,29.97
CZFM,67.41,-134.871,250,7,8.06,CZFM 132200Z 25007G16KT 210V300 35SM FEW020 FEW240 20/05 A2993 RMK CU2CS1 CS TR SLP139 DENSITY ALT 700FT,2024-08-13T22:00:00Z,20,5,35,29.93
CZEV,68.313,-133.496,220,5,5.75,CZEV 132200Z AUTO 22005KT 18/09 RMK AO1 SLP143 T01800092 58006,2024-08-13T22:00:00Z,18,9.2,,
CZEL,43.642,-80.412,320,5,5.75,CZEL 132200Z AUTO 32005KT 24/13 RMK AO1 SLP194 T02390128 56007,2024-08-13T22:00:00Z,23.9,12.8,,
CZDB,45.422,-63.466,250,5,5.75,CZDB 132200Z AUTO 25005KT 21/18 RMK AO1 3015 SLP090 T02100180 50005,2024-08-13T22:00:00Z,21,18,,
CZCR,47.99,-66.334,110,8,9.21,CZCR 132200Z AUTO 11008KT 20/15 RMK AO1 SLP098 T02030154 53025,2024-08-13T22:00:00Z,20.3,15.4,,
CYZW,60.175,-132.734,120,4,4.6,CYZW 132200Z 12004KT 090V180 30SM BKN059 BKN072 17/05 A2987 RMK SC5AC2 SLP131 DENSITY ALT 3100FT,2024-08-13T22:00:00Z,17,5,30,29.87
CYZV,50.217,-66.26,90,8,9.21,CYZV 132200Z 09008G15KT 30SM FEW020 BKN035 15/10 A2991 RMK SC1SC6 SC TR SLP132,2024-08-13T22:00:00Z,15,10,30,29.91
CYZU,54.142,-115.785,250,10,11.51,CYZU 132200Z 25010G16KT 200V330 10SM FEW044CB BKN240 25/12 A2979 RMK CB2CI3 SLP089 DENSITY ALT 4500FT,2024-08-13T22:00:00Z,25,12,10+,29.79
CYZT,50.685,-127.369,VRB,2,2.3,CYZT 132200Z VRB02KT 15SM FEW005 BKN042 BKN070 17/13 A3005 RMK SF1SC6AC1 SF TR FG BANK DIST N SLP179,2024-08-13T22:00:00Z,17,13,15,30.05
CYZS,64.188,-83.351,120,11,12.66,CYZS 132200Z 12011KT 15SM BKN020 19/15 A2960 RMK SC7 SLP028 DENSITY ALT 1100FT,2024-08-13T22:00:00Z,19,15,15,29.60
CYZP,53.254,-131.814,60,7,8.06,CYZP 132200Z AUTO 06007KT 9SM CLR 20/11 A3006 RMK SLP180 DENSITY ALT 500FT,2024-08-13T22:00:00Z,20,11,9,30.06
CYZH,55.293,-114.773,290,4,4.6,CYZH 132200Z AUTO 29004KT 9SM CLR 23/16 A2976 RMK SLP082 DENSITY ALT 3500FT,2024-08-13T22:00:00Z,23,16,9,29.76
CYZF,62.475,-114.448,20,12,13.81,CYZF 132200Z 02012G20KT 10SM FEW030 FEW160 BKN200 20/09 A2988 RMK SC1AC1CI6 AC TR FU SLP125 DENSITY ALT 1500FT,2024-08-13T22:00:00Z,20,9,10+,29.88
CYZE,45.885,-82.57,250,7,8.06,CYZE 132200Z AUTO 25007KT 9SM CLR 26/15 A3008 RMK SLP190 DENSITY ALT 1900FT,2024-08-13T22:00:00Z,26,15,9,30.08
CYYZ,43.679,-79.629,340,8,9.21,CYYZ 132200Z 34008KT 270V010 15SM FEW060 BKN250 26/14 A3007 RMK CF1CI7 CF TR SLP184 DENSITY ALT 1800FT,2024-08-13T22:00:00Z,26,14,15,30.07
CYYU,49.416,-82.47,320,5,5.75,CYYU 132200Z 32005KT 12SM -TSRA FEW053CB BKN100 OVC110 21/18 A3004 RMK CB1AC5AC2 CB N-NE MOV SE OCNL THUNDER N SLP178 DENSITY ALT 1500FT,2024-08-13T22:00:00Z,21,18,12,30.04
CYYT,47.627,-52.748,70,15,17.26,CYYT 132200Z 07015KT 15SM OVC010 13/11 A2980 RMK SC8 SLP094,2024-08-13T22:00:00Z,13,11,15,29.80
CYYR,53.32,-60.417,120,8,9.21,CYYR 132200Z 12008KT 15SM FEW250 17/00 A2988 RMK CI1 DENSITY ALT 525FT SLP120,2024-08-13T22:00:00Z,17,0,15,29.88
CYYQ,58.745,-94.074,170,4,4.6,CYYQ 132200Z 17004KT 2SM FU OVC028 26/19 A2980 RMK FU7SC1 VIS VRB 1-3 SLP095 DENSITY ALT 1500FT,2024-08-13T22:00:00Z,26,19,2,29.80
CYYL,56.863,-101.073,210,9,10.36,CYYL 132200Z AUTO 21009KT 180V280 8SM CLR 30/09 A2986 RMK SLP118 DENSITY ALT 3200FT,2024-08-13T22:00:00Z,30,9,8,29.86
CYYJ,48.642,-123.433,90,5,5.75,CYYJ 132200Z 09005KT 30SM BKN030 BKN051 BKN070 18/13 A3003 RMK SC6SC1AC1 AC TR SLP170 DENSITY ALT 300FT,2024-08-13T22:00:00Z,18,13,30,30.03
CYYH,69.543,-93.568,330,21,24.17,CYYH 132200Z 33021KT 15SM FEW012 FEW040 FEW230 09/02 A2982 RMK CF1SC1CS1 CF TR SC TR CS TR SLP103,2024-08-13T22:00:00Z,9,2,15,29.82
CYYG,46.289,-63.128,340,6,6.9,CYYG 132200Z 34006KT 15SM FEW025TCU FEW080 SCT250 21/17 A2980 RMK TCU1AC1CI3 TCU TR AC TR TCU DIST E-S SLP093 DENSITY ALT 1100FT,2024-08-13T22:00:00Z,21,17,15,29.80
CYYF,49.46,-119.606,260,9,10.36,CYYF 132200Z 26009G16KT 15SM BKN080CB BKN240 29/09 A2981 RMK CB5CI1 CI TR SLP091 DENSITY ALT 3100FT,2024-08-13T22:00:00Z,29,9,15,29.81
CYYE,58.839,-122.59,320,5,5.75,CYYE 132200Z 32005KT 3SM BR OVC009 13/11 A2994 RMK ST8 SLP150,2024-08-13T22:00:00Z,13,11,3,29.94
CYYD,54.823,-127.185,340,10,11.51,CYYD 132200Z 34010G17KT 300V040 25SM FEW060 25/08 A2989 RMK SC1 SLP122 DENSITY ALT 3400FT,2024-08-13T22:00:00Z,25,8,25,29.89
CYYC,51.116,-114.011,VRB,2,2.3,CYYC 132200Z VRB02KT 7SM SCT140 BKN300 25/08 A2986 RMK AC3CI3 SLP106 DENSITY ALT 5700FT,2024-08-13T22:00:00Z,25,8,7,29.86
CYYB,46.365,-79.423,250,5,5.75,CYYB 132200Z 25005KT 20SM FEW050 24/12 A3008 RMK CU1 SLP188 DENSITY ALT 2400FT,2024-08-13T22:00:00Z,24,12,20,30.08
CYXZ,47.974,-84.781,230,6,6.9,CYXZ 132200Z 23006KT 200V280 15SM FEW160 SCT230 20/15 A3011 RMK AC1CI2 SLP203 DENSITY ALT 1600FT,2024-08-13T22:00:00Z,20,15,15,30.11
CYXX,49.027,-122.377,230,9,10.36,CYXX 132200Z 23009KT 20SM FEW027 BKN034 OVC051 20/13 A3003 RMK SC2SC3SC3 SLP171 DENSITY ALT 800FT,2024-08-13T22:00:00Z,20,13,20,30.03
CYXU,43.039,-81.162,360,4,4.6,CYXU 132200Z 36004KT 15SM FEW052 BKN270 25/13 A3011 RMK CU1CI6 SLP196 DENSITY ALT 2100FT,2024-08-13T22:00:00Z,25,13,15,30.11
CYXT,54.471,-128.577,180,13,14.96,CYXT 132200Z 18013G19KT 140V200 20SM SCT060 SCT210 25/10 A2993 RMK CU3CI1 SLP139 DENSITY ALT 2000FT,2024-08-13T22:00:00Z,25,10,20,29.93
CYXR,47.698,-79.852,300,6,6.9,CYXR 132200Z AUTO 30006KT 250V320 9SM CLR 28/12 A3002 RMK SLP170 DENSITY ALT 2400FT,2024-08-13T22:00:00Z,28,12,9,30.02
CYXQ,62.408,-140.866,290,8,9.21,CYXQ 132200Z 29008KT 250V320 25SM BKN060 BKN120 OVC220 13/04 A3001 RMK CU5AC2CI1 /LAST STFD OBS/NXT 141600Z/ SLP182 DENSITY ALT 2400FT,2024-08-13T22:00:00Z,13,4,25,30.01
CYXP,66.144,-65.712,260,7,8.06,CYXP 132200Z 26007KT 15SM OVC042 10/05 A2948 RMK SC8 LAST STFD OBS/NEXT 141100Z SLP987,2024-08-13T22:00:00Z,10,5,15,29.48
CYXN,62.238,-92.597,30,3,3.45,CYXN 132200Z 03003KT 340V080 6SM FU VV055 24/15 A2969 RMK FU8 LAST STFD OB/NXT 141300Z SLP056 DENSITY ALT 1400FT,2024-08-13T22:00:00Z,24,15,6,29.69
CYXL,50.114,-91.905,180,4,4.6,CYXL 132200Z 18004KT 110V270 15SM FEW060 FEW100 27/13 A3009 RMK CU1AC1 SLP194 DENSITY ALT 2800FT,2024-08-13T22:00:00Z,27,13,15,30.09
CYXH,50.018,-110.717,260,10,11.51,CYXH 132200Z 26010G17KT 15SM FEW088 BKN270 30/08 A2979 RMK CU1CI6 SLP079 DENSITY ALT 4800FT,2024-08-13T22:00:00Z,30,8,15,29.79
CYXE,52.172,-106.695,170,10,11.51,CYXE 132200Z 17010G18KT 15SM SCT070 SCT120 BKN300 31/13 A2976 RMK CU3AC1CI3 SLP076 DENSITY ALT 4100FT,2024-08-13T22:00:00Z,31,13,15,29.76
CYXC,49.614,-115.784,40,10,11.51,CYXC 132200Z 04010G16KT 340V050 25SM SCT080CB SCT130 SCT250 26/12 A2988 RMK CB3AC1CI1 CI TR SLP107 DENSITY ALT 5100FT,2024-08-13T22:00:00Z,26,12,25,29.88
CYWL,52.186,-122.066,20,7,8.06,CYWL 132200Z 02007KT 280V050 10SM FEW040 SCT060 BKN085 BKN210 24/09 A2993 RMK FU1CU2AC2CI1 CI TR SLP129 DENSITY ALT 4800FT,2024-08-13T22:00:00Z,24,9,10+,29.93
CYWK,52.927,-66.874,VRB,3,3.45,CYWK 132200Z VRB03KT 15SM FEW050 21/07 A2987 RMK CU2 SLP123 DENSITY ALT 3000FT,2024-08-13T22:00:00Z,21,7,15,29.87
CYWJ,65.209,-123.434,140,8,9.21,CYWJ 132200Z 14008KT 20SM SCT024 17/09 A2999 RMK CU4 SLP167 DENSITY ALT 1000FT,2024-08-13T22:00:00Z,17,9,20,29.99
CYWH,48.423,-123.387,230,6,6.9,CYWH 132200Z 23006KT 15SM OVC032 15/12 A3004 RMK SC8 SLP173,2024-08-13T22:00:00Z,15,12,15,30.04
CYWG,49.916,-97.249,180,8,9.21,CYWG 132200Z 18008KT 15SM FEW060 SCT095 SCT250 27/14 A3002 RMK CU2AC1CI1 SLP168 DENSITY ALT 2200FT,2024-08-13T22:00:00Z,27,14,15,30.02
CYWE,64.192,-114.078,50,10,11.51,CYWE 132200Z AUTO 05010G17KT 020V090 9SM BKN044 17/07 A2996 RMK SLP159 DENSITY ALT 1800FT,2024-08-13T22:00:00Z,17,7,9,29.96
CYWA,45.948,-77.311,290,8,9.21,CYWA 132200Z 29008KT 280V340 15SM FEW055 FEW250 27/14 A3003 RMK CU1CI1 DENSITY ALT 2039FT SLP168,2024-08-13T22:00:00Z,27,14,15,30.03
CYVV,44.745,-81.107,260,5,5.75,CYVV 132200Z 26005KT 220V300 15SM FEW035 FEW120 BKN250 22/14 A3011 RMK CU1AS2CI3 CU TR SLP198 DENSITY ALT 1600FT,2024-08-13T22:00:00Z,22,14,15,30.11
CYVT,55.842,-108.418,170,11,12.66,CYVT 132200Z AUTO 17011G18KT 130V190 9SM FEW096 27/14 A2976 RMK SLP081 DENSITY ALT 3400FT,2024-08-13T22:00:00Z,27,14,9,29.76
CYVR,49.183,-123.168,130,5,5.75,CYVR 132200Z 13005KT 060V140 30SM FEW022 BKN047 BKN110 BKN160 20/14 A3003 RMK CU1SC6AC1AC1 CU TR AC TR SLP171 DENSITY ALT 500FT,2024-08-13T22:00:00Z,20,14,30,30.03
CYVQ,65.278,-126.796,150,5,5.75,CYVQ 132200Z 15005KT 130V210 30SM FEW040TCU SCT100 SCT140 19/08 A2998 RMK TCU2AC1AC1 AC TR SLP158 DENSITY ALT 800FT,2024-08-13T22:00:00Z,19,8,30,29.98
CYVP,58.1,-68.415,280,4,4.6,CYVP 132200Z 28004KT 240V320 6SM FU BKN250 BKN270 22/14 A2975 RMK FU1CC4CI2 SLP077 DENSITY ALT 1300FT,2024-08-13T22:00:00Z,22,14,6,29.75
CYVO,48.056,-77.779,330,8,9.21,CYVO 132200Z 33008G15KT 300V010 15SM FEW055 27/12 A3001 RMK CU2 SLP170 DENSITY ALT 2700FT,2024-08-13T22:00:00Z,27,12,15,30.01
CYVM,67.552,-64.026,VRB,2,2.3,CYVM 132200Z VRB02KT 15SM OVC085 07/04 A2938 RMK AC8 LAST STFD OBS/NXT 141000UTC SLP950,2024-08-13T22:00:00Z,7,4,15,29.38
CYVL,67.021,-126.129,220,9,10.36,CYVL 132200Z AUTO 22009G15KT 9SM CLR 17/09 A2997 RMK SLP162 DENSITY ALT 1300FT,2024-08-13T22:00:00Z,17,9,9,29.97
CYUY,48.209,-78.83,280,4,4.6,CYUY 132200Z 28004KT 15SM FEW065 FEW260 28/13 A3001 RMK CU1CI1 CU TR SLP168 DENSITY ALT 2600FT,2024-08-13T22:00:00Z,28,13,15,30.01
CYUX,68.772,-81.233,330,21,24.17,CYUX 132200Z 33021KT 10SM SCT026 BKN210 13/08 A2957 RMK SC4CC2 SLP017,2024-08-13T22:00:00Z,13,8,10+,29.57
CYUT,66.525,-86.23,350,15,17.26,CYUT 132200Z 35015G21KT 15SM BKN025 13/09 A2972 RMK ST5 LAST STFD OBS/NXT 141200Z SLP068,2024-08-13T22:00:00Z,13,9,15,29.72
CYUL,45.468,-73.742,290,11,12.66,CYUL 132200Z 29011KT 30SM FEW070 FEW090 SCT250 28/13 A2994 RMK AC1AC1CI4 AC TR AC TR SLP141 DENSITY ALT 1600FT,2024-08-13T22:00:00Z,28,13,30,29.94
CYUB,69.434,-133.026,220,15,17.26,CYUB 132200Z 22015G20KT 15SM FEW015 BKN190 16/09 A2988 RMK SC1CS5 SLP122,2024-08-13T22:00:00Z,16,9,15,29.88
CYTZ,43.627,-79.397,260,5,5.75,CYTZ 132200Z AUTO 26005KT 210V340 9SM CLR 23/18 A3006 RMK SLP182 DENSITY ALT 1200FT,2024-08-13T22:00:00Z,23,18,9,30.06
CYTS,48.568,-81.378,280,4,4.6,CYTS 132200Z 28004KT 230V330 15SM SCT070TCU BKN100 BKN250 28/13 A3002 RMK TCU4AC2CI1 SH DIST W-NE SLP172 DENSITY ALT 2600FT,2024-08-13T22:00:00Z,28,13,15,30.02
CYTR,44.115,-77.531,210,6,6.9,CYTR 132200Z 21006KT 170V230 12SM FEW046 25/18 A3003 RMK CU1 DENSITY ALT 1659FT SLP170,2024-08-13T22:00:00Z,25,18,12,30.03
CYTH,55.803,-97.846,260,3,3.45,CYTH 132200Z 26003KT 190V280 15SM FEW064 BKN080 BKN230 28/13 A2990 RMK CU1FU5CI1 SLP132 DENSITY ALT 2500FT,2024-08-13T22:00:00Z,28,13,15,29.90
CYTE,64.23,-76.528,280,5,5.75,CYTE 132200Z AUTO 28005KT 9SM CLR 12/08 A2957 RMK SLP018,2024-08-13T22:00:00Z,12,8,9,29.57
CYSY,71.993,-125.241,200,26,29.92,CYSY 132200Z 20026G32KT 6SM -SHRA BR BKN013 07/07 A2977 RMK SC7 SLP091,2024-08-13T22:00:00Z,7,7,6,29.77
CYSN,43.192,-79.176,310,3,3.45,CYSN 132200Z 31003KT 250V340 15SM BKN200 25/14 A3006 RMK CS7 SLP182 DENSITY ALT 1500FT,2024-08-13T22:00:00Z,25,14,15,30.06
CYSM,60.026,-111.929,330,6,6.9,CYSM 132200Z CCA 33006KT 300V360 1 1/2SM FU BKN110 24/16 A2974 RMK FU6AC1 SLP077 DENSITY ALT 2100FT,2024-08-13T22:00:00Z,24,16,1.5,29.74
CYSK,56.538,-79.242,250,9,10.36,CYSK 132200Z 25009KT 6SM HZ SCT120 16/11 A2987 RMK AS3 LAST STFD OBS/NXT 141200Z SLP119,2024-08-13T22:00:00Z,16,11,6,29.87
CYSJ,45.309,-65.886,300,8,9.21,CYSJ 132200Z 30008KT 10SM VCSH SCT045TCU 25/17 A2980 RMK TCU3 SLP094 DENSITY ALT 1800FT,2024-08-13T22:00:00Z,25,17,10+,29.80
CYSC,45.44,-71.692,300,8,9.21,CYSC 132200Z AUTO 30008KT 9SM FEW250 24/16 A2995 RMK SLP145 DENSITY ALT 2000FT,2024-08-13T22:00:00Z,24,16,9,29.95
CYSB,46.622,-80.799,220,4,4.6,CYSB 132200Z 22004KT 190V260 20SM FEW070 SCT240 27/11 A3007 RMK AC1CI4 AC TR SLP184 DENSITY ALT 2700FT,2024-08-13T22:00:00Z,27,11,20,30.07
CYRT,62.811,-92.1,340,14,16.11,CYRT 132200Z 34014KT 4SM FU VV038 24/17 A2969 RMK FU8 SLP056 DENSITY ALT 1500FT,2024-08-13T22:00:00Z,24,17,4,29.69
CYRQ,46.358,-72.68,350,4,4.6,CYRQ 132200Z AUTO 35004KT 9SM CLR 26/13 A2993 RMK SLP136 DENSITY ALT 1600FT,2024-08-13T22:00:00Z,26,13,9,29.93
CYRL,51.067,-93.799,270,6,6.9,CYRL 132200Z 27006KT 15SM FEW073 FEW091 FEW240 27/11 A3007 RMK CU1AC1CI1 CU TR AC TR CI TR SLP186 DENSITY ALT 2800FT,2024-08-13T22:00:00Z,27,11,15,30.07
CYRJ,48.523,-72.266,310,4,4.6,CYRJ 132200Z 31004KT 290V360 20SM FEW055 BKN220 24/14 A2992 RMK SC1CI6 SC TR SLP135 DENSITY ALT 1800FT,2024-08-13T22:00:00Z,24,14,20,29.92
CYQY,46.166,-60.049,290,4,4.6,CYQY 132200Z 29004KT 260V320 15SM FEW032 BKN100 18/17 A2975 RMK SC2AC3 SLP076 DENSITY ALT 900FT,2024-08-13T22:00:00Z,18,17,15,29.75
CYQX,48.946,-54.576,40,11,12.66,CYQX 132200Z 04011KT 20SM BKN025 OVC075 12/08 A2985 RMK SC7AC1 SLP113,2024-08-13T22:00:00Z,12,8,20,29.85
CYQW,52.769,-108.251,180,9,10.36,CYQW 132200Z AUTO 18009G19KT 130V200 9SM CLR 28/13 A2977 RMK SLP080 DENSITY ALT 3900FT,2024-08-13T22:00:00Z,28,13,9,29.77
CYQV,51.26,-102.461,150,16,18.41,CYQV 132200Z AUTO 15016G23KT 9SM SCT130 26/13 A2992 RMK SLP137 DENSITY ALT 3300FT,2024-08-13T22:00:00Z,26,13,9,29.92
CYQU,55.182,-118.882,320,11,12.66,CYQU 132200Z 32011G19KT 4SM FU SCT050 BKN220 25/12 A2981 RMK FU3CU1CI2 SLP101 DENSITY ALT 4000FT,2024-08-13T22:00:00Z,25,12,4,29.81
CYQT,48.374,-89.33,180,10,11.51,CYQT 132200Z 18010KT 12SM FEW065TCU FEW280 29/16 A3006 RMK TCU1CI1 SLP181 DENSITY ALT 2200FT,2024-08-13T22:00:00Z,29,16,12,30.06
CYQR,50.427,-104.67,150,15,17.26,CYQR 132200Z 15015KT 15SM FEW080 30/15 A2983 RMK CU1 CU TR SLP103 DENSITY ALT 4200FT,2024-08-13T22:00:00Z,30,15,15,29.83
CYQQ,49.712,-124.895,120,7,8.06,CYQQ 132200Z 12007KT 20SM FEW050 SCT080 22/14 A3002 RMK SC1AC3 DENSITY ALT 998FT SLP166,2024-08-13T22:00:00Z,22,14,20,30.02
CYQL,49.627,-112.792,VRB,2,2.3,CYQL 132200Z VRB02KT 30SM FEW090 SCT110 BKN270 28/08 A2982 RMK CU2AC1CI3 SLP087 DENSITY ALT 5300FT,2024-08-13T22:00:00Z,28,8,30,29.82
CYQK,49.791,-94.361,240,9,10.36,CYQK 132200Z 24009KT 20SM SCT060 SCT120 26/12 A3009 RMK CU3AC1 SLP190 DENSITY ALT 2800FT,2024-08-13T22:00:00Z,26,12,20,30.09
CYQI,43.831,-66.088,280,12,13.81,CYQI 132200Z 28012G18KT 15SM FEW250 19/17 A2986 RMK CI1 CI TR SLP113 DENSITY ALT 700FT,2024-08-13T22:00:00Z,19,17,15,29.86
CYQH,60.116,-128.832,140,7,8.06,CYQH 132200Z 14007KT 090V160 5SM FU SCT034 BKN110 20/09 A2982 RMK CU4AC3 CVCTV CLD ASOCTD SLP110 DENSITY ALT 3600FT,2024-08-13T22:00:00Z,20,9,5,29.82
CYQG,42.269,-82.963,180,8,9.21,CYQG 132200Z AUTO 18008KT 9SM CLR 24/17 A3010 RMK SLP195 DENSITY ALT 1700FT,2024-08-13T22:00:00Z,24,17,9,30.10
CYQF,52.179,-113.903,80,3,3.45,CYQF 132200Z AUTO 08003KT 330V100 9SM FEW071 SCT150 25/11 A2984 RMK SLP107 DENSITY ALT 4900FT,2024-08-13T22:00:00Z,25,11,9,29.84
CYQD,53.975,-101.089,120,13,14.96,CYQD 132200Z AUTO 12013G19KT 9SM CLR 27/12 A2991 RMK SLP130 DENSITY ALT 2600FT,2024-08-13T22:00:00Z,27,12,9,29.91
CYQB,46.791,-71.396,280,7,8.06,CYQB 132200Z 28007KT 15SM FEW055 26/15 A2989 RMK SC2 HAZY SLP124 DENSITY ALT 1600FT,2024-08-13T22:00:00Z,26,15,15,29.89
CYQA,44.971,-79.303,280,5,5.75,CYQA 132200Z AUTO 28005KT 240V310 9SM CLR 25/16 A3008 RMK SLP188 DENSITY ALT 2100FT,2024-08-13T22:00:00Z,25,16,9,30.08
CYPY,58.766,-111.117,270,5,5.75,CYPY 132200Z AUTO 27005KT 230V360 9SM CLR 30/16 A2969 RMK SLP059 DENSITY ALT 3000FT,2024-08-13T22:00:00Z,30,16,9,29.69
CYPX,60.045,-77.281,230,11,12.66,CYPX 132200Z AUTO 23011KT 4SM BR CLR 15/13 A2977 RMK SLP084 DENSITY ALT 400FT,2024-08-13T22:00:00Z,15,13,4,29.77
CYPW,49.835,-124.499,VRB,3,3.45,CYPW 132200Z VRB03KT 15SM BKN022 BKN035 BKN100 21/16 A3003 RMK SC5SC1AC1 AC TR VIS N 6 BR SLP171 DENSITY ALT 1100FT,2024-08-13T22:00:00Z,21,16,15,30.03
CYPR,54.291,-130.451,240,4,4.6,CYPR 132200Z AUTO 24004KT 210V280 9SM OVC011 16/14 A3005 RMK SLP177,2024-08-13T22:00:00Z,16,14,9,30.05
CYPQ,44.232,-78.36,300,6,6.9,CYPQ 132200Z AUTO 30006KT 9SM CLR 25/15 A3006 RMK SLP180 DENSITY ALT 1800FT,2024-08-13T22:00:00Z,25,15,9,30.06
CYPO,54.988,-85.439,290,3,3.45,CYPO 132200Z AUTO 29003KT 260V040 9SM CLR 32/13 A2988 RMK SLP117 DENSITY ALT 2300FT,2024-08-13T22:00:00Z,32,13,9,29.88
CYPL,51.449,-90.218,290,5,5.75,CYPL 132200Z AUTO 29005KT 260V320 7SM CLR 28/14 A3004 RMK SLP177 DENSITY ALT 2900FT,2024-08-13T22:00:00Z,28,14,7,30.04
CYPG,49.903,-98.284,180,11,12.66,CYPG 132200Z 18011KT 15SM FEW052 SCT087 BKN250 26/16 A3002 RMK CU1AC3CI2 DENSITY ALT 2570FT MDT CU LAST OBS /NEXT 141100 UTC SLP164,2024-08-13T22:00:00Z,26,16,15,30.02
CYPE,56.228,-117.453,230,8,9.21,CYPE 132200Z AUTO 23008KT 190V250 9SM CLR 26/15 A2975 RMK SLP080 DENSITY ALT 3800FT,2024-08-13T22:00:00Z,26,15,9,29.75
CYPD,45.657,-61.374,0,0,0.0,CYPD 132200Z AUTO 00000KT 9SM CLR 20/15 A2977 RMK SLP084 DENSITY ALT 1300FT,2024-08-13T22:00:00Z,20,15,9,29.77
CYPA,53.217,-105.679,150,13,14.96,CYPA 132200Z 15013G19KT 15SM FEW055 SCT120 BKN270 28/17 A2980 RMK CU1AC4CI3 CU TR SLP094 DENSITY ALT 3400FT,2024-08-13T22:00:00Z,28,17,15,29.80
CYOY,46.9,-71.503,300,6,6.9,CYOY 132200Z 30006KT 240V320 15SM FEW050 SCT210 26/14 A2990 RMK CU1CI4 DENSITY ALT 2170FT SLP127,2024-08-13T22:00:00Z,26,14,15,29.90
CYOW,45.307,-75.66,320,9,10.36,CYOW 132200Z 32009KT 15SM FEW050 SCT240 26/15 A3000 RMK CU2CI1 SLP161 DENSITY ALT 1700FT,2024-08-13T22:00:00Z,26,15,15,30.00
CYOO,43.921,-78.899,340,9,10.36,CYOO 132200Z AUTO 34009KT 9SM CLR 25/14 A3006 RMK SLP182 DENSITY ALT 1600FT,2024-08-13T22:00:00Z,25,14,9,30.06
CYOD,54.41,-110.287,60,6,6.9,CYOD 132200Z 06006KT 15SM FEW060 BKN240 28/15 A2975 RMK CU2CI3 DENSITY ALT 4130FT CB SE MOV NE OCNL DIST LTNG SE SLP073,2024-08-13T22:00:00Z,28,15,15,29.75
CYNM,49.759,-77.793,350,7,8.06,CYNM 132200Z AUTO 35007KT 9SM CLR 28/12 A2996 RMK SLP152 DENSITY ALT 2600FT,2024-08-13T22:00:00Z,28,12,9,29.96
CYNE,53.958,-97.845,210,11,12.66,CYNE 132200Z AUTO 21011G16KT 9SM CLR 26/13 A2997 RMK SLP155 DENSITY ALT 2100FT,2024-08-13T22:00:00Z,26,13,9,29.97
CYND,45.52,-75.563,290,5,5.75,CYND 132200Z 29005KT 280V340 15SM FEW040 FEW280 27/16 A2999 RMK CU1CI1 CU TR SLP158 DENSITY ALT 1600FT,2024-08-13T22:00:00Z,27,16,15,29.99
CYNA,50.19,-61.789,170,4,4.6,CYNA 132200Z AUTO 17004KT 9SM OVC060 13/11 A2990 RMK SLP126,2024-08-13T22:00:00Z,13,11,9,29.90
CYMX,45.68,-74.038,290,4,4.6,CYMX 132200Z 29004KT 250V330 45SM SCT060 SCT080 BKN250 27/16 A2995 RMK CU3AC1CI2 SLP146 DENSITY ALT 1700FT,2024-08-13T22:00:00Z,27,16,45,29.95
CYMT,49.779,-74.527,270,6,6.9,CYMT 132200Z AUTO 27006KT 240V320 9SM CLR 26/11 A2995 RMK SLP146 DENSITY ALT 2800FT,2024-08-13T22:00:00Z,26,11,9,29.95
CYMO,51.292,-80.607,70,9,10.36,CYMO 132200Z AUTO 07009KT 9SM CLR 28/16 A2991 RMK SLP131 DENSITY ALT 1600FT,2024-08-13T22:00:00Z,28,16,9,29.91
CYMJ,50.33,-105.559,140,12,13.81,CYMJ 132200Z 14012KT 15SM FEW085 FEW120 SCT240 32/11 A2980 RMK CU1ACC1CI1 DENSITY ALT 4668FT HZ G20KT PAST HR SLP081,2024-08-13T22:00:00Z,32,11,15,29.80
CYMA,63.616,-135.88,VRB,3,3.45,CYMA 132200Z VRB03KT 20SM BKN055TCU BKN110 19/05 A2986 RMK TCU5AC2 SLP127 DENSITY ALT 2700FT,2024-08-13T22:00:00Z,19,5,20,29.86
CYLL,53.312,-110.074,330,5,5.75,CYLL 132200Z 33005KT 250V010 15SM BKN065TCU BKN270 26/12 A2976 RMK TCU6CI1 SLP078 DENSITY ALT 4200FT,2024-08-13T22:00:00Z,26,12,15,29.76
CYLK,62.419,-110.682,20,12,13.81,CYLK 132200Z 02012KT 20SM BKN021 OVC030 14/11 A2984 RMK SC7SC1 FU CIG RAG SLP114 DENSITY ALT 800FT,2024-08-13T22:00:00Z,14,11,20,29.84
CYLJ,54.126,-108.519,100,7,8.06,CYLJ 132200Z 10007KT 15SM FEW050 FEW100 SCT180 BKN270 26/16 A2975 RMK CU1ACC1AC2CI3 ACC TR DIST NE SLP077 DENSITY ALT 3400FT,2024-08-13T22:00:00Z,26,16,15,29.75
CYLH,52.196,-87.936,0,0,0.0,CYLH 132200Z AUTO 00000KT 9SM CLR 29/15 A2999 RMK SLP159 DENSITY ALT 2600FT,2024-08-13T22:00:00Z,29,15,9,29.99
CYLD,47.818,-83.358,230,5,5.75,CYLD 132200Z 23005KT 210V300 15SM SCT060 BKN240 27/13 A3008 RMK CU4CI1 SLP194 DENSITY ALT 3000FT,2024-08-13T22:00:00Z,27,13,15,30.08
CYKY,51.517,-109.175,300,6,6.9,CYKY 132200Z 30006KT 15SM FEW050 BKN068TCU 28/10 A2977 RMK SC2TCU4 TCU ALQDS SLP077 DENSITY ALT 4500FT,2024-08-13T22:00:00Z,28,10,15,29.77
CYKP,51.659,-85.901,50,3,3.45,CYKP 132200Z AUTO 05003KT 9SM SCT110 BKN140 26/17 A2997 RMK SLP144 DENSITY ALT 2000FT,2024-08-13T22:00:00Z,26,17,9,29.97
CYKL,54.803,-66.804,320,6,6.9,CYKL 132200Z AUTO 32006KT 270V340 9SM FEW240 20/05 A2984 RMK SLP119 DENSITY ALT 2900FT,2024-08-13T22:00:00Z,20,5,9,29.84
CYKF,43.462,-80.386,340,3,3.45,CYKF 132200Z AUTO 34003KT 9SM CLR 25/14 A3010 RMK SLP194 DENSITY ALT 2200FT,2024-08-13T22:00:00Z,25,14,9,30.10
CYKA,50.704,-120.444,0,0,0.0,CYKA 132200Z 00000KT 15SM FEW090TCU 29/12 A2981 RMK TCU1 FU SLP093 DENSITY ALT 3200FT,2024-08-13T22:00:00Z,29,12,15,29.81
CYJF,60.236,-123.47,20,9,10.36,CYJF 132200Z 02009G15KT 12SM FEW034 FEW060 BKN120 17/09 A2994 RMK CU1SC1AC5 FU/LAST STFD OBS/NXT 141400Z SLP145 DENSITY ALT 1200FT,2024-08-13T22:00:00Z,17,9,12,29.94
CYIO,72.694,-77.957,230,15,17.26,CYIO 132200Z 23015KT 30SM BKN031 08/05 A2939 RMK SC7 SLP960,2024-08-13T22:00:00Z,8,5,30,29.39
CYIN,51.265,-121.681,150,3,3.45,CYIN 132200Z AUTO 15003KT 9SM FEW091 23/08 A2994 RMK SLP124 DENSITY ALT 5500FT,2024-08-13T22:00:00Z,23,8,9,29.94
CYHU,45.516,-73.415,350,9,10.36,CYHU 132200Z AUTO 35009KT 9SM FEW081 26/14 A2994 RMK SLP139 DENSITY ALT 1400FT,2024-08-13T22:00:00Z,26,14,9,29.94
CYHM,43.173,-79.936,220,4,4.6,CYHM 132200Z 22004KT 180V250 15SM FEW035 BKN260 25/16 A3009 RMK CU1CI6 SLP190 DENSITY ALT 2000FT,2024-08-13T22:00:00Z,25,16,15,30.09
CYHK,68.633,-95.851,340,15,17.26,CYHK 132200Z 34015G21KT 15SM BKN028 10/04 A2989 RMK SC5 SLP129,2024-08-13T22:00:00Z,10,4,15,29.89
CYHE,49.37,-121.493,280,12,13.81,CYHE 132200Z AUTO 28012G19KT 260V330 9SM CLR 23/14 A2998 RMK SLP155 DENSITY ALT 1100FT,2024-08-13T22:00:00Z,23,14,9,29.98
CYHD,49.83,-92.74,300,4,4.6,CYHD 132200Z AUTO 30004KT 180V320 9SM FEW060 27/13 A3009 RMK SLP194 DENSITY ALT 2900FT,2024-08-13T22:00:00Z,27,13,9,30.09
CYGW,55.283,-77.76,260,7,8.06,CYGW 132200Z AUTO 26007KT 9SM CLR 14/11 A2989 RMK SLP123,2024-08-13T22:00:00Z,14,11,9,29.89
CYGV,50.286,-63.606,150,9,10.36,CYGV 132200Z AUTO 15009KT 9SM OVC016 13/12 A2990 RMK SLP129,2024-08-13T22:00:00Z,13,12,9,29.90
CYGP,48.777,-64.478,70,7,8.06,CYGP 132200Z 07007KT 15SM FEW009 OVC012 16/14 A2986 RMK ST2SC6 SLP116,2024-08-13T22:00:00Z,16,14,15,29.86
CYGL,53.625,-77.7,290,9,10.36,CYGL 132200Z 29009KT 10SM FEW067 OVC085 25/13 A2990 RMK AC1FU7 SLP132 DENSITY ALT 2000FT,2024-08-13T22:00:00Z,25,13,10+,29.90
CYGK,44.223,-76.599,190,8,9.21,CYGK 132200Z 19008KT 12SM FEW056 FEW250 24/20 A3003 RMK SC1CI1 SLP171 DENSITY ALT 1400FT,2024-08-13T22:00:00Z,24,20,12,30.03
CYGH,66.242,-128.644,220,7,8.06,CYGH 132200Z 22007KT 170V260 25SM FEW034 FEW110 19/09 A2998 RMK SC2AC1 AC TR SLP156 DENSITY ALT 800FT,2024-08-13T22:00:00Z,19,9,25,29.98
CYGE,51.3,-116.984,VRB,2,2.3,CYGE 132200Z VRB02KT 20SM FEW090 SCT150 BKN200 21/14 A2993 RMK AC2AC2CS2 VIS S LWR FU LENT NE SLP137 DENSITY ALT 3900FT,2024-08-13T22:00:00Z,21,14,20,29.93
CYFR,61.178,-113.688,10,9,10.36,CYFR 132200Z 01009G16KT 15SM SCT160 OVC230 17/11 A2982 RMK AC3CS5 FU PRSNT LAST STFD OBS/NXT141400Z SLP105 DENSITY ALT 1100FT,2024-08-13T22:00:00Z,17,11,15,29.82
CYFO,54.678,-101.68,170,8,9.21,CYFO 132200Z 17008KT 12SM FEW120 BKN250 27/13 A2990 RMK ACC1CI7 ACC TR HZ SLP129 DENSITY ALT 2600FT,2024-08-13T22:00:00Z,27,13,12,29.90
CYFC,45.873,-66.539,320,5,5.75,CYFC 132200Z AUTO 32005KT 9SM CLR 25/16 A2980 RMK SLP094 DENSITY ALT 1400FT,2024-08-13T22:00:00Z,25,16,9,29.80
CYFB,63.75,-68.544,160,2,2.3,CYFB 132200Z 16002KT 30SM FEW160 OVC220 09/03 A2957 RMK AS2CS6 SLP018,2024-08-13T22:00:00Z,9,3,30,29.57
CYEV,68.309,-133.5,220,8,9.21,CYEV 132200Z 22008KT 180V260 15SM FEW035 BKN260 17/08 A2993 RMK SC1CI6 SLP140 DENSITY ALT 600FT,2024-08-13T22:00:00Z,17,8,15,29.93
CYER,56.019,-87.675,40,6,6.9,CYER 132200Z AUTO 04006KT 9SM FEW250 26/18 A2988 RMK SLP121 DENSITY ALT 1500FT,2024-08-13T22:00:00Z,26,18,9,29.88
CYEN,49.207,-102.963,120,10,11.51,CYEN 132200Z AUTO 12010G19KT 9SM CLR 28/17 A2989 RMK SLP124 DENSITY ALT 3900FT,2024-08-13T22:00:00Z,28,17,9,29.89
CYEK,61.098,-94.072,240,10,11.51,CYEK 132200Z 24010KT 15SM BKN140 OVC250 30/17 A2970 RMK AC6CS2 LAST STFD OBS/NXT 141200Z SLP061 DENSITY ALT 2000FT,2024-08-13T22:00:00Z,30,17,15,29.70
CYEG,53.308,-113.592,260,3,3.45,CYEG 132200Z 26003KT 200V340 20SM FEW060 FEW240 26/11 A2979 RMK CU1CI1 SLP089 DENSITY ALT 4400FT,2024-08-13T22:00:00Z,26,11,20,29.79
CYDQ,55.741,-120.188,320,11,12.66,CYDQ 132200Z AUTO 32011KT 3SM HZ FEW027 19/13 A2987 RMK SLP125 DENSITY ALT 3200FT,2024-08-13T22:00:00Z,19,13,3,29.87
CYDP,56.549,-61.684,VRB,2,2.3,CYDP 132200Z VRB02KT 15SM FEW230 11/07 A2978 RMK CS2 SLP088,2024-08-13T22:00:00Z,11,7,15,29.78
CYDN,51.1,-100.057,190,10,11.51,CYDN 132200Z AUTO 19010G15KT 9SM CLR 28/15 A2995 RMK ICE MISG SLP145 DENSITY ALT 2700FT,2024-08-13T22:00:00Z,28,15,9,29.95
CYDL,58.426,-130.025,240,6,6.9,CYDL 132200Z AUTO 24006KT 150V310 9SM CLR 19/07 A2989 RMK SLP122 DENSITY ALT 3800FT,2024-08-13T22:00:00Z,19,7,9,29.89
CYDC,49.468,-120.514,170,6,6.9,CYDC 132200Z 17006KT 140V280 25SM FEW054 FEW072 FEW094 27/12 A2989 RMK CF1AC1AS1 AC TR SLP108 DENSITY ALT 4300FT,2024-08-13T22:00:00Z,27,12,25,29.89
CYDA,64.044,-139.127,240,5,5.75,CYDA 132200Z 24005KT 210V290 20SM BKN062 BKN080 BKN230 17/05 A2994 RMK SC5AS1CI1 SLP151 DENSITY ALT 1800FT,2024-08-13T22:00:00Z,17,5,20,29.94
CYCY,70.484,-68.515,50,2,2.3,CYCY 132200Z AUTO 05002KT 9SM OVC050 11/08 A2935 RMK SLP942 DENSITY ALT 300FT,2024-08-13T22:00:00Z,11,8,9,29.35
CYCS,63.345,-90.727,310,14,16.11,CYCS 132200Z 31014KT 5SM FU SKC 23/16 A2967 RMK LAST STFD OBS/NEXT 141200 SLP050 DENSITY ALT 1300FT,2024-08-13T22:00:00Z,23,16,5,29.67
CYCP,52.129,-119.29,VRB,3,3.45,CYCP 132200Z VRB03KT 15SM SCT120TCU BKN140 25/13 A2987 RMK TCU4AC2 HZ ALQDS SLP115 DENSITY ALT 4000FT,2024-08-13T22:00:00Z,25,13,15,29.87
CYCO,67.817,-115.135,90,9,10.36,CYCO 132200Z 09009KT 15SM FEW024 14/08 A3000 RMK CU1 SLP163,2024-08-13T22:00:00Z,14,8,15,30.00
CYCK,42.307,-82.085,190,8,9.21,CYCK 132200Z AUTO 19008KT 9SM CLR 24/18 A3010 RMK SLP195 DENSITY ALT 1700FT,2024-08-13T22:00:00Z,24,18,9,30.10
CYCD,49.052,-123.874,50,5,5.75,CYCD 132200Z 05005KT 040V120 20SM OVC025 21/15 A3002 RMK SC8 SLP168 DENSITY ALT 800FT,2024-08-13T22:00:00Z,21,15,20,30.02
CYCB,69.106,-105.116,250,10,11.51,CYCB 132200Z 25010KT 15SM FEW025 BKN047 12/07 A2992 RMK CU1SC5 SLP136,2024-08-13T22:00:00Z,12,7,15,29.92
CYCA,53.683,-57.042,60,5,5.75,CYCA 132200Z AUTO 06005KT 9SM CLR 10/04 A2991 RMK SLP132,2024-08-13T22:00:00Z,10,4,9,29.91
CYBX,51.442,-57.188,90,11,12.66,CYBX 132200Z 09011KT 15SM FEW030 FEW250 12/06 A2991 RMK SC1CI1 SC TR SLP133,2024-08-13T22:00:00Z,12,6,15,29.91
CYBW,51.108,-114.382,80,6,6.9,CYBW 132200Z AUTO 08006KT 9SM FEW120 OVC150 23/10 A2989 RMK LTNG DIST S SW SLP120 DENSITY ALT 5800FT,2024-08-13T22:00:00Z,23,10,9,29.89
CYBU,53.333,-104.005,140,15,17.26,CYBU 132200Z AUTO 14015G22KT 9SM CLR 28/12 A2985 RMK SLP114 DENSITY ALT 3100FT,2024-08-13T22:00:00Z,28,12,9,29.85
CYBL,49.951,-125.269,110,5,5.75,CYBL 132200Z 11005KT 20SM SCT030 BKN060 BKN100 20/13 A3002 RMK SC4SC1AC2 SLP169 DENSITY ALT 1000FT,2024-08-13T22:00:00Z,20,13,20,30.02
CYBG,48.331,-70.989,270,9,10.36,CYBG 132200Z 27009KT 15SM FEW050 BKN230 23/14 A2990 RMK CU1CS4 DENSITY ALT 1844FT HAZY SLP127,2024-08-13T22:00:00Z,23,14,15,29.90
CYBD,52.388,-126.589,250,15,17.26,CYBD 132200Z 25015G24KT 15SM SCT180 23/13 A2996 RMK AC3 SLP146 DENSITY ALT 1100FT,2024-08-13T22:00:00Z,23,13,15,29.96
CYBC,49.135,-68.202,110,8,9.21,CYBC 132200Z AUTO 11008KT 9SM FEW004 14/13 A2986 RMK SLP116,2024-08-13T22:00:00Z,14,13,9,29.86
CYBB,68.536,-89.792,250,6,6.9,CYBB 132200Z 25006KT 15SM SCT130 BKN190 10/06 A2978 RMK AC4CC2 SLP089,2024-08-13T22:00:00Z,10,6,15,29.78
CYAZ,49.08,-125.767,190,6,6.9,CYAZ 132200Z 19006KT 15SM OVC016 16/14 A3006 RMK SC8 SLP183,2024-08-13T22:00:00Z,16,14,15,30.06
CYAY,51.39,-56.081,120,11,12.66,CYAY 132200Z AUTO 12011KT 9SM SCT029 10/05 A2993 RMK SLP137,2024-08-13T22:00:00Z,10,5,9,29.93
CYAW,44.636,-63.507,60,10,11.51,CYAW 132200Z 06010G18KT 15SM VCSH SCT040TCU BKN055 BKN250 21/17 A2980 RMK TCU3CU2CI2 DENSITY ALT 1311FT VIS LWR SE QUAD SLP091,2024-08-13T22:00:00Z,21,17,15,29.80
CYAT,52.927,-82.432,80,4,4.6,CYAT 132200Z AUTO 08004KT 9SM CLR 28/17 A2990 RMK SLP127 DENSITY ALT 1600FT,2024-08-13T22:00:00Z,28,17,9,29.90
CYAM,46.484,-84.504,280,5,5.75,CYAM 132200Z 28005KT 20SM FEW050 FEW250 SCT280 26/13 A3009 RMK CU1CI1CI2 CU TR CONTRAILS SLP194 DENSITY ALT 1900FT,2024-08-13T22:00:00Z,26,13,20,30.09
CYAH,53.757,-73.676,260,6,6.9,CYAH 132200Z AUTO 26006KT 9SM CLR 23/11 A2987 RMK SLP124 DENSITY ALT 2300FT,2024-08-13T22:00:00Z,23,11,9,29.87
CXZV,50.217,-66.26,90,5,5.75,CXZV 132200Z AUTO 09005KT 14/10 RMK AO1 PK WND 08017/2123 SLP128 T01440101 53014,2024-08-13T22:00:00Z,14.4,10.1,,
CXZC,51.292,-80.618,30,3,3.45,CXZC 132200Z AUTO 03003KT 29/17 RMK AO1 SLP135 T02900166 55002,2024-08-13T22:00:00Z,29,16.6,,
CXWN,49.889,-97.13,0,0,0.0,CXWN 132200Z AUTO 00000KT 27/12 RMK AO1 SLP167 T02710115 58011,2024-08-13T22:00:00Z,27.1,11.5,,
CXWB,65.879,-89.446,350,13,14.96,CXWB 132200Z AUTO 35013KT 20/10 RMK AO1 PK WND 35017/2159 SLP065 T02010096 53024,2024-08-13T22:00:00Z,20.1,9.6,,
CXVN,43.183,-79.4,110,1,1.15,CXVN 132200Z AUTO 11001KT 25/14 RMK AO1 SLP186 T02540135 56009,2024-08-13T22:00:00Z,25.4,13.5,,
CXVM,53.344,-110.882,250,2,2.3,CXVM 132200Z AUTO 25002KT 27/13 RMK AO1 T02700129,2024-08-13T22:00:00Z,27,12.9,,
CXTV,68.746,-133.502,220,9,10.36,CXTV 132200Z AUTO 22009KT 17/09 RMK AO1 SLP133 T01730088 58009,2024-08-13T22:00:00Z,17.3,8.8,,
CXTP,48.557,-53.975,50,4,4.6,CXTP 132200Z AUTO 05004KT 12/10 RMK AO1 SLP110 T01240101 53005,2024-08-13T22:00:00Z,12.4,10.1,,
CXTO,43.667,-79.4,,,,CXTO 132200Z AUTO 24/16 RMK AO1 SLP184 T02390156 56007,2024-08-13T22:00:00Z,23.9,15.6,,
CXTN,69.199,-122.359,260,11,12.66,CXTN 132200Z AUTO 26011KT 12/03 RMK AO1 PK WND 27017/2138 SLP173 T01160032 50002,2024-08-13T22:00:00Z,11.6,3.2,,
CXTH,53.625,-111.678,260,6,6.9,CXTH 132200Z AUTO 26006KT 24/14 RMK AO1 T02430137,2024-08-13T22:00:00Z,24.3,13.7,,
CXTD,45.608,-61.68,340,5,5.75,CXTD 132200Z AUTO 34005KT 21/16 RMK AO1 T02140161,2024-08-13T22:00:00Z,21.4,16.1,,
CXSH,46.564,-72.733,340,5,5.75,CXSH 132200Z AUTO 34005KT 26/13 RMK AO1 SLP137 T02560126 53001,2024-08-13T22:00:00Z,25.6,12.6,,
CXSE,73.766,-105.296,280,27,31.07,CXSE 132200Z AUTO 28027G33KT 02/01 RMK AO1 PK WND 27035/2138 SLP043 T00190005 51013,2024-08-13T22:00:00Z,1.9,0.5,,
CXRL,54.503,-111.691,320,3,3.45,CXRL 132200Z AUTO 32003KT 26/13 RMK AO1 T02560132,2024-08-13T22:00:00Z,25.6,13.2,,
CXRH,49.57,-57.878,120,5,5.75,CXRH 132200Z AUTO 12005KT 13/08 RMK AO1 SLP110 T01330081 51016,2024-08-13T22:00:00Z,13.3,8.1,,
CXRB,74.716,-94.983,280,22,25.32,CXRB 132200Z AUTO 28022G27KT M00/01 RMK AO1 PK WND 28027/2110 SLP984 T10030005 52009,2024-08-13T22:00:00Z,-0.3,0.5,,
CXPC,45.344,-80.044,,,,CXPC 132200Z AUTO 23/14 RMK AO1 SLP192 T02330144 56001,2024-08-13T22:00:00Z,23.3,14.4,,
CXOX,55.146,-105.27,130,9,10.36,CXOX 132200Z AUTO 13009KT 23/14 RMK AO1 PK WND 14019/2122 SLP110 T02250139 56005,2024-08-13T22:00:00Z,22.5,13.9,,
CXNP,45.76,-64.241,230,2,2.3,CXNP 132200Z AUTO 23002KT 21/17 RMK AO1 SLP098 T02080169 53019,2024-08-13T22:00:00Z,20.8,16.9,,
CXNM,46.818,-60.673,310,5,5.75,CXNM 132200Z AUTO 31005KT 18/14 RMK AO1 T01790144,2024-08-13T22:00:00Z,17.9,14.4,,
CXMY,44.984,-62.484,,,,CXMY 132200Z AUTO 19/17 RMK AO1 T01880168 50021,2024-08-13T22:00:00Z,18.8,16.8,,
CXMM,56.649,-111.221,210,3,3.45,CXMM 132200Z AUTO 21003KT 28/12 RMK AO1 SLP073 T02760117 57006,2024-08-13T22:00:00Z,27.6,11.7,,
CXMI,44.602,-63.534,20,11,12.66,CXMI 132200Z AUTO 02011G18KT 22/16 RMK AO1 PK WND 06018/2159 SLP084 T02230156 53017,2024-08-13T22:00:00Z,22.3,15.6,,
CXMG,56.974,-117.451,10,4,4.6,CXMG 132200Z AUTO 01004KT 24/16 RMK AO1 T02430156,2024-08-13T22:00:00Z,24.3,15.6,,
CXMD,49.188,-98.084,180,7,8.06,CXMD 132200Z AUTO 18007KT 25/16 RMK AO1 SLP171 T02480159 58006,2024-08-13T22:00:00Z,24.8,15.9,,
CXLL,61.125,-122.851,360,3,3.45,CXLL 132200Z AUTO 36003KT 17/11 RMK AO1 SLP151 T01730112 58005,2024-08-13T22:00:00Z,17.3,11.2,,
CXLC,63.601,-113.866,50,12,13.81,CXLC 132200Z AUTO 05012G20KT 18/08 RMK AO1 PK WND 05020/2156 SLP143 T01760078 53010,2024-08-13T22:00:00Z,17.6,7.8,,
CXLB,44.36,-64.296,310,10,11.51,CXLB 132200Z AUTO 31010G15KT 23/15 RMK AO1 SLP081 T02260148 53019,2024-08-13T22:00:00Z,22.6,14.8,,
CXKT,45.067,-64.478,260,5,5.75,CXKT 132200Z AUTO 26005KT 23/16 RMK AO1 SLP093 T02310160 53016,2024-08-13T22:00:00Z,23.1,16,,
CXKM,52.849,-111.873,320,6,6.9,CXKM 132200Z AUTO 32006KT 25/16 RMK AO1 T02450161,2024-08-13T22:00:00Z,24.5,16.1,,
CXKI,48.15,-80,280,5,5.75,CXKI 132200Z AUTO 28005KT 28/10 RMK AO1 SLP160 T02810101 56006,2024-08-13T22:00:00Z,28.1,10.1,,
CXKE,45.005,-75.637,320,4,4.6,CXKE 132200Z AUTO 32004KT 26/16 RMK AO1 SLP163 T02630159 56003,2024-08-13T22:00:00Z,26.3,15.9,,
CXKA,49.405,-82.443,320,4,4.6,CXKA 132200Z AUTO 32004KT 21/18 RMK AO1 PK WND 22022/2118 SLP177 T02080180 53013,2024-08-13T22:00:00Z,20.8,18,,
CXIB,46.663,-60.406,0,0,0.0,CXIB 132200Z AUTO 00000KT 21/17 RMK AO1 3012 SLP070 T02120170 50005,2024-08-13T22:00:00Z,21.2,17,,
CXHP,55.396,-116.48,290,3,3.45,CXHP 132200Z AUTO 29003KT 26/16 RMK AO1 T02590156,2024-08-13T22:00:00Z,25.9,15.6,,
CXHM,43.286,-79.905,0,0,0.0,CXHM 132200Z AUTO 00000KT 26/17 RMK AO1 SLP188 T02550173 56008,2024-08-13T22:00:00Z,25.5,17.3,,
CXHD,53.185,-112.246,350,4,4.6,CXHD 132200Z AUTO 35004KT 25/13 RMK AO1 T02530127,2024-08-13T22:00:00Z,25.3,12.7,,
CXHA,42.033,-82.896,180,5,5.75,CXHA 132200Z AUTO 18005KT 24/15 RMK AO1 SLP194 T02430149 55003,2024-08-13T22:00:00Z,24.3,14.9,,
CXGH,50.631,-96.984,120,7,8.06,CXGH 132200Z AUTO 12007KT 23/18 RMK AO1 SLP170 T02340179 57012,2024-08-13T22:00:00Z,23.4,17.9,,
CXFR,56.081,-118.44,250,14,16.11,CXFR 132200Z AUTO 25014KT 21/13 RMK AO1 PK WND 24018/2145 T02070127,2024-08-13T22:00:00Z,20.7,12.7,,
CXET,44.234,-79.779,340,5,5.75,CXET 132200Z AUTO 34005KT 24/13 RMK AO1 SLP194 T02350130 56004,2024-08-13T22:00:00Z,23.5,13,,
CXEG,53.307,-113.606,290,3,3.45,CXEG 132200Z AUTO 29003KT 26/11 RMK AO1 SLP086 T02620111 57003,2024-08-13T22:00:00Z,26.2,11.1,,
CXEC,53.573,-113.517,340,5,5.75,CXEC 132200Z AUTO 34005KT 27/10 RMK AO1 SLP079 T02700097 57004,2024-08-13T22:00:00Z,27,9.7,,
CXEA,50.631,-93.221,200,2,2.3,CXEA 132200Z AUTO 20002KT 27/14 RMK AO1 SLP189 T02730140 56008,2024-08-13T22:00:00Z,27.3,14,,
CXDW,49.4,-98.319,180,10,11.51,CXDW 132200Z AUTO 18010KT 26/16 RMK AO1 PK WND 18017/2128 SLP170 T02590155 58006,2024-08-13T22:00:00Z,25.9,15.5,,
CXDK,61.257,-124.468,340,3,3.45,CXDK 132200Z AUTO 34003KT 17/09 RMK AO1 SLP145 T01720086 58005,2024-08-13T22:00:00Z,17.2,8.6,,
CXDI,42.864,-80.545,180,7,8.06,CXDI 132200Z AUTO 18007KT 25/16 RMK AO1 SLP193 T02450162 56005,2024-08-13T22:00:00Z,24.5,16.2,,
CXDE,65.209,-123.434,140,6,6.9,CXDE 132200Z AUTO 14006KT 17/09 RMK AO1 SLP167 T01720087 55001,2024-08-13T22:00:00Z,17.2,8.7,,
CXDB,49.048,-112.808,260,11,12.66,CXDB 132200Z AUTO 26011KT 27/04 RMK AO1 PK WND 31018/2134 T02690035,2024-08-13T22:00:00Z,26.9,3.5,,
CXCP,50.281,-113.35,330,6,6.9,CXCP 132200Z AUTO 33006KT 28/05 RMK AO1 T02790050,2024-08-13T22:00:00Z,27.9,5,,
CXCK,62.115,-136.192,290,3,3.45,CXCK 132200Z AUTO 29003KT 10/09 RMK AO1 2PAST HR 2003 SLP147 P0016 T00960086 50106,2024-08-13T22:00:00Z,9.6,8.6,,
CXCA,49.154,-88.344,270,3,3.45,CXCA 132200Z AUTO 27003KT 29/14 RMK AO1 2PAST HR 6008 SLP180 P0001 T02930136 50002,2024-08-13T22:00:00Z,29.3,13.6,,
CXBO,46.837,-71.197,290,7,8.06,CXBO 132200Z AUTO 29007KT 27/14 RMK AO1 T02680140,2024-08-13T22:00:00Z,26.8,14,,
CXBK,50.201,-104.71,120,13,14.96,CXBK 132200Z AUTO 12013G19KT 29/14 RMK AO1 PK WND 13020/2106 SLP100 T02930135 58016,2024-08-13T22:00:00Z,29.3,13.5,,
CXBI,44.484,-79.546,300,8,9.21,CXBI 132200Z AUTO 30008KT 24/14 RMK AO1 SLP199 T02360140 56003,2024-08-13T22:00:00Z,23.6,14,,
CXAT,73.006,-85.033,290,17,19.56,CXAT 132200Z AUTO 29017KT 05/02 RMK AO1 PK WND 29021/2121 SLP008 T00490016 53014,2024-08-13T22:00:00Z,4.9,1.6,,
CXAG,53.917,-112.279,330,3,3.45,CXAG 132200Z AUTO 33003KT 26/14 RMK AO1 T02560141,2024-08-13T22:00:00Z,25.6,14.1,,
CWZW,60.167,-132.733,150,4,4.6,CWZW 132200Z AUTO 15004KT 16/06 RMK AO1 SLP131 T01640056 58003,2024-08-13T22:00:00Z,16.4,5.6,,
CWZV,51.936,-131.016,310,3,3.45,CWZV 132200Z AUTO 31003KT 14/13 RMK AO1 SLP190 T01420129 51009,2024-08-13T22:00:00Z,14.2,12.9,,
CWZQ,46.547,-61.049,350,7,8.06,CWZQ 132200Z AUTO 35007KT 22/16 RMK AO1 SLP081 T02220163 51014,2024-08-13T22:00:00Z,22.2,16.3,,
CWZO,48.568,-123.265,150,10,11.51,CWZO 132200Z AUTO 15010KT RMK AO1,2024-08-13T22:00:00Z,,,,
CWZN,47.368,-55.795,360,27,31.07,CWZN 132200Z AUTO 36027KT 15/14 RMK AO1 PK WND 00031/2158 SLP043 T01530141 53010,2024-08-13T22:00:00Z,15.3,14.1,,
CWZL,53.03,-131.602,110,3,3.45,CWZL 132200Z AUTO 11003KT 17/11 RMK AO1 SLP190 T01740114 51009,2024-08-13T22:00:00Z,17.4,11.4,,
CWZG,51.194,-115.552,220,6,6.9,CWZG 132200Z AUTO 22006KT 20/08 RMK AO1 SLP126 T01990079 53003,2024-08-13T22:00:00Z,19.9,7.9,,
CWZA,49.244,-121.759,220,6,6.9,CWZA 132200Z AUTO 22006KT 21/15 RMK AO1 SLP166 T02110150 50001,2024-08-13T22:00:00Z,21.1,15,,
CWYY,49.028,-119.441,170,7,8.06,CWYY 132200Z AUTO 17007KT 30/12 RMK AO1 SLP089 T03020123 57013,2024-08-13T22:00:00Z,30.2,12.3,,
CWYL,51.443,-116.345,260,7,8.06,CWYL 132200Z AUTO 26007KT 19/10 RMK AO1 PK WND 26023/2112 SLP161 T01860102 53008,2024-08-13T22:00:00Z,18.6,10.2,,
CWYJ,48.457,-123.305,200,3,3.45,CWYJ 132200Z AUTO 20003KT 19/13 RMK AO1 SLP172 T01870126 51003,2024-08-13T22:00:00Z,18.7,12.6,,
CWXL,49.734,-111.45,320,6,6.9,CWXL 132200Z AUTO 32006KT 28/09 RMK AO1 SLP088 T02770092 57007,2024-08-13T22:00:00Z,27.7,9.2,,
CWXI,51.022,-57.096,90,13,14.96,CWXI 132200Z AUTO 09013KT 12/06 RMK AO1 PK WND 06020/2114 SLP127 T01240055 53011,2024-08-13T22:00:00Z,12.4,5.5,,
CWXC,48.894,-71.032,330,4,4.6,CWXC 132200Z AUTO 33004KT 23/13 RMK AO1 SLP126 T02340126 51004,2024-08-13T22:00:00Z,23.4,12.6,,
CWXA,51.083,-115.066,250,6,6.9,CWXA 132200Z AUTO 25006G15KT 25/05 RMK AO1 SLP126 T02490049 56004,2024-08-13T22:00:00Z,24.9,4.9,,
CWWZ,43.244,-79.218,200,1,1.15,CWWZ 132200Z AUTO 20001KT 25/16 RMK AO1 SLP184 T02510163 56010,2024-08-13T22:00:00Z,25.1,16.3,,
CWWS,52.819,-97.616,140,6,6.9,CWWS 132200Z AUTO 14006KT 24/19 RMK AO1 SLP165 T02420186 56007,2024-08-13T22:00:00Z,24.2,18.6,,
CWWL,53.493,-130.638,350,7,8.06,CWWL 132200Z AUTO 35007KT 16/14 RMK AO1 SLP183 T01620136 53008,2024-08-13T22:00:00Z,16.2,13.6,,
CWWK,49.018,-122.784,220,3,3.45,CWWK 132200Z AUTO 22003KT 19/13 RMK AO1 SLP178 T01860133 50002,2024-08-13T22:00:00Z,18.6,13.3,,
CWWF,49.695,-103.801,160,14,16.11,CWWF 132200Z AUTO 16014G19KT 30/14 RMK AO1 PK WND 17021/2106 SLP109 T02950143 56018,2024-08-13T22:00:00Z,29.5,14.3,,
CWWE,43.989,-64.662,300,6,6.9,CWWE 132200Z AUTO 30006KT 24/16 RMK AO1 SLP099 T02400158 53015,2024-08-13T22:00:00Z,24,15.8,,
CWWB,43.302,-79.791,100,5,5.75,CWWB 132200Z AUTO 10005KT 24/17 RMK AO1 SLP188 T02360173 56007,2024-08-13T22:00:00Z,23.6,17.3,,
CWWA,49.347,-123.193,130,1,1.15,CWWA 132200Z AUTO 13001KT 20/14 RMK AO1 SLP172 T01990137 50003,2024-08-13T22:00:00Z,19.9,13.7,,
CWVU,44.287,-66.342,220,10,11.51,CWVU 132200Z AUTO 22010KT 18/15 RMK AO1 SLP100 T01790146 53004,2024-08-13T22:00:00Z,17.9,14.6,,
CWVT,55.841,-108.421,150,9,10.36,CWVT 132200Z AUTO 15009G16KT 26/13 RMK AO1 SLP098 T02640132 56005,2024-08-13T22:00:00Z,26.4,13.2,,
CWVQ,45.427,-73.929,280,7,8.06,CWVQ 132200Z AUTO 28007KT 26/15 RMK AO1 SLP144 T02580153 56002,2024-08-13T22:00:00Z,25.8,15.3,,
CWVP,49.64,-109.514,290,4,4.6,CWVP 132200Z AUTO 29004KT 26/07 RMK AO1 SLP094 T02590073 58005,2024-08-13T22:00:00Z,25.9,7.3,,
CWVN,49.058,-107.586,180,8,9.21,CWVN 132200Z AUTO 18008KT 32/09 RMK AO1 SLP082 T03170092 58015,2024-08-13T22:00:00Z,31.7,9.2,,
CWVI,53.505,-112.098,250,2,2.3,CWVI 132200Z AUTO 25002KT 25/13 RMK AO1 SLP084 T02460134 51001,2024-08-13T22:00:00Z,24.6,13.4,,
CWVH,68.894,-133.943,220,33,37.98,CWVH 132200Z AUTO 22033G44KT ////SM ////// ///// A////,2024-08-13T22:00:00Z,,,,
CWVF,49.106,-123.303,150,9,10.36,CWVF 132200Z AUTO 15009KT 18/14 RMK AO1 T01830144,2024-08-13T22:00:00Z,18.3,14.4,,
CWUX,48.298,-70.92,280,7,8.06,CWUX 132200Z AUTO 28007KT 23/14 RMK AO1 SLP127 T02290140 51002,2024-08-13T22:00:00Z,22.9,14,,
CWUS,49.563,-119.649,90,3,3.45,CWUS 132200Z AUTO 09003KT 29/10 RMK AO1 SLP091 T02910100 56010,2024-08-13T22:00:00Z,29.1,10,,
CWTY,46.354,-72.516,320,7,8.06,CWTY 132200Z AUTO 32007KT 27/12 RMK AO1 SLP133 T02680120 53001,2024-08-13T22:00:00Z,26.8,12,,
CWTT,45.27,-72.17,300,7,8.06,CWTT 132200Z AUTO 30007KT 24/15 RMK AO1 T02410151,2024-08-13T22:00:00Z,24.1,15.1,,
CWTN,47.079,-70.781,50,1,1.15,CWTN 132200Z AUTO 05001KT 24/20 RMK AO1 SLP115 T02430203 53006,2024-08-13T22:00:00Z,24.3,20.3,,
CWTA,45.506,-73.579,300,3,3.45,CWTA 132200Z AUTO 30003KT 26/13 RMK AO1 SLP141 T02600131 56001,2024-08-13T22:00:00Z,26,13.1,,
CWSW,49.834,-114.881,10,8,9.21,CWSW 132200Z 01008KT 20SM BKN070 BKN130 26/09 A2990 RMK CF5AC1 AC TR SLP108 DENSITY ALT 6000FT,2024-08-13T22:00:00Z,26,9,20,29.90
CWST,47.354,-70.03,290,2,2.3,CWST 132200Z AUTO 29002KT 23/16 RMK AO1 SLP114 T02340159 53007,2024-08-13T22:00:00Z,23.4,15.9,,
CWSS,45.21,-67.253,300,3,3.45,CWSS 132200Z AUTO 30003KT 25/17 RMK AO1 SLP100 T02450166 53008,2024-08-13T22:00:00Z,24.5,16.6,,
CWSR,53.368,-107.553,120,8,9.21,CWSR 132200Z AUTO 12008KT 25/14 RMK AO1 SLP085 T02540136 58005,2024-08-13T22:00:00Z,25.4,13.6,,
CWSL,50.703,-119.291,10,3,3.45,CWSL 132200Z AUTO 01003KT 29/14 RMK AO1 SLP092 T02910135 56018,2024-08-13T22:00:00Z,29.1,13.5,,
CWSK,49.783,-123.161,160,7,8.06,CWSK 132200Z AUTO 16007KT 22/14 RMK AO1 SLP158 T02160139 58001,2024-08-13T22:00:00Z,21.6,13.9,,
CWSG,49.109,-66.655,50,5,5.75,CWSG 132200Z AUTO 05005KT 13/13 RMK AO1 SLP119 T01340127 53014,2024-08-13T22:00:00Z,13.4,12.7,,
CWSF,49.251,-65.325,0,0,0.0,CWSF 132200Z AUTO 00000KT 15/14 RMK AO1 SLP118 T01470135 51018,2024-08-13T22:00:00Z,14.7,13.5,,
CWSD,46.441,-63.837,30,6,6.9,CWSD 132200Z AUTO 03006KT 20/18 RMK AO1 SLP096 T01970178 53019,2024-08-13T22:00:00Z,19.7,17.8,,
CWRZ,48.419,-64.317,60,20,23.02,CWRZ 132200Z AUTO 06020KT 16/14 RMK AO1 PK WND 07025/2119 SLP102 T01610142 51011,2024-08-13T22:00:00Z,16.1,14.2,,
CWRY,49.133,-112.051,310,13,14.96,CWRY 132200Z AUTO 31013G18KT 29/02 RMK AO1 PK WND 30018/2152 SLP091 T02920021 56009,2024-08-13T22:00:00Z,29.2,2.1,,
CWRU,50.112,-127.941,0,0,0.0,CWRU 132200Z AUTO 00000KT 16/14 RMK AO1 SLP186 T01570139 51009,2024-08-13T22:00:00Z,15.7,13.9,,
CWRT,49.628,-114.482,280,7,8.06,CWRT 132200Z AUTO 28007G17KT 25/08 RMK AO1 PK WND 26017/2152 SLP110 T02460075 58007,2024-08-13T22:00:00Z,24.6,7.5,,
CWRO,54.161,-131.66,270,17,19.56,CWRO 132200Z AUTO 27017KT 17/12 RMK AO1 PK WND 29023/2136 SLP182 T01720120 51010,2024-08-13T22:00:00Z,17.2,12,,
CWRN,45.347,-60.98,280,8,9.21,CWRN 132200Z AUTO 28008KT 19/16 RMK AO1 SLP080 T01910157 51009,2024-08-13T22:00:00Z,19.1,15.7,,
CWRM,52.431,-114.907,290,8,9.21,CWRM 132200Z AUTO 29008KT 23/10 RMK AO1 SLP087 T02340095 56001,2024-08-13T22:00:00Z,23.4,9.5,,
CWRK,45.072,-77.879,10,2,2.3,CWRK 132200Z AUTO 01002KT 26/12 RMK AO1 SLP182 T02590117 57004,2024-08-13T22:00:00Z,25.9,11.7,,
CWRJ,51.565,-107.924,210,10,11.51,CWRJ 132200Z AUTO 21010KT 31/06 RMK AO1 SLP071 T03120055 58010,2024-08-13T22:00:00Z,31.2,5.5,,
CWRA,46.659,-53.073,40,24,27.62,CWRA 132200Z AUTO 04024KT 16/14 RMK AO1 PK WND 05027/2157 SLP075 T01570143 53004,2024-08-13T22:00:00Z,15.7,14.3,,
CWQV,48.26,-70.116,280,9,10.36,CWQV 132200Z AUTO 28009KT 23/15 RMK AO1 T02280148,2024-08-13T22:00:00Z,22.8,14.8,,
CWQS,53.316,-132.772,320,22,25.32,CWQS 132200Z AUTO 32022KT 13/08 RMK AO1 1006 PK WND 32025/2112 SLP189 T01270075 50002,2024-08-13T22:00:00Z,12.7,7.5,,
CWQR,50.221,-64.207,120,7,8.06,CWQR 132200Z AUTO 12007KT 10/09 RMK AO1 T01000093,2024-08-13T22:00:00Z,10,9.3,,
CWQP,43.84,-77.153,280,10,11.51,CWQP 132200Z AUTO 28010KT 22/22 RMK AO1 SLP179 T02180218 56001,2024-08-13T22:00:00Z,21.8,21.8,,
CWQO,48.416,-68.893,210,8,9.21,CWQO 132200Z AUTO 21008KT 15/12 RMK AO1 T01460119,2024-08-13T22:00:00Z,14.6,11.9,,
CWQK,48.298,-123.531,280,19,21.86,CWQK 132200Z AUTO 28019KT 16/13 RMK AO1 PK WND 29021/2124 SLP174 T01570134 51004,2024-08-13T22:00:00Z,15.7,13.4,,
CWQH,45.369,-71.824,320,8,9.21,CWQH 132200Z AUTO 32008KT 23/16 RMK AO1 SLP145 T02340159 53001,2024-08-13T22:00:00Z,23.4,15.9,,
CWPZ,54.383,-125.959,310,5,5.75,CWPZ 132200Z AUTO 31005KT 22/09 RMK AO1 SLP128 T02240087 58002,2024-08-13T22:00:00Z,22.4,8.7,,
CWPR,49.468,-120.514,170,4,4.6,CWPR 132200Z AUTO 17004KT 27/11 RMK AO1 SLP107 T02660109 58019,2024-08-13T22:00:00Z,26.6,10.9,,
CWPO,49.191,-98.905,160,12,13.81,CWPO 132200Z AUTO 16012G17KT 24/16 RMK AO1 PK WND 15019/2106 SLP178 T02400159 58011,2024-08-13T22:00:00Z,24,15.9,,
CWPK,47.922,-74.624,310,5,5.75,CWPK 132200Z AUTO 31005KT 25/11 RMK AO1 SLP159 T02490111 56003,2024-08-13T22:00:00Z,24.9,11.1,,
CWPE,45.058,-66.459,290,3,3.45,CWPE 132200Z AUTO 29003KT 21/16 RMK AO1 SLP093 T02130157 53010,2024-08-13T22:00:00Z,21.3,15.7,,
CWPD,47.562,-71.229,20,6,6.9,CWPD 132200Z AUTO 02006KT 18/10 RMK AO1 SLP124 T01830099 53008,2024-08-13T22:00:00Z,18.3,9.9,,
CWPC,42.868,-79.253,260,7,8.06,CWPC 132200Z AUTO 26007G16KT 22/17 RMK AO1 PK WND 25022/2104 SLP202 T02200168 55007,2024-08-13T22:00:00Z,22,16.8,,
CWOY,51.767,-104.2,140,16,18.41,CWOY 132200Z AUTO 14016G22KT 27/13 RMK AO1 PK WND 17023/2137 SLP114 T02690127 56015,2024-08-13T22:00:00Z,26.9,12.7,,
CWOE,49.123,-110.469,250,9,10.36,CWOE 132200Z AUTO 25009G16KT 30/06 RMK AO1 PK WND 23017/2139 SLP083 T03040059 58009,2024-08-13T22:00:00Z,30.4,5.9,,
CWOD,48.842,-72.546,330,7,8.06,CWOD 132200Z AUTO 33007KT 26/11 RMK AO1 SLP132 T02590109 56002,2024-08-13T22:00:00Z,25.9,10.9,,
CWOC,48.012,-65.332,110,4,4.6,CWOC 132200Z AUTO 11004KT 17/16 RMK AO1 3026 SLP108 T01690157 50006,2024-08-13T22:00:00Z,16.9,15.7,,
CWNZ,49.747,-84.164,210,2,2.3,CWNZ 132200Z AUTO 21002KT 25/19 RMK AO1 3002 SLP170 T02480191 50003,2024-08-13T22:00:00Z,24.8,19.1,,
CWNQ,46.226,-72.657,350,2,2.3,CWNQ 132200Z AUTO 35002KT 26/15 RMK AO1 SLP135 T02560148 55001,2024-08-13T22:00:00Z,25.6,14.8,,
CWNP,50.269,-117.817,290,4,4.6,CWNP 132200Z AUTO 29004KT 24/12 RMK AO1 SLP103 T02380116 56007,2024-08-13T22:00:00Z,23.8,11.6,,
CWNM,49.491,-117.305,30,7,8.06,CWNM 132200Z AUTO 03007KT 30/15 RMK AO1 SLP101 T03030149 58013,2024-08-13T22:00:00Z,30.3,14.9,,
CWNK,49.498,-98.03,170,9,10.36,CWNK 132200Z AUTO 17009KT 25/15 RMK AO1 SLP170 T02500152 58008,2024-08-13T22:00:00Z,25,15.2,,
CWNH,47.806,-69.548,250,2,2.3,CWNH 132200Z AUTO 25002KT 22/15 RMK AO1 SLP119 T02240147 53006,2024-08-13T22:00:00Z,22.4,14.7,,
CWNE,47.058,-63.997,40,11,12.66,CWNE 132200Z AUTO 04011KT 19/17 RMK AO1 SLP096 T01930169 53016,2024-08-13T22:00:00Z,19.3,16.9,,
CWND,69.632,-135.445,250,18,20.71,CWND 132200Z AUTO 25018KT 16/09 RMK AO1 PK WND 24025/2104 SLP100 T01560093 56005,2024-08-13T22:00:00Z,15.6,9.3,,
CWNC,43.951,-78.165,260,5,5.75,CWNC 132200Z AUTO 26005KT 18/15 RMK AO1 SLP175 T01800146 58005,2024-08-13T22:00:00Z,18,14.6,,
CWMZ,45.033,-80.367,280,10,11.51,CWMZ 132200Z AUTO 28010KT 22/17 RMK AO1 SLP189 T02160167 58006,2024-08-13T22:00:00Z,21.6,16.7,,
CWMT,63.134,-117.245,50,10,11.51,CWMT 132200Z AUTO 05010KT 19/08 RMK AO1 PK WND 05017/2124 SLP144 T01920081 51002,2024-08-13T22:00:00Z,19.2,8.1,,
CWMQ,49.903,-109.466,310,5,5.75,CWMQ 132200Z AUTO 31005KT 30/10 RMK AO1 SLP077 T02970100 58006,2024-08-13T22:00:00Z,29.7,10,,
CWMM,49.208,-122.69,200,2,2.3,CWMM 132200Z AUTO 20002KT 20/13 RMK AO1 SLP174 T02020133 51002,2024-08-13T22:00:00Z,20.2,13.3,,
CWMJ,46.275,-75.992,320,6,6.9,CWMJ 132200Z AUTO 32006KT 27/13 RMK AO1 SLP159 T02690131 56005,2024-08-13T22:00:00Z,26.9,13.1,,
CWME,52.187,-127.471,220,12,13.81,CWME 132200Z AUTO 22012KT 18/14 RMK AO1 SLP170 T01830140 50004,2024-08-13T22:00:00Z,18.3,14,,
CWLS,43.983,-80.74,330,3,3.45,CWLS 132200Z AUTO 33003KT 24/14 RMK AO1 SLP198 T02360137 57007,2024-08-13T22:00:00Z,23.6,13.7,,
CWLP,50.94,-127.632,300,6,6.9,CWLP 132200Z AUTO 30006KT 15/12 RMK AO1 SLP182 T01530115 51008,2024-08-13T22:00:00Z,15.3,11.5,,
CWLM,48.413,-123.325,220,6,6.9,CWLM 132200Z AUTO 22006KT 15/12 RMK AO1 SLP169 T01510116 51004,2024-08-13T22:00:00Z,15.1,11.6,,
CWLE,50.951,-107.143,220,7,8.06,CWLE 132200Z AUTO 22007KT 31/07 RMK AO1 PK WND 19017/2104 SLP079 T03070067 58012,2024-08-13T22:00:00Z,30.7,6.7,,
CWLC,54.296,-130.609,270,4,4.6,CWLC 132200Z AUTO 27004KT 16/13 RMK AO1 T01610133,2024-08-13T22:00:00Z,16.1,13.3,,
CWLB,54.769,-112.024,90,4,4.6,CWLB 132200Z AUTO 09004KT 25/10 RMK AO1 SLP083 T02480100 58004,2024-08-13T22:00:00Z,24.8,10,,
CWKX,58.429,-130.011,230,7,8.06,CWKX 132200Z AUTO 23007KT 19/06 RMK AO1 SLP137 T01880061 57008,2024-08-13T22:00:00Z,18.8,6.1,,
CWKO,49.168,-105.979,150,7,8.06,CWKO 132200Z AUTO 15007KT 30/10 RMK AO1 SLP101 T03000102 57012,2024-08-13T22:00:00Z,30,10.2,,
CWKM,69.595,-140.174,300,4,4.6,CWKM 132200Z AUTO 30004KT ////SM ////// 15/05 A2987,2024-08-13T22:00:00Z,15,5,,29.87
CWKK,49.713,-88.332,360,1,1.15,CWKK 132200Z AUTO 36001KT 25/19 RMK AO1 SLP182 T02530192 56006,2024-08-13T22:00:00Z,25.3,19.2,,
CWKH,48.568,-123.542,,,,CWKH 132200Z AUTO 17/13 RMK AO1 SLP166 T01740132 50004,2024-08-13T22:00:00Z,17.4,13.2,,
CWKG,44.432,-65.203,280,4,4.6,CWKG 132200Z AUTO 28004KT 23/16 RMK AO1 SLP106 T02260157 53011,2024-08-13T22:00:00Z,22.6,15.7,,
CWKD,50.729,-71.013,,,,CWKD 132200Z AUTO 22/11 RMK AO1 SLP135 T02230114 55000,2024-08-13T22:00:00Z,22.3,11.4,,
CWJV,50.223,-119.194,250,3,3.45,CWJV 132200Z AUTO 25003KT 31/11 RMK AO1 SLP091 T03050114 56013,2024-08-13T22:00:00Z,30.5,11.4,,
CWJT,46.08,-74.556,210,1,1.15,CWJT 132200Z AUTO 21001KT 23/16 RMK AO1 SLP162 T02270164 55003,2024-08-13T22:00:00Z,22.7,16.4,,
CWJR,49.04,-116.483,320,8,9.21,CWJR 132200Z AUTO 32008KT 28/14 RMK AO1 SLP106 T02750137 56016,2024-08-13T22:00:00Z,27.5,13.7,,
CWJO,48.425,-71.143,280,9,10.36,CWJO 132200Z AUTO 28009KT 24/14 RMK AO1 PK WND 27017/2100 SLP125 T02430136 53002,2024-08-13T22:00:00Z,24.3,13.6,,
CWJI,49.729,-105.946,150,6,6.9,CWJI 132200Z AUTO 15006KT 30/09 RMK AO1 SLP088 T03040092 58016,2024-08-13T22:00:00Z,30.4,9.2,,
CWJH,56.333,-103.283,220,2,2.3,CWJH 132200Z AUTO 22002KT 28/10 RMK AO1 SLP112 T02780098 58007,2024-08-13T22:00:00Z,27.8,9.8,,
CWJD,53.187,-99.268,190,5,5.75,CWJD 132200Z AUTO 19005KT 27/14 RMK AO1 SLP146 T02700140 57006,2024-08-13T22:00:00Z,27,14,,
CWJC,61.132,-100.884,240,14,16.11,CWJC 132200Z AUTO 24014KT RMK AO1 PK WND 23018/2111 55001,2024-08-13T22:00:00Z,,,,
CWJB,46.781,-71.288,220,2,2.3,CWJB 132200Z AUTO 22002KT 26/14 RMK AO1 T02550138,2024-08-13T22:00:00Z,25.5,13.8,,
CWIZ,45.294,-73.35,260,4,4.6,CWIZ 132200Z AUTO 26004KT 26/16 RMK AO1 T02600159,2024-08-13T22:00:00Z,26,15.9,,
CWIW,51.667,-105.4,150,14,16.11,CWIW 132200Z AUTO 15014G20KT 30/14 RMK AO1 PK WND 16021/2104 SLP091 T03030141 57011,2024-08-13T22:00:00Z,30.3,14.1,,
CWIT,45.167,-73.678,270,5,5.75,CWIT 132200Z AUTO 27005KT 26/16 RMK AO1 SLP147 T02610155 56002,2024-08-13T22:00:00Z,26.1,15.5,,
CWIS,47.284,-70.637,340,4,4.6,CWIS 132200Z AUTO 34004KT RMK AO1 53007,2024-08-13T22:00:00Z,,,,
CWIP,50.162,-66.434,80,5,5.75,CWIP 132200Z AUTO 08005KT 13/12 RMK AO1 T01330116,2024-08-13T22:00:00Z,13.3,11.6,,
CWIK,50.366,-102.567,140,11,12.66,CWIK 132200Z AUTO 14011G16KT 24/16 RMK AO1 PK WND 14020/2128 SLP146 T02360157 56013,2024-08-13T22:00:00Z,23.6,15.7,,
CWIJ,65.756,-111.246,50,7,8.06,CWIJ 132200Z AUTO 05007KT 15/07 RMK AO1 SLP177 T01500069 53010,2024-08-13T22:00:00Z,15,6.9,,
CWII,50.695,-96.562,230,7,8.06,CWII 132200Z AUTO 23007KT 25/15 RMK AO1 SLP173 T02530146 56010,2024-08-13T22:00:00Z,25.3,14.6,,
CWIG,47.074,-70.533,100,2,2.3,CWIG 132200Z AUTO 10002KT RMK AO1,2024-08-13T22:00:00Z,,,,
CWID,61.317,-117.605,350,4,4.6,CWID 132200Z AUTO 35004KT 18/11 RMK AO1 SLP130 T01760111 51005,2024-08-13T22:00:00Z,17.6,11.1,,
CWHV,46.205,-70.785,280,2,2.3,CWHV 132200Z AUTO 28002KT 23/14 RMK AO1 SLP130 T02330135 53004,2024-08-13T22:00:00Z,23.3,13.5,,
CWHT,60.773,-137.581,310,10,11.51,CWHT 132200Z AUTO 31010G15KT 14/04 RMK AO1 PK WND 32019/2115 SLP156 T01380041 51006,2024-08-13T22:00:00Z,13.8,4.1,,
CWHQ,46.691,-71.972,300,6,6.9,CWHQ 132200Z AUTO 30006KT 25/14 RMK AO1 T02510143,2024-08-13T22:00:00Z,25.1,14.3,,
CWHO,55.448,-60.23,VRB,12,13.81,CWHO 132200Z AUTO 00012KT 12/06 RMK AO1 SLP103 T01240059 57005,2024-08-13T22:00:00Z,12.4,5.9,,
CWHL,54.172,-130.361,320,1,1.15,CWHL 132200Z AUTO 32001KT 15/13 RMK AO1 SLP179 T01530132 52009,2024-08-13T22:00:00Z,15.3,13.2,,
CWGW,49.745,-114.884,30,7,8.06,CWGW 132200Z AUTO 03007KT 25/07 RMK AO1 SLP109 T02470073 56007,2024-08-13T22:00:00Z,24.7,7.3,,
CWGT,49.487,-124.435,140,12,13.81,CWGT 132200Z AUTO 14012KT 19/ RMK AO1 SLP168 T0185 51003,2024-08-13T22:00:00Z,18.5,,,
CWGR,47.425,-61.775,10,10,11.51,CWGR 132200Z AUTO 01010KT 20/16 RMK AO1 SLP082 T01980155 53015,2024-08-13T22:00:00Z,19.8,15.5,,
CWGM,49.133,-113.806,220,10,11.51,CWGM 132200Z AUTO 22010KT 25/07 RMK AO1 PK WND 21017/2136 SLP100 T02500074 58004,2024-08-13T22:00:00Z,25,7.4,,
CWGL,44.55,-79.218,310,10,11.51,CWGL 132200Z AUTO 31010KT 24/13 RMK AO1 SLP175 T02410134 55003,2024-08-13T22:00:00Z,24.1,13.4,,
CWGD,43.765,-81.712,330,8,9.21,CWGD 132200Z AUTO 33008KT 22/14 RMK AO1 SLP201 T02230135 55008,2024-08-13T22:00:00Z,22.3,13.5,,
CWGB,49.336,-124.149,100,12,13.81,CWGB 132200Z AUTO 10012KT 19/16 RMK AO1 SLP169 T01900156 50005,2024-08-13T22:00:00Z,19,15.6,,
CWFQ,45.05,-72.861,290,3,3.45,CWFQ 132200Z AUTO 29003KT 23/17 RMK AO1 SLP151 T02330167 55000,2024-08-13T22:00:00Z,23.3,16.7,,
CWFF,52.817,-104.601,170,13,14.96,CWFF 132200Z AUTO 17013G19KT 26/14 RMK AO1 PK WND 15023/2101 SLP110 T02630139 56006,2024-08-13T22:00:00Z,26.3,13.9,,
CWEZ,48.783,-123.046,210,7,8.06,CWEZ 132200Z AUTO 21007KT 17/13 RMK AO1 SLP173 T01740128 50003,2024-08-13T22:00:00Z,17.4,12.8,,
CWEW,45.809,-73.435,330,3,3.45,CWEW 132200Z AUTO 33003KT 27/15 RMK AO1 SLP140 T02690148 53001,2024-08-13T22:00:00Z,26.9,14.8,,
CWEU,79.989,-85.934,340,9,10.36,CWEU 132200Z 34009KT 330V030 15SM FEW009 BKN050 OVC070 02/01 A2920 RMK SF1SC6AC2 SF TR SLP897,2024-08-13T22:00:00Z,2,1,15,29.20
CWER,46.997,-70.808,30,5,5.75,CWER 132200Z AUTO 03005KT RMK AO1,2024-08-13T22:00:00Z,,,,
CWEQ,52.115,-101.233,170,7,8.06,CWEQ 132200Z AUTO 17007KT 26/14 RMK AO1 SLP141 T02570138 58008,2024-08-13T22:00:00Z,25.7,13.8,,
CWEP,46.46,-61.988,330,3,3.45,CWEP 132200Z AUTO 33003KT 21/17 RMK AO1 SLP085 T02080174 53016,2024-08-13T22:00:00Z,20.8,17.4,,
CWEL,49.209,-123.808,100,10,11.51,CWEL 132200Z AUTO 10010KT 18/15 RMK AO1 SLP167 T01830152 50002,2024-08-13T22:00:00Z,18.3,15.2,,
CWEK,54.58,-130.698,210,12,13.81,CWEK 132200Z AUTO 21012KT 17/14 RMK AO1 SLP173 T01660137 51008,2024-08-13T22:00:00Z,16.6,13.7,,
CWEH,49.438,-108.989,240,7,8.06,CWEH 132200Z AUTO 24007KT 27/09 RMK AO1 SLP095 T02720092 58007,2024-08-13T22:00:00Z,27.2,9.2,,
CWEF,47.226,-60.141,350,11,12.66,CWEF 132200Z AUTO 35011KT 19/16 RMK AO1 SLP067 T01940155 51010,2024-08-13T22:00:00Z,19.4,15.5,,
CWEE,49.279,-73.356,,,,CWEE 132200Z AUTO 24/15 RMK AO1 SLP133 T02380148 57003,2024-08-13T22:00:00Z,23.8,14.8,,
CWEB,49.383,-126.543,170,5,5.75,CWEB 132200Z AUTO 17005KT 16/13 RMK AO1 SLP185 T01580130 53009,2024-08-13T22:00:00Z,15.8,13,,
CWDZ,51.445,-112.677,320,6,6.9,CWDZ 132200Z AUTO 32006KT 29/08 RMK AO1 SLP073 T02890075 58006,2024-08-13T22:00:00Z,28.9,7.5,,
CWDV,49.033,-90.467,320,1,1.15,CWDV 132200Z AUTO 32001KT 27/13 RMK AO1 SLP198 T02720131 57007,2024-08-13T22:00:00Z,27.2,13.1,,
CWDQ,47.415,-72.788,340,6,6.9,CWDQ 132200Z AUTO 34006KT 27/11 RMK AO1 SLP136 T02660107 57004,2024-08-13T22:00:00Z,26.6,10.7,,
CWDO,49.688,-54.8,60,10,11.51,CWDO 132200Z AUTO 06010G18KT 11/09 RMK AO1 PK WND 09020/2143 SLP096 T01120086 51005,2024-08-13T22:00:00Z,11.2,8.6,,
CWDM,50.465,-59.64,50,5,5.75,CWDM 132200Z AUTO 05005KT 12/08 RMK AO1 SLP119 T01170077 53008,2024-08-13T22:00:00Z,11.7,7.7,,
CWDK,50.006,-113.631,40,7,8.06,CWDK 132200Z AUTO 04007KT 27/08 RMK AO1 SLP094 T02710084 57005,2024-08-13T22:00:00Z,27.1,8.4,,
CWDJ,50.408,-104.58,150,13,14.96,CWDJ 132200Z AUTO 15013G18KT 29/12 RMK AO1 PK WND 17020/2121 SLP099 T02930118 58014,2024-08-13T22:00:00Z,29.3,11.8,,
CWDC,59.56,-108.487,200,2,2.3,CWDC 132200Z AUTO 20002KT 30/11 RMK AO1 SLP077 T03010107 56006,2024-08-13T22:00:00Z,30.1,10.7,,
CWDA,50.721,-56.113,70,9,10.36,CWDA 132200Z AUTO 07009KT 09/05 RMK AO1 PK WND 06019/2130 SLP139 T00890050 53014,2024-08-13T22:00:00Z,8.9,5,,
CWCT,52.074,-111.448,290,7,8.06,CWCT 132200Z AUTO 29007KT 27/12 RMK AO1 SLP088 T02740118 58004,2024-08-13T22:00:00Z,27.4,11.8,,
CWCJ,48.588,-86.295,200,5,5.75,CWCJ 132200Z AUTO 20005KT 20/16 RMK AO1 SLP196 T02020158 58003,2024-08-13T22:00:00Z,20.2,15.8,,
CWCI,47.341,-85.807,300,1,1.15,CWCI 132200Z AUTO 30001KT 22/17 RMK AO1 SLP202 T02220172 58006,2024-08-13T22:00:00Z,22.2,17.2,,
CWCF,52.36,-97.022,180,7,8.06,CWCF 132200Z AUTO 18007KT 26/12 RMK AO1 SLP167 T02610123 57009,2024-08-13T22:00:00Z,26.1,12.3,,
CWBZ,45.121,-74.289,280,4,4.6,CWBZ 132200Z AUTO 28004KT 26/17 RMK AO1 SLP149 T02550173 56002,2024-08-13T22:00:00Z,25.5,17.3,,
CWBY,49.839,-64.293,80,8,9.21,CWBY 132200Z AUTO 08008KT 16/09 RMK AO1 SLP124 T01590093 51018,2024-08-13T22:00:00Z,15.9,9.3,,
CWBV,44.825,-62.338,220,8,9.21,CWBV 132200Z AUTO 22008KT 16/14 RMK AO1 SLP077 T01580144 51020,2024-08-13T22:00:00Z,15.8,14.4,,
CWBU,53.333,-104.005,170,14,16.11,CWBU 132200Z AUTO 17014G19KT 28/11 RMK AO1 PK WND 16019/2152 SLP109 T02830106 58008,2024-08-13T22:00:00Z,28.3,10.6,,
CWBT,50.271,-64.226,120,4,4.6,CWBT 132200Z AUTO 12004KT 12/12 RMK AO1 SLP132 T01230115 51017,2024-08-13T22:00:00Z,12.3,11.5,,
CWBS,46.189,-72.916,320,4,4.6,CWBS 132200Z AUTO 32004KT 27/13 RMK AO1 T02650133,2024-08-13T22:00:00Z,26.5,13.3,,
CWBO,50.55,-111.849,250,6,6.9,CWBO 132200Z AUTO 25006KT 28/10 RMK AO1 SLP083 T02810103 58005,2024-08-13T22:00:00Z,28.1,10.3,,
CWBK,45.764,-62.681,300,9,10.36,CWBK 132200Z AUTO 30009KT 21/18 RMK AO1 SLP084 T02130182 52014,2024-08-13T22:00:00Z,21.3,18.2,,
CWBA,46.71,-79.101,300,2,2.3,CWBA 132200Z AUTO 30002KT 27/14 RMK AO1 T02650135,2024-08-13T22:00:00Z,26.5,13.5,,
CWAV,51.777,-114.681,10,5,5.75,CWAV 132200Z AUTO 01005KT 23/09 RMK AO1 SLP112 T02250094 58002,2024-08-13T22:00:00Z,22.5,9.4,,
CWAR,47.294,-53.993,60,18,20.71,CWAR 132200Z AUTO 06018KT 16/13 RMK AO1 PK WND 06022/2157 SLP076 T01560132 53012,2024-08-13T22:00:00Z,15.6,13.2,,
CWAQ,49.05,-105.483,130,6,6.9,CWAQ 132200Z AUTO 13006KT 31/08 RMK AO1 SLP097 T03060077 56013,2024-08-13T22:00:00Z,30.6,7.7,,
CWAF,48.069,-69.556,290,9,10.36,CWAF 132200Z AUTO 29009KT 19/14 RMK AO1 T01880136,2024-08-13T22:00:00Z,18.8,13.6,,
CTRA,49.664,-93.733,180,5,5.75,CTRA 132200Z AUTO 18005KT 26/12 RMK AO1 SLP189 T02620122 56009,2024-08-13T22:00:00Z,26.2,12.2,,
CTNK,45.533,-78.266,270,1,1.15,CTNK 132200Z AUTO 27001KT 25/11 RMK AO1 SLP186 T02490108 56005,2024-08-13T22:00:00Z,24.9,10.8,,
CTCK,45.251,-74.963,310,3,3.45,CTCK 132200Z AUTO 31003KT 26/15 RMK AO1 SLP152 T02620154 55000,2024-08-13T22:00:00Z,26.2,15.4,,
CPSV,49.92,-110.915,290,11,12.66,CPSV 132200Z AUTO 29011KT 29/07 RMK AO1 T02900066,2024-08-13T22:00:00Z,29,6.6,,
CPST,51.02,-113.27,350,6,6.9,CPST 132200Z AUTO 35006KT 26/06 RMK AO1 T02600058,2024-08-13T22:00:00Z,26,5.8,,
CPRY,49.488,-112.674,320,8,9.21,CPRY 132200Z AUTO 32008KT 28/08 RMK AO1 PK WND 30017/2153 T02770075,2024-08-13T22:00:00Z,27.7,7.5,,
CPRO,50.826,-112.06,310,4,4.6,CPRO 132200Z AUTO 31004KT 28/10 RMK AO1 T02820098,2024-08-13T22:00:00Z,28.2,9.8,,
CPFI,49.805,-112.037,280,5,5.75,CPFI 132200Z AUTO 28005KT 29/08 RMK AO1 T02890084,2024-08-13T22:00:00Z,28.9,8.4,,
CMGB,45.373,-72.774,250,3,3.45,CMGB 132200Z AUTO 25003KT 25/17 RMK AO1 SLP148 T02490166 56004,2024-08-13T22:00:00Z,24.9,16.6,,
CMFM,47.323,-71.148,350,4,4.6,CMFM 132200Z AUTO 35004KT 20/11 RMK AO1 SLP147 T02040106 53006,2024-08-13T22:00:00Z,20.4,10.6,,
CERM,47.417,-68.325,340,4,4.6,CERM 132200Z AUTO 34004KT 23/14 RMK AO1 SLP114 T02330138 52007,2024-08-13T22:00:00Z,23.3,13.8,,
CBBC,52.181,-128.154,0,0,0.0,CBBC 132200Z AUTO 00000KT 9SM OVC016 17/15 A3005 RMK SLP178,2024-08-13T22:00:00Z,17,15,9,30.05
CAHR,46.344,-63.17,350,6,6.9,CAHR 132200Z AUTO 35006KT 20/16 RMK AO1 SLP095 T02030164 53022,2024-08-13T22:00:00Z,20.3,16.4,,
ANYN,-0.547,166.919,80,8,9.21,ANYN 132200Z 08008KT 9999 FEW020 30/27 Q1012,2024-08-13T22:00:00Z,30,27,6+,29.88
AGGH,-9.43,160.047,160,13,14.96,AGGH 132200Z 16013KT 9999 FEW017 FEW018CB BKN300 29/25 Q1012,2024-08-13T22:00:00Z,29,25,6+,29.88
KPRN,31.8467,-86.6141,320,5,5.75,KPRN 132158Z AUTO 32005KT 10SM FEW055 33/18 A3000 RMK AO2 SLP106 T03330183,2024-08-13T21:58:00Z,33.3,18.3,10+,30.00
KBCR,30.8432,-85.6043,0,0,0.0,KBCR 132158Z AUTO 00000KT 10SM CLR 36/22 A2999 RMK AO2 SLP114 T03610217,2024-08-13T21:58:00Z,36.1,21.7,10+,29.99
K0J4,31.0447,-86.3119,360,3,3.45,K0J4 132158Z AUTO 36003KT 10SM FEW080 34/19 A3002 RMK AO2 SLP160 T03390189,2024-08-13T21:58:00Z,33.9,18.9,10+,30.02
KNJW,32.792,-88.832,300,6,6.9,KNJW 132157Z AUTO 30006KT 10SM CLR 36/19 A3004 RMK AO2 SLP086 T03560189,2024-08-13T21:57:00Z,35.6,18.9,10+,30.04
KNFL,39.417,-118.705,0,0,0.0,KNFL 132157Z COR 00000KT 10SM FEW080 FEW180 30/M06 A2999 RMK SLP128 T03001056,2024-08-13T21:57:00Z,30,-5.6,10+,29.99
PAOO,60.537,-165.089,180,10,11.51,PAOO 132156Z AUTO 18010KT 8SM OVC014 10/08 A3011 RMK AO2 SLP200 T01000083 TSNO $,2024-08-13T21:56:00Z,10,8.3,8,30.11
KNUC,33.022,-118.583,270,6,6.9,KNUC 132156Z 27006KT 10SM FEW010 23/15 A2995 RMK SLP138 T02340150,2024-08-13T21:56:00Z,23.4,15,10+,29.95
KNSE,30.728,-87.022,VRB,3,3.45,KNSE 132156Z VRB03KT 10SM FEW055 SCT090 SCT250 31/21 A3000 RMK SLP141 T03500206,2024-08-13T21:56:00Z,31,20.6,10+,30.00
KNID,35.688,-117.69,180,19,21.86,KNID 132156Z 18019G32KT 10SM CLR 41/M01 A2981 RMK AO2 PK WND 18032/2152 WSHFT 2134 SLP066 T04061011 $,2024-08-13T21:56:00Z,40.6,-1.1,10+,29.81
KNDZ,30.6973,-87.0207,0,0,0.0,KNDZ 132156Z 00000KT 10SM SCT050 SCT090 BKN250 36/19 A2999 RMK SLP141 T03560194,2024-08-13T21:56:00Z,35.6,19.4,10+,29.99
KMEH,45.512,-118.425,VRB,5,5.75,KMEH 132156Z AUTO VRB05KT 10SM CLR 22/06 A3001 RMK AO2 SLP147 T02170056,2024-08-13T21:56:00Z,21.7,5.6,10+,30.01
KISO,35.324,-77.6187,0,0,0.0,KISO 132156Z 00000KT 10SM SCT120 27/19 A3006,2024-08-13T21:56:00Z,27,19,10+,30.06
KDYR,35.9957,-89.4057,240,4,4.6,KDYR 132156Z AUTO 24004KT 10SM SCT070 31/22 A3006 RMK AO2 SLPNO T03110222,2024-08-13T21:56:00Z,31.1,22.2,10+,30.06
KALK,31.606,-110.428,260,7,8.06,KALK 132156Z AUTO 26007G16KT 10SM SCT080 SCT095 29/13 A3013 RMK AO2 SLP108 T02940128,2024-08-13T21:56:00Z,29.4,12.8,10+,30.13
PATC,65.562,-167.924,170,36,41.43,PATC 132155Z 17036KT 090V190 3/8SM -DZ VV000 08/08 A2947,2024-08-13T21:55:00Z,8,8,0.38,29.47
OPFA,31.365,72.995,0,0,0.0,OPFA 132155Z 00000KT 4000 FU FEW100 31/27 Q1003 NOSIG,2024-08-13T21:55:00Z,31,27,2.49,29.62
LIVP,46.143,11.038,200,10,11.51,LIVP 132155Z 20010KT CAVOK 13/10 Q1023 RMK SKC MON LIB VAL S FOSCHIA SKC SUP VIS MIN 9999,2024-08-13T21:55:00Z,13,10,6+,30.21
LIVM,44.441,12.296,,,,LIVM 132155Z AUTO /////KT //// 29/23 Q1009,2024-08-13T21:55:00Z,29,23,,29.79
LIVF,43.517,12.728,210,2,2.3,LIVF 132155Z 21002KT CAVOK 26/14 Q1012,2024-08-13T21:55:00Z,26,14,6+,29.88
LIVE,46.833,10.5,20,3,3.45,LIVE 132155Z 02003KT CAVOK 15/13 Q1018 RMK SCT SCT060 VIS MIN 9999,2024-08-13T21:55:00Z,15,13,6+,30.06
LIVD,46.729,12.228,VRB,2,2.3,LIVD 132155Z AUTO VRB02KT //// 13/13 Q1021,2024-08-13T21:55:00Z,13,13,,30.15
LIVC,44.194,10.7,100,7,8.06,LIVC 132155Z AUTO 10007KT //// 17/10 Q1026,2024-08-13T21:55:00Z,17,10,,30.30
LIRY,-99.99,-99.99,VRB,2,2.3,LIRY 132155Z AUTO VRB02KT //// 21/17 Q1012,2024-08-13T21:55:00Z,21,17,,29.88
LIRX,42.731,10.396,170,10,11.51,LIRX 132155Z AUTO 17010KT //// 25/22 Q1012,2024-08-13T21:55:00Z,25,22,,29.88
LIRT,41.047,15.233,230,6,6.9,LIRT 132155Z AUTO 23006KT //// 23/15 Q1017,2024-08-13T21:55:00Z,23,15,,30.03
LIRS,42.76,11.072,10,1,1.15,LIRS 132155Z 01001KT CAVOK 26/24 Q1010 RMK SKC VIS MIN 9999 WIND THR03 31002KT WIND THR21 04001KT BLU,2024-08-13T21:55:00Z,26,24,6+,29.82
LIRM,41.061,14.082,160,5,5.75,LIRM 132155Z 16005KT 9999 FEW070 25/23 Q1010 RMK FEW VIS MIN 9999 WIND THR06 21006KT BLU,2024-08-13T21:55:00Z,25,23,6+,29.82
LIRK,42.466,12.979,340,10,11.51,LIRK 132155Z AUTO 34010KT //// 17/10 Q1032,2024-08-13T21:55:00Z,17,10,,30.47
LIRE,41.656,12.449,340,2,2.3,LIRE 132155Z 34002KT CAVOK 26/// Q1010 RMK SKC VIS MIN 9999 WIND THR13 /////KT WIND THR31 /////KT BLU,2024-08-13T21:55:00Z,,,6+,29.82
LIQO,42.387,11.17,110,10,11.51,LIQO 132155Z AUTO 11010KT //// 25/21 Q1014,2024-08-13T21:55:00Z,25,21,,29.94
LIPS,45.689,12.101,0,0,0.0,LIPS 132155Z 00000KT CAVOK 26/23 Q1010 RMK SKC VIS MIN 9999 WIND THR26 00000KT WIND THR08 00000KT BLU,2024-08-13T21:55:00Z,26,23,6+,29.82
LIPL,45.432,10.268,330,4,4.6,LIPL 132155Z 33004KT 9999 -TSRA FEW030CB BKN040 26/26 Q1010 RMK BKN VIS MIN 9999 WIND THR31 29006KT WIND THR13 33006KT BLU,2024-08-13T21:55:00Z,26,26,6+,29.82
LIPI,45.979,13.049,90,2,2.3,LIPI 132155Z 09002KT CAVOK 25/23 Q1009 RMK SKC VIS MIN 9999 WIND THR06 12002KT WIND THR24 14002KT BLU,2024-08-13T21:55:00Z,25,23,6+,29.79
LIPC,44.224,12.307,270,1,1.15,LIPC 132155Z 27001KT CAVOK 26/16 Q1010 RMK SKC VIS MIN 9999 WIND THR11 30004KT WIND THR29 32002KT BLU,2024-08-13T21:55:00Z,26,16,6+,29.82
LIPA,46.03,12.599,60,3,3.45,LIPA 132155Z 06003KT CAVOK 26/23 Q1010 RMK SKC VIS MIN 9999 WIND THR05 /////KT WIND THR23 /////KT A2983 BLU,2024-08-13T21:55:00Z,26,23,6+,29.82
LIMY,44.258,7.794,240,12,13.81,LIMY 132155Z AUTO 24012KT //// 24/19 Q1013,2024-08-13T21:55:00Z,24,19,,29.91
LIMK,45.033,7.731,,,,LIMK 132155Z AUTO /////KT //// 24/12 Q1013,2024-08-13T21:55:00Z,24,12,,29.91
LIMH,45.935,7.707,,,,LIMH 132155Z AUTO /////KT //// ///// Q////,2024-08-13T21:55:00Z,,,,
LIED,39.354,8.973,70,3,3.45,LIED 132155Z 07003KT CAVOK 27/26 Q1009 RMK SKC VIS MIN 9999 WIND THR34 /////KT WIND THR16 08003KT BLU,2024-08-13T21:55:00Z,27,26,6+,29.79
LIEB,39.931,9.713,200,8,9.21,LIEB 132155Z 20008KT CAVOK 27/24 Q1010 RMK SKC QUK / QUL / VIS MAR 30 KM MON INVIS VIS MIN 9999,2024-08-13T21:55:00Z,27,24,6+,29.82
LICZ,37.406,14.919,340,3,3.45,LICZ 132155Z 34003KT CAVOK 28/21 Q1010 RMK SKC VIS MIN 9999 WIND THR28 32004KT WIND THR10 33003KT A2985 BLU,2024-08-13T21:55:00Z,28,21,6+,29.82
LICT,37.911,12.488,150,3,3.45,LICT 132155Z 15003KT CAVOK 25/20 Q1011 RMK SKC VIS MIN 9999 WIND THR13 17004KT BLU,2024-08-13T21:55:00Z,25,20,6+,29.85
LIBV,40.766,16.935,230,2,2.3,LIBV 132155Z 23002KT CAVOK 24/14 Q1012 RMK FEW FEW250 VIS MIN 9999 WIND THR32 22002KT WIND THR14 25002KT BLU,2024-08-13T21:55:00Z,24,14,6+,29.88
LIBQ,39.331,16.396,260,2,2.3,LIBQ 132155Z AUTO 26002KT //// 20/13 Q1022,2024-08-13T21:55:00Z,20,13,,30.18
LIBN,40.238,18.138,0,0,0.0,LIBN 132155Z 00000KT CAVOK 27/23 Q1010 RMK SKC VIS MIN 9999 WIND THR14 00000KT WIND THR32 00000KT BLU,2024-08-13T21:55:00Z,27,23,6+,29.82
LIBA,41.538,15.714,230,4,4.6,LIBA 132155Z 23004KT CAVOK 26/20 Q1010 RMK SKC VIS MIN 9999 WIND THR11 23004KT WIND THR29 /////KT BLU,2024-08-13T21:55:00Z,26,20,6+,29.82
KWRB,32.639,-83.593,290,6,6.9,KWRB 132155Z AUTO 29006KT 10SM FEW070 36/19 A2996 RMK AO2 SLP144 T03550185,2024-08-13T21:55:00Z,35.5,18.5,10+,29.96
KWHP,34.2596,-118.415,130,16,18.41,KWHP 132155Z 13016KT 10SM SKC 32/11 A2993,2024-08-13T21:55:00Z,32,11,10+,29.93
KSKA,47.612,-117.679,200,6,6.9,KSKA 132155Z 20006KT 10SM CLR 24/05 A2997 RMK AO2A SLP134 T02420050,2024-08-13T21:55:00Z,24.2,5,10+,29.97
KSDA,40.7533,-95.4112,120,8,9.21,KSDA 132155Z AUTO 12008KT 10SM 24/20 A3005 RMK AO2,2024-08-13T21:55:00Z,24,20,10+,30.05
KQTZ,-99.99,-99.99,10,2,2.3,KQTZ 132155Z 01002KT 9999 SKC 35/11 A2955 RMK SLP009,2024-08-13T21:55:00Z,35,11,6+,29.55
KMIB,48.4062,-101.341,140,19,21.86,KMIB 132155Z AUTO 14019G23KT 10SM FEW120 25/18 A2989 RMK AO2 SLP123 T02500182,2024-08-13T21:55:00Z,25,18.2,10+,29.89
KJVW,32.3069,-90.412,0,0,0.0,KJVW 132155Z AUTO 00000KT 10SM SCT070 35/22 A3001 RMK AO2,2024-08-13T21:55:00Z,35,22,10+,30.01
KIAB,37.622,-97.268,170,10,11.51,KIAB 132155Z AUTO 17010KT 10SM FEW037 33/23 A2997 RMK AO2 SLP132 T03330230 $,2024-08-13T21:55:00Z,33.3,23,10+,29.97
KHYI,29.8958,-97.8664,150,10,11.51,KHYI 132155Z COR 15010KT 10SM CLR 36/23 A2999 RMK AO2 SLPNO T03610228 $,2024-08-13T21:55:00Z,36.1,22.8,10+,29.99
KGFA,47.505,-111.187,0,0,0.0,KGFA 132155Z AUTO 00000KT 10SM FEW240 29/07 A2984 RMK AO2 LTG DSNT SE AND SW SLP082 T02880074 $,2024-08-13T21:55:00Z,28.8,7.4,10+,29.84
KFAF,37.134,-76.61,310,5,5.75,KFAF 132155Z 31005KT 10SM FEW130 28/13 A3001 RMK AO2A SLP166 T02750134 $,2024-08-13T21:55:00Z,27.5,13.4,10+,30.01
K1LN,48.79,-102.27,120,12,13.81,K1LN 132155Z AUTO 12012KT 10SM BKN032 25/17 A2991 RMK AO2 SLP127 T02490173 $,2024-08-13T21:55:00Z,24.9,17.3,10+,29.91
K1HN,47.97,-102.22,160,10,11.51,K1HN 132155Z AUTO 16010KT 10SM SCT035 27/18 A2988 RMK AO2 SLP116 T02670183 $,2024-08-13T21:55:00Z,26.7,18.3,10+,29.88
K1DN,47.8,-101.3,160,13,14.96,K1DN 132155Z AUTO 16013KT 10SM BKN037 OVC048 27/18 A2990 RMK AO2 SLP122 T02680181 $,2024-08-13T21:55:00Z,26.8,18.1,10+,29.90
KUZA,34.9836,-81.0562,40,5,5.75,KUZA 132154Z AUTO 04005KT 10SM FEW032 26/21 A3006 RMK AO2 SLP167 T02560206,2024-08-13T21:54:00Z,25.6,20.6,10+,30.06
KINT,36.1335,-80.2244,80,3,3.45,KINT 132154Z 08003KT 10SM OVC070 24/17 A3011,2024-08-13T21:54:00Z,24,17,10+,30.11
PTPN,6.986,158.21,70,6,6.9,PTPN 132153Z 07006KT 15SM SCT018TCU BKN300 31/25 A2985 RMK TCU SE,2024-08-13T21:53:00Z,31,25,15,29.85
PAOR,62.962,-141.938,310,9,10.36,PAOR 132153Z 31009G15KT 10SM SCT070 BKN220 16/04 A3001 RMK AO2 SLP168 T01610044 $,2024-08-13T21:53:00Z,16.1,4.4,10+,30.01
PAGY,59.457,-135.322,200,14,16.11,PAGY 132153Z AUTO 20014G23KT 10SM -RA BKN055 OVC075 15/09 A2994 RMK AO2 SLP139 P0000 T01500089 TSNO,2024-08-13T21:53:00Z,15,8.9,10+,29.94
PABR,71.2837,-156.784,220,24,27.62,PABR 132153Z 22024G29KT 10SM BKN019 OVC024 11/07 A2960,2024-08-13T21:53:00Z,11,7,10+,29.60
KUNV,40.8534,-77.8401,50,4,4.6,KUNV 132153Z 05004KT 10SM SCT050 24/14 A3009,2024-08-13T21:53:00Z,24,14,10+,30.09
KTCC,35.1805,-103.601,190,10,11.51,KTCC 132153Z AUTO 19010KT 10SM CLR 35/08 A2999 RMK AO2 SLP085 T03500083,2024-08-13T21:53:00Z,35,8.3,10+,29.99
KNUW,48.355,-122.664,230,7,8.06,KNUW 132153Z 23007KT 10SM FEW020 BKN034 OVC050 17/13 A3006 RMK AO2 SLP184 T01670128,2024-08-13T21:53:00Z,16.7,12.8,10+,30.06
KNSI,33.2337,-119.456,330,9,10.36,KNSI 132153Z 33009KT 10SM FEW012 25/18 A2995 RMK AO2 SLP136 T02500178 $,2024-08-13T21:53:00Z,25,17.8,10+,29.95
KNRS,32.563,-117.111,260,9,10.36,KNRS 132153Z 26009KT 10SM FEW013 26/20 A2994 RMK AO2 SLP136 T02560200 $,2024-08-13T21:53:00Z,25.6,20,10+,29.94
KNZY,32.6922,-117.21,280,8,9.21,KNZY 132152Z 28008KT 10SM CLR 24/20 A2992 RMK AO2 SLP131 T02440200,2024-08-13T21:52:00Z,24.4,20,10+,29.92
PHBK,22.034,-159.783,360,10,11.51,PHBK 132151Z AUTO 36010KT 10SM FEW060 33/21 A3006 RMK AO2 SLP180 T03280206 $,2024-08-13T21:51:00Z,32.8,20.6,10+,30.06
MUBA,20.36,-74.504,80,7,8.06,MUBA 132151Z 08007KT 9999 SCT020 30/26 Q1014,2024-08-13T21:51:00Z,30,26,6+,29.94
KSNT,44.1708,-114.927,310,9,10.36,KSNT 132151Z AUTO 31009G18KT 270V340 23/04 A3008 RMK AO1 SLP091 T02280044,2024-08-13T21:51:00Z,22.8,4.4,,30.08
KSDB,34.7433,-118.725,VRB,3,3.45,KSDB 132151Z AUTO VRB03KT 10SM CLR 29/12 A3012 RMK AO2 SLP139 T02890122,2024-08-13T21:51:00Z,28.9,12.2,10+,30.12
