station_id,latitude,longitude,wind_dir_degrees,wind_speed_kt,wind_speed_mph,raw_text,observation_time,temp_c,dewpoint_c,visibility_statute_mi,altim_in_hg
ULPB,61.885,34.155,VRB,2,2.3,ULPB 100448Z VRB01MPS CAVOK 18/13 Q1011 R01/CLRD70 NOSIG RMK QFE754/1005,2024-08-10T04:48:00Z,18,13,6+,29.85
PFCL,58.837,-158.526,180,14,16.11,PFCL 100447Z AUTO 18014KT 10SM -RA SCT014 BKN018 OVC033 10/09 A2996 RMK AO2 RAB09 P0000,2024-08-10T04:47:00Z,10,9,10+,29.96
PADM,61.865,-162.033,180,11,12.66,PADM 100447Z AUTO 18011KT 10SM -RA SCT015 OVC048 10/08 A2985 RMK AO2 RAB32 P0000,2024-08-10T04:47:00Z,10,8,10+,29.85
KRHV,37.3331,-121.82,310,7,8.06,KRHV 100447Z 31007KT 10SM SKC 17/12 A2996 RMK LAST,2024-08-10T04:47:00Z,17,12,10+,29.96
KIWA,33.3008,-111.644,0,0,0.0,KIWA 100447Z 00000KT 10SM CLR 36/16 A2984,2024-08-10T04:47:00Z,36,16,10+,29.84
KAQV,31.396,-93.297,30,3,3.45,KAQV 100447Z AUTO 03003KT 10SM CLR 26/22 A3006 RMK AO2 SLP174 T02560217 ,2024-08-10T04:47:00Z,25.6,21.7,10+,30.06
UMKK,54.885,20.583,250,10,11.51,UMKK 100446Z 25005MPS 9999 BKN022 18/17 Q1012 R24/CLRD95 NOSIG RMK QFE758/1010,2024-08-10T04:46:00Z,18,17,6+,29.88
KPVD,41.7225,-71.4325,190,15,17.26,KPVD 100446Z AUTO 19015G28KT 4SM -RA BR FEW011 BKN018 OVC031 24/24 A2984 RMK AO2 PK WND 23031/0402 LAST P0038,2024-08-10T04:46:00Z,24,24,4,29.84
KMSS,44.9334,-74.8484,250,11,12.66,KMSS 100446Z AUTO 25011G15KT 10SM FEW009 BKN013 OVC030 22/21 A2974 RMK AO2 T02170206,2024-08-10T04:46:00Z,21.7,20.6,10+,29.74
KMRH,34.7326,-76.6566,180,10,11.51,KMRH 100446Z AUTO 18010KT 10SM FEW010 BKN015 OVC055 28/26 A2995 RMK AO2 T02780256,2024-08-10T04:46:00Z,27.8,25.6,10+,29.95
KBFF,41.8747,-103.601,120,6,6.9,KBFF 100446Z AUTO 12006KT 9SM SCT017 OVC042 14/12 A3027 RMK AO2 T01440122,2024-08-10T04:46:00Z,14.4,12.2,9,30.27
KASX,46.5468,-90.9184,280,7,8.06,KASX 100446Z AUTO 28007KT 10SM BKN029 OVC034 13/11 A2999 RMK AO2 T01280106,2024-08-10T04:46:00Z,12.8,10.6,10+,29.99
CZBF,47.628,-65.746,190,4,4.6,CZBF 100446Z AUTO 19004KT 120V220 5SM RA BR OVC004 15/15 A2989 RMK LTNG DIST NE E PCPN 0.8MM PAST HR SLP125 DENSITY ALT 400FT,2024-08-10T04:46:00Z,15,15,5,29.89
CYMX,45.68,-74.038,250,6,6.9,CYMX 100446Z 25006KT 210V310 5SM -DZ BR OVC004 20/20 A2970 RMK ST8 CIG VRB 003-005 SLP058 DENSITY ALT 1200FT,2024-08-10T04:46:00Z,20,20,5,29.70
CYBC,49.135,-68.202,70,15,17.26,CYBC 100446Z AUTO 07015G20KT 1 1/4SM R10/2600V6000FT/ +RA BR SCT003 BKN007 OVC015 15/15 A2973 RMK PRESFR PCPN 10.6MM PAST HR SLP070 DENSITY ALT 400FT,2024-08-10T04:46:00Z,15,15,1.25,29.73
PASH,66.252,-166.084,50,7,8.06,PASH 100445Z AUTO 05007KT 10SM -RA BKN007 OVC010 08/07 A2977 RMK AO2 RAB29 CIG 005V009 P0000,2024-08-10T04:45:00Z,8,7,10+,29.77
PAOT,66.886,-162.607,260,5,5.75,PAOT 100445Z 26005KT 10SM BKN022 BKN080 10/08 A2973 RMK AO2 T01000078,2024-08-10T04:45:00Z,10,7.8,10+,29.73
LMML,35.858,14.477,290,3,3.45,LMML 100445Z 29003KT 270V340 CAVOK 26/23 Q1015 NOSIG,2024-08-10T04:45:00Z,26,23,6+,29.97
KXER,27.946,-90.997,30,4,4.6,KXER 100445Z AUTO 03004KT 10SM 30/23 A3002 RMK A01,2024-08-10T04:45:00Z,30,23,10+,30.02
KWST,41.3509,-71.8055,220,17,19.56,KWST 100445Z AUTO 22017G29KT 6SM -RA BR SCT005 BKN024 OVC090 23/22 A2986 RMK AO2 PK WND 20034/0433 P0017 T02330222,2024-08-10T04:45:00Z,23.3,22.2,6,29.86
KSWF,41.5045,-74.0999,260,8,9.21,KSWF 100445Z 26008KT 3SM -RA BR BKN004 OVC010 24/23 A2982,2024-08-10T04:45:00Z,24,23,3,29.82
KFMH,41.6608,-70.5221,190,20,23.02,KFMH 100445Z 19020KT 10SM OVC010 25/23 A2991,2024-08-10T04:45:00Z,25,23,10+,29.91
KCEF,42.201,-72.525,200,9,10.36,KCEF 100445Z AUTO 20009KT 10SM OVC007 24/23 A2977 RMK AO2 DZE00 SLP083,2024-08-10T04:45:00Z,24,23,10+,29.77
KATP,27.1956,-90.0269,,,,KATP 100445Z AUTO 10SM SCT043 BKN049 30/26 A3000 RMK A01,2024-08-10T04:45:00Z,30,26,10+,30.00
KANR,27.2264,-91.19,30,3,3.45,KANR 100445Z AUTO 03003KT 10SM OVC028 29/24 A3012 RMK A01,2024-08-10T04:45:00Z,29,24,10+,30.12
CWPF,48.432,-123.439,200,2,2.3,CWPF 100445Z AUTO 20002KT 17/13 RMK AO1 SLP126 T01690131 53004,2024-08-10T04:45:00Z,16.9,13.1,,
PFKT,65.33,-166.479,220,7,8.06,PFKT 100444Z AUTO 22007KT 10SM FEW015 BKN035 OVC049 08/06 A2978 RMK AO2 RAE19 P0002,2024-08-10T04:44:00Z,8,6,10+,29.78
PAAK,52.219,-174.208,220,13,14.96,PAAK 100444Z AUTO 22013KT 10SM OVC012 13/13 A2939 RMK AO2 RAE22 P0000 TSNO,2024-08-10T04:44:00Z,13,13,10+,29.39
KLEW,44.0444,-70.2853,180,13,14.96,KLEW 100444Z AUTO 18013G18KT 2 1/2SM +RA BR BKN005 OVC011 22/22 A2977 RMK AO2 CIG 003V007 P0048,2024-08-10T04:44:00Z,22,22,2.5,29.77
KFMN,36.7435,-108.229,240,10,11.51,KFMN 100444Z AUTO 24010KT 10SM VCTS SCT080 BKN095 OVC110 23/12 A3024 RMK AO2 LTG DSNT W-N T02330117,2024-08-10T04:44:00Z,23.3,11.7,10+,30.24
KDDH,42.8935,-73.2488,0,0,0.0,KDDH 100444Z AUTO 00000KT 3SM BR SCT012 BKN026 OVC055 22/21 A2982 RMK AO2 T02220211,2024-08-10T04:44:00Z,22.2,21.1,3,29.82
KBID,41.1668,-71.5757,210,17,19.56,KBID 100444Z AUTO 21017G24KT 5SM -RA BR BKN005 OVC013 23/22 A2987 RMK AO2 CIG 004V008 PNO $,2024-08-10T04:44:00Z,23,22,5,29.87
YWLM,-32.794,151.836,180,9,10.36,YWLM 100443Z AUTO 18009KT 9999 // BKN015 19/14 Q1027 RF00.0/000.0,2024-08-10T04:43:00Z,19,14,6+,30.32
UWWW,53.509,50.163,100,6,6.9,UWWW 100443Z 10003MPS 9999 OVC005 17/16 Q1007 R15/290154 NOSIG RMK QFE744/0992,2024-08-10T04:43:00Z,17,16,6+,29.73
PANA,60.694,-161.978,160,11,12.66,PANA 100443Z AUTO 16011G16KT 8SM -RA SCT010 BKN040 OVC065 10/09 A2982 RMK AO2 P0001 TSNO,2024-08-10T04:43:00Z,10,9,8,29.82
PAKF,54.85,-163.409,180,25,28.77,PAKF 100443Z AUTO 18025G36KT 4SM -RA BR BKN010 BKN015 OVC021 11/09 A2979 RMK AO2 PK WND 20040/0421 CIG 008V011 P0005,2024-08-10T04:43:00Z,11,9,4,29.79
PAFE,56.961,-133.91,110,3,3.45,PAFE 100443Z AUTO 11003KT 3SM -RA BR BKN007 OVC011 17/17 A3002 RMK AO2 RAB04 CIG 004V010 P0001,2024-08-10T04:43:00Z,17,17,3,30.02
KVSF,43.3421,-72.5213,0,0,0.0,KVSF 100443Z AUTO 00000KT 1/2SM FG BKN002 OVC042 22/21 A2979 RMK AO2 T02170211,2024-08-10T04:43:00Z,21.7,21.1,0.5,29.79
KPOU,41.6257,-73.8816,0,0,0.0,KPOU 100443Z 00000KT 10SM SCT007 OVC012 24/23 A2979 RMK AO2 T02390233,2024-08-10T04:43:00Z,23.9,23.3,10+,29.79
KGMU,34.8487,-82.3501,190,5,5.75,KGMU 100443Z AUTO 19005KT 1SM +TSRA BR BKN021 OVC048 23/22 A3002 RMK AO2 P0049 T02330222,2024-08-10T04:43:00Z,23.3,22.2,1,30.02
KEEN,42.898,-72.2695,300,4,4.6,KEEN 100443Z AUTO 30004KT 3SM -RA BR SCT007 OVC013 23/23 A2980 RMK AO2 P0002 $,2024-08-10T04:43:00Z,23,23,3,29.80
KCAO,36.4483,-103.154,170,7,8.06,KCAO 100443Z AUTO 17007KT 10SM VCTS -RA FEW003 OVC016 16/16 A3033 RMK AO2 LTG DSNT S AND SW TSB08E37 P0007 T01610156 $,2024-08-10T04:43:00Z,16.1,15.6,10+,30.33
KUIL,47.937,-124.558,220,5,5.75,KUIL 100442Z AUTO 22005KT 2SM BR OVC002 14/13 A3000 RMK AO2 VIS 1 1/4V2 1/2 T01440133,2024-08-10T04:42:00Z,14.4,13.3,2,30.00
KTTN,40.2768,-74.8159,220,6,6.9,KTTN 100442Z AUTO 22006KT 10SM FEW009 BKN040 OVC090 24/24 A2985 RMK AO2 T02390239,2024-08-10T04:42:00Z,23.9,23.9,10+,29.85
KAUG,44.3161,-69.797,180,10,11.51,KAUG 100442Z AUTO 18010G21KT 1 3/4SM +RA BR BKN006 OVC010 23/22 A2979 RMK AO2 P0035 T02330222,2024-08-10T04:42:00Z,23.3,22.2,1.75,29.79
CYSJ,45.309,-65.886,190,15,17.26,CYSJ 100442Z 19015G22KT 1SM R23/P6000FT/U -RA BR OVC002 21/21 A2993 RMK SF8 SLP137 DENSITY ALT 1200FT,2024-08-10T04:42:00Z,21,21,1,29.93
OPIS,33.551,72.827,130,10,11.51,OPIS 13010KT 3000 -TSRA FEW030CB SCT040 BKN100 27/26 Q1005 TEMPO 09015G35KT 2000 TSRA FEW030CB,2024-08-10T04:41:43Z,27,26,1.86,
PASA,63.689,-170.49,60,6,6.9,PASA 100441Z AUTO 06006KT 8SM BKN002 OVC021 06/06 A2973 RMK AO2,2024-08-10T04:41:00Z,6,6,8,29.73
PADK,51.881,-176.644,250,11,12.66,PADK 100441Z AUTO 25011G19KT 2 1/2SM BR OVC004 11/11 A2940 RMK AO2 RAE0357B13E30 P0000 $,2024-08-10T04:41:00Z,11,11,2.5,29.40
PACD,55.2207,-162.732,140,28,32.22,PACD 100441Z AUTO 14028G38KT 7SM -RA SCT008 BKN014 OVC060 11/09 A2982 RMK AO2 PK WND 14041/0402 P0001 T01060094 TSNO,2024-08-10T04:41:00Z,10.6,9.4,7,29.82
KSHN,47.2384,-123.142,250,7,8.06,KSHN 100441Z AUTO 25007KT 10SM FEW009 16/14 A2996 RMK AO2 T01560139,2024-08-10T04:41:00Z,15.6,13.9,10+,29.96
KRUT,43.53,-72.9517,150,4,4.6,KRUT 100441Z AUTO 15004KT 10SM SCT021 BKN026 OVC032 22/21 A2980 RMK AO2 $,2024-08-10T04:41:00Z,22,21,10+,29.80
KMYR,33.6769,-78.9325,200,6,6.9,KMYR 100441Z AUTO 20006KT 8SM FEW007 27/27 A2995 RMK AO2,2024-08-10T04:41:00Z,27,27,8,29.95
KMJX,39.9235,-74.297,210,6,6.9,KMJX 100441Z AUTO 21006KT 10SM BKN006 BKN010 OVC024 24/23 A2987 RMK AO2 RAE41 CIG 004V009 P0013,2024-08-10T04:41:00Z,24,23,10+,29.87
KGON,41.3279,-72.0489,210,21,24.17,KGON 100441Z AUTO 21021G31KT 7SM -RA SCT010 BKN017 OVC045 24/23 A2984 RMK AO2 PK WND 21031/0437 P0005 T02390233,2024-08-10T04:41:00Z,23.9,23.3,7,29.84
KDLH,46.8435,-92.1866,320,11,12.66,KDLH 100441Z 32011G21KT 10SM SCT024 BKN034 13/08 A3001 RMK AO2 T01280078 $,2024-08-10T04:41:00Z,12.8,7.8,10+,30.01
KCOS,38.8095,-104.689,30,6,6.9,KCOS 100441Z 03006KT 10SM BKN004 OVC110 14/13 A3033 RMK AO2 T01390133,2024-08-10T04:41:00Z,13.9,13.3,10+,30.33
KCAR,46.8705,-68.0172,150,19,21.86,KCAR 100441Z AUTO 15019G33KT 6SM -RA BR OVC007 20/19 A2963 RMK AO2 PK WND 14033/0432 CIG 004V011 P0009 T02000189,2024-08-10T04:41:00Z,20,18.9,6,29.63
ETHC,52.591,10.022,0,0,0.0,ETHC 100441Z 00000KT 9999 FEW050 13/13 Q1018 BLU+,2024-08-10T04:41:00Z,13,13,6+,30.06
EHEH,51.45,5.377,220,6,6.9,EHEH 100441Z AUTO 22006KT 9999 FEW046 14/13 Q1019 BLU TEMPO SCT008 RMK REMOTE TREND BY EHWX,2024-08-10T04:41:00Z,14,13,6+,30.09
CYPD,45.657,-61.374,130,9,10.36,CYPD 100441Z AUTO 13009KT 3/4SM BR VV002 18/18 A3007 RMK SLP185 DENSITY ALT 700FT,2024-08-10T04:41:00Z,18,18,0.75,30.07
CYLH,52.196,-87.936,20,10,11.51,CYLH 100441Z AUTO 02010G16KT 340V050 6SM -RA BR SCT015 BKN030 BKN130 OVC150 10/09 A2990 RMK PCPN 1.5MM PAST HR SLP135,2024-08-10T04:41:00Z,10,9,6,29.90
PKWA,8.72,167.724,170,3,3.45,PKWA 100440Z AUTO 17003KT 10SM CLR 31/24 A2975 RMK AO2 T03060243,2024-08-10T04:40:00Z,30.6,24.3,10+,29.75
PFKW,60.793,-161.44,170,11,12.66,PFKW 100440Z AUTO 17011KT 10SM -RA FEW007 BKN010 OVC042 10/09 A2983 RMK AO2 P0001,2024-08-10T04:40:00Z,10,9,10+,29.83
PAGY,59.457,-135.322,0,0,0.0,PAGY 100440Z AUTO 00000KT 9SM SCT014 OVC020 15/14 A2994 RMK AO2 RAB27E39 P0000 T01500144 TSNO,2024-08-10T04:40:00Z,15,14.4,9,29.94
KXNX,36.3745,-86.41,330,6,6.9,KXNX 100440Z AUTO 33006KT 10SM CLR 22/16 A3010 RMK A01,2024-08-10T04:40:00Z,22,16,10+,30.10
KSEM,32.3367,-86.9836,0,0,0.0,KSEM 100440Z AUTO 00000KT 10SM CLR 25/24 A2997 RMK AO2,2024-08-10T04:40:00Z,25,24,10+,29.97
KSBD,34.09,-117.247,250,7,8.06,KSBD 100440Z AUTO 25007KT 10SM CLR 27/13 A2989 RMK AO2 T02650125,2024-08-10T04:40:00Z,26.5,12.5,10+,29.89
KQFX,-99.99,-99.99,140,3,3.45,KQFX 100440Z AUTO 14003KT 9999 CLR 35/22 A2962 RMK A02 TSNO,2024-08-10T04:40:00Z,35,22,6+,29.62
KQFV,-99.99,-99.99,90,7,8.06,KQFV 100440Z AUTO 09007KT 9999 FEW042 31/22 A2971 RMK A02 TSNO,2024-08-10T04:40:00Z,31,22,6+,29.71
KQFU,-99.99,-99.99,110,6,6.9,KQFU 100440Z AUTO 11006G10KT 9999 SCT043 34/23 A2967 RMK A02 TSNO,2024-08-10T04:40:00Z,34,23,6+,29.67
KQFT,-99.99,-99.99,190,5,5.75,KQFT 100440Z AUTO 19005KT 9999 FEW047 35/23 A2961 RMK A02 TSNO,2024-08-10T04:40:00Z,35,23,6+,29.61
KQFB,-99.99,-99.99,360,5,5.75,KQFB 100440Z AUTO 36005KT 9999 SCT047 34/22 A2970 RMK A02 TSNO,2024-08-10T04:40:00Z,34,22,6+,29.70
KQEY,-99.99,-99.99,250,3,3.45,KQEY 100440Z AUTO 25003KT 9999 FEW036 33/23 A2937 RMK A02 TSNO,2024-08-10T04:40:00Z,33,23,6+,29.37
KQEX,-99.99,-99.99,300,2,2.3,KQEX 100440Z AUTO 30002KT 9999 BKN039 BKN070 BKN090 34/23 A2957 RMK A02 TSNO,2024-08-10T04:40:00Z,34,23,6+,29.57
KQEW,-99.99,-99.99,90,2,2.3,KQEW 100440Z AUTO 09002KT / // SCT034 33/26 A2965 RMK A02 TSNO,2024-08-10T04:40:00Z,33,26,,29.65
KQEV,-99.99,-99.99,200,1,1.15,KQEV 100440Z AUTO 20001KT 9999 FEW170 35/25 A2959 RMK A02 TSNO,2024-08-10T04:40:00Z,35,25,6+,29.59
KQER,-99.99,-99.99,200,2,2.3,KQER 100440Z AUTO 20002KT 9999 BKN041 BKN075 31/24 A2963 RMK A02 TSNO,2024-08-10T04:40:00Z,31,24,6+,29.63
KQEQ,-99.99,-99.99,270,1,1.15,KQEQ 100440Z AUTO 27001KT 9999 FEW038 SCT043 32/26 A2966 RMK A02 TSNO,2024-08-10T04:40:00Z,32,26,6+,29.66
KQEP,-99.99,-99.99,120,4,4.6,KQEP 100440Z AUTO 12004KT 9999 FEW037 FEW090 34/24 A2965 RMK A02 TSNO,2024-08-10T04:40:00Z,34,24,6+,29.65
KQEJ,-99.99,-99.99,160,3,3.45,KQEJ 100440Z AUTO 16003KT 9999 CLR 33/21 A2965 RMK A02 TSNO,2024-08-10T04:40:00Z,33,21,6+,29.65
KQEI,-99.99,-99.99,150,2,2.3,KQEI 100440Z AUTO 15002KT 9999 FEW042 FEW055 34/23 A2966 RMK A02 TSNO,2024-08-10T04:40:00Z,34,23,6+,29.66
KONX,36.399,-76.014,0,0,0.0,KONX 100440Z AUTO 00000KT 10SM OVC022 26/25 A2994 RMK AO2 T02560248,2024-08-10T04:40:00Z,25.6,24.8,10+,29.94
KLOT,41.6031,-88.1017,230,4,4.6,KLOT 100440Z AUTO 23004KT 10SM CLR 15/14 A3009 RMK AO2,2024-08-10T04:40:00Z,15,14,10+,30.09
KJDD,32.7403,-95.4945,0,0,0.0,KJDD 100440Z AUTO 00000KT 10SM CLR 25/23 A3007 RMK AO2,2024-08-10T04:40:00Z,25,23,10+,30.07
KIKT,28.5208,-88.2889,210,7,8.06,KIKT 100440Z AUTO 21007KT 10SM FEW037 FEW044 30/23 A2999 RMK A01,2024-08-10T04:40:00Z,30,23,10+,29.99
KI95,40.6142,-83.6374,260,4,4.6,KI95 100440Z AUTO 26004KT 10SM OVC038 14/14 A3003 RMK A01,2024-08-10T04:40:00Z,14,14,10+,30.03
KHRT,30.428,-86.69,290,7,8.06,KHRT 100440Z AUTO 29007KT 10SM -RA SCT005 BKN014 BKN027 BKN038 OVC046 27/25 A2993 RMK AO2 LTG DSNT SE CIG 005V016 SLP133 $,2024-08-10T04:40:00Z,27,25,10+,29.93
KGUL,27.3039,-93.5383,30,3,3.45,KGUL 100440Z AUTO 03003KT 10SM CLR 30/24 A3001 RMK A01,2024-08-10T04:40:00Z,30,24,10+,30.01
KFAF,37.134,-76.61,200,4,4.6,KFAF 100440Z AUTO 20004KT 10SM BKN009 OVC080 26/24 A2989 RMK AO2 CIG 009V080 BKN V SCT SLP125 $,2024-08-10T04:40:00Z,26,24,10+,29.89
KF95,30.4881,-85.1148,0,0,0.0,KF95 100440Z AUTO 00000KT 8SM CLR 25/25 A2994 RMK AO2,2024-08-10T04:40:00Z,25,25,8,29.94
KDSF,28.3426,-88.2649,0,0,0.0,KDSF 100440Z AUTO 00000KT 10SM CLR 30/23 A2999 RMK A01,2024-08-10T04:40:00Z,30,23,10+,29.99
K0F2,33.6011,-97.7735,40,3,3.45,K0F2 100440Z AUTO 04003KT 10SM CLR 25/21 A3012 RMK AO2 T02500208,2024-08-10T04:40:00Z,25,20.8,10+,30.12
CYHU,45.516,-73.415,220,9,10.36,CYHU 100440Z AUTO 22009KT 9SM BKN008 OVC014 21/21 A2970 RMK SLP059 DENSITY ALT 1100FT,2024-08-10T04:40:00Z,21,21,9,29.70
CYFC,45.873,-66.539,150,10,11.51,CYFC 100440Z AUTO 15010G15KT 5SM BR OVC004 20/20 A2986 RMK SLP113 DENSITY ALT 800FT,2024-08-10T04:40:00Z,20,20,5,29.86
SBSP,-23.627,-46.655,180,12,13.81,SBSP 100439Z AUTO 18012KT 9999 -RA FEW005 BKN007 OVC031 11/10 Q1019 RERA,2024-08-10T04:39:00Z,11,10,6+,30.09
PASM,62.057,-163.298,110,10,11.51,PASM 100439Z AUTO 11010KT 10SM SCT007 BKN010 OVC029 09/08 A2979 RMK AO2 RAB15E37 P0002,2024-08-10T04:39:00Z,9,8,10+,29.79
KSBY,38.3409,-75.5132,150,7,8.06,KSBY 100439Z AUTO 15007KT 1 3/4SM +RA BR FEW021 BKN041 OVC085 23/23 A2991 RMK AO2 P0010 T02330233,2024-08-10T04:39:00Z,23.3,23.3,1.75,29.91
KRME,43.2242,-75.3956,0,0,0.0,KRME 100439Z AUTO 00000KT 10SM BR SCT010 BKN027 20/20 A2984 RMK AO2 T02000200,2024-08-10T04:39:00Z,20,20,10+,29.84
KABQ,35.0419,-106.615,70,10,11.51,KABQ 100439Z 07010KT 10SM -TSRA SCT080CB BKN110 BKN250 24/15 A3026 RMK AO2 RAB32 TSB39 OCNL LTGIC OHD TS OHD MOV NE P0000 T02390150,2024-08-10T04:39:00Z,23.9,15,10+,30.26
K2V6,40.1047,-102.713,140,7,8.06,K2V6 100439Z AUTO 14007KT 10SM OVC020 13/08 A3029 RMK AO2,2024-08-10T04:39:00Z,13,8,10+,30.29
CYRQ,46.358,-72.68,230,8,9.21,CYRQ 100439Z AUTO 23008KT 9SM -RA BKN039 OVC050 19/19 A2967 RMK SLP051 DENSITY ALT 1000FT,2024-08-10T04:39:00Z,19,19,9,29.67
VEBI,25.704,91.979,0,0,0.0,VEBI 100438Z 00000KT 1500 RA FEW004 BKN020 OVC080 25/23 Q1012 TEMPO 800 RA,2024-08-10T04:38:00Z,25,23,0.93,29.88
UAAT,45.121,78.445,180,12,13.81,UAAT 100438Z 18006MPS 9999 -SHRA VCTS BKN050CB BKN100 21/17 Q1009 NOSIG RMK QFE705/0940,2024-08-10T04:38:00Z,21,17,6+,29.79
PAEI,64.654,-147.094,230,5,5.75,PAEI 100438Z 23005KT 10SM FEW048 BKN075 BKN100 OVC250 14/11 A2979 RMK SLP092,2024-08-10T04:38:00Z,14,11,10+,29.79
KSAW,46.341,-87.395,250,8,9.21,KSAW 100438Z AUTO 25008KT 10SM BKN013 BKN023 OVC090 12/11 A2985 RMK AO2,2024-08-10T04:38:00Z,12,11,10+,29.85
KBCE,37.7013,-112.149,50,16,18.41,KBCE 100438Z AUTO 05016G22KT 10SM BKN070 BKN090 OVC100 19/10 A3037 RMK AO2 PK WND 30026/0403 WSHFT 0406 LTG DSNT NE T01890100,2024-08-10T04:38:00Z,18.9,10,10+,30.37
KAGS,33.3652,-81.9635,0,0,0.0,KAGS 100438Z 00000KT 3SM BR CLR 25/24 A2993 RMK AO2 T02500244,2024-08-10T04:38:00Z,25,24.4,3,29.93
EHLW,53.223,5.752,200,3,3.45,EHLW 100438Z AUTO 20003KT 0650 FG FEW002 SCT010 BKN013 15/15 Q1016 RED,2024-08-10T04:38:00Z,15,15,0.4,30.00
CYQM,46.107,-64.682,160,14,16.11,CYQM 100438Z 16014G21KT 4SM -RA BR OVC003 OVC060 19/19 A2993 RMK ST8SC1 SC TR SLP136 DENSITY ALT 800FT,2024-08-10T04:38:00Z,19,19,4,29.93
CYEV,68.309,-133.5,310,4,4.6,CYEV 100438Z 31004KT 15SM -RA BKN010 BKN055 BKN200 14/13 A2969 RMK SC5SC2CS1 CS TR SLP057 DENSITY ALT 500FT,2024-08-10T04:38:00Z,14,13,15,29.69
PFZK,60.9156,-161.488,160,11,12.66,PFZK 100437Z AUTO 16011KT 10SM -RA BKN010 BKN041 OVC075 09/08 A2983 RMK AO2 CIG 007V016 P0002,2024-08-10T04:37:00Z,9,8,10+,29.83
PATO,60.783,-148.843,260,5,5.75,PATO 100437Z AUTO 26005KT 2SM RA BR OVC032 11/09 A2994 RMK AO2 P0004 T01060094 TSNO,2024-08-10T04:37:00Z,10.6,9.4,2,29.94
PAIM,65.994,-153.695,VRB,2,2.3,PAIM 100437Z AUTO VRB02KT 10SM FEW028 BKN050 11/07 A2982 RMK AO2 SLP100,2024-08-10T04:37:00Z,11,7,10+,29.82
KNTU,36.8209,-76.0277,200,9,10.36,KNTU 100437Z 20009KT 10SM BKN010 BKN014 26/26 A2992 RMK AO2 T02560256,2024-08-10T04:37:00Z,25.6,25.6,10+,29.92
KEWN,35.0684,-77.0478,190,4,4.6,KEWN 100437Z AUTO 19004KT 8SM SCT006 OVC013 26/24 A2996 RMK AO2 T02560244,2024-08-10T04:37:00Z,25.6,24.4,8,29.96
KDTS,30.3933,-86.4674,0,0,0.0,KDTS 100437Z AUTO 00000KT 10SM BKN043 BKN065 OVC110 28/25 A2994 RMK AO2 LTG DSNT E-SW RAB09E35 P0000 T02830250 $,2024-08-10T04:37:00Z,28.3,25,10+,29.94
KCEZ,37.3071,-108.626,180,19,21.86,KCEZ 100437Z AUTO 18019G31KT 10SM VCTS -RA SCT065 BKN080 OVC100 18/15 A3027 RMK AO2 PK WND 21046/0411 LTG DSNT SE-W RAB03 TSB13E31 P0007 T01830150,2024-08-10T04:37:00Z,18.3,15,10+,30.27
CYVR,49.183,-123.168,130,3,3.45,CYVR 100437Z 13003KT 15SM FEW060CB FEW110 FEW130 22/17 A2991 RMK CB1AC1AC1 AC TR AC TR CB NW/ HZ SLP131 DENSITY ALT 900FT,2024-08-10T04:37:00Z,22,17,15,29.91
VEAT,23.887,91.24,180,7,8.06,VEAT 100436Z 18007KT 3500 -RA FEW010 SCT018 FEW030CB BKN100 29/26 Q1007 NOSIG,2024-08-10T04:36:00Z,29,26,2.17,29.73
PAJZ,59.727,-157.267,200,13,14.96,PAJZ 100436Z AUTO 20013KT 6SM BR BKN014 BKN028 OVC100 10/08 A3002 RMK AO2 PNO $,2024-08-10T04:36:00Z,10,8,6,30.02
MMVA,17.998,-92.817,80,8,9.21,MMVA 100436Z 08008KT 3SM RA OVC017CB 26/25 A2997 RMK 8/3// RAB34 VRBL CONDS,2024-08-10T04:36:00Z,26,25,3,29.97
KSLK,44.3928,-74.2029,230,5,5.75,KSLK 100436Z AUTO 23005KT 10SM SCT007 BKN010 OVC016 20/19 A2980 RMK AO2 T02000189,2024-08-10T04:36:00Z,20,18.9,10+,29.80
KPNM,45.556,-93.608,270,3,3.45,KPNM 100436Z AUTO 27003KT CLR 13/09 A3011 RMK AO2,2024-08-10T04:36:00Z,13,9,,30.11
KPEX,45.3725,-94.7388,260,4,4.6,KPEX 100436Z AUTO 26004KT 10SM CLR 09/08 A3014 RMK AO2,2024-08-10T04:36:00Z,9,8,10+,30.14
KMJQ,43.6496,-94.9885,300,6,6.9,KMJQ 100436Z AUTO 30006KT 10SM CLR 11/09 A3017 RMK AO2,2024-08-10T04:36:00Z,11,9,10+,30.17
KI69,39.078,-84.21,330,5,5.75,KI69 100436Z AUTO 33005KT 10SM CLR 20/14 A3006 RMK AO1 T01970136,2024-08-10T04:36:00Z,19.7,13.6,10+,30.06
KGKT,35.8568,-83.5333,0,0,0.0,KGKT 100436Z AUTO 00000KT 10SM OVC050 23/21 A3004 RMK A01,2024-08-10T04:36:00Z,23,21,10+,30.04
KCYS,41.1579,-104.808,320,4,4.6,KCYS 100436Z AUTO 32004KT 2SM RA BR OVC002 12/12 A3038 RMK AO2 LTG DSNT NW RAB0355 P0001 T01220122,2024-08-10T04:36:00Z,12.2,12.2,2,30.38
TJPS,18.011,-66.567,60,5,5.75,TJPS 100435Z AUTO 06005KT 10SM 29/24 A2997 RMK AO2 PWINO,2024-08-10T04:35:00Z,29,24,10+,29.97
SBBV,2.846,-60.69,350,3,3.45,SBBV 100435Z 35003KT 9999 BKN005 FEW045TCU SCT090 24/23 Q1014,2024-08-10T04:35:00Z,24,23,6+,29.94
PAUT,54.145,-165.604,150,24,27.62,PAUT 100435Z AUTO 15024G34KT 2 1/2SM -RA OVC005 09/09 A2969 RMK AO2 P0006,2024-08-10T04:35:00Z,9,9,2.5,29.69
PAAD,70.136,-146.29,40,6,6.9,PAAD 100435Z AUTO 04006KT 5SM BR OVC001 08/08 A2974 RMK AO2 T00830078,2024-08-10T04:35:00Z,8.3,7.8,5,29.74
KZPH,28.2268,-82.1564,170,5,5.75,KZPH 100435Z AUTO 17005KT 10SM CLR 27/26 A3003 RMK A02 T02680255,2024-08-10T04:35:00Z,26.8,25.5,10+,30.03
KZER,40.7072,-76.371,280,10,11.51,KZER 100435Z AUTO 28010G15KT 10SM CLR 20/18 A2995 RMK AO2,2024-08-10T04:35:00Z,20,18,10+,29.95
KY70,42.9398,-85.0653,260,7,8.06,KY70 100435Z AUTO 26007KT 10SM CLR 15/12 A2998 RMK AO2,2024-08-10T04:35:00Z,15,12,10+,29.98
KY63,45.9891,-95.9946,0,0,0.0,KY63 100435Z AUTO 00000KT 10SM CLR 13/10 A3016 RMK AO2 T01260104,2024-08-10T04:35:00Z,12.6,10.4,10+,30.16
KY51,43.5814,-90.8997,280,4,4.6,KY51 100435Z AUTO 28004KT 10SM CLR 12/09 A3008 RMK AO2 T01230089,2024-08-10T04:35:00Z,12.3,8.9,10+,30.08
KY49,47.1599,-94.6433,280,4,4.6,KY49 100435Z AUTO 28004KT 10SM CLR 09/08 A3010 RMK AO2 T00890079,2024-08-10T04:35:00Z,8.9,7.9,10+,30.10
KY31,44.2434,-84.18,210,4,4.6,KY31 100435Z AUTO 21004KT 10SM CLR 13/12 A2992 RMK AO2 T01270115,2024-08-10T04:35:00Z,12.7,11.5,10+,29.92
KY23,45.311,-91.638,280,5,5.75,KY23 100435Z AUTO 28005KT 10SM SCT080 14/09 A3005 RMK AO2 T01400093,2024-08-10T04:35:00Z,14,9.3,10+,30.05
KY19,46.7648,-100.894,250,4,4.6,KY19 100435Z AUTO 25004KT 10SM FEW035 12/09 A3021 RMK AO2,2024-08-10T04:35:00Z,12,9,10+,30.21
KXSA,37.8606,-76.9016,0,0,0.0,KXSA 100435Z AUTO 00000KT 10SM BKN100 23/23 A2993 RMK AO2 T02310231,2024-08-10T04:35:00Z,23.1,23.1,10+,29.93
KXLL,40.5704,-75.4894,250,3,3.45,KXLL 100435Z AUTO 25003KT 10SM OVC065 24/22 A2988 RMK AO2,2024-08-10T04:35:00Z,24,22,10+,29.88
KX60,29.3524,-82.4743,150,4,4.6,KX60 100435Z AUTO 15004KT 10SM CLR 26/25 A3000 RMK AO2 T02620248,2024-08-10T04:35:00Z,26.2,24.8,10+,30.00
KX26,27.813,-80.497,0,0,0.0,KX26 100435Z AUTO 00000KT 10SM BKN110 26/24 A3004 RMK AO2 T02590243,2024-08-10T04:35:00Z,25.9,24.3,10+,30.04
KX07,27.8934,-81.6167,0,0,0.0,KX07 100435Z AUTO 00000KT 25/25 A3003 RMK A01,2024-08-10T04:35:00Z,25,25,,30.03
KWYS,44.6811,-111.124,0,0,0.0,KWYS 100435Z AUTO 00000KT 10SM BKN110 14/07 A3023 RMK AO2,2024-08-10T04:35:00Z,14,7,10+,30.23
KWWR,36.4374,-99.5234,40,5,5.75,KWWR 100435Z AUTO 04005KT 10SM BKN080 OVC100 17/10 A3027 RMK AO2,2024-08-10T04:35:00Z,17,10,10+,30.27
KWDR,33.981,-83.667,0,0,0.0,KWDR 100435Z AUTO 00000KT 10SM CLR 25/21 A3000 RMK AO2,2024-08-10T04:35:00Z,25,21,10+,30.00
KWDG,36.3781,-97.7888,40,9,10.36,KWDG 100435Z AUTO 04009KT 10SM SCT110 21/10 A3020 RMK AO2,2024-08-10T04:35:00Z,21,10,10+,30.20
KW99,38.9947,-79.1421,300,6,6.9,KW99 100435Z AUTO 30006KT 10SM FEW070 21/20 A2997 RMK AO2 T02140203,2024-08-10T04:35:00Z,21.4,20.3,10+,29.97
KW96,37.5027,-77.126,0,0,0.0,KW96 100435Z AUTO 00000KT 10SM BKN090 25/24 A2991 RMK AO1 T02480240,2024-08-10T04:35:00Z,24.8,24,10+,29.91
KW81,37.1813,-78.0977,0,0,0.0,KW81 100435Z AUTO 00000KT 10SM CLR 25/23 A2992 RMK AO1 T02470231,2024-08-10T04:35:00Z,24.7,23.1,10+,29.92
KW78,36.7087,-78.846,160,4,4.6,KW78 100435Z AUTO 16004KT 10SM SCT027 BKN090 OVC110 24/22 A2995 RMK AO1 T02350221,2024-08-10T04:35:00Z,23.5,22.1,10+,29.95
KW75,37.6024,-76.4477,220,3,3.45,KW75 100435Z AUTO 22003KT 10SM SCT011 BKN075 OVC085 A2993 RMK AO1 P0001,2024-08-10T04:35:00Z,,,10+,29.93
KW63,36.6008,-78.5559,250,4,4.6,KW63 100435Z AUTO 25004KT 10SM SCT060 OVC085 24/23 A2995 RMK AO1,2024-08-10T04:35:00Z,24,23,10+,29.95
KW43,44.6607,-104.568,190,7,8.06,KW43 100435Z AUTO 19007KT 10SM BKN060 15/08 A3025 RMK AO2,2024-08-10T04:35:00Z,15,8,10+,30.25
KW31,36.9599,-78.1838,240,3,3.45,KW31 100435Z AUTO 24003KT 10SM CLR 25/25 A2994 RMK AO1 T02500245,2024-08-10T04:35:00Z,25,24.5,10+,29.94
KW22,39.001,-80.2712,0,0,0.0,KW22 100435Z AUTO 00000KT 10SM BKN050 OVC065 21/18 A3002 RMK AO2,2024-08-10T04:35:00Z,21,18,10+,30.02
KW13,38.077,-78.944,0,0,0.0,KW13 100435Z AUTO 00000KT 10SM CLR 22/20 A2998 RMK AO1 T02200195,2024-08-10T04:35:00Z,22,19.5,10+,29.98
KVYS,41.3517,-89.1496,240,4,4.6,KVYS 100435Z AUTO 24004KT 10SM CLR 14/12 A3010 RMK AO2 T01350122,2024-08-10T04:35:00Z,13.5,12.2,10+,30.10
KVWU,48.1502,-94.512,300,7,8.06,KVWU 100435Z AUTO 30007KT 10SM OVC090 16/10 A3008 RMK AO2,2024-08-10T04:35:00Z,16,10,10+,30.08
KVVV,45.2994,-96.4256,0,0,0.0,KVVV 100435Z AUTO 00000KT 10SM CLR 13/11 A3016 RMK AO2,2024-08-10T04:35:00Z,13,11,10+,30.16
KVVS,39.9581,-79.6575,0,0,0.0,KVVS 100435Z AUTO 00000KT 10SM CLR 19/18 A2999 RMK AO2 T01940182,2024-08-10T04:35:00Z,19.4,18.2,10+,29.99
KVTP,37.512,-105.171,0,0,0.0,KVTP 100435Z AUTO 00000KT 10SM -DZ OVC010 07/06 A3071 RMK AO2 P0001,2024-08-10T04:35:00Z,7,6,10+,30.71
KVTI,42.2176,-92.0248,270,3,3.45,KVTI 100435Z AUTO 27003KT 10SM CLR 13/11 A3014 RMK AO2 T01270111,2024-08-10T04:35:00Z,12.7,11.1,10+,30.14
KVQQ,30.2035,-81.8725,83,33,37.98,KVQQ 100435Z AUTO 3.70833304KT 10SM CLR 27/26 A2999 RMK AO2,2024-08-10T04:35:00Z,27,26,10+,29.99
KVPC,34.1158,-84.8507,0,0,0.0,KVPC 100435Z AUTO 00000KT 10SM CLR 25/19 A3000 RMK AO2,2024-08-10T04:35:00Z,25,19,10+,30.00
KVNC,27.0728,-82.44,240,13,14.96,KVNC 100435Z AUTO 24013KT 10SM CLR 30/30 A3003 RMK AO2,2024-08-10T04:35:00Z,30,30,10+,30.03
KVLL,42.543,-83.178,250,4,4.6,KVLL 100435Z AUTO 25004KT 10SM CLR 18/11 A3000 RMK AO2 T01750111,2024-08-10T04:35:00Z,17.5,11.1,10+,30.00
KVKS,32.2359,-90.9269,0,0,0.0,KVKS 100435Z AUTO 00000KT 10SM CLR 23/23 A3003 RMK A01,2024-08-10T04:35:00Z,23,23,10+,30.03
KVJI,36.6871,-82.037,0,0,0.0,KVJI 100435Z AUTO 00000KT 10SM SCT046 23/17 A3008 RMK AO2 T02280165,2024-08-10T04:35:00Z,22.8,16.5,10+,30.08
KVHN,31.0602,-104.783,0,0,0.0,KVHN 100435Z AUTO 00000KT 10SM CLR 28/07 A3019 RMK AO2 T02780072,2024-08-10T04:35:00Z,27.8,7.2,10+,30.19
KVGC,42.8444,-75.5637,270,3,3.45,KVGC 100435Z AUTO 27003KT 10SM CLR 20/18 A2987 RMK AO2,2024-08-10T04:35:00Z,20,18,10+,29.87
KVES,40.2056,-84.5346,280,3,3.45,KVES 100435Z AUTO 28003KT 7SM CLR 14/12 A3006 RMK AO2,2024-08-10T04:35:00Z,14,12,7,30.06
KVER,38.9496,-92.6842,0,0,0.0,KVER 100435Z AUTO 00000KT 10SM CLR 16/14 A3020 RMK AO2 T01620141 TSNO,2024-08-10T04:35:00Z,16.2,14.1,10+,30.20
KVDI,32.1933,-82.3642,190,3,3.45,KVDI 100435Z AUTO 19003KT 10SM BKN050 27/24 A2996 RMK AO2,2024-08-10T04:35:00Z,27,24,10+,29.96
KVDF,28.0198,-82.3415,,,,KVDF 100435Z AUTO 10SM BKN022 BKN038 BKN055 28/26 A3002 RMK AO2,2024-08-10T04:35:00Z,28,26,10+,30.02
KVCV,34.5933,-117.389,230,12,13.81,KVCV 100435Z AUTO 23012KT 10SM CLR 31/04 A2997 RMK AO2,2024-08-10T04:35:00Z,31,4,10+,29.97
KVBW,38.366,-78.968,0,0,0.0,KVBW 100435Z AUTO 00000KT 10SM CLR 21/21 A2997 RMK AO1 T02130213,2024-08-10T04:35:00Z,21.3,21.3,10+,29.97
KVBG,34.733,-120.583,340,6,6.9,KVBG 100435Z AUTO 34006KT 1 1/8SM BR VV001 12/12 A2993 RMK AO2 VIS 1/2 RWY30 SLP138 TSNO $,2024-08-10T04:35:00Z,12,12,1.13,29.93
KVAF,27.3536,-94.6253,50,8,9.21,KVAF 100435Z AUTO 05008KT 8SM CLR 30/25 A3003 RMK A01,2024-08-10T04:35:00Z,30,25,8,30.03
KUYF,39.9312,-83.465,330,5,5.75,KUYF 100435Z AUTO 33005KT 10SM 17/12 A3006 RMK AO2,2024-08-10T04:35:00Z,17,12,10+,30.06
KUXL,30.135,-93.3767,30,4,4.6,KUXL 100435Z AUTO 03004KT 10SM CLR 29/22 A3003 RMK AO2 T02880222,2024-08-10T04:35:00Z,28.8,22.2,10+,30.03
KUWL,39.8752,-85.3313,300,6,6.9,KUWL 100435Z AUTO 30006KT 10SM CLR 15/14 A3008 RMK A01,2024-08-10T04:35:00Z,15,14,10+,30.08
KUVA,29.2135,-99.743,120,9,10.36,KUVA 100435Z AUTO 12009KT 10SM CLR 31/19 A3006 RMK AO2 T03130186,2024-08-10T04:35:00Z,31.3,18.6,10+,30.06
KUUV,38.2335,-91.1609,0,0,0.0,KUUV 100435Z AUTO 00000KT 10SM CLR 17/14 A3020 RMK AO2,2024-08-10T04:35:00Z,17,14,10+,30.20
KUTA,34.6766,-90.344,360,5,5.75,KUTA 100435Z AUTO 36005KT 10SM CLR 21/21 A3007 RMK AO2 T02070205 $,2024-08-10T04:35:00Z,20.7,20.5,10+,30.07
KUSE,41.6118,-84.1275,0,0,0.0,KUSE 100435Z AUTO 00000KT 10SM SCT055 14/14 A3001 RMK AO2,2024-08-10T04:35:00Z,14,14,10+,30.01
KUOX,34.3851,-89.5435,10,4,4.6,KUOX 100435Z AUTO 01004KT 10SM CLR 22/18 A3008 RMK AO2 PWINO,2024-08-10T04:35:00Z,22,18,10+,30.08
KUNV,40.8534,-77.8401,0,0,0.0,KUNV 100435Z AUTO 00000KT 10SM 19/17 A2996 RMK AO2 T01880173,2024-08-10T04:35:00Z,18.8,17.3,10+,29.96
KUNU,43.4285,-88.7017,250,5,5.75,KUNU 100435Z AUTO 25005KT 10SM SCT050 OVC070 13/11 A3005 RMK AO2 T01330112,2024-08-10T04:35:00Z,13.3,11.2,10+,30.05
KUNI,39.2129,-82.2204,0,0,0.0,KUNI 100435Z AUTO 00000KT 10SM SCT050 20/16 A3002 RMK AO2 T01990156,2024-08-10T04:35:00Z,19.9,15.6,10+,30.02
KUMP,39.936,-86.0478,300,7,8.06,KUMP 100435Z AUTO 30007KT 10SM CLR 17/13 A3009 RMK AO2 T01700131,2024-08-10T04:35:00Z,17,13.1,10+,30.09
KULS,37.6037,-101.377,150,5,5.75,KULS 100435Z AUTO 15005G11KT 10SM OVC023 15/11 A3027 RMK AO2,2024-08-10T04:35:00Z,15,11,10+,30.27
KULM,44.3228,-94.5024,280,6,6.9,KULM 100435Z AUTO 28006KT 10SM CLR 12/09 A3015 RMK AO2,2024-08-10T04:35:00Z,12,9,10+,30.15
KUKT,40.4368,-75.3802,0,0,0.0,KUKT 100435Z AUTO 00000KT 10SM FEW060 OVC070 23/23 A2988 RMK AO2,2024-08-10T04:35:00Z,23,23,10+,29.88
KUKL,38.3041,-95.7217,0,0,0.0,KUKL 100435Z AUTO 00000KT 10SM CLR 16/14 A3024 RMK AO2 T01550136,2024-08-10T04:35:00Z,15.5,13.6,10+,30.24
KUES,43.0425,-88.2465,250,4,4.6,KUES 100435Z AUTO 25004KT 10SM SCT055 SCT070 12/10 A3005 RMK AO2,2024-08-10T04:35:00Z,12,10,10+,30.05
KUBE,45.5046,-91.978,300,6,6.9,KUBE 100435Z AUTO 30006KT 10SM SCT080 13/08 A3006 RMK AO2,2024-08-10T04:35:00Z,13,8,10+,30.06
KU69,40.198,-110.387,110,9,10.36,KU69 100435Z AUTO 11009KT 10SM CLR 19/09 A3023 RMK A01,2024-08-10T04:35:00Z,19,9,10+,30.23
KU68,44.9113,-108.447,0,0,0.0,KU68 100435Z AUTO 00000KT 10SM CLR 17/06 A3016 RMK AO2,2024-08-10T04:35:00Z,17,6,10+,30.16
KU64,37.9333,-109.34,0,0,0.0,KU64 100435Z AUTO 00000KT 10SM FEW080 BKN120 OVC140 19/11 A3037 RMK AO2 T01870110 $,2024-08-10T04:35:00Z,18.7,11,10+,30.37
KU52,38.232,-112.672,120,9,10.36,KU52 100435Z AUTO 12009KT 10SM FEW038 SCT050 BKN060 18/14 A3023 RMK AO2 PWINO,2024-08-10T04:35:00Z,18,14,10+,30.23
KU42,40.6196,-111.99,0,0,0.0,KU42 100435Z AUTO 00000KT 10SM CLR 25/07 A3007 RMK AO1 T02470068,2024-08-10T04:35:00Z,24.7,6.8,10+,30.07
KTZR,39.8988,-83.1357,340,9,10.36,KTZR 100435Z AUTO 34009KT 10SM CLR 18/13 A3004 RMK AO2 T01830125,2024-08-10T04:35:00Z,18.3,12.5,10+,30.04
KTYQ,40.0345,-86.2488,290,4,4.6,KTYQ 100435Z AUTO 29004KT 10SM CLR 15/12 A3010 RMK AO2 T01450123,2024-08-10T04:35:00Z,14.5,12.3,10+,30.10
KTYL,34.4577,-110.112,0,0,0.0,KTYL 100435Z AUTO 00000KT 10SM FEW049 23/11 A3026 RMK AO2,2024-08-10T04:35:00Z,23,11,10+,30.26
KTXW,26.1824,-97.9742,120,5,5.75,KTXW 100435Z AUTO 12005KT 10SM CLR 29/24 A3003 RMK AO2 T02870236,2024-08-10T04:35:00Z,28.7,23.6,10+,30.03
KTWT,37.5432,-87.9568,330,3,3.45,KTWT 100435Z AUTO 33003KT 10SM CLR 19/15 A3012 RMK AO2,2024-08-10T04:35:00Z,19,15,10+,30.12
KTWM,47.0192,-91.7447,310,8,9.21,KTWM 100435Z AUTO 31008KT 171V351 10SM OVC025 12/09 A2998 RMK AO2,2024-08-10T04:35:00Z,12,9,10+,29.98
KTVY,40.6127,-112.354,160,4,4.6,KTVY 100435Z AUTO 16004KT 10SM CLR 24/08 A3003 RMK AO2,2024-08-10T04:35:00Z,24,8,10+,30.03
KTVK,40.6832,-92.8984,0,0,0.0,KTVK 100435Z AUTO 00000KT 10/10 A3019 RMK A01,2024-08-10T04:35:00Z,10,10,,30.19
KTVI,30.9026,-83.8826,210,4,4.6,KTVI 100435Z AUTO 21004KT 10SM SCT049 25/24 A2997 RMK AO2,2024-08-10T04:35:00Z,25,24,10+,29.97
KTTF,41.9371,-83.4332,230,4,4.6,KTTF 100435Z AUTO 23004KT 10SM CLR 14/12 A2999 RMK AO2 T01430123,2024-08-10T04:35:00Z,14.3,12.3,10+,29.99
KTSP,35.1387,-118.442,290,10,11.51,KTSP 100435Z AUTO 29010KT 10SM CLR 25/M01 A3011 RMK AO2,2024-08-10T04:35:00Z,25,-1,10+,30.11
KTRK,39.3154,-120.137,160,4,4.6,KTRK 100435Z AUTO 16004KT 10SM CLR 17/03 A3023 RMK AO2,2024-08-10T04:35:00Z,17,3,10+,30.23
KTQV,36.007,-78.937,220,6,6.9,KTQV 100435Z AUTO 22006KT 10SM CLR 24/22 A2994 RMK A01,2024-08-10T04:35:00Z,24,22,10+,29.94
KTQH,35.9304,-95.0025,10,5,5.75,KTQH 100435Z AUTO 01005KT 10SM CLR 21/12 A3016 RMK AO2,2024-08-10T04:35:00Z,21,12,10+,30.16
KTPF,27.9153,-82.4518,210,8,9.21,KTPF 100435Z AUTO 21008KT 10SM BKN020 29/26 A3002 RMK AO2,2024-08-10T04:35:00Z,29,26,10+,30.02
KTOC,34.588,-83.2974,30,4,4.6,KTOC 100435Z AUTO 03004KT 10SM CLR 26/21 A2998 RMK AO2 LTG DSNT NE T02580209,2024-08-10T04:35:00Z,25.8,20.9,10+,29.98
KTOB,44.0202,-92.8295,0,0,0.0,KTOB 100435Z AUTO 00000KT 10SM CLR 12/10 A3012 RMK AO2,2024-08-10T04:35:00Z,12,10,10+,30.12
KTNU,41.6701,-93.019,270,5,5.75,KTNU 100435Z AUTO 27005KT 10SM CLR 13/13 A3016 RMK A01,2024-08-10T04:35:00Z,13,13,10+,30.16
KTNB,36.1988,-81.6515,280,5,5.75,KTNB 100435Z AUTO 28005KT 10SM CLR 19/19 A2996 RMK AO2 T01930190,2024-08-10T04:35:00Z,19.3,19,10+,29.96
KTMT,39.4643,-117.197,150,3,3.45,KTMT 100435Z AUTO 15003KT 10SM CLR 18/00 A3016 RMK AO2 T01750004,2024-08-10T04:35:00Z,17.5,0.4,10+,30.16
KTMK,45.421,-123.814,0,0,0.0,KTMK 100435Z AUTO 00000KT 10SM OVC011 17/17 A3004 RMK AO2,2024-08-10T04:35:00Z,17,17,10+,30.04
KTME,29.806,-95.903,0,0,0.0,KTME 100435Z AUTO 00000KT 10SM FEW065 28/25 A3006 RMK AO2,2024-08-10T04:35:00Z,28,25,10+,30.06
KTMA,31.4229,-83.4859,0,0,0.0,KTMA 100435Z AUTO 00000KT 10SM CLR 26/26 A2997 RMK AO2 T02640257,2024-08-10T04:35:00Z,26.4,25.7,10+,29.97
KTKX,36.2226,-90.0367,20,7,8.06,KTKX 100435Z AUTO 02007KT 5SM HZ CLR 21/15 A3010 RMK AO2,2024-08-10T04:35:00Z,21,15,5,30.10
KTKV,45.469,-89.805,270,7,8.06,KTKV 100435Z AUTO 27007KT 10SM OVC030 11/09 A2999 RMK AO2 T01100091 PWINO,2024-08-10T04:35:00Z,11,9.1,10+,29.99
KTKC,44.25,-95.612,270,8,9.21,KTKC 100435Z AUTO 27008KT 10SM CLR 13/12 A3017 RMK AO2,2024-08-10T04:35:00Z,13,12,10+,30.17
KTIP,40.291,-88.146,0,0,0.0,KTIP 100435Z AUTO 00000KT 10SM CLR 13/12 A3012 RMK AO2 T01290121,2024-08-10T04:35:00Z,12.9,12.1,10+,30.12
KTIF,41.9646,-100.569,220,5,5.75,KTIF 100435Z AUTO 22005KT 10SM OVC070 16/10 A3027 RMK AO2 T01550102,2024-08-10T04:35:00Z,15.5,10.2,10+,30.27
KTHA,35.3804,-86.2419,360,7,8.06,KTHA 100435Z AUTO 36007KT 10SM CLR 22/19 A3005 RMK A01,2024-08-10T04:35:00Z,22,19,10+,30.05
KTGI,37.8279,-75.9964,230,11,12.66,KTGI 100435Z AUTO 23011G15KT 7SM SCT060 OVC080 25/25 A2991 RMK AO1 P0008 T02530248,2024-08-10T04:35:00Z,25.3,24.8,7,29.91
KTFP,27.9132,-97.2132,60,3,3.45,KTFP 100435Z AUTO 06003KT 7SM CLR 28/25 A3002 RMK AO1 T02840248,2024-08-10T04:35:00Z,28.4,24.8,7,30.02
KTEX,37.954,-107.909,290,7,8.06,KTEX 100435Z AUTO 29007KT 7SM RA SCT018 BKN036 OVC070 11/10 A3054 RMK AO2 P0008,2024-08-10T04:35:00Z,11,10,7,30.54
KTEW,42.5636,-84.4222,230,3,3.45,KTEW 100435Z AUTO 23003KT 10SM SCT060 15/12 A2999 RMK AO2 T01540118,2024-08-10T04:35:00Z,15.4,11.8,10+,29.99
KTCY,37.6919,-121.444,VRB,4,4.6,KTCY 100435Z AUTO VRB04KT 10SM CLR 27/M03 A2984 RMK A01,2024-08-10T04:35:00Z,27,-3,10+,29.84
KTBR,32.48,-81.738,0,0,0.0,KTBR 100435Z AUTO 00000KT 10SM CLR 26/23 A2995 RMK AO2 T02640230,2024-08-10T04:35:00Z,26.4,23,10+,29.95
KTAZ,39.535,-89.3294,260,4,4.6,KTAZ 100435Z AUTO 26004KT 10SM CLR 14/13 A3014 RMK AO2 T01410130,2024-08-10T04:35:00Z,14.1,13,10+,30.14
KT89,29.2774,-103.691,120,11,12.66,KT89 100435Z AUTO 12011G16KT 10SM CLR 31/12 A3004 RMK A01,2024-08-10T04:35:00Z,31,12,10+,30.04
KT82,30.239,-98.904,60,3,3.45,KT82 100435Z AUTO 06003KT 10SM -TSRA BKN048 BKN050 BKN100 27/20 A3013 RMK AO2 LTG DSNT ALQS T02680197,2024-08-10T04:35:00Z,26.8,19.7,10+,30.13
KT78,30.0754,-94.6996,50,4,4.6,KT78 100435Z AUTO 05004KT 10SM CLR 28/23 A3001 RMK AO2,2024-08-10T04:35:00Z,28,23,10+,30.01
KT74,30.5704,-97.4447,0,0,0.0,KT74 100435Z AUTO 00000KT 10SM CLR 27/22 A3008 RMK AO2 T02700224,2024-08-10T04:35:00Z,27,22.4,10+,30.08
KT69,28.0418,-97.541,60,4,4.6,KT69 100435Z AUTO 06004KT 10SM CLR 27/25 A3003 RMK A01,2024-08-10T04:35:00Z,27,25,10+,30.03
KT41,29.6709,-95.0644,0,0,0.0,KT41 100435Z AUTO 00000KT 10SM CLR 29/25 A3003 RMK AO2 T02860254,2024-08-10T04:35:00Z,28.6,25.4,10+,30.03
KT35,30.8789,-96.9704,0,0,0.0,KT35 100435Z AUTO 00000KT 10SM CLR 28/24 A3006 RMK AO2 T02750238,2024-08-10T04:35:00Z,27.5,23.8,10+,30.06
KT20,29.5301,-97.463,120,3,3.45,KT20 100435Z AUTO 12003KT 10SM CLR 25/24 A3003 RMK AO2 LTG DSNT SE P0005 T02460236,2024-08-10T04:35:00Z,24.6,23.6,10+,30.03
KSZY,35.2064,-88.5012,10,5,5.75,KSZY 100435Z AUTO 01005KT 10SM CLR 22/16 A3008 RMK A01,2024-08-10T04:35:00Z,22,16,10+,30.08
KSZT,48.2945,-116.567,0,0,0.0,KSZT 100435Z AUTO 00000KT 10SM CLR 17/10 A2997 RMK AO2,2024-08-10T04:35:00Z,17,10,10+,29.97
KSYN,44.474,-93.014,260,3,3.45,KSYN 100435Z AUTO 26003KT 10SM CLR 13/10 A3011 RMK AO2 T01280102,2024-08-10T04:35:00Z,12.8,10.2,10+,30.11
KSYM,38.2199,-83.5835,330,4,4.6,KSYM 100435Z AUTO 33004KT 10SM FEW044 OVC055 22/17 A3005 RMK AO2,2024-08-10T04:35:00Z,22,17,10+,30.05
KSYI,35.5594,-86.4406,360,7,8.06,KSYI 100435Z AUTO 36007KT 10SM CLR 22/18 A3006 RMK A01,2024-08-10T04:35:00Z,22,18,10+,30.06
KSYF,39.7583,-101.793,140,7,8.06,KSYF 100435Z AUTO 14007KT 10SM OVC024 13/11 A3029 RMK AO2,2024-08-10T04:35:00Z,13,11,10+,30.29
KSXU,34.9355,-104.637,130,11,12.66,KSXU 100435Z AUTO 13011G16KT 10SM SCT120 23/15 A3026 RMK AO2 LTG DSNT NE AND E T02260154 PWINO,2024-08-10T04:35:00Z,22.6,15.4,10+,30.26
KSXK,42.9895,-96.1645,340,4,4.6,KSXK 100435Z AUTO 34004KT 10SM FEW050 SCT055 14/10 A3017 RMK AO2,2024-08-10T04:35:00Z,14,10,10+,30.17
KSWW,32.4688,-100.467,110,12,13.81,KSWW 100435Z AUTO 11012KT 10SM 29/20 A3018 RMK AO2 T02850195,2024-08-10T04:35:00Z,28.5,19.5,10+,30.18
KSVC,32.631,-108.147,80,8,9.21,KSVC 100435Z AUTO 08008KT 10SM CLR 26/07 A3020 RMK AO2 T02620070,2024-08-10T04:35:00Z,26.2,7,10+,30.20
KSUZ,34.5862,-92.4802,20,4,4.6,KSUZ 100435Z AUTO 02004KT 10SM CLR 23/22 A3008 RMK A01,2024-08-10T04:35:00Z,23,22,10+,30.08
KSUW,46.6833,-92.0926,310,8,9.21,KSUW 100435Z AUTO 31008KT 10SM OVC034 15/09 A3002 RMK AO2 T01450085,2024-08-10T04:35:00Z,14.5,8.5,10+,30.02
KSUA,27.1815,-80.2252,210,6,6.9,KSUA 100435Z AUTO 21006KT 10SM CLR 28/26 A3004 RMK AO2,2024-08-10T04:35:00Z,28,26,10+,30.04
KSTK,40.6133,-103.261,100,8,9.21,KSTK 100435Z AUTO 10008KT 10SM OVC023 14/12 A3025 RMK AO2,2024-08-10T04:35:00Z,14,12,10+,30.25
KSTF,33.4326,-88.8506,330,3,3.45,KSTF 100435Z AUTO 33003KT 10SM CLR 25/20 A3002 RMK AO2,2024-08-10T04:35:00Z,25,20,10+,30.02
KSTE,44.5437,-89.5347,260,6,6.9,KSTE 100435Z AUTO 26006KT 10SM 14/10 A3002 RMK AO2 T01350101,2024-08-10T04:35:00Z,13.5,10.1,10+,30.02
KSSI,31.1527,-81.3905,220,6,6.9,KSSI 100435Z AUTO 22006KT 10SM CLR 28/26 A2996 RMK AO2,2024-08-10T04:35:00Z,28,26,10+,29.96
KSRR,33.4667,-105.528,160,7,8.06,KSRR 100435Z AUTO 16007KT 10SM FEW060 20/08 A3041 RMK AO2,2024-08-10T04:35:00Z,20,8,10+,30.41
KSRE,35.271,-96.675,20,7,8.06,KSRE 100435Z AUTO 02007G12KT 10SM CLR 23/09 A3014 RMK AO2,2024-08-10T04:35:00Z,23,9,10+,30.14
KSQL,37.5119,-122.248,310,8,9.21,KSQL 100435Z AUTO 31008KT 10SM CLR 16/11 A2996 RMK AO2,2024-08-10T04:35:00Z,16,11,10+,29.96
KSPK,40.1497,-111.677,140,11,12.66,KSPK 100435Z AUTO 14011KT 10SM SCT050 26/07 A3006 RMK AO2,2024-08-10T04:35:00Z,26,7,10+,30.06
KSPF,44.4811,-103.788,180,6,6.9,KSPF 100435Z AUTO 18006KT 10SM FEW075 14/08 A3023 RMK AO2,2024-08-10T04:35:00Z,14,8,10+,30.23
KSOW,34.2686,-110.002,0,0,0.0,KSOW 100435Z AUTO 00000KT 10SM CLR 20/11 A3030 RMK AO2,2024-08-10T04:35:00Z,20,11,10+,30.30
KSOA,30.5853,-100.651,80,4,4.6,KSOA 100435Z AUTO 08004KT 10SM CLR 29/16 A3016 RMK AO2,2024-08-10T04:35:00Z,29,16,10+,30.16
KSNL,35.3611,-96.9445,10,6,6.9,KSNL 100435Z AUTO 01006KT 10SM CLR 23/09 A3017 RMK AO2 T02290091,2024-08-10T04:35:00Z,22.9,9.1,10+,30.17
KSNK,32.6917,-100.951,90,12,13.81,KSNK 100435Z AUTO 09012G15KT 10SM OVC048 30/18 A3016 RMK AO2 T02950177,2024-08-10T04:35:00Z,29.5,17.7,10+,30.16
KSNH,35.1731,-88.2146,10,5,5.75,KSNH 100435Z AUTO 01005KT 10SM CLR 22/21 A3005 RMK A01,2024-08-10T04:35:00Z,22,21,10+,30.05
KSNC,41.383,-72.506,180,10,11.51,KSNC 100435Z AUTO 18010G17KT 3SM -RA OVC003 23/23 A2985 RMK AO2,2024-08-10T04:35:00Z,23,23,3,29.85
KSMS,34.0003,-80.3582,0,0,0.0,KSMS 100435Z AUTO 00000KT 6SM BR FEW043 FEW050 SCT060 25/25 A2995 RMK AO2,2024-08-10T04:35:00Z,25,25,6,29.95
KSME,37.0529,-84.6141,330,3,3.45,KSME 100435Z AUTO 33003KT 10SM SCT048 BKN055 23/20 A3004 RMK AO2,2024-08-10T04:35:00Z,23,20,10+,30.04
KSMD,41.144,-85.1492,280,6,6.9,KSMD 100435Z AUTO 28006KT 8SM SCT041 BKN050 16/13 A3005 RMK A01,2024-08-10T04:35:00Z,16,13,8,30.05
KSLR,33.1615,-95.6189,180,4,4.6,KSLR 100435Z AUTO 18004KT 10SM CLR 28/21 A3009 RMK AO2 T02750206,2024-08-10T04:35:00Z,27.5,20.6,10+,30.09
KSLO,38.6446,-88.9612,0,0,0.0,KSLO 100435Z AUTO 00000KT 10SM CLR 16/15 A3014 RMK AO2 T01620145,2024-08-10T04:35:00Z,16.2,14.5,10+,30.14
KSLH,45.6523,-84.5202,250,3,3.45,KSLH 100435Z AUTO 25003KT 10SM CLR 14/13 A2985 RMK AO2,2024-08-10T04:35:00Z,14,13,10+,29.85
KSLB,42.5972,-95.2399,270,6,6.9,KSLB 100435Z AUTO 27006KT 11/10 A3019 RMK AO2,2024-08-10T04:35:00Z,11,10,,30.19
KSJX,45.6928,-85.5662,280,8,9.21,KSJX 100435Z AUTO 28008KT 10SM CLR 16/11 A2987 RMK AO2 T01580108,2024-08-10T04:35:00Z,15.8,10.8,10+,29.87
KSJS,37.7489,-82.6413,0,0,0.0,KSJS 100435Z AUTO 00000KT 10SM CLR 23/17 A3003 RMK AO2 T02320172,2024-08-10T04:35:00Z,23.2,17.2,10+,30.03
KSIK,36.9027,-89.5577,10,5,5.75,KSIK 100435Z AUTO 01005KT 9SM CLR 20/14 A3012 RMK AO2 T01980137,2024-08-10T04:35:00Z,19.8,13.7,9,30.12
KSHL,43.2082,-95.8354,0,0,0.0,KSHL 100435Z AUTO 00000KT 10SM CLR 10/10 A3017 RMK AO2,2024-08-10T04:35:00Z,10,10,10+,30.17
KSHD,38.2601,-78.9013,,,,KSHD 100435Z AUTO 10SM CLR 22/21 A2999 RMK AO2 T02200206,2024-08-10T04:35:00Z,22,20.6,10+,29.99
KSGS,44.8601,-93.0321,270,7,8.06,KSGS 100435Z AUTO 27007KT 10SM CLR 16/09 A3010 RMK AO2 T01600085,2024-08-10T04:35:00Z,16,8.5,10+,30.10
KSFQ,36.6825,-76.6013,180,4,4.6,KSFQ 100435Z AUTO 18004KT 10SM 25/25 A2994 RMK AO2 T02470246,2024-08-10T04:35:00Z,24.7,24.6,10+,29.94
KSEZ,34.8467,-111.788,0,0,0.0,KSEZ 100435Z AUTO 00000KT 10SM CLR 28/12 A3014 RMK AO2,2024-08-10T04:35:00Z,28,12,10+,30.14
KSEP,32.215,-98.1793,0,0,0.0,KSEP 100435Z AUTO 00000KT 10SM CLR 26/21 A3014 RMK AO2 T02560211,2024-08-10T04:35:00Z,25.6,21.1,10+,30.14
KSEF,27.4553,-81.3415,180,4,4.6,KSEF 100435Z AUTO 18004KT 10SM CLR 27/25 A3004 RMK AO2 T02680249,2024-08-10T04:35:00Z,26.8,24.9,10+,30.04
KSEE,32.8273,-116.974,310,5,5.75,KSEE 100435Z AUTO 31005KT 10SM CLR 21/17 A2988 RMK AO2,2024-08-10T04:35:00Z,21,17,10+,29.88
KSDC,43.2355,-77.1201,0,0,0.0,KSDC 100435Z AUTO 00000KT 10SM SCT033 SCT040 BKN055 21/16 A2988 RMK AO2,2024-08-10T04:35:00Z,21,16,10+,29.88
KSDA,40.7533,-95.4112,0,0,0.0,KSDA 100435Z AUTO 00000KT 10SM CLR 12/12 A3020 RMK AO2,2024-08-10T04:35:00Z,12,12,10+,30.20
KSCX,36.4553,-84.584,0,0,0.0,KSCX 100435Z AUTO 00000KT 10SM FEW036 SCT044 21/19 A3008 RMK A01,2024-08-10T04:35:00Z,21,19,10+,30.08
KSCD,33.1732,-86.2933,0,0,0.0,KSCD 100435Z AUTO 00000KT 10SM SCT075 BKN095 OVC110 23/21 A3000 RMK AO2 T02340213,2024-08-10T04:35:00Z,23.4,21.3,10+,30.00
KSBX,48.541,-111.871,80,11,12.66,KSBX 100435Z AUTO 08011KT 10SM BKN075 OVC090 18/07 A3018 RMK AO2,2024-08-10T04:35:00Z,18,7,10+,30.18
KSBS,40.5153,-106.868,0,0,0.0,KSBS 100435Z AUTO 00000KT 10SM CLR 12/12 A3034 RMK AO1 T01220120,2024-08-10T04:35:00Z,12.2,12,10+,30.34
KSBO,32.6111,-82.3702,190,3,3.45,KSBO 100435Z AUTO 19003KT 10SM CLR 26/24 A2996 RMK AO2,2024-08-10T04:35:00Z,26,24,10+,29.96
KSAZ,46.3785,-94.8017,290,5,5.75,KSAZ 100435Z AUTO 29005KT 10SM CLR 11/08 A3012 RMK AO2,2024-08-10T04:35:00Z,11,8,10+,30.12
KSAR,38.1463,-89.7025,350,5,5.75,KSAR 100435Z AUTO 35005KT 10SM CLR 18/14 A3017 RMK AO2 T01760143,2024-08-10T04:35:00Z,17.6,14.3,10+,30.17
KSAA,41.447,-106.815,180,13,14.96,KSAA 100435Z AUTO 18013KT 10SM SCT110 11/11 A3035 RMK AO2,2024-08-10T04:35:00Z,11,11,10+,30.35
KS52,48.4282,-120.15,110,3,3.45,KS52 100435Z AUTO 11003KT 10SM CLR 18/16 A3005 RMK AO2 T01840162,2024-08-10T04:35:00Z,18.4,16.2,10+,30.05
KS39,44.2858,-120.901,20,4,4.6,KS39 100435Z AUTO 02004KT 10SM OVC100 24/03 A3002 RMK AO2,2024-08-10T04:35:00Z,24,3,10+,30.02
KS34,47.4718,-114.901,0,0,0.0,KS34 100435Z AUTO 00000KT 10SM CLR 21/10 A3000 RMK AO2,2024-08-10T04:35:00Z,21,10,10+,30.00
KS33,44.6653,-121.157,20,7,8.06,KS33 100435Z AUTO 02007KT 10SM CLR 23/03 A3000 RMK AO2,2024-08-10T04:35:00Z,23,3,10+,30.00
KS32,47.424,-98.11,270,5,5.75,KS32 100435Z AUTO 27005KT 10SM 10/10 A3017 RMK AO2 TSNO,2024-08-10T04:35:00Z,10,10,10+,30.17
KS25,47.7954,-103.257,0,0,0.0,KS25 100435Z AUTO 00000KT 10SM FEW060 SCT075 11/06 A3021 RMK AO2,2024-08-10T04:35:00Z,11,6,10+,30.21
KS24,41.296,-83.037,250,6,6.9,KS24 100435Z AUTO 25006KT 10SM CLR 14/14 A3002 RMK AO2,2024-08-10T04:35:00Z,14,14,10+,30.02
KS21,43.8801,-121.454,0,0,0.0,KS21 100435Z AUTO 00000KT 7SM OVC080 17/10 A3012 RMK AO2,2024-08-10T04:35:00Z,17,10,7,30.12
KS12,44.6394,-123.058,0,0,0.0,KS12 100435Z 00000KT 10SM CLR 22/15 A2995 RMK AO2 CAUTION: LG BIRDS IN VICINITY OF AIRPORT,2024-08-10T04:35:00Z,22,15,10+,29.95
KRZT,39.4402,-83.0209,310,6,6.9,KRZT 100435Z AUTO 31006KT 10SM CLR 18/14 A3004 RMK AO2 PWINO,2024-08-10T04:35:00Z,18,14,10+,30.04
KRZR,35.207,-84.8005,0,0,0.0,KRZR 100435Z AUTO 00000KT 10SM CLR 23/20 A3000 RMK A01,2024-08-10T04:35:00Z,23,20,10+,30.00
KRZL,40.9488,-87.1851,260,4,4.6,KRZL 100435Z AUTO 26004KT 10SM CLR 13/12 A3010 RMK AO2,2024-08-10T04:35:00Z,13,12,10+,30.10
KRYW,30.498,-97.969,0,0,0.0,KRYW 100435Z AUTO 00000KT 10SM CLR 27/21 A3013 RMK AO2 LTG DSNT SW T02660208,2024-08-10T04:35:00Z,26.6,20.8,10+,30.13
KRWV,30.5161,-96.7051,250,3,3.45,KRWV 100435Z AUTO 25003KT 10SM CLR 27/23 A3007 RMK AO2 T02730232,2024-08-10T04:35:00Z,27.3,23.2,10+,30.07
KRVL,40.6768,-77.6251,0,0,0.0,KRVL 100435Z AUTO 00000KT 10SM CLR 21/17 A2993 RMK AO2,2024-08-10T04:35:00Z,21,17,10+,29.93
KRVJ,32.059,-82.153,0,0,0.0,KRVJ 100435Z AUTO 00000KT 10SM SCT090 27/25 A2996 RMK AO2 T02680255,2024-08-10T04:35:00Z,26.8,25.5,10+,29.96
KRVF,45.534,-112.303,50,8,9.21,KRVF 100435Z AUTO 05008KT 10SM SCT110 17/06 A3013 RMK AO2,2024-08-10T04:35:00Z,17,6,10+,30.13
KRTS,39.6658,-119.873,240,7,8.06,KRTS 100435Z AUTO 24007KT 10SM CLR 24/02 A3016 RMK AO2,2024-08-10T04:35:00Z,24,2,10+,30.16
KRSN,32.5159,-92.5899,0,0,0.0,KRSN 100435Z AUTO 00000KT 9SM 23/22 A3006 RMK AO2 T02300220 $,2024-08-10T04:35:00Z,23,22,9,30.06
KRRT,48.9318,-95.3405,300,5,5.75,KRRT 100435Z AUTO 30005KT 10SM CLR 12/09 A3009 RMK AO2,2024-08-10T04:35:00Z,12,9,10+,30.09
KRQB,43.722,-85.498,240,5,5.75,KRQB 100435Z AUTO 24005KT 10SM CLR 15/11 A2996 RMK AO2 T01460113,2024-08-10T04:35:00Z,14.6,11.3,10+,29.96
KRPJ,41.8906,-89.0817,260,5,5.75,KRPJ 100435Z AUTO 26005KT 10SM CLR 12/11 A3009 RMK AO2 T01170107,2024-08-10T04:35:00Z,11.7,10.7,10+,30.09
KRPH,33.1096,-98.5537,0,0,0.0,KRPH 100435Z AUTO 00000KT 10SM CLR 26/20 A3011 RMK AO2 T02570205,2024-08-10T04:35:00Z,25.7,20.5,10+,30.11
KRPD,45.4186,-91.7764,270,5,5.75,KRPD 100435Z AUTO 27005KT 10SM SCT080 13/08 A3006 RMK AO2 T01270082,2024-08-10T04:35:00Z,12.7,8.2,10+,30.06
KROX,48.856,-95.6949,290,6,6.9,KROX 100435Z AUTO 29006KT 10SM CLR 12/09 A3010 RMK AO2,2024-08-10T04:35:00Z,12,9,10+,30.10
KROS,45.6962,-92.9543,290,3,3.45,KROS 100435Z AUTO 29003KT 10SM BKN120 13/08 A3008 RMK AO2 T01250083,2024-08-10T04:35:00Z,12.5,8.3,10+,30.08
KRNV,33.762,-90.759,360,5,5.75,KRNV 100435Z AUTO 36005KT 10SM CLR 23/22 A3005 RMK AO2 T02260216 $,2024-08-10T04:35:00Z,22.6,21.6,10+,30.05
KRNP,42.9937,-84.1347,240,3,3.45,KRNP 100435Z AUTO 24003KT 10SM BKN065 17/12 A2998 RMK AO2 T01650116,2024-08-10T04:35:00Z,16.5,11.6,10+,29.98
KRNC,35.6991,-85.8402,20,4,4.6,KRNC 100435Z AUTO 02004KT 10SM FEW037 FEW043 22/20 A3006 RMK A01,2024-08-10T04:35:00Z,22,20,10+,30.06
KRMY,42.2524,-84.9526,250,4,4.6,KRMY 100435Z AUTO 25004KT 10SM SCT035 BKN050 OVC060 16/13 A3002 RMK AO2 T01560125,2024-08-10T04:35:00Z,15.6,12.5,10+,30.02
KRMN,38.3941,-77.4523,0,0,0.0,KRMN 100435Z AUTO 00000KT 7SM SCT070 BKN090 24/23 A2992 RMK AO2 T02420225,2024-08-10T04:35:00Z,24.2,22.5,7,29.92
KRLD,46.3086,-119.306,320,13,14.96,KRLD 100435Z AUTO 32013KT 10SM CLR 30/09 A2987 RMK AO2 T03010093,2024-08-10T04:35:00Z,30.1,9.3,10+,29.87
KRKW,35.922,-84.689,350,5,5.75,KRKW 100435Z AUTO 35005KT 10SM CLR 22/19 A3007 RMK A01,2024-08-10T04:35:00Z,22,19,10+,30.07
KRKR,35.0187,-94.6202,360,6,6.9,KRKR 100435Z AUTO 36006KT 10SM CLR 27/11 A3010 RMK AO2,2024-08-10T04:35:00Z,27,11,10+,30.10
KRGK,44.5927,-92.4844,270,4,4.6,KRGK 100435Z AUTO 27004KT 10SM CLR 14/10 A3008 RMK AO2,2024-08-10T04:35:00Z,14,10,10+,30.08
KRGA,37.6305,-84.329,290,5,5.75,KRGA 100435Z AUTO 29005KT 10SM SCT050 21/18 A3008 RMK AO2,2024-08-10T04:35:00Z,21,18,10+,30.08
KRFI,32.1441,-94.8539,0,0,0.0,KRFI 100435Z AUTO 00000KT 10SM CLR 26/20 A3009 RMK AO2 T02550196 PWINO,2024-08-10T04:35:00Z,25.5,19.6,10+,30.09
KREG,30.1756,-90.9397,350,4,4.6,KREG 100435Z AUTO 35004KT 10SM CLR 27/22 A3000 RMK AO2 T02670221,2024-08-10T04:35:00Z,26.7,22.1,10+,30.00
KRDK,41.0107,-95.2622,0,0,0.0,KRDK 100435Z AUTO 00000KT 10SM CLR 12/11 A3021 RMK AO2,2024-08-10T04:35:00Z,12,11,10+,30.21
KRCX,45.4935,-90.9985,290,9,10.36,KRCX 100435Z AUTO 29009KT 10SM SCT035 OVC070 13/09 A3004 RMK AO2 T01330086,2024-08-10T04:35:00Z,13.3,8.6,10+,30.04
KRCV,37.7092,-106.355,360,7,8.06,KRCV 100435Z AUTO 36007KT 10SM BKN039 BKN049 OVC060 16/11 A3045 RMK AO2 T01550107,2024-08-10T04:35:00Z,15.5,10.7,10+,30.45
KRCR,41.0651,-86.1864,270,5,5.75,KRCR 100435Z AUTO 27005KT 10SM SCT043 OVC050 16/16 A3006 RMK AO2,2024-08-10T04:35:00Z,16,16,10+,30.06
KRCE,35.4971,-97.8255,40,8,9.21,KRCE 100435Z AUTO 04008KT 10SM CLR 22/11 A3018 RMK AO2 TSNO,2024-08-10T04:35:00Z,22,11,10+,30.18
KRBW,32.921,-80.64,180,3,3.45,KRBW 100435Z AUTO 18003KT 7SM CLR 26/25 A2996 RMK AO2,2024-08-10T04:35:00Z,26,25,7,29.96
KRBO,27.7781,-97.6878,150,3,3.45,KRBO 100435Z AUTO 15003KT 27/25 A3002 RMK AO2 T02680252 PWINO,2024-08-10T04:35:00Z,26.8,25.2,,30.02
KRAW,38.3484,-93.3436,0,0,0.0,KRAW 100435Z AUTO 00000KT 10SM CLR 16/12 A3022 RMK AO2,2024-08-10T04:35:00Z,16,12,10+,30.22
KRAS,27.8083,-97.0853,140,4,4.6,KRAS 100435Z AUTO 14004KT 10SM SCT055 30/25 A3003 RMK AO2 T03020252,2024-08-10T04:35:00Z,30.2,25.2,10+,30.03
KPZZ,28.4344,-91.0344,0,0,0.0,KPZZ 100435Z AUTO 00000KT 10SM BKN050 BKN060 30/23 A3001 RMK A01,2024-08-10T04:35:00Z,30,23,10+,30.01
KPZQ,45.4085,-83.812,240,3,3.45,KPZQ 100435Z AUTO 24003KT 10SM SCT070 BKN090 15/13 A2987 RMK AO2 T01460130,2024-08-10T04:35:00Z,14.6,13,10+,29.87
KPYX,36.4103,-100.751,60,6,6.9,KPYX 100435Z AUTO 06006KT 10SM OVC065 A3025 RMK AO2 P0001,2024-08-10T04:35:00Z,,,10+,30.25
KPXE,32.5072,-83.7656,0,0,0.0,KPXE 100435Z AUTO 00000KT 10SM SCT060 SCT075 26/25 A2996 RMK AO2 T02570245,2024-08-10T04:35:00Z,25.7,24.5,10+,29.96
KPWD,48.7912,-104.525,90,4,4.6,KPWD 100435Z AUTO 09004KT 10SM CLR 12/01 A3021 RMK AO2,2024-08-10T04:35:00Z,12,1,10+,30.21
KPWC,46.7266,-94.3849,0,0,0.0,KPWC 100435Z AUTO 00000KT 10SM CLR 12/08 A3013 RMK AO2,2024-08-10T04:35:00Z,12,8,10+,30.13
KPVW,34.169,-101.723,100,9,10.36,KPVW 100435Z AUTO 10009KT 10SM CLR 22/16 A3021 RMK AO2 T02160161 TSNO,2024-08-10T04:35:00Z,21.6,16.1,10+,30.21
KPVJ,34.7041,-97.2211,30,4,4.6,KPVJ 100435Z AUTO 03004KT 10SM CLR 24/14 A3014 RMK AO2 T02400138,2024-08-10T04:35:00Z,24,13.8,10+,30.14
KPVF,38.7222,-120.757,140,4,4.6,KPVF 100435Z AUTO 14004KT 10SM CLR 25/02 A3002 RMK AO1,2024-08-10T04:35:00Z,25,2,10+,30.02
KPVE,35.6592,-88.1929,10,4,4.6,KPVE 100435Z AUTO 01004KT 10SM CLR 20/16 A3008 RMK A01,2024-08-10T04:35:00Z,20,16,10+,30.08
KPVB,42.6909,-90.4413,260,6,6.9,KPVB 100435Z AUTO 26006KT 10SM CLR 13/10 A3010 RMK AO1 T01250095,2024-08-10T04:35:00Z,12.5,9.5,10+,30.10
KPUJ,33.9085,-84.9369,360,8,9.21,KPUJ 100435Z AUTO 36008KT 7SM CLR 24/17 A3002 RMK AO2,2024-08-10T04:35:00Z,24,17,7,30.02
KPTT,37.7069,-98.7453,70,6,6.9,KPTT 100435Z AUTO 07006KT 10SM OVC075 17/10 A3025 RMK AO2 T01680102,2024-08-10T04:35:00Z,16.8,10.2,10+,30.25
KPTS,37.4512,-94.7322,350,3,3.45,KPTS 100435Z AUTO 35003KT 10SM CLR 18/12 A3020 RMK AO2 T01750116 PWINO,2024-08-10T04:35:00Z,17.5,11.6,10+,30.20
KPTD,44.6757,-74.9469,230,11,12.66,KPTD 100435Z AUTO 23011KT 10SM BKN009 OVC013 22/21 A2976 RMK AO2,2024-08-10T04:35:00Z,22,21,10+,29.76
KPTB,37.1803,-77.5081,0,0,0.0,KPTB 100435Z AUTO 00000KT 7SM SCT090 24/24 A2992 RMK AO2 T02410235,2024-08-10T04:35:00Z,24.1,23.5,7,29.92
KPSO,37.291,-107.056,0,0,0.0,KPSO 100435Z AUTO 00000KT 10SM BKN048 BKN055 OVC110 17/13 A3042 RMK AO2 T01730128,2024-08-10T04:35:00Z,17.3,12.8,10+,30.42
KPSN,31.7784,-95.7048,0,0,0.0,KPSN 100435Z AUTO 00000KT 10SM OVC049 27/23 A3005 RMK AO2,2024-08-10T04:35:00Z,27,23,10+,30.05
KPSK,37.1337,-80.6789,260,5,5.75,KPSK 100435Z AUTO 26005KT 10SM CLR 22/18 A3005 RMK AO2 LTG DSNT SE T02160176,2024-08-10T04:35:00Z,21.6,17.6,10+,30.05
KPRS,29.6346,-104.358,60,14,16.11,KPRS 100435Z AUTO 06014G24KT 10SM CLR 31/13 A3006 RMK AO2 T03070126,2024-08-10T04:35:00Z,30.7,12.6,10+,30.06
KPRG,39.6982,-87.6669,270,3,3.45,KPRG 100435Z AUTO 27003KT 10SM CLR 14/13 A3012 RMK AO2 T01360132,2024-08-10T04:35:00Z,13.6,13.2,10+,30.12
KPPQ,39.6391,-90.7818,0,0,0.0,KPPQ 100435Z AUTO 00000KT 10SM CLR 15/13 A3017 RMK AO2 T01540134,2024-08-10T04:35:00Z,15.4,13.4,10+,30.17
KPPO,41.5705,-86.7333,240,4,4.6,KPPO 100435Z AUTO 24004KT 10SM CLR 15/12 A3006 RMK AO2,2024-08-10T04:35:00Z,15,12,10+,30.06
KPPA,35.6139,-100.997,80,10,11.51,KPPA 100435Z AUTO 08010KT 10SM CLR 17/13 A3026 RMK AO2 LTG DSNT NW T01700132,2024-08-10T04:35:00Z,17,13.2,10+,30.26
KPOY,44.8641,-108.79,280,4,4.6,KPOY 100435Z AUTO 28004KT 10SM CLR 15/05 A3019 RMK AO2,2024-08-10T04:35:00Z,15,5,10+,30.19
KPOV,41.209,-81.2479,270,3,3.45,KPOV 100435Z AUTO 27003KT 10SM CLR 17/14 A3000 RMK AO2 T01660135 PWINO,2024-08-10T04:35:00Z,16.6,13.5,10+,30.00
KPO1,48.134,-105.162,110,8,9.21,KPO1 100435Z AUTO 11008KT 10SM CLR 14/03 A3019 RMK AO2,2024-08-10T04:35:00Z,14,3,10+,30.19
KPNT,40.9233,-88.6213,250,4,4.6,KPNT 100435Z AUTO 25004KT 10SM CLR 13/12 A3011 RMK AO2 T01290119,2024-08-10T04:35:00Z,12.9,11.9,10+,30.11
KPNA,42.7929,-109.805,90,3,3.45,KPNA 100435Z AUTO 09003KT 10SM SCT090 SCT120 13/09 A3031 RMK AO2,2024-08-10T04:35:00Z,13,9,10+,30.31
KPMV,40.9446,-95.9124,0,0,0.0,KPMV 100435Z AUTO 00000KT 10SM CLR 15/10 A3021 RMK AO2 T01450095,2024-08-10T04:35:00Z,14.5,9.5,10+,30.21
KPMU,34.3656,-89.8904,0,0,0.0,KPMU 100435Z AUTO 00000KT 10SM CLR 22/19 A3007 RMK AO2,2024-08-10T04:35:00Z,22,19,10+,30.07
KPLU,47.1005,-122.285,0,0,0.0,KPLU 100435Z AUTO 00000KT 7SM FEW045 SCT055 OVC120 21/17 A2997 RMK AO2,2024-08-10T04:35:00Z,21,17,7,29.97
KPLR,33.5608,-86.2463,0,0,0.0,KPLR 100435Z AUTO 00000KT 10SM BKN050 BKN055 22/22 A3001 RMK A01,2024-08-10T04:35:00Z,22,22,10+,30.01
KPLD,40.4532,-84.9848,280,5,5.75,KPLD 100435Z AUTO 28005KT 10SM CLR 15/12 A3005 RMK AO2,2024-08-10T04:35:00Z,15,12,10+,30.05
KPJC,40.8009,-80.1624,0,0,0.0,KPJC 100435Z AUTO 00000KT 1 1/4SM BR BKN050 17/17 A2998 RMK AO2 VIS 1/2V5,2024-08-10T04:35:00Z,17,17,1.25,29.98
KPIM,32.8421,-84.8766,330,2,2.3,KPIM 100435Z AUTO 33002KT 10SM CLR 25/24 A2999 RMK AO2,2024-08-10T04:35:00Z,25,24,10+,29.99
KPHT,36.3322,-88.3871,10,5,5.75,KPHT 100435Z AUTO 01005KT 10SM CLR 18/15 A3010 RMK A01,2024-08-10T04:35:00Z,18,15,10+,30.10
KPHN,42.9103,-82.5332,0,0,0.0,KPHN 100435Z AUTO 00000KT 10SM 15/12 A2995 RMK AO2,2024-08-10T04:35:00Z,15,12,10+,29.95
KPEZ,28.9561,-98.5184,140,5,5.75,KPEZ 100435Z AUTO 14005KT 10SM CLR 29/21 A3004 RMK AO2 T02910211,2024-08-10T04:35:00Z,29.1,21.1,10+,30.04
KPEQ,31.382,-103.512,140,8,9.21,KPEQ 100435Z AUTO 14008KT 10SM CLR 30/12 A3010 RMK AO2 T02990123,2024-08-10T04:35:00Z,29.9,12.3,10+,30.10
KPEA,41.3989,-92.9431,260,5,5.75,KPEA 100435Z AUTO 26005KT 10SM CLR 15/12 A3016 RMK AO2 T01540115,2024-08-10T04:35:00Z,15.4,11.5,10+,30.16
KPDC,43.0194,-91.1212,0,0,0.0,KPDC 100435Z AUTO 00000KT 10SM CLR 15/10 A3009 RMK AO2 T01500095,2024-08-10T04:35:00Z,15,9.5,10+,30.09
KPCZ,44.3342,-89.0203,250,5,5.75,KPCZ 100435Z AUTO 25005KT 10SM CLR 13/10 A3001 RMK AO2 T01340097,2024-08-10T04:35:00Z,13.4,9.7,10+,30.01
KPCW,41.5188,-82.8692,280,8,9.21,KPCW 100435Z AUTO 28008G14KT 10SM CLR 18/13 A2999 RMK AO2,2024-08-10T04:35:00Z,18,13,10+,29.99
KPCM,28.0013,-82.1593,180,4,4.6,KPCM 100435Z AUTO 18004KT 10SM CLR 29/27 A3004 RMK AO2,2024-08-10T04:35:00Z,29,27,10+,30.04
KPCD,37.8749,-89.8582,350,5,5.75,KPCD 100435Z AUTO 35005KT 10SM CLR 18/15 A3014 RMK AO2 T01760147,2024-08-10T04:35:00Z,17.6,14.7,10+,30.14
KPBX,37.5587,-82.5674,0,0,0.0,KPBX 100435Z AUTO 00000KT 10SM CLR 23/17 A3005 RMK AO2 T02250166,2024-08-10T04:35:00Z,22.5,16.6,10+,30.05
KPBH,45.7064,-90.4052,290,3,3.45,KPBH 100435Z AUTO 29003KT 10SM OVC028 11/09 A2999 RMK AO2 T01100092,2024-08-10T04:35:00Z,11,9.2,10+,29.99
KPAN,34.2551,-111.338,360,6,6.9,KPAN 100435Z AUTO 36006KT 10SM FEW120 20/17 A3020 RMK AO2 PWINO TSNO,2024-08-10T04:35:00Z,20,17,10+,30.20
KP52,34.7263,-112.034,360,4,4.6,KP52 100435Z AUTO 36004KT 10SM CLR 30/13 A3003 RMK AO2,2024-08-10T04:35:00Z,30,13,10+,30.03
KOZW,42.6327,-83.9854,250,3,3.45,KOZW 100435Z AUTO 25003KT 10SM OVC060 15/12 A2999 RMK AO2 T01510123,2024-08-10T04:35:00Z,15.1,12.3,10+,29.99
KOZS,37.9745,-92.6897,360,3,3.45,KOZS 100435Z AUTO 36003KT 10SM CLR 17/11 A3020 RMK AO2,2024-08-10T04:35:00Z,17,11,10+,30.20
KOZA,30.7312,-101.203,140,7,8.06,KOZA 100435Z AUTO 14007KT 10SM CLR 29/13 A3014 RMK AO2,2024-08-10T04:35:00Z,29,13,10+,30.14
KOYM,41.4118,-78.5131,0,0,0.0,KOYM 100435Z AUTO 00000KT 10SM BKN095 OVC120 16/15 A3001 RMK AO2 PWINO,2024-08-10T04:35:00Z,16,15,10+,30.01
KOYE,28.8669,-90.4911,220,8,9.21,KOYE 100435Z AUTO 22008KT 10SM CLR 31/24 A2999 RMK A01,2024-08-10T04:35:00Z,31,24,10+,29.99
KOXV,41.2984,-93.1114,250,6,6.9,KOXV 100435Z AUTO 25006KT 10SM CLR 14/11 A3016 RMK AO2,2024-08-10T04:35:00Z,14,11,10+,30.16
KOXI,41.3275,-86.665,270,7,8.06,KOXI 100435Z AUTO 27007KT 10SM SCT060 15/11 A3007 RMK AO1,2024-08-10T04:35:00Z,15,11,10+,30.07
KOXC,41.4741,-73.1353,200,7,8.06,KOXC 100435Z AUTO 20007KT 2 1/2SM -RA BR OVC003 22/22 A2985 RMK AO2 PNO $,2024-08-10T04:35:00Z,22,22,2.5,29.85
KOWP,36.1721,-96.1536,20,5,5.75,KOWP 100435Z AUTO 02005KT 10SM CLR 22/11 A3021 RMK AO2 T02160111,2024-08-10T04:35:00Z,21.6,11.1,10+,30.21
KOWI,38.5409,-95.2542,0,0,0.0,KOWI 100435Z AUTO 00000KT 10SM CLR 15/15 A3022 RMK AO2 PWINO,2024-08-10T04:35:00Z,15,15,10+,30.22
KOVL,44.7792,-95.0304,290,4,4.6,KOVL 100435Z AUTO 29004KT 10SM CLR 11/10 A3015 RMK AO2,2024-08-10T04:35:00Z,11,10,10+,30.15
KOUN,35.2436,-97.4713,20,9,10.36,KOUN 100435Z AUTO 02009KT 10SM CLR 23/11 A3015 RMK AO2 T02300109,2024-08-10T04:35:00Z,23,10.9,10+,30.15
KOSC,44.453,-83.396,230,7,8.06,KOSC 100435Z AUTO 23007KT 10SM SCT075 15/11 A2990 RMK AO2 T01500111,2024-08-10T04:35:00Z,15,11.1,10+,29.90
KOSA,33.0936,-94.9601,130,3,3.45,KOSA 100435Z AUTO 13003KT 10SM CLR 24/23 A3007 RMK AO2 T02420231,2024-08-10T04:35:00Z,24.2,23.1,10+,30.07
KORS,48.7081,-122.909,140,7,8.06,KORS 100435Z AUTO 14007KT 10SM CLR 18/14 A2991 RMK AO2,2024-08-10T04:35:00Z,18,14,10+,29.91
KORK,34.833,-92.2557,10,4,4.6,KORK 100435Z AUTO 01004KT 10SM FEW045 BKN055 BKN065 23/19 A3009 RMK AO2,2024-08-10T04:35:00Z,23,19,10+,30.09
KORG,30.068,-93.8043,0,0,0.0,KORG 100435Z AUTO 00000KT 10SM CLR 28/23 A3004 RMK AO2 T02760227,2024-08-10T04:35:00Z,27.6,22.7,10+,30.04
KOQN,39.9889,-75.5803,260,4,4.6,KOQN 100435Z AUTO 26004KT 10SM SCT080 24/23 A2989 RMK AO2,2024-08-10T04:35:00Z,24,23,10+,29.89
KOPN,32.954,-84.2595,0,0,0.0,KOPN 100435Z AUTO 00000KT 10SM BKN060 27/18 A2999 RMK AO2,2024-08-10T04:35:00Z,27,18,10+,29.99
KOOA,41.2273,-92.4919,260,6,6.9,KOOA 100435Z AUTO 26006KT 7SM CLR 13/11 A3017 RMK AO2 T01320110,2024-08-10T04:35:00Z,13.2,11,7,30.17
KONZ,42.0991,-83.161,280,3,3.45,KONZ 100435Z AUTO 28003KT 10SM OVC110 16/13 A2998 RMK AO2 T01640129,2024-08-10T04:35:00Z,16.4,12.9,10+,29.98
KONP,44.5825,-124.057,0,0,0.0,KONP 100435Z AUTO 00000KT 10SM OVC014 16/15 A3006 RMK AO2,2024-08-10T04:35:00Z,16,15,10+,30.06
KONM,34.0263,-106.904,340,8,9.21,KONM 100435Z AUTO 34008KT 10SM CLR 26/12 A3020 RMK AO2 T02630118,2024-08-10T04:35:00Z,26.3,11.8,10+,30.20
KONL,42.4691,-98.6903,0,0,0.0,KONL 100435Z AUTO 00000KT 10SM CLR 15/07 A3024 RMK AO2 T01470071,2024-08-10T04:35:00Z,14.7,7.1,10+,30.24
KONA,44.076,-91.707,320,6,6.9,KONA 100435Z AUTO 32006KT 10SM SCT060 SCT070 14/10 A3008 RMK AO2,2024-08-10T04:35:00Z,14,10,10+,30.08
KOMH,38.2487,-78.0454,0,0,0.0,KOMH 100435Z AUTO 00000KT 7SM OVC055 24/24 A2993 RMK AO2,2024-08-10T04:35:00Z,24,24,7,29.93
KOLZ,42.6831,-91.976,300,4,4.6,KOLZ 100435Z AUTO 30004KT 10SM CLR 12/11 A3013 RMK A01,2024-08-10T04:35:00Z,12,11,10+,30.13
KOLY,38.7213,-88.1799,0,0,0.0,KOLY 100435Z AUTO 00000KT 10SM SCT040 17/15 A3013 RMK AO2 T01670154,2024-08-10T04:35:00Z,16.7,15.4,10+,30.13
KOLV,34.9808,-89.7851,30,5,5.75,KOLV 100435Z AUTO 03005KT 10SM CLR 22/16 A3008 RMK A01,2024-08-10T04:35:00Z,22,16,10+,30.08
KOLG,46.3153,-91.8183,310,6,6.9,KOLG 100435Z AUTO 31006KT 10SM SCT034 SCT060 OVC075 13/07 A3002 RMK AO1,2024-08-10T04:35:00Z,13,7,10+,30.02
KOLE,42.2429,-78.3721,0,0,0.0,KOLE 100435Z AUTO 00000KT 10SM SCT016 BKN027 16/16 A2997 RMK AO2,2024-08-10T04:35:00Z,16,16,10+,29.97
KOKZ,32.9651,-82.8387,0,0,0.0,KOKZ 100435Z AUTO 00000KT 10SM CLR 26/24 A2995 RMK AO2 T02570245,2024-08-10T04:35:00Z,25.7,24.5,10+,29.95
KOKV,39.1406,-78.1391,0,0,0.0,KOKV 100435Z AUTO 00000KT 10SM SCT070 21/20 A2994 RMK AO2,2024-08-10T04:35:00Z,21,20,10+,29.94
KOKM,35.6713,-95.9514,20,13,14.96,KOKM 100435Z AUTO 02013G18KT 10SM SCT100 23/11 A3016 RMK AO2 T02260105,2024-08-10T04:35:00Z,22.6,10.5,10+,30.16
KOJA,35.5484,-98.6702,30,6,6.9,KOJA 100435Z AUTO 03006KT 10SM CLR 20/12 A3021 RMK AO2 T02020123,2024-08-10T04:35:00Z,20.2,12.3,10+,30.21
KOIN,39.8298,-100.538,0,0,0.0,KOIN 100435Z AUTO 00000KT 10SM OVC031 14/13 A3032 RMK AO1 T01440134,2024-08-10T04:35:00Z,14.4,13.4,10+,30.32
KOIC,42.5642,-75.5269,0,0,0.0,KOIC 100435Z AUTO 00000KT 10SM SCT021 SCT035 19/19 A2990 RMK AO2 T01940192,2024-08-10T04:35:00Z,19.4,19.2,10+,29.90
KOGS,44.68,-75.4641,230,7,8.06,KOGS 100435Z AUTO 23007G12KT 10SM SCT070 21/20 A2973 RMK AO2,2024-08-10T04:35:00Z,21,20,10+,29.73
KOGA,41.1164,-101.768,200,4,4.6,KOGA 100435Z AUTO 20004KT 10SM SCT027 OVC033 14/12 A3028 RMK AO2 T01370123,2024-08-10T04:35:00Z,13.7,12.3,10+,30.28
KOEO,45.3108,-92.6948,270,5,5.75,KOEO 100435Z AUTO 27005KT 10SM OVC065 15/11 A3011 RMK AO2 T01500111 PWINO,2024-08-10T04:35:00Z,15,11.1,10+,30.11
KOEL,39.1139,-100.819,160,4,4.6,KOEL 100435Z AUTO 16004KT 10SM OVC032 14/10 A3030 RMK AO1 T01400101,2024-08-10T04:35:00Z,14,10.1,10+,30.30
KOEB,41.9308,-85.0544,240,4,4.6,KOEB 100435Z AUTO 24004KT 10SM FEW033 BKN060 15/13 A3002 RMK AO2,2024-08-10T04:35:00Z,15,13,10+,30.02
KOCQ,44.8749,-87.9084,260,8,9.21,KOCQ 100435Z AUTO 26008KT 10SM CLR 13/12 A2994 RMK AO1 T01260120,2024-08-10T04:35:00Z,12.6,12,10+,29.94
KOBE,27.2663,-80.8487,210,3,3.45,KOBE 100435Z AUTO 21003KT 10SM CLR 26/25 A3002 RMK AO2,2024-08-10T04:35:00Z,26,25,10+,30.02
KOAR,36.6815,-121.757,250,19,21.86,KOAR 100435Z AUTO 25019G23KT 7SM OVC003 07/07 A2994 RMK AO2,2024-08-10T04:35:00Z,7,7,7,29.94
KO86,40.9845,-122.693,260,6,6.9,KO86 100435Z AUTO 26006KT 10SM CLR 26/08 A2994 RMK A01,2024-08-10T04:35:00Z,26,8,10+,29.94
KO69,38.2601,-122.607,,,,KO69 100435Z AUTO 10SM OVC006 12/12 A2994 RMK A01,2024-08-10T04:35:00Z,12,12,10+,29.94
KO54,40.746,-122.922,200,7,8.06,KO54 100435Z AUTO 20007KT 170V230 10SM CLR 29/00 A2995 RMK A01,2024-08-10T04:35:00Z,29,0,10+,29.95
KO32,36.6691,-119.453,350,4,4.6,KO32 100435Z AUTO 35004KT 8SM CLR 31/11 A2981 RMK AO2 T03080108 $,2024-08-10T04:35:00Z,30.8,10.8,8,29.81
KO22,38.03,-120.415,40,4,4.6,KO22 100435Z AUTO 04004KT 10SM CLR 25/06 A2996 RMK A01,2024-08-10T04:35:00Z,25,6,10+,29.96
KO05,40.2865,-121.243,170,4,4.6,KO05 100435Z AUTO 17004KT 10SM CLR 23/03 A3012 RMK A01,2024-08-10T04:35:00Z,23,3,10+,30.12
KNY0,42.999,-74.3292,260,7,8.06,KNY0 100435Z AUTO 26007KT 10SM SCT013 BKN024 OVC080 21/21 A2983 RMK AO2 T02070205,2024-08-10T04:35:00Z,20.7,20.5,10+,29.83
KNUQ,37.4059,-122.049,20,7,8.06,KNUQ 100435Z AUTO 02007KT 10SM CLR 16/14 A2995 RMK AO2,2024-08-10T04:35:00Z,16,14,10+,29.95
KNRN,39.8497,-99.8915,260,3,3.45,KNRN 100435Z AUTO 26003KT 10SM OVC044 15/12 A3030 RMK AO2,2024-08-10T04:35:00Z,15,12,10+,30.30
KNOW,48.1394,-123.403,290,9,10.36,KNOW 100435Z AUTO 29009KT 10SM CLR 14/13 A2995 RMK AO2 T01380130,2024-08-10T04:35:00Z,13.8,13,10+,29.95
KN79,40.8371,-76.546,0,0,0.0,KN79 100435Z AUTO 00000KT 7SM CLR 20/20 A2991 RMK AO2 T02030203 $,2024-08-10T04:35:00Z,20.3,20.3,7,29.91
KN38,41.7287,-77.3958,240,5,5.75,KN38 100435Z AUTO 24005KT 10SM CLR 18/17 A2995 RMK AO2,2024-08-10T04:35:00Z,18,17,10+,29.95
KN03,42.5929,-76.2174,0,0,0.0,KN03 100435Z AUTO 00000KT 10SM SCT039 19/18 A2990 RMK AO2,2024-08-10T04:35:00Z,19,18,10+,29.90
KMZZ,40.4863,-85.6859,280,4,4.6,KMZZ 100435Z AUTO 28004KT 7SM CLR 13/13 A3008 RMK AO2 T01300125,2024-08-10T04:35:00Z,13,12.5,7,30.08
KMZJ,32.5147,-111.335,130,10,11.51,KMZJ 100435Z AUTO 13010KT 10SM FEW044 28/21 A2990 RMK AO2,2024-08-10T04:35:00Z,28,21,10+,29.90
KMZH,46.4163,-92.8049,0,0,0.0,KMZH 100435Z AUTO 00000KT 10SM OVC075 13/09 A3006 RMK AO2,2024-08-10T04:35:00Z,13,9,10+,30.06
KMYZ,39.8544,-96.6279,0,0,0.0,KMYZ 100435Z AUTO 00000KT 10SM SCT120 14/10 A3023 RMK AO2,2024-08-10T04:35:00Z,14,10,10+,30.23
KMYP,38.4972,-106.32,0,0,0.0,KMYP 100435Z AUTO 00000KT 5SM RA SCT001 OVC014 05/05 A3081 RMK AO2,2024-08-10T04:35:00Z,5,5,5,30.81
KMYJ,39.1561,-91.8129,0,0,0.0,KMYJ 100435Z AUTO 00000KT 10SM CLR 13/12 A3019 RMK AO2,2024-08-10T04:35:00Z,13,12,10+,30.19
KMXO,42.2203,-91.1604,0,0,0.0,KMXO 100435Z AUTO 00000KT 10SM CLR 12/11 A3010 RMK AO2,2024-08-10T04:35:00Z,12,11,10+,30.10
KMWO,39.5324,-84.3973,330,7,8.06,KMWO 100435Z AUTO 33007KT 10SM CLR 18/13 A3007 RMK AO2 T01790127,2024-08-10T04:35:00Z,17.9,12.7,10+,30.07
KMWM,43.91,-95.1073,260,5,5.75,KMWM 100435Z AUTO 26005KT 10SM CLR 11/10 A3017 RMK AO2,2024-08-10T04:35:00Z,11,10,10+,30.17
KMWC,43.1095,-88.0343,240,4,4.6,KMWC 100435Z AUTO 24004KT 10SM SCT050 SCT080 14/10 A3005 RMK AO2,2024-08-10T04:35:00Z,14,10,10+,30.05
KMWA,37.7544,-89.0118,10,3,3.45,KMWA 100435Z AUTO 01003KT 10SM CLR 19/13 A3014 RMK AO2 T01860132,2024-08-10T04:35:00Z,18.6,13.2,10+,30.14
KMVH,46.838,-108.936,0,0,0.0,KMVH 100435Z AUTO 00000KT 10SM CLR 11/04 A3023 RMK AO2,2024-08-10T04:35:00Z,11,4,10+,30.23
KMVE,44.9675,-95.7116,270,3,3.45,KMVE 100435Z AUTO 27003KT 10SM CLR 13/11 A3016 RMK AO2,2024-08-10T04:35:00Z,13,11,10+,30.16
KMUT,41.367,-91.1406,280,5,5.75,KMUT 100435Z AUTO 28005KT 10SM CLR 14/14 A3013 RMK AO2,2024-08-10T04:35:00Z,14,14,10+,30.13
KMTV,36.6272,-80.0134,0,0,0.0,KMTV 100435Z AUTO 00000KT 10SM SCT070 23/22 A3000 RMK AO2 T02310216,2024-08-10T04:35:00Z,23.1,21.6,10+,30.00
KMTK,28.6967,-89.3958,0,0,0.0,KMTK 100435Z AUTO 00000KT 10SM FEW055 A2999 RMK A01,2024-08-10T04:35:00Z,,,10+,29.99
KMRT,40.2237,-83.3475,350,6,6.9,KMRT 100435Z AUTO 35006KT 10SM CLR 17/11 A3005 RMK AO2 T01720109,2024-08-10T04:35:00Z,17.2,10.9,10+,30.05
KMRJ,42.8875,-90.2315,290,3,3.45,KMRJ 100435Z AUTO 29003KT 10SM CLR 12/09 A3010 RMK AO2 PWINO,2024-08-10T04:35:00Z,12,9,10+,30.10
KMRC,35.5579,-87.1778,VRB,6,6.9,KMRC 100435Z AUTO VRB06KT 10SM CLR 23/17 A3006 RMK A01,2024-08-10T04:35:00Z,23,17,10+,30.06
KMQW,32.0942,-82.882,190,4,4.6,KMQW 100435Z AUTO 19004KT 10SM SCT060 27/24 A2995 RMK AO2 T02670240,2024-08-10T04:35:00Z,26.7,24,10+,29.95
KMQS,39.9773,-75.8605,300,5,5.75,KMQS 100435Z AUTO 30005KT 3SM BR CLR 23/23 A2991 RMK AO2,2024-08-10T04:35:00Z,23,23,3,29.91
KMQJ,39.8402,-85.894,290,8,9.21,KMQJ 100435Z AUTO 29008KT 10SM CLR 16/13 A3009 RMK AO2 T01630135 $,2024-08-10T04:35:00Z,16.3,13.5,10+,30.09
KMQB,40.5176,-90.6481,270,6,6.9,KMQB 100435Z AUTO 27006KT 10SM CLR 13/12 A3017 RMK AO2 T01260116,2024-08-10T04:35:00Z,12.6,11.6,10+,30.17
KMPZ,40.9453,-91.5122,270,4,4.6,KMPZ 100435Z AUTO 27004KT 10SM CLR 13/11 A3015 RMK AO2,2024-08-10T04:35:00Z,13,11,10+,30.15
KMPR,38.3491,-97.6883,360,5,5.75,KMPR 100435Z AUTO 36005KT 10SM BKN090 15/13 A3024 RMK AO2 T01520130,2024-08-10T04:35:00Z,15.2,13,10+,30.24
KMOX,45.5677,-95.9659,290,5,5.75,KMOX 100435Z AUTO 29005KT 10SM CLR 11/11 A3014 RMK AO2,2024-08-10T04:35:00Z,11,11,10+,30.14
KMOR,36.1746,-83.3853,0,0,0.0,KMOR 100435Z AUTO 00000KT 10SM FEW048 FEW055 22/21 A3004 RMK A01,2024-08-10T04:35:00Z,22,21,10+,30.04
KMOP,43.6229,-84.743,230,4,4.6,KMOP 100435Z AUTO 23004KT 10SM CLR 15/12 A2995 RMK AO2 T01470118,2024-08-10T04:35:00Z,14.7,11.8,10+,29.95
KMNZ,31.6697,-98.1462,0,0,0.0,KMNZ 100435Z AUTO 00000KT 10SM CLR 27/22 A3012 RMK AO2 T02660220 TSNO,2024-08-10T04:35:00Z,26.6,22,10+,30.12
KMNV,35.5429,-84.3808,0,0,0.0,KMNV 100435Z AUTO 00000KT 10SM FEW046 23/20 A3003 RMK A01,2024-08-10T04:35:00Z,23,20,10+,30.03
KMNI,33.5882,-80.2059,190,5,5.75,KMNI 100435Z AUTO 19005KT 7SM CLR 26/25 A2994 RMK AO2,2024-08-10T04:35:00Z,26,25,7,29.94
KMNH,39.2232,-104.642,0,0,0.0,KMNH 100435Z AUTO 00000KT 10SM -RA SCT070 SCT090 OVC110 12/12 A3038 RMK AO2,2024-08-10T04:35:00Z,12,12,10+,30.38
KMNE,32.6433,-93.2972,0,0,0.0,KMNE 100435Z AUTO 00000KT 10SM CLR 24/18 A3007 RMK AO2,2024-08-10T04:35:00Z,24,18,10+,30.07
KMMU,40.7989,-74.4164,220,6,6.9,KMMU 100435Z AUTO 22006KT 10SM SCT008 SCT014 OVC025 24/24 A2982 RMK AO2,2024-08-10T04:35:00Z,24,24,10+,29.82
KMMI,35.3952,-84.5612,0,0,0.0,KMMI 100435Z AUTO 00000KT 10SM BKN050 23/19 A3004 RMK A01,2024-08-10T04:35:00Z,23,19,10+,30.04
KMMH,37.6253,-118.838,30,3,3.45,KMMH 100435Z AUTO 03003KT 10SM CLR 21/01 A3030 RMK AO2 T02060005,2024-08-10T04:35:00Z,20.6,0.5,10+,30.30
KMLT,45.6478,-68.6925,160,9,10.36,KMLT 100435Z AUTO 16009G20KT 110V200 7SM -RA BKN010 OVC014 23/22 A2972 RMK AO2 PK WND 17026/0404 RAB06 CIG 007V012 P0001 T02280217,2024-08-10T04:35:00Z,22.8,21.7,7,29.72
KMLJ,33.153,-83.242,0,0,0.0,KMLJ 100435Z AUTO 00000KT 10SM CLR 27/26 A2994 RMK AO2,2024-08-10T04:35:00Z,27,26,10+,29.94
KMLE,41.1981,-96.1131,0,0,0.0,KMLE 100435Z AUTO 00000KT 10SM CLR 15/10 A3021 RMK AO2 T01450102,2024-08-10T04:35:00Z,14.5,10.2,10+,30.21
KMKS,33.1874,-80.0363,220,5,5.75,KMKS 100435Z AUTO 22005KT 10SM CLR 26/25 A2994 RMK AO2,2024-08-10T04:35:00Z,26,25,10+,29.94
KMKQ,27.5197,-90.0981,0,0,0.0,KMKQ 100435Z AUTO 00000KT 10SM BKN055 31/22 A3000 RMK A01,2024-08-10T04:35:00Z,31,22,10+,30.00
KMKN,31.924,-98.5978,0,0,0.0,KMKN 100435Z AUTO 00000KT CLR 25/20 A3012 RMK AO2 T02480197 PWINO,2024-08-10T04:35:00Z,24.8,19.7,,30.12
KMKJ,36.8944,-81.3449,270,3,3.45,KMKJ 100435Z AUTO 27003KT 10SM CLR 18/18 A3012 RMK AO2 T01810175,2024-08-10T04:35:00Z,18.1,17.5,10+,30.12
KMJD,30.494,-89.6535,340,3,3.45,KMJD 100435Z AUTO 34003KT 10SM BKN060 27/21 A2998 RMK AO2,2024-08-10T04:35:00Z,27,21,10+,29.98
KMIO,36.9128,-94.8893,360,9,10.36,KMIO 100435Z AUTO 36009KT 10SM FEW044 FEW050 20/12 A3019 RMK AO2 PWINO,2024-08-10T04:35:00Z,20,12,10+,30.19
KMHR,38.56,-121.284,160,9,10.36,KMHR 100435Z AUTO 16009KT 10SM CLR 23/07 A2983 RMK A01,2024-08-10T04:35:00Z,23,7,10+,29.83
KMHP,32.374,-82.079,170,4,4.6,KMHP 100435Z AUTO 17004KT 7SM SCT048 27/25 A2995 RMK AO2 T02660254,2024-08-10T04:35:00Z,26.6,25.4,7,29.95
KMHL,39.093,-93.2024,0,0,0.0,KMHL 100435Z AUTO 00000KT 10SM CLR 13/13 A3021 RMK AO2,2024-08-10T04:35:00Z,13,13,10+,30.21
KMGR,31.0835,-83.8035,150,3,3.45,KMGR 100435Z AUTO 15003KT 7SM CLR 26/26 A2996 RMK AO2 T02590259 $,2024-08-10T04:35:00Z,25.9,25.9,7,29.96
KMGN,45.4241,-84.913,310,4,4.6,KMGN 100435Z AUTO 31004KT 10SM CLR 15/11 A2986 RMK AO2 T01540112,2024-08-10T04:35:00Z,15.4,11.2,10+,29.86
KMGG,45.2354,-93.9896,0,0,0.0,KMGG 100435Z AUTO 00000KT 10SM CLR 14/09 A3013 RMK AO2 T01380085,2024-08-10T04:35:00Z,13.8,8.5,10+,30.13
KMGC,41.7048,-86.8183,290,5,5.75,KMGC 100435Z AUTO 29005KT 10SM CLR 17/10 A3006 RMK AO2,2024-08-10T04:35:00Z,17,10,10+,30.06
KMFV,37.646,-75.763,180,4,4.6,KMFV 100435Z AUTO 18004KT 10SM SCT012 BKN055 OVC070 23/22 A2993 RMK AO2 LTG DSNT NW T02270220,2024-08-10T04:35:00Z,22.7,22,10+,29.93
KMEZ,34.5414,-94.1918,0,0,0.0,KMEZ 100435Z AUTO 00000KT 9SM CLR 21/21 A3010 RMK AO2 T02140214,2024-08-10T04:35:00Z,21.4,21.4,9,30.10
KMEV,38.9963,-119.75,310,7,8.06,KMEV 100435Z AUTO 31007KT 10SM CLR 25/03 A3010 RMK AO2,2024-08-10T04:35:00Z,25,3,10+,30.10
KMDZ,45.1013,-90.3064,280,7,8.06,KMDZ 100435Z AUTO 28007KT 10SM BKN048 OVC065 11/10 A3001 RMK AO2 T01090104 PWINO,2024-08-10T04:35:00Z,10.9,10.4,10+,30.01
KMDS,44.0141,-97.0817,0,0,0.0,KMDS 100435Z AUTO 00000KT 10SM CLR 12/11 A3019 RMK AO2 TSNO,2024-08-10T04:35:00Z,12,11,10+,30.19
KMDQ,34.866,-86.559,340,5,5.75,KMDQ 100435Z AUTO 34005KT 10SM CLR 23/19 A3005 RMK A02 T02310187,2024-08-10T04:35:00Z,23.1,18.7,10+,30.05
KMDD,32.0359,-102.1,130,6,6.9,KMDD 100435Z AUTO 13006KT 10SM SCT080 31/14 A3013 RMK AO2 T03120142,2024-08-10T04:35:00Z,31.2,14.2,10+,30.13
KMCX,40.7127,-86.7649,280,4,4.6,KMCX 100435Z AUTO 28004KT 10SM CLR 14/12 A3008 RMK AO2 T01410120,2024-08-10T04:35:00Z,14.1,12,10+,30.08
KMCD,45.866,-84.634,270,8,9.21,KMCD 100435Z AUTO 27008KT 10SM SCT022 BKN031 OVC049 16/14 A2985 RMK AO2 T01570141,2024-08-10T04:35:00Z,15.7,14.1,10+,29.85
KMCC,38.678,-121.403,170,10,11.51,KMCC 100435Z AUTO 17010KT 10SM CLR 25/08 A2983 RMK AO2 PWINO,2024-08-10T04:35:00Z,25,8,10+,29.83
KMBY,39.464,-92.4244,270,3,3.45,KMBY 100435Z AUTO 27003KT 10SM CLR 13/10 A3020 RMK AO2,2024-08-10T04:35:00Z,13,10,10+,30.20
KMBT,35.8767,-86.3793,350,7,8.06,KMBT 100435Z AUTO 35007KT 10SM SCT046 23/17 A3005 RMK A01,2024-08-10T04:35:00Z,23,17,10+,30.05
KMAW,36.5945,-89.9865,360,3,3.45,KMAW 100435Z AUTO 36003KT 10SM CLR 21/15 A3013 RMK AO1,2024-08-10T04:35:00Z,21,15,10+,30.13
KMAO,34.1852,-79.3341,0,0,0.0,KMAO 100435Z AUTO 00000KT 5SM BR CLR 24/24 A2995 RMK AO2,2024-08-10T04:35:00Z,24,24,5,29.95
KMAN,43.582,-116.521,0,0,0.0,KMAN 100435Z AUTO 00000KT 9SM CLR 26/14 A2986 RMK A01,2024-08-10T04:35:00Z,26,14,9,29.86
KM91,36.5363,-86.919,340,5,5.75,KM91 100435Z AUTO 34005KT 10SM 19/16 A3008 RMK A01,2024-08-10T04:35:00Z,19,16,10+,30.08
KM75,48.3686,-107.919,0,0,0.0,KM75 100435Z AUTO 00000KT 10SM CLR 14/06 A3015 RMK A01,2024-08-10T04:35:00Z,14,6,10+,30.15
KM54,36.1932,-86.3139,340,7,8.06,KM54 100435Z AUTO 34007KT 10SM SCT044 SCT050 22/18 A3005 RMK A01,2024-08-10T04:35:00Z,22,18,10+,30.05
KM40,33.8755,-88.4872,340,4,4.6,KM40 100435Z AUTO 34004KT 10SM CLR 23/22 A3005 RMK AO2,2024-08-10T04:35:00Z,23,22,10+,30.05
KM30,37.1824,-88.7487,0,0,0.0,KM30 100435Z AUTO 00000KT 10SM CLR 16/16 A3012 RMK AO2 T01640159,2024-08-10T04:35:00Z,16.4,15.9,10+,30.12
KM25,36.764,-88.5829,60,3,3.45,KM25 100435Z AUTO 06003KT 10SM CLR 20/15 A3012 RMK AO2,2024-08-10T04:35:00Z,20,15,10+,30.12
KM21,37.2291,-87.1542,0,0,0.0,KM21 100435Z AUTO 00000KT 10SM CLR 18/15 A3010 RMK AO2 T01830147,2024-08-10T04:35:00Z,18.3,14.7,10+,30.10
KM08,35.2155,-89.0449,0,0,0.0,KM08 100435Z AUTO 00000KT 10SM CLR 21/16 A3007 RMK A01,2024-08-10T04:35:00Z,21,16,10+,30.07
KM04,35.5819,-89.5858,340,3,3.45,KM04 100435Z AUTO 34003KT 10SM CLR 18/16 A3009 RMK A01,2024-08-10T04:35:00Z,18,16,10+,30.09
KM02,36.1289,-87.4283,10,6,6.9,KM02 100435Z AUTO 01006KT 10SM CLR 19/15 A3009 RMK A01,2024-08-10T04:35:00Z,19,15,10+,30.09
KM01,35.2004,-90.0548,0,0,0.0,KM01 100435Z AUTO 00000KT 10SM CLR 21/19 A3007 RMK AO2 T02120195 $,2024-08-10T04:35:00Z,21.2,19.5,10+,30.07
KLYV,43.6217,-96.214,0,0,0.0,KLYV 100435Z AUTO 00000KT 10SM CLR 11/08 A3019 RMK AO2,2024-08-10T04:35:00Z,11,8,10+,30.19
KLYO,38.343,-98.2266,40,3,3.45,KLYO 100435Z AUTO 04003KT 10SM BKN080 16/12 A3025 RMK AO2 T01550121,2024-08-10T04:35:00Z,15.5,12.1,10+,30.25
KLXY,31.6446,-96.5122,,,,KLXY 100435Z AUTO 10SM CLR 28/22 A3008 RMK AO2 T02800220 TSNO,2024-08-10T04:35:00Z,28,22,10+,30.08
KLXN,40.7915,-99.775,250,3,3.45,KLXN 100435Z AUTO 25003KT 10SM BKN070 OVC080 16/15 A3026 RMK AO2 T01600150,2024-08-10T04:35:00Z,16,15,10+,30.26
KLXL,45.9509,-94.3441,0,0,0.0,KLXL 100435Z AUTO 00000KT 10SM CLR 11/08 A3011 RMK AO2,2024-08-10T04:35:00Z,11,8,10+,30.11
KLWB,37.8633,-80.3923,0,0,0.0,KLWB 100435Z AUTO 00000KT 10SM CLR 22/17 A3007 RMK AO2 T02210167,2024-08-10T04:35:00Z,22.1,16.7,10+,30.07
KLWA,42.3476,-86.2578,300,8,9.21,KLWA 100435Z AUTO 30008KT 10SM SCT040 SCT049 SCT055 19/11 A3002 RMK AO2 T01850107,2024-08-10T04:35:00Z,18.5,10.7,10+,30.02
KLVN,44.6252,-93.2273,280,4,4.6,KLVN 100435Z AUTO 28004KT 10SM CLR 12/09 A3012 RMK AO2,2024-08-10T04:35:00Z,12,9,10+,30.12
KLVL,36.7723,-77.7925,200,3,3.45,KLVL 100435Z AUTO 20003KT 10SM CLR 25/25 A2994 RMK AO1 T02510245,2024-08-10T04:35:00Z,25.1,24.5,10+,29.94
KLUX,34.508,-81.949,210,3,3.45,KLUX 100435Z AUTO 21003KT 10SM CLR 26/25 A2996 RMK AO2 LTG DSNT NW,2024-08-10T04:35:00Z,26,25,10+,29.96
KLUV,32.7481,-101.913,90,15,17.26,KLUV 100435Z AUTO 09015KT 10SM SCT100 29/17 A3017 RMK AO2,2024-08-10T04:35:00Z,29,17,10+,30.17
KLUM,44.8936,-91.8665,270,7,8.06,KLUM 100435Z AUTO 27007KT 10SM OVC080 16/11 A3007 RMK AO2 T01600107 PWINO,2024-08-10T04:35:00Z,16,10.7,10+,30.07
KLUL,31.6682,-89.1705,350,5,5.75,KLUL 100435Z AUTO 35005KT 10SM CLR 22/22 A3001 RMK A02 T0222////,2024-08-10T04:35:00Z,22.2,22,10+,30.01
KLUG,35.5082,-86.8055,0,0,0.0,KLUG 100435Z AUTO 00000KT 10SM FEW047 21/20 A3006 RMK A01,2024-08-10T04:35:00Z,21,20,10+,30.06
KLUD,33.2568,-97.5826,0,0,0.0,KLUD 100435Z AUTO 00000KT 7SM CLR 26/20 A3011 RMK AO2 T02610200,2024-08-10T04:35:00Z,26.1,20,7,30.11
KLUA,38.667,-78.501,300,3,3.45,KLUA 100435Z AUTO 30003KT 10SM 23/22 A2996 RMK AO2 PNO,2024-08-10T04:35:00Z,23,22,10+,29.96
KLRY,38.6074,-94.3453,0,0,0.0,KLRY 100435Z AUTO 00000KT 10SM CLR 16/13 A3024 RMK AO2,2024-08-10T04:35:00Z,16,13,10+,30.24
KLRU,32.2884,-106.913,100,6,6.9,KLRU 100435Z AUTO 10006KT 10SM CLR 28/08 A3014 RMK AO2 T02800083,2024-08-10T04:35:00Z,28,8.3,10+,30.14
KLRO,32.8982,-79.7796,0,0,0.0,KLRO 100435Z AUTO 00000KT 5SM BR 28/28 A2994 RMK AO2,2024-08-10T04:35:00Z,28,28,5,29.94
KLRJ,42.7771,-96.195,0,0,0.0,KLRJ 100435Z AUTO 00000KT 10SM CLR 12/12 A3018 RMK AO2,2024-08-10T04:35:00Z,12,12,10+,30.18
KLQK,34.8069,-82.7047,80,4,4.6,KLQK 100435Z AUTO 08004KT 10SM VCTS BKN090 24/24 A2998 RMK AO2 LTG DSNT E T02410241,2024-08-10T04:35:00Z,24.1,24.1,10+,29.98
KLOM,40.1376,-75.2684,0,0,0.0,KLOM 100435Z AUTO 00000KT 10SM BKN085 24/ A2988 RMK AO2 T0240////,2024-08-10T04:35:00Z,24,,10+,29.88
KLNP,36.9884,-82.524,0,0,0.0,KLNP 100435Z AUTO 00000KT 10SM CLR 18/15 A3013 RMK AO2,2024-08-10T04:35:00Z,18,15,10+,30.13
KLNN,41.6839,-81.3896,300,11,12.66,KLNN 100435Z AUTO 30011G17KT 10SM SCT045 BKN050 21/13 A2997 RMK AO1 T02110133,2024-08-10T04:35:00Z,21.1,13.3,10+,29.97
KLNL,46.1515,-89.2108,280,6,6.9,KLNL 100435Z AUTO 28006KT 240V310 7SM -DZ SCT007 BKN014 OVC020 11/10 A2994 RMK AO2 T01090099,2024-08-10T04:35:00Z,10.9,9.9,7,29.94
KLNC,32.5832,-96.7209,0,0,0.0,KLNC 100435Z AUTO 00000KT 10SM CLR 28/21 A3008 RMK AO2 T02750210,2024-08-10T04:35:00Z,27.5,21,10+,30.08
KLNA,26.5925,-80.0848,0,0,0.0,KLNA 100435Z AUTO 00000KT 10SM CLR 27/24 A3005 RMK AO2 T02680240,2024-08-10T04:35:00Z,26.8,24,10+,30.05
KLMS,33.15,-89.063,350,5,5.75,KLMS 100435Z AUTO 35005KT 10SM CLR 24/20 A3007 RMK AO2,2024-08-10T04:35:00Z,24,20,10+,30.07
KLMO,40.1612,-105.16,210,4,4.6,KLMO 100435Z AUTO 21004KT 5SM BR CLR 17/15 A3027 RMK AO2 T01670145,2024-08-10T04:35:00Z,16.7,14.5,5,30.27
KLLN,33.556,-102.375,110,13,14.96,KLLN 100435Z AUTO 11013G21KT 10SM FEW060 26/16 A3020 RMK AO2,2024-08-10T04:35:00Z,26,16,10+,30.20
KLKU,38.0085,-77.9681,0,0,0.0,KLKU 100435Z AUTO 00000KT 7SM CLR 25/24 A2992 RMK AO2 T02470241,2024-08-10T04:35:00Z,24.7,24.1,7,29.92
KLKR,34.7266,-80.8532,0,0,0.0,KLKR 100435Z AUTO 00000KT 8SM CLR 25/24 A2995 RMK AO2 LTG DSNT NE,2024-08-10T04:35:00Z,25,24,8,29.95
KLJF,45.0948,-94.5084,280,3,3.45,KLJF 100435Z AUTO 28003KT 10SM CLR 13/10 A3013 RMK AO2,2024-08-10T04:35:00Z,13,10,10+,30.13
KLHM,38.9148,-121.352,150,8,9.21,KLHM 100435Z AUTO 15008KT 10SM CLR 27/08 A2982 RMK AO1,2024-08-10T04:35:00Z,27,8,10+,29.82
KLHB,30.8693,-96.6207,0,0,0.0,KLHB 100435Z AUTO 00000KT CLR 30/23 A3007 RMK AO2 T02950231 PWINO,2024-08-10T04:35:00Z,29.5,23.1,,30.07
KLGC,33.0093,-85.0717,0,0,0.0,KLGC 100435Z AUTO 00000KT 10SM CLR 26/21 A2999 RMK AO2 T02620213,2024-08-10T04:35:00Z,26.2,21.3,10+,29.99
KLDM,43.9614,-86.4107,300,6,6.9,KLDM 100435Z AUTO 30006KT 10SM CLR 17/10 A2995 RMK AO2 T01690104,2024-08-10T04:35:00Z,16.9,10.4,10+,29.95
KLCQ,30.1838,-82.5684,150,3,3.45,KLCQ 100435Z AUTO 15003KT 10SM SCT018 SCT024 25/25 A2999 RMK AO2,2024-08-10T04:35:00Z,25,25,10+,29.99
KLCG,42.2423,-96.983,0,0,0.0,KLCG 100435Z AUTO 00000KT 10SM CLR 11/09 A3022 RMK AO2 T01060093,2024-08-10T04:35:00Z,10.6,9.3,10+,30.22
KLBO,37.6449,-92.6544,10,3,3.45,KLBO 100435Z AUTO 01003KT 10SM CLR 18/13 A3021 RMK AO2,2024-08-10T04:35:00Z,18,13,10+,30.21
KLBE,40.2767,-79.4039,0,0,0.0,KLBE 100435Z AUTO 00000KT 10SM FEW044 20/18 A2998 RMK AO2,2024-08-10T04:35:00Z,20,18,10+,29.98
KLAM,35.8789,-106.262,270,8,9.21,KLAM 100435Z AUTO 27008KT 10SM OVC110 16/13 A3039 RMK AO2 LTG DSNT E T01640130 $,2024-08-10T04:35:00Z,16.4,13,10+,30.39
KLAL,27.9866,-82.0193,160,3,3.45,KLAL 100435Z AUTO 16003KT 10SM CLR 27/27 A3003 RMK AO2 T02710269 $,2024-08-10T04:35:00Z,27.1,26.9,10+,30.03
KL35,34.2626,-116.855,0,0,0.0,KL35 100435Z AUTO 00000KT 10SM CLR 18/09 A3030 RMK AO2,2024-08-10T04:35:00Z,18,9,10+,30.30
KL18,33.3551,-117.249,0,0,0.0,KL18 100435Z AUTO 00000KT 10SM CLR 18/17 A2991 RMK AO2,2024-08-10T04:35:00Z,18,17,10+,29.91
KL08,33.2604,-116.323,360,6,6.9,KL08 100435Z AUTO 36006KT 10SM CLR 36/15 A2974 RMK AO2,2024-08-10T04:35:00Z,36,15,10+,29.74
KKY8,37.953,-86.8592,330,5,5.75,KKY8 100435Z AUTO 33005KT 10SM CLR 19/12 A3010 RMK A01,2024-08-10T04:35:00Z,19,12,10+,30.10
KKNB,37.0078,-112.53,0,0,0.0,KKNB 100435Z AUTO 00000KT 10SM CLR 23/M12 A3017 RMK A01,2024-08-10T04:35:00Z,23,-12,10+,30.17
KK88,37.8692,-95.384,360,7,8.06,KK88 100435Z AUTO 36007KT 10SM CLR 18/12 A3022 RMK AO2,2024-08-10T04:35:00Z,18,12,10+,30.22
KK83,39.9053,-95.7747,0,0,0.0,KK83 100435Z AUTO 00000KT 10SM CLR 16/12 A3024 RMK AO2 T01550121,2024-08-10T04:35:00Z,15.5,12.1,10+,30.24
KK82,39.7606,-98.7957,230,5,5.75,KK82 100435Z AUTO 23005KT 10SM OVC070 16/14 A3026 RMK AO2 TSNO T01590143,2024-08-10T04:35:00Z,15.9,14.3,10+,30.26
KK70,25.322,-80.277,0,0,0.0,KK70 100435Z AUTO 00000KT 10SM CLR 28/26 A3002 RMK AO2,2024-08-10T04:35:00Z,28,26,10+,30.02
KK62,38.7018,-84.3964,330,4,4.6,KK62 100435Z AUTO 33004KT 10SM CLR 18/14 A3006 RMK AO2,2024-08-10T04:35:00Z,18,14,10+,30.06
KJZP,34.4542,-84.4597,310,4,4.6,KJZP 100435Z AUTO 31004KT 10SM CLR 23/19 A3003 RMK AO2 T02350189,2024-08-10T04:35:00Z,23.5,18.9,10+,30.03
KJZI,32.7025,-80.0058,190,9,10.36,KJZI 100435Z AUTO 19009KT 28/26 A2995 RMK AO2,2024-08-10T04:35:00Z,28,26,,29.95
KJYR,40.8942,-97.6258,0,0,0.0,KJYR 100435Z AUTO 00000KT 10SM BKN100 15/13 A3023 RMK AO2,2024-08-10T04:35:00Z,15,13,10+,30.23
KJYM,41.9197,-84.5853,250,3,3.45,KJYM 100435Z AUTO 25003KT 10SM CLR 14/13 A3002 RMK AO2,2024-08-10T04:35:00Z,14,13,10+,30.02
KJYL,32.6459,-81.5894,210,3,3.45,KJYL 100435Z AUTO 21003KT 10SM CLR 26/26 A2996 RMK AO2 T02630258,2024-08-10T04:35:00Z,26.3,25.8,10+,29.96
KJYG,43.9855,-94.5527,290,6,6.9,KJYG 100435Z AUTO 29006KT 10SM CLR 13/13 A3015 RMK AO2,2024-08-10T04:35:00Z,13,13,10+,30.15
KJXI,32.7036,-94.9471,0,0,0.0,KJXI 100435Z AUTO 00000KT 10SM CLR 25/23 A3008 RMK AO2 T02460225,2024-08-10T04:35:00Z,24.6,22.5,10+,30.08
KJWY,32.456,-96.914,0,0,0.0,KJWY 100435Z AUTO 00000KT 10SM CLR 26/21 A3009 RMK AO2 T02640207 TSNO $,2024-08-10T04:35:00Z,26.4,20.7,10+,30.09
KJWG,35.863,-98.423,40,10,11.51,KJWG 100435Z AUTO 04010KT 10SM SCT090 BKN120 20/11 A3024 RMK AO2 T02030108,2024-08-10T04:35:00Z,20.3,10.8,10+,30.24
KJVY,38.3692,-85.7366,320,5,5.75,KJVY 100435Z 32005KT 10SM CLR A3006 RMK AO2 TEMP/DEW PT/DENSITY ALT UNRELIABLE. RWY 18 PREFERRED CALM WIND,2024-08-10T04:35:00Z,,,10+,30.06
KJVW,32.3069,-90.412,0,0,0.0,KJVW 100435Z AUTO 00000KT 10SM CLR 23/21 A3004 RMK AO2,2024-08-10T04:35:00Z,23,21,10+,30.04
KJTC,34.1292,-109.309,0,0,0.0,KJTC 100435Z AUTO 00000KT 10SM CLR 17/13 A3035 RMK AO2,2024-08-10T04:35:00Z,17,13,10+,30.35
KJSY,45.3556,-117.254,200,3,3.45,KJSY 100435Z AUTO 20003KT 10SM CLR 17/07 A3008 RMK AO2 T01720069,2024-08-10T04:35:00Z,17.2,6.9,10+,30.08
KJSV,35.4381,-94.8012,VRB,5,5.75,KJSV 100435Z AUTO VRB05KT 10SM CLR 25/12 A3011 RMK AO2,2024-08-10T04:35:00Z,25,12,10+,30.11
KJSO,31.869,-95.2145,0,0,0.0,KJSO 100435Z AUTO 00000KT 10SM CLR 26/22 A3010 RMK AO2 T02580215,2024-08-10T04:35:00Z,25.8,21.5,10+,30.10
KJRO,38.9861,-82.5756,VRB,2,2.3,KJRO 100435Z AUTO VRB02KT 10SM OVC060 21/16 A3002 RMK AO2,2024-08-10T04:35:00Z,21,16,10+,30.02
KJPX,40.9605,-72.2511,210,10,11.51,KJPX 100435Z AUTO 21010G19KT 4SM -RA OVC005 23/23 A2986 RMK AO2 T02300230,2024-08-10T04:35:00Z,23,23,4,29.86
KJOT,41.5176,-88.179,260,4,4.6,KJOT 100435Z AUTO 26004KT 10SM CLR 16/13 A3009 RMK AO2 T01630128,2024-08-10T04:35:00Z,16.3,12.8,10+,30.09
KJMR,45.8885,-93.269,290,4,4.6,KJMR 100435Z AUTO 29004KT 10SM SCT049 12/08 A3012 RMK AO2,2024-08-10T04:35:00Z,12,8,10+,30.12
KJKJ,46.8404,-96.6545,0,0,0.0,KJKJ 100435Z AUTO 00000KT 10SM CLR 12/08 A3015 RMK AO2,2024-08-10T04:35:00Z,12,8,10+,30.15
KJKA,30.291,-87.661,30,5,5.75,KJKA 100435Z AUTO 03005KT 10SM FEW060 OVC095 28/27 A2995 RMK AO2,2024-08-10T04:35:00Z,28,27,10+,29.95
KJHN,37.5782,-101.73,140,5,5.75,KJHN 100435Z AUTO 14005KT 10SM OVC019 14/14 A3028 RMK AO2 LTG DSNT SW T01400136,2024-08-10T04:35:00Z,14,13.6,10+,30.28
KJGG,37.24,-76.718,0,0,0.0,KJGG 100435Z AUTO 00000KT 10SM BKN010 BKN049 26/25 A2992 RMK AO2 CIG 009V013 T02560251 $,2024-08-10T04:35:00Z,25.6,25.1,10+,29.92
KJFZ,37.0634,-81.7969,280,3,3.45,KJFZ 100435Z AUTO 28003KT 10SM OVC038 22/18 A3012 RMK AO2 T02160184,2024-08-10T04:35:00Z,21.6,18.4,10+,30.12
KJFX,33.9008,-87.3092,0,0,0.0,KJFX 100435Z AUTO 00000KT 8SM CLR 21/20 A3003 RMK AO2,2024-08-10T04:35:00Z,21,20,8,30.03
KJES,31.5521,-81.8896,230,3,3.45,KJES 100435Z AUTO 23003KT 10SM CLR 26/25 A2998 RMK AO2,2024-08-10T04:35:00Z,26,25,10+,29.98
KJCA,34.1739,-83.5583,290,3,3.45,KJCA 100435Z AUTO 29003KT 10SM CLR 24/21 A2998 RMK AO2 T02430209,2024-08-10T04:35:00Z,24.3,20.9,10+,29.98
KJAU,36.3351,-84.1635,0,0,0.0,KJAU 100435Z AUTO 00000KT 10SM CLR 21/19 A3008 RMK A01,2024-08-10T04:35:00Z,21,19,10+,30.08
KJAS,30.8904,-94.0332,0,0,0.0,KJAS 100435Z AUTO 00000KT 8SM 25/24 RMK AO2,2024-08-10T04:35:00Z,25,24,8,
KJAQ,38.3742,-120.794,0,0,0.0,KJAQ 100435Z AUTO 00000KT 10SM CLR 27/M01 A2995 RMK AO1 T02661007,2024-08-10T04:35:00Z,26.6,-0.7,10+,29.95
KIZA,34.6059,-120.076,0,0,0.0,KIZA 100435Z AUTO 00000KT 10SM CLR 15/13 A2991 RMK AO2,2024-08-10T04:35:00Z,15,13,10+,29.91
KIYA,29.976,-92.0826,0,0,0.0,KIYA 100435Z AUTO 00000KT 10SM CLR 25/25 A3000 RMK AO2 T02500250 $,2024-08-10T04:35:00Z,25,25,10+,30.00
KIXA,36.331,-77.6333,0,0,0.0,KIXA 100435Z AUTO 00000KT 7SM CLR 23/23 A2993 RMK AO2,2024-08-10T04:35:00Z,23,23,7,29.93
KISQ,45.9729,-86.1728,260,4,4.6,KISQ 100435Z AUTO 26004KT 10SM OVC075 14/11 A2985 RMK AO2 T01350110,2024-08-10T04:35:00Z,13.5,11,10+,29.85
KIRS,41.8154,-85.4376,250,4,4.6,KIRS 100435Z AUTO 25004KT 10SM BKN060 16/13 A3003 RMK AO2,2024-08-10T04:35:00Z,16,13,10+,30.03
KIOB,38.0574,-83.9829,0,0,0.0,KIOB 100435Z AUTO 00000KT 10SM BKN050 21/17 A3007 RMK AO2 PWINO,2024-08-10T04:35:00Z,21,17,10+,30.07
KINJ,32.0844,-97.0959,80,3,3.45,KINJ 100435Z AUTO 08003KT 10SM CLR 28/21 A3009 RMK AO2 T02750209,2024-08-10T04:35:00Z,27.5,20.9,10+,30.09
KINF,28.8062,-82.319,190,3,3.45,KINF 100435Z AUTO 19003KT 7SM CLR 26/26 A3001 RMK AO2,2024-08-10T04:35:00Z,26,26,7,30.01
KIMS,38.7515,-85.4689,0,0,0.0,KIMS 100435Z AUTO 00000KT 10SM CLR 17/15 A3010 RMK AO2,2024-08-10T04:35:00Z,17,15,10+,30.10
KIMM,26.4321,-81.4073,0,0,0.0,KIMM 100435Z AUTO 00000KT 10SM CLR 26/26 A3002 RMK AO2,2024-08-10T04:35:00Z,26,26,10+,30.02
KIKW,43.6643,-84.2613,240,5,5.75,KIKW 100435Z AUTO 24005KT 10SM OVC060 17/12 A2993 RMK AO2,2024-08-10T04:35:00Z,17,12,10+,29.93
KIKV,41.6878,-93.5695,290,7,8.06,KIKV 100435Z AUTO 29007KT CLR 16/11 A3018 RMK AO2,2024-08-10T04:35:00Z,16,11,,30.18
KIKK,41.0687,-87.8537,270,5,5.75,KIKK 100435Z AUTO 27005KT 10SM CLR 13/12 A3011 RMK AO2 T01320117,2024-08-10T04:35:00Z,13.2,11.7,10+,30.11
KIKG,27.5464,-98.0292,0,0,0.0,KIKG 100435Z AUTO 00000KT 10SM CLR 26/24 A3002 RMK AO2 T02610242,2024-08-10T04:35:00Z,26.1,24.2,10+,30.02
KIJX,39.774,-90.2419,280,4,4.6,KIJX 100435Z AUTO 28004KT 10SM CLR 14/14 A3015 RMK AO2 T01420139,2024-08-10T04:35:00Z,14.2,13.9,10+,30.15
KIIY,33.7797,-82.8135,0,0,0.0,KIIY 100435Z AUTO 00000KT 10SM CLR 26/24 A2996 RMK AO2 T02590243,2024-08-10T04:35:00Z,25.9,24.3,10+,29.96
KIIB,42.4544,-91.9504,270,6,6.9,KIIB 100435Z AUTO 27006KT 10SM CLR 10/09 A3015 RMK AO2 T01040093,2024-08-10T04:35:00Z,10.4,9.3,10+,30.15
KIGQ,41.5412,-87.5282,270,5,5.75,KIGQ 100435Z AUTO 27005KT 10SM CLR 15/13 A3008 RMK AO2 T01510130,2024-08-10T04:35:00Z,15.1,13,10+,30.08
KIFP,35.1487,-114.561,110,6,6.9,KIFP 100435Z AUTO 11006KT 10SM CLR 36/17 A2975 RMK AO2,2024-08-10T04:35:00Z,36,17,10+,29.75
KIFA,42.4691,-93.2651,280,5,5.75,KIFA 100435Z AUTO 28005KT 10SM CLR 12/09 A3017 RMK AO2 T01170092,2024-08-10T04:35:00Z,11.7,9.2,10+,30.17
KIER,31.736,-93.1003,0,0,0.0,KIER 100435Z AUTO 00000KT 10SM CLR 27/21 A3006 RMK AO2 T02700210,2024-08-10T04:35:00Z,27,21,10+,30.06
KIDP,37.1566,-95.7792,30,6,6.9,KIDP 100435Z AUTO 03006KT 10SM CLR 17/12 A3020 RMK AO2,2024-08-10T04:35:00Z,17,12,10+,30.20
KIDI,40.6337,-79.1036,0,0,0.0,KIDI 100435Z AUTO 00000KT 10SM BKN047 18/18 A3001 RMK A01,2024-08-10T04:35:00Z,18,18,10+,30.01
KICL,40.7242,-95.0222,0,0,0.0,KICL 100435Z AUTO 00000KT 10SM CLR 11/11 A3022 RMK AO2,2024-08-10T04:35:00Z,11,11,10+,30.22
KIBM,41.1894,-103.671,150,3,3.45,KIBM 100435Z AUTO 15003KT 10SM OVC017 14/13 A3032 RMK AO2 T01360126,2024-08-10T04:35:00Z,13.6,12.6,10+,30.32
KI75,41.0472,-93.6876,260,5,5.75,KI75 100435Z AUTO 26005KT 10SM CLR 13/09 A3019 RMK AO2 T01300090,2024-08-10T04:35:00Z,13,9,10+,30.19
KI74,40.1314,-83.757,0,0,0.0,KI74 100435Z AUTO 00000KT 10SM CLR 14/12 A3005 RMK AO2,2024-08-10T04:35:00Z,14,12,10+,30.05
KI68,39.4664,-84.2532,310,7,8.06,KI68 100435Z AUTO 31007KT 10SM CLR 18/17 A3005 RMK AO2,2024-08-10T04:35:00Z,18,17,10+,30.05
KI67,39.2565,-84.7753,0,0,0.0,KI67 100435Z AUTO 00000KT 10SM CLR 18/13 A3007 RMK AO1,2024-08-10T04:35:00Z,18,13,10+,30.07
KI63,39.9883,-90.8023,250,4,4.6,KI63 100435Z AUTO 25004KT 10SM CLR 14/12 A3017 RMK AO2 T01370121,2024-08-10T04:35:00Z,13.7,12.1,10+,30.17
KI40,40.3101,-81.8544,0,0,0.0,KI40 100435Z AUTO 00000KT 10SM CLR 17/15 A3003 RMK AO2,2024-08-10T04:35:00Z,17,15,10+,30.03
KI35,36.8577,-83.3586,0,0,0.0,KI35 100435Z AUTO 00000KT 7SM CLR 21/21 A3008 RMK AO2 T02060206,2024-08-10T04:35:00Z,20.6,20.6,7,30.08
KI23,39.5697,-83.4239,300,5,5.75,KI23 100435Z AUTO 30005KT 10SM CLR 16/14 A3004 RMK AO1,2024-08-10T04:35:00Z,16,14,10+,30.04
KI16,37.5998,-81.5589,,,,KI16 100435Z AUTO 7SM CLR 20/20 A3010 RMK AO2 T02020197,2024-08-10T04:35:00Z,20.2,19.7,7,30.10
KHZX,46.6189,-93.3128,290,4,4.6,KHZX 100435Z AUTO 29004KT 10SM OVC065 13/08 A3007 RMK AO2,2024-08-10T04:35:00Z,13,8,10+,30.07
KHZR,30.718,-91.48,350,4,4.6,KHZR 100435Z AUTO 35004KT 10SM CLR 26/21 A3002 RMK AO2 T02550210,2024-08-10T04:35:00Z,25.5,21,10+,30.02
KHZL,40.9845,-75.9901,0,0,0.0,KHZL 100435Z AUTO 00000KT 21/19 A2996 RMK AO2 PWINO,2024-08-10T04:35:00Z,21,19,,29.96
KHZE,47.288,-101.577,0,0,0.0,KHZE 100435Z AUTO 00000KT 10SM 08/06 A3021 RMK AO2,2024-08-10T04:35:00Z,8,6,10+,30.21
KHYX,43.4319,-83.8648,250,8,9.21,KHYX 100435Z AUTO 25008KT 10SM OVC060 18/13 A2994 RMK AO2,2024-08-10T04:35:00Z,18,13,10+,29.94
KHYW,33.8256,-79.1259,190,3,3.45,KHYW 100435Z AUTO 19003KT 4SM BR CLR 25/25 A2994 RMK AO2,2024-08-10T04:35:00Z,25,25,4,29.94
KHXD,32.2263,-80.6949,200,5,5.75,KHXD 100435Z AUTO 20005G10KT 10SM FEW085 29/25 A2996 RMK AO2,2024-08-10T04:35:00Z,29,25,10+,29.96
KHWY,38.5876,-77.715,0,0,0.0,KHWY 100435Z AUTO 00000KT 4SM BR SCT075 SCT085 23/22 A2992 RMK AO2 T02320216,2024-08-10T04:35:00Z,23.2,21.6,4,29.92
KHVE,38.418,-110.704,0,0,0.0,KHVE 100435Z AUTO 00000KT 10SM CLR 23/15 A3012 RMK AO2,2024-08-10T04:35:00Z,23,15,10+,30.12
KHVC,36.8603,-87.4478,0,0,0.0,KHVC 100435Z AUTO 00000KT 10SM CLR 19/15 A3010 RMK AO2,2024-08-10T04:35:00Z,19,15,10+,30.10
KHUM,29.5634,-90.6629,0,0,0.0,KHUM 100435Z AUTO 00000KT 7SM CLR 27/23 A3000 RMK AO2 T02680234 PWINO,2024-08-10T04:35:00Z,26.8,23.4,7,30.00
KHTH,38.5448,-118.631,290,7,8.06,KHTH 100435Z AUTO 29007KT 10SM CLR 31/03 A3003 RMK A01,2024-08-10T04:35:00Z,31,3,10+,30.03
KHSP,37.9531,-79.8285,300,9,10.36,KHSP 100435Z AUTO 30009KT 7SM 21/18 A3012 RMK AO2 LTG DSNT S T02080176,2024-08-10T04:35:00Z,20.8,17.6,7,30.12
KHSG,43.7178,-108.385,270,8,9.21,KHSG 100435Z AUTO 27008KT 10SM BKN090 15/13 A3020 RMK AO2 T01490127,2024-08-10T04:35:00Z,14.9,12.7,10+,30.20
KHSB,37.8128,-88.5449,0,0,0.0,KHSB 100435Z AUTO 00000KT 10SM CLR 18/15 A3013 RMK AO2 T01770151,2024-08-10T04:35:00Z,17.7,15.1,10+,30.13
KHRX,34.8628,-102.32,110,8,9.21,KHRX 100435Z AUTO 11008KT 10SM CLR 21/17 A3025 RMK AO2 T02120171 TSNO,2024-08-10T04:35:00Z,21.2,17.1,10+,30.25
KHRF,46.2575,-114.127,,,,KHRF 100435Z AUTO 10SM CLR 17/11 A3003 RMK AO2,2024-08-10T04:35:00Z,17,11,10+,30.03
KHQZ,32.7514,-96.5291,0,0,0.0,KHQZ 100435Z AUTO 00000KT 10SM CLR 27/20 A3008 RMK AO1 T02700203,2024-08-10T04:35:00Z,27,20.3,10+,30.08
KHQU,33.5279,-82.518,250,3,3.45,KHQU 100435Z AUTO 25003KT 10SM CLR A2996 RMK AO2,2024-08-10T04:35:00Z,,,10+,29.96
KHQG,37.1647,-101.371,160,11,12.66,KHQG 100435Z AUTO 16011KT 10SM FEW003 BKN050 OVC070 13/13 A3028 RMK AO2,2024-08-10T04:35:00Z,13,13,10+,30.28
KHPT,42.7175,-93.2244,290,5,5.75,KHPT 100435Z AUTO 29005KT 10SM CLR 10/08 A3015 RMK AO2,2024-08-10T04:35:00Z,10,8,10+,30.15
KHOE,31.0561,-82.7726,0,0,0.0,KHOE 100435Z AUTO 00000KT 7SM CLR 26/25 A2997 RMK AO2 T02650248,2024-08-10T04:35:00Z,26.5,24.8,7,29.97
KHOB,32.6797,-103.222,90,11,12.66,KHOB 100435Z AUTO 09011KT 10SM BKN080 28/14 A3017 RMK AO2,2024-08-10T04:35:00Z,28,14,10+,30.17
KHNR,41.5841,-95.3358,0,0,0.0,KHNR 100435Z AUTO 00000KT 10SM CLR 11/10 A3020 RMK A01,2024-08-10T04:35:00Z,11,10,10+,30.20
KHMZ,40.0863,-78.5167,0,0,0.0,KHMZ 100435Z AUTO 00000KT 10SM CLR 18/17 A2997 RMK AO2 P0001 T01760172,2024-08-10T04:35:00Z,17.6,17.2,10+,29.97
KHMT,33.7303,-117.027,220,9,10.36,KHMT 100435Z AUTO 22009KT 10SM CLR 24/16 A2991 RMK AO2,2024-08-10T04:35:00Z,24,16,10+,29.91
KHMP,33.3916,-84.3312,0,0,0.0,KHMP 100435Z AUTO 00000KT 7SM CLR 23/22 A3002 RMK AO2 T02260218,2024-08-10T04:35:00Z,22.6,21.8,7,30.02
KHLX,36.7637,-80.8211,300,4,4.6,KHLX 100435Z AUTO 30004KT 10SM CLR 21/16 A3009 RMK AO2 LTG DSNT SE,2024-08-10T04:35:00Z,21,16,10+,30.09
KHLB,39.3463,-85.2602,0,0,0.0,KHLB 100435Z AUTO 00000KT 10SM CLR 16/16 A3008 RMK A01,2024-08-10T04:35:00Z,16,16,10+,30.08
KHJH,40.1493,-97.5872,0,0,0.0,KHJH 100435Z AUTO 00000KT 10SM BKN110 16/13 A3024 RMK AO2 T01630131,2024-08-10T04:35:00Z,16.3,13.1,10+,30.24
KHII,34.5659,-114.352,0,0,0.0,KHII 100435Z AUTO 00000KT 10SM CLR 39/15 A2975 RMK AO2,2024-08-10T04:35:00Z,39,15,10+,29.75
KHHW,34.0308,-95.5401,360,4,4.6,KHHW 100435Z AUTO 36004KT 10SM CLR 25/13 A3008 RMK AO2,2024-08-10T04:35:00Z,25,13,10+,30.08
KHHG,40.8543,-85.4543,260,3,3.45,KHHG 100435Z AUTO 26003KT 10SM CLR 15/15 A3005 RMK AO2 T01450145,2024-08-10T04:35:00Z,14.5,14.5,10+,30.05
KHHF,35.8929,-100.405,100,4,4.6,KHHF 100435Z AUTO 10004KT 10SM SCT070 OVC080 18/13 A3023 RMK AO2 T01800131,2024-08-10T04:35:00Z,18,13.1,10+,30.23
KHFJ,36.9105,-94.0099,20,6,6.9,KHFJ 100435Z AUTO 02006KT 10SM CLR 18/12 A3020 RMK AO2,2024-08-10T04:35:00Z,18,12,10+,30.20
KHEQ,40.5715,-102.277,0,0,0.0,KHEQ 100435Z AUTO 00000KT 10SM OVC008 12/12 A3030 RMK AO2,2024-08-10T04:35:00Z,12,12,10+,30.30
KHEG,30.2771,-81.8087,VRB,3,3.45,KHEG 100435Z AUTO VRB03KT 10SM CLR 27/24 A3001 RMK AO2 TSNO,2024-08-10T04:35:00Z,27,24,10+,30.01
KHDE,40.4496,-99.3363,260,4,4.6,KHDE 100435Z AUTO 26004KT 10SM OVC070 16/13 A3025 RMK AO2 T01610133,2024-08-10T04:35:00Z,16.1,13.3,10+,30.25
KHDC,30.5237,-90.4176,10,3,3.45,KHDC 100435Z AUTO 01003KT 10SM CLR 26/21 A3000 RMK AO2 T02550206,2024-08-10T04:35:00Z,25.5,20.6,10+,30.00
KHCR,40.4774,-111.433,0,0,0.0,KHCR 100435Z AUTO 00000KT 10SM OVC160 21/09 A3017 RMK AO2 T02060085,2024-08-10T04:35:00Z,20.6,8.5,10+,30.17
KHCO,48.7524,-96.9376,330,4,4.6,KHCO 100435Z AUTO 33004KT 10SM CLR 11/09 A3013 RMK AO2,2024-08-10T04:35:00Z,11,9,10+,30.13
KHCD,44.8597,-94.3855,280,6,6.9,KHCD 100435Z AUTO 28006KT 10SM CLR 13/11 A3015 RMK AO2 T01250106 TSNO,2024-08-10T04:35:00Z,12.5,10.6,10+,30.15
KHAI,41.9591,-85.5933,290,3,3.45,KHAI 100435Z AUTO 29003KT 10SM OVC070 18/14 A3003 RMK AO2 T01810137,2024-08-10T04:35:00Z,18.1,13.7,10+,30.03
KHAF,37.5136,-122.5,330,4,4.6,KHAF 100435Z AUTO 33004KT 3SM BR OVC003 13/13 A2998 RMK AO2,2024-08-10T04:35:00Z,13,13,3,29.98
KHAE,39.7262,-91.4425,0,0,0.0,KHAE 100435Z AUTO 00000KT 10SM CLR 12/11 A3017 RMK AO2,2024-08-10T04:35:00Z,12,11,10+,30.17
KGZS,35.1533,-87.0543,340,4,4.6,KGZS 100435Z AUTO 34004KT 10SM SCT044 23/22 A3005 RMK A01,2024-08-10T04:35:00Z,23,22,10+,30.05
KGZL,35.2913,-95.0956,10,4,4.6,KGZL 100435Z AUTO 01004KT 10SM CLR 24/13 A3022 RMK AO2,2024-08-10T04:35:00Z,24,13,10+,30.22
KGYY,41.6121,-87.4091,260,5,5.75,KGYY 100435Z AUTO 26005KT 10SM CLR 17/12 A3006 RMK AO2,2024-08-10T04:35:00Z,17,12,10+,30.06
KGYL,44.7588,-94.0905,270,6,6.9,KGYL 100435Z AUTO 27006KT 10SM CLR 14/11 A3013 RMK AO2 T01360106,2024-08-10T04:35:00Z,13.6,10.6,10+,30.13
KGYI,33.7231,-96.6714,40,7,8.06,KGYI 100435Z AUTO 04007KT 10SM CLR 26/18 A3011 RMK AO2 T02560182 TSNO,2024-08-10T04:35:00Z,25.6,18.2,10+,30.11
KGYF,26.1292,-94.8981,70,5,5.75,KGYF 100435Z AUTO 07005KT 10SM CLR 30/24 A3001 RMK AO2 T03020236,2024-08-10T04:35:00Z,30.2,23.6,10+,30.01
KGWR,46.2185,-97.6396,280,5,5.75,KGWR 100435Z AUTO 28005KT 10SM CLR 10/10 A3017 RMK A01,2024-08-10T04:35:00Z,10,10,10+,30.17
KGVW,29.1303,-94.5466,60,8,9.21,KGVW 100435Z AUTO 06008KT 10SM SCT050 SCT060 31/25 A3002 RMK A01,2024-08-10T04:35:00Z,31,25,10+,30.02
KGVE,38.1569,-78.1656,0,0,0.0,KGVE 100435Z AUTO 00000KT 10SM OVC050 24/24 A2992 RMK AO1 T02400235,2024-08-10T04:35:00Z,24,23.5,10+,29.92
KGRN,42.8039,-102.181,220,7,8.06,KGRN 100435Z AUTO 22007KT 10SM BKN022 OVC070 15/12 A3026 RMK AO2 T01470118,2024-08-10T04:35:00Z,14.7,11.8,10+,30.26
KGPM,32.6928,-97.0485,0,0,0.0,KGPM 100435Z AUTO 00000KT 10SM CLR 29/21 A3009 RMK AO2 T02870206,2024-08-10T04:35:00Z,28.7,20.6,10+,30.09
KGPH,39.3248,-94.3082,0,0,0.0,KGPH 100435Z AUTO 00000KT 10SM CLR 13/11 A3022 RMK AO2,2024-08-10T04:35:00Z,13,11,10+,30.22
KGPC,39.635,-86.816,300,6,6.9,KGPC 100435Z AUTO 30006KT 10SM CLR 16/13 A3011 RMK AO2 T01560128,2024-08-10T04:35:00Z,15.6,12.8,10+,30.11
KGOP,31.4208,-97.7951,90,4,4.6,KGOP 100435Z AUTO 09004KT 6SM BR CLR 25/25 A3009 RMK AO2,2024-08-10T04:35:00Z,25,25,6,30.09
KGOO,39.224,-121.003,130,4,4.6,KGOO 100435Z AUTO 13004KT 10SM CLR 26/04 A3002 RMK A01,2024-08-10T04:35:00Z,26,4,10+,30.02
KGNT,35.1653,-107.902,130,3,3.45,KGNT 100435Z AUTO 13003KT 10SM BKN095 17/14 A3038 RMK AO2 T01690142,2024-08-10T04:35:00Z,16.9,14.2,10+,30.38
KGNG,42.9155,-114.765,90,11,12.66,KGNG 100435Z AUTO 09011G16KT 10SM FEW042 SCT048 BKN055 24/06 A3000 RMK AO2,2024-08-10T04:35:00Z,24,6,10+,30.00
KGNC,32.678,-102.65,100,10,11.51,KGNC 100435Z AUTO 10010KT 10SM SCT080 SCT095 29/16 A3021 RMK AO2 T02890155,2024-08-10T04:35:00Z,28.9,15.5,10+,30.21
KGNB,40.0904,-105.911,40,4,4.6,KGNB 100435Z AUTO 04004KT 10SM BKN100 10/M06 A3047 RMK AO2 T00961061,2024-08-10T04:35:00Z,9.6,-6.1,10+,30.47
KGMJ,36.607,-94.7369,30,6,6.9,KGMJ 100435Z AUTO 03006KT 10SM CLR 21/13 A3017 RMK AO2 TSNO,2024-08-10T04:35:00Z,21,13,10+,30.17
KGLY,38.3572,-93.6774,320,3,3.45,KGLY 100435Z AUTO 32003KT 10SM CLR 17/13 A3021 RMK AO2,2024-08-10T04:35:00Z,17,13,10+,30.21
KGLX,28.2347,-88.9843,0,0,0.0,KGLX 100435Z AUTO 00000KT 10SM CLR A3000 RMK A01,2024-08-10T04:35:00Z,,,10+,30.00
KGLW,37.0337,-85.9523,0,0,0.0,KGLW 100435Z AUTO 00000KT 10SM CLR 19/16 A3009 RMK AO2 T01900160,2024-08-10T04:35:00Z,19,16,10+,30.09
KGIC,45.9411,-116.133,220,3,3.45,KGIC 100435Z AUTO 22003KT 10SM CLR 20/08 A3000 RMK AO1,2024-08-10T04:35:00Z,20,8,10+,30.00
KGHG,42.0961,-70.6769,200,9,10.36,KGHG 100435Z AUTO 20009G20KT 170V230 9SM FEW004 BKN015 OVC022 26/24 A2984 RMK AO2,2024-08-10T04:35:00Z,26,24,9,29.84
KGGP,40.7127,-86.3673,280,3,3.45,KGGP 100435Z AUTO 28003KT 10SM CLR 13/11 A3009 RMK AO2,2024-08-10T04:35:00Z,13,11,10+,30.09
KGGI,41.7097,-92.7332,0,0,0.0,KGGI 100435Z AUTO 00000KT 10SM CLR 14/11 A3017 RMK AO2 T01440112,2024-08-10T04:35:00Z,14.4,11.2,10+,30.17
KGGF,40.871,-101.734,170,7,8.06,KGGF 100435Z AUTO 17007KT 10SM OVC033 13/13 A3027 RMK AO2,2024-08-10T04:35:00Z,13,13,10+,30.27
KGGE,33.3138,-79.3187,210,5,5.75,KGGE 100435Z AUTO 21005KT 5SM BR CLR 26/26 A2995 RMK AO2,2024-08-10T04:35:00Z,26,26,5,29.95
KGDK,39.6935,-83.9896,VRB,3,3.45,KGDK 100435Z AUTO VRB03KT 10SM FEW045 FEW095 18/14 A3004 RMK AO2,2024-08-10T04:35:00Z,18,14,10+,30.04
KGDB,44.7521,-95.5591,250,6,6.9,KGDB 100435Z AUTO 25006KT 10SM CLR 12/11 A3018 RMK AO2 T01200114,2024-08-10T04:35:00Z,12,11.4,10+,30.18
KGDA,37.3344,-88.1095,0,0,0.0,KGDA 100435Z AUTO 00000KT 10SM CLR 18/14 A3012 RMK AO2 T01800135 PWINO,2024-08-10T04:35:00Z,18,13.5,10+,30.12
KGCY,36.1924,-82.8135,0,0,0.0,KGCY 100435Z AUTO 00000KT 10SM BKN045 OVC050 22/19 A3005 RMK A01,2024-08-10T04:35:00Z,22,19,10+,30.05
KGCM,36.2918,-95.4825,20,10,11.51,KGCM 100435Z AUTO 02010G15KT 10SM CLR 21/14 A3017 RMK AO2,2024-08-10T04:35:00Z,21,14,10+,30.17
KGCD,44.4029,-118.967,280,3,3.45,KGCD 100435Z AUTO 28003KT 10SM CLR 25/06 A3003 RMK AO2 T02460055,2024-08-10T04:35:00Z,24.6,5.5,10+,30.03
KGBK,27.2039,-92.2025,0,0,0.0,KGBK 100435Z AUTO 00000G11KT 10SM CLR 30/25 A2999 RMK A01,2024-08-10T04:35:00Z,30,25,10+,29.99
KGBG,40.9329,-90.4334,250,3,3.45,KGBG 100435Z AUTO 25003KT 10SM CLR 13/11 A3015 RMK AO2 T01300105,2024-08-10T04:35:00Z,13,10.5,10+,30.15
KGAO,29.4352,-90.2599,0,0,0.0,KGAO 100435Z AUTO 00000KT 10SM CLR 25/23 A2999 RMK AO2 T02530231,2024-08-10T04:35:00Z,25.3,23.1,10+,29.99
KGAF,48.4081,-97.3694,300,5,5.75,KGAF 100435Z AUTO 30005KT 10SM CLR 13/09 A3015 RMK AO2,2024-08-10T04:35:00Z,13,9,10+,30.15
KFZG,31.684,-83.2712,0,0,0.0,KFZG 100435Z AUTO 00000KT 10SM CLR 26/24 A2997 RMK AO2 T02630236,2024-08-10T04:35:00Z,26.3,23.6,10+,29.97
KFYM,35.0603,-86.5656,360,6,6.9,KFYM 100435Z AUTO 36006KT 10SM SCT001 BKN032 BKN038 24/20 A3007 RMK A01,2024-08-10T04:35:00Z,24,20,10+,30.07
KFYJ,37.5224,-76.7663,0,0,0.0,KFYJ 100435Z AUTO 00000KT 7SM SCT037 BKN050 OVC100 24/23 A2992 RMK AO1 P0003 T02350232,2024-08-10T04:35:00Z,23.5,23.2,7,29.92
KFYG,38.5877,-90.9915,0,0,0.0,KFYG 100435Z AUTO 00000KT 10SM 17/17 A3017 RMK AO2,2024-08-10T04:35:00Z,17,17,10+,30.17
KFYE,35.2061,-89.3929,0,0,0.0,KFYE 100435Z AUTO 00000KT 10SM CLR 19/17 A3008 RMK A01,2024-08-10T04:35:00Z,19,17,10+,30.08
KFXY,43.2323,-93.6237,300,4,4.6,KFXY 100435Z AUTO 30004KT 10SM CLR 12/09 A3015 RMK AO2,2024-08-10T04:35:00Z,12,9,10+,30.15
KFWS,32.558,-97.308,0,0,0.0,KFWS 100435Z AUTO 00000KT 10SM CLR 26/20 A3010 RMK AO2 T02610205,2024-08-10T04:35:00Z,26.1,20.5,10+,30.10
KFWC,38.3796,-88.4135,340,4,4.6,KFWC 100435Z AUTO 34004KT 10SM CLR 17/14 A3013 RMK AO2 T01720137,2024-08-10T04:35:00Z,17.2,13.7,10+,30.13
KFWB,36.6933,-93.4049,40,6,6.9,KFWB 100435Z AUTO 04006G12KT 10SM CLR 20/12 A3018 RMK AO2,2024-08-10T04:35:00Z,20,12,10+,30.18
KFVX,37.363,-78.4372,0,0,0.0,KFVX 100435Z AUTO 00000KT 10SM CLR 25/25 A2991 RMK AO2 LTG DSNT SW AND W T02470247,2024-08-10T04:35:00Z,24.7,24.7,10+,29.91
KFTN,28.2111,-100.024,120,9,10.36,KFTN 100435Z AUTO 12009KT 10SM CLR 33/20 A3003 RMK A01,2024-08-10T04:35:00Z,33,20,10+,30.03
KFSW,40.6615,-91.3267,240,5,5.75,KFSW 100435Z AUTO 24005KT 10SM CLR 14/11 A3015 RMK AO2,2024-08-10T04:35:00Z,14,11,10+,30.15
KFSK,37.796,-94.7676,340,4,4.6,KFSK 100435Z AUTO 34004KT 10SM CLR 17/13 A3022 RMK AO2 T01650131,2024-08-10T04:35:00Z,16.5,13.1,10+,30.22
KFSE,47.589,-95.773,0,0,0.0,KFSE 100435Z AUTO 00000KT 10SM SCT050 07/06 A3013 RMK AO2,2024-08-10T04:35:00Z,7,6,10+,30.13
KFRR,38.9169,-78.2487,0,0,0.0,KFRR 100435Z AUTO 00000KT 10SM OVC060 22/21 A2994 RMK AO1,2024-08-10T04:35:00Z,22,21,10+,29.94
KFRH,38.5034,-86.6442,0,0,0.0,KFRH 100435Z AUTO 00000KT 10SM CLR 17/12 A3010 RMK AO1,2024-08-10T04:35:00Z,17,12,10+,30.10
KFPY,30.0719,-83.5731,0,0,0.0,KFPY 100435Z AUTO 00000KT 10SM CLR 27/26 A2997 RMK AO2 T02690255,2024-08-10T04:35:00Z,26.9,25.5,10+,29.97
KFPK,42.5764,-84.8125,240,4,4.6,KFPK 100435Z AUTO 24004KT 10SM BKN046 16/13 A2999 RMK AO2,2024-08-10T04:35:00Z,16,13,10+,29.99
KFOT,40.5529,-124.134,0,0,0.0,KFOT 100435Z AUTO 00000KT 10SM OVC005 13/13 A3004 RMK AO1,2024-08-10T04:35:00Z,13,13,10+,30.04
KFOM,38.9618,-112.36,,,,KFOM 100435Z AUTO 10SM CLR 28/05 A3014 RMK AO1,2024-08-10T04:35:00Z,28,5,10+,30.14
KFMM,40.3315,-103.807,110,11,12.66,KFMM 100435Z AUTO 11011KT 8SM BKN013 BKN022 OVC065 15/15 A3023 RMK AO2,2024-08-10T04:35:00Z,15,15,8,30.23
KFLY,38.9439,-104.568,0,0,0.0,KFLY 100435Z AUTO 00000KT 3/4SM BR OVC001 13/13 A3038 RMK AO2 T01280125,2024-08-10T04:35:00Z,12.8,12.5,0.75,30.38
KFKS,44.6246,-86.1985,290,11,12.66,KFKS 100435Z AUTO 29011G14KT 10SM BKN090 18/12 A2991 RMK AO2 T01820115,2024-08-10T04:35:00Z,18.2,11.5,10+,29.91
KFKR,40.2748,-86.5644,270,7,8.06,KFKR 100435Z AUTO 27007KT 10SM OVC065 12/12 A3008 RMK AO2,2024-08-10T04:35:00Z,12,12,10+,30.08
KFKN,36.6984,-76.9032,170,3,3.45,KFKN 100435Z AUTO 17003KT 10SM OVC007 24/24 A2993 RMK AO2 T02430235,2024-08-10T04:35:00Z,24.3,23.5,10+,29.93
KFKA,43.677,-92.174,280,8,9.21,KFKA 100435Z AUTO 28008KT 10SM CLR 12/12 A3010 RMK AO2,2024-08-10T04:35:00Z,12,12,10+,30.10
KFIN,29.467,-81.207,220,3,3.45,KFIN 100435Z AUTO 22003KT 10SM CLR 26/24 A3001 RMK AO2 T02560237,2024-08-10T04:35:00Z,25.6,23.7,10+,30.01
KFHB,30.6131,-81.4623,230,5,5.75,KFHB 100435Z AUTO 23005KT 10SM SCT120 27/25 A2999 RMK AO2,2024-08-10T04:35:00Z,27,25,10+,29.99
KFGX,38.5383,-83.7467,0,0,0.0,KFGX 100435Z AUTO 00000KT 10SM SCT045 BKN050 21/15 A3006 RMK AO2 T02130150,2024-08-10T04:35:00Z,21.3,15,10+,30.06
KFFX,43.4417,-85.9936,240,4,4.6,KFFX 100435Z AUTO 24004KT 10SM CLR 14/11 A2998 RMK AO2 T01440110,2024-08-10T04:35:00Z,14.4,11,10+,29.98
KFFM,46.2865,-96.1534,300,5,5.75,KFFM 100435Z AUTO 30005KT 10SM CLR 11/11 A3015 RMK AO2,2024-08-10T04:35:00Z,11,11,10+,30.15
KFFL,41.0521,-91.9834,270,5,5.75,KFFL 100435Z AUTO 27005KT 13/11 A3015 RMK A01,2024-08-10T04:35:00Z,13,11,,30.15
KFET,41.4489,-96.5237,0,0,0.0,KFET 100435Z AUTO 00000KT 10SM CLR 14/10 A3021 RMK AO2 T01360096,2024-08-10T04:35:00Z,13.6,9.6,10+,30.21
KFEP,42.2475,-89.581,270,5,5.75,KFEP 100435Z AUTO 27005KT 10SM CLR 14/12 A3010 RMK AO2 T01400120,2024-08-10T04:35:00Z,14,12,10+,30.10
KFDW,34.3151,-81.1119,140,5,5.75,KFDW 100435Z AUTO 14005KT 10SM CLR 25/23 A2996 RMK AO1,2024-08-10T04:35:00Z,25,23,10+,29.96
KFDK,39.4177,-77.3696,0,0,0.0,KFDK 100435Z AUTO 00000KT A2992 RMK AO2,2024-08-10T04:35:00Z,,,,29.92
KFCH,36.7338,-119.82,320,8,9.21,KFCH 100435Z AUTO 32008KT 10SM CLR 33/09 A2984 RMK A01,2024-08-10T04:35:00Z,33,9,10+,29.84
KFBR,41.3941,-110.406,200,15,17.26,KFBR 100435Z AUTO 20015G18KT 10SM CLR 17/07 A3030 RMK AO2 T01680069,2024-08-10T04:35:00Z,16.8,6.9,10+,30.30
KFBL,44.3298,-93.3119,240,7,8.06,KFBL 100435Z AUTO 24007KT 10SM CLR 14/11 A3013 RMK AO2,2024-08-10T04:35:00Z,14,11,10+,30.13
KF70,33.577,-117.126,160,3,3.45,KF70 100435Z AUTO 16003KT 10SM CLR 21/16 A2991 RMK AO2,2024-08-10T04:35:00Z,21,16,10+,29.91
KF46,32.9322,-96.4349,0,0,0.0,KF46 100435Z AUTO 00000KT 10SM OVC003 28/22 A3008 RMK AO2 T02750215,2024-08-10T04:35:00Z,27.5,21.5,10+,30.08
KF44,32.165,-95.829,0,0,0.0,KF44 100435Z AUTO 00000KT 10SM CLR 26/21 A3006 RMK AO2,2024-08-10T04:35:00Z,26,21,10+,30.06
KF17,31.8277,-94.154,20,3,3.45,KF17 100435Z AUTO 02003KT 10SM CLR 25/20 A3007 RMK AO2,2024-08-10T04:35:00Z,25,20,10+,30.07
KF05,34.2283,-99.2834,50,7,8.06,KF05 100435Z AUTO 05007KT 10SM CLR 26/16 A3015 RMK AO2 T02570161,2024-08-10T04:35:00Z,25.7,16.1,10+,30.15
KF00,33.6158,-96.1809,10,6,6.9,KF00 100435Z AUTO 01006KT 10SM CLR 26/18 A3009 RMK AO2 T02620178,2024-08-10T04:35:00Z,26.2,17.8,10+,30.09
KEZZ,39.729,-94.2785,270,5,5.75,KEZZ 100435Z AUTO 27005KT 10SM CLR 15/13 A3022 RMK AO2 T01470134,2024-08-10T04:35:00Z,14.7,13.4,10+,30.22
KEZS,44.787,-88.5639,260,5,5.75,KEZS 100435Z AUTO 26005KT 10SM CLR 13/12 A2998 RMK AO2 T01320122,2024-08-10T04:35:00Z,13.2,12.2,10+,29.98
KEZP,28.2198,-92.7944,110,3,3.45,KEZP 100435Z AUTO 11003KT 10SM OVC045 30/24 A3002 RMK A01,2024-08-10T04:35:00Z,30,24,10+,30.02
KEZM,32.2136,-83.1321,0,0,0.0,KEZM 100435Z AUTO 00000KT 10SM CLR 25/25 A2998 RMK AO2,2024-08-10T04:35:00Z,25,25,10+,29.98
KEZF,38.2685,-77.448,0,0,0.0,KEZF 100435Z AUTO 00000KT 10SM SCT080 BKN090 24/24 A2990 RMK AO2 T02410241,2024-08-10T04:35:00Z,24.1,24.1,10+,29.90
KEVU,40.3524,-94.9137,0,0,0.0,KEVU 100435Z AUTO 00000KT 10SM CLR 16/12 A3021 RMK AO2 T01600120,2024-08-10T04:35:00Z,16,12,10+,30.21
KETO,28.0336,-89.1008,0,0,0.0,KETO 100435Z AUTO 00000KT 10SM CLR 30/22 A2999 RMK A01,2024-08-10T04:35:00Z,30,22,10+,29.99
KETB,43.4225,-88.1326,260,5,5.75,KETB 100435Z AUTO 26005KT 10SM CLR 12/11 A3003 RMK AO2,2024-08-10T04:35:00Z,12,11,10+,30.03
KERV,29.9779,-99.0872,120,7,8.06,KERV 100435Z AUTO 12007KT 10SM VCTS SCT060 SCT120 27/20 A3012 RMK AO2 LTG DSNT NE THRU SE T02700200,2024-08-10T04:35:00Z,27,20,10+,30.12
KEQA,37.7753,-96.8145,0,0,0.0,KEQA 100435Z AUTO 00000KT 10SM CLR 16/13 A3023 RMK AO2,2024-08-10T04:35:00Z,16,13,10+,30.23
KENL,38.5095,-89.09,360,4,4.6,KENL 100435Z AUTO 36004KT 10SM CLR 17/14 A3015 RMK AO2 T01680140,2024-08-10T04:35:00Z,16.8,14,10+,30.15
KEMM,41.8224,-110.555,0,0,0.0,KEMM 100435Z AUTO 00000KT 10SM SCT110 17/03 A3028 RMK AO2,2024-08-10T04:35:00Z,17,3,10+,30.28
KELO,47.8287,-91.8371,300,7,8.06,KELO 100435Z AUTO 30007KT 280V340 10SM RA OVC014 10/10 A3000 RMK AO2,2024-08-10T04:35:00Z,10,10,10+,30.00
KELK,35.4261,-99.3926,50,7,8.06,KELK 100435Z AUTO 05007KT 10SM BKN150 18/14 A3020 RMK AO2 T01850145 $,2024-08-10T04:35:00Z,18.5,14.5,10+,30.20
KELA,29.602,-96.3239,,,,KELA 100435Z AUTO 10SM CLR 24/23 A3005 RMK AO2 T02350230,2024-08-10T04:35:00Z,23.5,23,10+,30.05
KEKX,37.6924,-85.9204,340,3,3.45,KEKX 100435Z AUTO 34003KT 10SM CLR 19/15 A3008 RMK AO2 T01850147,2024-08-10T04:35:00Z,18.5,14.7,10+,30.08
KEKS,45.276,-111.65,150,10,11.51,KEKS 100435Z AUTO 15010KT 10SM CLR 14/08 A3020 RMK AO2,2024-08-10T04:35:00Z,14,8,10+,30.20
KEKM,41.7222,-86,260,5,5.75,KEKM 100435Z 26005KT 10SM SCT046 BKN060 17/14 A3004 RMK AO2 T01680138 $,2024-08-10T04:35:00Z,16.8,13.8,10+,30.04
KEKE,28.4971,-91.5702,0,0,0.0,KEKE 100435Z AUTO 00000KT 10SM BKN047 30/24 A2994 RMK A01,2024-08-10T04:35:00Z,30,24,10+,29.94
KEIK,40.0117,-105.05,220,5,5.75,KEIK 100435Z AUTO 22005KT 5SM BR BKN008 15/15 A3027 RMK AO2 BKN V SCT T01520151,2024-08-10T04:35:00Z,15.2,15.1,5,30.27
KEHY,41.725,-106.459,160,11,12.66,KEHY 100435Z AUTO 16011KT 10SM BKN100 11/08 A3032 RMK AO2 PWINO,2024-08-10T04:35:00Z,11,8,10+,30.32
KEHA,37.0011,-101.88,130,10,11.51,KEHA 100435Z AUTO 13010KT 10SM -RA SCT004 BKN032 OVC080 12/12 A3030 RMK AO2 P0004 T01240120,2024-08-10T04:35:00Z,12.4,12,10+,30.30
KEGV,45.9309,-89.267,290,12,13.81,KEGV 100435Z AUTO 29012G17KT 10SM OVC020 12/08 A2994 RMK AO2 T01170080,2024-08-10T04:35:00Z,11.7,8,10+,29.94
KEGT,37.3251,-97.3901,40,6,6.9,KEGT 100435Z AUTO 04006KT 10SM CLR 17/11 A3023 RMK AO2 T01720107,2024-08-10T04:35:00Z,17.2,10.7,10+,30.23
KEFT,42.6196,-89.5931,280,9,10.36,KEFT 100435Z AUTO 28009KT 10SM CLR 15/10 A3007 RMK AO2 T01450102,2024-08-10T04:35:00Z,14.5,10.2,10+,30.07
KEFK,44.8886,-72.2296,170,4,4.6,KEFK 100435Z AUTO 17004KT 10SM SCT028 BKN033 OVC045 22/19 A2978 RMK AO2 T02150185,2024-08-10T04:35:00Z,21.5,18.5,10+,29.78
KEDJ,40.3714,-83.8142,0,0,0.0,KEDJ 100435Z AUTO 00000KT 10SM OVC039 15/14 A3006 RMK A01,2024-08-10T04:35:00Z,15,14,10+,30.06
KEDC,30.3926,-97.5621,0,0,0.0,KEDC 100435Z AUTO 00000KT 7SM BKN044 BKN055 26/25 A3004 RMK AO2,2024-08-10T04:35:00Z,26,25,7,30.04
KECU,29.948,-100.174,110,6,6.9,KECU 100435Z AUTO 11006KT 10SM 28/16 A3017 RMK AO2,2024-08-10T04:35:00Z,28,16,10+,30.17
KECS,43.8845,-104.312,120,9,10.36,KECS 100435Z AUTO 12009KT 10SM SCT017 BKN055 OVC120 13/08 A3027 RMK AO2,2024-08-10T04:35:00Z,13,8,10+,30.27
KEBS,42.4372,-93.8725,290,5,5.75,KEBS 100435Z AUTO 29005KT 10SM CLR 12/10 A3015 RMK AO2,2024-08-10T04:35:00Z,12,10,10+,30.15
KEBG,26.4433,-98.1255,130,6,6.9,KEBG 100435Z AUTO 13006KT 10SM CLR 28/25 A3002 RMK AO2,2024-08-10T04:35:00Z,28,25,10+,30.02
KEBA,34.0957,-82.8121,0,0,0.0,KEBA 100435Z AUTO 00000KT 10SM CLR 26/25 A2995 RMK AO2 T02620248,2024-08-10T04:35:00Z,26.2,24.8,10+,29.95
KEAN,42.0563,-104.939,170,11,12.66,KEAN 100435Z AUTO 17011G20KT 10SM -RA SCT007 SCT032 BKN080 15/14 A3020 RMK AO2 P0001 T01500136,2024-08-10T04:35:00Z,15,13.6,10+,30.20
KE77,32.634,-110.647,150,5,5.75,KE77 100435Z AUTO 15005KT 10SM CLR 28/16 A3007 RMK AO2,2024-08-10T04:35:00Z,28,16,10+,30.07
KE57,32.976,-102.843,110,9,10.36,KE57 100435Z AUTO 11009KT 10SM SCT075 28/14 A3019 RMK AO2,2024-08-10T04:35:00Z,28,14,10+,30.19
KE42,36.2193,-101.194,300,7,8.06,KE42 100435Z AUTO 30007KT 5SM +RA BR BKN026 OVC055 15/13 A3032 RMK AO2 P0009 T01470131,2024-08-10T04:35:00Z,14.7,13.1,5,30.32
KE41,31.1945,-101.473,140,8,9.21,KE41 100435Z AUTO 14008KT 10SM CLR 29/15 A3013 RMK AO2 T02930154,2024-08-10T04:35:00Z,29.3,15.4,10+,30.13
KE38,30.3851,-103.68,0,0,0.0,KE38 100435Z AUTO 00000KT 10SM CLR 26/13 A3026 RMK AO2 T02560130,2024-08-10T04:35:00Z,25.6,13,10+,30.26
KE16,37.0797,-121.598,340,10,11.51,KE16 100435Z AUTO 34010G18KT 10SM CLR 21/11 A2994 RMK AO2,2024-08-10T04:35:00Z,21,11,10+,29.94
KE11,32.3281,-102.528,120,5,5.75,KE11 100435Z AUTO 12005KT 10SM CLR 29/14 A3016 RMK AO2 T02870138,2024-08-10T04:35:00Z,28.7,13.8,10+,30.16
KDZJ,34.8552,-84.0014,170,3,3.45,KDZJ 100435Z AUTO 17003KT 10SM CLR 20/19 A3007 RMK AO2 T01980194,2024-08-10T04:35:00Z,19.8,19.4,10+,30.07
KDZB,30.521,-98.3574,0,0,0.0,KDZB 100435Z AUTO 00000KT 10SM CLR 27/22 A3008 RMK AO2 LTG DSNT SW AND W T02700220,2024-08-10T04:35:00Z,27,22,10+,30.08
KDYT,46.7231,-92.0438,310,12,13.81,KDYT 100435Z AUTO 31012G20KT 10SM OVC034 15/09 A3001 RMK AO2,2024-08-10T04:35:00Z,15,9,10+,30.01
KDYB,33.062,-80.28,0,0,0.0,KDYB 100435Z AUTO 00000KT 9SM CLR 26/26 A2993 RMK AO2,2024-08-10T04:35:00Z,26,26,9,29.93
KDYA,32.4641,-87.9504,0,0,0.0,KDYA 100435Z AUTO 00000KT 10SM CLR 23/21 A2999 RMK AO2 T02260212,2024-08-10T04:35:00Z,22.6,21.2,10+,29.99
KDXX,44.9839,-96.1789,260,4,4.6,KDXX 100435Z AUTO 26004KT 10SM CLR 12/11 A3018 RMK AO2,2024-08-10T04:35:00Z,12,11,10+,30.18
KDWX,41.037,-107.5,40,7,8.06,KDWX 100435Z AUTO 04007KT 10SM CLR 15/10 A3033 RMK AO2 T01470097,2024-08-10T04:35:00Z,14.7,9.7,10+,30.33
KDWA,38.5803,-121.854,150,5,5.75,KDWA 100435Z AUTO 15005KT 10SM CLR 24/10 A2982 RMK AO2,2024-08-10T04:35:00Z,24,10,10+,29.82
KDVO,38.1417,-122.555,VRB,4,4.6,KDVO 100435Z AUTO VRB04KT 10SM CLR 14/11 A2991 RMK AO2,2024-08-10T04:35:00Z,14,11,10+,29.91
KDUX,35.8608,-102.009,80,9,10.36,KDUX 100435Z AUTO 08009KT 10SM -RA BKN037 OVC043 18/17 A3028 RMK AO2 P0001 T01770165,2024-08-10T04:35:00Z,17.7,16.5,10+,30.28
KDUH,41.7375,-83.6493,0,0,0.0,KDUH 100435Z AUTO 00000KT 10SM SCT055 16/12 A3001 RMK AO2 T01630124,2024-08-10T04:35:00Z,16.3,12.4,10+,30.01
KDUC,34.4778,-97.9616,40,7,8.06,KDUC 100435Z AUTO 04007KT 10SM CLR 25/16 A3014 RMK AO2,2024-08-10T04:35:00Z,25,16,10+,30.14
KDUA,33.9427,-96.3967,30,9,10.36,KDUA 100435Z AUTO 03009KT 10SM CLR 26/15 A3011 RMK AO2,2024-08-10T04:35:00Z,26,15,10+,30.11
KDTL,46.8286,-95.8857,310,5,5.75,KDTL 100435Z AUTO 31005KT 10SM CLR 12/08 A3013 RMK AO2,2024-08-10T04:35:00Z,12,8,10+,30.13
KDTA,39.3879,-112.504,160,16,18.41,KDTA 100435Z AUTO 16016KT 10SM CLR 25/08 A3009 RMK AO1,2024-08-10T04:35:00Z,25,8,10+,30.09
KDRP,35.1213,-90.8246,0,0,0.0,KDRP 100435Z AUTO 00000KT 10SM CLR 17/16 A3008 RMK AO2,2024-08-10T04:35:00Z,17,16,10+,30.08
KDRM,46.009,-83.743,260,3,3.45,KDRM 100435Z AUTO 26003KT 10SM BKN049 OVC085 16/12 A2984 RMK AO2 T01600123,2024-08-10T04:35:00Z,16,12.3,10+,29.84
KDRI,30.8344,-93.3359,30,4,4.6,KDRI 100435Z AUTO 03004KT 10SM CLR 26/23 A3004 RMK AO2 T02620229,2024-08-10T04:35:00Z,26.2,22.9,10+,30.04
KDQH,31.4739,-82.8609,0,0,0.0,KDQH 100435Z AUTO 00000KT 10SM CLR 26/23 A2998 RMK AO2 T02590230,2024-08-10T04:35:00Z,25.9,23,10+,29.98
KDNV,40.2032,-87.5897,290,5,5.75,KDNV 100435Z AUTO 29005KT 10SM CLR 15/13 A3011 RMK AO2 T01480130,2024-08-10T04:35:00Z,14.8,13,10+,30.11
KDNS,41.9842,-95.38,0,0,0.0,KDNS 100435Z AUTO 00000KT 10SM CLR 10/09 A3021 RMK AO2,2024-08-10T04:35:00Z,10,9,10+,30.21
KDNN,34.727,-84.8733,320,9,10.36,KDNN 100435Z AUTO 32009KT 10SM CLR 24/20 A2999 RMK AO2 T02410196,2024-08-10T04:35:00Z,24.1,19.6,10+,29.99
KDNA,31.875,-106.694,110,15,17.26,KDNA 100435Z AUTO 11015G20KT 10SM CLR 31/08 A3011 RMK AO2,2024-08-10T04:35:00Z,31,8,10+,30.11
KDLZ,40.281,-83.114,320,4,4.6,KDLZ 100435Z AUTO 32004KT 10SM CLR 16/12 A3004 RMK AO2,2024-08-10T04:35:00Z,16,12,10+,30.04
KDLO,35.7449,-119.239,0,0,0.0,KDLO 100435Z AUTO 00000KT 10SM CLR 28/14 A2982 RMK AO2 T02780144,2024-08-10T04:35:00Z,27.8,14.4,10+,29.82
KDLL,43.5236,-89.7736,0,0,0.0,KDLL 100435Z AUTO 00000KT 10SM CLR 13/10 A3006 RMK AO2 T01260103,2024-08-10T04:35:00Z,12.6,10.3,10+,30.06
KDKX,35.9658,-83.8717,0,0,0.0,KDKX 100435Z AUTO 00000KT 10SM CLR 21/21 A3003 RMK A01,2024-08-10T04:35:00Z,21,21,10+,30.03
KDKR,31.3097,-95.4039,0,0,0.0,KDKR 100435Z AUTO 00000KT 2SM BR CLR 26/26 A3005 RMK AO2,2024-08-10T04:35:00Z,26,26,2,30.05
KDKB,41.9338,-88.7066,260,9,10.36,KDKB 100435Z AUTO 26009KT 10SM CLR 15/11 A3008 RMK AO2 T01480105,2024-08-10T04:35:00Z,14.8,10.5,10+,30.08
KDEH,43.2755,-91.7433,VRB,5,5.75,KDEH 100435Z AUTO VRB05KT 10SM CLR 14/11 A3009 RMK AO2,2024-08-10T04:35:00Z,14,11,10+,30.09
KDCY,38.6953,-87.1314,320,4,4.6,KDCY 100435Z AUTO 32004KT 10SM CLR 16/12 A3012 RMK AO2 T01580120,2024-08-10T04:35:00Z,15.8,12,10+,30.12
KD95,43.0675,-83.2702,280,4,4.6,KD95 100435Z AUTO 28004KT 10SM OVC060 19/13 A2997 RMK AO2 T01850130,2024-08-10T04:35:00Z,18.5,13,10+,29.97
KD73,33.7826,-83.6948,0,0,0.0,KD73 100435Z AUTO 00000KT 10SM SCT090 24/24 A2999 RMK AO2 T02450237,2024-08-10T04:35:00Z,24.5,23.7,10+,29.99
KD60,48.3834,-102.898,260,4,4.6,KD60 100435Z AUTO 26004KT 10SM CLR 10/08 A3022 RMK AO2,2024-08-10T04:35:00Z,10,8,10+,30.22
KD57,46.814,-101.864,0,0,0.0,KD57 100435Z AUTO 00000KT 10SM CLR 07/06 A3020 RMK AO2,2024-08-10T04:35:00Z,7,6,10+,30.20
KD50,48.9248,-103.296,220,5,5.75,KD50 100435Z AUTO 22005KT 9SM FEW055 SCT070 BKN100 10/05 A3020 RMK AO2,2024-08-10T04:35:00Z,10,5,9,30.20
KD39,45.7057,-94.9308,270,5,5.75,KD39 100435Z AUTO 27005KT 10SM CLR 11/09 A3013 RMK AO2 T01060090,2024-08-10T04:35:00Z,10.6,9,10+,30.13
KD09,48.83,-100.417,60,3,3.45,KD09 100435Z AUTO 06003KT 10SM OVC075 13/11 A3017 RMK AO2,2024-08-10T04:35:00Z,13,11,10+,30.17
KCYD,28.1694,-89.2228,80,4,4.6,KCYD 100435Z AUTO 08004KT 7SM CLR 30/22 A3002 RMK A02 T02980219,2024-08-10T04:35:00Z,29.8,21.9,7,30.02
KCXU,31.2141,-84.2358,0,0,0.0,KCXU 100435Z AUTO 00000KT 10SM CLR 28/25 A2996 RMK AO1 T02760250,2024-08-10T04:35:00Z,27.6,25,10+,29.96
KCXP,39.1905,-119.732,270,11,12.66,KCXP 100435Z AUTO 27011G18KT 10SM CLR 27/03 A3011 RMK AO2,2024-08-10T04:35:00Z,27,3,10+,30.11
KCXE,36.7923,-78.5027,0,0,0.0,KCXE 100435Z AUTO 00000KT 10SM OVC085 25/25 A2994 RMK AO1 T02480245,2024-08-10T04:35:00Z,24.8,24.5,10+,29.94
KCWV,32.193,-81.873,VRB,2,2.3,KCWV 100435Z AUTO VRB02KT 10SM FEW080 27/25 A2994 RMK AO2,2024-08-10T04:35:00Z,27,25,10+,29.94
KCWF,30.2216,-93.1467,10,4,4.6,KCWF 100435Z AUTO 01004KT 10SM CLR 28/23 A3002 RMK AO2 T02770227,2024-08-10T04:35:00Z,27.7,22.7,10+,30.02
KCWC,33.8629,-98.4914,50,7,8.06,KCWC 100435Z AUTO 05007KT 10SM CLR 26/18 A3014 RMK AO2 T02630181,2024-08-10T04:35:00Z,26.3,18.1,10+,30.14
KCWA,44.7795,-89.671,280,8,9.21,KCWA 100435Z AUTO 28008KT 10SM CLR 12/10 A3001 RMK AO2,2024-08-10T04:35:00Z,12,10,10+,30.01
KCVX,45.304,-85.2689,290,13,14.96,KCVX 100435Z AUTO 29013G17KT 10SM SCT048 SCT050 BKN080 17/10 A2987 RMK AO2 T01720095,2024-08-10T04:35:00Z,17.2,9.5,10+,29.87
KCVH,36.8919,-121.41,210,7,8.06,KCVH 100435Z AUTO 21007KT 10SM CLR 18/11 A2994 RMK A01,2024-08-10T04:35:00Z,18,11,10+,29.94
KCVC,33.6312,-83.8482,0,0,0.0,KCVC 100435Z AUTO 00000KT 10SM CLR 25/23 A2997 RMK AO2,2024-08-10T04:35:00Z,25,23,10+,29.97
KCVB,29.343,-98.8497,100,6,6.9,KCVB 100435Z AUTO 10006KT 7SM CLR A3006 RMK AO2 LTG DSNT N,2024-08-10T04:35:00Z,,,7,30.06
KCUH,35.949,-96.768,40,7,8.06,KCUH 100435Z AUTO 04007KT 10SM CLR 21/09 A3016 RMK AO2 T02100091,2024-08-10T04:35:00Z,21,9.1,10+,30.16
KCTJ,33.6313,-85.1538,350,3,3.45,KCTJ 100435Z AUTO 35003KT 10SM CLR 24/19 A3006 RMK AO2 T02350193,2024-08-10T04:35:00Z,23.5,19.3,10+,30.06
KCSQ,41.0188,-94.361,290,5,5.75,KCSQ 100435Z AUTO 29005KT 10SM CLR 14/09 A3020 RMK AO2,2024-08-10T04:35:00Z,14,9,10+,30.20
KCSB,40.307,-100.162,260,5,5.75,KCSB 100435Z AUTO 26005KT 10SM BKN040 OVC050 15/14 A3026 RMK AO2,2024-08-10T04:35:00Z,15,14,10+,30.26
KCRX,34.9209,-88.6071,340,5,5.75,KCRX 100435Z AUTO 34005KT 10SM CLR 22/18 A3007 RMK AO2,2024-08-10T04:35:00Z,22,18,10+,30.07
KCQW,34.7128,-79.9622,0,0,0.0,KCQW 100435Z AUTO 00000KT 10SM CLR 27/25 A2994 RMK AO2,2024-08-10T04:35:00Z,27,25,10+,29.94
KCQM,47.8199,-92.6817,310,4,4.6,KCQM 100435Z AUTO 31004KT 10SM SCT025 SCT031 OVC045 12/08 A3004 RMK AO2,2024-08-10T04:35:00Z,12,8,10+,30.04
KCQF,30.4618,-87.8749,60,4,4.6,KCQF 100435Z AUTO 06004KT 10SM BKN060 BKN085 OVC100 A2996 RMK AO2,2024-08-10T04:35:00Z,,,10+,29.96
KCQB,35.7223,-96.8187,20,10,11.51,KCQB 100435Z AUTO 02010G16KT 10SM CLR 22/11 A3017 RMK AO2 T02160105,2024-08-10T04:35:00Z,21.6,10.5,10+,30.17
KCPW,37.464,-106.804,230,8,9.21,KCPW 100435Z AUTO 23008G17KT 1/4SM UP OVC001 07/07 A3074 RMK AO2 LTG DSNT SW AND W,2024-08-10T04:35:00Z,7,7,0.25,30.74
KCPU,38.1445,-120.645,10,3,3.45,KCPU 100435Z AUTO 01003KT 10SM CLR 27/01 A2993 RMK AO2 T02650010,2024-08-10T04:35:00Z,26.5,1,10+,29.93
KCPT,32.3526,-97.435,90,4,4.6,KCPT 100435Z AUTO 09004KT 10SM CLR 28/22 A3011 RMK A01,2024-08-10T04:35:00Z,28,22,10+,30.11
KCPP,33.5991,-83.1401,0,0,0.0,KCPP 100435Z AUTO 00000KT 10SM SCT060 BKN100 26/24 A2995 RMK AO2,2024-08-10T04:35:00Z,26,24,10+,29.95
KCPK,36.6631,-76.3264,180,3,3.45,KCPK 100435Z AUTO 18003KT 7SM SCT012 BKN070 24/23 A2993 RMK AO2 T02410233,2024-08-10T04:35:00Z,24.1,23.3,7,29.93
KCPF,37.3869,-83.2593,0,0,0.0,KCPF 100435Z AUTO 00000KT 10SM CLR 20/17 A3005 RMK AO2,2024-08-10T04:35:00Z,20,17,10+,30.05
KCOQ,46.6986,-92.5034,290,4,4.6,KCOQ 100435Z AUTO 29004KT 10SM SCT041 12/08 A3003 RMK AO2 TSNO,2024-08-10T04:35:00Z,12,8,10+,30.03
KCOM,31.8415,-99.4058,80,3,3.45,KCOM 100435Z AUTO 08003KT 10SM CLR 27/20 A3013 RMK AO2 T02650200 PWINO,2024-08-10T04:35:00Z,26.5,20,10+,30.13
KCNI,34.31,-84.424,330,6,6.9,KCNI 100435Z AUTO 33006KT 10SM CLR 24/20 A3001 RMK AO2 T02430196,2024-08-10T04:35:00Z,24.3,19.6,10+,30.01
KCNC,41.0185,-93.3608,280,6,6.9,KCNC 100435Z AUTO 28006KT 10SM 13/10 A3017 RMK AO2,2024-08-10T04:35:00Z,13,10,10+,30.17
KCNB,44.7297,-96.2623,240,3,3.45,KCNB 100435Z AUTO 24003KT 10SM CLR 12/10 A3018 RMK AO2 T01200104,2024-08-10T04:35:00Z,12,10.4,10+,30.18
KCMR,35.3016,-112.197,160,5,5.75,KCMR 100435Z AUTO 16005KT 10SM CLR 17/15 A3031 RMK AO2,2024-08-10T04:35:00Z,17,15,10+,30.31
KCMD,34.2722,-86.8583,0,0,0.0,KCMD 100435Z AUTO 00000KT 10SM FEW003 22/19 A3005 RMK AO2,2024-08-10T04:35:00Z,22,19,10+,30.05
KCLW,27.9741,-82.7563,210,3,3.45,KCLW 100435Z AUTO 21003KT 10SM SCT020 SCT027 28/25 A3001 RMK AO2,2024-08-10T04:35:00Z,28,25,10+,30.01
KCLS,46.6774,-122.986,240,3,3.45,KCLS 100435Z AUTO 24003KT 10SM FEW050 FEW055 19/17 A2997 RMK AO2,2024-08-10T04:35:00Z,19,17,10+,29.97
KCLI,44.6152,-88.7313,250,7,8.06,KCLI 100435Z AUTO 25007KT 10SM CLR 12/10 A3000 RMK AO2,2024-08-10T04:35:00Z,12,10,10+,30.00
KCKZ,40.3864,-75.2953,0,0,0.0,KCKZ 100435Z AUTO 00000KT 10SM BKN070 23/23 A2988 RMK AO2,2024-08-10T04:35:00Z,23,23,10+,29.88
KCKP,42.7304,-95.5538,150,2,2.3,KCKP 100435Z AUTO 15002KT 10SM CLR 11/10 A3019 RMK AO2,2024-08-10T04:35:00Z,11,10,10+,30.19
KCKN,47.8404,-96.6201,280,3,3.45,KCKN 100435Z AUTO 28003KT 10SM CLR 11/07 A3014 RMK AO2,2024-08-10T04:35:00Z,11,7,10+,30.14
KCKM,34.2945,-90.5146,10,4,4.6,KCKM 100435Z AUTO 01004KT 10SM 23/ A3007 RMK A01,2024-08-10T04:35:00Z,23,,10+,30.07
KCKI,33.7187,-79.8567,0,0,0.0,KCKI 100435Z AUTO 00000KT 7SM CLR 25/23 A2995 RMK AO2,2024-08-10T04:35:00Z,25,23,7,29.95
KCKF,31.9889,-83.7739,190,4,4.6,KCKF 100435Z AUTO 19004KT 10SM CLR 27/23 A2996 RMK AO2 T02650230,2024-08-10T04:35:00Z,26.5,23,10+,29.96
KCKC,47.8366,-90.3864,330,9,10.36,KCKC 100435Z AUTO 33009G16KT 283V353 5SM -DZ BKN014 OVC020 09/08 A2989 RMK AO2,2024-08-10T04:35:00Z,9,8,5,29.89
KCJR,38.5261,-77.8574,0,0,0.0,KCJR 100435Z AUTO 00000KT OVC065 24/23 A2993 RMK AO2 T02350226 PWINO,2024-08-10T04:35:00Z,23.5,22.6,,29.93
KCIR,37.0639,-89.2232,0,0,0.0,KCIR 100435Z AUTO 00000KT 10SM CLR 18/16 A3013 RMK AO2 T01780155,2024-08-10T04:35:00Z,17.8,15.5,10+,30.13
KCIN,42.0444,-94.7888,280,6,6.9,KCIN 100435Z AUTO 28006KT 10SM CLR 12/10 A3018 RMK AO2,2024-08-10T04:35:00Z,12,10,10+,30.18
KCHK,35.0927,-97.9709,20,6,6.9,KCHK 100435Z AUTO 02006KT 10SM CLR 22/14 A3014 RMK AO2 T02200138,2024-08-10T04:35:00Z,22,13.8,10+,30.14
KCGF,41.566,-81.4827,290,9,10.36,KCGF 100435Z AUTO 29009KT 10SM BKN038 OVC049 21/14 A2999 RMK AO2 T02110139,2024-08-10T04:35:00Z,21.1,13.9,10+,29.99
KCGC,28.866,-82.5741,0,0,0.0,KCGC 100435Z AUTO 00000KT 10SM SCT026 SCT035 27/25 A3000 RMK AO2,2024-08-10T04:35:00Z,27,25,10+,30.00
KCFS,43.4624,-83.4428,230,5,5.75,KCFS 100435Z AUTO 23005KT 10SM OVC055 15/14 A2995 RMK AO2 T01520135,2024-08-10T04:35:00Z,15.2,13.5,10+,29.95
KCFO,39.7948,-104.54,190,5,5.75,KCFO 100435Z AUTO 19005KT 7SM CLR 16/15 A3028 RMK AO2 T01610145,2024-08-10T04:35:00Z,16.1,14.5,7,30.28
KCFJ,39.9767,-86.9148,300,3,3.45,KCFJ 100435Z AUTO 30003KT 10SM CLR 12/08 A3011 RMK AO2 T01210083,2024-08-10T04:35:00Z,12.1,8.3,10+,30.11
KCFE,45.1601,-93.846,280,6,6.9,KCFE 100435Z AUTO 28006KT 10SM FEW031 BKN038 BKN050 14/11 A3011 RMK AO2,2024-08-10T04:35:00Z,14,11,10+,30.11
KCFD,30.7171,-96.3347,0,0,0.0,KCFD 100435Z AUTO 00000KT 10SM CLR 27/24 A3009 RMK AO2 T02740235,2024-08-10T04:35:00Z,27.4,23.5,10+,30.09
KCEY,36.664,-88.372,350,5,5.75,KCEY 100435Z AUTO 35005KT 10SM CLR 19/16 A3012 RMK A01,2024-08-10T04:35:00Z,19,16,10+,30.12
KCDN,34.2815,-80.5636,0,0,0.0,KCDN 100435Z AUTO 00000KT 10SM CLR 26/25 A2995 RMK AO2,2024-08-10T04:35:00Z,26,25,10+,29.95
KCDI,39.976,-81.577,200,3,3.45,KCDI 100435Z AUTO 20003KT 10SM CLR 17/17 A3000 RMK AO2 T01710165,2024-08-10T04:35:00Z,17.1,16.5,10+,30.00
KCDH,33.619,-92.765,0,0,0.0,KCDH 100435Z AUTO 00000KT 9SM CLR 23/21 A3007 RMK AO2,2024-08-10T04:35:00Z,23,21,9,30.07
KCDA,44.5677,-72.0191,150,4,4.6,KCDA 100435Z AUTO 15004KT 10SM SCT075 21/19 A2981 RMK AO2 T02050193,2024-08-10T04:35:00Z,20.5,19.3,10+,29.81
KCCY,43.073,-92.6132,290,6,6.9,KCCY 100435Z AUTO 29006KT 10SM CLR 12/11 A3013 RMK AO2,2024-08-10T04:35:00Z,12,11,10+,30.13
KCCU,39.475,-106.152,180,12,13.81,KCCU 100435Z AUTO 18012KT 10SM BKN110 08/03 A3069 RMK AO2,2024-08-10T04:35:00Z,8,3,10+,30.69
KCCB,34.1118,-117.685,270,7,8.06,KCCB 100435Z AUTO 27007KT 10SM CLR 24/13 A2990 RMK AO2,2024-08-10T04:35:00Z,24,13,10+,29.90
KCBK,39.4301,-101.051,0,0,0.0,KCBK 100435Z AUTO 00000KT 10SM OVC033 13/11 A3031 RMK AO2 T01320115,2024-08-10T04:35:00Z,13.2,11.5,10+,30.31
KCBG,45.557,-93.264,280,4,4.6,KCBG 100435Z AUTO 28004KT 10SM CLR 13/09 A3009 RMK AO2,2024-08-10T04:35:00Z,13,9,10+,30.09
KCBF,41.2611,-95.7604,0,0,0.0,KCBF 100435Z AUTO 00000KT 10SM CLR 16/09 A3019 RMK AO2,2024-08-10T04:35:00Z,16,9,10+,30.19
KCAV,42.743,-93.7592,300,3,3.45,KCAV 100435Z AUTO 30003KT 10SM CLR 11/09 A3016 RMK A01,2024-08-10T04:35:00Z,11,9,10+,30.16
KCAD,44.2785,-85.4207,260,8,9.21,KCAD 100435Z AUTO 26008KT 10SM FEW029 FEW038 OVC060 14/12 A2993 RMK AO2,2024-08-10T04:35:00Z,14,12,10+,29.93
KC83,37.8276,-121.624,240,20,23.02,KC83 100435Z AUTO 24020G28KT 10SM CLR 24/05 A2985 RMK AO2,2024-08-10T04:35:00Z,24,5,10+,29.85
KC75,41.0231,-89.3886,,,,KC75 100435Z AUTO 10SM CLR 13/11 A3010 RMK AO2 T01320109,2024-08-10T04:35:00Z,13.2,10.9,10+,30.10
KC65,41.3636,-86.2998,260,5,5.75,KC65 100435Z AUTO 26005KT 10SM SCT060 16/13 A3005 RMK A01,2024-08-10T04:35:00Z,16,13,10+,30.05
KC35,43.5261,-89.9809,260,3,3.45,KC35 100435Z AUTO 26003KT 10SM CLR 13/09 A3006 RMK AO2 T01270089 PWINO,2024-08-10T04:35:00Z,12.7,8.9,10+,30.06
KC09,41.4317,-88.4152,270,5,5.75,KC09 100435Z AUTO 27005KT 10SM CLR 14/12 A3008 RMK AO2 T01410122,2024-08-10T04:35:00Z,14.1,12.2,10+,30.08
KC08,38.0138,-105.373,0,0,0.0,KC08 100435Z AUTO 00000KT 10SM SCT075 SCT090 11/10 A3049 RMK AO2,2024-08-10T04:35:00Z,11,10,10+,30.49
KBYY,28.9717,-95.8584,10,3,3.45,KBYY 100435Z AUTO 01003KT 10SM CLR 25/24 A3004 RMK AO2 T02550243,2024-08-10T04:35:00Z,25.5,24.3,10+,30.04
KBYL,36.7954,-84.2013,0,0,0.0,KBYL 100435Z AUTO 00000KT 10SM CLR 20/20 A3007 RMK AO1,2024-08-10T04:35:00Z,20,20,10+,30.07
KBXK,33.4178,-112.688,100,3,3.45,KBXK 100435Z AUTO 10003KT 10SM CLR 37/14 A2979 RMK A01,2024-08-10T04:35:00Z,37,14,10+,29.79
KBXA,30.8104,-89.8627,360,3,3.45,KBXA 100435Z AUTO 36003KT 10SM CLR 23/M05 A3001 RMK AO2 T02321051,2024-08-10T04:35:00Z,23.2,-5.1,10+,30.01
KBWW,46.1656,-103.296,120,8,9.21,KBWW 100435Z AUTO 12008KT 10SM CLR 11/05 A3022 RMK AO2,2024-08-10T04:35:00Z,11,5,10+,30.22
KBWP,46.2444,-96.6046,0,0,0.0,KBWP 100435Z AUTO 00000KT 10SM CLR 10/10 A3014 RMK AO2,2024-08-10T04:35:00Z,10,10,10+,30.14
KBWD,31.7898,-98.9522,0,0,0.0,KBWD 100435Z AUTO 00000KT 9SM 27/22 A3005 RMK AO2 T02680218 $,2024-08-10T04:35:00Z,26.8,21.8,9,30.05
KBVU,35.9489,-114.863,100,7,8.06,KBVU 100435Z AUTO 10007KT 10SM CLR 35/12 A2985 RMK AO2,2024-08-10T04:35:00Z,35,12,10+,29.85
KBVS,48.4696,-122.419,0,0,0.0,KBVS 100435Z AUTO 00000KT 10SM FEW055 BKN120 17/17 A2995 RMK A01,2024-08-10T04:35:00Z,17,17,10+,29.95
KBVN,41.7301,-98.0546,0,0,0.0,KBVN 100435Z AUTO 00000KT 10SM CLR 13/12 A3024 RMK AO2 T01250118,2024-08-10T04:35:00Z,12.5,11.8,10+,30.24
KBVI,40.7735,-80.3825,0,0,0.0,KBVI 100435Z AUTO 00000KT 10SM BKN050 21/17 A2999 RMK AO2 T02080167,2024-08-10T04:35:00Z,20.8,16.7,10+,29.99
KBUU,42.6908,-88.308,250,4,4.6,KBUU 100435Z AUTO 25004KT 10SM CLR 14/12 A3005 RMK AO2 T01350115 PWINO,2024-08-10T04:35:00Z,13.5,11.5,10+,30.05
KBTN,45.8186,-97.7457,0,0,0.0,KBTN 100435Z AUTO 00000KT 10SM CLR 11/10 A3016 RMK AO2,2024-08-10T04:35:00Z,11,10,10+,30.16
KBTA,41.415,-96.109,0,0,0.0,KBTA 100435Z AUTO 00000KT 10SM CLR 14/09 A3021 RMK AO2 T01370091,2024-08-10T04:35:00Z,13.7,9.1,10+,30.21
KBRY,37.8079,-85.5011,320,4,4.6,KBRY 100435Z AUTO 32004KT 10SM CLR 20/16 A3007 RMK AO2 T02040160 $,2024-08-10T04:35:00Z,20.4,16,10+,30.07
KBRG,34.6477,-106.833,0,0,0.0,KBRG 100435Z AUTO 00000KT 10SM OVC110 23/16 A3024 RMK AO2 T02270161,2024-08-10T04:35:00Z,22.7,16.1,10+,30.24
KBQP,32.7583,-91.8793,0,0,0.0,KBQP 100435Z AUTO 00000KT 10SM CLR 23/20 A3007 RMK AO2 T02310197,2024-08-10T04:35:00Z,23.1,19.7,10+,30.07
KBQK,31.2567,-81.4754,210,11,12.66,KBQK 100435Z AUTO 21011KT 10SM CLR 28/24 A2996 RMK AO2 T02760242,2024-08-10T04:35:00Z,27.6,24.2,10+,29.96
KBPG,32.2097,-101.525,100,16,18.41,KBPG 100435Z AUTO 10016G20KT 10SM OVC085 30/18 A3013 RMK AO2 T02980178,2024-08-10T04:35:00Z,29.8,17.8,10+,30.13
KBPC,35.8913,-101.027,,,,KBPC 100435Z AUTO 10SM BKN060 OVC075 17/12 A3025 RMK AO2,2024-08-10T04:35:00Z,17,12,10+,30.25
KBOW,27.9471,-81.7811,0,0,0.0,KBOW 100435Z AUTO 00000KT 10SM CLR 26/25 A3004 RMK AO2 PWINO,2024-08-10T04:35:00Z,26,25,10+,30.04
KBNW,42.0486,-93.8486,290,4,4.6,KBNW 100435Z AUTO 29004KT 10SM CLR 14/10 A3016 RMK AO2,2024-08-10T04:35:00Z,14,10,10+,30.16
KBNL,33.2601,-81.387,0,0,0.0,KBNL 100435Z AUTO 00000KT 9SM CLR 27/25 A2995 RMK AO2,2024-08-10T04:35:00Z,27,25,9,29.95
KBMT,30.0686,-94.2155,40,3,3.45,KBMT 100435Z AUTO 04003KT 10SM CLR 28/22 A3002 RMK AO2 T02800224,2024-08-10T04:35:00Z,28,22.4,10+,30.02
KBMC,41.5463,-112.06,330,6,6.9,KBMC 100435Z AUTO 33006KT 10SM CLR 25/07 A3002 RMK AO1 T02530066,2024-08-10T04:35:00Z,25.3,6.6,10+,30.02
KBKS,27.2064,-98.1216,140,4,4.6,KBKS 100435Z AUTO 14004KT 10SM CLR 27/26 A3002 RMK AO2 SLP124 T02710260 $,2024-08-10T04:35:00Z,27.1,26,10+,30.02
KBKN,36.7431,-97.3479,40,8,9.21,KBKN 100435Z AUTO 04008G13KT 10SM CLR 20/11 A3020 RMK AO2,2024-08-10T04:35:00Z,20,11,10+,30.20
KBKD,32.7206,-98.8931,,,,KBKD 100435Z AUTO 7SM CLR 28/19 A3012 RMK AO2 T02750192,2024-08-10T04:35:00Z,27.5,19.2,7,30.12
KBJI,47.5076,-94.9279,290,5,5.75,KBJI 100435Z AUTO 29005KT 10SM CLR 10/07 A3011 RMK AO2 T01010068,2024-08-10T04:35:00Z,10.1,6.8,10+,30.11
KBJC,39.9008,-105.104,190,5,5.75,KBJC 100435Z AUTO 19005KT 7SM SCT016 15/14 A3029 RMK AO2,2024-08-10T04:35:00Z,15,14,7,30.29
KBIJ,31.4,-84.8939,0,0,0.0,KBIJ 100435Z AUTO 00000KT 10SM SCT050 SCT070 25/23 A2995 RMK AO2,2024-08-10T04:35:00Z,25,23,10+,29.95
KBIE,40.3005,-96.7517,0,0,0.0,KBIE 100435Z AUTO 00000KT 10SM SCT120 15/11 A3023 RMK AO2 T01500113,2024-08-10T04:35:00Z,15,11.3,10+,30.23
KBHC,31.712,-82.3902,200,3,3.45,KBHC 100435Z AUTO 20003KT 10SM CLR 25/23 A2996 RMK AO2,2024-08-10T04:35:00Z,25,23,10+,29.96
KBGF,35.174,-86.0678,0,0,0.0,KBGF 100435Z AUTO 00000KT 10SM FEW043 21/20 A3006 RMK A01,2024-08-10T04:35:00Z,21,20,10+,30.06
KBGE,30.9709,-84.6344,210,5,5.75,KBGE 100435Z AUTO 21005KT 10SM CLR 25/23 A2995 RMK AO2 T02540230,2024-08-10T04:35:00Z,25.4,23,10+,29.95
KBFM,30.6147,-88.063,350,6,6.9,KBFM 100435Z AUTO 35006KT 10SM CLR 30/20 A2998 RMK AO2 T03000200,2024-08-10T04:35:00Z,30,20,10+,29.98
KBFA,45.166,-84.924,190,4,4.6,KBFA 100435Z AUTO 19004KT 10SM FEW004 SCT055 BKN070 14/14 A2988 RMK AO2,2024-08-10T04:35:00Z,14,14,10+,29.88
KBEC,37.694,-97.215,10,4,4.6,KBEC 100435Z AUTO 01004KT 10SM CLR 17/11 A3024 RMK AO2 T01650110,2024-08-10T04:35:00Z,16.5,11,10+,30.24
KBDU,40.0377,-105.227,0,0,0.0,KBDU 100435Z AUTO 00000KT 10SM CLR 16/15 A3028 RMK AO2,2024-08-10T04:35:00Z,16,15,10+,30.28
KBDN,44.1006,-121.198,320,7,8.06,KBDN 100435Z AUTO 32007KT 10SM OVC100 24/06 A3003 RMK AO2,2024-08-10T04:35:00Z,24,6,10+,30.03
KBDH,45.1111,-95.1258,290,4,4.6,KBDH 100435Z AUTO 29004KT 10SM CLR 11/10 A3015 RMK AO2,2024-08-10T04:35:00Z,11,10,10+,30.15
KBDG,37.587,-109.481,190,7,8.06,KBDG 100435Z AUTO 19007G22KT 10SM 24/12 A3023 RMK AO2 LTG DSNT E AND S T02370123 PNO $,2024-08-10T04:35:00Z,23.7,12.3,10+,30.23
KBCK,44.2499,-90.85,280,3,3.45,KBCK 100435Z AUTO 28003KT 10SM CLR 11/10 A3006 RMK AO2 T01070095,2024-08-10T04:35:00Z,10.7,9.5,10+,30.06
KBCB,37.208,-80.4127,0,0,0.0,KBCB 100435Z AUTO 00000KT 10SM CLR 22/20 A3008 RMK AO2 LTG DSNT SE T02150196,2024-08-10T04:35:00Z,21.5,19.6,10+,30.08
KBBG,36.5259,-93.1969,0,0,0.0,KBBG 100435Z AUTO 00000KT 10SM CLR 20/13 A3019 RMK AO2,2024-08-10T04:35:00Z,20,13,10+,30.19
KBBD,31.1766,-99.3229,90,5,5.75,KBBD 100435Z AUTO 09005KT 10SM FEW033 BKN042 OVC055 26/20 A3012 RMK AO2,2024-08-10T04:35:00Z,26,20,10+,30.12
KBBB,45.331,-95.6469,280,3,3.45,KBBB 100435Z AUTO 28003KT 10SM CLR 11/10 A3016 RMK AO2,2024-08-10T04:35:00Z,11,10,10+,30.16
KBAX,43.7774,-82.9828,260,4,4.6,KBAX 100435Z AUTO 26004KT 10SM CLR 14/12 A2992 RMK AO2 T01400120,2024-08-10T04:35:00Z,14,12,10+,29.92
KBAM,40.6048,-116.872,150,5,5.75,KBAM 100435Z AUTO 15005KT 10SM CLR 23/01 A3004 RMK AO1,2024-08-10T04:35:00Z,23,1,10+,30.04
KBAC,46.9419,-98.0179,0,0,0.0,KBAC 100435Z AUTO 00000KT 9SM CLR 11/11 A3018 RMK AO2,2024-08-10T04:35:00Z,11,11,9,30.18
KAZE,31.8792,-82.6454,200,3,3.45,KAZE 100435Z AUTO 20003KT 10SM CLR 27/24 A2996 RMK AO2 T02660236,2024-08-10T04:35:00Z,26.6,23.6,10+,29.96
KAZC,36.959,-113.013,200,14,16.11,KAZC 100435Z AUTO 20014G19KT 10SM VCTS BKN120 26/16 A3016 RMK AO2 LTG DSNT SE AND W,2024-08-10T04:35:00Z,26,16,10+,30.16
KAYS,31.2466,-82.4014,0,0,0.0,KAYS 100435Z AUTO 00000KT 10SM CLR A2997 RMK AO2,2024-08-10T04:35:00Z,,,10+,29.97
KAXX,36.422,-105.29,200,4,4.6,KAXX 100435Z AUTO 20004KT 10SM OVC095 14/10 A3050 RMK AO2 T01400101,2024-08-10T04:35:00Z,14,10.1,10+,30.50
KAXV,40.4959,-84.2929,0,0,0.0,KAXV 100435Z AUTO 00000KT 10SM CLR 14/11 A3005 RMK AO2,2024-08-10T04:35:00Z,14,11,10+,30.05
KAXS,34.6963,-99.3402,40,12,13.81,KAXS 100435Z AUTO 04012KT 10SM OVC150 24/14 A3016 RMK AO2,2024-08-10T04:35:00Z,24,14,10+,30.16
KAXA,43.0796,-94.2723,280,5,5.75,KAXA 100435Z AUTO 28005KT 10SM CLR 11/11 A3015 RMK A01,2024-08-10T04:35:00Z,11,11,10+,30.15
KAWG,41.2749,-91.6746,270,6,6.9,KAWG 100435Z AUTO 27006KT 10SM CLR 13/11 A3013 RMK AO2,2024-08-10T04:35:00Z,13,11,10+,30.13
KAVQ,32.4112,-111.216,0,0,0.0,KAVQ 100435Z AUTO 00000KT 10SM CLR 30/20 A2989 RMK AO2,2024-08-10T04:35:00Z,30,20,10+,29.89
KAVK,36.7765,-98.6724,50,9,10.36,KAVK 100435Z AUTO 05009KT 10SM FEW049 SCT075 BKN120 20/10 A3022 RMK AO2,2024-08-10T04:35:00Z,20,10,10+,30.22
KAVC,36.6854,-78.0523,210,4,4.6,KAVC 100435Z AUTO 21004KT 7SM CLR 24/24 A2999 RMK AO2 LTG DSNT W T02420240,2024-08-10T04:35:00Z,24.2,24,7,29.99
KAUN,38.9553,-121.087,130,6,6.9,KAUN 100435Z AUTO 13006KT 10SM CLR 28/01 A2992 RMK A01,2024-08-10T04:35:00Z,28,1,10+,29.92
KAUM,43.6688,-92.9321,290,6,6.9,KAUM 100435Z AUTO 29006KT 10SM CLR 14/11 A3013 RMK AO2,2024-08-10T04:35:00Z,14,11,10+,30.13
KAUH,40.8966,-97.9974,230,5,5.75,KAUH 100435Z AUTO 23005KT 10SM CLR 15/12 A3024 RMK AO2 T01450121,2024-08-10T04:35:00Z,14.5,12.1,10+,30.24
KATW,44.2519,-88.526,260,7,8.06,KATW 100435Z AUTO 26007KT 10SM CLR 13/10 A3000 RMK AO2,2024-08-10T04:35:00Z,13,10,10+,30.00
KATS,32.8524,-104.464,130,7,8.06,KATS 100435Z AUTO 13007KT 10SM CLR 29/12 A3015 RMK AO2,2024-08-10T04:35:00Z,29,12,10+,30.15
KATA,33.1017,-94.1937,0,0,0.0,KATA 100435Z AUTO 00000KT 10SM CLR 23/23 A3004 RMK AO2 SLP072 T02290226 $,2024-08-10T04:35:00Z,22.9,22.6,10+,30.04
KASW,41.274,-85.842,270,8,9.21,KASW 100435Z AUTO 27008KT 10SM BKN037 BKN043 BKN050 17/12 A3006 RMK AO2 T01700121,2024-08-10T04:35:00Z,17,12.1,10+,30.06
KASN,33.569,-86.0519,200,1,1.15,KASN 100435Z AUTO 20001KT 10SM CLR 23/21 A2999 RMK AO2,2024-08-10T04:35:00Z,23,21,10+,29.99
KASL,32.5207,-94.3066,0,0,0.0,KASL 100435Z AUTO 00000KT 9SM CLR 24/24 A3005 RMK AO2 T02370237 $,2024-08-10T04:35:00Z,23.7,23.7,9,30.05
KARW,32.4104,-80.6335,200,5,5.75,KARW 100435Z AUTO 20005KT 10SM CLR 28/25 A2994 RMK AO2,2024-08-10T04:35:00Z,28,25,10+,29.94
KARM,29.2515,-96.1508,0,0,0.0,KARM 100435Z AUTO 00000KT 10SM CLR 26/25 A3005 RMK AO2 T02580248 TSNO,2024-08-10T04:35:00Z,25.8,24.8,10+,30.05
KAQX,32.9941,-81.271,0,0,0.0,KAQX 100435Z AUTO 00000KT 9SM CLR 27/25 A2994 RMK AO2 TSNO,2024-08-10T04:35:00Z,27,25,9,29.94
KAQO,30.7873,-98.6608,0,0,0.0,KAQO 100435Z AUTO 00000KT 10SM BKN038 BKN044 OVC050 26/22 A3009 RMK AO2 LTG DSNT S AND SW,2024-08-10T04:35:00Z,26,22,10+,30.09
KAPY,26.969,-99.249,120,5,5.75,KAPY 100435Z AUTO 12005KT 10SM CLR 28/23 A3004 RMK AO2 T02820232 TSNO,2024-08-10T04:35:00Z,28.2,23.2,10+,30.04
KANW,42.5748,-99.9984,230,4,4.6,KANW 100435Z AUTO 23004KT 10SM CLR 13/09 A3024 RMK AO2 T01330090,2024-08-10T04:35:00Z,13.3,9,10+,30.24
KANQ,41.6404,-85.0852,260,3,3.45,KANQ 100435Z AUTO 26003KT 10SM OVC060 17/15 A3003 RMK AO2,2024-08-10T04:35:00Z,17,15,10+,30.03
KANK,38.538,-106.049,0,0,0.0,KANK 100435Z AUTO 00000KT 10SM SCT080 SCT095 BKN150 13/13 A3044 RMK AO2 T01320131 $,2024-08-10T04:35:00Z,13.2,13.1,10+,30.44
KANE,45.1426,-93.2127,270,6,6.9,KANE 100435Z AUTO 27006KT 10SM CLR 15/09 A3009 RMK AO2,2024-08-10T04:35:00Z,15,9,10+,30.09
KAMN,43.3209,-84.6871,240,5,5.75,KAMN 100435Z AUTO 24005KT 10SM CLR 14/12 A2996 RMK AO2,2024-08-10T04:35:00Z,14,12,10+,29.96
KALX,32.916,-85.964,360,4,4.6,KALX 100435Z AUTO 36004KT 10SM CLR 26/21 A2999 RMK AO2 T02610205,2024-08-10T04:35:00Z,26.1,20.5,10+,29.99
KALN,38.8897,-90.0316,0,0,0.0,KALN 100435Z AUTO 00000KT 10SM CLR 16/13 A3016 RMK AO2 T01620134,2024-08-10T04:35:00Z,16.2,13.4,10+,30.16
KALM,32.8351,-105.994,130,9,10.36,KALM 100435Z AUTO 13009KT 10SM FEW055 29/10 A3015 RMK AO2,2024-08-10T04:35:00Z,29,10,10+,30.15
KAJR,34.5006,-83.5519,30,3,3.45,KAJR 100435Z AUTO 03003KT 10SM CLR 24/20 A3000 RMK AO2 T02400196,2024-08-10T04:35:00Z,24,19.6,10+,30.00
KAJG,38.6093,-87.7251,300,5,5.75,KAJG 100435Z AUTO 30005KT 10SM CLR 17/14 A3013 RMK AO2 T01710141,2024-08-10T04:35:00Z,17.1,14.1,10+,30.13
KAIT,46.5483,-93.6754,0,0,0.0,KAIT 100435Z AUTO 00000KT 10SM OVC065 12/09 A3008 RMK AO2,2024-08-10T04:35:00Z,12,9,10+,30.08
KAIO,41.4059,-95.0465,0,0,0.0,KAIO 100435Z AUTO 00000KT 10SM CLR 12/12 A3019 RMK AO2,2024-08-10T04:35:00Z,12,12,10+,30.19
KAIG,45.1566,-89.1115,260,9,10.36,KAIG 100435Z AUTO 26009KT 10SM CLR 10/09 A2998 RMK AO2 T01020091,2024-08-10T04:35:00Z,10.2,9.1,10+,29.98
KAHQ,41.241,-96.594,0,0,0.0,KAHQ 100435Z AUTO 00000KT 10SM CLR 14/11 A3022 RMK AO2 T01360114,2024-08-10T04:35:00Z,13.6,11.4,10+,30.22
KAGO,33.2266,-93.2154,0,0,0.0,KAGO 100435Z AUTO 00000KT 9SM CLR 22/21 A3006 RMK A01,2024-08-10T04:35:00Z,22,21,9,30.06
KAGI,27.5461,-92.4434,40,9,10.36,KAGI 100435Z AUTO 04009KT 10SM CLR 29/23 A3001 RMK AO2 T02950227,2024-08-10T04:35:00Z,29.5,22.7,10+,30.01
KAFO,42.7139,-110.944,0,0,0.0,KAFO 100435Z AUTO 00000KT 10SM SCT120 12/07 A3020 RMK AO2,2024-08-10T04:35:00Z,12,7,10+,30.20
KAFK,40.6065,-95.8635,340,3,3.45,KAFK 100435Z AUTO 34003KT 10SM CLR 16/10 A3023 RMK AO2 T01570097,2024-08-10T04:35:00Z,15.7,9.7,10+,30.23
KAEL,43.6823,-93.3722,330,4,4.6,KAEL 100435Z AUTO 33004KT 10SM CLR 13/11 A3014 RMK AO2,2024-08-10T04:35:00Z,13,11,10+,30.14
KAEJ,38.8116,-106.121,,,,KAEJ 100435Z AUTO 10SM -DZ SCT090 OVC110 12/11 A3045 RMK AO2 T01230112,2024-08-10T04:35:00Z,12.3,11.2,10+,30.45
KADU,41.6993,-94.9204,0,0,0.0,KADU 100435Z AUTO 00000KT 10SM 10/09 A3020 RMK AO2 PWINO,2024-08-10T04:35:00Z,10,9,10+,30.20
KADT,39.8401,-101.045,0,0,0.0,KADT 100435Z AUTO 00000KT 10SM OVC033 14/11 A3034 RMK AO2 T01410111,2024-08-10T04:35:00Z,14.1,11.1,10+,30.34
KADS,32.9634,-96.8354,0,0,0.0,KADS 100435Z AUTO 00000KT 10SM CLR 29/21 A3010 RMK AO2 T02860205,2024-08-10T04:35:00Z,28.6,20.5,10+,30.10
KADM,34.3007,-97.0089,0,0,0.0,KADM 100435Z AUTO 00000KT 10SM CLR 26/15 A3010 RMK AO2,2024-08-10T04:35:00Z,26,15,10+,30.10
KADH,34.8021,-96.6701,20,7,8.06,KADH 100435Z AUTO 02007KT 10SM CLR 24/14 A3015 RMK AO2,2024-08-10T04:35:00Z,24,14,10+,30.15
KADC,46.4502,-95.2135,280,4,4.6,KADC 100435Z AUTO 28004KT 10SM CLR 11/08 A3013 RMK AO2,2024-08-10T04:35:00Z,11,8,10+,30.13
KACQ,44.0702,-93.5535,0,0,0.0,KACQ 100435Z AUTO 00000KT 10SM CLR 11/10 A3015 RMK AO2,2024-08-10T04:35:00Z,11,10,10+,30.15
KACP,30.7469,-92.687,0,0,0.0,KACP 100435Z AUTO 00000KT 10SM CLR 26/18 A3003 RMK AO2,2024-08-10T04:35:00Z,26,18,10+,30.03
KACJ,32.1106,-84.1841,0,0,0.0,KACJ 100435Z AUTO 00000KT 10SM SCT055 27/23 A2994 RMK AO2 T02730234 $,2024-08-10T04:35:00Z,27.3,23.4,10+,29.94
KACB,44.9867,-85.2022,0,0,0.0,KACB 100435Z AUTO 00000KT 10SM SCT026 BKN043 OVC100 14/14 A2990 RMK AO2 T01410136,2024-08-10T04:35:00Z,14.1,13.6,10+,29.90
KABH,38.7587,-104.299,170,9,10.36,KABH 100435Z AUTO 17009KT 1 3/4SM BR OVC002 14/13 A3032 RMK AO2 VIS 1 3/4V2 1/4 SLP225,2024-08-10T04:35:00Z,14,13,1.75,30.32
KAAS,37.3569,-85.3151,340,3,3.45,KAAS 100435Z AUTO 34003KT 10SM CLR 20/16 A3007 RMK AO1,2024-08-10T04:35:00Z,20,16,10+,30.07
KAAA,40.1584,-89.339,0,0,0.0,KAAA 100435Z AUTO 00000KT 10SM CLR 16/14 A3013 RMK AO2 T01620138,2024-08-10T04:35:00Z,16.2,13.8,10+,30.13
KA39,32.9875,-111.922,0,0,0.0,KA39 100435Z AUTO 00000KT 10SM CLR 32/23 A2984 RMK AO2,2024-08-10T04:35:00Z,32,23,10+,29.84
K9Y1,47.3941,-102.773,320,3,3.45,K9Y1 100435Z AUTO 32003KT 10SM CLR 09/07 A3020 RMK AO2,2024-08-10T04:35:00Z,9,7,10+,30.20
K9V9,43.7653,-99.3163,0,0,0.0,K9V9 100435Z AUTO 00000KT 10SM CLR 14/11 A3022 RMK AO2 T01370106,2024-08-10T04:35:00Z,13.7,10.6,10+,30.22
K9S9,45.4551,-119.686,120,8,9.21,K9S9 100435Z AUTO 12008KT 10SM OVC080 21/07 A2997 RMK AO2,2024-08-10T04:35:00Z,21,7,10+,29.97
K9MN,44.0198,-92.4829,260,10,11.51,K9MN 100435Z AUTO 26010G15KT 10SM CLR 15/09 A3011 RMK AO1 T01450091,2024-08-10T04:35:00Z,14.5,9.1,10+,30.11
K9D7,48.4816,-99.2346,,,,K9D7 100435Z AUTO 10SM FEW060 SCT075 10/10 A3020 RMK AO2,2024-08-10T04:35:00Z,10,10,10+,30.20
K9A5,34.6846,-85.2899,0,0,0.0,K9A5 100435Z AUTO 00000KT 7SM CLR 21/19 A3003 RMK AO2 T02110190,2024-08-10T04:35:00Z,21.1,19,7,30.03
K96D,48.9402,-97.9053,280,5,5.75,K96D 100435Z AUTO 28005KT 10SM CLR 12/11 A3015 RMK AO2,2024-08-10T04:35:00Z,12,11,10+,30.15
K8W2,38.6554,-78.7083,0,0,0.0,K8W2 100435Z AUTO 00000KT 10SM CLR 22/22 A2996 RMK AO1 T02210215,2024-08-10T04:35:00Z,22.1,21.5,10+,29.96
K8V7,37.4547,-102.619,140,14,16.11,K8V7 100435Z AUTO 14014KT 1/2SM FG OVC002 12/12 A3028 RMK AO2 LTG DSNT S AND SW,2024-08-10T04:35:00Z,12,12,0.5,30.28
K8T6,28.3656,-98.1174,110,4,4.6,K8T6 100435Z AUTO 11004KT 10SM SCT037 BKN044 OVC050 28/25 A3002 RMK AO2,2024-08-10T04:35:00Z,28,25,10+,30.02
K8A0,34.2316,-86.2481,20,5,5.75,K8A0 100435Z AUTO 02005KT 10SM CLR 24/19 A3003 RMK AO2,2024-08-10T04:35:00Z,24,19,10+,30.03
K82V,41.151,-104.129,0,0,0.0,K82V 100435Z AUTO 00000KT 10SM 12/11 A3033 RMK AO2,2024-08-10T04:35:00Z,12,11,10+,30.33
K82C,43.8385,-90.1345,280,6,6.9,K82C 100435Z AUTO 28006KT 10SM SCT047 SCT060 OVC085 15/10 A3005 RMK AO2 T01450102,2024-08-10T04:35:00Z,14.5,10.2,10+,30.05
K81R,31.2321,-98.7154,140,5,5.75,K81R 100435Z AUTO 14005KT 10SM CLR 25/22 A3011 RMK AO2 T02550222,2024-08-10T04:35:00Z,25.5,22.2,10+,30.11
K7W4,37.9667,-77.7453,0,0,0.0,K7W4 100435Z AUTO 00000KT 10SM SCT048 BKN095 25/25 A2991 RMK AO1 T02520246,2024-08-10T04:35:00Z,25.2,24.6,10+,29.91
K7L2,46.219,-100.245,80,5,5.75,K7L2 100435Z AUTO 08005KT 10SM CLR 09/09 A3022 RMK AO2,2024-08-10T04:35:00Z,9,9,10+,30.22
K7BM,38.799,-106.219,0,0,0.0,K7BM 100435Z AUTO 00000KT 1SM BR BKN001 BKN075 OVC090 10/09 A3056 RMK AO2,2024-08-10T04:35:00Z,10,9,1,30.56
K79S,47.845,-110.636,70,7,8.06,K79S 100435Z AUTO 07007KT 10SM BKN090 19/07 A3011 RMK AO2 T01870067 $,2024-08-10T04:35:00Z,18.7,6.7,10+,30.11
K77S,43.9324,-123.006,240,4,4.6,K77S 100435Z AUTO 24004KT 10SM OVC060 24/13 A2996 RMK A01,2024-08-10T04:35:00Z,24,13,10+,29.96
K74V,40.2799,-110.05,80,6,6.9,K74V 100435Z AUTO 08006KT 8SM CLR 22/10 A3019 RMK AO2,2024-08-10T04:35:00Z,22,10,8,30.19
K6S2,43.9838,-124.11,300,3,3.45,K6S2 100435Z AUTO 30003KT 9SM FEW012 OVC060 14/14 A3003 RMK AO2,2024-08-10T04:35:00Z,14,14,9,30.03
K6S0,45.8063,-109.974,0,0,0.0,K6S0 100435Z AUTO 00000KT 10SM BKN100 17/06 A3021 RMK A01,2024-08-10T04:35:00Z,17,6,10+,30.21
K6R3,30.358,-95.007,0,0,0.0,K6R3 100435Z AUTO 00000KT 10SM CLR 28/25 A3005 RMK AO2 T02750250,2024-08-10T04:35:00Z,27.5,25,10+,30.05
K6P9,32.4294,-98.5959,80,4,4.6,K6P9 100435Z AUTO 08004KT 10SM CLR A3014 RMK AO2,2024-08-10T04:35:00Z,,,10+,30.14
K6L4,37.8553,-81.915,0,0,0.0,K6L4 100435Z AUTO 00000KT 10SM SCT060 23/17 A3004 RMK AO2,2024-08-10T04:35:00Z,23,17,10+,30.04
K6B9,42.9141,-76.4428,260,8,9.21,K6B9 100435Z AUTO 26008G17KT 10SM OVC026 21/19 A2989 RMK AO2,2024-08-10T04:35:00Z,21,19,10+,29.89
K6A2,33.227,-84.275,0,0,0.0,K6A2 100435Z AUTO 00000KT 10SM CLR 23/22 A2999 RMK AO2,2024-08-10T04:35:00Z,23,22,10+,29.99
K6A1,32.5733,-84.247,0,0,0.0,K6A1 100435Z AUTO 00000KT 10SM CLR 26/23 A2997 RMK AO2 T02550227,2024-08-10T04:35:00Z,25.5,22.7,10+,29.97
K66R,29.6382,-96.5137,0,0,0.0,K66R 100435Z AUTO 00000KT 10SM CLR 24/24 A3007 RMK AO2 LTG DSNT SW T02370236,2024-08-10T04:35:00Z,23.7,23.6,10+,30.07
K65S,48.7255,-116.293,0,0,0.0,K65S 100435Z AUTO 00000KT 10SM CLR 21/07 A2999 RMK AO2,2024-08-10T04:35:00Z,21,7,10+,29.99
K63S,48.544,-117.884,280,5,5.75,K63S 100435Z 28005KT 10SM FEW023 FEW032 BKN045 21/08 A3000 RMK A01 EAST/WEST TURF RUNWAY CLOSED FOR FIRE FIGHTING HELICOPTER USE,2024-08-10T04:35:00Z,21,8,10+,30.00
K60R,30.368,-96.113,80,3,3.45,K60R 100435Z AUTO 08003KT 10SM CLR 29/25 A3003 RMK AO2 SLP085 T02860251 $,2024-08-10T04:35:00Z,28.6,25.1,10+,30.03
K5T9,28.8568,-100.516,110,9,10.36,K5T9 100435Z AUTO 11009KT 7SM CLR 33/19 A2999 RMK A01,2024-08-10T04:35:00Z,33,19,7,29.99
K5SM,39.426,-107.38,220,10,11.51,K5SM 100435Z AUTO 22010KT 10SM BKN110 07/05 A3062 RMK AO2,2024-08-10T04:35:00Z,7,5,10+,30.62
K5R8,30.4368,-93.4696,0,0,0.0,K5R8 100435Z AUTO 00000KT 10SM CLR 26/23 A3004 RMK AO2 T02560227,2024-08-10T04:35:00Z,25.6,22.7,10+,30.04
K5H4,47.7906,-99.9346,0,0,0.0,K5H4 100435Z AUTO 00000KT 10SM BKN065 OVC075 13/11 A3019 RMK AO2,2024-08-10T04:35:00Z,13,11,10+,30.19
K5C1,29.7267,-98.6964,0,0,0.0,K5C1 100435Z AUTO 00000KT 10SM BKN050 BKN070 25/19 A3010 RMK AO1,2024-08-10T04:35:00Z,25,19,10+,30.10
K57C,42.7971,-88.3655,260,4,4.6,K57C 100435Z AUTO 26004KT 10SM CLR 13/12 A3004 RMK AO2 T01320120,2024-08-10T04:35:00Z,13.2,12,10+,30.04
K54J,30.7312,-86.1542,0,0,0.0,K54J 100435Z AUTO 00000KT 10SM RA SCT042 BKN055 OVC085 27/24 A2996 RMK AO2 LTG DSNT S P0002 T02680242,2024-08-10T04:35:00Z,26.8,24.2,10+,29.96
K54A,26.8601,-82.2468,220,6,6.9,K54A 100435Z AUTO 22006KT 10SM CLR 29/M18 A3001 RMK AO2,2024-08-10T04:35:00Z,29,-18,10+,30.01
K4V1,37.6941,-104.788,230,5,5.75,K4V1 100435Z AUTO 23005KT 10SM OVC060 17/13 A3038 RMK AO2,2024-08-10T04:35:00Z,17,13,10+,30.38
K4V0,40.0956,-108.762,20,8,9.21,K4V0 100435Z AUTO 02008KT 10SM -RA OVC100 21/12 A3023 RMK AO2 T02120122,2024-08-10T04:35:00Z,21.2,12.2,10+,30.23
K4S2,45.6746,-121.535,0,0,0.0,K4S2 100435Z AUTO 00000KT 10SM CLR 24/16 A2992 RMK AO2,2024-08-10T04:35:00Z,24,16,10+,29.92
K4S1,42.4161,-124.426,340,5,5.75,K4S1 100435Z AUTO 34005KT 7SM CLR 13/12 A2999 RMK AO2,2024-08-10T04:35:00Z,13,12,7,29.99
K4R5,46.7887,-90.7559,280,10,11.51,K4R5 100435Z AUTO 28010G17KT 10SM DZ SCT037 BKN050 OVC070 13/10 A2996 RMK AO2 T01250101,2024-08-10T04:35:00Z,12.5,10.1,10+,29.96
K4O4,33.9133,-94.8546,40,5,5.75,K4O4 100435Z AUTO 04005KT 10SM BKN060 26/24 A3007 RMK AO2,2024-08-10T04:35:00Z,26,24,10+,30.07
K4M9,36.404,-90.647,20,5,5.75,K4M9 100435Z AUTO 02005KT 10SM CLR 21/18 A3012 RMK A01,2024-08-10T04:35:00Z,21,18,10+,30.12
K4I3,40.3268,-82.5201,300,7,8.06,K4I3 100435Z AUTO 30007KT 10SM CLR 17/13 A3004 RMK AO2,2024-08-10T04:35:00Z,17,13,10+,30.04
K4F2,32.18,-94.2976,0,0,0.0,K4F2 100435Z AUTO 00000KT 7SM BR CLR 24/23 A3006 RMK AO2 T02390226,2024-08-10T04:35:00Z,23.9,22.6,7,30.06
K4BM,39.05,-105.514,200,5,5.75,K4BM 100435Z AUTO 20005KT 1/4SM -SN OVC001 08/07 A3066 RMK AO2,2024-08-10T04:35:00Z,8,7,0.25,30.66
K4B8,41.69,-72.865,180,7,8.06,K4B8 100435Z AUTO 18007KT 6SM -RA BR OVC008 23/23 A2981 RMK AO2 P0003 T02320232,2024-08-10T04:35:00Z,23.2,23.2,6,29.81
K4A9,34.4759,-85.717,0,0,0.0,K4A9 100435Z AUTO 00000KT 10SM CLR 21/19 A3002 RMK AO2 T02120191,2024-08-10T04:35:00Z,21.2,19.1,10+,30.02
K4A6,34.688,-86.006,0,0,0.0,K4A6 100435Z AUTO 00000KT 10SM CLR 26/23 A3003 RMK AO2,2024-08-10T04:35:00Z,26,23,10+,30.03
K49B,44.4284,-103.38,0,0,0.0,K49B 100435Z AUTO 00000KT 9SM CLR 16/08 A3019 RMK AO2,2024-08-10T04:35:00Z,16,8,9,30.19
K49A,34.6301,-84.5271,40,6,6.9,K49A 100435Z AUTO 04006KT 7SM CLR 23/21 A3002 RMK AO2,2024-08-10T04:35:00Z,23,21,7,30.02
K48I,38.684,-80.649,0,0,0.0,K48I 100435Z AUTO 00000KT 10SM SCT070 20/18 A3001 RMK AO2,2024-08-10T04:35:00Z,20,18,10+,30.01
K48A,32.3993,-83.2785,170,5,5.75,K48A 100435Z AUTO 17005KT 10SM CLR 26/23 A2996 RMK AO2 T02560233,2024-08-10T04:35:00Z,25.6,23.3,10+,29.96
K46U,43.181,-111.037,VRB,3,3.45,K46U 100435Z AUTO VRB03KT 10SM FEW120 19/07 A3017 RMK A01,2024-08-10T04:35:00Z,19,7,10+,30.17
K46D,47.4509,-99.1479,0,0,0.0,K46D 100435Z AUTO 00000KT 10SM OVC014 11/11 A3018 RMK A01,2024-08-10T04:35:00Z,11,11,10+,30.18
K42J,29.844,-82.05,180,4,4.6,K42J 100435Z AUTO 18004KT 10SM SCT033 SCT041 SCT049 27/27 A2999 RMK A01,2024-08-10T04:35:00Z,27,27,10+,29.99
K42A,36.0713,-91.8287,0,0,0.0,K42A 100435Z AUTO 00000KT 10SM CLR 20/17 A3013 RMK AO2,2024-08-10T04:35:00Z,20,17,10+,30.13
K41U,39.3323,-111.614,200,8,9.21,K41U 100435Z AUTO 20008KT 10SM CLR 22/10 A3017 RMK AO1 T02230100,2024-08-10T04:35:00Z,22.3,10,10+,30.17
K40U,40.986,-109.678,290,3,3.45,K40U 100435Z AUTO 29003KT 10SM SCT120 18/08 A3027 RMK AO2 T01800077,2024-08-10T04:35:00Z,18,7.7,10+,30.27
K3W7,47.9219,-119.077,340,8,9.21,K3W7 100435Z AUTO 34008KT 10SM CLR 26/08 A2996 RMK AO2,2024-08-10T04:35:00Z,26,8,10+,29.96
K3T5,29.9064,-96.9478,0,0,0.0,K3T5 100435Z AUTO 00000KT 10SM BKN320 25/25 A3004 RMK AO2 LTG DSNT S T02530249 $,2024-08-10T04:35:00Z,25.3,24.9,10+,30.04
K3S8,42.51,-123.388,310,6,6.9,K3S8 100435Z AUTO 31006KT 10SM CLR 27/12 A2998 RMK AO2,2024-08-10T04:35:00Z,27,12,10+,29.98
K3R7,30.2426,-92.6759,20,4,4.6,K3R7 100435Z AUTO 02004KT 10SM CLR 27/22 A3002 RMK AO2 T02670223,2024-08-10T04:35:00Z,26.7,22.3,10+,30.02
K3N8,47.26,-95.928,270,6,6.9,K3N8 100435Z AUTO 27006KT 10SM CLR 09/08 A3013 RMK AO2 T00900083,2024-08-10T04:35:00Z,9,8.3,10+,30.13
K3LF,39.1605,-89.6742,0,0,0.0,K3LF 100435Z AUTO 00000KT 10SM CLR 14/12 A3016 RMK AO2 T01430120,2024-08-10T04:35:00Z,14.3,12,10+,30.16
K3L4,29.8,-92.804,50,7,8.06,K3L4 100435Z AUTO 05007KT 10SM CLR 30/24 A3000 RMK A01,2024-08-10T04:35:00Z,30,24,10+,30.00
K3K7,38.4566,-101.353,100,9,10.36,K3K7 100435Z AUTO 10009KT 10SM BKN009 OVC026 13/11 A3030 RMK AO2,2024-08-10T04:35:00Z,13,11,10+,30.30
K3K3,37.9988,-101.75,140,7,8.06,K3K3 100435Z AUTO 14007KT 10SM 15/08 A3030 RMK AO2,2024-08-10T04:35:00Z,15,8,10+,30.30
K3F3,32.0718,-93.7641,80,8,9.21,K3F3 100435Z AUTO 08008KT 10SM CLR 26/22 A3010 RMK AO2 T02630222,2024-08-10T04:35:00Z,26.3,22.2,10+,30.10
K3D2,45.1348,-87.1881,270,8,9.21,K3D2 100435Z AUTO 27008G14KT 10SM CLR 15/10 A2990 RMK AO2 T01480097,2024-08-10T04:35:00Z,14.8,9.7,10+,29.90
K35A,34.6849,-81.6421,0,0,0.0,K35A 100435Z AUTO 00000KT 10SM CLR 26/25 A2998 RMK A02 LTG DSNT NW T02640245,2024-08-10T04:35:00Z,26.4,24.5,10+,29.98
K33N,39.218,-75.597,230,7,8.06,K33N 100435Z AUTO 23007KT 10SM CLR 25/25 A2987 RMK A01,2024-08-10T04:35:00Z,25,25,10+,29.87
K2V5,40.1,-102.241,110,4,4.6,K2V5 100435Z AUTO 11004KT 10SM OVC006 12/11 A3030 RMK AO2,2024-08-10T04:35:00Z,12,11,10+,30.30
K2R9,28.8267,-97.8676,100,6,6.9,K2R9 100435Z AUTO 10006KT 10SM CLR 27/20 A3004 RMK AO2 LTG DSNT NE T02690204,2024-08-10T04:35:00Z,26.9,20.4,10+,30.04
K2R2,39.7511,-86.4732,300,7,8.06,K2R2 100435Z AUTO 30007KT 10SM CLR 16/14 A3010 RMK AO2 T01560138 $,2024-08-10T04:35:00Z,15.6,13.8,10+,30.10
K2P2,45.388,-86.924,280,8,9.21,K2P2 100435Z AUTO 28008G15KT 10SM OVC070 16/12 A2988 RMK AO2 T01620123,2024-08-10T04:35:00Z,16.2,12.3,10+,29.88
K2M8,35.276,-89.931,0,0,0.0,K2M8 100435Z AUTO 00000KT 10SM CLR 19/19 A3008 RMK AO2 T01910189 $,2024-08-10T04:35:00Z,19.1,18.9,10+,30.08
K2M2,35.2372,-87.2611,,,,K2M2 100435Z AUTO 10SM BKN043 22/19 A3007 RMK A01,2024-08-10T04:35:00Z,22,19,10+,30.07
K2J9,30.5987,-84.555,0,0,0.0,K2J9 100435Z AUTO 00000KT 9SM CLR 24/24 A2997 RMK AO2,2024-08-10T04:35:00Z,24,24,9,29.97
K2J5,32.8913,-81.9664,130,5,5.75,K2J5 100435Z AUTO 13005KT 10SM CLR 26/25 A2995 RMK AO2 T02630247,2024-08-10T04:35:00Z,26.3,24.7,10+,29.95
K2I0,37.3582,-87.3977,0,0,0.0,K2I0 100435Z AUTO 00000KT 10SM CLR 18/14 A3011 RMK AO2 T01770135,2024-08-10T04:35:00Z,17.7,13.5,10+,30.11
K2G9,40.0401,-79.0158,0,0,0.0,K2G9 100435Z AUTO 00000KT 10SM SCT033 17/15 A3002 RMK AO2,2024-08-10T04:35:00Z,17,15,10+,30.02
K2G2,40.359,-80.7,310,5,5.75,K2G2 100435Z AUTO 31005KT 10SM BKN050 OVC055 20/17 A2999 RMK A01,2024-08-10T04:35:00Z,20,17,10+,29.99
K2D5,46.1739,-98.083,0,0,0.0,K2D5 100435Z AUTO 00000KT 4SM HZ OVC070 12/ A3018 RMK AO2,2024-08-10T04:35:00Z,12,,4,30.18
K28J,29.6602,-81.6918,210,4,4.6,K28J 100435Z AUTO 21004KT 10SM CLR 27/25 A3000 RMK AO2,2024-08-10T04:35:00Z,27,25,10+,30.00
K27K,38.239,-84.4336,0,0,0.0,K27K 100435Z AUTO 00000KT 10SM CLR 18/15 A3006 RMK AO1,2024-08-10T04:35:00Z,18,15,10+,30.06
K24J,30.299,-83.0226,0,0,0.0,K24J 100435Z AUTO 00000KT 10SM FEW095 27/27 A2997 RMK A01,2024-08-10T04:35:00Z,27,27,10+,29.97
K22N,40.8116,-75.7647,0,0,0.0,K22N 100435Z AUTO 00000KT 7SM BKN075 21/21 A2988 RMK AO2,2024-08-10T04:35:00Z,21,21,7,29.88
K21D,45.0002,-92.8549,280,4,4.6,K21D 100435Z AUTO 28004KT 10SM CLR 13/08 A3010 RMK AO2,2024-08-10T04:35:00Z,13,8,10+,30.10
K20V,40.0563,-106.374,60,3,3.45,K20V 100435Z AUTO 06003KT 10SM CLR 10/10 A3042 RMK AO2,2024-08-10T04:35:00Z,10,10,10+,30.42
K1V6,38.4256,-105.105,290,6,6.9,K1V6 100435Z AUTO 29006KT 10SM BKN110 16/16 A3029 RMK AO2,2024-08-10T04:35:00Z,16,16,10+,30.29
K1U7,42.252,-111.337,250,4,4.6,K1U7 100435Z AUTO 25004KT 10SM CLR 13/11 A3017 RMK A01,2024-08-10T04:35:00Z,13,11,10+,30.17
K1S5,46.3288,-119.974,360,10,11.51,K1S5 100435Z AUTO 36010KT 10SM CLR 27/09 A2990 RMK AO2 T02720094,2024-08-10T04:35:00Z,27.2,9.4,10+,29.90
K1R8,30.8691,-87.8184,350,4,4.6,K1R8 100435Z AUTO 35004KT 10SM SCT070 BKN095 27/23 A2996 RMK AO2,2024-08-10T04:35:00Z,27,23,10+,29.96
K1R7,31.6057,-90.4072,0,0,0.0,K1R7 100435Z AUTO 00000KT 10SM 24/21 A3005 RMK A01 TSNO,2024-08-10T04:35:00Z,24,21,10+,30.05
K1P1,43.7771,-71.756,270,3,3.45,K1P1 100435Z AUTO 27003KT 10SM SCT045 22/21 A2977 RMK AO2 T02180207,2024-08-10T04:35:00Z,21.8,20.7,10+,29.77
K1M5,36.5956,-86.478,340,5,5.75,K1M5 100435Z AUTO 34005KT 10SM CLR 19/17 A3008 RMK A01,2024-08-10T04:35:00Z,19,17,10+,30.08
K1K8,36.543,-95.012,10,7,8.06,K1K8 100435Z AUTO 01007G13KT 10SM CLR 21/13 A3018 RMK AO2,2024-08-10T04:35:00Z,21,13,10+,30.18
K1H2,39.0712,-88.5293,300,4,4.6,K1H2 100435Z AUTO 30004KT 10SM CLR 16/14 A3015 RMK AO2 T01580137,2024-08-10T04:35:00Z,15.8,13.7,10+,30.15
K1F0,34.1508,-97.1242,40,7,8.06,K1F0 100435Z AUTO 04007KT 10SM CLR 26/16 A3012 RMK AO2 T02600161,2024-08-10T04:35:00Z,26,16.1,10+,30.12
K1D8,44.86,-98.529,0,0,0.0,K1D8 100435Z AUTO 00000KT 10SM CLR 12/12 A3019 RMK AO2,2024-08-10T04:35:00Z,12,12,10+,30.19
K1D1,45.231,-96.566,270,7,8.06,K1D1 100435Z AUTO 27007KT 10SM CLR 11/11 A3017 RMK AO2,2024-08-10T04:35:00Z,11,11,10+,30.17
K1B9,42,-71.197,200,10,11.51,K1B9 100435Z AUTO 20010KT 160V220 4SM -RA BR BKN007 OVC014 25/24 A2983 RMK AO2 P0001 T02450241 $,2024-08-10T04:35:00Z,24.5,24.1,4,29.83
K1A9,32.4374,-86.5098,0,0,0.0,K1A9 100435Z AUTO 00000KT 10SM CLR 26/21 A2996 RMK AO2 T02630212,2024-08-10T04:35:00Z,26.3,21.2,10+,29.96
K1A6,36.6087,-83.7369,0,0,0.0,K1A6 100435Z AUTO 00000KT 10SM CLR 20/19 A3007 RMK AO2 T02020190,2024-08-10T04:35:00Z,20.2,19,10+,30.07
K19S,37.496,-100.834,150,8,9.21,K19S 100435Z AUTO 15008KT 10SM OVC024 16/09 A3028 RMK AO2 T01570095,2024-08-10T04:35:00Z,15.7,9.5,10+,30.28
K18H,26.1283,-92.0333,10,4,4.6,K18H 100435Z AUTO 01004KT 9SM CLR 32/25 A2998 RMK A01,2024-08-10T04:35:00Z,32,25,9,29.98
K18A,34.3418,-83.1316,350,3,3.45,K18A 100435Z AUTO 35003KT 10SM CLR 24/22 A2997 RMK AO2 LTG DSNT NE T02430221,2024-08-10T04:35:00Z,24.3,22.1,10+,29.97
K17J,31.0038,-84.8794,220,4,4.6,K17J 100435Z AUTO 22004KT 10SM BKN055 26/22 A2996 RMK AO2,2024-08-10T04:35:00Z,26,22,10+,29.96
K15M,34.7745,-88.1676,0,0,0.0,K15M 100435Z AUTO 00000KT 2 1/2SM BR CLR 23/21 A3006 RMK AO2 T02310215 $,2024-08-10T04:35:00Z,23.1,21.5,2.5,30.06
K13K,37.8519,-96.2929,350,4,4.6,K13K 100435Z AUTO 35004KT 10SM CLR 16/14 A3025 RMK AO2 T01560137,2024-08-10T04:35:00Z,15.6,13.7,10+,30.25
K11R,30.2232,-96.3734,0,0,0.0,K11R 100435Z AUTO 00000KT 10SM BKN085 28/25 A3005 RMK AO2 T02820245,2024-08-10T04:35:00Z,28.2,24.5,10+,30.05
K10U,41.953,-116.182,0,0,0.0,K10U 100435Z AUTO 00000KT 10SM CLR 21/01 A3009 RMK AO2,2024-08-10T04:35:00Z,21,1,10+,30.09
K10G,40.5357,-81.9531,310,9,10.36,K10G 100435Z AUTO 31009KT 10SM CLR 17/14 A3003 RMK AO2,2024-08-10T04:35:00Z,17,14,10+,30.03
K0VG,36.6576,-83.2147,0,0,0.0,K0VG 100435Z AUTO 00000KT 10SM CLR 20/20 A3006 RMK AO2,2024-08-10T04:35:00Z,20,20,10+,30.06
K0V4,37.1399,-79.0171,0,0,0.0,K0V4 100435Z AUTO 00000KT 10SM CLR 23/22 A2994 RMK AO1,2024-08-10T04:35:00Z,23,22,10+,29.94
K0S9,48.0554,-122.812,0,0,0.0,K0S9 100435Z AUTO 00000KT 10SM FEW050 SCT065 16/14 A2994 RMK AO2,2024-08-10T04:35:00Z,16,14,10+,29.94
K0R4,31.5637,-91.5098,10,4,4.6,K0R4 100435Z AUTO 01004KT 10SM CLR 27/21 A3006 RMK AO2 T02650206,2024-08-10T04:35:00Z,26.5,20.6,10+,30.06
K0E0,34.9837,-105.996,310,4,4.6,K0E0 100435Z AUTO 31004KT 10SM OVC100 18/15 A3035 RMK AO2 T01820151,2024-08-10T04:35:00Z,18.2,15.1,10+,30.35
K0CO,39.794,-105.764,270,5,5.75,K0CO 100435Z AUTO 27005KT CLR 04/01 A3070 RMK AO2 PWINO,2024-08-10T04:35:00Z,4,1,,30.70
K0A9,36.3711,-82.1768,0,0,0.0,K0A9 100435Z AUTO 00000KT 10SM OVC049 21/20 A3005 RMK AO2,2024-08-10T04:35:00Z,21,20,10+,30.05
K0A0,32.99,-106.967,0,0,0.0,K0A0 100435Z AUTO 00000KT 10SM CLR 26/09 A3016 RMK AO2,2024-08-10T04:35:00Z,26,9,10+,30.16
K06D,48.8821,-99.6217,340,4,4.6,K06D 100435Z AUTO 34004KT 10SM SCT065 09/09 A3020 RMK AO2,2024-08-10T04:35:00Z,9,9,10+,30.20
K06C,41.9924,-88.1091,250,4,4.6,K06C 100435Z AUTO 25004KT 10SM CLR 15/12 A3006 RMK AO2 T01490117,2024-08-10T04:35:00Z,14.9,11.7,10+,30.06
K05U,39.6015,-116.006,0,0,0.0,K05U 100435Z AUTO 00000KT 10SM CLR A3018 RMK A01,2024-08-10T04:35:00Z,,,10+,30.18
K04W,46.0244,-92.8991,280,4,4.6,K04W 100435Z AUTO 28004KT 10SM CLR 12/10 A3008 RMK AO2,2024-08-10T04:35:00Z,12,10,10+,30.08
K04V,38.099,-106.17,290,9,10.36,K04V 100435Z AUTO 29009KT 4SM SCT043 BKN060 OVC080 13/12 A3049 RMK AO2 PWINO,2024-08-10T04:35:00Z,13,12,4,30.49
K00U,45.7453,-107.661,360,4,4.6,K00U 100435Z AUTO 36004KT 10SM FEW032 FEW046 BKN060 17/08 A3013 RMK A01,2024-08-10T04:35:00Z,17,8,10+,30.13
CYZX,44.985,-64.912,140,3,3.45,CYZX 100435Z 14003KT 12SM FEW007 OVC015 22/21 A2998 RMK SF2SC6 DENSITY ALT 1193FT SLP154,2024-08-10T04:35:00Z,22,21,12,29.98
KC99,39.869,-105.553,230,4,4.6,KC99 100434Z AUTO 23004KT 10SM CLR 07/05 A3059 RMK AO2,2024-08-10T04:34:00Z,7,5,10+,30.59
KAFN,42.8067,-72.0013,200,5,5.75,KAFN 100434Z AUTO 20005KT 3SM -RA FEW006 BKN009 OVC015 A2983 RMK AO2 UPB14E17 P0003,2024-08-10T04:34:00Z,,,3,29.83
PALU,68.873,-166.101,210,12,13.81,PALU 100433Z AUTO 21012G19KT 100V360 10SM BKN011 BKN120 07/05 A2975 RMK AO2 SLP073,2024-08-10T04:33:00Z,7,5,10+,29.75
PAEG,64.7761,-141.164,0,0,0.0,PAEG 100433Z AUTO 00000KT 4SM RA BR BKN009 BKN015 OVC080 14/13 A2974 RMK AO2 P0009 T01440133 TSNO,2024-08-10T04:33:00Z,14.4,13.3,4,29.74
KXVG,46.9942,-94.206,260,3,3.45,KXVG 100433Z AUTO 26003KT 10SM CLR 11/08 A3009 RMK AO2,2024-08-10T04:33:00Z,11,8,10+,30.09
KTAN,41.8756,-71.0208,200,10,11.51,KTAN 100433Z AUTO 20010G23KT 140V220 6SM -RA BKN015 OVC020 27/24 A2985 RMK AO2 P0007 T02670239,2024-08-10T04:33:00Z,26.7,23.9,6,29.85
KSAN,32.7365,-117.197,320,3,3.45,KSAN 100433Z 32003KT 10SM SCT014 21/17 A2990 RMK AO2 T02110172,2024-08-10T04:33:00Z,21.1,17.2,10+,29.90
KOWA,44.1191,-93.2569,280,4,4.6,KOWA 100433Z AUTO 28004KT 10SM CLR 12/10 A3013 RMK AO2,2024-08-10T04:33:00Z,12,10,10+,30.13
KORH,42.2706,-71.8731,220,15,17.26,KORH 100433Z AUTO 22015G24KT 9SM -RA BKN009 OVC014 23/22 A2985 RMK AO2 PK WND 22027/0357 RAB05 CIG 006V011 P0000 T02330222,2024-08-10T04:33:00Z,23.3,22.2,9,29.85
KORB,48.0171,-92.8538,320,6,6.9,KORB 100433Z AUTO 32006KT 10SM 12/09 A3003 RMK AO2,2024-08-10T04:33:00Z,12,9,10+,30.03
KHFD,41.7352,-72.6512,180,7,8.06,KHFD 100433Z AUTO 18007KT 4SM -RA BR SCT008 BKN015 OVC021 24/23 A2980 RMK AO2 P0002 T02390228,2024-08-10T04:33:00Z,23.9,22.8,4,29.80
KFOZ,47.7832,-93.6533,0,0,0.0,KFOZ 100433Z AUTO 00000KT 10SM 13/10 A3011 RMK AO2,2024-08-10T04:33:00Z,13,10,10+,30.11
KETH,45.7828,-96.5461,270,3,3.45,KETH 100433Z AUTO 27003KT 10SM CLR 12/10 A3017 RMK AO2,2024-08-10T04:33:00Z,12,10,10+,30.17
KDVP,43.9906,-95.781,280,4,4.6,KDVP 100433Z AUTO 28004KT 10SM CLR 10/07 A3020 RMK AO2 T01020066,2024-08-10T04:33:00Z,10.2,6.6,10+,30.20
KDGW,42.796,-105.38,140,12,13.81,KDGW 100433Z AUTO 14012KT 10SM OVC013 14/12 A3023 RMK AO2 T01390117,2024-08-10T04:33:00Z,13.9,11.7,10+,30.23
KCMX,47.1705,-88.4854,300,18,20.71,KCMX 100433Z AUTO 30018G27KT 4SM RA BR SCT009 BKN013 OVC020 13/11 A2982 RMK AO2 PK WND 29029/0420 P0004 T01280111,2024-08-10T04:33:00Z,12.8,11.1,4,29.82
KCDD,48.2601,-92.4748,0,0,0.0,KCDD 100433Z AUTO 00000KT 10SM BKN042 OVC070 12/11 A3004 RMK AO2,2024-08-10T04:33:00Z,12,11,10+,30.04
KAQP,45.2249,-96.0041,0,0,0.0,KAQP 100433Z AUTO 00000KT 10SM CLR 12/10 A3016 RMK AO2 TSNO,2024-08-10T04:33:00Z,12,10,10+,30.16
EBBL,51.168,5.47,220,6,6.9,EBBL 100433Z AUTO 22006KT 9999 SCT010/// 14/13 Q1019 GRN,2024-08-10T04:33:00Z,14,13,6+,30.09
CYYU,49.416,-82.47,300,5,5.75,CYYU 100433Z 30005KT 15SM OVC040 15/14 A2972 RMK SC8 SLP070 DENSITY ALT 1100FT,2024-08-10T04:33:00Z,15,14,15,29.72
PAKW,55.582,-133.075,200,4,4.6,PAKW 100432Z AUTO 20004KT 2 1/2SM BR OVC002 17/16 A3001 RMK AO2 T01670156 TSNO,2024-08-10T04:32:00Z,16.7,15.6,2.5,30.01
KQBL,-99.99,-99.99,0,0,0.0,KQBL 100432Z AUTO 00000KT 4SM +SHRA FEW024 SCT038 BKN050 BKN065 26/25 A2996 RMK AO2 LTG DSNT SE-S SLP151 WND DATA ESTMD,2024-08-10T04:32:00Z,26,25,4,29.96
KGSO,36.0969,-79.9432,180,6,6.9,KGSO 100432Z 18006KT 10SM FEW009 SCT035 OVC065 23/22 A2999 RMK AO2 RAE0359 TSE26 FRQ LTGICCG DSNT NE-SW CB DSNT NE-SW P0000 T02280222,2024-08-10T04:32:00Z,22.8,22.2,10+,29.99
KCUT,43.7331,-103.615,260,3,3.45,KCUT 100432Z AUTO 26003KT 10SM BKN007 10/08 A3030 RMK AO2 T01000078,2024-08-10T04:32:00Z,10,7.8,10+,30.30
KBMQ,30.7407,-98.2354,0,0,0.0,KBMQ 100432Z AUTO 00000KT 10SM FEW037 SCT065 SCT085 27/22 A3012 RMK AO2 T02670217,2024-08-10T04:32:00Z,26.7,21.7,10+,30.12
CYPR,54.291,-130.451,270,6,6.9,CYPR 100432Z AUTO 27006KT 230V300 9SM FEW003 BKN024 OVC140 15/15 A3003 RMK SLP170,2024-08-10T04:32:00Z,15,15,9,30.03
PAPE,55.9096,-159.16,190,7,8.06,PAPE 100431Z AUTO 19007KT 6SM -RA BR FEW016 BKN030 OVC050 11/08 A3005 RMK AO2 P0003,2024-08-10T04:31:00Z,11,8,6,30.05
KOXR,34.2001,-119.204,290,3,3.45,KOXR 100431Z AUTO 29003KT 9SM SCT006 16/14 A2986 RMK AO2 T01610144 $,2024-08-10T04:31:00Z,16.1,14.4,9,29.86
KLBL,37.0375,-100.957,140,6,6.9,KLBL 100431Z AUTO 14006KT 4SM RA BR FEW006 BKN017 OVC039 13/12 A3030 RMK AO2 LTG DSNT E TSE03 PNO $,2024-08-10T04:31:00Z,13,12,4,30.30
KAFP,35.0194,-80.0784,160,3,3.45,KAFP 100431Z AUTO 16003KT 10SM CLR 26/26 A2995 RMK AO2 T02610255,2024-08-10T04:31:00Z,26.1,25.5,10+,29.95
K4MR,34.29,-103.791,70,10,11.51,K4MR 100431Z AUTO 07010KT 10SM BKN120 OVC150 22/19 A3019 RMK AO2 LTG DSNT NE RAE31 SLP141 $,2024-08-10T04:31:00Z,22,19,10+,30.19
K0J4,31.0447,-86.3119,0,0,0.0,K0J4 100431Z AUTO 00000KT 10SM TS SCT070 BKN100 27/23 A2997 RMK AO2 TSB28 T02720233,2024-08-10T04:31:00Z,27.2,23.3,10+,29.97
FAGG,-34.006,22.379,320,24,27.62,FAGG 100431Z 32024G34KT CAVOK 17/05 Q1008,2024-08-10T04:31:00Z,17,5,6+,29.76
ZYTX,41.639,123.485,170,10,11.51,ZYTX 100430Z 17005MPS 140V200 9999 -RA NSC 29/23 Q0998 NOSIG,2024-08-10T04:30:00Z,29,23,6+,29.47
ZYTL,38.961,121.556,160,14,16.11,ZYTL 100430Z 16007G12MPS 140V200 9999 SCT016 30/26 Q0997 NOSIG,2024-08-10T04:30:00Z,30,26,6+,29.44
ZWWW,43.907,87.474,150,14,16.11,ZWWW 100430Z 15007MPS 120V180 CAVOK 38/08 Q1005 NOSIG,2024-08-10T04:30:00Z,38,8,6+,29.68
ZSSS,31.209,121.337,190,6,6.9,ZSSS 100430Z 19003MPS 100V250 CAVOK 37/27 Q1001 NOSIG,2024-08-10T04:30:00Z,37,27,6+,29.56
ZSPD,31.146,121.8,160,10,11.51,ZSPD 100430Z 16005MPS 130V190 CAVOK 36/26 Q1001 NOSIG,2024-08-10T04:30:00Z,36,26,6+,29.56
ZSHC,30.229,120.434,VRB,4,4.6,ZSHC 100430Z VRB02MPS 9999 FEW030 39/25 Q1000 NOSIG,2024-08-10T04:30:00Z,39,25,6+,29.53
ZMCK,47.651,106.822,290,12,13.81,ZMCK 100430Z 29006MPS 9999 FEW030TCU FEW033 SCT100 21/15 Q1011 NOSIG RMK QFE643.4 68 MOP,2024-08-10T04:30:00Z,21,15,6+,29.85
ZGGG,23.392,113.307,260,6,6.9,ZGGG 100430Z 26003MPS 200V300 9999 SCT040 36/26 Q1003 NOSIG,2024-08-10T04:30:00Z,36,26,6+,29.62
ZBYN,37.747,112.628,310,12,13.81,ZBYN 100430Z 31006MPS 270V330 9999 BKN030 28/14 Q1003 NOSIG,2024-08-10T04:30:00Z,28,14,6+,29.62
ZBTJ,39.124,117.346,260,8,9.21,ZBTJ 100430Z 26004MPS 210V290 9999 SCT026 32/25 Q0993 NOSIG,2024-08-10T04:30:00Z,32,25,6+,29.32
ZBAD,39.501,116.412,190,6,6.9,ZBAD 100430Z 19003MPS 130V240 9999 SCT026 32/25 Q0993 NOSIG,2024-08-10T04:30:00Z,32,25,6+,29.32
ZBAA,40.082,116.603,VRB,4,4.6,ZBAA 100430Z VRB02MPS 9999 FEW033 31/24 Q0994 NOSIG,2024-08-10T04:30:00Z,31,24,6+,29.35
YSTW,-31.084,150.847,240,5,5.75,YSTW 100430Z AUTO 24005KT 180V290 9999 // NCD 20/07 Q1026 RF00.0/000.0,2024-08-10T04:30:00Z,20,7,6+,30.30
YSSY,-33.946,151.173,160,10,11.51,YSSY 100430Z 16010KT 9999 FEW013 BKN280 17/13 Q1027 RF00.0/000.0,2024-08-10T04:30:00Z,17,13,6+,30.32
YSRI,-33.601,150.777,30,4,4.6,YSRI 100430Z AUTO 03004KT 9999 // NCD 20/13 Q1027 RF00.0/000.4,2024-08-10T04:30:00Z,20,13,6+,30.32
YSNF,-29.039,167.941,130,10,11.51,YSNF 100430Z AUTO 13010KT 9999 // NCD 16/09 Q1026 RF00.0/000.0,2024-08-10T04:30:00Z,16,9,6+,30.30
YSDU,-32.221,148.575,250,7,8.06,YSDU 100430Z AUTO 25007KT 190V280 9999 // BKN046 OVC092 21/10 Q1026,2024-08-10T04:30:00Z,21,10,6+,30.30
YSCB,-35.309,149.2,270,6,6.9,YSCB 100430Z AUTO 27006KT 9999 // NCD 15/05 Q1027 RF00.0/000.0,2024-08-10T04:30:00Z,15,5,6+,30.32
YPXM,-10.453,105.688,110,15,17.26,YPXM 100430Z AUTO 11015KT 9999 // BKN015 27/22 Q1013 RF00.0/000.0,2024-08-10T04:30:00Z,27,22,6+,29.91
YPWR,-31.156,136.805,90,7,8.06,YPWR 100430Z AUTO 09007KT 9999 // FEW058 OVC075 21/06 Q1025,2024-08-10T04:30:00Z,21,6,6+,30.27
YPTN,-14.523,132.383,120,14,16.11,YPTN 100430Z AUTO 12014KT 9999 // NCD 32/09 Q1013 RF00.0/000.0,2024-08-10T04:30:00Z,32,9,6+,29.91
YPPH,-31.927,115.976,10,13,14.96,YPPH 100430Z 01013KT CAVOK 24/07 Q1014,2024-08-10T04:30:00Z,24,7,6+,29.94
YPPD,-20.372,118.632,10,10,11.51,YPPD 100430Z AUTO 01010KT 9999 // ////// 30/10 Q1014 RF00.0/000.0,2024-08-10T04:30:00Z,30,10,6+,29.94
YPLM,-22.241,114.097,40,8,9.21,YPLM 100430Z AUTO 04008KT 9999 // NCD 25/14 Q1015 RF00.0/000.0,2024-08-10T04:30:00Z,25,14,6+,29.97
YPKU,-15.781,128.71,110,11,12.66,YPKU 100430Z AUTO 11011KT 9999 // NCD 32/03 Q1014 RF00.0/000.0,2024-08-10T04:30:00Z,32,3,6+,29.94
YPKG,-30.785,121.453,360,10,11.51,YPKG 100430Z AUTO 36010KT 9999 // NCD 23/06 Q1019 RF00.0/000.0,2024-08-10T04:30:00Z,23,6,6+,30.09
YPJT,-32.101,115.879,10,12,13.81,YPJT 100430Z AUTO 01012KT 9999 // NCD 24/09 Q1013 RF00.0/000.0,2024-08-10T04:30:00Z,24,9,6+,29.91
YPGV,-12.274,136.82,,,,YPGV 100430Z AUTO /////KT 9999 // BKN025 BKN037 BKN067 28/21 Q1012,2024-08-10T04:30:00Z,28,21,6+,29.88
YPEA,-31.667,116.019,10,11,12.66,YPEA 100430Z AUTO 01011KT 9999 // NCD 24/07 Q1014 RF00.0/000.0,2024-08-10T04:30:00Z,24,7,6+,29.94
YPDN,-12.424,130.893,90,12,13.81,YPDN 100430Z 09012KT CAVOK 32/11 Q1012 PATCHES OF SLIGHT SMOKE ALOFT,2024-08-10T04:30:00Z,32,11,6+,29.88
YPCC,-12.189,96.834,60,7,8.06,YPCC 100430Z AUTO 06007KT 9999 // FEW031 SCT058 BKN070 30/23 Q1014,2024-08-10T04:30:00Z,30,23,6+,29.94
YPAD,-34.952,138.52,240,7,8.06,YPAD 100430Z 24007KT 9999 FEW048 14/09 Q1028,2024-08-10T04:30:00Z,14,9,6+,30.35
YMML,-37.666,144.832,240,3,3.45,YMML 100430Z 24003KT 9999 SCT042 17/07 Q1028,2024-08-10T04:30:00Z,17,7,6+,30.35
YMLT,-41.544,147.213,350,16,18.41,YMLT 100430Z AUTO 35016KT 9999 // SCT029 SCT036 15/09 Q1024,2024-08-10T04:30:00Z,15,9,6+,30.24
YMHB,-42.834,147.503,290,11,12.66,YMHB 100430Z 29011KT 9999 FEW050 SCT220 17/06 Q1021 RF00.0/000.0,2024-08-10T04:30:00Z,17,6,6+,30.15
YMAV,-38.029,144.478,270,10,11.51,YMAV 100430Z AUTO 27010KT 9999 // BKN050 17/06 Q1028 RF00.0/000.0,2024-08-10T04:30:00Z,17,6,6+,30.35
YLHI,-31.538,159.077,90,13,14.96,YLHI 100430Z AUTO 09013KT 9999 // SCT024 SCT028 BKN034 19/13 Q1026,2024-08-10T04:30:00Z,19,13,6+,30.30
YHID,-10.584,142.29,110,18,20.71,YHID 100430Z AUTO 11018KT 9999 // NCD 28/21 Q1011 RF00.0/000.0,2024-08-10T04:30:00Z,28,21,6+,29.85
YGLA,-23.87,151.221,90,16,18.41,YGLA 100430Z AUTO 09016KT 9999 // SCT068 24/16 Q1020 RF00.0/000.0,2024-08-10T04:30:00Z,24,16,6+,30.12
YGEL,-28.805,114.699,20,10,11.51,YGEL 100430Z AUTO 02010KT 9999 // NCD 25/15 Q1013 RF00.0/000.2,2024-08-10T04:30:00Z,25,15,6+,29.91
YFRT,-30.848,128.114,50,9,10.36,YFRT 100430Z AUTO 05009KT 9999 // NCD 22/04 Q1024 RF00.0/000.0,2024-08-10T04:30:00Z,22,4,6+,30.24
YCIN,-17.574,123.831,100,9,10.36,YCIN 100430Z AUTO 10009KT 070V130 9999 // NCD 32/00 Q1013 RF00.0/000.0,2024-08-10T04:30:00Z,32,0,6+,29.91
YCFS,-30.317,153.119,150,9,10.36,YCFS 100430Z AUTO 15009KT 9999 // NCD 20/15 Q1026 RF00.0/000.0,2024-08-10T04:30:00Z,20,15,6+,30.30
YBWW,-27.558,151.793,80,10,11.51,YBWW 100430Z AUTO 08010KT 050V110 9999 // OVC094 21/08 Q1023,2024-08-10T04:30:00Z,21,8,6+,30.21
YBTL,-19.248,146.766,60,18,20.71,YBTL 100430Z AUTO 06018KT 9999 // NCD 25/17 Q1017 RF00.0/000.0,2024-08-10T04:30:00Z,25,17,6+,30.03
YBSU,-26.603,153.091,150,11,12.66,YBSU 100430Z AUTO 15011KT 9999 // SCT027 BKN070 OVC079 21/15 Q1023,2024-08-10T04:30:00Z,21,15,6+,30.21
YBRM,-17.948,122.235,70,11,12.66,YBRM 100430Z AUTO 07011KT 9999 // NCD 34/06 Q1013 RF00.0/000.0,2024-08-10T04:30:00Z,34,6,6+,29.91
YBRK,-23.375,150.477,110,9,10.36,YBRK 100430Z AUTO 11009KT 9999 // SCT036 BKN045 OVC085 23/15 Q1020,2024-08-10T04:30:00Z,23,15,6+,30.12
YBMA,-20.678,139.488,140,9,10.36,YBMA 100430Z AUTO 14009KT 9999 // NCD 28/06 Q1017 RF00.0/000.0,2024-08-10T04:30:00Z,28,6,6+,30.03
YBLN,-33.688,115.402,350,11,12.66,YBLN 100430Z AUTO 35011KT 9999 // NCD 19/13 Q1013 RF00.0/000.0,2024-08-10T04:30:00Z,19,13,6+,29.91
YBHM,-20.357,148.949,140,21,24.17,YBHM 100430Z AUTO 14021KT 9999 // SCT020 BKN105 20/18 Q1018,2024-08-10T04:30:00Z,20,18,6+,30.06
YBCS,-16.874,145.745,,,,YBCS 100430Z AUTO /////KT 9999 // BKN062 OVC071 25/18 Q1015,2024-08-10T04:30:00Z,25,18,6+,29.97
YBCG,-28.168,153.505,140,12,13.81,YBCG 100430Z AUTO 14012KT 9999 // FEW036 22/13 Q1024 RF00.0/000.0,2024-08-10T04:30:00Z,22,13,6+,30.24
YBBN,-27.391,153.13,120,8,9.21,YBBN 100430Z 12008KT 9999 FEW030 BKN100 21/14 Q1024 RF00/0/000/0,2024-08-10T04:30:00Z,21,14,6+,30.24
YBAS,-23.795,133.889,160,11,12.66,YBAS 100430Z AUTO 16011KT 080V170 9999 // NCD 22/02 Q1022 RF00.0/000.0,2024-08-10T04:30:00Z,22,2,6+,30.18
YAMB,-27.63,152.711,120,9,10.36,YAMB 100430Z AUTO 12009KT 9999 // FEW042 OVC056 22/12 Q1023,2024-08-10T04:30:00Z,22,12,6+,30.21
WSSS,1.368,103.982,190,8,9.21,WSSS 100430Z 19008KT 9999 FEW016 FEW018TCU FEW020CB SCT040 29/25 Q1010 TEMPO FM0500 TL0600 4500 SHRA,2024-08-10T04:30:00Z,29,25,6+,29.82
WMKP,5.297,100.277,210,7,8.06,WMKP 100430Z 21007KT 160V250 9000 FEW020 32/23 Q1010 NOSIG,2024-08-10T04:30:00Z,32,23,5.59,29.82
WMKK,2.747,101.714,VRB,5,5.75,WMKK 100430Z VRB05KT 9999 FEW017CB SCT018 31/25 Q1010 NOSIG,2024-08-10T04:30:00Z,31,25,6+,29.82
WIPP,-2.898,104.7,110,8,9.21,WIPP 100430Z 11008KT 070V170 9999 SCT010 32/23 Q1010 NOSIG,2024-08-10T04:30:00Z,32,23,6+,29.82
WIOO,-0.151,109.404,160,7,8.06,WIOO 100430Z 16007KT 9999 BKN012 32/26 Q1008 NOSIG,2024-08-10T04:30:00Z,32,26,6+,29.76
WIMM,3.636,98.874,330,8,9.21,WIMM 100430Z 33008KT 290V020 7000 SCT018 31/26 Q1010 NOSIG,2024-08-10T04:30:00Z,31,26,4.35,29.82
WILL,-5.242,105.179,110,8,9.21,WILL 100430Z 11008KT 9999 SCT015 / Q1010 TEMPO FM0435 TL0500 3000 RA BKN010,2024-08-10T04:30:00Z,,,6+,29.82
WIII,-6.125,106.659,60,10,11.51,WIII 100430Z 06010KT 9999 FEW020 32/23 Q1009 NOSIG,2024-08-10T04:30:00Z,32,23,6+,29.79
WIHH,-6.267,106.891,40,12,13.81,WIHH 100430Z 04012KT 5000 HZ FEW020 33/21 Q1009 NOSIG METAR ,2024-08-10T04:30:00Z,33,21,3.11,29.79
WIEE,-0.783,100.283,210,3,3.45,WIEE 100430Z 21003KT 170V250 9999 SCT020 28/24 Q1011 NOSIG,2024-08-10T04:30:00Z,28,24,6+,29.85
WIDN,0.923,104.532,190,10,11.51,WIDN 100430Z 19010KT 9000 FEW015CB SCT017TCU 29/25 Q1009 NOSIG RMK CB MOV NW,2024-08-10T04:30:00Z,29,25,5.59,29.79
WIDD,1.121,104.119,280,6,6.9,WIDD 100430Z 28006KT 7000 BKN013 27/27 Q1011 NOSIG,2024-08-10T04:30:00Z,27,27,4.35,29.85
WIBB,0.461,101.445,160,11,12.66,WIBB 100430Z 16011KT 9000 SCT014 30/24 Q1009 NOSIG,2024-08-10T04:30:00Z,30,24,5.59,29.79
WBSB,4.944,114.928,340,8,9.21,WBSB 100430Z 34008KT 9999 SCT015 BKN280 31/25 Q1008 NOSIG,2024-08-10T04:30:00Z,31,25,6+,29.76
WBKK,5.937,116.051,VRB,5,5.75,WBKK 100430Z VRB05KT 9999 FEW014 32/26 Q1007 NOSIG,2024-08-10T04:30:00Z,32,26,6+,29.73
WBGG,1.484,110.34,320,4,4.6,WBGG 100430Z 32004KT 250V040 9999 SCT016 32/26 Q1009 NOSIG,2024-08-10T04:30:00Z,32,26,6+,29.79
WAYY,-4.528,136.887,130,9,10.36,WAYY 100430Z 13009KT 4000 -RA BKN010 27/26 Q1009 NOSIG,2024-08-10T04:30:00Z,27,26,2.49,29.79
WATT,-10.172,123.671,100,17,19.56,WATT 100430Z 10017KT 9999 FEW020 33/07 Q1012 NOSIG,2024-08-10T04:30:00Z,33,7,6+,29.88
WARR,-7.38,112.787,70,8,9.21,WARR 100430Z 07008KT 9999 FEW020 32/22 Q1010 NOSIG,2024-08-10T04:30:00Z,32,22,6+,29.82
WAQQ,3.327,117.568,210,5,5.75,WAQQ 100430Z 21005KT 9999 SCT015 32/26 Q1008 NOSIG,2024-08-10T04:30:00Z,32,26,6+,29.76
WAPP,-3.71,128.089,240,5,5.75,WAPP 100430Z 24005KT 9999 BKN017 27/23 Q1010 NOSIG,2024-08-10T04:30:00Z,27,23,6+,29.82
WAOO,-3.44,114.759,80,12,13.81,WAOO 100430Z 08012KT 9999 SCT020 33/23 Q1008 NOSIG,2024-08-10T04:30:00Z,33,23,6+,29.76
WALL,-1.268,116.894,240,6,6.9,WALL 100430Z 24006KT 190V250 9999 FEW020 30/24 Q1009 NOSIG,2024-08-10T04:30:00Z,30,24,6+,29.79
WAKK,-8.52,140.417,150,13,14.96,WAKK 100430Z 15013KT 9999 BKN015 29/24 Q1009 NOSIG,2024-08-10T04:30:00Z,29,24,6+,29.79
WAJJ,-2.573,140.514,100,7,8.06,WAJJ 100430Z 10007KT 070V140 9999 FEW013 34/24 Q1006,2024-08-10T04:30:00Z,34,24,6+,29.70
WAHS,-6.973,110.375,110,6,6.9,WAHS 100430Z 11006KT 8000 FEW014 33/20 Q1009 NOSIG,2024-08-10T04:30:00Z,33,20,4.97,29.79
WADL,-8.757,116.277,130,10,11.51,WADL 100430Z 13010KT 080V160 8000 FEW016 31/18 Q1012 NOSIG,2024-08-10T04:30:00Z,31,18,4.97,29.88
WADD,-8.748,115.167,120,15,17.26,WADD 100430Z 12015KT 9999 FEW017 29/24 Q1011 NOSIG,2024-08-10T04:30:00Z,29,24,6+,29.85
WAAA,-5.062,119.554,210,3,3.45,WAAA 100430Z 21003KT 9999 FEW019 33/11 Q1010 NOSIG,2024-08-10T04:30:00Z,33,11,6+,29.82
VYYY,16.906,96.137,260,10,11.51,VYYY 100430Z 26010KT 7000 BKN018 FEW025CB BKN120 32/25 Q1009,2024-08-10T04:30:00Z,32,25,4.35,29.79
VVVD,21.118,107.414,190,9,10.36,VVVD 100430Z 19009KT 9999 FEW036 35/29 Q1002 NOSIG,2024-08-10T04:30:00Z,35,29,6+,29.59
VVTS,10.817,106.667,250,9,10.36,VVTS 100430Z 25009KT 220V280 9999 SCT034 33/25 Q1008 NOSIG,2024-08-10T04:30:00Z,33,25,6+,29.76
VVPQ,10.169,103.995,250,9,10.36,VVPQ 100430Z 25009KT 230V300 9999 SCT015 32/24 Q1009 NOSIG,2024-08-10T04:30:00Z,32,24,6+,29.79
VVPB,16.399,107.699,260,8,9.21,VVPB 100430Z 26008KT 190V260 9999 FEW020 39/22 Q1004 NOSIG,2024-08-10T04:30:00Z,39,22,6+,29.65
VVNB,21.218,105.805,340,5,5.75,VVNB 100430Z 34005KT 300V030 CAVOK 36/27 Q1001 NOSIG,2024-08-10T04:30:00Z,36,27,6+,29.56
VVDN,16.044,108.199,240,6,6.9,VVDN 100430Z 24006KT 180V270 9999 FEW017 37/23 Q1004 NOSIG,2024-08-10T04:30:00Z,37,23,6+,29.65
VVCT,10.085,105.712,250,7,8.06,VVCT 100430Z 25007KT 220V300 9999 SCT017 32/27 Q1009 NOSIG,2024-08-10T04:30:00Z,32,27,6+,29.79
VVCR,11.998,109.219,130,12,13.81,VVCR 100430Z 13012KT CAVOK 34/23 Q1007 NOSIG,2024-08-10T04:30:00Z,34,23,6+,29.73
VVCI,20.823,106.727,230,8,9.21,VVCI 100430Z 23008KT 9999 FEW042 36/26 Q1001 NOSIG,2024-08-10T04:30:00Z,36,26,6+,29.56
VTSS,6.933,100.393,240,5,5.75,VTSS 100430Z 24005KT 9999 VCSH FEW018CB SCT020 BKN100 31/23 Q1010 NOSIG,2024-08-10T04:30:00Z,31,23,6+,29.82
VTSP,8.105,98.308,280,7,8.06,VTSP 100430Z 28007KT 250V320 9999 FEW020 32/26 Q1010 NOSIG,2024-08-10T04:30:00Z,32,26,6+,29.82
VTCC,18.771,98.963,VRB,2,2.3,VTCC 100430Z VRB02KT 9999 SCT035 32/23 Q1008 NOSIG,2024-08-10T04:30:00Z,32,23,6+,29.76
VTBU,12.68,101.001,230,3,3.45,VTBU 100430Z 23003KT 9999 FEW020 33/27 Q1009 NOSIG,2024-08-10T04:30:00Z,33,27,6+,29.79
VTBS,13.686,100.767,260,8,9.21,VTBS 100430Z 26008KT 220V300 9999 FEW020 34/22 Q1008 NOSIG,2024-08-10T04:30:00Z,34,22,6+,29.76
VTBD,13.913,100.607,280,10,11.51,VTBD 100430Z 28010KT 240V310 9999 FEW030 33/24 Q1008 NOSIG,2024-08-10T04:30:00Z,33,24,6+,29.76
VQPR,27.403,89.425,VRB,3,3.45,VQPR 100430Z VRB03KT 9999 SCT030 25/14 Q1019,2024-08-10T04:30:00Z,25,14,6+,30.09
VOVZ,17.722,83.228,270,10,11.51,VOVZ 100430Z 27010KT 5000 HZ FEW018 SCT090 33/24 Q1007 NOSIG,2024-08-10T04:30:00Z,33,24,3.11,29.73
VOTV,8.484,76.919,310,7,8.06,VOTV 100430Z 31007KT 5000 HZ SCT012 BKN080 30/25 Q1011 NOSIG,2024-08-10T04:30:00Z,30,25,3.11,29.85
VOTP,13.633,79.543,300,6,6.9,VOTP 100430Z 30006KT 6000 SCT020 SCT100 31/24 Q1009 NOSIG,2024-08-10T04:30:00Z,31,24,3.73,29.79
VOSR,16.001,73.534,180,3,3.45,VOSR 100430Z 18003KT 5000 HZ SCT018 SCT025 BKN090 26/25 Q1011 NOSIG,2024-08-10T04:30:00Z,26,25,3.11,29.85
VOSM,11.783,78.066,300,3,3.45,VOSM 100430Z 30003KT 6000 SCT020 29/26 Q1011 NOSIG,2024-08-10T04:30:00Z,29,26,3.73,29.85
VORY,17.11,81.818,260,11,12.66,VORY 100430Z 26011KT 6000 SCT016 SCT025 FEW030CB 29/25 Q1008 NOSIG,2024-08-10T04:30:00Z,29,25,3.73,29.76
VOPB,11.641,92.73,220,6,6.9,VOPB 100430Z 22006KT 6000 FEW012 32/23 Q1010 NOSIG,2024-08-10T04:30:00Z,32,23,3.73,29.82
VOND,19.181,77.333,270,4,4.6,VOND 100430Z 27004KT 6000 SCT025 BKN080 28/28 Q1011 NOSIG,2024-08-10T04:30:00Z,28,28,3.73,29.85
VOMY,12.229,76.652,0,0,0.0,VOMY 100430Z 00000KT 6000 SCT008 SCT015 BKN080 24/23 Q1015,2024-08-10T04:30:00Z,24,23,3.73,29.97
VOMM,12.994,80.18,340,6,6.9,VOMM 100430Z 34006KT 5000 HZ SCT018 BKN100 32/26 Q1008 NOSIG,2024-08-10T04:30:00Z,32,26,3.11,29.76
VOML,12.961,74.89,300,8,9.21,VOML 100430Z 30008KT 8000 FEW012 BKN080 27/24 Q1011 NOSIG,2024-08-10T04:30:00Z,27,24,4.97,29.85
VOMD,9.835,78.093,270,6,6.9,VOMD 100430Z 27006KT 6000 FEW020 SCT100 30/23 Q1010 NOSIG,2024-08-10T04:30:00Z,30,23,3.73,29.82
VOKU,15.716,78.169,280,6,6.9,VOKU 100430Z 28006KT 4000 BR SCT016 BKN090 27/24 Q1011 NOSIG,2024-08-10T04:30:00Z,27,24,2.49,29.85
VOKN,11.917,75.547,10,3,3.45,VOKN 100430Z 01003KT 6000 FEW010 SCT012 BKN080 27/25 Q1011 NOSIG,2024-08-10T04:30:00Z,27,25,3.73,29.85
VOHS,17.233,78.429,260,10,11.51,VOHS 100430Z 26010KT 6000 SCT015 BKN100 27/24 Q1013 NOSIG,2024-08-10T04:30:00Z,27,24,3.73,29.91
VOHB,15.362,75.085,240,5,5.75,VOHB 100430Z 24005KT 9999 FEW008 SCT012 25/23 Q1014,2024-08-10T04:30:00Z,25,23,6+,29.94
VOGB,17.309,76.957,290,8,9.21,VOGB 100430Z 29008KT 6000 FEW015 29/26 Q1012,2024-08-10T04:30:00Z,29,26,3.73,29.88
VOGA,15.7426,73.8631,170,2,2.3,VOGA 100430Z 17002KT 2700 BR SCT005 SCT015 BKN080 25/25 Q1012 NOSIG,2024-08-10T04:30:00Z,25,25,1.68,29.88
VOCP,14.513,78.771,300,8,9.21,VOCP 100430Z 30008KT 4000 -DZ FEW018 BKN080 27/23 Q1010 NOSIG,2024-08-10T04:30:00Z,27,23,2.49,29.82
VOCL,11.137,75.955,300,6,6.9,VOCL 100430Z 30006KT 5000 BR SCT012 SCT080 27/24 Q1011 NOSIG,2024-08-10T04:30:00Z,27,24,3.11,29.85
VOCI,10.152,76.402,350,2,2.3,VOCI 100430Z 35002KT 4000 BR FEW010 SCT012 BKN080 28/24 Q1011 NOSIG,2024-08-10T04:30:00Z,28,24,2.49,29.85
VOCB,11.03,77.043,210,6,6.9,VOCB 100430Z 21006KT 5000 HZ SCT012 BKN080 28/23 Q1013 NOSIG,2024-08-10T04:30:00Z,28,23,3.11,29.91
VOBZ,16.53,80.797,270,7,8.06,VOBZ 100430Z 27007KT 6000 FEW020 SCT025 OVC080 29/26 Q1008 NOSIG,2024-08-10T04:30:00Z,29,26,3.73,29.76
VOBM,15.861,74.617,280,5,5.75,VOBM 100430Z 28005KT 6000 SCT012 BKN080 26/23 Q1016,2024-08-10T04:30:00Z,26,23,3.73,30.00
VOBL,13.205,77.704,330,19,21.86,VOBL 100430Z 33019KT 9999 FEW008 SCT012 25/20 Q1014 NOSIG,2024-08-10T04:30:00Z,25,20,6+,29.94
VOBG,12.949,77.663,330,4,4.6,VOBG 100430Z 33004KT 6000 SCT012 BKN080 26/23 Q1015 NOSIG,2024-08-10T04:30:00Z,26,23,3.73,29.97
VOAT,10.824,72.176,320,12,13.81,VOAT 100430Z 32012KT 5000 HZ SCT012 FEW025CB BKN080 28/25 Q1012 NOSIG,2024-08-10T04:30:00Z,28,25,3.11,29.88
VNKT,27.697,85.359,170,3,3.45,VNKT 100430Z 17003KT 7000 FEW010 FEW025CB SCT030 BKN100 25/20 Q1014 NOSIG CB TO E AND S,2024-08-10T04:30:00Z,25,20,4.35,29.94
VMMC,22.141,113.596,210,12,13.81,VMMC 100430Z 21012KT 9999 FEW012 SCT025 32/28 Q1004 NOSIG,2024-08-10T04:30:00Z,32,28,6+,29.65
VLVT,17.987,102.564,240,6,6.9,VLVT 100430Z 24006KT 9999 SCT016 FEW050 33/27 Q1006 NOSIG,2024-08-10T04:30:00Z,33,27,6+,29.70
VISP,29.994,77.425,90,6,6.9,VISP 100430Z 09006KT 6000 SCT025 BKN090 31/28 Q1005 NOSIG,2024-08-10T04:30:00Z,31,28,3.73,29.68
VISM,31.082,77.068,230,6,6.9,VISM 100430Z 23006KT 1000 BR FEW020 OVC050 23/22 Q1014,2024-08-10T04:30:00Z,23,22,0.62,29.94
VIPT,29.033,79.474,100,8,9.21,VIPT 100430Z 10008KT 5000 BR SCT020 OVC090 27/26 Q1005,2024-08-10T04:30:00Z,27,26,3.11,29.68
VILK,26.761,80.889,120,4,4.6,VILK 100430Z 12004KT 4000 BR SCT020 BKN100 29/26 Q1004 NOSIG,2024-08-10T04:30:00Z,29,26,2.49,29.65
VILH,34.136,77.546,VRB,2,2.3,VILH 100430Z VRB02KT 6000 FEW120 28/M00 Q1023 NOSIG,2024-08-10T04:30:00Z,28,0,3.73,30.21
VIJU,32.689,74.837,180,3,3.45,VIJU 100430Z 18003KT 5000 BR SCT025 BKN090 31/31 Q1004 TEMPO -RA,2024-08-10T04:30:00Z,31,31,3.11,29.65
VIJP,26.824,75.812,290,5,5.75,VIJP 100430Z 29005KT 2500 -RA SCT012 BKN020 OVC080 26/25 Q1007 NOSIG,2024-08-10T04:30:00Z,26,25,1.55,29.73
VIJO,26.243,73.039,250,11,12.66,VIJO 100430Z 25011KT 6000 SCT010 SCT015 BKN090 29/28 Q1006 TEMPO -RA,2024-08-10T04:30:00Z,29,28,3.73,29.70
VIGG,32.165,76.263,0,0,0.0,VIGG 100430Z 00000KT 5000 BR FEW010 SCT030 FEW035CB OVC080 25/24 Q1008,2024-08-10T04:30:00Z,25,24,3.11,29.76
VIDP,28.567,77.117,110,6,6.9,VIDP 100430Z 11006KT 3000 BR SCT030 BKN090 30/28 Q1004 NOSIG,2024-08-10T04:30:00Z,30,28,1.86,29.65
VIDN,30.19,78.18,320,3,3.45,VIDN 100430Z 32003KT 4000 BR SCT020 BKN060 27/26 Q1007 NOSIG,2024-08-10T04:30:00Z,27,26,2.49,29.73
VIBY,28.421,79.452,90,6,6.9,VIBY 100430Z 09006KT 4000 BR SCT010 SCT015 OVC090 29/28 Q1004 TEMPO RA,2024-08-10T04:30:00Z,29,28,2.49,29.65
VIBR,31.876,77.154,140,2,2.3,VIBR 100430Z 14002KT 6000 SCT025 BKN070 28/22 Q1008,2024-08-10T04:30:00Z,28,22,3.73,29.76
VIAR,31.707,74.801,140,5,5.75,VIAR 100430Z 14005KT 3000 BR SCT030 SCT090 32/31 Q1003 NOSIG,2024-08-10T04:30:00Z,32,31,1.86,29.62
VHHH,22.309,113.922,220,15,17.26,VHHH 100430Z 22015KT 9999 FEW012 34/26 Q1004 TEMPO 4000 SHRA,2024-08-10T04:30:00Z,34,26,6+,29.65
VGHS,23.846,90.4,130,8,9.21,VGHS 100430Z 13008KT 4000 HZ SCT012 BKN100 29/27 Q1006 NOSIG,2024-08-10T04:30:00Z,29,27,2.49,29.70
VETZ,26.709,92.785,230,6,6.9,VETZ 100430Z 23006KT 6000 FEW010 SCT015 BKN090 30/25 Q1005 TEMPO -RA,2024-08-10T04:30:00Z,30,25,3.73,29.68
VERP,21.182,81.738,240,7,8.06,VERP 100430Z 24007KT 5000 HZ FEW020 SCT025 28/23 Q1008 NOSIG,2024-08-10T04:30:00Z,28,23,3.11,29.76
VERK,22.256,84.816,250,5,5.75,VERK 100430Z 25005KT 6000 BKN020 BKN100 29/25 Q1006,2024-08-10T04:30:00Z,29,25,3.73,29.70
VERC,23.314,85.322,220,5,5.75,VERC 100430Z 22005KT 4500 BR SCT020 SCT100 27/23 Q1010 NOSIG,2024-08-10T04:30:00Z,27,23,2.8,29.82
VEPY,27.228,88.587,200,2,2.3,VEPY 100430Z 20002KT 1600 BR FEW008 SCT015 BKN100 23/22 Q1015 NOSIG,2024-08-10T04:30:00Z,23,22,0.99,29.97
VEPT,25.591,85.088,80,4,4.6,VEPT 100430Z 08004KT 3500 BR SCT018 BKN100 31/30 Q1004 NOSIG,2024-08-10T04:30:00Z,31,30,2.17,29.65
VEMN,27.481,95.014,330,3,3.45,VEMN 100430Z 33003KT 5000 BR SCT018 OVC090 27/26 Q1006 NOSIG,2024-08-10T04:30:00Z,27,26,3.11,29.70
VELP,23.841,92.62,160,7,8.06,VELP 100430Z 16007KT 5000 HZ SCT018 BKN100 29/24 Q1009 NOSIG,2024-08-10T04:30:00Z,29,24,3.11,29.79
VEKU,24.913,92.979,VRB,1,1.15,VEKU 100430Z VRB01KT 5000 FEW015 SCT020 BKN090 30/25 Q1009 TEMPO -RA,2024-08-10T04:30:00Z,30,25,3.11,29.79
VEJT,26.731,94.175,220,6,6.9,VEJT 100430Z 22006KT 6000 FEW015 BKN090 32/25 Q1005 TEMPO RA,2024-08-10T04:30:00Z,32,25,3.73,29.68
VEJR,19.075,82.037,180,3,3.45,VEJR 100430Z 18003KT 2500 RA FEW012 BKN020 OVC080 27/25 Q1011,2024-08-10T04:30:00Z,27,25,1.55,29.85
VEIM,24.76,93.897,250,3,3.45,VEIM 100430Z 25003KT 5000 VCRA FEW010 SCT015 BKN100 28/25 Q1011 NOSIG,2024-08-10T04:30:00Z,28,25,3.11,29.85
VEHO,-99.99,-99.99,220,13,14.96,VEHO 100430Z 22013KT 4500 BR FEW020 SCT100 30/27 Q1005 NOSIG,2024-08-10T04:30:00Z,30,27,2.8,29.68
VEGT,26.107,91.587,150,2,2.3,VEGT 100430Z 15002KT 3000 -RA FEW010 SCT018 FEW025CB BKN100 29/27 Q1006 NOSIG,2024-08-10T04:30:00Z,29,27,1.86,29.70
VEGK,26.74,83.451,120,4,4.6,VEGK 100430Z 12004KT 4500 BR FEW015 SCT018 FEW030CB BKN090 32/31 Q1005 TEMPO -RA,2024-08-10T04:30:00Z,32,31,2.8,29.68
VEDO,24.446,86.707,250,4,4.6,VEDO 100430Z 25004KT 5000 HZ SCT018 BKN090 29/24 Q1006 NOSIG,2024-08-10T04:30:00Z,29,24,3.11,29.70
VEDG,23.623,87.243,210,2,2.3,VEDG 100430Z 21002KT 3000 HZ SCT018 FEW025CB BKN090 30/27 Q1005 NOSIG,2024-08-10T04:30:00Z,30,27,1.86,29.68
VECX,9.15,92.817,90,3,3.45,VECX 100430Z 09003KT 4000 BR FEW012 SCT015 BKN090 30/28 Q1005 NOSIG,2024-08-10T04:30:00Z,30,28,2.49,29.68
VECC,22.651,88.445,140,4,4.6,VECC 100430Z 14004KT 2600 -RA SCT018 OVC090 29/27 Q1005 NOSIG,2024-08-10T04:30:00Z,29,27,1.62,29.68
VEBS,20.244,85.818,210,6,6.9,VEBS 100430Z 21006KT 4000 HZ SCT018 BKN100 30/26 Q1007 NOSIG,2024-08-10T04:30:00Z,30,26,2.49,29.73
VEBN,25.452,82.859,240,4,4.6,VEBN 100430Z 24004KT 2500 BR FEW010 SCT020 BKN100 29/28 Q1005 NOSIG,2024-08-10T04:30:00Z,29,28,1.55,29.68
VEAY,26.7484,82.1624,VRB,2,2.3,VEAY 100430Z VRB02KT 3000 BR FEW015 SCT020 BKN090 28/25 Q1004 NOSIG,2024-08-10T04:30:00Z,28,25,1.86,29.65
VDSV,10.582,103.637,260,9,10.36,VDSV 100430Z 26009KT 9999 SCT015 32/26 Q1009,2024-08-10T04:30:00Z,32,26,6+,29.79
VDSA,13.371,104.225,250,10,11.51,VDSA 100430Z 25010KT 9999 SCT015 32/25 Q1008,2024-08-10T04:30:00Z,32,25,6+,29.76
VDPP,11.547,104.844,260,7,8.06,VDPP 100430Z 26007KT 220V310 9999 SCT017 34/26 Q1007,2024-08-10T04:30:00Z,34,26,6+,29.73
VAUD,24.618,73.896,230,8,9.21,VAUD 100430Z 23008KT 3000 BR SCT015 BKN025 OVC080 28/24 Q1008 NOSIG,2024-08-10T04:30:00Z,28,24,1.86,29.76
VASU,21.114,72.742,240,9,10.36,VASU 100430Z 24009KT 5000 BR FEW012 SCT020 OVC080 28/26 Q1008 NOSIG,2024-08-10T04:30:00Z,28,26,3.11,29.76
VANP,21.089,79.055,200,5,5.75,VANP 100430Z 20005KT 4000 HZ SCT018 BKN080 27/26 Q1010 NOSIG,2024-08-10T04:30:00Z,27,26,2.49,29.82
VAKP,16.664,74.287,220,6,6.9,VAKP 100430Z 22006KT 6000 SCT012 SCT020 BKN080 26/21 Q1014,2024-08-10T04:30:00Z,26,21,3.73,29.94
VAJM,22.465,70.009,240,8,9.21,VAJM 100430Z 24008KT 5000 -RABR SCT010 SCT015 OVC070 28/27 Q1006 TEMPO 3000,2024-08-10T04:30:00Z,28,27,3.11,29.70
VAJJ,19.098,72.834,250,5,5.75,VAJJ 100430Z 25005KT 3000 BR FEW012 SCT018 FEW025TCU BKN090 28/24 Q1009 NOSIG,2024-08-10T04:30:00Z,28,24,1.86,29.79
VAID,22.722,75.801,270,8,9.21,VAID 100430Z 27008KT 3000 -DZ SCT010 SCT018 BKN080 24/22 Q1010 NOSIG,2024-08-10T04:30:00Z,24,22,1.86,29.82
VAGD,21.467,80.2,230,5,5.75,VAGD 100430Z 23005KT 5000 HZ SCT018 BKN080 29/27 Q1008 NOSIG,2024-08-10T04:30:00Z,29,27,3.11,29.76
VADU,20.714,70.923,260,13,14.96,VADU 100430Z 26013KT 6000 SCT020 SCT080 29/25 Q1008 NOSIG,2024-08-10T04:30:00Z,29,25,3.73,29.76
VABO,22.333,73.225,200,6,6.9,VABO 100430Z 20006KT 4000 -RA SCT012 SCT020 BKN080 27/26 Q1007 NOSIG,2024-08-10T04:30:00Z,27,26,2.49,29.73
VABB,19.1,72.859,260,9,10.36,VABB 100430Z 26009KT 2500 BR FEW012 SCT018 FEW025TCU BKN090 28/25 Q1009 BECMG 3000 BR,2024-08-10T04:30:00Z,28,25,1.55,29.79
VAAU,19.863,75.398,250,5,5.75,VAAU 100430Z 25005KT 4000 HZ SCT020 SCT025 BKN100 26/23 Q1012 NOSIG,2024-08-10T04:30:00Z,26,23,2.49,29.88
VAAH,23.077,72.635,210,10,11.51,VAAH 100430Z 21010KT 3000 BR SCT012 SCT020 OVC080 27/24 Q1007 BECMG 4000 HZ,2024-08-10T04:30:00Z,27,24,1.86,29.73
UWUU,54.57,55.87,110,8,9.21,UWUU 100430Z 11004MPS 070V140 9999 BKN040 16/10 Q1011 R14R/0///60 NOSIG,2024-08-10T04:30:00Z,16,10,6+,29.85
UWSG,51.713,46.171,310,10,11.51,UWSG 100430Z 31005MPS 9999 BKN015 18/15 Q1009 R26/CLRD70 NOSIG RMK QFE754/1006,2024-08-10T04:30:00Z,18,15,6+,29.79
UWPS,54.116,45.203,280,10,11.51,UWPS 100430Z 28005MPS 5000 -DZ BR OVC003 16/16 Q1008 R02/190060 TEMPO 0300 FG VV001 RMK QBB100 QFE737,2024-08-10T04:30:00Z,16,16,3.11,29.76
UWOO,51.795,55.457,140,10,11.51,UWOO 100430Z 14005MPS 9999 BKN033CB 16/14 Q1009 R08/60D NOSIG RMK QFE746/0995,2024-08-10T04:30:00Z,16,14,6+,29.79
UWLL,54.274,48.236,0,0,0.0,UWLL 100430Z 00000MPS 4000 BR OVC002 17/17 Q1007 R02/290250 NOSIG RMK QBB060 QFE743/0991,2024-08-10T04:30:00Z,17,17,2.49,29.73
UWKS,56.09,47.347,60,4,4.6,UWKS 100430Z 06002MPS 9999 -SHRA SCT005 OVC013CB 15/15 Q1008 R06/290160 TEMPO -TSRA RMK QFE741,2024-08-10T04:30:00Z,15,15,6+,29.76
UWKE,55.566,52.1,60,4,4.6,UWKE 100430Z 06002MPS 9999 BKN006 OVC046 15/14 Q1010 R03/210355 NOSIG RMK OBST OBSC QFE741/0988,2024-08-10T04:30:00Z,15,14,6+,29.82
UWKD,55.61,49.275,70,8,9.21,UWKD 100430Z 07004MPS 9999 BKN013CB 17/15 Q1008 R11/2/0050 NOSIG RMK QFE746/0995,2024-08-10T04:30:00Z,17,15,6+,29.76
UWGG,56.225,43.786,10,8,9.21,UWGG 100430Z 01004MPS 9999 -RA BKN007 17/17 Q1010 R36R/290050 NOSIG,2024-08-10T04:30:00Z,17,17,6+,29.82
UUYY,61.647,50.845,30,2,2.3,UUYY 100430Z 03001MPS CAVOK 14/11 Q1016 R18/61D NOSIG RMK QFE753/1005,2024-08-10T04:30:00Z,14,11,6+,30.00
UUWW,55.592,37.261,280,4,4.6,UUWW 100430Z 28002MPS CAVOK 17/14 Q1013 R24/190060 NOSIG,2024-08-10T04:30:00Z,17,14,6+,29.91
UUOO,51.814,39.228,300,8,9.21,UUOO 100430Z 30004MPS 9999 SCT/// 17/14 Q1013 R30/010070 NOSIG RMK QFE746,2024-08-10T04:30:00Z,17,14,6+,29.91
UUOL,52.702,39.534,270,6,6.9,UUOL 100430Z AUTO 27003MPS 9999 NCD 17/15 Q1013,2024-08-10T04:30:00Z,17,15,6+,29.91
UUOK,51.751,36.297,330,4,4.6,UUOK 100430Z 33002MPS CAVOK 18/15 Q1014 R30/090060 NOSIG RMK QFE742/0990,2024-08-10T04:30:00Z,18,15,6+,29.94
UUOB,50.644,36.59,230,4,4.6,UUOB 100430Z 23002MPS CAVOK 19/14 Q1015 R11/010070 NOSIG,2024-08-10T04:30:00Z,19,14,6+,29.97
UUEE,55.973,37.415,270,4,4.6,UUEE 100430Z 27002MPS 250V320 CAVOK 16/14 Q1013 R24L/CLRD62 R24C/CLRD62 NOSIG,2024-08-10T04:30:00Z,16,14,6+,29.91
UUDL,57.561,40.157,310,2,2.3,UUDL 100430Z 31001MPS 9999 OVC004 16/15 Q1011 R23/290255 NOSIG RMK QBB120 QFE750,2024-08-10T04:30:00Z,16,15,6+,29.85
UUDD,55.409,37.906,270,4,4.6,UUDD 100430Z 27002MPS 240V300 CAVOK 17/16 Q1013 R32L/CLRD60 NOSIG,2024-08-10T04:30:00Z,17,16,6+,29.91
UUBW,55.553,38.15,310,4,4.6,UUBW 100430Z 31002MPS CAVOK 17/16 Q1012 R30/010060 NOSIG RMK QFE749,2024-08-10T04:30:00Z,17,16,6+,29.88
UUBC,54.552,36.37,VRB,2,2.3,UUBC 100430Z VRB01MPS CAVOK 15/14 Q1013 R31/CLRD60 NOSIG RMK QFE743/0991,2024-08-10T04:30:00Z,15,14,6+,29.91
UTTT,41.258,69.281,360,14,16.11,UTTT 100430Z 36014KT CAVOK 31/08 Q1011 R08R/CLRD70 NOSIG,2024-08-10T04:30:00Z,31,8,6+,29.85
UTST,37.287,67.318,260,14,16.11,UTST 100430Z 26014KT 1900 HZ NSC 34/11 Q1007 R25/CLRD70 TEMPO 25020G30KT 1500 DS,2024-08-10T04:30:00Z,34,11,1.18,29.73
UTSS,39.7,66.974,90,18,20.71,UTSS 100430Z 09018KT 9999 NSC 30/11 Q1011 R09/CLRD70 NOSIG,2024-08-10T04:30:00Z,30,11,6+,29.85
UTSK,38.804,65.773,330,8,9.21,UTSK 100430Z 33008KT CAVOK 30/13 Q1008 R16/CLRD70,2024-08-10T04:30:00Z,30,13,6+,29.76
UTSB,39.775,64.483,360,8,9.21,UTSB 100430Z 36008KT 320V040 CAVOK 31/15 Q1009 R01/CLRD70 NOSIG,2024-08-10T04:30:00Z,31,15,6+,29.79
UTSA,40.116,65.167,30,10,11.51,UTSA 100430Z 03010KT 9999 NSC 33/09 Q1010 R07/CLRD70 NOSIG,2024-08-10T04:30:00Z,33,9,6+,29.82
UTNU,41.584,60.642,300,6,6.9,UTNU 100430Z 30006KT CAVOK 32/13 Q1011 R31/CLRD70 NOSIG,2024-08-10T04:30:00Z,32,13,6+,29.85
UTNN,42.488,59.623,250,4,4.6,UTNN 100430Z 25004KT CAVOK 30/13 Q1011 R33/CLRD60 NOSIG,2024-08-10T04:30:00Z,30,13,6+,29.85
UTFN,40.983,71.573,150,4,4.6,UTFN 100430Z 15004KT 120V180 9999 NSC 30/17 Q1008 R28/CLRD70 NOSIG,2024-08-10T04:30:00Z,30,17,6+,29.76
UTFF,40.356,71.745,360,6,6.9,UTFF 100430Z 36006KT 9999 NSC 30/14 Q1009 R18/CLRD70,2024-08-10T04:30:00Z,30,14,6+,29.79
UTDT,37.866,68.865,260,4,4.6,UTDT 100430Z 26002MPS 240V300 9999 SCT110 34/13 Q1007 R35/CLRD70 RMK QFE716/0955,2024-08-10T04:30:00Z,34,13,6+,29.73
UTDL,40.215,69.695,250,19,21.86,UTDL 100430Z 25010MPS 9999 FEW086 31/11 Q1010 R26/CLRD70 NOSIG RMK QFE720/0960,2024-08-10T04:30:00Z,31,11,6+,29.82
UTDK,37.988,69.805,VRB,2,2.3,UTDK 100430Z VRB01MPS 9999 FEW066CB SCT130 32/10 Q1011 R01/09//70 RMK QFE701/0934,2024-08-10T04:30:00Z,32,10,6+,29.85
UTDD,38.543,68.825,VRB,4,4.6,UTDD 100430Z VRB02MPS 9999 FEW066CB 32/13 Q1011 R09/D NOSIG RMK QFE690/0920,2024-08-10T04:30:00Z,32,13,6+,29.85
USTR,57.19,65.324,350,6,6.9,USTR 100430Z 35003MPS 330V030 CAVOK 15/10 Q1014 R30/090065 R03/090065 NOSIG,2024-08-10T04:30:00Z,15,10,6+,29.94
USSS,56.745,60.792,0,0,0.0,USSS 100430Z 00000MPS 9999 BKN040 13/11 Q1016 R26L/010060 NOSIG RMK QFE741/0988,2024-08-10T04:30:00Z,13,11,6+,30.00
USRR,61.342,73.422,340,12,13.81,USRR 100430Z 34006MPS CAVOK 14/08 Q1009 R25/CLRD60 NOSIG RMK QFE752,2024-08-10T04:30:00Z,14,8,6+,29.79
USPP,57.914,56.021,120,6,6.9,USPP 100430Z 12003MPS CAVOK 15/11 Q1015 R21/090060 TEMPO 1400 BR BKN002 RMK QFE750,2024-08-10T04:30:00Z,15,11,6+,29.97
USNN,60.959,76.497,340,6,6.9,USNN 100430Z 34003MPS 9999 BKN013 13/11 Q1006 R03/0///65 NOSIG RMK QFE750,2024-08-10T04:30:00Z,13,11,6+,29.70
USHH,61.029,69.086,30,6,6.9,USHH 100430Z 03003MPS 340V070 CAVOK 14/06 Q1013 R24/010060 NOSIG,2024-08-10T04:30:00Z,14,6,6+,29.91
USDA,71.216,72.05,60,2,2.3,USDA 100430Z 06001MPS CAVOK 12/09 Q1019 R04/CLRD60 NOSIG RMK QFE763/1018,2024-08-10T04:30:00Z,12,9,6+,30.09
USCM,53.393,58.756,110,6,6.9,USCM 100430Z 11003MPS 9999 OVC045 13/09 Q1013 R36/090060 NOSIG RMK QFE722,2024-08-10T04:30:00Z,13,9,6+,29.91
USCC,55.306,61.503,110,4,4.6,USCC 100430Z 11002MPS CAVOK 14/09 Q1015 R09/000060 NOSIG RMK QFE741,2024-08-10T04:30:00Z,14,9,6+,29.97
URWW,48.788,44.336,310,8,9.21,URWW 100430Z 31004MPS CAVOK 21/15 Q1013 R23/010070 NOSIG,2024-08-10T04:30:00Z,21,15,6+,29.91
URWI,46.374,44.331,30,6,6.9,URWI 100430Z AUTO 03003MPS 350V050 9999 // ///////// 24/12 Q1013,2024-08-10T04:30:00Z,24,12,6+,29.91
URWA,46.286,47.995,320,4,4.6,URWA 100430Z 32002MPS 280V010 CAVOK 27/13 Q1012 R27/010070 NOSIG RMK QFE760/1014,2024-08-10T04:30:00Z,27,13,6+,29.88
URSS,43.438,39.926,40,8,9.21,URSS 100430Z 04004MPS 9999 BKN080 23/18 Q1011 R02/010070 R06/010070 NOSIG RMK R06/08005MPS QFE757,2024-08-10T04:30:00Z,23,18,6+,29.85
URRP,47.494,39.925,0,0,0.0,URRP 100430Z 00000MPS CAVOK 21/14 Q1014 R23/CLRD70 NOSIG RMK QFE752/1003,2024-08-10T04:30:00Z,21,14,6+,29.94
URMT,45.108,42.1,120,4,4.6,URMT 100430Z 12002MPS CAVOK 24/11 Q1014 R07/010070 NOSIG RMK QFE721,2024-08-10T04:30:00Z,24,11,6+,29.94
URMO,43.204,44.608,0,0,0.0,URMO 100430Z 00000MPS 9999 BKN091 22/16 Q1014 R09/010070 NOSIG RMK QFE717/0956,2024-08-10T04:30:00Z,22,16,6+,29.94
URMM,44.225,43.082,300,4,4.6,URMM 100430Z 30002MPS 9999 NSC 23/16 Q1014 R11/090070 NOSIG RMK QFE732/0976,2024-08-10T04:30:00Z,23,16,6+,29.94
URML,42.817,47.652,120,8,9.21,URML 100430Z 12004MPS 9999 NSC 28/17 Q1011 R14/01//70 NOSIG RMK QFE758/1011,2024-08-10T04:30:00Z,28,17,6+,29.85
URMG,43.387,45.702,VRB,2,2.3,URMG 100430Z VRB01MPS 9999 SCT078 25/16 Q1012 R26/090070 NOSIG RMK QFE744/0992,2024-08-10T04:30:00Z,25,16,6+,29.88
URKK,45.033,39.15,VRB,2,2.3,URKK 100430Z VRB01MPS CAVOK 24/14 Q1012 R05R/CLRD70 NOSIG RMK QFE756,2024-08-10T04:30:00Z,24,14,6+,29.88
URKA,44.995,37.341,80,6,6.9,URKA 100430Z 08003MPS CAVOK 25/17 Q1013 R03/010070 NOSIG RMK QFE756/1008,2024-08-10T04:30:00Z,25,17,6+,29.91
UOOO,69.308,87.322,20,6,6.9,UOOO 100430Z 02003MPS 340V060 CAVOK 17/07 Q1013 R01/CLRD60 NOSIG RMK QFE745/0993,2024-08-10T04:30:00Z,17,7,6+,29.91
UNWW,53.811,86.878,210,12,13.81,UNWW 100430Z 21006MPS CAVOK 26/18 Q0999 R19/09//55 NOSIG RMK QFE722,2024-08-10T04:30:00Z,26,18,6+,29.50
UNTT,56.381,85.207,20,6,6.9,UNTT 100430Z 02003MPS 9999 SCT009 BKN024CB 18/16 Q1000 R03/290250 NOSIG RMK QFE734,2024-08-10T04:30:00Z,18,16,6+,29.53
UNOO,54.964,73.32,10,10,11.51,UNOO 100430Z 01005MPS 9999 BKN026 16/11 Q1007 R25/CLRD60 NOSIG RMK QFE747,2024-08-10T04:30:00Z,16,11,6+,29.73
UNNT,55.013,82.651,10,8,9.21,UNNT 100430Z 01004MPS 9999 SCT010 BKN023CB 18/17 Q0999 R25/290160 R34/290160 NOSIG RMK QFE740/0986,2024-08-10T04:30:00Z,18,17,6+,29.50
UNKL,56.173,92.493,130,10,11.51,UNKL 100430Z 13005MPS CAVOK 21/21 Q0997 R11/290050 NOSIG RMK QFE723,2024-08-10T04:30:00Z,21,21,6+,29.44
UNEE,55.27,86.107,350,8,9.21,UNEE 100430Z 35004MPS 6000 -SHRA BKN004 OVC022CB 17/17 Q0999 R23/////// NOSIG RMK QFE726,2024-08-10T04:30:00Z,17,17,3.73,29.50
UNBB,53.362,83.54,20,4,4.6,UNBB 100430Z 02002MPS 350V090 9999 FEW010 BKN021CB 19/18 Q0998 R24/190056 NOSIG RMK QFE727,2024-08-10T04:30:00Z,19,18,6+,29.47
UNAA,53.74,91.385,210,4,4.6,UNAA 100430Z 21002MPS CAVOK 24/19 Q1000 R20/CLRD65 NOSIG RMK QFE728,2024-08-10T04:30:00Z,24,19,6+,29.53
UMMS,53.883,28.031,230,4,4.6,UMMS 100430Z 23002MPS 190V250 CAVOK 18/15 Q1013 NOSIG,2024-08-10T04:30:00Z,18,15,6+,29.91
UMIO,54.44,30.297,230,6,6.9,UMIO 100430Z 23003MPS CAVOK 18/16 Q1012 NOSIG RMK QFE742/0989,2024-08-10T04:30:00Z,18,16,6+,29.88
UMGG,52.525,31.015,280,4,4.6,UMGG 100430Z 28002MPS 8000 NSC 17/16 Q1015 NOSIG,2024-08-10T04:30:00Z,17,16,4.97,29.97
ULWC,59.281,38.019,90,2,2.3,ULWC 100430Z 09001MPS 1100 R21/1100 BR VV003 15/15 Q1012 R21/010060 NOSIG RMK QBB100 QFE749/0998,2024-08-10T04:30:00Z,15,15,0.68,29.88
ULOO,57.79,28.397,180,6,6.9,ULOO 100430Z 18003MPS 150V210 9999 SCT025 17/17 Q1008 R19/190053 NOSIG RMK QFE752,2024-08-10T04:30:00Z,17,17,6+,29.76
ULMM,68.781,32.749,150,8,9.21,ULMM 100430Z 15004MPS CAVOK 16/11 Q1010 R13/090070 NOSIG RMK QFE751,2024-08-10T04:30:00Z,16,11,6+,29.82
ULLI,59.798,30.267,130,6,6.9,ULLI 100430Z 13003MPS 9999 SCT020CB BKN044 17/15 Q1008 R10R/290050 NOSIG,2024-08-10T04:30:00Z,17,15,6+,29.76
ULAA,64.599,40.712,VRB,2,2.3,ULAA 100430Z VRB01MPS 9999 SCT026 18/16 Q1013 R26/CLRD70 NOSIG RMK QFE759/1012,2024-08-10T04:30:00Z,18,16,6+,29.91
UIUU,51.808,107.443,180,4,4.6,UIUU 100430Z 18002MPS 9999 NSC 26/14 Q1006 R26/60D NOSIG RMK QFE711/0948,2024-08-10T04:30:00Z,26,14,6+,29.70
UIII,52.273,104.38,170,6,6.9,UIII 100430Z 17003MPS 110V220 CAVOK 26/17 Q1005 R12/60D NOSIG RMK QFE711/0949,2024-08-10T04:30:00Z,26,17,6+,29.68
UIBB,56.365,101.716,190,6,6.9,UIBB 100430Z 19003MPS 130V250 9000 SCT026 25/17 Q1004 R30/60D NOSIG RMK QFE711/0948,2024-08-10T04:30:00Z,25,17,5.59,29.65
UIAA,52.026,113.31,70,4,4.6,UIAA 100430Z 07002MPS 9999 FEW050CB 27/06 Q1007 R29/CLRD63 NOSIG RMK QFE697/0929,2024-08-10T04:30:00Z,27,6,6+,29.73
UHWW,43.399,132.146,250,8,9.21,UHWW 100430Z 25004MPS 9999 BKN018 25/21 Q1007 R25L/0///70 NOSIG RMK QFE754,2024-08-10T04:30:00Z,25,21,6+,29.73
UHSS,46.887,142.719,350,16,18.41,UHSS 100430Z 35008MPS 9999 BKN035CB 17/13 Q1012 R01/70D NOSIG RMK QFE758/1010,2024-08-10T04:30:00Z,17,13,6+,29.88
UHPP,53.175,158.444,160,10,11.51,UHPP 100430Z 16005MPS 9999 SCT028CB BKN036 15/10 Q1012 R16R/CLRD60 NOSIG RMK MT OBSC QFE756/1008,2024-08-10T04:30:00Z,15,10,6+,29.88
UHMM,59.911,150.725,230,10,11.51,UHMM 100430Z 23005MPS 9999 FEW026 16/13 Q1009 R10/70D NOSIG RMK MT OBSC QFE742 R28/28005MPS,2024-08-10T04:30:00Z,16,13,6+,29.79
UHMA,64.733,177.739,230,4,4.6,UHMA 100430Z 23002MPS 160V270 9999 FEW033 13/04 Q1005 R02/////// NOSIG RMK MID 24003MPS END R02/25003MPS QFE750/1000,2024-08-10T04:30:00Z,13,4,6+,29.68
UHHH,48.527,135.184,30,8,9.21,UHHH 100430Z 03004MPS 9999 BKN021 22/16 Q1009 R05L/090060 NOSIG RMK QFE750/1001,2024-08-10T04:30:00Z,22,16,6+,29.79
UHBB,50.425,127.412,VRB,2,2.3,UHBB 100430Z VRB01MPS 9999 BKN020CB 22/18 Q1007 R36/090056 NOSIG RMK QFE738/0984,2024-08-10T04:30:00Z,22,18,6+,29.73
UGTB,41.669,44.955,300,10,11.51,UGTB 100430Z 30010KT 9999 BKN056CB 23/19 Q1014 NOSIG,2024-08-10T04:30:00Z,23,19,6+,29.94
UGSB,41.61,41.6,140,7,8.06,UGSB 100430Z 14007KT 9999 FEW026 SCT049 24/21 Q1012 NOSIG,2024-08-10T04:30:00Z,24,21,6+,29.88
UGMS,43.055,42.75,VRB,2,2.3,UGMS 100430Z VRB02KT 9999 BKN100 15/13 Q1021,2024-08-10T04:30:00Z,15,13,6+,30.15
UGKO,42.177,42.483,VRB,2,2.3,UGKO 100430Z VRB02KT 9999 BKN044 22/21 Q1011 NOSIG,2024-08-10T04:30:00Z,22,21,6+,29.85
UGAM,42.527,43.135,120,5,5.75,UGAM 100430Z AUTO 12005KT 080V140 //// ////// 20/19 Q1014,2024-08-10T04:30:00Z,20,19,,29.94
UERR,62.538,114.056,90,6,6.9,UERR 100430Z 09003MPS 3000 HZ FEW033CB 21/14 Q1005 R07/190055 NOSIG RMK QFE724/0965,2024-08-10T04:30:00Z,21,14,1.86,29.68
UERP,66.4,112.03,50,8,9.21,UERP 100430Z 05004MPS 9999 BKN022 BKN100 08/05 Q1013 R36/090060 NOSIG RMK QFE716,2024-08-10T04:30:00Z,8,5,6+,29.91
UEEE,62.093,129.774,140,6,6.9,UEEE 100430Z 14003MPS CAVOK 27/11 Q1006 R23/09//60 NOSIG RMK QFE745,2024-08-10T04:30:00Z,27,11,6+,29.70
UDYZ,40.147,44.396,130,3,3.45,UDYZ 100430Z 13003KT 090V160 9999 NSC 26/14 Q1013 NOSIG,2024-08-10T04:30:00Z,26,14,6+,29.91
UDSG,40.75,43.859,310,3,3.45,UDSG 100430Z 31003KT 250V060 9999 NSC 21/14 Q1018 NOSIG,2024-08-10T04:30:00Z,21,14,6+,30.06
UCFO,40.61,72.791,320,4,4.6,UCFO 100430Z 32002MPS 270V350 9999 FEW050CB 31/14 Q1011 NOSIG,2024-08-10T04:30:00Z,31,14,6+,29.85
UCFM,43.061,74.478,290,8,9.21,UCFM 100430Z 29004MPS 260V330 CAVOK 29/12 Q1010 NOSIG,2024-08-10T04:30:00Z,29,12,6+,29.82
UCFL,42.585,76.702,120,8,9.21,UCFL 100430Z 12004MPS 090V150 9999 SCT030CB 23/14 Q1017,2024-08-10T04:30:00Z,23,14,6+,30.03
UBBZ,39.094,46.734,VRB,2,2.3,UBBZ 100430Z AUTO VRB02KT 9999 // ///////// 27/17 Q1014,2024-08-10T04:30:00Z,27,17,6+,29.94
UBBN,39.189,45.458,110,10,11.51,UBBN 100430Z 11010KT 9999 NSC 27/14 Q1012 NOSIG RMK QFE684,2024-08-10T04:30:00Z,27,14,6+,29.88
UBBG,40.738,46.318,360,4,4.6,UBBG 100430Z 36004KT 9999 BKN067 24/20 Q1013 NOSIG,2024-08-10T04:30:00Z,24,20,6+,29.91
UBBF,39.595,47.196,10,8,9.21,UBBF 100430Z 01008KT 9999 FEW100 26/17 Q1013 NOSIG,2024-08-10T04:30:00Z,26,17,6+,29.91
UBBB,40.469,50.061,100,4,4.6,UBBB 100430Z 10004KT CAVOK 30/17 Q1012 NOSIG,2024-08-10T04:30:00Z,30,17,6+,29.88
UAUU,53.215,63.553,40,6,6.9,UAUU 100430Z 04003MPS 010V110 CAVOK 16/05 Q1014 NOSIG RMK QFE745/0993,2024-08-10T04:30:00Z,16,5,6+,29.94
UATT,50.248,57.203,120,8,9.21,UATT 100430Z 12004MPS 9999 FEW010 18/15 Q1009 NOSIG RMK QFE737/0983,2024-08-10T04:30:00Z,18,15,6+,29.79
UATG,47.122,51.829,300,8,9.21,UATG 100430Z 30004MPS 270V340 CAVOK 26/14 Q1010 NOSIG RMK QFE759/1012,2024-08-10T04:30:00Z,26,14,6+,29.82
UATE,43.86,51.092,310,4,4.6,UATE 100430Z 31002MPS 270V350 CAVOK 29/20 Q1012 NOSIG RMK QFE757/1009,2024-08-10T04:30:00Z,29,20,6+,29.88
UASS,50.352,80.228,280,12,13.81,UASS 100430Z 28006MPS 240V300 CAVOK 29/17 Q0996 NOSIG RMK QFE729/0972,2024-08-10T04:30:00Z,29,17,6+,29.41
UASP,52.202,77.078,360,14,16.11,UASP 100430Z 36007MPS 9999 -SHRA BKN011CB 17/16 Q1001 NOSIG RMK QFE740/0987,2024-08-10T04:30:00Z,17,16,6+,29.56
UASK,50.027,82.5,120,10,11.51,UASK 100430Z 12005MPS 9999 SCT046CB BKN130 26/19 Q0998 NOSIG RMK QFE724/0965,2024-08-10T04:30:00Z,26,19,6+,29.47
UARR,51.151,51.541,VRB,2,2.3,UARR 100430Z VRB01MPS 9999 FEW010 20/17 Q1007 TEMPO BKN002 RMK QFE752/1003,2024-08-10T04:30:00Z,20,17,6+,29.73
UAOO,44.707,65.593,350,6,6.9,UAOO 100430Z 35003MPS 300V050 CAVOK 24/14 Q1011 NOSIG RMK QFE747/0996,2024-08-10T04:30:00Z,24,14,6+,29.85
UAKK,49.672,73.333,340,14,16.11,UAKK 100430Z 34007MPS 9999 SCT013 BKN021 15/13 Q1006 NOSIG RMK QFE708/0944,2024-08-10T04:30:00Z,15,13,6+,29.70
UAKD,47.711,67.739,360,8,9.21,UAKD 100430Z 36004MPS 320V060 9999 BKN017 18/11 Q1010 NOSIG RMK QFE724/0966,2024-08-10T04:30:00Z,18,11,6+,29.82
UAIT,43.311,68.55,280,10,11.51,UAIT 100430Z 28005MPS CAVOK 29/12 Q1010 NOSIG RMK QFE731/0974,2024-08-10T04:30:00Z,29,12,6+,29.82
UAII,42.366,69.476,300,6,6.9,UAII 100430Z 30003MPS 260V350 CAVOK 29/11 Q1011 NOSIG RMK QFE723/0964,2024-08-10T04:30:00Z,29,11,6+,29.85
UADD,42.854,71.304,250,4,4.6,UADD 100430Z 25002MPS 9999 NSC 27/11 Q1011 NOSIG RMK QFE700/0934,2024-08-10T04:30:00Z,27,11,6+,29.85
UACP,54.775,69.183,330,6,6.9,UACP 100430Z 33003MPS 290V010 9999 FEW026 16/11 Q1011 NOSIG RMK QFE746/0995,2024-08-10T04:30:00Z,16,11,6+,29.85
UACK,53.332,69.594,340,12,13.81,UACK 100430Z 34006MPS 9999 BKN040 16/08 Q1010 NOSIG RMK QFE734/0978,2024-08-10T04:30:00Z,16,8,6+,29.82
UACC,51.024,71.468,10,10,11.51,UACC 100430Z 01005MPS 9999 BKN013 OVC036 15/12 Q1008 NOSIG RMK QFE725/0967,2024-08-10T04:30:00Z,15,12,6+,29.76
UAAH,46.893,75.005,290,14,16.11,UAAH 100430Z 29007MPS 270V330 9999 FEW047 25/14 Q1004 NOSIG RMK QFE715/0953,2024-08-10T04:30:00Z,25,14,6+,29.65
UAAA,43.35,77.027,320,6,6.9,UAAA 100430Z 32003MPS 270V020 9999 SCT050CB BKN100 30/12 Q1010 NOSIG,2024-08-10T04:30:00Z,30,12,6+,29.82
TFFR,16.265,-61.532,140,5,5.75,TFFR 100430Z AUTO 14005KT 9999 -RA FEW026/// SCT052/// ///TCU 26/24 Q1014 TEMPO 4000 SHRA,2024-08-10T04:30:00Z,26,24,6+,29.94
TFFJ,17.904,-62.844,60,15,17.26,TFFJ 100430Z AUTO 06015KT 9999 SCT022 SCT031 29/26 Q1015,2024-08-10T04:30:00Z,29,26,6+,29.97
TFFF,14.591,-61.003,VRB,2,2.3,TFFF 100430Z AUTO VRB02KT 9999 FEW026 SCT042 27/24 Q1014 TEMPO 3000 SHRA SCT018TCU,2024-08-10T04:30:00Z,27,24,6+,29.94
SOCA,4.822,-52.365,270,1,1.15,SOCA 100430Z AUTO 27001KT CAVOK 26/25 Q1013 TEMPO 4000 SHRA SCT012TCU BKN020,2024-08-10T04:30:00Z,26,25,6+,29.91
ROAH,26.196,127.646,320,9,10.36,ROAH 100430Z 32009KT 9999 FEW030 32/27 Q1002 RMK 1CU030 A2961,2024-08-10T04:30:00Z,32,27,6+,29.59
RKSI,37.469,126.451,190,8,9.21,RKSI 100430Z 19008KT 140V210 9000 NSC 32/21 Q1003 NOSIG,2024-08-10T04:30:00Z,32,21,5.59,29.62
RJTT,35.553,139.781,110,7,8.06,RJTT 100430Z 11007KT 9999 FEW030 SCT050 BKN/// 33/25 Q0999 NOSIG RMK 1CU030 3CU050 A2950,2024-08-10T04:30:00Z,33,25,6+,29.50
RJGG,34.858,136.805,220,6,6.9,RJGG 100430Z 22006KT 9999 FEW030 33/25 Q0999 NOSIG,2024-08-10T04:30:00Z,33,25,6+,29.50
RJFF,33.584,130.452,340,15,17.26,RJFF 100430Z 34015KT 9999 FEW025 34/24 Q1002 NOSIG RMK 1CU025 A2960,2024-08-10T04:30:00Z,34,24,6+,29.59
RJCC,42.774,141.693,350,8,9.21,RJCC 100430Z 35008KT 9999 FEW020 BKN030 29/22 Q1005 RMK 1CU020 5CU030 A2969,2024-08-10T04:30:00Z,29,22,6+,29.68
RJBB,34.434,135.233,280,4,4.6,RJBB 100430Z 28004KT 230V300 9999 FEW025 SCT070 31/24 Q1001 NOSIG,2024-08-10T04:30:00Z,31,24,6+,29.56
RJAA,35.765,140.386,30,12,13.81,RJAA 100430Z 03012KT 350V060 9999 FEW030 BKN/// 32/25 Q0999 NOSIG,2024-08-10T04:30:00Z,32,25,6+,29.50
RCTP,25.078,121.233,300,12,13.81,RCTP 100430Z 30012KT 9999 FEW020 BKN200 35/27 Q1003 NOSIG RMK A2963,2024-08-10T04:30:00Z,35,27,6+,29.62
RCSS,25.069,121.552,300,7,8.06,RCSS 100430Z 30007KT 270V340 9999 VCSH FEW015 FEW020CB BKN032 BKN050 33/26 Q1003 NOSIG RMK CB SW A2962,2024-08-10T04:30:00Z,33,26,6+,29.62
RCNN,22.95,120.206,150,4,4.6,RCNN 100430Z 15004KT 8000 -RA SCT010 FEW012CB BKN021 BKN040 28/26 Q1005 NOSIG RMK A2970 CB SW,2024-08-10T04:30:00Z,28,26,4.97,29.68
RCMQ,24.265,120.621,210,7,8.06,RCMQ 100430Z 21007KT 9999 FEW010 SCT030 BKN200 33/25 Q1004 NOSIG RMK A2967,2024-08-10T04:30:00Z,33,25,6+,29.65
RCKH,22.577,120.35,VRB,2,2.3,RCKH 100430Z VRB02KT 5000 -SHRA FEW008CB FEW012 BKN035 BKN055 27/25 Q1005 NOSIG RMK CB SW A2969,2024-08-10T04:30:00Z,27,25,3.11,29.68
RCFN,22.755,121.102,200,4,4.6,RCFN 100430Z 20004KT 160V310 9999 -RA FEW015 BKN100 31/26 Q1004 NOSIG RMK A2967,2024-08-10T04:30:00Z,31,26,6+,29.65
OTBD,25.261,51.565,100,9,10.36,OTBD 100430Z 10009KT 9000 NSC 35/31 Q1001 NOSIG,2024-08-10T04:30:00Z,35,31,5.59,29.56
OPPS,33.996,71.515,310,10,11.51,OPPS 100430Z 31010KT 4000 FEW010 OVC040 29/28 Q1004,2024-08-10T04:30:00Z,29,28,2.49,29.65
OPMT,30.203,71.419,180,8,9.21,OPMT 100430Z 18008KT 4000 FU FEW100 35/28 Q1001 NOSIG,2024-08-10T04:30:00Z,35,28,2.49,29.56
OPKC,24.902,67.139,260,8,9.21,OPKC 100430Z 26008KT 4000 DZ SCT020 BKN030 30/25 Q1005 NOSIG,2024-08-10T04:30:00Z,30,25,2.49,29.68
OIZI,27.236,60.72,360,4,4.6,OIZI 100430Z 36004KT 8000 NSC 34/24 Q1007,2024-08-10T04:30:00Z,34,24,4.97,29.73
OIZH,29.472,60.901,30,4,4.6,OIZH 100430Z 03004KT 6000 NSC 33/12 Q1013 A2992,2024-08-10T04:30:00Z,33,12,3.73,29.91
OIZB,31.094,61.546,340,29,33.37,OIZB 100430Z 34029G41KT 4500 SA NSC 36/14 Q1003,2024-08-10T04:30:00Z,36,14,2.8,29.62
OIYY,31.905,54.276,50,2,2.3,OIYY 100430Z 05002KT 9000 NSC 36/03 Q1012,2024-08-10T04:30:00Z,36,3,5.59,29.88
OITT,38.13,46.24,80,8,9.21,OITT 100430Z 08008KT CAVOK 25/13 Q1016 A3000,2024-08-10T04:30:00Z,25,13,6+,30.00
OITR,37.665,45.066,20,4,4.6,OITR 100430Z 02004KT CAVOK 25/14 Q1014 A2995,2024-08-10T04:30:00Z,25,14,6+,29.94
OITL,38.326,48.424,VRB,6,6.9,OITL 100430Z VRB06KT 9999 FEW050 19/14 Q1018,2024-08-10T04:30:00Z,19,14,6+,30.06
OISS,29.539,52.59,0,0,0.0,OISS 100430Z 00000KT 5000 HZ NSC 31/15 Q1014 A2995,2024-08-10T04:30:00Z,31,15,3.11,29.94
OIMM,36.236,59.639,160,6,6.9,OIMM 100430Z 16006KT CAVOK 29/14 Q1016 A3003,2024-08-10T04:30:00Z,29,14,6+,30.00
OIKB,27.218,56.378,170,8,9.21,OIKB 100430Z 17008KT 9999 SCT030 BKN090 32/26 Q1003 A2964,2024-08-10T04:30:00Z,32,26,6+,29.62
OIII,35.686,51.304,270,8,9.21,OIII 100430Z 27008KT 9999 FEW100 32/11 Q1013 A2992,2024-08-10T04:30:00Z,32,11,6+,29.91
OIGG,37.325,49.606,0,0,0.0,OIGG 100430Z 00000KT 9999 BKN080 26/25 Q1011,2024-08-10T04:30:00Z,26,25,6+,29.85
OIFS,32.297,50.842,170,2,2.3,OIFS 100430Z 17002KT 9999 FEW040 28/00 Q1021,2024-08-10T04:30:00Z,28,0,6+,30.15
OIFM,32.752,51.866,290,4,4.6,OIFM 100430Z 29004KT 4000 HZ SCT040 30/07 Q1016 A3001,2024-08-10T04:30:00Z,30,7,2.49,30.00
OICI,33.588,46.397,120,4,4.6,OICI 100430Z 12004KT CAVOK 31/03 Q1014 A2995,2024-08-10T04:30:00Z,31,3,6+,29.94
OICC,34.346,47.158,250,4,4.6,OICC 100430Z 25004KT CAVOK 29/M02 Q1013 A2992,2024-08-10T04:30:00Z,29,-2,6+,29.91
OIBP,27.38,52.738,0,0,0.0,OIBP 100430Z 00000KT 7000 FEW035 36/31 Q1000 A2955,2024-08-10T04:30:00Z,36,31,4.35,29.53
OIBB,28.947,50.834,100,4,4.6,OIBB 100430Z 10004KT 6000 NSC 34/28 Q1000 A2953,2024-08-10T04:30:00Z,34,28,3.73,29.53
OIAW,31.343,48.751,200,6,6.9,OIAW 100430Z 20006KT 4500 HZ SCT045 SCT100 35/30 Q0999,2024-08-10T04:30:00Z,35,30,2.8,29.50
NZWN,-41.331,174.806,200,10,11.51,NZWN 100430Z AUTO 20010KT 9999 BKN014/// 12/10 Q1026,2024-08-10T04:30:00Z,12,10,6+,30.30
NZQN,-45.021,168.739,260,5,5.75,NZQN 100430Z AUTO 26005KT 9999 BKN150/// 08/02 Q1024,2024-08-10T04:30:00Z,8,2,6+,30.24
NZCH,-43.489,172.528,60,6,6.9,NZCH 100430Z AUTO 06006KT 020V080 9999 OVC008/// 07/06 Q1025,2024-08-10T04:30:00Z,7,6,6+,30.27
NZAA,-37.008,174.792,210,10,11.51,NZAA 100430Z AUTO 21010KT 9999 SCT024/// 14/10 Q1024,2024-08-10T04:30:00Z,14,10,6+,30.24
NWWW,-22.015,166.213,140,12,13.81,NWWW 100430Z AUTO 14012KT 110V180 9999 BKN043 BKN054 BKN064 24/16 Q1017 TEMPO FEW035TCU BKN045 BECMG VRB02KT,2024-08-10T04:30:00Z,24,16,6+,30.03
NTAA,-17.554,-149.607,180,13,14.96,NTAA 100430Z 18013KT 9999 FEW026 BKN036 24/19 Q1013 WS ALL RWY NOSIG,2024-08-10T04:30:00Z,24,19,6+,29.91
NLWW,-13.238,-176.199,120,13,14.96,NLWW 100430Z AUTO 12013KT 080V160 9999 SCT030/// OVC066/// 27/21 Q1011 TEMPO 12015G25KT,2024-08-10T04:30:00Z,27,21,6+,29.85
NIUE,-19.079,-169.926,130,7,8.06,NIUE 100430Z AUTO 13007KT 9999 OVC047/// 22/14 Q1016,2024-08-10T04:30:00Z,22,14,6+,30.00
NCRG,-21.203,-159.806,160,3,3.45,NCRG 100430Z AUTO 16003KT 080V220 9999 FEW048/// 21/14 Q1015,2024-08-10T04:30:00Z,21,14,6+,29.97
LZZI,49.231,18.613,200,1,1.15,LZZI 100430Z 20001KT CAVOK 14/13 Q1021,2024-08-10T04:30:00Z,14,13,6+,30.15
LZTT,49.068,20.25,VRB,2,2.3,LZTT 100430Z VRB02KT 9999 FEW060 11/09 Q1021,2024-08-10T04:30:00Z,11,9,6+,30.15
LZPP,48.613,17.832,340,5,5.75,LZPP 100430Z 34005KT CAVOK 15/15 Q1019,2024-08-10T04:30:00Z,15,15,6+,30.09
LZKZ,48.661,21.24,VRB,1,1.15,LZKZ 100430Z VRB01KT CAVOK 16/14 Q1019 NOSIG,2024-08-10T04:30:00Z,16,14,6+,30.09
LZIB,48.17,17.207,290,3,3.45,LZIB 100430Z 29003KT CAVOK 20/16 Q1020 NOSIG,2024-08-10T04:30:00Z,20,16,6+,30.12
LYVR,45.147,21.31,260,5,5.75,LYVR 100430Z AUTO 26005KT CAVOK 16/14 Q1018,2024-08-10T04:30:00Z,16,14,6+,30.06
LYTV,42.405,18.723,VRB,6,6.9,LYTV 100430Z VRB06KT CAVOK 29/12 Q1015 NOSIG,2024-08-10T04:30:00Z,29,12,6+,29.97
LYPG,42.359,19.252,350,7,8.06,LYPG 100430Z 35007KT 320V020 CAVOK 27/12 Q1016 NOSIG,2024-08-10T04:30:00Z,27,12,6+,30.00
LYNI,43.338,21.863,0,0,0.0,LYNI 100430Z 00000KT CAVOK 17/14 Q1020 NOSIG,2024-08-10T04:30:00Z,17,14,6+,30.12
LYKV,43.818,20.587,0,0,0.0,LYKV 100430Z 00000KT CAVOK 15/15 Q1020 NOSIG,2024-08-10T04:30:00Z,15,15,6+,30.12
LYBT,44.935,20.258,190,3,3.45,LYBT 100430Z 19003KT CAVOK 16/14 Q1019 NOSIG,2024-08-10T04:30:00Z,16,14,6+,30.09
LYBE,44.824,20.291,200,5,5.75,LYBE 100430Z 20005KT 160V220 CAVOK 19/14 Q1019 NOSIG,2024-08-10T04:30:00Z,19,14,6+,30.09
LUKK,46.928,28.931,VRB,2,2.3,LUKK 100430Z VRB02KT CAVOK 20/18 Q1015 NOSIG,2024-08-10T04:30:00Z,20,18,6+,29.97
LRTR,45.811,21.333,90,4,4.6,LRTR 100430Z 09004KT CAVOK 18/14 Q1018,2024-08-10T04:30:00Z,18,14,6+,30.06
LRTM,46.468,24.421,0,0,0.0,LRTM 100430Z AUTO 00000KT 0250 R07/0350N FG VV001 16/16 Q1019,2024-08-10T04:30:00Z,16,16,0.16,30.09
LRTC,45.065,28.716,320,9,10.36,LRTC 100430Z AUTO 32009KT 9999 BKN120/// 24/18 Q1015,2024-08-10T04:30:00Z,24,18,6+,29.97
LRSV,47.686,26.354,320,9,10.36,LRSV 100430Z 32009KT CAVOK 19/16 Q1018,2024-08-10T04:30:00Z,19,16,6+,30.06
LRSM,47.703,22.886,0,0,0.0,LRSM 100430Z 00000KT CAVOK 16/15 Q1019,2024-08-10T04:30:00Z,16,15,6+,30.09
LRSB,45.789,24.091,VRB,1,1.15,LRSB 100430Z VRB01KT 9999 FEW018 SCT038 14/14 Q1020 NOSIG,2024-08-10T04:30:00Z,14,14,6+,30.12
LROP,44.572,26.102,330,3,3.45,LROP 100430Z 33003KT 290V030 CAVOK 19/16 Q1016 NOSIG,2024-08-10T04:30:00Z,19,16,6+,30.00
LROD,47.036,21.896,70,5,5.75,LROD 100430Z 07005KT CAVOK 19/17 Q1019,2024-08-10T04:30:00Z,19,17,6+,30.09
LRIA,47.164,27.627,270,6,6.9,LRIA 100430Z 27006KT 250V310 9999 BKN012 20/19 Q1016,2024-08-10T04:30:00Z,20,19,6+,30.00
LRCV,44.31,23.867,30,2,2.3,LRCV 100430Z 03002KT CAVOK 18/14 Q1017,2024-08-10T04:30:00Z,18,14,6+,30.03
LRCL,46.783,23.676,270,4,4.6,LRCL 100430Z 27004KT 150V300 CAVOK 18/16 Q1019,2024-08-10T04:30:00Z,18,16,6+,30.09
LRCK,44.362,28.488,290,7,8.06,LRCK 100430Z 29007KT CAVOK 22/18 Q1015 NOSIG,2024-08-10T04:30:00Z,22,18,6+,29.97
LRBV,45.706,25.524,VRB,1,1.15,LRBV 100430Z VRB01KT 0300 R21/1100D FG VV002 14/14 Q1020,2024-08-10T04:30:00Z,14,14,0.19,30.12
LRBS,44.511,26.078,300,3,3.45,LRBS 100430Z 30003KT 250V330 CAVOK 19/17 Q1016 NOSIG,2024-08-10T04:30:00Z,19,17,6+,30.00
LRBM,47.658,23.47,0,0,0.0,LRBM 100430Z AUTO 00000KT 9000 SHRA SCT012/// BKN015/// 17/16 Q1019,2024-08-10T04:30:00Z,17,16,5.59,30.09
LRBC,46.522,26.91,230,1,1.15,LRBC 100430Z 23001KT CAVOK 18/18 Q1017,2024-08-10T04:30:00Z,18,18,6+,30.03
LRAR,46.176,21.264,0,0,0.0,LRAR 100430Z AUTO 00000KT 9999 NCD 18/15 Q1018,2024-08-10T04:30:00Z,18,15,6+,30.06
LQTZ,44.461,18.728,VRB,1,1.15,LQTZ 100430Z VRB01KT CAVOK 14/14 Q1021,2024-08-10T04:30:00Z,14,14,6+,30.15
LQSA,43.825,18.331,170,4,4.6,LQSA 100430Z 17004KT 120V210 CAVOK 15/13 Q1022 NOSIG,2024-08-10T04:30:00Z,15,13,6+,30.18
LQMO,43.285,17.84,VRB,4,4.6,LQMO 100430Z VRB04KT CAVOK 20/12 Q1016,2024-08-10T04:30:00Z,20,12,6+,30.00
LQBK,44.937,17.299,160,2,2.3,LQBK 100430Z 16002KT CAVOK 17/16 Q1020 NOSIG,2024-08-10T04:30:00Z,17,16,6+,30.12
LPPT,38.781,-9.136,310,7,8.06,LPPT 100430Z 31007KT 280V340 CAVOK 20/17 Q1014,2024-08-10T04:30:00Z,20,17,6+,29.94
LPPS,33.073,-16.35,20,9,10.36,LPPS 100430Z 02009KT 340V050 9999 BKN015 23/18 Q1019,2024-08-10T04:30:00Z,23,18,6+,30.09
LPPR,41.235,-8.684,VRB,2,2.3,LPPR 100430Z VRB02KT CAVOK 17/16 Q1014,2024-08-10T04:30:00Z,17,16,6+,29.94
LPPD,37.741,-25.698,40,3,3.45,LPPD 100430Z 04003KT 9999 FEW014 22/20 Q1023,2024-08-10T04:30:00Z,22,20,6+,30.21
LPMA,32.698,-16.774,360,7,8.06,LPMA 100430Z 36007KT 310V080 9999 FEW016 23/17 Q1018,2024-08-10T04:30:00Z,23,17,6+,30.06
LPFR,37.014,-7.966,100,4,4.6,LPFR 100430Z 10004KT CAVOK 22/20 Q1014,2024-08-10T04:30:00Z,22,20,6+,29.94
LPAZ,36.971,-25.171,70,5,5.75,LPAZ 100430Z 07005KT 9999 FEW020 SCT033 21/19 Q1023,2024-08-10T04:30:00Z,21,19,6+,30.21
LKTB,49.151,16.694,310,2,2.3,LKTB 100430Z 31002KT CAVOK 17/14 Q1020 NOSIG,2024-08-10T04:30:00Z,17,14,6+,30.12
LKPR,50.101,14.26,220,7,8.06,LKPR 100430Z 22007KT CAVOK 18/15 Q1020 NOSIG,2024-08-10T04:30:00Z,18,15,6+,30.12
LKPD,50.016,15.74,260,7,8.06,LKPD 100430Z 26007KT CAVOK 18/16 Q1020 NOSIG RMK BLU BLU,2024-08-10T04:30:00Z,18,16,6+,30.12
LKNA,49.166,16.125,290,8,9.21,LKNA 100430Z 29008KT CAVOK 16/13 Q1021 RMK BLACK,2024-08-10T04:30:00Z,16,13,6+,30.15
LKMT,49.696,18.111,240,5,5.75,LKMT 100430Z 24005KT CAVOK 18/15 Q1019 NOSIG,2024-08-10T04:30:00Z,18,15,6+,30.09
LKCV,49.94,15.382,VRB,1,1.15,LKCV 100430Z VRB01KT CAVOK 18/15 Q1020 NOSIG RMK BLU BLU,2024-08-10T04:30:00Z,18,15,6+,30.12
LJPZ,45.473,13.615,120,6,6.9,LJPZ 100430Z AUTO 12006KT 9999 NCD 20/18 Q1018,2024-08-10T04:30:00Z,20,18,6+,30.06
LJMB,46.48,15.682,0,0,0.0,LJMB 100430Z AUTO 00000KT 9999 NCD 18/17 Q1021,2024-08-10T04:30:00Z,18,17,6+,30.15
LJLJ,46.218,14.477,VRB,1,1.15,LJLJ 100430Z VRB01KT 9999 MIFG NSC 17/16 Q1022 NOSIG,2024-08-10T04:30:00Z,17,16,6+,30.18
LJCE,45.899,15.523,240,3,3.45,LJCE 100430Z AUTO 24003KT 9999 NCD 18/17 Q1021,2024-08-10T04:30:00Z,18,17,6+,30.15
LHBP,47.437,19.256,VRB,2,2.3,LHBP 100430Z VRB02KT CAVOK 17/13 Q1020 NOSIG,2024-08-10T04:30:00Z,17,13,6+,30.12
LFYR,47.32,1.688,0,0,0.0,LFYR 100430Z AUTO 00000KT 0050 FG VV/// 13/13 Q1021,2024-08-10T04:30:00Z,13,13,0.03,30.15
LFVP,46.764,-56.169,260,8,9.21,LFVP 100430Z AUTO 26008KT CAVOK 17/17 Q1021,2024-08-10T04:30:00Z,17,17,6+,30.15
LFTW,43.757,4.416,350,7,8.06,LFTW 100430Z AUTO 35007KT CAVOK 24/14 Q1018 NOSIG,2024-08-10T04:30:00Z,24,14,6+,30.06
LFTH,43.094,6.146,320,5,5.75,LFTH 100430Z AUTO 32005KT CAVOK 21/18 Q1016 NOSIG,2024-08-10T04:30:00Z,21,18,6+,30.00
LFSX,47.783,6.364,0,0,0.0,LFSX 100430Z AUTO 00000KT 9999 FEW001 15/14 Q1022,2024-08-10T04:30:00Z,15,14,6+,30.18
LFST,48.549,7.64,220,5,5.75,LFST 100430Z AUTO 22005KT CAVOK 17/16 Q1021 NOSIG,2024-08-10T04:30:00Z,17,16,6+,30.15
LFSO,48.583,5.955,230,4,4.6,LFSO 100430Z AUTO 23004KT CAVOK 17/15 Q1022,2024-08-10T04:30:00Z,17,15,6+,30.18
LFSN,48.692,6.231,80,1,1.15,LFSN 100430Z AUTO 08001KT CAVOK 16/16 Q1022,2024-08-10T04:30:00Z,16,16,6+,30.18
LFSL,45.04,1.486,VRB,2,2.3,LFSL 100430Z AUTO VRB02KT CAVOK 17/12 Q1021 NOSIG,2024-08-10T04:30:00Z,17,12,6+,30.15
LFSI,48.631,4.904,110,1,1.15,LFSI 100430Z AUTO 11001KT CAVOK 17/16 Q1021,2024-08-10T04:30:00Z,17,16,6+,30.15
LFSG,48.325,6.07,240,3,3.45,LFSG 100430Z AUTO 24003KT CAVOK 16/15 Q1022,2024-08-10T04:30:00Z,16,15,6+,30.18
LFSD,47.269,5.09,350,3,3.45,LFSD 100430Z AUTO 35003KT 330V040 CAVOK 18/15 Q1022,2024-08-10T04:30:00Z,18,15,6+,30.18
LFSB,47.614,7.51,0,0,0.0,LFSB 100430Z AUTO 00000KT CAVOK 16/15 Q1022 NOSIG,2024-08-10T04:30:00Z,16,15,6+,30.18
LFRZ,47.312,-2.163,0,0,0.0,LFRZ 100430Z AUTO 00000KT 0500 0450 R25/0400D FG OVC005 14/13 Q1021 TEMPO 0600 FG,2024-08-10T04:30:00Z,14,13,0.31,30.15
LFRV,47.722,-2.727,60,3,3.45,LFRV 100430Z AUTO 06003KT 3900 BR NSC 13/13 Q1021,2024-08-10T04:30:00Z,13,13,2.42,30.15
LFRT,48.536,-2.853,200,3,3.45,LFRT 100430Z AUTO 20003KT 170V230 CAVOK 14/13 Q1021,2024-08-10T04:30:00Z,14,13,6+,30.15
LFRS,47.15,-1.609,0,0,0.0,LFRS 100430Z AUTO 00000KT 4000 0600 R03/0750D R21/P5000 BCFG BKN005 15/15 Q1021 TEMPO 0600 FG VV///,2024-08-10T04:30:00Z,15,15,2.49,30.15
LFRQ,47.975,-4.168,VRB,2,2.3,LFRQ 100430Z AUTO VRB02KT 8000 BKN010 13/13 Q1022,2024-08-10T04:30:00Z,13,13,4.97,30.18
LFRN,48.069,-1.734,290,1,1.15,LFRN 100430Z AUTO 29001KT 7000 0600 R28/P2000 R10/0750D BCFG NSC 13/13 Q1021 TEMPO 0500 FG,2024-08-10T04:30:00Z,13,13,4.35,30.15
LFRM,47.949,0.202,40,3,3.45,LFRM 100430Z AUTO 04003KT 9999 OVC024 19/16 Q1021,2024-08-10T04:30:00Z,19,16,6+,30.15
LFRL,48.279,-4.439,200,5,5.75,LFRL 100430Z AUTO 20005KT 9999 BKN011 15/14 Q1021,2024-08-10T04:30:00Z,15,14,6+,30.15
LFRK,49.18,-0.456,VRB,2,2.3,LFRK 100430Z AUTO VRB02KT CAVOK 12/12 Q1021,2024-08-10T04:30:00Z,12,12,6+,30.15
LFRJ,48.527,-4.138,180,5,5.75,LFRJ 100430Z AUTO 18005KT CAVOK 13/12 Q1021,2024-08-10T04:30:00Z,13,12,6+,30.15
LFRI,46.702,-1.379,10,4,4.6,LFRI 100430Z AUTO 01004KT 340V040 9999 OVC005 18/18 Q1022,2024-08-10T04:30:00Z,18,18,6+,30.18
LFRH,47.761,-3.44,0,0,0.0,LFRH 100430Z AUTO 00000KT 2800 1000 R25/P2000 R07/1700D BR NSC 12/12 Q1021 TEMPO VV/// BECMG 9999 NSW,2024-08-10T04:30:00Z,12,12,1.74,30.15
LFRG,49.365,0.154,200,2,2.3,LFRG 100430Z AUTO 20002KT CAVOK 12/11 Q1022,2024-08-10T04:30:00Z,12,11,6+,30.18
LFRD,48.589,-2.075,200,2,2.3,LFRD 100430Z AUTO 20002KT 7000 NSC 13/13 Q1021 TEMPO 0500 FG VV///,2024-08-10T04:30:00Z,13,13,4.35,30.15
LFRC,49.65,-1.47,200,4,4.6,LFRC 100430Z AUTO 20004KT 160V220 4100 2000 BR NSC 13/13 Q1021,2024-08-10T04:30:00Z,13,13,2.55,30.15
LFRB,48.444,-4.412,190,6,6.9,LFRB 100430Z AUTO 19006KT 9999 BKN011 14/14 Q1021 TEMPO 4000 BR BECMG SCT012,2024-08-10T04:30:00Z,14,14,6+,30.15
LFQQ,50.562,3.089,210,4,4.6,LFQQ 100430Z AUTO 21004KT CAVOK 15/14 Q1020 TEMPO OVC006,2024-08-10T04:30:00Z,15,14,6+,30.12
LFQB,48.325,4.02,0,0,0.0,LFQB 100430Z AUTO 00000KT CAVOK 16/15 Q1021,2024-08-10T04:30:00Z,16,15,6+,30.15
LFQA,49.21,4.155,VRB,1,1.15,LFQA 100430Z AUTO VRB01KT 9999 BKN027 BKN047 14/13 Q1021,2024-08-10T04:30:00Z,14,13,6+,30.15
LFPV,48.77,2.205,VRB,3,3.45,LFPV 100430Z AUTO VRB03KT CAVOK 15/13 Q1022 NOSIG,2024-08-10T04:30:00Z,15,13,6+,30.18
LFPT,49.097,2.041,VRB,1,1.15,LFPT 100430Z AUTO VRB01KT 7000 FEW001 11/11 Q1021,2024-08-10T04:30:00Z,11,11,4.35,30.15
LFPO,48.717,2.384,VRB,3,3.45,LFPO 100430Z AUTO VRB03KT CAVOK 15/12 Q1022 NOSIG,2024-08-10T04:30:00Z,15,12,6+,30.18
LFPN,48.752,2.114,340,2,2.3,LFPN 100430Z AUTO 34002KT CAVOK 14/13 Q1022,2024-08-10T04:30:00Z,14,13,6+,30.18
LFPM,48.611,2.68,VRB,3,3.45,LFPM 100430Z AUTO VRB03KT CAVOK 17/15 Q1021,2024-08-10T04:30:00Z,17,15,6+,30.15
LFPG,49.015,2.534,350,1,1.15,LFPG 100430Z 35001KT 9999 FEW021 16/12 Q1022 NOSIG,2024-08-10T04:30:00Z,16,12,6+,30.18
LFPB,48.967,2.428,350,2,2.3,LFPB 100430Z AUTO 35002KT CAVOK 15/14 Q1022 NOSIG,2024-08-10T04:30:00Z,15,14,6+,30.18
LFOZ,47.897,2.163,0,0,0.0,LFOZ 100430Z AUTO 00000KT 7000 NSC 14/14 Q1022,2024-08-10T04:30:00Z,14,14,4.35,30.18
LFOV,48.031,-0.746,20,3,3.45,LFOV 100430Z AUTO 02003KT CAVOK 15/14 Q1021,2024-08-10T04:30:00Z,15,14,6+,30.15
LFOT,47.444,0.728,270,2,2.3,LFOT 100430Z AUTO 27002KT 0400 0350 R20/0550U FG VV/// 18/18 Q1021 NOSIG,2024-08-10T04:30:00Z,18,18,0.25,30.15
LFOP,49.383,1.182,200,4,4.6,LFOP 100430Z AUTO 20004KT CAVOK 12/12 Q1022,2024-08-10T04:30:00Z,12,12,6+,30.18
LFOK,48.777,4.165,40,5,5.75,LFOK 100430Z AUTO 04005KT 9999 FEW040 BKN047 BKN058 15/14 Q1022 NOSIG,2024-08-10T04:30:00Z,15,14,6+,30.18
LFOJ,47.985,1.754,30,3,3.45,LFOJ 100430Z AUTO 03003KT 9999 OVC004 17/17 Q1021 BECMG NSC,2024-08-10T04:30:00Z,17,17,6+,30.15
LFOH,49.533,0.091,260,7,8.06,LFOH 100430Z AUTO 26007KT 9999 SCT011 16/14 Q1021,2024-08-10T04:30:00Z,16,14,6+,30.15
LFOE,49.025,1.222,250,1,1.15,LFOE 100430Z AUTO 25001KT CAVOK 13/12 Q1022 TEMPO 2000 BR,2024-08-10T04:30:00Z,13,12,6+,30.18
LFOB,49.454,2.113,VRB,2,2.3,LFOB 100430Z AUTO VRB02KT CAVOK 11/11 Q1021 TEMPO 2000 BR,2024-08-10T04:30:00Z,11,11,6+,30.15
LFOA,47.052,2.642,0,0,0.0,LFOA 100430Z AUTO 00000KT CAVOK 16/15 Q1022,2024-08-10T04:30:00Z,16,15,6+,30.18
LFMY,43.604,5.108,0,0,0.0,LFMY 100430Z AUTO 00000KT CAVOK 21/14 Q1017,2024-08-10T04:30:00Z,21,14,6+,30.03
LFMV,43.911,4.903,360,8,9.21,LFMV 100430Z AUTO 36008KT CAVOK 24/15 Q1017 NOSIG,2024-08-10T04:30:00Z,24,15,6+,30.03
LFMU,43.322,3.353,270,6,6.9,LFMU 100430Z AUTO 27006KT CAVOK 21/16 Q1018 NOSIG,2024-08-10T04:30:00Z,21,16,6+,30.06
LFMT,43.577,3.963,330,7,8.06,LFMT 100430Z AUTO 33007KT CAVOK 24/16 Q1018 NOSIG,2024-08-10T04:30:00Z,24,16,6+,30.06
LFMP,42.737,2.873,250,8,9.21,LFMP 100430Z AUTO 25008KT CAVOK 25/16 Q1018 NOSIG,2024-08-10T04:30:00Z,25,16,6+,30.06
LFMO,44.144,4.861,350,14,16.11,LFMO 100430Z AUTO 35014KT CAVOK 24/15 Q1017 NOSIG,2024-08-10T04:30:00Z,24,15,6+,30.03
LFMN,43.658,7.216,330,5,5.75,LFMN 100430Z 33005KT CAVOK 27/20 Q1017 NOSIG,2024-08-10T04:30:00Z,27,20,6+,30.03
LFML,43.438,5.216,160,4,4.6,LFML 100430Z AUTO 16004KT CAVOK 22/14 Q1016 NOSIG,2024-08-10T04:30:00Z,22,14,6+,30.00
LFMK,43.214,2.31,,,,LFMK 100430Z AUTO /////KT CAVOK 20/16 Q1019,2024-08-10T04:30:00Z,20,16,6+,30.09
LFMI,43.516,4.935,360,7,8.06,LFMI 100430Z AUTO 36007KT CAVOK 25/15 Q1016 NOSIG,2024-08-10T04:30:00Z,25,15,6+,30.00
LFMH,45.533,4.293,150,2,2.3,LFMH 100430Z AUTO 15002KT CAVOK 14/12 Q1023,2024-08-10T04:30:00Z,14,12,6+,30.21
LFMD,43.544,6.953,350,3,3.45,LFMD 100430Z AUTO 35003KT 310V030 CAVOK 23/19 Q1016 NOSIG,2024-08-10T04:30:00Z,23,19,6+,30.00
LFMC,43.383,6.386,VRB,2,2.3,LFMC 100430Z AUTO VRB02KT 9999 ////// 20/18 Q1017,2024-08-10T04:30:00Z,20,18,6+,30.03
LFLY,45.726,4.938,140,2,2.3,LFLY 100430Z AUTO 14002KT CAVOK 18/15 Q1021 NOSIG,2024-08-10T04:30:00Z,18,15,6+,30.15
LFLX,46.87,1.741,230,2,2.3,LFLX 100430Z AUTO 23002KT CAVOK 16/15 Q1022 NOSIG,2024-08-10T04:30:00Z,16,15,6+,30.18
LFLW,44.899,2.421,100,2,2.3,LFLW 100430Z AUTO 10002KT CAVOK 14/13 Q1022,2024-08-10T04:30:00Z,14,13,6+,30.18
LFLS,45.363,5.329,VRB,3,3.45,LFLS 100430Z AUTO VRB03KT CAVOK 16/14 Q1021 NOSIG,2024-08-10T04:30:00Z,16,14,6+,30.15
LFLP,45.93,6.106,60,2,2.3,LFLP 100430Z AUTO 06002KT CAVOK 16/15 Q1022 NOSIG,2024-08-10T04:30:00Z,16,15,6+,30.18
LFLN,46.412,4.025,0,0,0.0,LFLN 100430Z AUTO 00000KT CAVOK 15/14 Q1022,2024-08-10T04:30:00Z,15,14,6+,30.18
LFLL,45.726,5.078,VRB,2,2.3,LFLL 100430Z VRB02KT CAVOK 19/15 Q1022 NOSIG,2024-08-10T04:30:00Z,19,15,6+,30.18
LFLC,45.787,3.169,0,0,0.0,LFLC 100430Z AUTO 00000KT CAVOK 15/13 Q1022 NOSIG,2024-08-10T04:30:00Z,15,13,6+,30.18
LFLB,45.637,5.883,0,0,0.0,LFLB 100430Z AUTO 00000KT CAVOK 17/16 Q1021 NOSIG,2024-08-10T04:30:00Z,17,16,6+,30.15
LFKS,41.924,9.406,VRB,3,3.45,LFKS 100430Z AUTO VRB03KT 9999 // NSC 25/20 Q1017,2024-08-10T04:30:00Z,25,20,6+,30.03
LFKJ,41.924,8.803,40,6,6.9,LFKJ 100430Z AUTO 04006KT CAVOK 21/18 Q1017 NOSIG,2024-08-10T04:30:00Z,21,18,6+,30.03
LFKF,41.501,9.098,0,0,0.0,LFKF 100430Z AUTO 00000KT CAVOK 19/18 Q1017 NOSIG,2024-08-10T04:30:00Z,19,18,6+,30.03
LFKC,42.531,8.793,160,5,5.75,LFKC 100430Z AUTO 16005KT CAVOK 23/21 Q1017 NOSIG,2024-08-10T04:30:00Z,23,21,6+,30.03
LFKB,42.553,9.484,220,4,4.6,LFKB 100430Z AUTO 22004KT 9999 SCT017 23/21 Q1017 TEMPO BKN014,2024-08-10T04:30:00Z,23,21,6+,30.03
LFJR,47.562,-0.317,VRB,2,2.3,LFJR 100430Z AUTO VRB02KT 5000 BR OVC002 18/18 Q1021,2024-08-10T04:30:00Z,18,18,3.11,30.15
LFJL,48.982,6.251,200,3,3.45,LFJL 100430Z AUTO 20003KT CAVOK 17/16 Q1022 NOSIG,2024-08-10T04:30:00Z,17,16,6+,30.18
LFGJ,47.044,5.427,0,0,0.0,LFGJ 100430Z AUTO 00000KT CAVOK 17/16 Q1022,2024-08-10T04:30:00Z,17,16,6+,30.18
LFGA,48.11,7.359,200,5,5.75,LFGA 100430Z AUTO 20005KT CAVOK 18/16 Q1021,2024-08-10T04:30:00Z,18,16,6+,30.15
LFCR,44.41,2.483,140,3,3.45,LFCR 100430Z AUTO 14003KT CAVOK 14/13 Q1022 NOSIG,2024-08-10T04:30:00Z,14,13,6+,30.18
LFCK,43.556,2.289,130,4,4.6,LFCK 100430Z AUTO 13004KT 090V170 CAVOK 18/16 Q1021,2024-08-10T04:30:00Z,18,16,6+,30.15
LFBZ,43.469,-1.534,160,3,3.45,LFBZ 100430Z AUTO 16003KT 9999 NCD 18/18 Q1020 TEMPO 3000 BR,2024-08-10T04:30:00Z,18,18,6+,30.12
LFBY,43.69,-1.07,100,2,2.3,LFBY 100430Z AUTO 10002KT 9999 // ////// 17/16 Q1020,2024-08-10T04:30:00Z,17,16,6+,30.12
LFBX,45.196,0.815,0,0,0.0,LFBX 100430Z AUTO 00000KT CAVOK 13/12 Q1020,2024-08-10T04:30:00Z,13,12,6+,30.12
LFBU,45.728,0.22,20,7,8.06,LFBU 100430Z AUTO 02007KT CAVOK 18/17 Q1021,2024-08-10T04:30:00Z,18,17,6+,30.15
LFBT,43.189,,160,3,3.45,LFBT 100430Z AUTO 16003KT CAVOK 18/17 Q1021 NOSIG,2024-08-10T04:30:00Z,18,17,6+,30.15
LFBP,43.385,-0.416,130,2,2.3,LFBP 100430Z AUTO 13002KT CAVOK 17/17 Q1020 NOSIG,2024-08-10T04:30:00Z,17,17,6+,30.12
LFBO,43.621,1.379,200,3,3.45,LFBO 100430Z AUTO 20003KT CAVOK 19/17 Q1020 NOSIG,2024-08-10T04:30:00Z,19,17,6+,30.12
LFBM,43.912,-0.507,VRB,2,2.3,LFBM 100430Z AUTO VRB02KT CAVOK 16/15 Q1020 NOSIG,2024-08-10T04:30:00Z,16,15,6+,30.12
LFBL,45.863,1.179,30,3,3.45,LFBL 100430Z AUTO 03003KT CAVOK 17/15 Q1022 NOSIG,2024-08-10T04:30:00Z,17,15,6+,30.18
LFBI,46.584,0.309,350,5,5.75,LFBI 100430Z AUTO 35005KT 9999 OVC002 18/18 Q1022 TEMPO 0600 FG BECMG NSC,2024-08-10T04:30:00Z,18,18,6+,30.18
LFBH,46.178,-1.193,30,7,8.06,LFBH 100430Z AUTO 03007KT 9999 OVC004 18/18 Q1021 TEMPO 2000 BR,2024-08-10T04:30:00Z,18,18,6+,30.15
LFBG,45.665,-0.316,VRB,2,2.3,LFBG 100430Z AUTO VRB02KT CAVOK 18/17 Q1021,2024-08-10T04:30:00Z,18,17,6+,30.15
LFBF,43.546,1.367,0,0,0.0,LFBF 100430Z AUTO 00000KT CAVOK 19/18 Q1020,2024-08-10T04:30:00Z,19,18,6+,30.12
LFBE,44.826,0.516,VRB,2,2.3,LFBE 100430Z AUTO VRB02KT CAVOK 13/13 Q1020 NOSIG,2024-08-10T04:30:00Z,13,13,6+,30.12
LFBD,44.831,-0.691,30,4,4.6,LFBD 100430Z AUTO 03004KT 9999 1900 NSC 18/17 Q1021 TEMPO 4000 BR,2024-08-10T04:30:00Z,18,17,6+,30.15
LFBC,44.533,-1.125,30,4,4.6,LFBC 100430Z AUTO 03004KT CAVOK 17/16 Q1020,2024-08-10T04:30:00Z,17,16,6+,30.12
LFBA,44.176,0.593,280,2,2.3,LFBA 100430Z AUTO 28002KT CAVOK 16/14 Q1020 NOSIG,2024-08-10T04:30:00Z,16,14,6+,30.12
LFAT,50.515,1.623,260,5,5.75,LFAT 100430Z AUTO 26005KT 230V290 9999 OVC007 18/16 Q1020,2024-08-10T04:30:00Z,18,16,6+,30.12
LFAQ,49.972,2.704,210,2,2.3,LFAQ 100430Z AUTO 21002KT 9999 OVC015 13/13 Q1021,2024-08-10T04:30:00Z,13,13,6+,30.15
LFAC,50.962,1.955,220,5,5.75,LFAC 100430Z AUTO 22005KT CAVOK 16/15 Q1019,2024-08-10T04:30:00Z,16,15,6+,30.09
LEZL,37.418,-5.893,VRB,2,2.3,LEZL 100430Z VRB02KT CAVOK 23/18 Q1014 NOSIG,2024-08-10T04:30:00Z,23,18,6+,29.94
LEZG,41.661,-1.004,270,6,6.9,LEZG 100430Z 27006KT CAVOK 24/18 Q1019 NOSIG,2024-08-10T04:30:00Z,24,18,6+,30.09
LEXJ,43.429,-3.831,VRB,2,2.3,LEXJ 100430Z VRB02KT 9999 FEW024 21/19 Q1019,2024-08-10T04:30:00Z,21,19,6+,30.09
LEVX,42.239,-8.624,220,4,4.6,LEVX 100430Z 22004KT 180V250 CAVOK 21/17 Q1015 NOSIG,2024-08-10T04:30:00Z,21,17,6+,29.97
LEVT,42.872,-2.733,VRB,1,1.15,LEVT 100430Z VRB01KT 9999 BKN010 19/17 Q1021,2024-08-10T04:30:00Z,19,17,6+,30.15
LEVS,40.371,-3.785,70,6,6.9,LEVS 100430Z AUTO 07006KT 010V120 CAVOK 27/10 Q1020,2024-08-10T04:30:00Z,27,10,6+,30.12
LEVD,41.706,-4.852,110,5,5.75,LEVD 100430Z AUTO 11005KT CAVOK 19/13 Q1020,2024-08-10T04:30:00Z,19,13,6+,30.12
LEVC,39.489,-0.482,310,7,8.06,LEVC 100430Z 31007KT 9999 SCT010 23/17 Q1018 NOSIG,2024-08-10T04:30:00Z,23,17,6+,30.06
LETU,-99.99,-99.99,VRB,2,2.3,LETU 100430Z AUTO VRB02KT CAVOK 21/18 Q1020,2024-08-10T04:30:00Z,21,18,6+,30.12
LETL,40.404,-1.218,140,5,5.75,LETL 100430Z AUTO 14005KT CAVOK 18/11 Q1024,2024-08-10T04:30:00Z,18,11,6+,30.24
LEST,42.888,-8.411,50,3,3.45,LEST 100430Z 05003KT 350V140 9999 VCFG FEW010 18/17 Q1018 NOSIG,2024-08-10T04:30:00Z,18,17,6+,30.06
LESO,43.361,-1.787,140,3,3.45,LESO 100430Z 14003KT CAVOK 20/19 Q1020,2024-08-10T04:30:00Z,20,19,6+,30.12
LESB,39.599,2.703,350,5,5.75,LESB 100430Z AUTO 35005KT CAVOK 24/16 Q1017,2024-08-10T04:30:00Z,24,16,6+,30.03
LESA,40.96,-5.498,120,2,2.3,LESA 100430Z AUTO 12002KT CAVOK 17/14 Q1019,2024-08-10T04:30:00Z,17,14,6+,30.09
LERT,36.645,-6.349,50,2,2.3,LERT 100430Z 05002KT CAVOK 22/19 Q1014 NOSIG,2024-08-10T04:30:00Z,22,19,6+,29.94
LERS,41.15,1.179,20,5,5.75,LERS 100430Z AUTO 02005KT CAVOK 22/15 Q1018,2024-08-10T04:30:00Z,22,15,6+,30.06
LEPP,42.777,-1.65,0,0,0.0,LEPP 100430Z 00000KT CAVOK 17/16 Q1021,2024-08-10T04:30:00Z,17,16,6+,30.15
LEPA,39.561,2.737,40,4,4.6,LEPA 100430Z 04004KT 010V070 CAVOK 22/17 Q1017 NOSIG,2024-08-10T04:30:00Z,22,17,6+,30.03
LEMO,37.175,-5.616,120,5,5.75,LEMO 100430Z 12005KT CAVOK 22/15 Q1015 NOSIG,2024-08-10T04:30:00Z,22,15,6+,29.97
LEMI,37.803,-1.125,340,10,11.51,LEMI 100430Z AUTO 34010KT CAVOK 26/13 Q1017,2024-08-10T04:30:00Z,26,13,6+,30.03
LEMH,39.855,4.216,350,6,6.9,LEMH 100430Z 35006KT CAVOK 25/15 Q1018,2024-08-10T04:30:00Z,25,15,6+,30.06
LEMG,36.666,-4.482,300,6,6.9,LEMG 100430Z 30006KT 9999 BKN026 25/19 Q1015 NOSIG,2024-08-10T04:30:00Z,25,19,6+,29.97
LEMD,40.466,-3.555,VRB,2,2.3,LEMD 100430Z VRB02KT CAVOK 26/11 Q1020 NOSIG,2024-08-10T04:30:00Z,26,11,6+,30.12
LELO,42.452,-2.331,280,3,3.45,LELO 100430Z AUTO 28003KT 250V320 CAVOK 19/17 Q1020,2024-08-10T04:30:00Z,19,17,6+,30.12
LELN,42.588,-5.651,360,6,6.9,LELN 100430Z AUTO 36006KT 330V030 CAVOK 23/08 Q1021,2024-08-10T04:30:00Z,23,8,6+,30.15
LELL,41.521,2.105,280,3,3.45,LELL 100430Z AUTO 28003KT CAVOK 22/16 Q1019,2024-08-10T04:30:00Z,22,16,6+,30.09
LELC,37.775,-0.812,360,6,6.9,LELC 100430Z AUTO 36006KT 9000 NCD 25/17 Q1016,2024-08-10T04:30:00Z,25,17,5.59,30.00
LEJR,36.751,-6.056,VRB,2,2.3,LEJR 100430Z VRB02KT CAVOK 21/18 Q1014,2024-08-10T04:30:00Z,21,18,6+,29.94
LEIB,38.876,1.384,0,0,0.0,LEIB 100430Z 00000KT CAVOK 23/18 Q1017 NOSIG,2024-08-10T04:30:00Z,23,18,6+,30.03
LEHC,42.082,-0.324,VRB,2,2.3,LEHC 100430Z AUTO VRB02KT CAVOK 22/16 Q1021,2024-08-10T04:30:00Z,22,16,6+,30.15
LEGT,40.299,-3.723,50,7,8.06,LEGT 100430Z AUTO 05007KT 020V090 CAVOK 26/10 Q1020,2024-08-10T04:30:00Z,26,10,6+,30.12
LEGR,37.19,-3.789,0,0,0.0,LEGR 100430Z 00000KT CAVOK 20/15 Q1019,2024-08-10T04:30:00Z,20,15,6+,30.09
LEGE,41.911,2.763,0,0,0.0,LEGE 100430Z 00000KT CAVOK 23/18 Q1018 NOSIG,2024-08-10T04:30:00Z,23,18,6+,30.06
LEDA,41.734,0.538,60,8,9.21,LEDA 100430Z AUTO 06008KT CAVOK 24/16 Q1019,2024-08-10T04:30:00Z,24,16,6+,30.09
LECO,43.307,-8.372,220,3,3.45,LECO 100430Z 22003KT 180V290 9999 3000E BCFG FEW003 15/15 Q1017 TEMPO 0800 BCFG,2024-08-10T04:30:00Z,15,15,6+,30.03
LECH,40.211,0.067,220,1,1.15,LECH 100430Z AUTO 22001KT CAVOK 20/17 Q1020,2024-08-10T04:30:00Z,20,17,6+,30.12
LEBT,39.58,-0.45,360,3,3.45,LEBT 100430Z AUTO 36003KT 320V050 9999 BKN004 21/16 Q1018,2024-08-10T04:30:00Z,21,16,6+,30.06
LEBR,42.2,-1.43,VRB,1,1.15,LEBR 100430Z AUTO VRB01KT CAVOK 21/17 Q1019,2024-08-10T04:30:00Z,21,17,6+,30.09
LEBL,41.293,2.07,330,6,6.9,LEBL 100430Z 33006KT CAVOK 25/17 Q1018 NOSIG,2024-08-10T04:30:00Z,25,17,6+,30.06
LEBG,42.356,-3.622,40,5,5.75,LEBG 100430Z AUTO 04005KT CAVOK 16/15 Q1022,2024-08-10T04:30:00Z,16,15,6+,30.18
LEBB,43.298,-2.906,90,3,3.45,LEBB 100430Z 09003KT 070V130 9999 FEW035 19/19 Q1020 NOSIG,2024-08-10T04:30:00Z,19,19,6+,30.12
LEBA,37.842,-4.849,340,1,1.15,LEBA 100430Z AUTO 34001KT CAVOK 23/17 Q1015,2024-08-10T04:30:00Z,23,17,6+,29.97
LEAS,43.567,-6.044,110,3,3.45,LEAS 100430Z 11003KT 090V160 CAVOK 19/18 Q1019 NOSIG,2024-08-10T04:30:00Z,19,18,6+,30.09
LEAM,36.846,-2.357,VRB,2,2.3,LEAM 100430Z VRB02KT CAVOK 25/23 Q1015,2024-08-10T04:30:00Z,25,23,6+,29.97
LEAL,38.282,-0.558,VRB,2,2.3,LEAL 100430Z VRB02KT CAVOK 24/13 Q1016 NOSIG,2024-08-10T04:30:00Z,24,13,6+,30.00
LEAG,36.129,-5.441,70,8,9.21,LEAG 100430Z AUTO 07008KT 9999 FEW024/// 24/21 Q1015,2024-08-10T04:30:00Z,24,21,6+,29.97
LEAB,38.952,-1.863,110,4,4.6,LEAB 100430Z 11004KT CAVOK 18/10 Q1022 NOSIG,2024-08-10T04:30:00Z,18,10,6+,30.18
LDZD,44.108,15.347,0,0,0.0,LDZD 100430Z 00000KT CAVOK 21/17 Q1018 NOSIG,2024-08-10T04:30:00Z,21,17,6+,30.06
LDZA,45.729,16.054,250,2,2.3,LDZA 100430Z 25002KT CAVOK 18/17 Q1020 NOSIG,2024-08-10T04:30:00Z,18,17,6+,30.12
LDSP,43.539,16.301,360,6,6.9,LDSP 100430Z 36006KT 320V030 CAVOK 27/12 Q1017 NOSIG,2024-08-10T04:30:00Z,27,12,6+,30.03
LDRI,45.218,14.573,0,0,0.0,LDRI 100430Z 00000KT CAVOK 23/17 Q1018,2024-08-10T04:30:00Z,23,17,6+,30.06
LDPL,44.894,13.922,80,3,3.45,LDPL 100430Z 08003KT CAVOK 23/16 Q1018 NOSIG,2024-08-10T04:30:00Z,23,16,6+,30.06
LDOS,45.463,18.81,230,5,5.75,LDOS 100430Z 23005KT CAVOK 18/15 Q1019,2024-08-10T04:30:00Z,18,15,6+,30.09
LDDU,42.56,18.269,30,21,24.17,LDDU 100430Z 03021G32KT 350V090 CAVOK 28/12 Q1016 BECMG 03018KT,2024-08-10T04:30:00Z,28,12,6+,30.00
LCPH,34.715,32.479,20,6,6.9,LCPH 100430Z AUTO 02006KT 010V080 9999 SCT024 26/17 Q1008 NOSIG,2024-08-10T04:30:00Z,26,17,6+,29.76
LCLK,34.874,33.617,VRB,2,2.3,LCLK 100430Z VRB02KT 8000 FEW006 27/26 Q1008 NOSIG,2024-08-10T04:30:00Z,27,26,4.97,29.76
LBWN,43.232,27.825,290,7,8.06,LBWN 100430Z 29007KT CAVOK 22/16 Q1015 NOSIG,2024-08-10T04:30:00Z,22,16,6+,29.97
LBSF,42.694,23.414,290,4,4.6,LBSF 100430Z 29004KT 270V330 CAVOK 19/12 Q1019 NOSIG,2024-08-10T04:30:00Z,19,12,6+,30.09
LBPD,42.064,24.86,VRB,2,2.3,LBPD 100430Z AUTO VRB02KT 9999 FEW110/// 22/16 Q1017 NOSIG,2024-08-10T04:30:00Z,22,16,6+,30.03
LBGO,43.151,25.713,0,0,0.0,LBGO 100430Z AUTO 00000KT 9999 SCT130/// 19/18 Q1017 NOSIG,2024-08-10T04:30:00Z,19,18,6+,30.03
LBBG,42.569,27.514,290,5,5.75,LBBG 100430Z 29005KT CAVOK 21/16 Q1015 NOSIG,2024-08-10T04:30:00Z,21,16,6+,29.97
KWRI,40.016,-74.591,230,9,10.36,KWRI 100430Z AUTO 23009KT 10SM BKN008 BKN055 25/24 A2985 RMK AO2 CIG 008V055 BKN008 V SCT SLP106 $,2024-08-10T04:30:00Z,25,24,10+,29.85
KUCY,36.3778,-88.9878,20,3,3.45,KUCY 100430Z AUTO 02003KT 10SM CLR 18/18 A3009 RMK A01,2024-08-10T04:30:00Z,18,18,10+,30.09
KTQK,38.4782,-100.882,90,7,8.06,KTQK 100430Z AUTO 09007KT 10SM OVC031 14/12 A3030 RMK AO2 T01420116,2024-08-10T04:30:00Z,14.2,11.6,10+,30.30
KSUT,33.9292,-78.0722,230,7,8.06,KSUT 100430Z AUTO 23007KT 7SM BKN007 27/26 A2996 RMK AO2 T02730261,2024-08-10T04:30:00Z,27.3,26.1,7,29.96
KRNH,45.1476,-92.5335,270,5,5.75,KRNH 100430Z AUTO 27005KT 10SM SCT060 OVC065 14/10 A3009 RMK AO2 T01370098,2024-08-10T04:30:00Z,13.7,9.8,10+,30.09
KRCZ,34.8955,-79.7576,170,4,4.6,KRCZ 100430Z AUTO 17004KT 10SM CLR 26/25 A2995 RMK AO2 T02630246,2024-08-10T04:30:00Z,26.3,24.6,10+,29.95
KQEL,-99.99,-99.99,140,3,3.45,KQEL 100430Z AUTO 14003KT 9999 FEW039 33/24 A2965 RMK A02 TSNO,2024-08-10T04:30:00Z,33,24,6+,29.65
KPGV,35.6374,-77.3851,190,4,4.6,KPGV 100430Z AUTO 19004KT 10SM SCT006 24/24 A2995 RMK AO2 TSNO,2024-08-10T04:30:00Z,24,24,10+,29.95
KP08,32.9359,-111.427,300,3,3.45,KP08 100430Z AUTO 30003KT 10SM FEW110 35/18 A2983 RMK AO2,2024-08-10T04:30:00Z,35,18,10+,29.83
KOPL,30.5643,-92.1021,10,4,4.6,KOPL 100430Z AUTO 01004KT 10SM CLR 25/21 A3002 RMK AO2 T02480207,2024-08-10T04:30:00Z,24.8,20.7,10+,30.02
KMWK,36.4568,-80.5548,0,0,0.0,KMWK 100430Z AUTO 00000KT 10SM SCT090 23/22 A3003 RMK AO2 T02300223,2024-08-10T04:30:00Z,23,22.3,10+,30.03
KJVL,42.6213,-89.0419,270,3,3.45,KJVL 100430Z AUTO 27003KT 10SM CLR 14/12 A3006 RMK AO2,2024-08-10T04:30:00Z,14,12,10+,30.06
KHZD,36.089,-88.4654,20,3,3.45,KHZD 100430Z AUTO 02003KT 10SM CLR 20/14 A3008 RMK A01,2024-08-10T04:30:00Z,20,14,10+,30.08
KHRJ,35.3794,-78.7356,180,3,3.45,KHRJ 100430Z AUTO 18003KT 7SM BR SCT100 25/24 A2995 RMK AO2 T02460243,2024-08-10T04:30:00Z,24.6,24.3,7,29.95
KHBV,27.3516,-98.7415,150,4,4.6,KHBV 100430Z AUTO 15004KT 10SM CLR 28/24 A3006 RMK AO2 T02750235,2024-08-10T04:30:00Z,27.5,23.5,10+,30.06
KGWW,35.4637,-77.9604,210,3,3.45,KGWW 100430Z AUTO 21003KT 7SM OVC007 25/25 A2995 RMK AO2 T02450245,2024-08-10T04:30:00Z,24.5,24.5,7,29.95
KGRY,27.6247,-90.4411,50,6,6.9,KGRY 100430Z AUTO 05006KT 10SM SCT046 OVC055 29/21 A3001 RMK A01,2024-08-10T04:30:00Z,29,21,10+,30.01
KGHB,27.8403,-91.9878,,,,KGHB 100430Z AUTO 10SM FEW038 FEW048 SCT055 30/24 A3001 RMK A01,2024-08-10T04:30:00Z,30,24,10+,30.01
KFOA,38.6673,-88.4527,330,3,3.45,KFOA 100430Z AUTO 33003KT 10SM CLR 16/15 A3014 RMK AO2,2024-08-10T04:30:00Z,16,15,10+,30.14
KFFA,36.0165,-75.6739,180,5,5.75,KFFA 100430Z AUTO 18005KT 5SM SCT007 SCT050 BKN100 25/25 A2994 RMK AO2 T02510251,2024-08-10T04:30:00Z,25.1,25.1,5,29.94
KF45,26.8419,-80.224,200,3,3.45,KF45 100430Z AUTO 20003KT 10SM SCT020 BKN029 26/26 A3004 RMK AO2,2024-08-10T04:30:00Z,26,26,10+,30.04
KEYF,34.6042,-78.579,180,5,5.75,KEYF 100430Z AUTO 18005KT 5SM BR SCT100 25/25 A2995 RMK AO2 T02550250,2024-08-10T04:30:00Z,25.5,25,5,29.95
KEDE,36.0286,-76.5668,200,7,8.06,KEDE 100430Z AUTO 20007KT 10SM BKN006 OVC014 26/26 A2996 RMK AO2 T02630263,2024-08-10T04:30:00Z,26.3,26.3,10+,29.96
KE01,31.5804,-102.908,150,7,8.06,KE01 100430Z AUTO 15007KT 10SM CLR 31/14 A3009 RMK AO2,2024-08-10T04:30:00Z,31,14,10+,30.09
KDVK,37.5764,-84.7641,330,3,3.45,KDVK 100430Z AUTO 33003KT 10SM CLR 20/16 A3008 RMK AO2,2024-08-10T04:30:00Z,20,16,10+,30.08
KDED,29.075,-81.286,200,5,5.75,KDED 100430Z AUTO 20005KT 10SM CLR 28/24 A3002 RMK AO2 T02760239,2024-08-10T04:30:00Z,27.6,23.9,10+,30.02
KCZT,28.5204,-99.8192,140,10,11.51,KCZT 100430Z AUTO 14010G21KT 10SM CLR 32/21 A3001 RMK AO2,2024-08-10T04:30:00Z,32,21,10+,30.01
KCGS,38.9806,-76.9251,0,0,0.0,KCGS 100430Z AUTO 00000KT 10SM SCT055 25/24 A2991 RMK AO2 T02450239,2024-08-10T04:30:00Z,24.5,23.9,10+,29.91
K8A3,36.4164,-85.3061,10,6,6.9,K8A3 100430Z AUTO 01006KT 10SM CLR 21/18 A3007 RMK A01,2024-08-10T04:30:00Z,21,18,10+,30.07
K36K,37.9707,-101.255,130,6,6.9,K36K 100430Z AUTO 13006KT 10SM OVC029 15/11 A3033 RMK AO2,2024-08-10T04:30:00Z,15,11,10+,30.33
K2W6,38.315,-76.55,210,3,3.45,K2W6 100430Z AUTO 21003KT 10SM SCT029 SCT044 BKN095 23/23 A2993 RMK AO1,2024-08-10T04:30:00Z,23,23,10+,29.93
K24A,35.3156,-83.2071,0,0,0.0,K24A 100430Z AUTO 00000KT 10SM VCTS SCT065 21/18 A3012 RMK AO2 LTG DSNT SE T02070184,2024-08-10T04:30:00Z,20.7,18.4,10+,30.12
HRYR,-1.969,30.14,110,4,4.6,HRYR 100430Z 11004KT 9999 BKN023 SCT100 21/14 Q1021 NOSIG,2024-08-10T04:30:00Z,21,14,6+,30.15
HKMO,-4.015,39.606,VRB,2,2.3,HKMO 100430Z VRB02KT 9999 FEW018 SCT080 23/22 Q1017 NOSIG,2024-08-10T04:30:00Z,23,22,6+,30.03
HECA,30.133,31.405,50,4,4.6,HECA 100430Z 05004KT CAVOK 27/22 Q1011 NOSIG,2024-08-10T04:30:00Z,27,22,6+,29.85
GQNO,18.31,-15.97,240,8,9.21,GQNO 100430Z 24008KT 8000 BKN013 27/23 Q1007 NOSIG,2024-08-10T04:30:00Z,27,23,4.97,29.73
GOBD,14.671,-17.067,280,8,9.21,GOBD 100430Z 28008KT 250V310 9999 FEW022 27/24 Q1009 NOSIG,2024-08-10T04:30:00Z,27,24,6+,29.79
GMTT,35.727,-5.917,300,5,5.75,GMTT 100430Z 30005KT CAVOK 24/23 Q1013 NOSIG,2024-08-10T04:30:00Z,24,23,6+,29.91
GMMX,31.607,-8.036,270,3,3.45,GMMX 100430Z 27003KT 9999 FEW033 SCT100 23/16 Q1015 NOSIG,2024-08-10T04:30:00Z,23,16,6+,29.97
GMMN,33.367,-7.59,40,5,5.75,GMMN 100430Z 04005KT 330V070 3000 BR BKN004 21/18 Q1014 TEMPO 2000,2024-08-10T04:30:00Z,21,18,1.86,29.94
GMME,34.051,-6.752,0,0,0.0,GMME 100430Z 00000KT 5000 BKN010 20/19 Q1013 NOSIG,2024-08-10T04:30:00Z,20,19,3.11,29.91
GMFO,34.787,-1.924,310,4,4.6,GMFO 100430Z 31004KT 260V340 CAVOK 23/21 Q1017 NOSIG,2024-08-10T04:30:00Z,23,21,6+,30.03
GMFF,33.929,-4.976,150,3,3.45,GMFF 100430Z 15003KT CAVOK 21/14 Q1016 NOSIG,2024-08-10T04:30:00Z,21,14,6+,30.00
GMAD,30.325,-9.413,230,6,6.9,GMAD 100430Z 23006KT 8000 NSC 19/19 Q1012 NOSIG,2024-08-10T04:30:00Z,19,19,4.97,29.88
GEML,35.278,-2.956,VRB,2,2.3,GEML 100430Z VRB02KT 9999 FEW012 BKN024 BKN026 26/23 Q1015,2024-08-10T04:30:00Z,26,23,6+,29.97
GECE,35.893,-5.306,90,6,6.9,GECE 100430Z AUTO 09006KT 060V150 CAVOK 25/23 Q1015,2024-08-10T04:30:00Z,25,23,6+,29.97
GCXO,28.483,-16.342,290,24,27.62,GCXO 100430Z AUTO 29024KT 8000 BKN002 18/18 Q1017,2024-08-10T04:30:00Z,18,18,4.97,30.03
GCTS,28.047,-16.561,50,12,13.81,GCTS 100430Z 05012KT 9999 FEW020 22/18 Q1014 NOSIG,2024-08-10T04:30:00Z,22,18,6+,29.94
GCRR,28.952,-13.6,10,17,19.56,GCRR 100430Z AUTO 01017KT 340V050 CAVOK 21/17 Q1014,2024-08-10T04:30:00Z,21,17,6+,29.94
GCLP,27.923,-15.389,10,25,28.77,GCLP 100430Z 01025KT 340V040 9999 BKN018 23/18 Q1014 NOSIG,2024-08-10T04:30:00Z,23,18,6+,29.94
GCLA,28.633,-17.755,30,14,16.11,GCLA 100430Z AUTO 03014KT 360V060 9999 OVC025 22/18 Q1016,2024-08-10T04:30:00Z,22,18,6+,30.00
GCHI,27.819,-17.889,350,23,26.47,GCHI 100430Z AUTO 35023KT 9999 BKN018 22/18 Q1015,2024-08-10T04:30:00Z,22,18,6+,29.97
GCGM,28.032,-17.211,260,2,2.3,GCGM 100430Z AUTO 26002KT CAVOK 21/17 Q1014 RMK R09/00000KT ARP/VRB02KT,2024-08-10T04:30:00Z,21,17,6+,29.94
GCFV,28.445,-13.863,360,8,9.21,GCFV 100430Z AUTO 36008KT CAVOK 21/17 Q1014,2024-08-10T04:30:00Z,21,17,6+,29.94
GABS,12.534,-7.95,VRB,2,2.3,GABS 100430Z VRB02KT 9999 FEW015 25/25 Q1013 NOSIG,2024-08-10T04:30:00Z,25,25,6+,29.91
FMMI,-18.797,47.479,120,4,4.6,FMMI 100430Z 12004KT 090V160 5000 BR FEW005 12/12 Q1026 BECMG 9000 NSW,2024-08-10T04:30:00Z,12,12,3.11,30.30
FMEP,-21.32,55.425,30,4,4.6,FMEP 100430Z AUTO 03004KT 360V060 CAVOK 24/11 Q1023 BECMG 24010KT,2024-08-10T04:30:00Z,24,11,6+,30.21
FMEE,-20.887,55.51,120,18,20.71,FMEE 100430Z AUTO 12018KT 9999 FEW074 23/17 Q1023 BECMG 11017G27KT,2024-08-10T04:30:00Z,23,17,6+,30.21
FMCZ,-12.805,45.281,210,4,4.6,FMCZ 100430Z AUTO 21004KT 180V240 CAVOK 24/22 Q1018 NOSIG,2024-08-10T04:30:00Z,24,22,6+,30.06
FAOR,-26.139,28.246,240,9,10.36,FAOR 100430Z 24009KT CAVOK 16/M15 Q1025 NOSIG,2024-08-10T04:30:00Z,16,-15,6+,30.27
EPZG,52.137,15.779,210,5,5.75,EPZG 100430Z 21005KT CAVOK 18/17 Q1018,2024-08-10T04:30:00Z,18,17,6+,30.06
EPWR,51.1032,16.8998,270,4,4.6,EPWR 100430Z 27004KT CAVOK 18/17 Q1019,2024-08-10T04:30:00Z,18,17,6+,30.09
EPWA,52.163,20.961,260,5,5.75,EPWA 100430Z 26005KT 9999 SCT038 18/16 Q1015 NOSIG,2024-08-10T04:30:00Z,18,16,6+,29.97
EPSY,53.482,20.938,260,6,6.9,EPSY 100430Z 26006KT 230V300 9999 SCT006 BKN012 17/17 Q1014,2024-08-10T04:30:00Z,17,17,6+,29.94
EPSC,53.585,14.902,240,4,4.6,EPSC 100430Z 24004KT 210V270 CAVOK 14/13 Q1016,2024-08-10T04:30:00Z,14,13,6+,30.00
EPRZ,50.112,22.025,200,4,4.6,EPRZ 100430Z 20004KT CAVOK 16/15 Q1018,2024-08-10T04:30:00Z,16,15,6+,30.06
EPRA,51.39,21.211,240,8,9.21,EPRA 100430Z 24008KT CAVOK 19/15 Q1016,2024-08-10T04:30:00Z,19,15,6+,30.00
EPPO,52.417,16.835,250,3,3.45,EPPO 100430Z 25003KT 9999 FEW007 17/16 Q1017,2024-08-10T04:30:00Z,17,16,6+,30.03
EPMO,52.452,20.642,250,7,8.06,EPMO 100430Z 25007KT CAVOK 18/17 Q1015,2024-08-10T04:30:00Z,18,17,6+,29.97
EPLL,51.724,19.401,270,8,9.21,EPLL 100430Z 27008KT CAVOK 19/16 Q1017,2024-08-10T04:30:00Z,19,16,6+,30.03
EPLB,51.239,22.714,250,7,8.06,EPLB 100430Z 25007KT CAVOK 18/15 Q1016,2024-08-10T04:30:00Z,18,15,6+,30.00
EPKT,50.478,19.085,260,5,5.75,EPKT 100430Z 26005KT 9999 BKN047 19/15 Q1018,2024-08-10T04:30:00Z,19,15,6+,30.06
EPKK,50.078,19.797,VRB,1,1.15,EPKK 100430Z VRB01KT 9999 SCT057 18/15 Q1018,2024-08-10T04:30:00Z,18,15,6+,30.06
EPGD,54.379,18.466,260,10,11.51,EPGD 100430Z 26010KT CAVOK 16/14 Q1014,2024-08-10T04:30:00Z,16,14,6+,29.94
EPBY,53.0962,17.9949,260,10,11.51,EPBY 100430Z 26010KT 9999 BKN005 17/16 Q1016,2024-08-10T04:30:00Z,17,16,6+,30.00
EINN,52.702,-8.925,230,8,9.21,EINN 100430Z 23008KT 9999 BKN023 15/14 Q1014 NOSIG,2024-08-10T04:30:00Z,15,14,6+,29.94
EIDW,53.422,-6.298,230,6,6.9,EIDW 100430Z 23006KT 190V270 9999 FEW013 SCT017 BKN035 15/13 Q1014 NOSIG,2024-08-10T04:30:00Z,15,13,6+,29.94
EICK,51.848,-8.479,280,4,4.6,EICK 100430Z 28004KT 3000 BR FEW001 SCT002 14/14 Q1015 BECMG 9999,2024-08-10T04:30:00Z,14,14,1.86,29.97
DTTJ,33.875,10.775,170,2,2.3,DTTJ 100430Z 17002KT CAVOK 25/22 Q1015 NOSIG,2024-08-10T04:30:00Z,25,22,6+,29.97
DTTA,36.851,10.227,10,4,4.6,DTTA 100430Z 01004KT 8000 FEW023 23/21 Q1016,2024-08-10T04:30:00Z,23,21,4.97,30.00
DTNH,36.074,10.436,240,3,3.45,DTNH 100430Z 24003KT CAVOK 21/14 Q1015,2024-08-10T04:30:00Z,21,14,6+,29.97
DTMB,35.758,10.755,0,0,0.0,DTMB 100430Z 00000KT CAVOK 24/19 Q1016,2024-08-10T04:30:00Z,24,19,6+,30.00
DIAP,5.261,-3.926,250,3,3.45,DIAP 100430Z 25003KT 9999 FEW012 BKN027 BKN040 24/23 Q1013 TEMPO 4000 DZ FEW004 BKN010 OVC020,2024-08-10T04:30:00Z,24,23,6+,29.91
DAOO,35.623,-0.624,VRB,2,2.3,DAOO 100430Z VRB02KT 8000 BKN020 25/22 Q1015,2024-08-10T04:30:00Z,25,22,4.97,29.97
DAAT,22.824,5.452,70,6,6.9,DAAT 100430Z 07006KT CAVOK 24/M03 Q1019,2024-08-10T04:30:00Z,24,-3,6+,30.09
DAAG,36.691,3.215,60,4,4.6,DAAG 100430Z 06004KT 9999 FEW020 26/23 Q1015,2024-08-10T04:30:00Z,26,23,6+,29.97
CYGV,50.286,-63.606,200,7,8.06,CYGV 100430Z AUTO 20007G16KT 9SM -RA FEW081 OVC110 15/12 A2994 RMK SLP142,2024-08-10T04:30:00Z,15,12,9,29.94
CYDA,64.044,-139.127,10,6,6.9,CYDA 100430Z 01006KT 20SM SHRA SCT005 BKN032 BKN100 OVC210 16/14 A2971 RMK SF3SC3AC1CI1 OBS FOR MEDEVAC PRESFR SLP071 DENSITY ALT 1900FT,2024-08-10T04:30:00Z,16,14,20,29.71
BIKF,63.987,-22.614,20,8,9.21,BIKF 100430Z 02008KT CAVOK 07/06 Q0997,2024-08-10T04:30:00Z,7,6,6+,29.44
PAKH,56.94,-154.181,230,10,11.51,PAKH 100429Z AUTO 23010KT 10SM -RA FEW013 SCT017 OVC050 11/09 A3012 RMK AO2 PNO $,2024-08-10T04:29:00Z,11,9,10+,30.12
KMIV,39.3662,-75.0778,VRB,3,3.45,KMIV 100429Z AUTO VRB03KT 10SM SCT011 BKN070 OVC085 25/24 A2988 RMK AO2 T02500239,2024-08-10T04:29:00Z,25,23.9,10+,29.88
KHVN,41.259,-72.8891,200,9,10.36,KHVN 100429Z AUTO 20009KT 3SM -RA BR BKN007 OVC014 24/23 A2982 RMK AO2 RAB07 CIG 004V010 P0000 T02440233,2024-08-10T04:29:00Z,24.4,23.3,3,29.82
KGUY,36.6819,-101.505,90,5,5.75,KGUY 100429Z AUTO 09005KT 10SM SCT027 SCT095 BKN120 14/13 A3028 RMK AO2 RAE19 P0001 T01390133,2024-08-10T04:29:00Z,13.9,13.3,10+,30.28
KFME,39.086,-76.757,0,0,0.0,KFME 100429Z AUTO 00000KT 4SM CLR 22/22 A2992 RMK AO1,2024-08-10T04:29:00Z,22,22,4,29.92
EHWO,51.448,4.342,220,7,8.06,EHWO 100429Z AUTO 22007KT 190V260 7000 BR FEW003 SCT004 BKN006 15/15 Q1019 YLO,2024-08-10T04:29:00Z,15,15,4.35,30.09
PAOR,62.962,-141.938,320,5,5.75,PAOR 100428Z AUTO 32005KT 10SM FEW008 14/13 A2978 RMK AO2 T01440128 TSNO $,2024-08-10T04:28:00Z,14.4,12.8,10+,29.78
KRHP,35.1939,-83.8618,0,0,0.0,KRHP 100428Z AUTO 00000KT 10SM CLR 19/18 A3006 RMK AO2 T01940179,2024-08-10T04:28:00Z,19.4,17.9,10+,30.06
KMTN,39.3214,-76.4065,230,3,3.45,KMTN 100428Z AUTO 23003KT 10SM OVC050 26/25 A2990 RMK AO2,2024-08-10T04:28:00Z,26,25,10+,29.90
KKLS,46.118,-122.898,300,9,10.36,KKLS 100428Z AUTO 30009KT 10SM BKN014 18/16 A2999 RMK AO2,2024-08-10T04:28:00Z,18,16,10+,29.99
KFRG,40.7344,-73.4164,200,12,13.81,KFRG 100428Z AUTO 20012KT 6SM -RA BR OVC004 22/22 A2984 RMK AO2 RAE05B23 P0000 T02220217,2024-08-10T04:28:00Z,22.2,21.7,6,29.84
KEVM,47.4274,-92.4972,320,11,12.66,KEVM 100428Z AUTO 32011G20KT 10SM BKN023 BKN029 OVC035 12/09 A3005 RMK AO2,2024-08-10T04:28:00Z,12,9,10+,30.05
KASH,42.7798,-71.5141,0,0,0.0,KASH 100428Z AUTO 00000KT 10SM FEW010 BKN015 OVC026 24/ A2981 RMK AO2 RAE12 P0000,2024-08-10T04:28:00Z,24,,10+,29.81
CWSA,43.933,-60.002,,,,CWSA 100428Z AUTO /////KT 5SM BR SCT018 BKN023 BKN035 BKN055 21/20 A3017 RMK WIND MISG SLP217 DENSITY ALT 400FT,2024-08-10T04:28:00Z,21,20,5,30.17
PFWS,58.704,-157.005,180,8,9.21,PFWS 100427Z AUTO 18008KT 10SM -RA BKN027 OVC055 10/08 A3002 RMK AO2 RAB11 P0000,2024-08-10T04:27:00Z,10,8,10+,30.02
KNKT,34.897,-76.881,190,6,6.9,KNKT 100427Z 19006KT 8SM SCT008 OVC012 26/26 A2996 RMK AO2 T02610256,2024-08-10T04:27:00Z,26.1,25.6,8,29.96
KNBT,35.022,-76.463,190,8,9.21,KNBT 100427Z AUTO 19008KT 10SM SCT018 BKN055 OVC085 30/26 A2996 RMK AO2 T03000256 $,2024-08-10T04:27:00Z,30,25.6,10+,29.96
KCRQ,33.1299,-117.277,0,0,0.0,KCRQ 100427Z AUTO 00000KT 10SM SCT011 19/17 A2988 RMK AO2 T01940167,2024-08-10T04:27:00Z,19.4,16.7,10+,29.88
RJCN,43.578,144.96,50,11,12.66,RJCN 100426Z 05011KT 7000 FEW004 BKN005 BKN006 21/20 Q1008 RMK 2ST004 5ST005 6ST006 A2977,2024-08-10T04:26:00Z,21,20,4.35,29.76
KPVG,36.7824,-76.452,,,,KPVG 100426Z AUTO BKN003 24/24 A2994 RMK AO2 PWINO RVRNO $,2024-08-10T04:26:00Z,24,24,,29.94
KOKB,33.2195,-117.35,230,3,3.45,KOKB 100426Z AUTO 23003KT 8SM SCT013 21/17 A2988 RMK AO2 T02110172,2024-08-10T04:26:00Z,21.1,17.2,8,29.88
CYVO,48.056,-77.779,180,3,3.45,CYVO 100426Z AUTO 18003KT 130V200 9SM FEW007 SCT022 17/17 A2969 RMK SLP059 DENSITY ALT 1900FT,2024-08-10T04:26:00Z,17,17,9,29.69
PHBK,22.034,-159.783,190,9,10.36,PHBK 100425Z AUTO 19009KT 10SM SCT050 29/21 A2994 RMK AO2 T02940211,2024-08-10T04:25:00Z,29.4,21.1,10+,29.94
OPLA,31.522,74.404,110,6,6.9,OPLA 100425Z 11006KT 5000 FU SCT040 32/26 Q1003 BECMG 6000 RMK QFE978 A29.64,2024-08-10T04:25:00Z,32,26,3.11,29.62
KW40,35.2211,-78.0404,190,4,4.6,KW40 100425Z AUTO 19004KT 7SM OVC005 24/24 A2995 RMK AO2 T02430237,2024-08-10T04:25:00Z,24.3,23.7,7,29.95
KW29,38.9777,-76.3276,220,6,6.9,KW29 100425Z AUTO 22006KT 10SM SCT055 SCT090 26/ A2989 RMK AO2 T0257////,2024-08-10T04:25:00Z,25.7,,10+,29.89
KVUJ,35.4173,-80.1508,0,0,0.0,KVUJ 100425Z AUTO 00000KT 10SM SCT050 SCT060 SCT080 26/25 A3000 RMK AO2 LTG DSNT NE E AND W T02560245,2024-08-10T04:25:00Z,25.6,24.5,10+,30.00
KUKF,36.2188,-81.1002,0,0,0.0,KUKF 100425Z AUTO 00000KT 10SM SCT065 21/21 A3006 RMK AO2,2024-08-10T04:25:00Z,21,21,10+,30.06
KTTA,35.5762,-79.1035,0,0,0.0,KTTA 100425Z AUTO 00000KT 7SM CLR 23/23 A2995 RMK AO2 T02320232,2024-08-10T04:25:00Z,23.2,23.2,7,29.95
KTDF,36.284,-78.9884,0,0,0.0,KTDF 100425Z AUTO 00000KT 10SM TS BKN027 BKN049 21/21 A2998 RMK AO2 LTG DSNT N AND E,2024-08-10T04:25:00Z,21,21,10+,29.98
KSVH,35.7635,-80.9473,0,0,0.0,KSVH 100425Z AUTO 00000KT 10SM BKN050 BKN065 OVC090 24/23 A3000 RMK AO2 T02380232,2024-08-10T04:25:00Z,23.8,23.2,10+,30.00
KSIF,36.4408,-79.8544,0,0,0.0,KSIF 100425Z AUTO 00000KT 10SM CLR 24/23 A2996 RMK AO2 T02400233,2024-08-10T04:25:00Z,24,23.3,10+,29.96
KSFM,43.3876,-70.7154,190,4,4.6,KSFM 100425Z AUTO 19004KT 7SM -RA SCT009 BKN017 OVC025 24/23 A2980 RMK AO2 PNO $,2024-08-10T04:25:00Z,24,23,7,29.80
KSCR,35.7058,-79.5051,0,0,0.0,KSCR 100425Z AUTO 00000KT 10SM CLR 24/24 A2996 RMK AO2 T02400240,2024-08-10T04:25:00Z,24,24,10+,29.96
KRUQ,35.6441,-80.5236,290,5,5.75,KRUQ 100425Z AUTO 29005KT 4SM +RA SCT008 BKN036 OVC055 24/23 A2999 RMK AO2 P0018 T02350225,2024-08-10T04:25:00Z,23.5,22.5,4,29.99
KNFE,36.701,-76.129,180,4,4.6,KNFE 100425Z AUTO 18004KT 6SM BR OVC004 26/24 A2993 RMK AO2 T02610239,2024-08-10T04:25:00Z,26.1,23.9,6,29.93
KMTJ,38.5054,-107.898,160,6,6.9,KMTJ 100425Z AUTO 16006KT 10SM -RA FEW009 OVC100 17/16 A3036 RMK AO2 LTG DSNT S P0001 T01670156,2024-08-10T04:25:00Z,16.7,15.6,10+,30.36
KMRN,35.8192,-81.6097,0,0,0.0,KMRN 100425Z AUTO 00000KT 7SM CLR 23/23 A3001 RMK AO2 T02280225,2024-08-10T04:25:00Z,22.8,22.5,7,30.01
KLND,42.8154,-108.726,260,6,6.9,KLND 100425Z AUTO 26006KT 10SM FEW055 FEW110 16/12 A3024 RMK AO2 RAB00E13 P0000 T01610117,2024-08-10T04:25:00Z,16.1,11.7,10+,30.24
KLHZ,36.0229,-78.3341,180,3,3.45,KLHZ 100425Z AUTO 18003KT 5SM BR SCT100 23/23 A2996 RMK AO2,2024-08-10T04:25:00Z,23,23,5,29.96
KJQF,35.3896,-80.7074,360,5,5.75,KJQF 100425Z AUTO 36005KT 10SM CLR 25/22 A3000 RMK AO2 LTG DSNT NE AND E,2024-08-10T04:25:00Z,25,22,10+,30.00
KJNX,35.5369,-78.3934,0,0,0.0,KJNX 100425Z AUTO 00000KT 10SM SCT011 BKN065 BKN110 25/24 A2993 RMK AO2 LTG DSNT W AND NW,2024-08-10T04:25:00Z,25,24,10+,29.93
KISP,40.7939,-73.1018,210,11,12.66,KISP 100425Z AUTO 21011G22KT 3SM -RA BR OVC004 23/22 A2984 RMK AO2 P0004 T02280222,2024-08-10T04:25:00Z,22.8,22.2,3,29.84
KISO,35.324,-77.6187,160,3,3.45,KISO 100425Z AUTO 16003KT 10SM SCT013 24/23 A2996 RMK AO2 T02400234,2024-08-10T04:25:00Z,24,23.4,10+,29.96
KIPJ,35.4861,-81.1564,0,0,0.0,KIPJ 100425Z AUTO 00000KT 10SM BKN041 BKN048 OVC070 24/22 A2998 RMK AO2 T02420219,2024-08-10T04:25:00Z,24.2,21.9,10+,29.98
KHBI,35.6527,-79.8942,340,5,5.75,KHBI 100425Z AUTO 34005KT 10SM OVC022 26/24 A3000 RMK AO2 T02600237,2024-08-10T04:25:00Z,26,23.7,10+,30.00
KGSB,35.3446,-77.9458,0,0,0.0,KGSB 100425Z AUTO 00000KT 10SM OVC007 25/24 M RMK AO2 SLPNO VISNO RWY08 CHINO RWY08 $,2024-08-10T04:25:00Z,25,24,10+,
KGEV,36.4312,-81.4206,0,0,0.0,KGEV 100425Z AUTO 00000KT 10SM CLR 20/17 A3013 RMK AO2 LTG DSNT E T02030166,2024-08-10T04:25:00Z,20.3,16.6,10+,30.13
KFQD,35.43,-81.936,0,0,0.0,KFQD 100425Z AUTO 00000KT 10SM BKN047 23/22 A3001 RMK AO2 LTG DSNT SE AND SW,2024-08-10T04:25:00Z,23,22,10+,30.01
KEXX,35.7804,-80.3084,180,4,4.6,KEXX 100425Z AUTO 18004KT 7SM DZ SCT021 SCT075 OVC100 23/23 A2999 RMK AO2 P0001 T02300230,2024-08-10T04:25:00Z,23,23,7,29.99
KESN,38.804,-76.069,190,5,5.75,KESN 100425Z AUTO 19005KT 10SM FEW085 25/24 A2989 RMK AO2 T02470240,2024-08-10T04:25:00Z,24.7,24,10+,29.89
KDPL,34.9994,-77.9799,0,0,0.0,KDPL 100425Z AUTO 00000KT 5SM HZ BKN006 24/ A2995 RMK AO2,2024-08-10T04:25:00Z,24,,5,29.95
KDMW,39.61,-77.007,0,0,0.0,KDMW 100425Z AUTO 00000KT 10SM CLR 25/22 A2993 RMK AO2,2024-08-10T04:25:00Z,25,22,10+,29.93
KCTZ,34.9752,-78.3627,0,0,0.0,KCTZ 100425Z AUTO 00000KT 1 3/4SM OVC003 25/25 A2995 RMK AO2 T02500250,2024-08-10T04:25:00Z,25,25,1.75,29.95
KCQX,41.6878,-69.9932,190,11,12.66,KCQX 100425Z AUTO 19011G21KT 9SM FEW023 BKN031 OVC037 24/23 A2992 RMK AO2 T02440228,2024-08-10T04:25:00Z,24.4,22.8,9,29.92
KCPC,34.2753,-78.7146,200,3,3.45,KCPC 100425Z AUTO 20003KT 4SM BR BKN008 26/25 A2996 RMK AO2 T02610251,2024-08-10T04:25:00Z,26.1,25.1,4,29.96
KCGE,38.5372,-76.0309,180,5,5.75,KCGE 100425Z AUTO 18005KT 10SM SCT050 SCT065 OVC080 25/24 A2991 RMK A01,2024-08-10T04:25:00Z,25,24,10+,29.91
KCBE,39.6182,-78.7598,0,0,0.0,KCBE 100425Z AUTO 00000KT 10SM CLR 21/19 A3000 RMK AO2 T02080187,2024-08-10T04:25:00Z,20.8,18.7,10+,30.00
KBOK,42.0754,-124.29,0,0,0.0,KBOK 100425Z AUTO 00000KT 1/2SM -RA FG OVC002 13/13 A3002 RMK AO2 RAB20 P0000,2024-08-10T04:25:00Z,13,13,0.5,30.02
KASJ,36.2941,-77.1724,0,0,0.0,KASJ 100425Z AUTO 00000KT 10SM CLR 23/23 A2994 RMK AO2 T02340234,2024-08-10T04:25:00Z,23.4,23.4,10+,29.94
KAFF,38.971,-104.816,0,0,0.0,KAFF 100425Z AUTO 00000KT 10SM FEW008 OVC100 14/13 A3033 RMK AO2 SLP211,2024-08-10T04:25:00Z,14,13,10+,30.33
KACZ,34.718,-78.005,140,3,3.45,KACZ 100425Z AUTO 14003KT 7SM BR BKN110 24/23 A2995 RMK AO2 T02390235,2024-08-10T04:25:00Z,23.9,23.5,7,29.95
K7W6,35.5594,-75.955,200,4,4.6,K7W6 100425Z AUTO 20004KT 10SM SCT027 26/25 A2996 RMK AO2 T02550245,2024-08-10T04:25:00Z,25.5,24.5,10+,29.96
K2G4,39.5827,-79.3418,VRB,6,6.9,K2G4 100425Z AUTO VRB06KT 10SM FEW047 19/17 A3005 RMK AO2,2024-08-10T04:25:00Z,19,17,10+,30.05
K1YT,46.668,-120.457,350,11,12.66,K1YT 100425Z AUTO 35011G20KT 10SM FEW027 SCT110 OVC150 25/12 A2991 RMK AO2 RAE25 TSE01 SLP120 $,2024-08-10T04:25:00Z,25,12,10+,29.91
K1A5,35.2228,-83.415,0,0,0.0,K1A5 100425Z AUTO 00000KT 7SM CLR 20/19 A3010 RMK AO2 T01970192,2024-08-10T04:25:00Z,19.7,19.2,7,30.10
K0W3,39.566,-76.202,230,3,3.45,K0W3 100425Z AUTO 23003KT 8SM BKN007 24/24 A2990 RMK AO2 T02360236 $,2024-08-10T04:25:00Z,23.6,23.6,8,29.90
ETAR,49.437,7.6,0,0,0.0,ETAR 100425Z AUTO 00000KT 9999 SCT028 BKN034 OVC070 17/16 A3012 RMK AO2 SLP200 $,2024-08-10T04:25:00Z,17,16,6+,30.12
EHVL,53.297,5.086,260,8,9.21,EHVL 100425Z AUTO 26008KT 9999 SCT066 18/15 Q1016 BLU,2024-08-10T04:25:00Z,18,15,6+,30.00
EHVK,51.658,5.707,220,8,9.21,EHVK 100425Z AUTO 22008KT 190V260 9999 FEW009 OVC049 15/14 Q1018 BLU,2024-08-10T04:25:00Z,15,14,6+,30.06
EHSC,51.926,3.67,270,17,19.56,EHSC 100425Z AUTO 27017KT 9999 ///////// 19/14 Q1018 W20/H10,2024-08-10T04:25:00Z,19,14,6+,30.06
EHSA,51.998,3.275,260,16,18.41,EHSA 100425Z AUTO 26016KT 9999 ///////// 18/14 Q1018 W19/H10,2024-08-10T04:25:00Z,18,14,6+,30.06
EHRD,51.954,4.444,230,5,5.75,EHRD 100425Z AUTO 23005KT 9999 NCD 16/15 Q1017 NOSIG,2024-08-10T04:25:00Z,16,15,6+,30.03
EHPG,52.36,3.342,VRB,12,13.81,EHPG 100425Z AUTO VRB12KT 9999 NCD 18/14 Q1018,2024-08-10T04:25:00Z,18,14,6+,30.06
EHMG,53.614,4.96,240,8,9.21,EHMG 100425Z AUTO 24008KT 9999 NSC 19/13 Q1016,2024-08-10T04:25:00Z,19,13,6+,30.00
EHMA,53.492,5.942,230,7,8.06,EHMA 100425Z AUTO 23007KT 200V260 9999 FEW019 18/16 Q1016,2024-08-10T04:25:00Z,18,16,6+,30.00
EHLE,52.456,5.522,210,7,8.06,EHLE 100425Z AUTO 21007KT 8000 FEW009 16/15 Q1017,2024-08-10T04:25:00Z,16,15,4.97,30.03
EHKV,53.269,3.628,290,17,19.56,EHKV 100425Z AUTO 29017KT 9999 NSC 18/14 Q1016,2024-08-10T04:25:00Z,18,14,6+,30.00
EHKD,52.927,4.781,270,8,9.21,EHKD 100425Z AUTO 27008KT 9999 NCD 18/16 Q1016 BLU,2024-08-10T04:25:00Z,18,16,6+,30.00
EHJR,53.218,3.22,260,14,16.11,EHJR 100425Z AUTO 26014KT //// // ///////// 18/14 Q1016 RE// W18/H9,2024-08-10T04:25:00Z,18,14,,30.00
EHJA,53.824,2.945,230,18,20.71,EHJA 100425Z AUTO 23018KT 9999 NSC 17/13 Q1015,2024-08-10T04:25:00Z,17,13,6+,29.97
EHHW,54.037,6.042,250,13,14.96,EHHW 100425Z AUTO 25013KT 9999 NSC 19/11 Q1015,2024-08-10T04:25:00Z,19,11,6+,29.97
EHGR,51.565,4.935,210,5,5.75,EHGR 100425Z AUTO 21005KT 180V260 9000 BR NCD 14/14 Q1018 BLU,2024-08-10T04:25:00Z,14,14,5.59,30.06
EHGG,53.12,6.579,200,4,4.6,EHGG 100425Z AUTO 20004KT 9999 NSC 13/13 Q1016,2024-08-10T04:25:00Z,13,13,6+,30.00
EHFS,51.441,3.596,220,11,12.66,EHFS 100425Z AUTO 22011KT 6000 NCD 16/16 Q1018,2024-08-10T04:25:00Z,16,16,3.73,30.06
EHFD,54.854,4.696,260,25,28.77,EHFD 100425Z AUTO 26025KT 9999 NSC 18/13 Q1013,2024-08-10T04:25:00Z,18,13,6+,29.91
EHDV,54.326,2.936,240,17,19.56,EHDV 100425Z AUTO 24017KT 9999 NCD 17/13 Q1014,2024-08-10T04:25:00Z,17,13,6+,29.94
EHDL,52.061,5.887,220,6,6.9,EHDL 100425Z AUTO 22006KT 140V270 8000 BR OVC006 15/15 Q1018 YLO,2024-08-10T04:25:00Z,15,15,4.97,30.06
EHBK,50.905,5.762,220,11,12.66,EHBK 100425Z AUTO 22011KT 9999 FEW012 OVC015 15/13 Q1020 NOSIG,2024-08-10T04:25:00Z,15,13,6+,30.12
EHAM,52.315,4.79,200,8,9.21,EHAM 100425Z 20008KT 9000 NSC 17/16 Q1017 NOSIG,2024-08-10T04:25:00Z,17,16,5.59,30.03
EHAK,55.399,3.81,250,23,26.47,EHAK 100425Z AUTO 25023KT //// // FEW038/// 17/14 Q1012 RE//,2024-08-10T04:25:00Z,17,14,,29.88
EBLB,50.482,6.181,VRB,1,1.15,EBLB 100425Z AUTO VRB01KT 9999 NCD 11/10 Q1021 BLU,2024-08-10T04:25:00Z,11,10,6+,30.15
EBFS,50.243,4.646,260,6,6.9,EBFS 100425Z AUTO 26006KT 9999 FEW220/// 13/13 Q1021 BLU,2024-08-10T04:25:00Z,13,13,6+,30.15
EBFN,51.09,2.653,220,4,4.6,EBFN 100425Z AUTO 22004KT 4600 BR NCD 14/14 Q1019 GRN,2024-08-10T04:25:00Z,14,14,2.86,30.09
EBDT,51.005,5.067,210,3,3.45,EBDT 100425Z AUTO 21003KT 9999 NCD 14/13 Q1019 BLU,2024-08-10T04:25:00Z,14,13,6+,30.09
EBCV,50.576,3.831,220,6,6.9,EBCV 100425Z AUTO 22006KT 9999 SCT095/// BKN110/// OVC120/// 14/13 Q1020 BLU,2024-08-10T04:25:00Z,14,13,6+,30.12
EBBE,50.759,4.768,220,7,8.06,EBBE 100425Z AUTO 22007KT 9999 SCT006/// 14/13 Q1020 YLO,2024-08-10T04:25:00Z,14,13,6+,30.12
CBBC,52.181,-128.154,VRB,2,2.3,CBBC 100425Z AUTO VRB02KT 6SM -RA BR CLR 15/15 A3001 RMK SLP163,2024-08-10T04:25:00Z,15,15,6,30.01
PAGH,66.886,-157.159,290,11,12.66,PAGH 100424Z AUTO 29011G14KT 9SM -RA FEW008 BKN031 OVC055 09/08 A2981 RMK AO2 RAB05 P0002,2024-08-10T04:24:00Z,9,8,9,29.81
KLAX,33.9382,-118.387,260,7,8.06,KLAX 100424Z 26007KT 10SM SCT008 18/16 A2988 RMK AO2 T01780156 $,2024-08-10T04:24:00Z,17.8,15.6,10+,29.88
KIJD,41.7425,-72.1825,190,10,11.51,KIJD 100424Z AUTO 19010G22KT 10SM OVC014 24/23 A2983 RMK AO2 T02440228,2024-08-10T04:24:00Z,24.4,22.8,10+,29.83
KFHU,31.586,-110.348,50,5,5.75,KFHU 100424Z AUTO 05005KT 10SM OVC120 25/13 A3014 RMK AO2 SLP132,2024-08-10T04:24:00Z,25,13,10+,30.14
PAQH,59.751,-161.842,150,15,17.26,PAQH 100423Z AUTO 15015KT 10SM SCT009 BKN028 OVC036 10/09 A2984 RMK AO2 RAB05E22 P0000,2024-08-10T04:23:00Z,10,9,10+,29.84
KSFY,42.0454,-90.1101,300,8,9.21,KSFY 100423Z AUTO 30008KT 10SM CLR 16/10 A3010 RMK AO2,2024-08-10T04:23:00Z,16,10,10+,30.10
KNCA,34.7062,-77.4406,0,0,0.0,KNCA 100423Z AUTO 00000KT 9SM BKN013 BKN090 24/24 A2995 RMK AO2 T02440239,2024-08-10T04:23:00Z,24.4,23.9,9,29.95
KLAR,41.3165,-105.673,40,16,18.41,KLAR 100423Z AUTO 04016G23KT 3SM +RA BR FEW007 OVC031 11/09 A3041 RMK AO2 PK WND 36035/0356 LTG DSNT NE AND E PRESFR P0024 T01060089,2024-08-10T04:23:00Z,10.6,8.9,3,30.41
PAMB,58.986,-159.05,190,9,10.36,PAMB 100422Z AUTO 19009KT 10SM -RA SCT010 BKN021 OVC042 09/09 A2996 RMK AO2 RAB03 P0000,2024-08-10T04:22:00Z,9,9,10+,29.96
KOWD,42.1912,-71.1732,190,9,10.36,KOWD 100422Z AUTO 19009KT 10SM FEW015 BKN022 OVC044 26/24 A2983 RMK AO2 T02610239 PWINO $,2024-08-10T04:22:00Z,26.1,23.9,10+,29.83
KIZG,43.9899,-70.9501,170,5,5.75,KIZG 100422Z AUTO 17005KT 3SM RA BR SCT015 SCT028 OVC038 23/22 A2977 RMK AO2 P0010 T02280222,2024-08-10T04:22:00Z,22.8,22.2,3,29.77
KBED,42.4681,-71.2946,190,14,16.11,KBED 100422Z AUTO 19014G22KT 10SM FEW014 SCT027 SCT110 24/23 A2980 RMK AO2 RAE18 P0000 T02440228,2024-08-10T04:22:00Z,24.4,22.8,10+,29.80
RJEB,44.304,143.404,20,6,6.9,RJEB 100421Z 02006KT 1500 R32/1200V2000N -DZ BR FEW002 BKN003 17/17 Q1010 RMK 1ST002 7ST003 A2983,2024-08-10T04:21:00Z,17,17,0.93,29.82
PABE,60.785,-161.829,160,12,13.81,PABE 100421Z 16012KT 10SM -RA BKN010 BKN022 OVC065 09/09 A2983 RMK AO2 P0000 T00890089,2024-08-10T04:21:00Z,8.9,8.9,10+,29.83
KUUU,41.5299,-71.2833,180,14,16.11,KUUU 100421Z AUTO 18014G25KT 5SM -RA BR BKN005 BKN013 OVC018 23/23 A2987 RMK AO2 P0000 T02330228,2024-08-10T04:21:00Z,23.3,22.8,5,29.87
KORF,36.9037,-76.1927,200,8,9.21,KORF 100421Z 20008KT 10SM FEW009 OVC070 26/24 A2993 RMK AO2 T02560239,2024-08-10T04:21:00Z,25.6,23.9,10+,29.93
EEEI,59.26,24.209,160,8,9.21,EEEI 100421Z AUTO 16008KT 9999 -RA BKN007/// OVC009/// 16/16 Q1003,2024-08-10T04:21:00Z,16,16,6+,29.62
PAPO,68.345,-166.807,230,6,6.9,PAPO 100420Z AUTO 23006KT 10SM SCT009 BKN041 05/02 A2977 RMK AO2,2024-08-10T04:20:00Z,5,2,10+,29.77
MMMZ,23.161,-106.271,40,10,11.51,MMMZ 100420Z 04010KT 6SM -TSRA BKN018CB OVC025 24/22 A2988 RMK 8/9// RA B15 FQT LTGIC ALQUADS,2024-08-10T04:20:00Z,24,22,6,29.88
LWSK,41.952,21.627,160,3,3.45,LWSK 100420Z 16003KT 130V190 CAVOK 19/13 Q1019 NOSIG,2024-08-10T04:20:00Z,19,13,6+,30.09
LTFM,41.262,28.74,360,16,18.41,LTFM 100420Z 36016KT 9999 FEW015 SCT020 25/20 Q1015 NOSIG RMK RWY17L 36014KT RWY34L 35014KT RWY16R 35012KT RWY36 36015KT RWY18 36014KT,2024-08-10T04:20:00Z,25,20,6+,29.97
LTFJ,40.899,29.309,40,4,4.6,LTFJ 100420Z 04004KT 360V070 9999 SCT023 24/21 Q1014 NOSIG RMK RWY24R VRB02KT RWY06R 04004KT RWY24L 03005KT,2024-08-10T04:20:00Z,24,21,6+,29.94
LTFE,37.245,27.673,0,0,0.0,LTFE 100420Z 00000KT CAVOK 20/18 Q1009 NOSIG RMK RWY10 10003KT,2024-08-10T04:20:00Z,20,18,6+,29.79
LTFC,37.855,30.368,0,0,0.0,LTFC 100420Z 00000KT CAVOK 22/13 Q1014 RMK RWY23 VRB01KT,2024-08-10T04:20:00Z,22,13,6+,29.94
LTCS,37.445,38.904,300,6,6.9,LTCS 100420Z 30006KT CAVOK 31/06 Q1009 RMK RWY22 33004KT SKC,2024-08-10T04:20:00Z,31,6,6+,29.79
LTCJ,37.93,41.117,30,5,5.75,LTCJ 100420Z 03005KT 360V060 CAVOK 23/13 Q1007 NOSIG RMK RWY20 36003KT 330V030 SKC,2024-08-10T04:20:00Z,23,13,6+,29.73
LTCG,40.995,39.782,210,5,5.75,LTCG 100420Z 21005KT CAVOK 25/19 Q1012 NOSIG RMK RWY29 21003KT,2024-08-10T04:20:00Z,25,19,6+,29.88
LTCE,39.956,41.17,VRB,2,2.3,LTCE 100420Z VRB02KT CAVOK 17/10 Q1019 NOSIG RMK RWY08R VRB01KT RWY26R 24002KT RWY08L 00000KT SKC,2024-08-10T04:20:00Z,17,10,6+,30.09
LTCC,37.894,40.201,320,9,10.36,LTCC 100420Z 32009KT CAVOK 32/01 Q1008 NOSIG RMK RWY16 31009KT 270V350 SKC,2024-08-10T04:20:00Z,32,1,6+,29.76
LTBU,41.139,27.919,350,10,11.51,LTBU 100420Z 35010KT 9999 FEW025 SCT120 23/20 Q1015 RMK RWY22 36009KT,2024-08-10T04:20:00Z,23,20,6+,29.97
LTBS,36.713,28.793,80,4,4.6,LTBS 100420Z 08004KT CAVOK 24/19 Q1008 NOSIG RMK RWY19 VRB02KT SKC,2024-08-10T04:20:00Z,24,19,6+,29.76
LTBR,40.255,29.562,0,0,0.0,LTBR 100420Z 00000KT 9999 SCT035 20/19 Q1014 NOSIG RMK RWY07 18003KT 140V220,2024-08-10T04:20:00Z,20,19,6+,29.94
LTBJ,38.285,27.155,340,16,18.41,LTBJ 100420Z 34016KT CAVOK 26/17 Q1011 NOSIG RMK RWY16 36014KT,2024-08-10T04:20:00Z,26,17,6+,29.85
LTBA,40.982,28.821,10,7,8.06,LTBA 100420Z 01007KT 9999 FEW032 26/20 Q1014 RMK RWY23 01008KT,2024-08-10T04:20:00Z,26,20,6+,29.94
LTAZ,38.771,34.521,0,0,0.0,LTAZ 100420Z 00000KT CAVOK 19/10 Q1015 RMK RWY29 VRB02KT,2024-08-10T04:20:00Z,19,10,6+,29.97
LTAU,38.77,35.495,40,6,6.9,LTAU 100420Z 04006KT CAVOK 20/11 Q1015 NOSIG RMK RWY07 05008KT,2024-08-10T04:20:00Z,20,11,6+,29.97
LTAT,38.435,38.092,110,4,4.6,LTAT 100420Z 11004KT CAVOK 26/06 Q1012 NOSIG RMK RWY03 08003KT 050V120,2024-08-10T04:20:00Z,26,6,6+,29.88
LTAP,40.826,35.52,260,5,5.75,LTAP 100420Z 26005KT 230V290 CAVOK 20/14 Q1014 NOSIG RMK RWY23 23004KT 150V270,2024-08-10T04:20:00Z,20,14,6+,29.94
LTAJ,36.947,37.479,VRB,3,3.45,LTAJ 100420Z VRB03KT CAVOK 29/15 Q1009 NOSIG RMK RWY10 34003KT 280V040 SKC,2024-08-10T04:20:00Z,29,15,6+,29.79
LTAI,36.9,30.798,30,3,3.45,LTAI 100420Z 03003KT 010V070 CAVOK 27/23 Q1008 NOSIG RMK RWY18C 33003KT 300V010 RWY36R 06004KT RWY18L 03002KT,2024-08-10T04:20:00Z,27,23,6+,29.76
LTAG,37.002,35.426,150,3,3.45,LTAG 100420Z 15003KT 9999 BKN030 28/24 Q1007 NOSIG RMK 5CU030,2024-08-10T04:20:00Z,28,24,6+,29.73
LTAF,36.989,35.293,VRB,1,1.15,LTAF 100420Z VRB01KT 9999 SCT025 28/26 Q1008 NOSIG RMK RWY23 24003KT 4CU025,2024-08-10T04:20:00Z,28,26,6+,29.76
LTAC,40.128,32.995,50,2,2.3,LTAC 100420Z 05002KT 9999 FEW040 SCT100 21/13 Q1015 NOSIG RMK RWY21L 02004KT 340V080 RWY03L 03007KT 360V060 RWY21R 36005KT,2024-08-10T04:20:00Z,21,13,6+,29.97
LSZS,46.526,9.879,VRB,1,1.15,LSZS 100420Z AUTO VRB01KT 5000 NCD 07/07 Q1029,2024-08-10T04:20:00Z,7,7,3.11,30.38
LSZR,47.485,9.561,130,2,2.3,LSZR 100420Z AUTO 13002KT 9999 SCT060 18/18 Q1022,2024-08-10T04:20:00Z,18,18,6+,30.18
LSZL,46.164,8.878,0,0,0.0,LSZL 100420Z AUTO 00000KT 9999NDV NCD 20/19 Q1020 RMK,2024-08-10T04:20:00Z,20,19,,30.12
LSZH,47.48,8.536,330,2,2.3,LSZH 100420Z 33002KT 9999 FEW055 17/16 Q1023 NOSIG,2024-08-10T04:20:00Z,17,16,6+,30.21
LSZG,47.179,7.415,VRB,1,1.15,LSZG 100420Z AUTO VRB01KT 9999 NCD 16/15 Q1022,2024-08-10T04:20:00Z,16,15,6+,30.18
LSZC,46.972,8.392,240,4,4.6,LSZC 100420Z AUTO 24004KT CAVOK 18/16 Q1023,2024-08-10T04:20:00Z,18,16,6+,30.21
LSZB,46.914,7.497,120,3,3.45,LSZB 100420Z 12003KT 090V170 CAVOK 15/15 Q1023,2024-08-10T04:20:00Z,15,15,6+,30.21
LSZA,46.004,8.91,VRB,1,1.15,LSZA 100420Z AUTO VRB01KT CAVOK 20/18 Q1020,2024-08-10T04:20:00Z,20,18,6+,30.12
LSMP,46.844,6.916,0,0,0.0,LSMP 100420Z AUTO 00000KT 9999NDV NCD 16/15 Q1022 RMK,2024-08-10T04:20:00Z,16,15,,30.18
LSMM,46.743,8.11,0,0,0.0,LSMM 100420Z AUTO 00000KT 9999NDV NCD 16/15 Q1023 RMK,2024-08-10T04:20:00Z,16,15,,30.21
LSME,47.092,8.305,0,0,0.0,LSME 100420Z AUTO 00000KT 9999NDV NCD 16/16 Q1022 RMK,2024-08-10T04:20:00Z,16,16,,30.18
LSMD,47.399,8.648,140,2,2.3,LSMD 100420Z AUTO 14002KT 9999NDV NCD 17/16 Q1023 RMK,2024-08-10T04:20:00Z,17,16,,30.21
LSMA,46.943,8.286,190,3,3.45,LSMA 100420Z AUTO 19003KT 170V230 9999NDV NCD 17/16 Q1023 RMK,2024-08-10T04:20:00Z,17,16,,30.21
LSGS,46.219,7.33,VRB,2,2.3,LSGS 100420Z AUTO VRB02KT CAVOK 18/15 Q1023,2024-08-10T04:20:00Z,18,15,6+,30.21
LSGG,46.248,6.128,VRB,1,1.15,LSGG 100420Z AUTO VRB01KT CAVOK 18/15 Q1022 NOSIG,2024-08-10T04:20:00Z,18,15,6+,30.18
LSGC,47.083,6.792,VRB,1,1.15,LSGC 100420Z AUTO VRB01KT CAVOK 12/12 Q1025,2024-08-10T04:20:00Z,12,12,6+,30.27
LOWW,48.117,16.582,180,5,5.75,LOWW 100420Z 18005KT CAVOK 17/14 Q1020 NOSIG,2024-08-10T04:20:00Z,17,14,6+,30.12
LOWS,47.789,13.009,170,4,4.6,LOWS 100420Z AUTO 17004KT 9999 FEW050 17/16 Q1022 NOSIG,2024-08-10T04:20:00Z,17,16,6+,30.18
LOWL,48.233,14.188,VRB,1,1.15,LOWL 100420Z AUTO VRB01KT 9999 NCD 17/15 Q1021 NOSIG,2024-08-10T04:20:00Z,17,15,6+,30.15
LOWK,46.648,14.318,VRB,2,2.3,LOWK 100420Z VRB02KT CAVOK 17/16 Q1023 NOSIG,2024-08-10T04:20:00Z,17,16,6+,30.21
LOWI,47.26,11.344,VRB,2,2.3,LOWI 100420Z AUTO VRB02KT 9999 NCD 16/15 Q1024 NOSIG,2024-08-10T04:20:00Z,16,15,6+,30.24
LOWG,46.997,15.447,VRB,1,1.15,LOWG 100420Z AUTO VRB01KT 9999 NCD 17/16 Q1021 NOSIG,2024-08-10T04:20:00Z,17,16,6+,30.15
LLBG,32.011,34.887,150,6,6.9,LLBG 100420Z 15006KT 9999 FEW027 26/22 Q1010 NOSIG,2024-08-10T04:20:00Z,26,22,6+,29.82
LIRZ,43.097,12.51,360,7,8.06,LIRZ 100420Z AUTO 36007KT //// // NCD 22/16 Q1018,2024-08-10T04:20:00Z,22,16,,30.06
LIRQ,43.81,11.205,VRB,2,2.3,LIRQ 100420Z VRB02KT CAVOK 23/18 Q1017,2024-08-10T04:20:00Z,23,18,6+,30.03
LIRN,40.885,14.292,40,3,3.45,LIRN 100420Z 04003KT CAVOK 24/20 Q1017 NOSIG,2024-08-10T04:20:00Z,24,20,6+,30.03
LIRF,41.8,12.239,40,3,3.45,LIRF 100420Z 04003KT CAVOK 22/20 Q1016 NOSIG,2024-08-10T04:20:00Z,22,20,6+,30.00
LIRA,41.808,12.585,VRB,2,2.3,LIRA 100420Z AUTO VRB02KT 9999 NCD 25/17 Q1017,2024-08-10T04:20:00Z,25,17,6+,30.03
LIPZ,45.505,12.352,40,5,5.75,LIPZ 100420Z 04005KT CAVOK 23/20 Q1018 NOSIG,2024-08-10T04:20:00Z,23,20,6+,30.06
LIPY,43.617,13.36,190,3,3.45,LIPY 100420Z AUTO 19003KT 9999 NCD 21/17 Q1018,2024-08-10T04:20:00Z,21,17,6+,30.06
LIPX,45.387,10.872,350,4,4.6,LIPX 100420Z 35004KT CAVOK 23/19 Q1018,2024-08-10T04:20:00Z,23,19,6+,30.06
LIPR,44.02,12.612,210,3,3.45,LIPR 100420Z AUTO 21003KT 9999 NCD 22/17 Q1017,2024-08-10T04:20:00Z,22,17,6+,30.03
LIPQ,45.828,13.472,10,2,2.3,LIPQ 100420Z AUTO 01002KT 9999 NCD 21/20 Q1018,2024-08-10T04:20:00Z,21,20,6+,30.06
LIPO,45.429,10.331,30,6,6.9,LIPO 100420Z AUTO 03006KT 9999 NCD 25/20 Q1018,2024-08-10T04:20:00Z,25,20,6+,30.06
LIPH,45.648,12.194,30,3,3.45,LIPH 100420Z AUTO 03003KT 360V060 9999 NCD 23/20 Q1018,2024-08-10T04:20:00Z,23,20,6+,30.06
LIPE,44.531,11.297,200,7,8.06,LIPE 100420Z 20007KT 160V220 CAVOK 24/20 Q1017,2024-08-10T04:20:00Z,24,20,6+,30.03
LIMZ,44.547,7.623,VRB,1,1.15,LIMZ 100420Z AUTO VRB01KT 9999 NCD 20/20 Q1020,2024-08-10T04:20:00Z,20,20,6+,30.12
LIMW,45.735,7.351,0,0,0.0,LIMW 100420Z 00000KT CAVOK 17/14 Q1023,2024-08-10T04:20:00Z,17,14,6+,30.21
LIML,45.461,9.263,30,3,3.45,LIML 100420Z AUTO 03003KT 360V060 9999 NCD 24/21 Q1018,2024-08-10T04:20:00Z,24,21,6+,30.06
LIMJ,44.413,8.838,40,2,2.3,LIMJ 100420Z AUTO 04002KT 9999 NCD 26/21 Q1016,2024-08-10T04:20:00Z,26,21,6+,30.00
LIMF,45.203,7.649,VRB,2,2.3,LIMF 100420Z VRB02KT CAVOK 22/19 Q1019,2024-08-10T04:20:00Z,22,19,6+,30.09
LIME,45.674,9.704,20,5,5.75,LIME 100420Z 02005KT CAVOK 23/20 Q1019 NOSIG,2024-08-10T04:20:00Z,23,20,6+,30.09
LIMC,45.631,8.728,30,2,2.3,LIMC 100420Z 03002KT CAVOK 21/19 Q1019 NOSIG,2024-08-10T04:20:00Z,21,19,6+,30.09
LIEO,40.899,9.518,VRB,1,1.15,LIEO 100420Z AUTO VRB01KT 9999 NCD 21/16 Q1017,2024-08-10T04:20:00Z,21,16,6+,30.03
LIEE,39.243,9.06,340,6,6.9,LIEE 100420Z 34006KT CAVOK 23/22 Q1016,2024-08-10T04:20:00Z,23,22,6+,30.00
LIEA,40.631,8.289,VRB,2,2.3,LIEA 100420Z VRB02KT CAVOK 17/16 Q1016,2024-08-10T04:20:00Z,17,16,6+,30.00
LICR,38.072,15.654,10,10,11.51,LICR 100420Z AUTO 01010KT 9999 NCD 28/23 Q1015,2024-08-10T04:20:00Z,28,23,6+,29.97
LICJ,38.176,13.091,50,6,6.9,LICJ 100420Z 05006KT CAVOK 26/22 Q1015,2024-08-10T04:20:00Z,26,22,6+,29.97
LICD,35.498,12.618,330,7,8.06,LICD 100420Z 33007KT CAVOK 27/27 Q1015,2024-08-10T04:20:00Z,27,27,6+,29.97
LICC,37.467,15.064,240,4,4.6,LICC 100420Z 24004KT CAVOK 24/18 Q1015,2024-08-10T04:20:00Z,24,18,6+,29.97
LICB,36.994,14.606,60,3,3.45,LICB 100420Z AUTO 06003KT 9999 NCD 23/17 Q1016,2024-08-10T04:20:00Z,23,17,6+,30.00
LICA,38.908,16.242,VRB,1,1.15,LICA 100420Z AUTO VRB01KT 9999 FEW021/// 25/21 Q1016,2024-08-10T04:20:00Z,25,21,6+,30.00
LIBR,40.658,17.951,330,14,16.11,LIBR 100420Z 33014KT CAVOK 27/22 Q1015,2024-08-10T04:20:00Z,27,22,6+,29.97
LIBP,42.432,14.181,240,4,4.6,LIBP 100420Z AUTO 24004KT 9999 NCD 20/17 Q1018,2024-08-10T04:20:00Z,20,17,6+,30.06
LIBD,41.138,16.765,250,4,4.6,LIBD 100420Z 25004KT CAVOK 24/15 Q1016,2024-08-10T04:20:00Z,24,15,6+,30.00
LGZA,37.751,20.884,0,0,0.0,LGZA 100420Z 00000KT CAVOK 23/20 Q1013,2024-08-10T04:20:00Z,23,20,6+,29.91
LGTS,40.52,22.971,280,9,10.36,LGTS 100420Z 28009KT CAVOK 26/21 Q1015 NOSIG,2024-08-10T04:20:00Z,26,21,6+,29.97
LGSR,36.399,25.479,320,6,6.9,LGSR 100420Z 32006KT CAVOK 26/19 Q1011,2024-08-10T04:20:00Z,26,19,6+,29.85
LGSO,37.422,24.95,360,12,13.81,LGSO 100420Z AUTO 36012KT //// // ////// 27/18 Q1013 RE//,2024-08-10T04:20:00Z,27,18,,29.91
LGSM,37.69,26.912,10,10,11.51,LGSM 100420Z 01010KT CAVOK 27/16 Q1009,2024-08-10T04:20:00Z,27,16,6+,29.79
LGSA,35.54,24.141,0,0,0.0,LGSA 100420Z 00000KT CAVOK 24/17 Q1012,2024-08-10T04:20:00Z,24,17,6+,29.88
LGRP,36.405,28.086,230,11,12.66,LGRP 100420Z 23011KT CAVOK 26/22 Q1008 NOSIG,2024-08-10T04:20:00Z,26,22,6+,29.76
LGPZ,38.921,20.761,0,0,0.0,LGPZ 100420Z 00000KT 9999 SCT020 24/23 Q1013,2024-08-10T04:20:00Z,24,23,6+,29.91
LGPA,37.022,25.114,340,6,6.9,LGPA 100420Z 34006KT CAVOK 25/20 Q1012,2024-08-10T04:20:00Z,25,20,6+,29.88
LGMT,39.054,26.604,290,6,6.9,LGMT 100420Z 29006KT CAVOK 25/20 Q1012,2024-08-10T04:20:00Z,25,20,6+,29.88
LGMK,37.435,25.348,360,17,19.56,LGMK 100420Z 36017KT CAVOK 25/18 Q1012,2024-08-10T04:20:00Z,25,18,6+,29.88
LGLM,39.917,25.236,VRB,2,2.3,LGLM 100420Z VRB02KT CAVOK 24/23 Q1014,2024-08-10T04:20:00Z,24,23,6+,29.94
LGKZ,40.288,21.842,350,6,6.9,LGKZ 100420Z AUTO 35006KT 290V030 //// // ////// 22/10 Q1019 RE//,2024-08-10T04:20:00Z,22,10,,30.09
LGKV,40.915,24.622,0,0,0.0,LGKV 100420Z 00000KT 9999 FEW025 20/18 Q1014,2024-08-10T04:20:00Z,20,18,6+,29.94
LGKR,39.61,19.913,VRB,2,2.3,LGKR 100420Z VRB02KT 9999 FEW020 24/22 Q1012 NOSIG,2024-08-10T04:20:00Z,24,22,6+,29.88
LGKP,35.421,27.146,290,23,26.47,LGKP 100420Z 29023KT 9999 FEW018 26/22 Q1010,2024-08-10T04:20:00Z,26,22,6+,29.82
LGKO,36.801,27.091,330,9,10.36,LGKO 100420Z 33009KT CAVOK 25/16 Q1009,2024-08-10T04:20:00Z,25,16,6+,29.79
LGKL,37.068,22.026,0,0,0.0,LGKL 100420Z 00000KT CAVOK 22/19 Q1013,2024-08-10T04:20:00Z,22,19,6+,29.91
LGIR,35.337,25.173,300,12,13.81,LGIR 100420Z 30012KT CAVOK 27/21 Q1012 NOSIG,2024-08-10T04:20:00Z,27,21,6+,29.88
LGIO,39.696,20.823,VRB,2,2.3,LGIO 100420Z AUTO VRB02KT //// // ////// 19/16 Q1017 RE//,2024-08-10T04:20:00Z,19,16,,30.03
LGEL,38.064,23.556,320,5,5.75,LGEL 100420Z 32005KT CAVOK 28/13 Q1013,2024-08-10T04:20:00Z,28,13,6+,29.91
LGBL,39.22,22.794,VRB,3,3.45,LGBL 100420Z VRB03KT 9999 FEW080 23/17 Q1015,2024-08-10T04:20:00Z,23,17,6+,29.97
LGAV,37.936,23.945,280,4,4.6,LGAV 100420Z 28004KT CAVOK 26/13 Q1014 NOSIG,2024-08-10T04:20:00Z,26,13,6+,29.94
LGAL,40.856,25.945,0,0,0.0,LGAL 100420Z 00000KT 9999 FEW030 24/19 Q1014,2024-08-10T04:20:00Z,24,19,6+,29.94
LGAD,37.923,21.287,0,0,0.0,LGAD 100420Z 00000KT CAVOK 22/19 Q1013,2024-08-10T04:20:00Z,22,19,6+,29.91
LCRA,34.59,32.988,310,2,2.3,LCRA 100420Z 31002KT 9999 FEW020 25/18 Q1008 NOSIG,2024-08-10T04:20:00Z,25,18,6+,29.76
LCEN,35.155,33.496,360,6,6.9,LCEN 100420Z 36006KT 9999 BKN015 25/22 Q1009 NOSIG RMK RWY11R 01005KT RWY29R 01005KT RWY11L 03005KT,2024-08-10T04:20:00Z,25,22,6+,29.79
KOCW,35.5703,-77.05,170,6,6.9,KOCW 100420Z AUTO 17006KT 10SM OVC008 24/23 A2997 RMK AO2 T02420230,2024-08-10T04:20:00Z,24.2,23,10+,29.97
KMQI,35.9188,-75.6989,220,13,14.96,KMQI 100420Z AUTO 22013KT 10SM OVC095 26/25 A2996 RMK AO2 T02550245,2024-08-10T04:20:00Z,25.5,24.5,10+,29.96
KMHV,35.0626,-118.157,310,23,26.47,KMHV 100420Z AUTO 31023G29KT 10SM CLR 31/01 A2992 RMK AO2,2024-08-10T04:20:00Z,31,1,10+,29.92
KGZN,32.3682,-99.026,90,7,8.06,KGZN 100420Z AUTO 09007KT 10SM OVC026 26/21 A3012 RMK AO2,2024-08-10T04:20:00Z,26,21,10+,30.12
KETC,35.9363,-77.5416,0,0,0.0,KETC 100420Z AUTO 00000KT 5SM BR SCT090 24/24 A2994 RMK AO2 T02430238,2024-08-10T04:20:00Z,24.3,23.8,5,29.94
KEHO,35.2556,-81.5986,350,5,5.75,KEHO 100420Z AUTO 35005KT 10SM OVC037 24/22 A2998 RMK AO2 T02410220,2024-08-10T04:20:00Z,24.1,22,10+,29.98
KAVP,41.3335,-75.7227,0,0,0.0,KAVP 100420Z 00000KT 8SM FEW026 OVC050 22/21 A2990 RMK AO2 T02220211,2024-08-10T04:20:00Z,22.2,21.1,8,29.90
KAST,46.157,-123.883,230,3,3.45,KAST 100420Z AUTO 23003KT 10SM OVC010 17/14 A3001 RMK AO2 T01720144 $,2024-08-10T04:20:00Z,17.2,14.4,10+,30.01
EYVI,54.634,25.286,160,4,4.6,EYVI 100420Z 16004KT 9999 SCT044 16/16 Q1012 NOSIG,2024-08-10T04:20:00Z,16,16,6+,29.88
EYSA,55.894,23.395,210,8,9.21,EYSA 100420Z 21008KT 9999 SCT005 BKN007 OVC012 17/17 Q1010 NOSIG,2024-08-10T04:20:00Z,17,17,6+,29.82
EYPA,55.973,21.092,280,6,6.9,EYPA 100420Z 28006KT 230V350 9999 SCT016 19/15 Q1009,2024-08-10T04:20:00Z,19,15,6+,29.79
EYKA,54.962,24.069,210,6,6.9,EYKA 100420Z 21006KT 170V240 9999 BKN009 OVC010 17/16 Q1011,2024-08-10T04:20:00Z,17,16,6+,29.85
EVVA,57.361,21.545,250,11,12.66,EVVA 100420Z AUTO 25011KT 9999 SCT020 18/16 Q1006,2024-08-10T04:20:00Z,18,16,6+,29.70
EVRA,56.924,23.968,200,9,10.36,EVRA 100420Z 20009KT 9999 BKN009 17/16 Q1007 BECMG SCT010,2024-08-10T04:20:00Z,17,16,6+,29.73
EVLA,56.517,21.097,270,14,16.11,EVLA 100420Z AUTO 27014G24KT 9999 SCT018/// SCT042/// 19/14 Q1008,2024-08-10T04:20:00Z,19,14,6+,29.76
EVGA,56.778,24.854,190,8,9.21,EVGA 100420Z 19008KT 9999 FEW010 BKN037 17/15 Q1008 NOSIG,2024-08-10T04:20:00Z,17,15,6+,29.76
ETWM,52.725,7.33,VRB,3,3.45,ETWM 100420Z AUTO VRB03KT //// // ////// 14/13 Q1017 ///,2024-08-10T04:20:00Z,14,13,,30.03
ETSN,48.71,11.21,290,3,3.45,ETSN 100420Z 29003KT 9999 BKN060 19/16 Q1022 BLU,2024-08-10T04:20:00Z,19,16,6+,30.18
ETSL,48.185,10.861,180,4,4.6,ETSL 100420Z AUTO 18004KT 9999 // ////// 18/15 Q1023 ///,2024-08-10T04:20:00Z,18,15,6+,30.21
ETSI,48.716,11.534,190,1,1.15,ETSI 100420Z AUTO 19001KT //// // ////// 18/16 Q1021 ///,2024-08-10T04:20:00Z,18,16,,30.15
ETSH,51.768,13.168,190,2,2.3,ETSH 100420Z 19002KT 0400 FG FEW045 15/15 Q1019 RED,2024-08-10T04:20:00Z,15,15,0.25,30.09
ETSB,50.175,7.06,,,,ETSB 100420Z AUTO /////KT //// // ////// ///// Q//// ///,2024-08-10T04:20:00Z,,,,
ETNW,52.457,9.427,150,1,1.15,ETNW 100420Z 15001KT 9999 MIFG FEW012 SCT032 BKN060 15/14 Q1018 BLU,2024-08-10T04:20:00Z,15,14,6+,30.06
ETNS,54.457,9.52,200,8,9.21,ETNS 100420Z AUTO 20008KT //// // ////// 14/12 Q1014 ///,2024-08-10T04:20:00Z,14,12,,29.94
ETNN,50.829,6.66,200,2,2.3,ETNN 100420Z 20002KT 9999 14/12 Q1019 BLU+,2024-08-10T04:20:00Z,14,12,6+,30.09
ETNL,53.916,12.279,220,6,6.9,ETNL 100420Z 22006KT 9999 BKN190 13/12 Q1016 BLU,2024-08-10T04:20:00Z,13,12,6+,30.00
ETNH,54.312,9.538,180,5,5.75,ETNH 100420Z AUTO 18005KT //// // ////// 14/13 Q1015 ///,2024-08-10T04:20:00Z,14,13,,29.97
ETMN,53.765,8.658,210,5,5.75,ETMN 100420Z 21005KT 9999 FEW020 SCT060 14/13 Q1016 BLU+,2024-08-10T04:20:00Z,14,13,6+,30.00
ETHS,52.918,10.184,VRB,1,1.15,ETHS 100420Z AUTO VRB01KT //// // ////// 10/09 Q1017 ///,2024-08-10T04:20:00Z,10,9,,30.03
ETHN,49.398,9.958,230,4,4.6,ETHN 100420Z 23004KT 9999 FEW050 17/15 Q1021 BLU+,2024-08-10T04:20:00Z,17,15,6+,30.15
ETHL,48.218,9.91,180,1,1.15,ETHL 100420Z AUTO 18001KT 9999 // ////// 16/15 Q1022 ///,2024-08-10T04:20:00Z,16,15,6+,30.18
ETHF,51.114,9.286,300,1,1.15,ETHF 100420Z AUTO 30001KT 0100 // ////// 13/13 Q1019 ///,2024-08-10T04:20:00Z,13,13,0.06,30.09
ETHB,52.279,9.082,220,3,3.45,ETHB 100420Z 22003KT 9999 FEW040 16/15 Q1017 BLU+,2024-08-10T04:20:00Z,16,15,6+,30.03
ETHA,47.834,10.867,270,2,2.3,ETHA 100420Z AUTO 27002KT 9999 // ////// 14/13 Q1024 ///,2024-08-10T04:20:00Z,14,13,6+,30.24
ETGG,54.827,9.506,210,10,11.51,ETGG 100420Z AUTO 21010KT 9999 // ////// 15/12 Q1014 ///,2024-08-10T04:20:00Z,15,12,6+,29.94
ESUT,65.806,15.083,120,14,16.11,ESUT 100420Z AUTO 12014G26KT 9999 -RA SCT032/// BKN043/// OVC061/// 13/11 Q0993,2024-08-10T04:20:00Z,13,11,6+,29.32
ESUP,67.246,23.069,110,11,12.66,ESUP 100420Z AUTO 11011KT 9999 BKN068/// BKN083/// 17/13 Q1001,2024-08-10T04:20:00Z,17,13,6+,29.56
ESTL,56.083,13.213,240,10,11.51,ESTL 100420Z AUTO 24010KT 9999 SCT049/// 15/15 Q1011,2024-08-10T04:20:00Z,15,15,6+,29.85
ESTA,56.294,12.848,270,17,19.56,ESTA 100420Z AUTO 27017KT 9999 BKN022/// OVC030/// 17/13 Q1011,2024-08-10T04:20:00Z,17,13,6+,29.85
ESSV,57.662,18.348,260,20,23.02,ESSV 100420Z AUTO 26020KT 9999 NCD 16/12 Q1006,2024-08-10T04:20:00Z,16,12,6+,29.70
ESST,60.158,12.992,250,3,3.45,ESST 100420Z AUTO 25003KT 160V310 9999 NCD 13/10 Q1000,2024-08-10T04:20:00Z,13,10,6+,29.53
ESSP,58.584,16.255,260,15,17.26,ESSP 100420Z AUTO 26015KT 9999 SCT024/// 16/12 Q1003,2024-08-10T04:20:00Z,16,12,6+,29.62
ESSL,58.406,15.681,240,14,16.11,ESSL 100420Z 24014KT CAVOK 15/11 Q1004,2024-08-10T04:20:00Z,15,11,6+,29.65
ESSD,60.422,15.515,240,8,9.21,ESSD 100420Z AUTO 24008KT 9999 NCD 15/12 Q0998,2024-08-10T04:20:00Z,15,12,6+,29.47
ESSB,59.356,17.933,240,12,13.81,ESSB 100420Z AUTO 24012KT 210V270 9999 OVC019/// 16/13 Q1001,2024-08-10T04:20:00Z,16,13,6+,29.56
ESSA,59.664,17.92,220,14,16.11,ESSA 100420Z 22014KT 9999 SCT016 BKN020 15/13 Q1000 NOSIG,2024-08-10T04:20:00Z,15,13,6+,29.53
ESPA,65.541,22.126,150,18,20.71,ESPA 100420Z AUTO 15018KT 9999 SCT012/// BKN015/// OVC021/// 18/17 Q0999,2024-08-10T04:20:00Z,18,17,6+,29.50
ESOW,59.595,16.638,230,12,13.81,ESOW 100420Z AUTO 23012KT 190V270 9999 BKN025/// 16/12 Q1001,2024-08-10T04:20:00Z,16,12,6+,29.56
ESOK,59.442,13.342,220,11,12.66,ESOK 100420Z AUTO 22011KT 9999 NCD 13/11 Q1001,2024-08-10T04:20:00Z,13,11,6+,29.56
ESOH,60.02,13.579,VRB,2,2.3,ESOH 100420Z AUTO VRB02KT 9999 NCD 12/10 Q1000,2024-08-10T04:20:00Z,12,10,6+,29.53
ESOE,59.229,15.046,240,11,12.66,ESOE 100420Z AUTO 24011KT 210V270 9999 NCD 15/12 Q1002,2024-08-10T04:20:00Z,15,12,6+,29.59
ESNZ,63.199,14.489,280,11,12.66,ESNZ 100420Z AUTO 28011KT 9999 FEW015/// BKN066/// 12/11 Q0995,2024-08-10T04:20:00Z,12,11,6+,29.38
ESNX,65.592,19.283,90,6,6.9,ESNX 100420Z AUTO 09006KT 9999 DZ BKN007/// OVC009/// 13/12 Q0998,2024-08-10T04:20:00Z,13,12,6+,29.47
ESNV,64.579,16.839,120,8,9.21,ESNV 100420Z AUTO 12008KT 9999 BKN007/// OVC011/// ///// Q0994,2024-08-10T04:20:00Z,,,6+,29.35
ESNU,63.789,20.285,130,16,18.41,ESNU 100420Z 13016KT 7000 RA FEW013 SCT019 BKN026 15/14 Q0996,2024-08-10T04:20:00Z,15,14,4.35,29.41
ESNS,64.625,21.077,100,6,6.9,ESNS 100420Z AUTO 10006KT 9999 BKN100/// 16/16 Q0997,2024-08-10T04:20:00Z,16,16,6+,29.44
ESNQ,67.823,20.34,130,3,3.45,ESNQ 100420Z AUTO 13003KT 080V180 9999 FEW016/// BKN028/// OVC048/// 12/11 Q1000,2024-08-10T04:20:00Z,12,11,6+,29.53
ESNO,63.412,18.98,180,7,8.06,ESNO 100420Z AUTO 18007KT 9999 R12///// R30/P2000N -DZ FEW008/// BKN017/// 16/15 Q0994,2024-08-10T04:20:00Z,16,15,6+,29.35
ESNN,62.532,17.436,VRB,3,3.45,ESNN 100420Z AUTO VRB03KT 9999 NCD 15/14 Q0994,2024-08-10T04:20:00Z,15,14,6+,29.35
ESNL,64.552,18.711,110,10,11.51,ESNL 100420Z AUTO 11010KT 9000 -RA FEW009/// SCT011/// BKN015/// 14/14 Q0995 REDZ,2024-08-10T04:20:00Z,14,14,5.59,29.38
ESNK,63.047,17.766,170,6,6.9,ESNK 100420Z AUTO 17006KT 9999 R17///// R35///// BKN013/// BKN027/// OVC048/// 16/15 Q0993,2024-08-10T04:20:00Z,16,15,6+,29.32
ESNG,67.133,20.81,120,3,3.45,ESNG 100420Z AUTO 12003KT 070V200 9999 BKN004/// OVC007/// 13/13 Q1000,2024-08-10T04:20:00Z,13,13,6+,29.53
ESND,62.047,14.416,250,6,6.9,ESND 100420Z AUTO 25006KT 9999 SCT069/// OVC160/// 11/09 Q0997,2024-08-10T04:20:00Z,11,9,6+,29.44
ESMX,56.927,14.73,220,10,11.51,ESMX 100420Z AUTO 22010KT 9999 BKN057/// 14/13 Q1009,2024-08-10T04:20:00Z,14,13,6+,29.79
ESMV,57.29,14.134,230,10,11.51,ESMV 100420Z AUTO 23010KT 9999 SCT016/// BKN025/// 14/12 Q1008,2024-08-10T04:20:00Z,14,12,6+,29.76
ESMT,56.691,12.82,260,18,20.71,ESMT 100420Z AUTO 26018KT 9999 FEW019/// SCT026/// 16/12 Q1010,2024-08-10T04:20:00Z,16,12,6+,29.82
ESMS,55.539,13.373,250,9,10.36,ESMS 100420Z 25009KT CAVOK 15/12 Q1012,2024-08-10T04:20:00Z,15,12,6+,29.88
ESMQ,56.685,16.284,220,8,9.21,ESMQ 100420Z AUTO 22008KT 9999 FEW023/// 14/13 Q1009,2024-08-10T04:20:00Z,14,13,6+,29.79
ESMK,55.922,14.085,240,7,8.06,ESMK 100420Z AUTO 24007KT 210V280 9999 NCD 15/15 Q1012,2024-08-10T04:20:00Z,15,15,6+,29.88
ESKS,61.165,12.834,190,5,5.75,ESKS 100420Z AUTO 19005KT 9999 SCT039/// 09/08 Q0998,2024-08-10T04:20:00Z,9,8,6+,29.47
ESKN,58.786,16.918,250,12,13.81,ESKN 100420Z 25012KT 9999 SCT028 15/12 Q1003,2024-08-10T04:20:00Z,15,12,6+,29.62
ESKM,60.96,14.507,230,4,4.6,ESKM 100420Z AUTO 23004KT 200V270 9999 NCD 13/13 Q0998,2024-08-10T04:20:00Z,13,13,6+,29.47
ESIB,58.431,12.71,220,15,17.26,ESIB 100420Z AUTO 22015KT 9999 NCD 14/12 Q1004,2024-08-10T04:20:00Z,14,12,6+,29.65
ESIA,58.514,14.507,230,12,13.81,ESIA 100420Z AUTO 23012KT 9999 FEW017/// 14/12 Q1004,2024-08-10T04:20:00Z,14,12,6+,29.65
ESGT,58.314,12.347,220,12,13.81,ESGT 100420Z AUTO 22012KT 190V250 9999 FEW044/// 15/12 Q1005,2024-08-10T04:20:00Z,15,12,6+,29.68
ESGP,57.781,11.869,250,10,11.51,ESGP 100420Z AUTO 25010KT 220V280 9999 FEW018/// SCT028/// BKN048/// 15/13 Q1007,2024-08-10T04:20:00Z,15,13,6+,29.73
ESGJ,57.752,14.069,240,14,16.11,ESGJ 100420Z AUTO 24014KT 9999 FEW013/// 13/13 Q1006,2024-08-10T04:20:00Z,13,13,6+,29.70
ESGG,57.667,12.285,240,13,14.96,ESGG 100420Z 24013KT 9999 BKN017 14/12 Q1007,2024-08-10T04:20:00Z,14,12,6+,29.73
ESDF,56.266,15.267,230,6,6.9,ESDF 100420Z AUTO 23006KT 9999 NCD 14/13 Q1010,2024-08-10T04:20:00Z,14,13,6+,29.82
ESCM,59.899,17.589,,,,ESCM 100420Z AUTO /////KT 9999 FEW019/// OVC031/// 16/14 Q0999,2024-08-10T04:20:00Z,16,14,6+,29.50
ESCF,58.398,15.526,240,13,14.96,ESCF 100420Z AUTO 24013KT 9999 NCD 15/12 Q1004,2024-08-10T04:20:00Z,15,12,6+,29.65
ENZV,58.884,5.637,260,14,16.11,ENZV 100420Z 26014KT 9999 -SHRA FEW021CB SCT031 16/11 Q1005,2024-08-10T04:20:00Z,16,11,6+,29.68
ENWV,56.278,3.395,250,30,34.52,ENWV 100420Z AUTO 25030KT 9999NDV NCD 16/12 Q1009 W///S4,2024-08-10T04:20:00Z,16,12,,29.79
ENVD,70.065,29.835,100,6,6.9,ENVD 100420Z AUTO 10006KT 9999 FEW071/// 17/12 Q1007,2024-08-10T04:20:00Z,17,12,6+,29.73
ENVA,63.46,10.931,220,9,10.36,ENVA 100420Z 22009KT 9999 FEW025 SCT036 13/11 Q0996 RMK WIND 670FT 23012KT,2024-08-10T04:20:00Z,13,11,6+,29.41
ENUN,-99.99,-99.99,80,13,14.96,ENUN 100420Z AUTO 08013KT 4300 -RA OVC009/// 14/13 Q0989 W14/S3,2024-08-10T04:20:00Z,14,13,2.67,29.20
ENUG,71.305,22.253,130,27,31.07,ENUG 100420Z AUTO 13027KT 9999NDV NCD 16/12 Q0999 W///S4,2024-08-10T04:20:00Z,16,12,,29.50
ENTO,59.184,10.255,220,7,8.06,ENTO 100420Z 22007KT CAVOK 13/08 Q1003 NOSIG,2024-08-10T04:20:00Z,13,8,6+,29.62
ENTC,69.675,18.916,180,12,13.81,ENTC 100420Z 18012KT CAVOK 16/08 Q0997 RMK WIND 2600FT 17040KT,2024-08-10T04:20:00Z,16,8,6+,29.44
ENSS,70.355,31.044,180,11,12.66,ENSS 100420Z AUTO 18011KT 9999 FEW070/// 15/11 Q1008 RMK WIND 0500FT 19016KT,2024-08-10T04:20:00Z,15,11,6+,29.76
ENSR,69.789,20.955,130,15,17.26,ENSR 100420Z AUTO 13015KT 9999 NCD 18/12 Q0999 RMK WIND RWY 32 12012KT WIND 1119FT 14024KT,2024-08-10T04:20:00Z,18,12,6+,29.50
ENSL,58.367,1.907,230,33,37.98,ENSL 100420Z AUTO 23033KT //// BKN110/// 15/11 Q1004 W14/S4,2024-08-10T04:20:00Z,15,11,,29.65
ENSK,68.58,15.029,130,17,19.56,ENSK 100420Z AUTO 13017KT 9999 FEW098/// OVC130/// 18/10 Q0994,2024-08-10T04:20:00Z,18,10,6+,29.35
ENSH,68.245,14.669,90,15,17.26,ENSH 100420Z AUTO 09015KT 9999 SCT064/// BKN084/// 19/09 Q0994 RMK WIND 0150FT /////KT,2024-08-10T04:20:00Z,19,9,6+,29.35
ENSG,61.158,7.141,260,8,9.21,ENSG 100420Z 26008KT 9999 -RA FEW/// BKN025 09/07 Q0999 RMK WIND 3806FT 21016KT,2024-08-10T04:20:00Z,9,7,6+,29.50
ENSF,61.25,1.85,250,32,36.82,ENSF 100420Z AUTO 25032KT 9999 SCT010/// BKN083/// 14/11 Q0996 W///S5,2024-08-10T04:20:00Z,14,11,6+,29.41
ENSE,61.45,2.15,240,25,28.77,ENSE 100420Z AUTO 24025KT 9999 FEW011/// SCT029/// BKN074/// 13/11 Q0995 W///S5,2024-08-10T04:20:00Z,13,11,6+,29.38
ENSD,61.829,6.104,100,1,1.15,ENSD 100420Z 10001KT 9999 -RA FEW020 SCT030 BKN042 12/11 Q0997 REDZ RMK WIND RWY 26 VRB02KT WIND 1140FT 16006KT,2024-08-10T04:20:00Z,12,11,6+,29.44
ENSB,78.246,15.466,250,15,17.26,ENSB 100420Z 25015KT 9999 FEW015 BKN040 12/09 Q1004 RMK WIND 1400FT 25006KT,2024-08-10T04:20:00Z,12,9,6+,29.65
ENRY,59.381,10.783,230,10,11.51,ENRY 100420Z AUTO 23010KT 9999 FEW140/// 14/09 Q1002,2024-08-10T04:20:00Z,14,9,6+,29.59
ENRS,67.527,12.104,100,9,10.36,ENRS 100420Z AUTO 10009KT 9999 OVC053/// 17/13 Q0991,2024-08-10T04:20:00Z,17,13,6+,29.26
ENRO,62.578,11.342,0,0,0.0,ENRO 100420Z AUTO 00000KT 9999 BKN044/// 09/09 Q0996,2024-08-10T04:20:00Z,9,9,6+,29.41
ENRM,64.835,11.141,230,20,23.02,ENRM 100420Z AUTO 23020KT 6000 -RA NCD 14/12 Q0992,2024-08-10T04:20:00Z,14,12,3.73,29.29
ENRA,66.364,14.302,90,7,8.06,ENRA 100420Z AUTO 09007KT 050V140 9999 FEW058/// BKN076/// BKN090/// 16/11 Q0992,2024-08-10T04:20:00Z,16,11,6+,29.29
ENQR,61.53,2.22,240,25,28.77,ENQR 100420Z AUTO 24025KT 9999 SCT011/// BKN084/// BKN120/// 15/13 Q0995 W25/S5,2024-08-10T04:20:00Z,15,13,6+,29.38
ENQC,60.886,3.61,230,29,33.37,ENQC 100420Z AUTO 23029KT 9999 SCT012/// BKN056/// BKN140/// 14/11 Q0997 W///S5,2024-08-10T04:20:00Z,14,11,6+,29.44
ENQA,60.645,3.725,240,30,34.52,ENQA 100420Z AUTO 24030KT 9999 FEW014/// SCT016/// BKN058/// 13/11 Q0999 W///S5,2024-08-10T04:20:00Z,13,11,6+,29.50
ENOV,62.18,6.078,240,1,1.15,ENOV 100420Z AUTO 24001KT 9999 FEW040/// BKN048/// BKN066/// 12/09 Q0997 RMK WIND RWY 24 06002KT WIND 2090FT 17018KT,2024-08-10T04:20:00Z,12,9,6+,29.44
ENOL,63.703,9.609,240,15,17.26,ENOL 100420Z 24015KT 9999 SCT020TCU BKN050 13/11 Q0995 TEMPO 4000 SHRA BKN010 SCT030CB,2024-08-10T04:20:00Z,13,11,6+,29.38
ENOA,60.492,2.827,250,32,36.82,ENOA 100420Z 25032KT 9999 VCSH SCT015CB BKN035 14/11 Q0998 W///S5,2024-08-10T04:20:00Z,14,11,6+,29.47
ENNM,64.471,11.57,200,8,9.21,ENNM 100420Z AUTO 20008KT 180V240 9999 -RA FEW002/// SCT023/// OVC034/// 13/11 Q0993,2024-08-10T04:20:00Z,13,11,6+,29.32
ENNE,66.03,8.08,220,6,6.9,ENNE 100420Z AUTO 22006KT CAVOK 15/15 Q0988 W///S3,2024-08-10T04:20:00Z,15,15,6+,29.17
ENNA,70.059,24.971,180,11,12.66,ENNA 100420Z AUTO 18011KT 9999 NCD 18/10 Q1004 RMK WIND 1800FT 15021KT,2024-08-10T04:20:00Z,18,10,6+,29.65
ENMS,65.784,13.218,0,0,0.0,ENMS 100420Z AUTO 00000KT 8000 -RA BKN031/// 14/13 Q0991 REDZ RMK WIND 412FT 00000KT,2024-08-10T04:20:00Z,14,13,4.97,29.26
ENML,62.744,7.262,240,5,5.75,ENML 100420Z AUTO 24005KT 9999NDV BKN058/// BKN072/// 13/11 Q0995,2024-08-10T04:20:00Z,13,11,,29.38
ENMH,71.029,27.829,170,9,10.36,ENMH 100420Z AUTO 17009KT 9999 NCD 20/10 Q1005,2024-08-10T04:20:00Z,20,10,6+,29.68
ENLE,56.535,3.205,240,32,36.82,ENLE 100420Z 24032KT 9999 FEW022 16/12 Q1009 W17/S4,2024-08-10T04:20:00Z,16,12,6+,29.79
ENLA,57.111,2.846,240,35,40.28,ENLA 100420Z AUTO 24035KT 9999NDV FEW023/// 16/11 Q1007 W///S5,2024-08-10T04:20:00Z,16,11,,29.73
ENKR,69.725,29.898,160,13,14.96,ENKR 100420Z AUTO 16013KT 9999 NCD 16/11 Q1008 RMK WIND 731FT 16016KT,2024-08-10T04:20:00Z,16,11,6+,29.76
ENKB,63.109,7.816,210,3,3.45,ENKB 100420Z AUTO 21003KT 160V250 9999 SCT058/// BKN067/// 13/09 Q0995 RMK WIND 745FT 21013KT,2024-08-10T04:20:00Z,13,9,6+,29.38
ENJS,58.835,2.545,240,32,36.82,ENJS 100420Z 24032KT 9999 FEW025 SCT110 15/10 Q1003 W15/S5,2024-08-10T04:20:00Z,15,10,6+,29.62
ENHV,71.009,25.982,130,7,8.06,ENHV 100420Z AUTO 13007KT 110V170 9999 NCD 20/10 Q1004,2024-08-10T04:20:00Z,20,10,6+,29.65
ENHK,70.487,22.14,100,16,18.41,ENHK 100420Z AUTO 10016KT 9999 NCD 17/13 Q1000,2024-08-10T04:20:00Z,17,13,6+,29.53
ENHF,70.681,23.677,160,6,6.9,ENHF 100420Z AUTO 16006KT 100V210 9999 NCD 19/12 Q1002 RMK WIND 1254FT 16024KT,2024-08-10T04:20:00Z,19,12,6+,29.59
ENHE,65.325,2.327,250,24,27.62,ENHE 100420Z 25024KT 9999 BKN009 BKN065 14/13 Q0989 W///S3,2024-08-10T04:20:00Z,14,13,6+,29.20
ENHD,59.341,5.22,250,19,21.86,ENHD 100420Z AUTO 25019KT 9999 FEW030/// BKN049/// OVC150/// 15/10 Q1003,2024-08-10T04:20:00Z,15,10,6+,29.62
ENGM,60.201,11.08,190,3,3.45,ENGM 100420Z 19003KT CAVOK 11/08 Q1000 NOSIG,2024-08-10T04:20:00Z,11,8,6+,29.53
ENGC,61.033,2.033,240,29,33.37,ENGC 100420Z 24029KT 9999 VCSH FEW007CB BKN010 BKN065 13/12 Q0997 W13/S5,2024-08-10T04:20:00Z,13,12,6+,29.44
ENFL,61.582,5.02,210,16,18.41,ENFL 100420Z AUTO 21016KT 180V240 4700NDV +SHRA VV020 13/12 Q0997,2024-08-10T04:20:00Z,13,12,,29.44
ENFB,61.206,1.829,230,32,36.82,ENFB 100420Z AUTO 23032KT 9999 FEW008/// SCT009/// BKN046/// 13/11 Q0995 W///S5,2024-08-10T04:20:00Z,13,11,6+,29.38
ENEV,68.491,16.683,150,11,12.66,ENEV 100420Z 15011KT CAVOK 19/07 Q0996 RMK WIND 1400FT 15018G30KT,2024-08-10T04:20:00Z,19,7,6+,29.41
ENDU,69.058,18.544,VRB,5,5.75,ENDU 100420Z VRB05KT 9999 FEW035 SCT080 BKN200 16/08 Q0998 RMK WIND 1100FT 08005KT WIND 2200FT 13019KT,2024-08-10T04:20:00Z,16,8,6+,29.47
ENCN,58.2,8.077,230,7,8.06,ENCN 100420Z 23007KT 9999 FEW025 15/12 Q1005,2024-08-10T04:20:00Z,15,12,6+,29.68
ENBV,70.871,29.032,VRB,2,2.3,ENBV 100420Z AUTO VRB02KT 9999 SCT077/// 19/11 Q1006,2024-08-10T04:20:00Z,19,11,6+,29.70
ENBS,70.601,29.698,190,8,9.21,ENBS 100420Z AUTO 19008KT 9999 SCT070/// 19/// Q1007,2024-08-10T04:20:00Z,,,6+,29.73
ENBR,60.29,5.222,250,14,16.11,ENBR 100420Z 25014G26KT 9999 -RA BKN020 13/13 Q1001 RMK WIND 1200FT 27022G33KT,2024-08-10T04:20:00Z,13,13,6+,29.56
ENBO,67.267,14.359,100,16,18.41,ENBO 100420Z 10016KT 9999 -RA FEW026 SCT065 BKN086 16/11 Q0993,2024-08-10T04:20:00Z,16,11,6+,29.32
ENBN,65.458,12.216,190,7,8.06,ENBN 100420Z AUTO 19007KT 4600NDV -SHRA VV020 15/13 Q0991,2024-08-10T04:20:00Z,15,13,,29.26
ENBL,61.391,5.76,170,3,3.45,ENBL 100420Z AUTO 17003KT 120V220 9000 -RA FEW004/// BKN012/// OVC016/// 10/10 Q0998 RERA,2024-08-10T04:20:00Z,10,10,5.59,29.47
ENAT,69.978,23.358,150,9,10.36,ENAT 100420Z AUTO 15009KT 9999 FEW062/// 19/12 Q1002 RMK WIND 700FT 16014KT,2024-08-10T04:20:00Z,19,12,6+,29.59
ENAN,69.307,16.131,130,17,19.56,ENAN 100420Z AUTO 13017KT 9999 FEW200/// 17/13 Q0995,2024-08-10T04:20:00Z,17,13,6+,29.38
ENAL,62.562,6.115,190,9,10.36,ENAL 100420Z AUTO 19009KT 9999 FEW029/// BKN042/// BKN069/// 14/10 Q0996,2024-08-10T04:20:00Z,14,10,6+,29.41
ELLX,49.626,6.204,260,6,6.9,ELLX 100420Z 26006KT CAVOK 16/15 Q1021 NOSIG,2024-08-10T04:20:00Z,16,15,6+,30.15
EKYT,57.093,9.879,240,16,18.41,EKYT 100420Z AUTO 24016KT 9999 -RA OVC048/// 15/13 Q1008,2024-08-10T04:20:00Z,15,13,6+,29.76
EKVJ,55.991,8.354,230,10,11.51,EKVJ 100420Z AUTO 23010KT 190V280 9999 FEW023/// BKN073/// 17/14 Q1011 TEST,2024-08-10T04:20:00Z,17,14,6+,29.85
EKVG,62.065,-7.282,290,8,9.21,EKVG 100420Z AUTO 29008KT 9999 BKN014/// 10/09 Q0996 RMK BKN005/// WIND SKEID 29015KT,2024-08-10T04:20:00Z,10,9,6+,29.41
EKVD,55.436,9.329,220,7,8.06,EKVD 100420Z AUTO 22007KT //// ///////// 14/12 Q1013,2024-08-10T04:20:00Z,14,12,,29.91
EKSP,55.225,9.263,210,5,5.75,EKSP 100420Z 21005KT 180V240 9999 FEW030 SCT220 13/12 Q1013,2024-08-10T04:20:00Z,13,12,6+,29.91
EKSB,54.962,9.787,240,5,5.75,EKSB 100420Z AUTO 24005KT 200V290 9999 OVC210/// 17/13 Q1014,2024-08-10T04:20:00Z,17,13,6+,29.94
EKRS,55.426,11.807,230,5,5.75,EKRS 100420Z AUTO 23005KT 9999 NCD 15/15 Q1013,2024-08-10T04:20:00Z,15,15,6+,29.91
EKRN,55.068,14.749,280,19,21.86,EKRN 100420Z AUTO 28019KT 9999 FEW025/// BKN220/// 18/12 Q1013,2024-08-10T04:20:00Z,18,12,6+,29.91
EKRK,55.587,12.136,240,8,9.21,EKRK 100420Z AUTO 24008KT 9999 BKN230/// 15/12 Q1013,2024-08-10T04:20:00Z,15,12,6+,29.91
EKKA,56.293,9.114,210,7,8.06,EKKA 100420Z AUTO 21007KT 9999 BKN064/// BKN230/// 15/13 Q1011,2024-08-10T04:20:00Z,15,13,6+,29.85
EKEB,55.528,8.563,230,12,13.81,EKEB 100420Z 23012KT 9999 FEW030 17/14 Q1013,2024-08-10T04:20:00Z,17,14,6+,29.91
EKCH,55.618,12.656,250,12,13.81,EKCH 100420Z AUTO 25012KT 9999 BKN230/// 16/13 Q1013 NOSIG,2024-08-10T04:20:00Z,16,13,6+,29.91
EKBI,55.74,9.152,210,7,8.06,EKBI 100420Z AUTO 21007KT 9999 BKN220/// 14/12 Q1013,2024-08-10T04:20:00Z,14,12,6+,29.91
EKAH,56.3,10.619,220,6,6.9,EKAH 100420Z AUTO 22006KT 180V260 9999 FEW150/// OVC270/// 16/13 Q1011,2024-08-10T04:20:00Z,16,13,6+,29.85
EGYM,52.648,0.567,200,6,6.9,EGYM 100420Z AUTO 20006KT 9999 OVC070/// 14/12 Q1017,2024-08-10T04:20:00Z,14,12,6+,30.03
EGYH,52.873,0.139,200,7,8.06,EGYH 100420Z AUTO 20007KT 9999 OVC082/// 14/12 Q1016,2024-08-10T04:20:00Z,14,12,6+,30.00
EGYE,52.962,-0.562,220,10,11.51,EGYE 100420Z AUTO 22010KT //// FEW065/// BKN081/// 15/12 Q1017,2024-08-10T04:20:00Z,15,12,,30.03
EGYD,53.031,-0.503,230,11,12.66,EGYD 100420Z AUTO 23011KT 9999 FEW084/// 15/12 Q1016,2024-08-10T04:20:00Z,15,12,6+,30.00
EGXZ,54.205,-1.39,190,8,9.21,EGXZ 100420Z AUTO 19008KT 9999 NCD 14/11 Q1014,2024-08-10T04:20:00Z,14,11,6+,29.94
EGXW,53.175,-0.523,220,10,11.51,EGXW 100420Z AUTO 22010KT 9999 OVC071/// 15/11 Q1016,2024-08-10T04:20:00Z,15,11,6+,30.00
EGXV,53.876,-0.435,190,5,5.75,EGXV 100420Z AUTO 19005KT 9999 BKN029/// SCT097/// 14/11 Q1014,2024-08-10T04:20:00Z,14,11,6+,29.94
EGXT,52.611,-0.461,220,10,11.51,EGXT 100420Z AUTO 22010KT 9999 OVC072/// 16/12 Q1017,2024-08-10T04:20:00Z,16,12,6+,30.03
EGXS,53.475,0.152,210,11,12.66,EGXS 100420Z AUTO 21011KT 9999 OVC082/// 15/11 Q1015,2024-08-10T04:20:00Z,15,11,6+,29.97
EGXE,54.297,-1.533,180,7,8.06,EGXE 100420Z AUTO 18007KT 9999 NCD 15/12 Q1013,2024-08-10T04:20:00Z,15,12,6+,29.91
EGWU,51.549,-0.417,220,5,5.75,EGWU 100420Z AUTO 22005KT 9999 OVC071/// 15/12 Q1018,2024-08-10T04:20:00Z,15,12,6+,30.06
EGWC,52.64,-2.311,230,5,5.75,EGWC 100420Z AUTO 23005KT //// ///////// ///// Q////,2024-08-10T04:20:00Z,,,,
EGVP,51.139,-1.569,210,4,4.6,EGVP 100420Z AUTO 21004KT 9999 BKN045/// SCT064/// 13/11 Q1019,2024-08-10T04:20:00Z,13,11,6+,30.09
EGVO,51.239,-0.945,220,7,8.06,EGVO 100420Z AUTO 22007KT 9999 SCT074/// BKN110/// 15/12 Q1019,2024-08-10T04:20:00Z,15,12,6+,30.09
EGVN,51.758,-1.578,220,4,4.6,EGVN 100420Z 22004KT CAVOK 15/13 Q1018 NOSIG RMK BLU BLU,2024-08-10T04:20:00Z,15,13,6+,30.06
EGUW,52.124,0.957,230,5,5.75,EGUW 100420Z AUTO 23005KT 9999 FEW073/// BKN092/// 13/11 Q1018,2024-08-10T04:20:00Z,13,11,6+,30.06
EGUB,51.62,-1.099,180,5,5.75,EGUB 100420Z AUTO 18005KT 9999 FEW050/// OVC084/// 14/13 Q1018,2024-08-10T04:20:00Z,14,13,6+,30.06
EGSY,51.406,-3.434,230,10,11.51,EGSY 100420Z AUTO 23010KT 9999 FEW014/// SCT028/// OVC039/// 17/14 Q1018,2024-08-10T04:20:00Z,17,14,6+,30.06
EGSS,51.881,0.223,240,7,8.06,EGSS 100420Z AUTO 24007KT 9999 NCD 14/12 Q1019,2024-08-10T04:20:00Z,14,12,6+,30.09
EGSH,52.676,1.283,250,8,9.21,EGSH 100420Z AUTO 25008KT 9999 NCD 14/12 Q1018,2024-08-10T04:20:00Z,14,12,6+,30.06
EGQM,55.421,-1.601,210,12,13.81,EGQM 100420Z AUTO 21012KT 9999 NCD 14/11 Q1010,2024-08-10T04:20:00Z,14,11,6+,29.82
EGQL,56.377,-2.862,250,17,19.56,EGQL 100420Z 25017KT 9999 SKC 14/11 Q1007 RMK BLU,2024-08-10T04:20:00Z,14,11,6+,29.73
EGQK,57.646,-3.563,230,12,13.81,EGQK 100420Z AUTO 23012KT 9999 // FEW023/// SCT047/// 13/12 Q1004,2024-08-10T04:20:00Z,13,12,6+,29.65
EGQA,57.825,-3.955,120,4,4.6,EGQA 100420Z AUTO 12004KT 9999 // NCD 10/09 Q1004,2024-08-10T04:20:00Z,10,9,6+,29.65
EGPO,58.215,-6.329,220,9,10.36,EGPO 100420Z AUTO 22009KT 9999 -RA SCT025/// BKN033/// BKN040/// 12/11 Q1003,2024-08-10T04:20:00Z,12,11,6+,29.62
EGPL,57.475,-7.364,250,17,19.56,EGPL 100420Z AUTO 25017KT 9999 SCT004/// SCT008/// BKN015/// 14/11 Q1005,2024-08-10T04:20:00Z,14,11,6+,29.68
EGPK,55.509,-4.587,200,11,12.66,EGPK 100420Z 20011KT 180V240 9999 FEW035 14/12 Q1010,2024-08-10T04:20:00Z,14,12,6+,29.82
EGPI,55.681,-6.25,230,11,12.66,EGPI 100420Z AUTO 23011KT 9999 -RA OVC020/// 14/13 Q1010,2024-08-10T04:20:00Z,14,13,6+,29.82
EGPH,55.952,-3.36,240,19,21.86,EGPH 100420Z 24019KT CAVOK 14/11 Q1008,2024-08-10T04:20:00Z,14,11,6+,29.76
EGPF,55.867,-4.433,230,14,16.11,EGPF 100420Z AUTO 23014KT 9999 SCT035/// BKN045/// //////TCU 14/12 Q1010,2024-08-10T04:20:00Z,14,12,6+,29.82
EGPE,57.538,-4.053,230,9,10.36,EGPE 100420Z 23009KT 9999 SCT037 12/10 Q1005,2024-08-10T04:20:00Z,12,10,6+,29.68
EGPD,57.205,-2.205,170,6,6.9,EGPD 100420Z AUTO 17006KT 9999 NCD 12/09 Q1006,2024-08-10T04:20:00Z,12,9,6+,29.70
EGPC,58.459,-3.093,210,7,8.06,EGPC 100420Z AUTO 21007KT 9999 BKN047/// 12/09 Q1003,2024-08-10T04:20:00Z,12,9,6+,29.62
EGPB,59.88,-1.296,250,21,24.17,EGPB 100420Z AUTO 25021KT 9999 FEW011/// BKN030/// OVC044/// 12/11 Q0999,2024-08-10T04:20:00Z,12,11,6+,29.50
EGPA,58.958,-2.905,240,14,16.11,EGPA 100420Z AUTO 24014KT 9999 -RA FEW020/// SCT043/// 13/11 Q1002,2024-08-10T04:20:00Z,13,11,6+,29.59
EGOV,53.252,-4.536,210,16,18.41,EGOV 100420Z AUTO 21016KT 8000 BR BKN004/// OVC046/// 16/15 Q1014,2024-08-10T04:20:00Z,16,15,4.97,29.94
EGOS,52.795,-2.665,220,5,5.75,EGOS 100420Z AUTO 22005KT 9999 // OVC025/// 15/13 Q1016,2024-08-10T04:20:00Z,15,13,6+,30.00
EGOP,51.714,-4.367,240,15,17.26,EGOP 100420Z AUTO 24015KT 9999 +DZ FEW004/// OVC007/// 16/15 Q1016,2024-08-10T04:20:00Z,16,15,6+,30.00
EGOM,55.05,-2.554,250,13,14.96,EGOM 100420Z AUTO 25013KT 9999 OVC006/// 12/11 Q1011,2024-08-10T04:20:00Z,12,11,6+,29.85
EGNX,52.833,-1.333,220,10,11.51,EGNX 100420Z 22010KT CAVOK 15/12 Q1016,2024-08-10T04:20:00Z,15,12,6+,30.00
EGNT,55.037,-1.702,260,8,9.21,EGNT 100420Z 26008KT CAVOK 14/10 Q1012,2024-08-10T04:20:00Z,14,10,6+,29.88
EGNS,54.085,-4.632,250,10,11.51,EGNS 100420Z 25010KT 9999 FEW014 SCT020 16/14 Q1013 NOSIG,2024-08-10T04:20:00Z,16,14,6+,29.91
EGNJ,53.58,-0.341,210,12,13.81,EGNJ 100420Z AUTO 21012KT 9999 NCD 15/12 Q1015,2024-08-10T04:20:00Z,15,12,6+,29.97
EGMD,50.956,0.939,270,3,3.45,EGMD 100420Z AUTO 27003KT 9999 NCD 15/14 Q1020,2024-08-10T04:20:00Z,15,14,6+,30.12
EGLL,51.477,-0.461,220,6,6.9,EGLL 100420Z AUTO 22006KT 9999 NCD 15/12 Q1019,2024-08-10T04:20:00Z,15,12,6+,30.09
EGLF,51.28,-0.773,VRB,2,2.3,EGLF 100420Z AUTO VRB02KT 9999 NCD 14/12 Q1019,2024-08-10T04:20:00Z,14,12,6+,30.09
EGLC,51.505,0.055,230,8,9.21,EGLC 100420Z AUTO 23008KT 9999 NCD 16/12 Q1019,2024-08-10T04:20:00Z,16,12,6+,30.09
EGKK,51.148,-0.19,VRB,2,2.3,EGKK 100420Z VRB02KT CAVOK 13/12 Q1019,2024-08-10T04:20:00Z,13,12,6+,30.09
EGJJ,49.21,-2.194,230,5,5.75,EGJJ 100420Z AUTO 23005KT 9999 FEW007/// 15/15 Q1021,2024-08-10T04:20:00Z,15,15,6+,30.15
EGJB,49.433,-2.598,210,6,6.9,EGJB 100420Z 21006KT 9999 FEW003 SCT005 16/15 Q1021,2024-08-10T04:20:00Z,16,15,6+,30.15
EGHQ,50.438,-4.998,190,9,10.36,EGHQ 100420Z AUTO 19009KT 9999 OVC014/// 16/15 Q1018,2024-08-10T04:20:00Z,16,15,6+,30.06
EGGW,51.875,-0.368,220,5,5.75,EGGW 100420Z AUTO 22005KT 9999 NCD 15/13 Q1018,2024-08-10T04:20:00Z,15,13,6+,30.06
EGGP,53.334,-2.85,230,9,10.36,EGGP 100420Z 23009KT CAVOK 17/13 Q1015,2024-08-10T04:20:00Z,17,13,6+,29.97
EGGD,51.383,-2.719,220,7,8.06,EGGD 100420Z AUTO 22007KT 9999 NCD 15/14 Q1018,2024-08-10T04:20:00Z,15,14,6+,30.06
EGFF,51.397,-3.343,250,9,10.36,EGFF 100420Z AUTO 25009KT 9999 SCT014 OVC038 17/14 Q1018,2024-08-10T04:20:00Z,17,14,6+,30.06
EGDY,51.006,-2.643,180,5,5.75,EGDY 100420Z AUTO 18005KT 9999 OVC044/// 16/14 Q1018,2024-08-10T04:20:00Z,16,14,6+,30.06
EGDR,50.084,-5.257,200,9,10.36,EGDR 100420Z AUTO 20009KT 9999 // OVC007/// 17/16 Q1018,2024-08-10T04:20:00Z,17,16,6+,30.06
EGDM,51.153,-1.75,190,5,5.75,EGDM 100420Z AUTO 19005KT 9999 BKN042/// 13/11 Q1019,2024-08-10T04:20:00Z,13,11,6+,30.09
EGCK,53.104,-4.34,220,14,16.11,EGCK 100420Z AUTO 22014KT 9999 FEW010/// 17/15 Q1015,2024-08-10T04:20:00Z,17,15,6+,29.97
EGCC,53.354,-2.275,180,5,5.75,EGCC 100420Z AUTO 18005KT 140V210 9999 NCD 14/12 Q1015,2024-08-10T04:20:00Z,14,12,6+,29.97
EGBB,52.46,-1.758,220,5,5.75,EGBB 100420Z 22005KT 170V250 CAVOK 15/13 Q1017,2024-08-10T04:20:00Z,15,13,6+,30.03
EGAC,54.614,-5.873,210,6,6.9,EGAC 100420Z AUTO 21006KT 9999 NCD 14/12 Q1012,2024-08-10T04:20:00Z,14,12,6+,29.88
EGAA,54.654,-6.225,220,10,11.51,EGAA 100420Z AUTO 22010KT 9999 FEW010 BKN035 14/12 Q1012,2024-08-10T04:20:00Z,14,12,6+,29.88
EFVA,63.051,21.762,140,10,11.51,EFVA 100420Z AUTO 14010KT 9000 RA OVC018 16/15 Q0997,2024-08-10T04:20:00Z,16,15,5.59,29.44
EFUT,60.896,26.938,150,6,6.9,EFUT 100420Z AUTO 15006KT 9999 BKN032 18/18 Q1004,2024-08-10T04:20:00Z,18,18,6+,29.65
EFTU,60.514,22.263,210,7,8.06,EFTU 100420Z AUTO 21007KT 9999 BKN007 BKN041 //////CB 17/17 Q0999 RESHRA,2024-08-10T04:20:00Z,17,17,6+,29.50
EFTP,61.419,23.616,160,12,13.81,EFTP 100420Z AUTO 16012KT 9999 SHRA SCT009 OVC038 //////CB 16/15 Q1000,2024-08-10T04:20:00Z,16,15,6+,29.53
EFSI,62.693,22.83,130,14,16.11,EFSI 100420Z AUTO 13014KT 9999 -SHRA //////CB 16/15 Q0998,2024-08-10T04:20:00Z,16,15,6+,29.47
EFSA,61.943,28.945,160,8,9.21,EFSA 100420Z AUTO 16008KT 9999 -SHRA BKN048 //////CB 18/14 Q1006,2024-08-10T04:20:00Z,18,14,6+,29.70
EFRO,66.562,25.829,130,5,5.75,EFRO 100420Z AUTO 13005KT 090V170 9999 //////CB 16/12 Q1004,2024-08-10T04:20:00Z,16,12,6+,29.65
EFPO,61.462,21.8,150,9,10.36,EFPO 100420Z AUTO 15009KT 9999 TSRA BKN006 //////CB 16/16 Q0997,2024-08-10T04:20:00Z,16,16,6+,29.44
EFOU,64.93,25.355,130,11,12.66,EFOU 100420Z AUTO 13011KT CAVOK 18/13 Q1002,2024-08-10T04:20:00Z,18,13,6+,29.59
EFMI,61.687,27.201,130,8,9.21,EFMI 100420Z AUTO 13008KT 9999 BKN012 19/16 Q1004,2024-08-10T04:20:00Z,19,16,6+,29.65
EFMA,60.125,19.903,240,8,9.21,EFMA 100420Z AUTO 24008KT 200V290 9999 OVC011 //////CB 17/15 Q0999,2024-08-10T04:20:00Z,17,15,6+,29.50
EFLP,61.044,28.151,130,6,6.9,EFLP 100420Z AUTO 13006KT 100V160 9999 FEW013 //////CB 18/15 Q1005,2024-08-10T04:20:00Z,18,15,6+,29.68
EFKU,63.008,27.799,140,8,9.21,EFKU 100420Z AUTO 14008KT 7000 +SHRA //////CB 16/15 Q1005,2024-08-10T04:20:00Z,16,15,4.35,29.68
EFKT,67.701,24.847,120,6,6.9,EFKT 100420Z AUTO 12006KT CAVOK 15/12 Q1003,2024-08-10T04:20:00Z,15,12,6+,29.62
EFKS,65.992,29.236,120,8,9.21,EFKS 100420Z AUTO 12008KT CAVOK 16/12 Q1007,2024-08-10T04:20:00Z,16,12,6+,29.73
EFKK,63.721,23.143,120,7,8.06,EFKK 100420Z AUTO 12007KT CAVOK 17/16 Q0999,2024-08-10T04:20:00Z,17,16,6+,29.50
EFKI,64.283,27.673,120,9,10.36,EFKI 100420Z AUTO 12009KT CAVOK 17/13 Q1005,2024-08-10T04:20:00Z,17,13,6+,29.68
EFKE,65.784,24.579,120,8,9.21,EFKE 100420Z AUTO 12008KT 9999 BKN044 16/15 Q1002,2024-08-10T04:20:00Z,16,15,6+,29.59
EFJY,62.404,25.675,140,9,10.36,EFJY 100420Z AUTO 14009KT 9999 SCT011 SCT023 BKN042 17/16 Q1002,2024-08-10T04:20:00Z,17,16,6+,29.59
EFJO,62.66,29.611,150,8,9.21,EFJO 100420Z AUTO 15008KT CAVOK 18/14 Q1007,2024-08-10T04:20:00Z,18,14,6+,29.73
EFIV,68.607,27.405,150,8,9.21,EFIV 100420Z AUTO 15008KT CAVOK 17/11 Q1006,2024-08-10T04:20:00Z,17,11,6+,29.70
EFHK,60.327,24.957,190,15,17.26,EFHK 100420Z 19015KT 9999 BKN018 19/15 Q1002 BECMG 4500 RA BKN012,2024-08-10T04:20:00Z,19,15,6+,29.59
EFHA,61.855,24.805,140,9,10.36,EFHA 100420Z AUTO 14009KT CAVOK 17/15 Q1001,2024-08-10T04:20:00Z,17,15,6+,29.56
EFET,68.363,23.424,90,3,3.45,EFET 100420Z AUTO 09003KT 060V130 9999 OVC047 16/12 Q1002,2024-08-10T04:20:00Z,16,12,6+,29.59
EETU,58.307,26.691,200,6,6.9,EETU 100420Z AUTO 20006KT 9999 FEW160/// OVC180/// 18/16 Q1006,2024-08-10T04:20:00Z,18,16,6+,29.70
EETN,59.413,24.801,200,8,9.21,EETN 100420Z 20008KT 160V240 4000 SHRA SCT010 FEW018CB BKN039 16/15 Q1004 NOSIG,2024-08-10T04:20:00Z,16,15,2.49,29.65
EEPU,58.419,24.473,210,14,16.11,EEPU 100420Z AUTO 21014KT 9999 -RA BKN008/// OVC015/// 18/17 Q1004,2024-08-10T04:20:00Z,18,17,6+,29.65
EEKE,58.23,22.509,250,5,5.75,EEKE 100420Z AUTO 25005KT 210V290 9999 -RA SCT013/// BKN015/// BKN020/// 19/18 Q1003,2024-08-10T04:20:00Z,19,18,6+,29.62
EDXW,54.913,8.341,250,15,17.26,EDXW 100420Z AUTO 25015KT 9999 // BKN027/// BKN035/// BKN200/// 18/13 Q1014,2024-08-10T04:20:00Z,18,13,6+,29.94
EDWE,53.388,7.229,200,5,5.75,EDWE 100420Z AUTO 20005KT 9999 FEW019/// BKN065/// 17/14 Q1016,2024-08-10T04:20:00Z,17,14,6+,30.00
EDVK,51.421,9.388,140,3,3.45,EDVK 100420Z 14003KT 7000 1600 R27/1400U FEW001 14/14 Q1019,2024-08-10T04:20:00Z,14,14,4.35,30.09
EDVE,52.319,10.558,90,3,3.45,EDVE 100420Z AUTO 09003KT 0400 0350 R26/0400N FEW001/// OVC004/// 14/14 Q1018,2024-08-10T04:20:00Z,14,14,0.25,30.06
EDTY,49.118,9.784,100,3,3.45,EDTY 100420Z AUTO 10003KT 9999 // SCT060/// 16/15 Q1022,2024-08-10T04:20:00Z,16,15,6+,30.18
EDTL,48.369,7.828,VRB,2,2.3,EDTL 100420Z AUTO VRB02KT 9999 // OVC063/// 18/17 Q1021,2024-08-10T04:20:00Z,18,17,6+,30.15
EDSB,48.779,8.081,220,2,2.3,EDSB 100420Z 22002KT CAVOK 17/17 Q1021,2024-08-10T04:20:00Z,17,17,6+,30.15
EDQM,50.289,11.86,VRB,3,3.45,EDQM 100420Z AUTO VRB03KT 9999 // FEW028/// 15/14 Q1021,2024-08-10T04:20:00Z,15,14,6+,30.15
EDNY,47.671,9.511,70,2,2.3,EDNY 100420Z AUTO 07002KT 9999 NCD 16/16 Q1022,2024-08-10T04:20:00Z,16,16,6+,30.18
EDMO,48.081,11.283,210,3,3.45,EDMO 100420Z AUTO 21003KT 9999 // SCT051/// 16/15 Q1023,2024-08-10T04:20:00Z,16,15,6+,30.21
EDMA,48.425,10.932,140,3,3.45,EDMA 100420Z AUTO 14003KT //// R25/P2000N // SCT055/// BKN064/// 18/17 Q1022,2024-08-10T04:20:00Z,18,17,1.24,30.18
EDLW,51.518,7.612,190,9,10.36,EDLW 100420Z 19009KT 9999 SCT026 16/14 Q1018,2024-08-10T04:20:00Z,16,14,6+,30.06
EDLV,51.602,6.142,200,5,5.75,EDLV 100420Z 20005KT CAVOK 14/14 Q1019,2024-08-10T04:20:00Z,14,14,6+,30.09
EDLP,51.614,8.616,190,7,8.06,EDLP 100420Z 19007KT CAVOK 16/15 Q1018,2024-08-10T04:20:00Z,16,15,6+,30.06
EDLN,51.23,6.504,220,3,3.45,EDLN 100420Z AUTO 22003KT 180V260 9999 // NCD 15/13 Q////,2024-08-10T04:20:00Z,15,13,6+,
EDJA,47.989,10.239,150,2,2.3,EDJA 100420Z 15002KT 9999 FEW049 BKN060 17/16 Q1023,2024-08-10T04:20:00Z,17,16,6+,30.21
EDHL,53.805,10.719,VRB,2,2.3,EDHL 100420Z VRB02KT CAVOK 13/12 Q1017,2024-08-10T04:20:00Z,13,12,6+,30.03
EDHK,54.376,10.143,210,6,6.9,EDHK 100420Z AUTO 21006KT 9999 // SCT029/// SCT033/// BKN190/// 14/12 Q1015,2024-08-10T04:20:00Z,14,12,6+,29.97
EDHI,53.536,9.837,VRB,2,2.3,EDHI 100420Z AUTO VRB02KT 9999 // BKN069/// 13/12 Q1017,2024-08-10T04:20:00Z,13,12,6+,30.03
EDGS,50.708,8.083,240,5,5.75,EDGS 100420Z AUTO 24005KT 9999 // FEW017/// BKN026/// BKN030/// 15/12 Q1021,2024-08-10T04:20:00Z,15,12,6+,30.15
EDFM,49.474,8.515,VRB,2,2.3,EDFM 100420Z VRB02KT CAVOK 19/17 Q1020,2024-08-10T04:20:00Z,19,17,6+,30.12
EDFH,49.946,7.265,240,6,6.9,EDFH 100420Z 24006KT 9999 FEW012 17/16 Q1021,2024-08-10T04:20:00Z,17,16,6+,30.15
EDDW,53.047,8.787,160,4,4.6,EDDW 100420Z AUTO 16004KT 9999 FEW047 12/11 Q1017 BECMG 22005KT,2024-08-10T04:20:00Z,12,11,6+,30.03
EDDV,52.466,9.68,90,1,1.15,EDDV 100420Z AUTO 09001KT 9999 BKN031 BKN044 15/14 Q1018 NOSIG,2024-08-10T04:20:00Z,15,14,6+,30.06
EDDS,48.69,9.222,0,0,0.0,EDDS 100420Z AUTO 00000KT CAVOK 18/16 Q1022 NOSIG,2024-08-10T04:20:00Z,18,16,6+,30.18
EDDR,49.213,7.108,VRB,1,1.15,EDDR 100420Z AUTO VRB01KT 9999 BKN022 BKN032 18/17 Q1021 NOSIG,2024-08-10T04:20:00Z,18,17,6+,30.15
EDDP,51.435,12.24,230,4,4.6,EDDP 100420Z AUTO 23004KT CAVOK 16/16 Q1019 NOSIG,2024-08-10T04:20:00Z,16,16,6+,30.09
EDDN,49.503,11.055,190,2,2.3,EDDN 100420Z AUTO 19002KT CAVOK 18/15 Q1021 NOSIG,2024-08-10T04:20:00Z,18,15,6+,30.15
EDDM,48.348,11.813,250,1,1.15,EDDM 100420Z AUTO 25001KT 9999 BKN046 18/16 Q1022 NOSIG,2024-08-10T04:20:00Z,18,16,6+,30.18
EDDL,51.296,6.769,230,7,8.06,EDDL 100420Z AUTO 23007KT 9999 FEW026 14/12 Q1019 NOSIG,2024-08-10T04:20:00Z,14,12,6+,30.09
EDDK,50.865,7.157,VRB,1,1.15,EDDK 100420Z AUTO VRB01KT CAVOK 14/12 Q1020 NOSIG,2024-08-10T04:20:00Z,14,12,6+,30.12
EDDH,53.633,9.988,230,4,4.6,EDDH 100420Z AUTO 23004KT 200V260 CAVOK 13/12 Q1016 NOSIG,2024-08-10T04:20:00Z,13,12,6+,30.00
EDDG,52.135,7.697,VRB,1,1.15,EDDG 100420Z AUTO VRB01KT 9999 2900 BR NCD 13/13 Q1018 TEMPO 0800 FG,2024-08-10T04:20:00Z,13,13,6+,30.06
EDDF,50.045,8.598,VRB,2,2.3,EDDF 100420Z AUTO VRB02KT CAVOK 16/16 Q1020 NOSIG,2024-08-10T04:20:00Z,16,16,6+,30.12
EDDE,50.983,10.961,200,6,6.9,EDDE 100420Z AUTO 20006KT CAVOK 15/15 Q1020 NOSIG,2024-08-10T04:20:00Z,15,15,6+,30.12
EDDC,51.128,13.7543,300,3,3.45,EDDC 100420Z AUTO 30003KT 260V320 9999 BKN009 BKN014 18/17 Q1020 BECMG SCT010,2024-08-10T04:20:00Z,18,17,6+,30.12
EDDB,52.3807,13.5306,250,5,5.75,EDDB 100420Z AUTO 25005KT CAVOK 15/13 Q1018 NOSIG,2024-08-10T04:20:00Z,15,13,6+,30.06
EDBC,51.856,11.42,190,7,8.06,EDBC 100420Z AUTO 19007KT 9999 // FEW052/// 15/14 Q1019,2024-08-10T04:20:00Z,15,14,6+,30.09
EDAH,53.879,14.152,260,11,12.66,EDAH 100420Z AUTO 26011KT 9999 // BKN210/// 15/13 Q1016,2024-08-10T04:20:00Z,15,13,6+,30.00
EDAC,50.982,12.506,200,7,8.06,EDAC 100420Z AUTO 20007KT 9999 // FEW046/// 16/16 Q1020,2024-08-10T04:20:00Z,16,16,6+,30.12
EBOS,51.199,2.862,210,6,6.9,EBOS 100420Z 21006KT 5000 BR FEW005 14/14 Q1019 TEMPO 4000 BR,2024-08-10T04:20:00Z,14,14,3.11,30.09
EBLG,50.637,5.443,210,8,9.21,EBLG 100420Z 21008KT CAVOK 14/12 Q1020 NOSIG,2024-08-10T04:20:00Z,14,12,6+,30.12
EBCI,50.459,4.454,240,8,9.21,EBCI 100420Z 24008KT 9999 BKN006 14/13 Q1021 NOSIG,2024-08-10T04:20:00Z,14,13,6+,30.15
EBBR,50.896,4.526,240,8,9.21,EBBR 100420Z 24008KT 9999 FEW008 15/14 Q1020 TEMPO BKN008,2024-08-10T04:20:00Z,15,14,6+,30.12
EBAW,51.189,4.46,230,7,8.06,EBAW 100420Z AUTO 23007KT 200V260 9999 // BKN005/// OVC006/// 15/14 Q1019,2024-08-10T04:20:00Z,15,14,6+,30.09
CYIV,53.857,-94.655,0,0,0.0,CYIV 100420Z AUTO 00000KT 6SM BR CLR 14/12 A3005 RMK SLP184,2024-08-10T04:20:00Z,14,12,6,30.05
KTOR,42.0613,-104.158,100,6,6.9,KTOR 100419Z AUTO 10006KT 10SM BKN029 14/12 A3025 RMK AO2 T01390122,2024-08-10T04:19:00Z,13.9,12.2,10+,30.25
KPQI,46.697,-68.054,140,14,16.11,KPQI 100419Z AUTO 14014G26KT 5SM -RA BR OVC005 18/18 A2968 RMK AO2 PK WND 14026/0417 CIG 004V008 PRESFR P0004,2024-08-10T04:19:00Z,18,18,5,29.68
CYZP,53.254,-131.814,270,14,16.11,CYZP 100419Z AUTO 27014KT 9SM SCT026 BKN040 OVC060 19/16 A3003 RMK SLP170 DENSITY ALT 400FT,2024-08-10T04:19:00Z,19,16,9,30.03
CYUX,68.772,-81.233,290,6,6.9,CYUX 100419Z AUTO 29006KT 9SM FEW081 SCT140 OVC170 11/07 A2978 RMK SLP087,2024-08-10T04:19:00Z,11,7,9,29.78
CYPL,51.449,-90.218,10,6,6.9,CYPL 100419Z AUTO 01006KT 340V060 9SM -RA OVC031 10/09 A2995 RMK SLP154,2024-08-10T04:19:00Z,10,9,9,29.95
RJTO,34.782,139.36,VRB,5,5.75,RJTO 100418Z VRB05KT 9999 FEW020 33/23 Q0999 RMK 1CU020 A2953,2024-08-10T04:18:00Z,33,23,6+,29.50
RJCM,43.881,144.164,60,7,8.06,RJCM 100418Z 06007KT 5000 -SHRA BR FEW002 SCT003 BKN004 21/20 Q1009 RMK 1ST002 3ST003 6ST004 A2980,2024-08-10T04:18:00Z,21,20,3.11,29.79
KDUB,43.5485,-109.684,100,6,6.9,KDUB 100418Z AUTO 10006KT 10SM CLR 14/07 A3033 RMK AO2,2024-08-10T04:18:00Z,14,7,10+,30.33
KDHT,36.0252,-102.549,130,11,12.66,KDHT 100418Z AUTO 13011KT 5SM -RA BR FEW050 BKN095 OVC110 18/17 A3025 RMK AO2 LTG DSNT SE AND S TSE12 P0002 T01780167,2024-08-10T04:18:00Z,17.8,16.7,5,30.25
KBVY,42.5841,-70.9153,190,15,17.26,KBVY 100418Z AUTO 19015G26KT 10SM FEW010 SCT017 25/23 A2980 RMK AO2 PK WND 20026/0415 RAE12 P0000 T02500233,2024-08-10T04:18:00Z,25,23.3,10+,29.80
KACY,39.452,-74.567,190,10,11.51,KACY 100418Z AUTO 19010G17KT 9SM FEW005 BKN037 OVC048 24/23 A2988 RMK AO2 T02390228,2024-08-10T04:18:00Z,23.9,22.8,9,29.88
KFAY,34.9895,-78.8801,0,0,0.0,KFAY 100417Z 00000KT 6SM BR FEW004 SCT100 25/24 A2995 RMK AO2 T02500239,2024-08-10T04:17:00Z,25,23.9,6,29.95
KCZL,34.45,-84.936,,,,KCZL 100417Z AUTO A2999 RMK AO2 PWINO,2024-08-10T04:17:00Z,,,,29.99
PFSH,64.367,-161.217,180,9,10.36,PFSH 100416Z AUTO 18009KT 10SM FEW023 SCT029 BKN110 11/06 A2985 RMK AO2,2024-08-10T04:16:00Z,11,6,10+,29.85
PAPM,59.011,-161.82,180,19,21.86,PAPM 100416Z AUTO 18019KT 9SM -RA BKN010 OVC014 11/09 A2984 RMK AO2 CIG 005V011 P0000,2024-08-10T04:16:00Z,11,9,9,29.84
KWWD,39.0108,-74.9079,160,8,9.21,KWWD 100416Z AUTO 16008KT 6SM BR BKN004 OVC046 21/21 A2990 RMK AO2 RAE00 P0000,2024-08-10T04:16:00Z,21,21,6,29.90
K40B,46.616,-69.533,150,8,9.21,K40B 100416Z AUTO 15008G16KT 110V180 19/19 A2960 RMK AO1 SLP021 T01940187 56073 P0003,2024-08-10T04:16:00Z,19.4,18.7,,29.60
CYBU,53.333,-104.005,120,4,4.6,CYBU 100416Z AUTO 12004KT 6SM BR CLR 11/10 A3021 RMK SLP242,2024-08-10T04:16:00Z,11,10,6,30.21
LIRP,43.684,10.393,VRB,2,2.3,LIRP 100415Z VRB02KT CAVOK 23/22 Q1016 NOSIG,2024-08-10T04:15:00Z,23,22,6+,30.00
LHSN,47.123,20.235,340,5,5.75,LHSN 100415Z 34005KT CAVOK 18/15 Q1019 NOSIG RMK BLU,2024-08-10T04:15:00Z,18,15,6+,30.09
LHSM,46.689,17.161,320,3,3.45,LHSM 100415Z AUTO 32003KT CAVOK 17/16 Q1020,2024-08-10T04:15:00Z,17,16,6+,30.12
LHPR,47.627,17.808,250,4,4.6,LHPR 100415Z AUTO 25004KT CAVOK 17/14 Q1020 NOSIG,2024-08-10T04:15:00Z,17,14,6+,30.12
LHPP,45.991,18.241,310,4,4.6,LHPP 100415Z AUTO 31004KT CAVOK 20/14 Q1020,2024-08-10T04:15:00Z,20,14,6+,30.12
LHPA,47.362,17.494,160,4,4.6,LHPA 100415Z 16004KT CAVOK 16/14 Q1020 NOSIG RMK BLU,2024-08-10T04:15:00Z,16,14,6+,30.12
LHNY,47.985,21.692,0,0,0.0,LHNY 100415Z AUTO 00000KT CAVOK 15/15 Q1019,2024-08-10T04:15:00Z,15,15,6+,30.09
LHKE,46.917,19.749,320,3,3.45,LHKE 100415Z 32003KT CAVOK 17/13 Q1019 NOSIG RMK BLU,2024-08-10T04:15:00Z,17,13,6+,30.09
LHDC,47.489,21.615,0,0,0.0,LHDC 100415Z AUTO 00000KT CAVOK 16/15 Q1019 NOSIG,2024-08-10T04:15:00Z,16,15,6+,30.09
KOWX,41.0341,-83.9862,290,3,3.45,KOWX 100415Z AUTO 29003KT 10SM CLR 13/09 A3005 RMK AO1,2024-08-10T04:15:00Z,13,9,10+,30.05
KOAJ,34.8251,-77.6189,0,0,0.0,KOAJ 100415Z AUTO 00000KT 7SM BKN010 BKN015 23/23 A2996 RMK AO2,2024-08-10T04:15:00Z,23,23,7,29.96
KHVS,34.4065,-80.1198,0,0,0.0,KHVS 100415Z AUTO 00000KT 10SM BKN034 BKN043 OVC070 25/23 A2995 RMK AO2 LTG DSNT W,2024-08-10T04:15:00Z,25,23,10+,29.95
KHNZ,36.3635,-78.5289,340,3,3.45,KHNZ 100415Z AUTO 34003KT 10SM SCT060 22/22 A2996 RMK AO2 T02160215,2024-08-10T04:15:00Z,21.6,21.5,10+,29.96
KDCM,34.7908,-81.1987,0,0,0.0,KDCM 100415Z AUTO 00000KT 10SM CLR 25/25 A2996 RMK AO2 LTG DSNT W AND NW,2024-08-10T04:15:00Z,25,25,10+,29.96
KCDW,40.8764,-74.2829,220,4,4.6,KCDW 100415Z AUTO 22004KT 4SM -RA BR SCT009 BKN017 OVC025 25/23 A2982 RMK AO2 RAB09 P0000 T02500228,2024-08-10T04:15:00Z,25,22.8,4,29.82
KAIK,33.651,-81.6821,0,0,0.0,KAIK 100415Z AUTO 00000KT 10SM BKN043 OVC050 26/25 A2997 RMK AO2 T02640248,2024-08-10T04:15:00Z,26.4,24.8,10+,29.97
PACZ,61.776,-166.043,200,9,10.36,PACZ 100413Z AUTO 20009KT 10SM BKN011 09/07 A2970 RMK AO2 SLP061,2024-08-10T04:13:00Z,9,7,10+,29.70
KOXB,38.3091,-75.1234,210,6,6.9,KOXB 100413Z AUTO 21006KT 6SM BR SCT008 BKN070 OVC100 23/23 A2992 RMK AO2 T02330228 PWINO,2024-08-10T04:13:00Z,23.3,22.8,6,29.92
CYGP,48.777,-64.478,VRB,2,2.3,CYGP 100413Z VRB02KT 15SM FEW034 BKN055 OVC120 17/15 A2993 RMK SC2SC4AC2 SLP138,2024-08-10T04:13:00Z,17,15,15,29.93
PAYA,59.512,-139.671,270,9,10.36,PAYA 100412Z AUTO 27009KT 10SM OVC005 14/13 A3001 RMK AO2 CIG 003V009 T01440133 TSNO $,2024-08-10T04:12:00Z,14.4,13.3,10+,30.01
KSMQ,40.6241,-74.669,0,0,0.0,KSMQ 100412Z AUTO 00000KT 8SM FEW021 SCT029 BKN060 24/24 A2981 RMK AO2 T02440244,2024-08-10T04:12:00Z,24.4,24.4,8,29.81
KPSF,42.4268,-73.2891,210,4,4.6,KPSF 100412Z AUTO 21004KT 9SM -RA FEW008 OVC055 23/22 A2982 RMK AO2 P0000 T02280217 $,2024-08-10T04:12:00Z,22.8,21.7,9,29.82
KLEB,43.6271,-72.3054,0,0,0.0,KLEB 100412Z AUTO 00000KT 3SM BR BKN041 22/21 A2978 RMK AO2 T02170211,2024-08-10T04:12:00Z,21.7,21.1,3,29.78
KSMX,34.894,-120.452,300,3,3.45,KSMX 100411Z AUTO 30003KT 6SM BR FEW005 13/13 A2992 RMK AO2 T01280128 $,2024-08-10T04:11:00Z,12.8,12.8,6,29.92
VCRI,6.287,81.125,270,13,14.96,VCRI 100410Z 27013KT 9999 SCT018 32/24 Q1010 NOSIG,2024-08-10T04:10:00Z,32,24,6+,29.82
VCBI,7.181,79.884,VRB,5,5.75,VCBI 100410Z VRB05KT 9999 FEW014 BKN016 30/26 Q1012 NOSIG,2024-08-10T04:10:00Z,30,26,6+,29.88
PACM,61.846,-165.579,140,8,9.21,PACM 100410Z AUTO 14008KT 10SM FEW019 SCT026 OVC045 10/08 A2975 RMK AO2 RAE07 P0000,2024-08-10T04:10:00Z,10,8,10+,29.75
CYTQ,58.671,-69.948,290,17,19.56,CYTQ 100410Z 29017G24KT 15SM SKC 14/10 A2971 RMK LAST OBS/NEXT 101200UTC SLP064,2024-08-10T04:10:00Z,14,10,15,29.71
KBDL,41.9374,-72.682,180,10,11.51,KBDL 100409Z 18010KT 4SM -RA BR BKN008 BKN013 OVC019 25/23 A2981 RMK AO2 P0002 T02500228,2024-08-10T04:09:00Z,25,22.8,4,29.81
PATQ,70.469,-157.428,10,4,4.6,PATQ 100408Z AUTO 01004KT 10SM SCT026 BKN030 OVC055 11/07 A2971 RMK AO2 TSNO PNO $,2024-08-10T04:08:00Z,11,7,10+,29.71
MGGT,14.585,-90.526,30,8,9.21,MGGT 100408Z 03008KT 9999 SCT015 BKN080,2024-08-10T04:08:00Z,,,6+,
KSNY,41.0993,-102.986,150,8,9.21,KSNY 100408Z AUTO 15008KT 9SM SCT008 OVC029 13/12 A3027 RMK AO2 T01280117,2024-08-10T04:08:00Z,12.8,11.7,9,30.27
KPHL,39.8733,-75.2268,230,8,9.21,KPHL 100408Z 23008KT 7SM -RA FEW016 SCT050 OVC075 25/24 A2986 RMK AO2 P0000 T02500244,2024-08-10T04:08:00Z,25,24.4,7,29.86
KMVY,41.393,-70.6159,180,19,21.86,KMVY 100408Z AUTO 18019G28KT 7SM SCT028 BKN035 BKN044 24/23 A2990 RMK AO2 PK WND 18028/0407 RAE02 P0000 T02390228,2024-08-10T04:08:00Z,23.9,22.8,7,29.90
KHWV,40.8212,-72.8674,200,15,17.26,KHWV 100408Z AUTO 20015G26KT 3SM RA BR OVC004 24/22 A2985 RMK AO2 PK WND 21029/0358 P0004 T02390222,2024-08-10T04:08:00Z,23.9,22.2,3,29.85
KBLM,40.1822,-74.1207,200,8,9.21,KBLM 100408Z AUTO 20008KT 4SM -RA BR BKN004 BKN008 OVC030 24/23 A2987 RMK AO2 PNO $,2024-08-10T04:08:00Z,24,23,4,29.87
KHUL,46.1185,-67.7929,160,11,12.66,KHUL 100407Z AUTO 16011G24KT 5SM BR OVC005 20/19 A2976 RMK AO2 RAE04 P0000 T02000189,2024-08-10T04:07:00Z,20,18.9,5,29.76
KGFL,43.3385,-73.6102,0,0,0.0,KGFL 100407Z AUTO 00000KT 10SM BKN004 BKN046 OVC120 22/22 A2977 RMK AO2 T02220222,2024-08-10T04:07:00Z,22.2,22.2,10+,29.77
KFVE,47.2852,-68.3072,130,20,23.02,KFVE 100407Z AUTO 13020G36KT 4SM RA BR OVC004 17/16 A2967 RMK AO2 PK WND 12036/0407 P0004 T01720161,2024-08-10T04:07:00Z,17.2,16.1,4,29.67
KBUY,36.0475,-79.4737,300,5,5.75,KBUY 100407Z AUTO 30005KT 10SM VCTS BKN024 BKN040 OVC055 25/23 A2997 RMK AO2 LTG DSNT SW-NW T02500228,2024-08-10T04:07:00Z,25,22.8,10+,29.97
KACK,41.2541,-70.0589,170,17,19.56,KACK 100407Z 17017KT 4SM BR FEW026 OVC031 22/21 A2994 RMK AO2 PK WND 17026/0357 T02220211 $,2024-08-10T04:07:00Z,22.2,21.1,4,29.94
NZCM,-77.85,166.667,100,8,9.21,NZCM 100406Z AUTO 10008KT 9999 OVC055 M14/M19 A2988 RMK AO2 UPB0357E0406 SLP123 T11411187 $,2024-08-10T04:06:00Z,-14.1,-18.7,6+,29.88
KTEB,40.859,-74.0562,200,8,9.21,KTEB 100406Z 20008KT 4SM BR OVC007 24/23 A2980 RMK AO2 T02440233 $,2024-08-10T04:06:00Z,24.4,23.3,4,29.80
KTAD,37.2618,-104.332,0,0,0.0,KTAD 100406Z AUTO 00000KT 8SM FEW017 SCT023 OVC055 16/13 A3036 RMK AO2 T01560133,2024-08-10T04:06:00Z,15.6,13.3,8,30.36
KHHR,33.9235,-118.333,300,4,4.6,KHHR 100406Z 30004KT 10SM FEW009 19/16 A2987 RMK AO2 T01890161,2024-08-10T04:06:00Z,18.9,16.1,10+,29.87
RJOO,34.784,135.439,350,11,12.66,RJOO 100405Z 35011KT 9999 FEW025 SCT045 BKN070 35/23 Q1001 RMK 1CU025 3CU045 5AC070 A2957,2024-08-10T04:05:00Z,35,23,6+,29.56
RJOA,34.436,132.919,160,6,6.9,RJOA 100405Z 16006KT 120V200 9999 FEW030 SCT045 32/23 Q1004 RMK 1CU030 4CU045 A2965,2024-08-10T04:05:00Z,32,23,6+,29.65
KMRY,36.5904,-121.849,250,8,9.21,KMRY 100404Z AUTO 25008KT 10SM BKN004 OVC008 13/12 A2996 RMK AO2 T01330117,2024-08-10T04:04:00Z,13.3,11.7,10+,29.96
KIML,40.5106,-101.624,150,6,6.9,KIML 100404Z AUTO 15006KT 10SM FEW006 OVC031 13/12 A3029 RMK AO2 T01280117,2024-08-10T04:04:00Z,12.8,11.7,10+,30.29
SVVL,9.34,-70.585,,,,SVVL 100403Z AUTO ///01KT NCD ///// Q////,2024-08-10T04:03:00Z,,,,
SVVA,10.154,-67.92,220,1,1.15,SVVA 100403Z AUTO 22001KT NCD 23/21 Q1015,2024-08-10T04:03:00Z,23,21,,29.97
SVSR,7.881,-67.443,,,,SVSR 100403Z AUTO NIL,2024-08-10T04:03:00Z,,,,
SVSA,7.841,-72.441,140,3,3.45,SVSA 100403Z AUTO 14003KT NCD 27/18 Q1013,2024-08-10T04:03:00Z,27,18,,29.91
SVPR,8.288,-62.76,100,7,8.06,SVPR 100403Z AUTO 10007KT NCD 26/22 Q1014,2024-08-10T04:03:00Z,26,22,,29.94
SVPA,5.622,-67.605,,,,SVPA 100403Z AUTO NIL,2024-08-10T04:03:00Z,,,,
SVMT,9.748,-63.156,60,3,3.45,SVMT 100403Z AUTO 06003KT NCD 26/26 Q1014,2024-08-10T04:03:00Z,26,26,,29.94
SVMG,10.913,-63.968,90,10,11.51,SVMG 100403Z AUTO 09010KT NCD 28/26 Q1013,2024-08-10T04:03:00Z,28,26,,29.91
SVMC,10.558,-71.728,60,7,8.06,SVMC 100403Z AUTO 06007KT NCD 30/25 Q1012,2024-08-10T04:03:00Z,30,25,,29.88
SVLO,11.805,-66.192,,,,SVLO 100403Z AUTO NIL,2024-08-10T04:03:00Z,,,,
SVJM,9.909,-67.377,10,1,1.15,SVJM 100403Z AUTO 01001KT NCD 24/22 Q1014,2024-08-10T04:03:00Z,24,22,,29.94
SVGU,9.027,-69.755,,,,SVGU 100403Z AUTO ///01KT NCD ///// Q1015,2024-08-10T04:03:00Z,,,,29.97
SVGD,7.212,-70.755,200,1,1.15,SVGD 100403Z AUTO 20001KT NCD 25/25 Q1014,2024-08-10T04:03:00Z,25,25,,29.94
SVFM,10.487,-66.846,,,,SVFM 100403Z AUTO NIL,2024-08-10T04:03:00Z,,,,
SVCS,10.287,-66.816,,,,SVCS 100403Z AUTO NIL,2024-08-10T04:03:00Z,,,,
SVCB,8.121,-63.533,,,,SVCB 100403Z AUTO NIL,2024-08-10T04:03:00Z,,,,
SVBS,10.25,-67.649,60,2,2.3,SVBS 100403Z AUTO 06002KT NCD 25/19 Q1016,2024-08-10T04:03:00Z,25,19,,30.00
SVBM,10.043,-69.358,90,8,9.21,SVBM 100403Z AUTO 09008KT NCD 23/20 Q1015,2024-08-10T04:03:00Z,23,20,,29.97
SVBI,8.62,-70.22,,,,SVBI 100403Z AUTO NIL,2024-08-10T04:03:00Z,,,,
SVBC,10.107,-64.689,110,3,3.45,SVBC 100403Z AUTO 11003KT NCD 27/25 Q1013,2024-08-10T04:03:00Z,27,25,,29.91
MMPR,20.68,-105.25,50,8,9.21,MMPR 100403Z 05008KT 8SM TS OVC030CB 25/23 A2987 RMK 8/9// OCNL LTGIC RAE00,2024-08-10T04:03:00Z,25,23,8,29.87
CYYW,50.296,-88.912,330,6,6.9,CYYW 100403Z AUTO 33006KT 300V020 5SM -RA BR OVC013 11/10 A2983 RMK SLP105,2024-08-10T04:03:00Z,11,10,5,29.83
RJOT,34.214,134.016,90,4,4.6,RJOT 100402Z 09004KT 020V160 9999 FEW030 SCT045 33/22 Q1003 RMK 1CU030 4CU045 A2963,2024-08-10T04:02:00Z,33,22,6+,29.62
PAHX,62.688,-159.566,220,3,3.45,PAHX 100402Z AUTO 22003KT 10SM -RA OVC055 10/07 A2989 RMK AO2 RAB0307 SLP120 P0000 T01000067,2024-08-10T04:02:00Z,10,6.7,10+,29.89
KIWD,46.5321,-90.126,280,11,12.66,KIWD 100402Z AUTO 28011G19KT 7SM SCT009 OVC013 11/11 A2995 RMK AO2 P0001 PWINO $,2024-08-10T04:02:00Z,11,11,7,29.95
CYHK,68.633,-95.851,250,7,8.06,CYHK 100402Z AUTO 25007KT 5SM BR CLR 13/12 A2980 RMK SLP097,2024-08-10T04:02:00Z,13,12,5,29.80
SBIP,-19.471,-42.488,0,0,0.0,SBIP 100401Z AUTO 00000KT 2500 NCD 16/15 Q1013,2024-08-10T04:01:00Z,16,15,1.55,29.91
PAFS,63.015,-154.367,VRB,4,4.6,PAFS 100401Z AUTO VRB04KT 10SM FEW036 BKN060 11/07 A2991 RMK AO2 RAB0337E0355 SLP137 P0000 T01110072 $,2024-08-10T04:01:00Z,11.1,7.2,10+,29.91
KRHI,45.6315,-89.4822,270,12,13.81,KRHI 100401Z AUTO 27012KT 10SM OVC029 12/09 A2997 RMK AO2 T01220089,2024-08-10T04:01:00Z,12.2,8.9,10+,29.97
ZYHB,45.628,126.259,50,8,9.21,ZYHB 100400Z 05004MPS CAVOK 26/22 Q1003 NOSIG,2024-08-10T04:00:00Z,26,22,6+,29.62
ZYCC,43.993,125.682,120,6,6.9,ZYCC 100400Z 12003MPS 070V150 9999 -RA SCT033 25/22 Q1002 NOSIG,2024-08-10T04:00:00Z,25,22,6+,29.59
ZWSH,39.542,76.019,80,8,9.21,ZWSH 100400Z 08004MPS 9999 SCT040 29/10 Q1014 NOSIG,2024-08-10T04:00:00Z,29,10,6+,29.94
ZUUU,30.576,103.95,VRB,2,2.3,ZUUU 100400Z VRB01MPS CAVOK 29/22 Q1009 NOSIG,2024-08-10T04:00:00Z,29,22,6+,29.79
ZUTF,30.304,104.436,250,4,4.6,ZUTF 100400Z 25002MPS 200V320 9999 BKN050 25/23 Q1008 NOSIG,2024-08-10T04:00:00Z,25,23,6+,29.76
ZUGY,26.538,106.801,350,14,16.11,ZUGY 100400Z 35007MPS 5000 TSRA BR SCT018 FEW026CB OVC033 22/21 Q1010 BECMG TL0550 03004MPS NSW,2024-08-10T04:00:00Z,22,21,3.11,29.82
ZUCK,29.718,106.639,290,8,9.21,ZUCK 100400Z 29004MPS 260V320 9999 SCT020 27/23 Q1006 NOSIG,2024-08-10T04:00:00Z,27,23,6+,29.70
ZSQD,36.362,120.087,150,12,13.81,ZSQD 100400Z 15006MPS CAVOK 31/28 Q0997 NOSIG,2024-08-10T04:00:00Z,31,28,6+,29.44
ZSOF,31.99,116.965,260,8,9.21,ZSOF 100400Z 26004MPS 9999 FEW026 37/26 Q1000 NOSIG,2024-08-10T04:00:00Z,37,26,6+,29.53
ZSNJ,31.739,118.863,220,10,11.51,ZSNJ 100400Z 22005MPS 9999 FEW026 39/25 Q1000 NOSIG,2024-08-10T04:00:00Z,39,25,6+,29.53
ZSNB,29.827,121.462,160,8,9.21,ZSNB 100400Z 16004MPS 130V200 9999 FEW033 37/24 Q1001 NOSIG,2024-08-10T04:00:00Z,37,24,6+,29.56
ZSFZ,25.936,119.666,130,6,6.9,ZSFZ 100400Z 13003MPS 110V170 6000 NSC 32/27 Q1003 NOSIG,2024-08-10T04:00:00Z,32,27,3.73,29.62
ZSAM,24.546,118.131,100,4,4.6,ZSAM 100400Z 10002MPS 020V160 CAVOK 34/28 Q1003 NOSIG,2024-08-10T04:00:00Z,34,28,6+,29.62
ZPPP,25.107,102.934,250,4,4.6,ZPPP 100400Z 25002MPS 180V350 9999 FEW026TCU SCT026 BKN040 24/17 Q1018 BECMG TL0440 04005MPS TSRA,2024-08-10T04:00:00Z,24,17,6+,30.06
ZMUB,47.843,106.766,VRB,4,4.6,ZMUB 100400Z VRB02MPS 9999 FEW033 SCT100 22/12 Q1010 NOSIG RMK QFE651.1 56 MOP,2024-08-10T04:00:00Z,22,12,6+,29.82
ZLXY,34.449,108.752,250,8,9.21,ZLXY 100400Z 25004MPS CAVOK 31/20 Q1007 NOSIG,2024-08-10T04:00:00Z,31,20,6+,29.73
ZLLL,36.513,103.623,VRB,2,2.3,ZLLL 100400Z VRB01MPS 9999 FEW023 23/08 Q1020 NOSIG,2024-08-10T04:00:00Z,23,8,6+,30.12
ZJSY,18.303,109.412,220,6,6.9,ZJSY 100400Z 22003MPS 130V270 9999 FEW023 33/28 Q1005 NOSIG,2024-08-10T04:00:00Z,33,28,6+,29.68
ZJHK,19.934,110.445,VRB,6,6.9,ZJHK 100400Z VRB03MPS 9999 FEW033 36/25 Q1004 NOSIG,2024-08-10T04:00:00Z,36,25,6+,29.65
ZHHH,30.783,114.205,270,6,6.9,ZHHH 100400Z 27003MPS 220V330 CAVOK 37/27 Q1000 NOSIG,2024-08-10T04:00:00Z,37,27,6+,29.53
ZHCC,34.52,113.834,280,10,11.51,ZHCC 100400Z 28005MPS CAVOK 34/22 Q0999 NOSIG,2024-08-10T04:00:00Z,34,22,6+,29.50
ZGSZ,22.639,113.803,180,14,16.11,ZGSZ 100400Z 18007MPS 9999 FEW023 32/28 Q1004 NOSIG,2024-08-10T04:00:00Z,32,28,6+,29.65
ZGOW,23.55,116.505,VRB,2,2.3,ZGOW 100400Z VRB01MPS CAVOK 35/26 Q1003 NOSIG,2024-08-10T04:00:00Z,35,26,6+,29.62
ZGNN,22.609,108.173,VRB,4,4.6,ZGNN 100400Z VRB02MPS 9999 FEW026TCU SCT026 35/27 Q1003 BECMG FEW026CB SCT033,2024-08-10T04:00:00Z,35,27,6+,29.62
ZGKL,25.22,110.04,110,4,4.6,ZGKL 100400Z 11002MPS 020V150 8000 FEW020 SCT026 BKN050 30/26 Q1005 BECMG FM0500 -TSRA FEW030CB SCT030 BKN050,2024-08-10T04:00:00Z,30,26,4.97,29.68
ZGHA,28.18,113.219,210,10,11.51,ZGHA 100400Z 21005MPS 180V240 CAVOK 37/25 Q1001 NOSIG,2024-08-10T04:00:00Z,37,25,6+,29.56
ZBSJ,38.281,114.697,250,10,11.51,ZBSJ 100400Z 25005MPS CAVOK 34/22 Q0994 NOSIG,2024-08-10T04:00:00Z,34,22,6+,29.35
ZBHH,40.854,111.827,290,17,19.56,ZBHH 100400Z 29009G14MPS 9999 SCT040 25/14 Q1001 NOSIG,2024-08-10T04:00:00Z,25,14,6+,29.56
WSSL,1.417,103.866,210,9,10.36,WSSL 100400Z 21009KT 9999 VCSH FEW015 SCT017TCU BKN150 29/23 Q1010,2024-08-10T04:00:00Z,29,23,6+,29.82
WSAP,1.36,103.909,170,8,9.21,WSAP 100400Z 17008KT 9999 FEW016 FEW018TCU BKN280 29/23 Q1011,2024-08-10T04:00:00Z,29,23,6+,29.85
WMSA,3.13,101.552,160,8,9.21,WMSA 100400Z 16008KT 140V210 9999 FEW018 32/23 Q1010,2024-08-10T04:00:00Z,32,23,6+,29.82
WMKN,5.383,103.103,30,6,6.9,WMKN 100400Z 03006KT 340V080 9999 SCT018 32/26 Q1009,2024-08-10T04:00:00Z,32,26,6+,29.79
WMKM,2.263,102.252,190,8,9.21,WMKM 100400Z 19008KT 120V260 9999 FEW017CB 31/25 Q1011,2024-08-10T04:00:00Z,31,25,6+,29.85
WMKL,6.33,99.729,250,7,8.06,WMKL 100400Z 25007KT 170V320 9000 -SHRA FEW017CB SCT020 27/25 Q1011,2024-08-10T04:00:00Z,27,25,5.59,29.85
WMKJ,1.641,103.67,200,4,4.6,WMKJ 100400Z 20004KT 150V280 9999 FEW017CB SCT018 31/26 Q1010,2024-08-10T04:00:00Z,31,26,6+,29.82
WMKI,4.568,101.092,VRB,5,5.75,WMKI 100400Z VRB05KT 9999 FEW020 32/25 Q1010,2024-08-10T04:00:00Z,32,25,6+,29.82
WMKE,4.537,103.427,VRB,6,6.9,WMKE 100400Z VRB06G18KT 9999 FEW017 32/25 Q1009,2024-08-10T04:00:00Z,32,25,6+,29.79
WMKD,3.775,103.209,VRB,5,5.75,WMKD 100400Z VRB05KT 9999 FEW020 32/25 Q1010 NOSIG,2024-08-10T04:00:00Z,32,25,6+,29.82
WMKC,6.167,102.293,340,7,8.06,WMKC 100400Z 34007KT 300V020 9999 FEW018 32/25 Q1010,2024-08-10T04:00:00Z,32,25,6+,29.82
WMKB,5.466,100.391,260,5,5.75,WMKB 100400Z 26005KT 180V330 7000 FEW020 31/23 Q1010 NOSIG,2024-08-10T04:00:00Z,31,23,4.35,29.82
WMKA,6.19,100.398,270,5,5.75,WMKA 100400Z 27005KT 230V310 9999 SCT018 30/26 Q1010,2024-08-10T04:00:00Z,30,26,6+,29.82
WMBA,4.221,100.701,VRB,3,3.45,WMBA 100400Z VRB03KT 9999 SCT020 31/25 Q1010,2024-08-10T04:00:00Z,31,25,6+,29.82
WMAU,2.387,103.876,90,7,8.06,WMAU 100400Z 09007KT 050V150 9999 SCT020 33/27 Q1010,2024-08-10T04:00:00Z,33,27,6+,29.82
WBKW,4.316,118.119,160,4,4.6,WBKW 100400Z 16004KT 120V190 9999 FEW018 31/25 Q1009,2024-08-10T04:00:00Z,31,25,6+,29.79
WBKT,6.922,116.837,VRB,3,3.45,WBKT 100400Z VRB03KT 9999 FEW014 29/26 Q1008,2024-08-10T04:00:00Z,29,26,6+,29.76
WBKS,5.901,118.059,VRB,4,4.6,WBKS 100400Z VRB04KT 9999 SCT016 33/25 Q1008,2024-08-10T04:00:00Z,33,25,6+,29.76
WBKL,5.301,115.25,40,8,9.21,WBKL 100400Z 04008KT 330V100 9999 FEW014 31/27 Q1008,2024-08-10T04:00:00Z,31,27,6+,29.76
WBGY,1.222,111.466,VRB,2,2.3,WBGY 100400Z VRB02KT 9999 FEW016 32/27 Q1009,2024-08-10T04:00:00Z,32,27,6+,29.79
WBGS,2.264,111.983,VRB,3,3.45,WBGS 100400Z VRB03KT 9999 SCT017 31/25 Q1008,2024-08-10T04:00:00Z,31,25,6+,29.76
WBGR,4.322,113.987,VRB,3,3.45,WBGR 100400Z VRB03KT 9999 SCT016 33/26 Q1008,2024-08-10T04:00:00Z,33,26,6+,29.76
WBGB,3.12,113.025,0,0,0.0,WBGB 100400Z 00000KT 9999 SCT016 32/26 Q1008,2024-08-10T04:00:00Z,32,26,6+,29.76
WAMM,1.541,124.926,150,6,6.9,WAMM 100400Z 15006KT 080V220 9999 SCT020 32/24 Q1011 NOSIG METAR ,2024-08-10T04:00:00Z,32,24,6+,29.85
VYNT,19.623,96.201,170,6,6.9,VYNT 100400Z 17006KT 7000 SCT020 FEW025CB SCT120 30/25 Q1009 NOSIG,2024-08-10T04:00:00Z,30,25,4.35,29.79
VTUW,17.384,104.643,240,6,6.9,VTUW 100400Z 24006KT 220V280 9999 SCT030 34/26 Q1007 NOSIG,2024-08-10T04:00:00Z,34,26,6+,29.73
VTUV,16.117,103.772,210,9,10.36,VTUV 100400Z 21009KT 180V250 9999 SCT025 33/27 Q1007 NOSIG,2024-08-10T04:00:00Z,33,27,6+,29.73
VTUU,15.251,104.87,240,8,9.21,VTUU 100400Z 24008KT 200V290 9999 BKN030 32/26 Q1008 NOSIG,2024-08-10T04:00:00Z,32,26,6+,29.76
VTUQ,14.95,102.313,240,5,5.75,VTUQ 100400Z 24005KT 9999 FEW030 33/26 Q1008 NOSIG,2024-08-10T04:00:00Z,33,26,6+,29.76
VTUO,15.227,103.244,220,6,6.9,VTUO 100400Z 22006KT 190V270 9999 FEW030 32/24 Q1008 NOSIG,2024-08-10T04:00:00Z,32,24,6+,29.76
VTUL,17.445,101.725,270,7,8.06,VTUL 100400Z 27007KT 9999 FEW030 34/25 Q1008 NOSIG,2024-08-10T04:00:00Z,34,25,6+,29.76
VTUK,16.462,102.786,230,7,8.06,VTUK 100400Z 23007KT 170V280 9000 SCT025 33/25 Q1008 NOSIG,2024-08-10T04:00:00Z,33,25,5.59,29.76
VTUI,17.195,104.119,270,4,4.6,VTUI 100400Z 27004KT 230V320 9999 FEW030 33/25 Q1007 NOSIG,2024-08-10T04:00:00Z,33,25,6+,29.73
VTUD,17.382,102.799,290,5,5.75,VTUD 100400Z 29005KT 210V360 9999 FEW035 34/26 Q1007 NOSIG,2024-08-10T04:00:00Z,34,26,6+,29.73
VTSY,5.788,101.147,210,4,4.6,VTSY 100400Z 21004KT 170V280 9999 SCT025 31/25 Q1011 NOSIG,2024-08-10T04:00:00Z,31,25,6+,29.85
VTST,7.512,99.621,230,4,4.6,VTST 100400Z 23004KT 180V280 9999 SCT020 31/25 Q1010 NOSIG,2024-08-10T04:00:00Z,31,25,6+,29.82
VTSR,9.773,98.587,280,5,5.75,VTSR 100400Z 28005KT 250V320 9999 SCT025 32/23 Q1010 NOSIG,2024-08-10T04:00:00Z,32,23,6+,29.82
VTSM,9.548,100.062,320,9,10.36,VTSM 100400Z 32009KT 280V020 9999 FEW020 33/25 Q1010 NOSIG,2024-08-10T04:00:00Z,33,25,6+,29.82
VTSG,8.099,98.986,170,4,4.6,VTSG 100400Z 17004KT 130V210 9999 SCT018 31/26 Q1011 NOSIG,2024-08-10T04:00:00Z,31,26,6+,29.85
VTSF,8.546,99.94,VRB,1,1.15,VTSF 100400Z VRB01KT 9999 FEW018 32/25 Q1009 NOSIG,2024-08-10T04:00:00Z,32,25,6+,29.79
VTSE,10.711,99.362,300,7,8.06,VTSE 100400Z 30007KT 230V340 9999 SCT020 33/25 Q1009 NOSIG,2024-08-10T04:00:00Z,33,25,6+,29.79
VTSC,6.52,101.743,70,4,4.6,VTSC 100400Z 07004KT 040V110 9999 FEW020 31/24 Q1010 NOSIG,2024-08-10T04:00:00Z,31,24,6+,29.82
VTSB,9.133,99.152,250,3,3.45,VTSB 100400Z 25003KT 200V290 9999 FEW020 32/26 Q1009 NOSIG,2024-08-10T04:00:00Z,32,26,6+,29.79
VTPT,16.897,99.254,,,,VTPT 100400Z /////KT 9999 FEW026 32/23 Q1008 NOSIG,2024-08-10T04:00:00Z,32,23,6+,29.76
VTPP,16.792,100.274,130,3,3.45,VTPP 100400Z 13003KT 080V190 9999 BKN030 32/24 Q1007 NOSIG,2024-08-10T04:00:00Z,32,24,6+,29.73
VTPO,17.238,99.818,250,4,4.6,VTPO 100400Z 25004KT 190V310 9999 FEW020 33/26 Q1007 NOSIG,2024-08-10T04:00:00Z,33,26,6+,29.73
VTPM,16.703,98.542,250,7,8.06,VTPM 100400Z 25007KT 220V300 9999 SCT022 29/24 Q1010 NOSIG,2024-08-10T04:00:00Z,29,24,6+,29.82
VTPH,12.633,99.951,130,7,8.06,VTPH 100400Z 13007KT 9999 FEW030 33/24 Q1008 NOSIG,2024-08-10T04:00:00Z,33,24,6+,29.76
VTPB,16.676,101.195,120,3,3.45,VTPB 100400Z 12003KT 030V180 9999 FEW030 33/26 Q1008 NOSIG,2024-08-10T04:00:00Z,33,26,6+,29.76
VTCT,19.961,99.881,220,6,6.9,VTCT 100400Z 22006KT 150V260 9999 FEW025 32/24 Q1008 NOSIG,2024-08-10T04:00:00Z,32,24,6+,29.76
VTCP,18.129,100.162,VRB,5,5.75,VTCP 100400Z VRB05KT 9999 FEW035 33/24 Q1008 NOSIG,2024-08-10T04:00:00Z,33,24,6+,29.76
VTCN,18.807,100.787,VRB,2,2.3,VTCN 100400Z VRB02KT 9999 FEW020 31/26 Q1007 NOSIG,2024-08-10T04:00:00Z,31,26,6+,29.73
VTCL,18.277,99.502,220,4,4.6,VTCL 100400Z 22004KT 150V320 9999 FEW040 33/24 Q1008 NOSIG,2024-08-10T04:00:00Z,33,24,6+,29.76
VTCH,19.302,97.972,VRB,3,3.45,VTCH 100400Z VRB03KT 9999 FEW018 BKN025 31/25 Q1009,2024-08-10T04:00:00Z,31,25,6+,29.79
VTBO,12.275,102.319,220,8,9.21,VTBO 100400Z 22008KT 9999 SCT020 SCT100 30/27 Q1009,2024-08-10T04:00:00Z,30,27,6+,29.79
VRMM,4.192,73.529,300,5,5.75,VRMM 100400Z 30005KT 9999 FEW018TCU 31/26 Q1011 NOSIG,2024-08-10T04:00:00Z,31,26,6+,29.85
VRMH,6.744,73.171,320,11,12.66,VRMH 100400Z 32011KT 9999 FEW018 BKN270 31/26 Q1012,2024-08-10T04:00:00Z,31,26,6+,29.88
VRMG,-0.693,73.156,160,7,8.06,VRMG 100400Z 16007KT 9999 FEW019 BKN260 30/25 Q1012 NOSIG,2024-08-10T04:00:00Z,30,25,6+,29.88
VOTR,10.765,78.71,270,13,14.96,VOTR 100400Z 27013KT 5000 HZ FEW016 SCT100 31/26 Q1010 NOSIG,2024-08-10T04:00:00Z,31,26,3.11,29.82
VOPC,11.969,79.81,290,6,6.9,VOPC 100400Z 29006KT 6000 SCT020 27/25 Q1010 NOSIG,2024-08-10T04:00:00Z,27,25,3.73,29.82
VOJV,15.174,76.635,270,8,9.21,VOJV 100400Z 27008KT 7000 SCT015 28/22 Q1014,2024-08-10T04:00:00Z,28,22,4.35,29.94
VOHY,17.453,78.468,300,8,9.21,VOHY 100400Z 30008KT 6000 SCT015 28/23 Q1013 NOSIG,2024-08-10T04:00:00Z,28,23,3.73,29.91
VOGO,15.378,73.828,VRB,2,2.3,VOGO 100400Z VRB02KT 6000 FEW008 SCT015 BKN080 27/25 Q1011 NOSIG,2024-08-10T04:00:00Z,27,25,3.73,29.85
VOAR,13.071,79.691,320,10,11.51,VOAR 100400Z 32010KT 6000 SCT018 BKN090 29/24 Q1009 NOSIG,2024-08-10T04:00:00Z,29,24,3.73,29.79
VLSK,16.557,104.76,180,6,6.9,VLSK 100400Z 18006KT 9999 SCT020 BKN100 33/23 Q1008 NOSIG,2024-08-10T04:00:00Z,33,23,6+,29.76
VLPS,15.132,105.781,140,6,6.9,VLPS 100400Z 14006KT 9999 FEW017 SCT100 31/26 Q1008 NOSIG,2024-08-10T04:00:00Z,31,26,6+,29.76
VLLN,20.963,101.403,270,2,2.3,VLLN 100400Z 27002KT 9999 SCT020 BKN100 31/25 Q1009 NOSIG,2024-08-10T04:00:00Z,31,25,6+,29.79
VLLB,19.897,102.161,270,6,6.9,VLLB 100400Z 27006KT 9999 SCT017 SCT060 33/25 Q1006 NOSIG,2024-08-10T04:00:00Z,33,25,6+,29.70
VISR,33.987,74.774,VRB,2,2.3,VISR 100400Z VRB02KT 6000 FEW200 28/21 Q1014 NOSIG,2024-08-10T04:00:00Z,28,21,3.73,29.94
VGEG,22.249,91.814,150,6,6.9,VGEG 100400Z 15006KT 5000 TSRA SCT014 FEW028CB OVC090 28/26 Q1007 TEMPO P/VIS,2024-08-10T04:00:00Z,28,26,3.11,29.73
VEMR,25.884,93.771,300,5,5.75,VEMR 100400Z 30005KT 5000 HZ SCT018 BKN090 32/26 Q1007 NOSIG,2024-08-10T04:00:00Z,32,26,3.11,29.73
VELR,27.296,94.098,220,1,1.15,VELR 100400Z 22001KT 3500 -DZ SCT008 BKN018 OVC080 28/27 Q1005,2024-08-10T04:00:00Z,28,27,2.17,29.68
VEKI,26.776,83.889,90,8,9.21,VEKI 100400Z 09008KT 5000 HZ SCT020 SCT025 BKN100 30/25 Q1005 NOSIG,2024-08-10T04:00:00Z,30,25,3.11,29.68
VEJS,22.813,86.169,230,4,4.6,VEJS 100400Z 23004KT 2500 BR SCT018 BKN100 29/26 Q1006,2024-08-10T04:00:00Z,29,26,1.55,29.70
VEGY,24.744,84.951,260,5,5.75,VEGY 100400Z 26005KT 4000 BR SCT016 BKN100 29/26 Q1005,2024-08-10T04:00:00Z,29,26,2.49,29.68
VECO,26.331,89.467,30,3,3.45,VECO 100400Z 03003KT 3000 HZ SCT015 BKN020 OVC090 28/28 Q1005 NOSIG,2024-08-10T04:00:00Z,28,28,1.86,29.68
VEBD,26.681,88.329,90,8,9.21,VEBD 100400Z 09008KT 6000 SCT012 SCT020 FEW030TCU BKN090 29/26 Q1006 TEMPO 3000 -RA,2024-08-10T04:00:00Z,29,26,3.73,29.70
VCCC,6.822,79.886,290,4,4.6,VCCC 100400Z 29004KT 230V320 9999 SCT016 FEW018CB 31/25 Q1011 A2988,2024-08-10T04:00:00Z,31,25,6+,29.85
VAPR,21.649,69.657,260,12,13.81,VAPR 100400Z 26012KT 5000 HZ FEW015 SCT020 BKN070 28/25 Q1008 NOSIG,2024-08-10T04:00:00Z,28,25,3.11,29.76
VAJB,23.178,80.05,230,10,11.51,VAJB 100400Z 23010KT 3500 HZ SCT010 SCT020 BKN090 26/23 Q1008 NOSIG,2024-08-10T04:00:00Z,26,23,2.17,29.76
VAHS,22.3772,71.0374,230,12,13.81,VAHS 100400Z 23012KT 6000 SCT020 BKN080 29/25 Q1008 NOSIG,2024-08-10T04:00:00Z,29,25,3.73,29.76
UWOR,51.07,58.597,100,8,9.21,UWOR 100400Z 10004MPS 9000 -SHRA OVC043CB 13/13 Q1011 R07/290255 NOSIG RMK QFE734/0979,2024-08-10T04:00:00Z,13,13,5.59,29.85
UWLW,54.402,48.8,110,4,4.6,UWLW 100400Z 11002MPS CAVOK 17/17 Q1007 R02/CLRD60 NOSIG RMK QFE748/0998,2024-08-10T04:00:00Z,17,17,6+,29.73
UTAV,39.083,63.613,360,10,11.51,UTAV 100400Z 36010KT CAVOK 31/12 Q1010 R31/CLRD70 NOSIG,2024-08-10T04:00:00Z,31,12,6+,29.82
UTAT,41.761,59.827,VRB,2,2.3,UTAT 100400Z VRB02KT CAVOK 29/15 Q1011 R26/CLRD70 NOSIG,2024-08-10T04:00:00Z,29,15,6+,29.85
UTAM,37.619,61.897,40,6,6.9,UTAM 100400Z 04006KT CAVOK 30/16 Q1010 R88/CLRD70 NOSIG,2024-08-10T04:00:00Z,30,16,6+,29.82
UTAK,40.054,53.007,50,8,9.21,UTAK 100400Z 05008KT CAVOK 31/16 Q1011 R34L/CLRD70 NOSIG,2024-08-10T04:00:00Z,31,16,6+,29.85
UTAA,37.975,58.371,90,6,6.9,UTAA 100400Z 09006KT 050V120 9999 FEW100 33/15 Q1010 R88/CLRD70 NOSIG,2024-08-10T04:00:00Z,33,15,6+,29.82
URMN,43.514,43.646,270,4,4.6,URMN 100400Z 27002MPS 9999 SCT088 22/16 Q1013 R24/////// NOSIG RMK QFE723,2024-08-10T04:00:00Z,22,16,6+,29.91
UMOO,53.954,30.1,210,6,6.9,UMOO 100400Z 21003MPS CAVOK 19/14 Q1014 NOSIG,2024-08-10T04:00:00Z,19,14,6+,29.94
UMMG,53.602,24.056,260,6,6.9,UMMG 100400Z 26003MPS 9999 BKN033 BKN066 17/15 Q1013 NOSIG,2024-08-10T04:00:00Z,17,15,6+,29.91
UMBB,52.109,23.897,210,4,4.6,UMBB 100400Z 21002MPS 8000 NSC 16/14 Q1015 NOSIG,2024-08-10T04:00:00Z,16,14,4.97,29.97
UBEE,40.632,47.142,140,8,9.21,UBEE 100400Z 14008KT CAVOK 25/21 Q1011 NOSIG RMK BKN100 AC,2024-08-10T04:00:00Z,25,21,6+,29.85
UBBY,41.561,46.667,80,4,4.6,UBBY 100400Z 08004KT 9999 BKN075 24/20 Q1016 NOSIG,2024-08-10T04:00:00Z,24,20,6+,30.00
UBBQ,40.809,47.729,30,2,2.3,UBBQ 100400Z 03002KT 9999 BKN083 23/18 Q1013 NOSIG,2024-08-10T04:00:00Z,23,18,6+,29.91
UBBL,38.746,48.818,0,0,0.0,UBBL 100400Z 00000KT 9999 NSC 26/24 Q1012 NOSIG,2024-08-10T04:00:00Z,26,24,6+,29.88
TTPP,10.593,-61.348,100,3,3.45,TTPP 100400Z 10003KT 9999 FEW016 BKN040 27/25 Q1013 NOSIG,2024-08-10T04:00:00Z,27,25,6+,29.91
TTCP,11.149,-60.836,110,8,9.21,TTCP 100400Z 11008KT 9999 FEW016 28/25 Q1013 NOSIG,2024-08-10T04:00:00Z,28,25,6+,29.91
TNCM,18.041,-63.109,40,9,10.36,TNCM 100400Z 04009KT 010V080 9999 SCT016 29/27 Q1017 ,2024-08-10T04:00:00Z,29,27,6+,30.03
TNCC,12.189,-68.96,90,12,13.81,TNCC 100400Z 09012KT 9999 FEW018 29/25 Q1012 NOSIG,2024-08-10T04:00:00Z,29,25,6+,29.88
TLPL,13.743,-60.948,120,14,16.11,TLPL 100400Z 12014KT 9999 FEW022 28/24 Q1014 NOSIG,2024-08-10T04:00:00Z,28,24,6+,29.94
TGPY,12.006,-61.797,100,13,14.96,TGPY 100400Z 10013KT 9999 VCSH SCT018 29/25 Q1013 NOSIG RMK VCSH-SE/W,2024-08-10T04:00:00Z,29,25,6+,29.91
TBPB,13.075,-59.492,110,9,10.36,TBPB 100400Z 11009KT 9999 FEW018 SCT034 27/25 Q1014 NOSIG,2024-08-10T04:00:00Z,27,25,6+,29.94
TAPA,17.135,-61.797,80,5,5.75,TAPA 100400Z 08005KT 040V120 9999 VCSH SCT020 27/25 Q1015 NOSIG,2024-08-10T04:00:00Z,27,25,6+,29.97
SYCJ,6.499,-58.254,VRB,2,2.3,SYCJ 100400Z VRB02KT 9999 FEW015 24/24 Q1013 NOSIG,2024-08-10T04:00:00Z,24,24,6+,29.91
SUMU,-34.838,-56.031,330,5,5.75,SUMU 100400Z 33005KT 9999 FEW030 04/04 Q1022 NOSIG,2024-08-10T04:00:00Z,4,4,6+,30.18
SULS,-34.855,-55.094,340,5,5.75,SULS 100400Z 34005KT 9999 FEW026 05/03 Q1021,2024-08-10T04:00:00Z,5,3,6+,30.15
SUAA,-34.788,-56.263,330,5,5.75,SUAA 100400Z 33005KT CAVOK 04/02 Q1022,2024-08-10T04:00:00Z,4,2,6+,30.18
SPZO,-13.536,-71.939,0,0,0.0,SPZO 100400Z 00000KT 9999 NSC 08/02 Q1033 NOSIG RMK BIRD HAZARD RWY 10/28 PP000,2024-08-10T04:00:00Z,8,2,6+,30.50
SPUR,-5.206,-80.616,150,4,4.6,SPUR 100400Z 15004KT CAVOK 18/14 Q1016 RMK PP000,2024-08-10T04:00:00Z,18,14,6+,30.00
SPTN,-18.049,-70.277,220,3,3.45,SPTN 100400Z 22003KT 180V250 6000 OVC020 12/09 Q1019 RMK PP000,2024-08-10T04:00:00Z,12,9,3.73,30.09
SPSO,-13.744,-76.221,50,3,3.45,SPSO 100400Z 05003KT 7000 NSC 12/10 Q1017 RMK PP000,2024-08-10T04:00:00Z,12,10,4.35,30.03
SPRU,-8.087,-79.109,140,6,6.9,SPRU 100400Z 14006KT 7000 BCFG NSC 16/15 Q1016 RMK PP000,2024-08-10T04:00:00Z,16,15,4.35,30.00
SPQU,-16.341,-71.583,30,3,3.45,SPQU 100400Z 03003KT 010V070 CAVOK 10/M20 Q1029 RMK PP000,2024-08-10T04:00:00Z,10,-20,6+,30.38
SPQT,-3.786,-73.306,340,2,2.3,SPQT 100400Z 34002KT 9999 FEW020 BKN100 24/23 Q1013 NOSIG RMK PP000,2024-08-10T04:00:00Z,24,23,6+,29.91
SPJC,-12.024,-77.113,170,9,10.36,SPJC 100400Z 17009KT 6000 OVC008 16/13 Q1017 NOSIG RMK PP000,2024-08-10T04:00:00Z,16,13,3.73,30.03
SPHI,-6.787,-79.828,180,13,14.96,SPHI 100400Z 18013KT 9999 VCFG OVC005 17/14 Q1016 RMK BIRD HAZARD RWY 19/01 PP000,2024-08-10T04:00:00Z,17,14,6+,30.00
SPCL,-8.378,-74.574,230,2,2.3,SPCL 100400Z 23002KT 9999 FEW015 26/21 Q1013 RMK PP000,2024-08-10T04:00:00Z,26,21,6+,29.91
SMJP,5.453,-55.188,70,6,6.9,SMJP 100400Z 07006KT 9999 FEW008 26/25 Q1013 NOSIG,2024-08-10T04:00:00Z,26,25,6+,29.91
SLVR,-17.645,-63.135,150,8,9.21,SLVR 100400Z 15008KT 9999 BKN080 15/03 Q1025,2024-08-10T04:00:00Z,15,3,6+,30.27
SLLP,-16.511,-68.182,70,5,5.75,SLLP 100400Z 07005KT 9999 FEW006 M02/M03 Q1039,2024-08-10T04:00:00Z,-2,-3,6+,30.68
SLCB,-17.421,-66.179,130,10,11.51,SLCB 100400Z 13010G20KT 100V220 9999 NSC 13/04 Q1028,2024-08-10T04:00:00Z,13,4,6+,30.35
SKVP,10.436,-73.248,80,4,4.6,SKVP 100400Z 08004KT 060V120 9999 SCT015 29/24 Q1013,2024-08-10T04:00:00Z,29,24,6+,29.91
SKSP,12.587,-81.704,50,8,9.21,SKSP 100400Z 05008KT 9999 FEW016 29/26 Q1014,2024-08-10T04:00:00Z,29,26,6+,29.94
SKSM,11.12,-74.231,50,4,4.6,SKSM 100400Z 05004KT 9999 FEW020 28/24 Q1012,2024-08-10T04:00:00Z,28,24,6+,29.88
SKRG,6.169,-75.426,VRB,2,2.3,SKRG 100400Z VRB02KT 9999 -DZ SCT010 16/14 Q1027 NOSIG,2024-08-10T04:00:00Z,16,14,6+,30.32
SKPE,4.814,-75.735,110,5,5.75,SKPE 100400Z 11005KT 050V160 8000 VCFG SCT013 SCT070 19/18 Q1020,2024-08-10T04:00:00Z,19,18,4.97,30.12
SKMR,8.826,-75.825,0,0,0.0,SKMR 100400Z 00000KT 9999 SCT016 26/25 Q1011,2024-08-10T04:00:00Z,26,25,6+,29.85
SKLT,-4.196,-69.943,VRB,2,2.3,SKLT 100400Z VRB02KT 9999 FEW013 24/23 Q1012,2024-08-10T04:00:00Z,24,23,6+,29.88
SKCL,3.543,-76.382,10,4,4.6,SKCL 100400Z 01004KT 9999 SCT025 BKN100 21/19 Q1018 NOSIG,2024-08-10T04:00:00Z,21,19,6+,30.06
SKCG,10.447,-75.516,70,3,3.45,SKCG 100400Z 07003KT 9999 SCT017 28/26 Q1011,2024-08-10T04:00:00Z,28,26,6+,29.85
SKCC,7.93,-72.509,190,5,5.75,SKCC 100400Z 19005KT 9999 SCT018 SCT080 28/19 Q1014,2024-08-10T04:00:00Z,28,19,6+,29.94
SKBQ,10.883,-74.78,20,9,10.36,SKBQ 100400Z 02009KT 9999 FEW015 29/26 Q1011 NOSIG,2024-08-10T04:00:00Z,29,26,6+,29.85
SKBO,4.706,-74.151,110,3,3.45,SKBO 100400Z 11003KT 080V200 9999 FEW017 SCT080 13/11 Q1030 RERA NOSIG,2024-08-10T04:00:00Z,13,11,6+,30.41
SKBG,7.127,-73.185,0,0,0.0,SKBG 100400Z 00000KT 9999 FEW010 BKN070 22/19 Q1017,2024-08-10T04:00:00Z,22,19,6+,30.03
SKAR,4.455,-75.766,0,0,0.0,SKAR 100400Z 00000KT 9999 BKN017 BKN100 20/19 Q1019,2024-08-10T04:00:00Z,20,19,6+,30.09
SGES,-25.461,-54.849,180,3,3.45,SGES 100400Z 18003KT CAVOK 07/04 Q1026,2024-08-10T04:00:00Z,7,4,6+,30.30
SGAS,-25.248,-57.519,0,0,0.0,SGAS 100400Z 00000KT CAVOK 06/04 Q1026,2024-08-10T04:00:00Z,6,4,6+,30.30
SEQM,-0.124,-78.354,VRB,1,1.15,SEQM 100400Z VRB01KT 9999 FEW020 BKN100 11/09 Q1029 NOSIG RMK A3039,2024-08-10T04:00:00Z,11,9,6+,30.38
SEMT,-0.946,-80.679,200,6,6.9,SEMT 100400Z 20006KT 9999 BKN020 23/20 Q1013 RMK A2994,2024-08-10T04:00:00Z,23,20,6+,29.91
SEGU,-2.158,-79.884,220,10,11.51,SEGU 100400Z 22010KT 9999 SCT026 SCT100 23/20 Q1014 NOSIG RMK A2995,2024-08-10T04:00:00Z,23,20,6+,29.94
SECU,-2.889,-78.984,30,4,4.6,SECU 100400Z 03004KT 9999 FEW033 SCT080 13/08 Q1029 RMK A3038,2024-08-10T04:00:00Z,13,8,6+,30.38
SCVM,-32.947,-71.479,200,5,5.75,SCVM 100400Z 20005KT CAVOK 07/05 Q1022,2024-08-10T04:00:00Z,7,5,6+,30.18
SCVD,-39.65,-73.086,320,7,8.06,SCVD 100400Z AUTO 32007KT 9999 RA SCT009 BKN019 OVC047 10/10 Q1020,2024-08-10T04:00:00Z,10,10,6+,30.12
SCTN,-42.933,-72.699,350,15,17.26,SCTN 100400Z AUTO 35015KT 9999 -RA OVC004 09/09 Q1015,2024-08-10T04:00:00Z,9,9,6+,29.97
SCTE,-41.439,-73.094,360,7,8.06,SCTE 100400Z 36007KT 330V030 9999 SCT004 OVC016 09/08 Q1017 NOSIG,2024-08-10T04:00:00Z,9,8,6+,30.03
SCSE,-29.918,-71.201,90,7,8.06,SCSE 100400Z AUTO 09007KT CAVOK 09/09 Q1019,2024-08-10T04:00:00Z,9,9,6+,30.09
SCQP,-38.925,-72.648,10,6,6.9,SCQP 100400Z 01006KT 9999 OVC028 09/08 Q1022,2024-08-10T04:00:00Z,9,8,6+,30.18
SCPQ,-42.347,-73.718,360,7,8.06,SCPQ 100400Z AUTO 36007KT 330V030 9999 FEW030 08/08 Q1015,2024-08-10T04:00:00Z,8,8,6+,29.97
SCJO,-40.605,-73.061,20,9,10.36,SCJO 100400Z AUTO 02009KT 9999 BKN026/// OVC047/// 09/08 Q1019,2024-08-10T04:00:00Z,9,8,6+,30.09
SCIP,-27.161,-109.427,330,16,18.41,SCIP 100400Z 33016KT CAVOK 20/18 Q1017 NOSIG,2024-08-10T04:00:00Z,20,18,6+,30.03
SCIE,-36.773,-73.063,280,3,3.45,SCIE 100400Z 28003KT 190V360 9999 OVC006 10/09 Q1025,2024-08-10T04:00:00Z,10,9,6+,30.27
SCIC,-34.966,-71.217,20,2,2.3,SCIC 100400Z AUTO 02002KT //// R/////// // NCD 03/03 Q1024,2024-08-10T04:00:00Z,3,3,,30.24
SCFT,-43.189,-71.853,310,8,9.21,SCFT 100400Z AUTO 31008KT 230V030 9999 -RA FEW014/// OVC038/// 07/05 Q1012,2024-08-10T04:00:00Z,7,5,6+,29.88
SCFA,-23.45,-70.441,360,3,3.45,SCFA 100400Z 36003KT 300V030 9999 BKN015 13/09 Q1018 NOSIG,2024-08-10T04:00:00Z,13,9,6+,30.06
SCEL,-33.393,-70.786,300,3,3.45,SCEL 100400Z 30003KT 270V350 8000 NSC 07/04 Q1022 NOSIG,2024-08-10T04:00:00Z,7,4,4.97,30.18
SCDA,-20.535,-70.181,VRB,1,1.15,SCDA 100400Z VRB01KT 9999 OVC022 15/10 Q1019,2024-08-10T04:00:00Z,15,10,6+,30.09
SCCH,-36.583,-72.031,60,4,4.6,SCCH 100400Z AUTO 06004KT CAVOK 05/04 Q1023,2024-08-10T04:00:00Z,5,4,6+,30.21
SCCF,-22.496,-68.905,100,23,26.47,SCCF 100400Z 10023KT CAVOK 00/M31 Q1030,2024-08-10T04:00:00Z,0,-31,6+,30.41
SCAT,-27.262,-70.774,VRB,3,3.45,SCAT 100400Z AUTO VRB03KT 9999 OVC007/// 11/09 Q1019,2024-08-10T04:00:00Z,11,9,6+,30.09
SCAR,-18.351,-70.336,230,3,3.45,SCAR 100400Z 23003KT 180V250 9999 OVC023 16/10 Q1019,2024-08-10T04:00:00Z,16,10,6+,30.09
SBVT,-20.258,-40.286,10,7,8.06,SBVT 100400Z 01007KT 9999 BKN025 OVC080 24/21 Q1013,2024-08-10T04:00:00Z,24,21,6+,29.91
SBUR,-19.765,-47.965,250,11,12.66,SBUR 100400Z 25011KT 6000 2500NE BKN006 14/14 Q1020,2024-08-10T04:00:00Z,14,14,3.73,30.12
SBUL,-18.883,-48.226,210,14,16.11,SBUL 100400Z 21014KT 9999 SCT010 BKN100 16/13 Q1020,2024-08-10T04:00:00Z,16,13,6+,30.12
SBUF,-9.4,-38.25,140,6,6.9,SBUF 100400Z AUTO 14006KT CAVOK 20/17 Q1016,2024-08-10T04:00:00Z,20,17,6+,30.00
SBTU,-3.786,-49.72,,,,SBTU 100400Z AUTO /////KT ///V/// //// // ///////// ///// Q////,2024-08-10T04:00:00Z,,,,
SBTE,-5.06,-42.824,350,5,5.75,SBTE 100400Z 35005KT 9999 FEW025 26/21 Q1012,2024-08-10T04:00:00Z,26,21,6+,29.88
SBSV,-12.911,-38.331,VRB,2,2.3,SBSV 100400Z VRB02KT 9999 FEW027 22/19 Q1015,2024-08-10T04:00:00Z,22,19,6+,29.97
SBSR,-20.817,-49.407,240,11,12.66,SBSR 100400Z 24011KT 9999 SCT005 BKN015 11/09 Q1021,2024-08-10T04:00:00Z,11,9,6+,30.15
SBSN,-2.423,-54.789,80,3,3.45,SBSN 100400Z 08003KT CAVOK 27/25 Q1012,2024-08-10T04:00:00Z,27,25,6+,29.88
SBSL,-2.585,-44.234,60,9,10.36,SBSL 100400Z 06009KT CAVOK 26/24 Q1012,2024-08-10T04:00:00Z,26,24,6+,29.88
SBSG,-5.768,-35.376,200,3,3.45,SBSG 100400Z 20003KT 9999 FEW023 20/19 Q1015,2024-08-10T04:00:00Z,20,19,6+,29.97
SBSC,-22.932,-43.719,170,7,8.06,SBSC 100400Z 17007KT 3000 RA SCT009 BKN012 20/19 Q1015,2024-08-10T04:00:00Z,20,19,1.86,29.97
SBRP,-21.134,-47.774,260,7,8.06,SBRP 100400Z 26007KT 9999 BKN009 OVC100 15/13 Q1018,2024-08-10T04:00:00Z,15,13,6+,30.06
SBRJ,-22.91,-43.163,200,8,9.21,SBRJ 100400Z 20008KT 8000 -RA FEW008 SCT015 OVC050 21/19 Q1014,2024-08-10T04:00:00Z,21,19,4.97,29.94
SBRF,-8.126,-34.923,0,0,0.0,SBRF 100400Z 00000KT 9999 FEW025 20/19 Q1015,2024-08-10T04:00:00Z,20,19,6+,29.97
SBRB,-9.867,-67.897,160,10,11.51,SBRB 100400Z 16010KT 120V210 8000 OVC010 15/13 Q1021,2024-08-10T04:00:00Z,15,13,4.97,30.15
SBPV,-8.708,-63.901,190,7,8.06,SBPV 100400Z 19007KT 7000 NSC 22/16 Q1016,2024-08-10T04:00:00Z,22,16,4.35,30.00
SBPS,-16.439,-39.081,310,3,3.45,SBPS 100400Z 31003KT CAVOK 22/19 Q1015,2024-08-10T04:00:00Z,22,19,6+,29.97
SBPL,-9.367,-40.565,100,5,5.75,SBPL 100400Z 10005KT CAVOK 21/17 Q1015,2024-08-10T04:00:00Z,21,17,6+,29.97
SBPJ,-10.291,-48.357,150,2,2.3,SBPJ 100400Z 15002KT CAVOK 23/16 Q1013,2024-08-10T04:00:00Z,23,16,6+,29.91
SBNT,-5.911,-35.248,200,4,4.6,SBNT 100400Z 20004KT 9999 FEW021 20/18 Q1015,2024-08-10T04:00:00Z,20,18,6+,29.97
SBMQ,0.051,-51.072,40,4,4.6,SBMQ 100400Z 04004KT 9999 FEW025 26/25 Q1013,2024-08-10T04:00:00Z,26,25,6+,29.91
SBMO,-9.511,-35.792,290,4,4.6,SBMO 100400Z 29004KT CAVOK 18/18 Q1016,2024-08-10T04:00:00Z,18,18,6+,30.00
SBMN,-3.146,-59.986,0,0,0.0,SBMN 100400Z 00000KT CAVOK 27/22 Q1012,2024-08-10T04:00:00Z,27,22,6+,29.88
SBMK,-16.705,-43.819,0,0,0.0,SBMK 100400Z 00000KT CAVOK 18/11 Q1016,2024-08-10T04:00:00Z,18,11,6+,30.00
SBMG,-23.476,-52.017,260,9,10.36,SBMG 100400Z AUTO 26009KT CAVOK 05/04 Q1022,2024-08-10T04:00:00Z,5,4,6+,30.18
SBME,-22.343,-41.766,260,4,4.6,SBME 100400Z 26004KT 9999 SCT030 BKN100 22/20 Q1014,2024-08-10T04:00:00Z,22,20,6+,29.94
SBMA,-5.368,-49.137,340,2,2.3,SBMA 100400Z 34002KT CAVOK 26/20 Q1012,2024-08-10T04:00:00Z,26,20,6+,29.88
SBLO,-23.334,-51.13,260,12,13.81,SBLO 100400Z 26012KT CAVOK 10/07 Q1021,2024-08-10T04:00:00Z,10,7,6+,30.15
SBLE,-12.482,-41.277,VRB,1,1.15,SBLE 100400Z AUTO VRB01KT 9999 BKN015 OVC018 ///// Q////,2024-08-10T04:00:00Z,,,6+,
SBLB,-22.109,-39.917,350,22,25.32,SBLB 100400Z AUTO 35022KT //// NCD 25/// Q//// W///S4,2024-08-10T04:00:00Z,,,,
SBKP,-23.007,-47.135,210,12,13.81,SBKP 100400Z 21012KT 7000 -RA BKN005 BKN020 OVC100 14/14 Q1018 RERA,2024-08-10T04:00:00Z,14,14,4.35,30.06
SBKG,-7.27,-35.895,90,6,6.9,SBKG 100400Z 09006KT CAVOK 18/17 Q1017,2024-08-10T04:00:00Z,18,17,6+,30.03
SBJU,-7.219,-39.27,180,3,3.45,SBJU 100400Z 18003KT CAVOK 23/17 Q1016,2024-08-10T04:00:00Z,23,17,6+,30.00
SBJP,-7.148,-34.951,200,4,4.6,SBJP 100400Z 20004KT 9999 FEW020 20/19 Q1015,2024-08-10T04:00:00Z,20,19,6+,29.97
SBIZ,-5.53,-47.458,60,2,2.3,SBIZ 100400Z 06002KT CAVOK 27/16 Q1012,2024-08-10T04:00:00Z,27,16,6+,29.88
SBGR,-23.432,-46.469,180,3,3.45,SBGR 100400Z 18003KT 5000 RA BR BKN007 SCT020 OVC070 13/12 Q1018,2024-08-10T04:00:00Z,13,12,3.11,30.06
SBGO,-16.632,-49.221,160,9,10.36,SBGO 100400Z 16009KT CAVOK 22/13 Q1019,2024-08-10T04:00:00Z,22,13,6+,30.09
SBGL,-22.815,-43.261,230,6,6.9,SBGL 100400Z 23006KT 7000 -RA FEW009 SCT015 OVC040 21/18 Q1015,2024-08-10T04:00:00Z,21,18,4.35,29.97
SBFZ,-3.776,-38.533,110,9,10.36,SBFZ 100400Z 11009KT 9999 BKN020 26/22 Q1014,2024-08-10T04:00:00Z,26,22,6+,29.94
SBFN,-3.855,-32.423,120,10,11.51,SBFN 100400Z AUTO 12010KT CAVOK 25/21 Q1014,2024-08-10T04:00:00Z,25,21,6+,29.94
SBFL,-27.671,-48.547,260,7,8.06,SBFL 100400Z 26007KT CAVOK 12/08 Q1020,2024-08-10T04:00:00Z,12,8,6+,30.12
SBFI,-25.595,-54.488,240,3,3.45,SBFI 100400Z 24003KT 9999 OVC030 08/05 Q1026,2024-08-10T04:00:00Z,8,5,6+,30.30
SBEG,-3.039,-60.05,0,0,0.0,SBEG 100400Z 00000KT CAVOK 27/23 Q1012,2024-08-10T04:00:00Z,27,23,6+,29.88
SBDN,-22.175,-51.427,250,8,9.21,SBDN 100400Z 25008KT 9999 FEW008 BKN100 09/07 Q1022,2024-08-10T04:00:00Z,9,7,6+,30.18
SBCZ,-7.597,-72.774,120,5,5.75,SBCZ 100400Z 12005KT CAVOK 25/23 Q1014,2024-08-10T04:00:00Z,25,23,6+,29.94
SBCY,-15.653,-56.116,160,9,10.36,SBCY 100400Z 16009KT 9999 BKN020 13/08 Q1025,2024-08-10T04:00:00Z,13,8,6+,30.27
SBCT,-25.529,-49.176,210,8,9.21,SBCT 100400Z 21008KT CAVOK 06/04 Q1021,2024-08-10T04:00:00Z,6,4,6+,30.15
SBCO,-29.945,-51.144,290,11,12.66,SBCO 100400Z 29011KT 9999 SCT015 BKN040 11/09 Q1022,2024-08-10T04:00:00Z,11,9,6+,30.18
SBCH,-27.132,-52.662,270,2,2.3,SBCH 100400Z 27002KT 8000 FEW005 SCT020 06/06 Q1025,2024-08-10T04:00:00Z,6,6,4.97,30.27
SBCG,-20.469,-54.672,150,3,3.45,SBCG 100400Z 15003KT CAVOK 06/06 Q1024,2024-08-10T04:00:00Z,6,6,6+,30.24
SBCF,-19.635,-43.966,0,0,0.0,SBCF 100400Z 00000KT CAVOK 20/10 Q1017,2024-08-10T04:00:00Z,20,10,6+,30.03
SBBR,-15.867,-47.933,VRB,2,2.3,SBBR 100400Z VRB02KT CAVOK 17/08 Q1019,2024-08-10T04:00:00Z,17,8,6+,30.09
SBBG,-31.391,-54.112,250,7,8.06,SBBG 100400Z AUTO 25007KT 9999 OVC027 08/08 Q1023,2024-08-10T04:00:00Z,8,8,6+,30.21
SBBE,-1.379,-48.476,50,6,6.9,SBBE 100400Z 05006KT CAVOK 25/23 Q1012,2024-08-10T04:00:00Z,25,23,6+,29.88
SBAR,-10.984,-37.07,360,4,4.6,SBAR 100400Z 36004KT 9999 FEW025 21/18 Q1015,2024-08-10T04:00:00Z,21,18,6+,29.97
SBAN,-16.229,-48.964,200,6,6.9,SBAN 100400Z 20006KT CAVOK 21/10 Q1020,2024-08-10T04:00:00Z,21,10,6+,30.12
SAZS,-41.151,-71.157,300,15,17.26,SAZS 100400Z 30015KT 6000 RA FEW009 SCT025 OVC040 06/04 Q1015,2024-08-10T04:00:00Z,6,4,3.73,29.97
SAZN,-38.95,-68.141,0,0,0.0,SAZN 100400Z 00000KT CAVOK 05/02 Q1015,2024-08-10T04:00:00Z,5,2,6+,29.97
SAZM,-37.932,-57.581,320,10,11.51,SAZM 100400Z 32010KT CAVOK 04/02 Q1016,2024-08-10T04:00:00Z,4,2,6+,30.00
SAWH,-54.844,-68.308,290,3,3.45,SAWH 100400Z 29003KT 9999 SCT030 01/M01 Q0998,2024-08-10T04:00:00Z,1,-1,6+,29.47
SAWG,-51.609,-69.306,130,5,5.75,SAWG 100400Z 13005KT 5000 -DZRA BR FEW002 OVC005 03/02 Q0996,2024-08-10T04:00:00Z,3,2,3.11,29.41
SAVC,-45.79,-67.471,280,18,20.71,SAVC 100400Z 28018KT 250V310 CAVOK 12/01 Q1004,2024-08-10T04:00:00Z,12,1,6+,29.65
SASJ,-24.387,-65.098,310,4,4.6,SASJ 100400Z 31004KT CAVOK 06/M03 Q1026,2024-08-10T04:00:00Z,6,-3,6+,30.30
SASA,-24.856,-65.486,270,6,6.9,SASA 100400Z 27006KT CAVOK 01/M07 Q1026,2024-08-10T04:00:00Z,1,-7,6+,30.30
SARI,-25.737,-54.473,VRB,1,1.15,SARI 100400Z VRB01KT 9999 BKN030 07/06 Q1026,2024-08-10T04:00:00Z,7,6,6+,30.30
SARE,-27.45,-59.056,320,2,2.3,SARE 100400Z 32002KT CAVOK 03/02 Q1025,2024-08-10T04:00:00Z,3,2,6+,30.27
SAME,-32.832,-68.793,0,0,0.0,SAME 100400Z 00000KT CAVOK 05/M03 Q1021,2024-08-10T04:00:00Z,5,-3,6+,30.15
SAEZ,-34.822,-58.536,320,6,6.9,SAEZ 100400Z 32006KT CAVOK 05/02 Q1022 NOSIG,2024-08-10T04:00:00Z,5,2,6+,30.18
SADF,-34.457,-58.593,340,3,3.45,SADF 100400Z 34003KT CAVOK 03/01 Q1022,2024-08-10T04:00:00Z,3,1,6+,30.18
SACO,-31.324,-64.208,280,5,5.75,SACO 100400Z 28005KT CAVOK M01/M05 Q1022 NOSIG,2024-08-10T04:00:00Z,-1,-5,6+,30.18
SABE,-34.559,-58.416,310,6,6.9,SABE 100400Z 31006KT CAVOK 06/01 Q1022 NOSIG,2024-08-10T04:00:00Z,6,1,6+,30.18
SAAR,-32.918,-60.782,350,4,4.6,SAAR 100400Z 35004KT CAVOK 01/M03 Q1023,2024-08-10T04:00:00Z,1,-3,6+,30.21
RPVP,9.742,118.759,180,6,6.9,RPVP 100400Z 18006G16KT 9999 FEW017CB BKN240 32/25 Q1009 RMK A2980 CB NW,2024-08-10T04:00:00Z,32,25,6+,29.79
RPVM,10.308,123.978,220,10,11.51,RPVM 100400Z 22010KT 9999 FEW018CB BKN300 32/25 Q1009 NOSIG RMK A2980 CB N,2024-08-10T04:00:00Z,32,25,6+,29.79
RPVD,9.334,123.297,70,8,9.21,RPVD 100400Z 07008KT 9999 FEW015 SCT070 32/25 QQ1008 RMK A2977,2024-08-10T04:00:00Z,32,25,6+,29.76
RPMZ,6.92,122.063,120,6,6.9,RPMZ 100400Z 12006G16KT 9999 FEW017 BKN240 32/25 Q1009 RMK A2980 CB NW,2024-08-10T04:00:00Z,32,25,6+,29.79
RPMR,6.058,125.096,10,4,4.6,RPMR 100400Z 01004KT 250V050 9999 FEW018 31/25 Q1009 RMK A2980,2024-08-10T04:00:00Z,31,25,6+,29.79
RPMD,7.125,125.646,180,7,8.06,RPMD 100400Z 18007KT 130V230 9999 FEW016 32/23 Q1009 RMK A2980,2024-08-10T04:00:00Z,32,23,6+,29.79
RPLL,14.507,121.004,280,14,16.11,"RPLL 100400Z 28014KT 9999 VCTS FEW022CB SCT023 BKN100 31/27 Q1008 NOSIG RMK A2977 CB N-NE,S",2024-08-10T04:00:00Z,31,27,6+,29.76
RPLI,18.178,120.532,210,14,16.11,RPLI 100400Z 21014KT 9999 SCT028 30/26 Q1008 NOSIG RMK A2977,2024-08-10T04:00:00Z,30,26,6+,29.76
RPLC,15.186,120.56,180,4,4.6,RPLC 100400Z 18004KT 9999 FEW015CB CT020 BKN100 31/26 Q1008 RMK A2977 CB NE/SE,2024-08-10T04:00:00Z,31,26,6+,29.76
RPLB,14.794,120.271,220,15,17.26,RPLB 100400Z 22015KT 8000 -RA SCT018 BKN070 28/25 Q1009 RMK A2980,2024-08-10T04:00:00Z,28,25,4.97,29.79
ROYN,24.467,122.978,10,5,5.75,ROYN 100400Z AUTO 01005KT 9999 NSC 31/27 Q1003,2024-08-10T04:00:00Z,31,27,6+,29.62
RORY,27.044,128.4,330,5,5.75,RORY 100400Z AUTO 33005KT 290V010 9999 NSC 33/27 Q1003,2024-08-10T04:00:00Z,33,27,6+,29.62
RORT,24.653,124.674,VRB,2,2.3,RORT 100400Z AUTO VRB02KT 9999 SCT024 SCT030 32/25 Q1003,2024-08-10T04:00:00Z,32,25,6+,29.62
RORS,24.827,125.145,30,7,8.06,RORS 100400Z 03007KT 9999 FEW025 BKN/// 31/24 Q1003,2024-08-10T04:00:00Z,31,24,6+,29.62
RORK,25.944,131.326,60,7,8.06,RORK 100400Z AUTO 06007KT 9999 NCD 33/25 Q1002,2024-08-10T04:00:00Z,33,25,6+,29.59
ROMY,24.782,125.295,50,6,6.9,ROMY 100400Z 05006KT 010V100 9999 FEW020 BKN/// 32/26 Q1003,2024-08-10T04:00:00Z,32,26,6+,29.62
ROMD,25.847,131.264,80,6,6.9,ROMD 100400Z AUTO 08006KT 360V130 9999 NCD 32/25 Q1003,2024-08-10T04:00:00Z,32,25,6+,29.62
ROIG,24.395,124.245,50,6,6.9,ROIG 100400Z 05006KT 360V080 9999 FEW017 BKN/// 31/28 Q1003,2024-08-10T04:00:00Z,31,28,6+,29.62
RKTU,36.717,127.499,120,2,2.3,RKTU 100400Z 12002KT 9999 SCT030 SCT200 33/25 Q1003,2024-08-10T04:00:00Z,33,25,6+,29.62
RKTN,35.894,128.659,130,6,6.9,RKTN 100400Z 13006KT 9999 FEW030 SCT250 34/22 Q1004,2024-08-10T04:00:00Z,34,22,6+,29.65
RKSS,37.558,126.791,200,6,6.9,RKSS 100400Z 20006KT 9999 BKN030 BKN200 33/25 Q1003 NOSIG,2024-08-10T04:00:00Z,33,25,6+,29.62
RKPK,35.179,128.938,80,4,4.6,RKPK 100400Z 08004KT 9999 BKN030 34/22 Q1004,2024-08-10T04:00:00Z,34,22,6+,29.65
RKPC,33.511,126.493,50,10,11.51,RKPC 100400Z 05010KT 010V080 9999 FEW025 SCT200 33/24 Q1004 NOSIG,2024-08-10T04:00:00Z,33,24,6+,29.65
RKNY,38.061,128.669,120,12,13.81,RKNY 100400Z 12012KT 090V160 9999 FEW040 SCT200 30/25 Q1004 NOSIG,2024-08-10T04:00:00Z,30,25,6+,29.65
RKJB,34.991,126.383,220,6,6.9,RKJB 100400Z 22006KT 190V250 9999 SCT025 34/24 Q1003 NOSIG,2024-08-10T04:00:00Z,34,24,6+,29.62
RJTI,35.637,139.839,40,8,9.21,RJTI 100400Z 04008KT 270V080 9999 FEW030 SCT045 BKN/// 34/23 Q0999,2024-08-10T04:00:00Z,34,23,6+,29.50
RJTF,35.672,139.528,10,8,9.21,RJTF 100400Z 01008KT 330V070 9999 FEW030 SCT080 34/22 Q0999,2024-08-10T04:00:00Z,34,22,6+,29.50
RJSY,38.812,139.787,290,7,8.06,RJSY 100400Z 29007KT 250V330 9999 SCT013 SCT015 28/24 Q1003,2024-08-10T04:00:00Z,28,24,6+,29.62
RJSS,38.14,140.917,100,4,4.6,RJSS 100400Z 10004KT 040V140 9999 FEW020 BKN035 29/24 Q1001,2024-08-10T04:00:00Z,29,24,6+,29.56
RJSR,40.192,140.372,90,10,11.51,RJSR 100400Z 09010KT 040V110 9999 FEW030 SCT040 31/22 Q1003,2024-08-10T04:00:00Z,31,22,6+,29.62
RJSN,37.956,139.121,340,8,9.21,RJSN 100400Z 34008KT 9999 FEW015 SCT020 29/25 Q1002,2024-08-10T04:00:00Z,29,25,6+,29.59
RJSM,40.705,141.372,80,9,10.36,RJSM 100400Z 08009KT 9999 FEW008 BKN015 BKN030 27/22 Q1005,2024-08-10T04:00:00Z,27,22,6+,29.68
RJSK,39.616,140.219,290,8,9.21,RJSK 100400Z 29008KT 260V340 9999 FEW030 SCT/// 32/24 Q1002,2024-08-10T04:00:00Z,32,24,6+,29.59
RJSI,39.429,141.135,350,16,18.41,RJSI 100400Z 35016KT 320V030 9999 FEW030 SCT/// 32/22 Q1002,2024-08-10T04:00:00Z,32,22,6+,29.59
RJSF,37.227,140.428,20,13,14.96,RJSF 100400Z 02013KT 9999 FEW020 SCT040 BKN100 28/22 Q1003,2024-08-10T04:00:00Z,28,22,6+,29.62
RJSC,38.412,140.371,350,10,11.51,RJSC 100400Z 35010KT 310V030 9999 FEW035 SCT090 32/23 Q1001,2024-08-10T04:00:00Z,32,23,6+,29.56
RJSA,40.733,140.689,20,11,12.66,RJSA 100400Z 02011KT 350V050 9999 FEW015 SCT035 29/24 Q1005,2024-08-10T04:00:00Z,29,24,6+,29.68
RJOY,34.597,135.601,350,6,6.9,RJOY 100400Z 35006KT 280V020 9999 FEW030 BKN045 BKN070 33/22 Q1001,2024-08-10T04:00:00Z,33,22,6+,29.56
RJOW,34.676,131.79,20,11,12.66,RJOW 100400Z 02011KT 350V070 9999 FEW025 31/25 Q1003,2024-08-10T04:00:00Z,31,25,6+,29.62
RJOS,34.132,134.609,360,11,12.66,RJOS 100400Z 36011KT 320V030 9999 FEW030 34/20 Q1002,2024-08-10T04:00:00Z,34,20,6+,29.59
RJOR,35.53,134.165,40,12,13.81,RJOR 100400Z 04012KT 9999 FEW025 31/24 Q1003,2024-08-10T04:00:00Z,31,24,6+,29.62
RJOM,33.83,132.698,300,7,8.06,RJOM 100400Z 30007KT 9999 FEW025 SCT045 32/24 Q1001,2024-08-10T04:00:00Z,32,24,6+,29.56
RJOK,33.546,133.669,180,9,10.36,RJOK 100400Z 18009KT 9999 FEW030 33/26 Q1001,2024-08-10T04:00:00Z,33,26,6+,29.56
RJOH,35.493,133.239,50,11,12.66,RJOH 100400Z 05011KT 9999 FEW030 30/24 Q1004,2024-08-10T04:00:00Z,30,24,6+,29.65
RJOC,35.414,132.89,70,10,11.51,RJOC 100400Z 07010KT 9999 FEW025 32/23 Q1003,2024-08-10T04:00:00Z,32,23,6+,29.62
RJOB,34.757,133.855,50,8,9.21,RJOB 100400Z 05008G18KT 010V090 9999 FEW030 33/19 Q1003,2024-08-10T04:00:00Z,33,19,6+,29.62
RJNW,37.293,136.962,30,5,5.75,RJNW 100400Z 03005KT 280V090 9999 FEW015 SCT025 28/21 Q1004,2024-08-10T04:00:00Z,28,21,6+,29.65
RJNT,36.641,137.187,360,12,13.81,RJNT 100400Z 36012KT 9999 FEW020 SCT030 30/23 Q1003,2024-08-10T04:00:00Z,30,23,6+,29.62
RJNS,34.796,138.189,200,9,10.36,RJNS 100400Z 20009KT 150V230 9999 FEW025 34/24 Q1000,2024-08-10T04:00:00Z,34,24,6+,29.53
RJNK,36.394,136.407,360,16,18.41,RJNK 100400Z 36016KT 9999 FEW030 31/25 Q1002,2024-08-10T04:00:00Z,31,25,6+,29.59
RJKI,28.321,129.928,360,4,4.6,RJKI 100400Z AUTO 36004KT 330V030 9999 NCD 32/25 Q1003,2024-08-10T04:00:00Z,32,25,6+,29.62
RJKB,27.432,128.706,360,6,6.9,RJKB 100400Z AUTO 36006KT 310V040 9999 NSC 33/25 Q1003,2024-08-10T04:00:00Z,33,25,6+,29.62
RJKA,28.431,129.713,320,6,6.9,RJKA 100400Z 32006KT 270V020 9999 FEW030 34/27 Q1002,2024-08-10T04:00:00Z,34,27,6+,29.59
RJFU,32.917,129.914,220,5,5.75,RJFU 100400Z 22005KT 9999 FEW035 35/23 Q1002,2024-08-10T04:00:00Z,35,23,6+,29.59
RJFT,32.837,130.855,230,6,6.9,RJFT 100400Z 23006KT 190V270 9999 FEW045 SCT/// 34/24 Q1003,2024-08-10T04:00:00Z,34,24,6+,29.62
RJFS,33.15,130.302,240,7,8.06,RJFS 100400Z 24007KT 9999 FEW035 SCT040 33/26 Q1002,2024-08-10T04:00:00Z,33,26,6+,29.59
RJFR,33.846,131.035,290,5,5.75,RJFR 100400Z 29005KT 230V350 9999 FEW025 34/24 Q1002,2024-08-10T04:00:00Z,34,24,6+,29.59
RJFO,33.479,131.737,60,10,11.51,RJFO 100400Z 06010KT 9999 FEW025 30/26 Q1002,2024-08-10T04:00:00Z,30,26,6+,29.59
RJFM,31.877,131.449,120,8,9.21,RJFM 100400Z 12008KT 9999 FEW040 33/26 Q1002,2024-08-10T04:00:00Z,33,26,6+,29.59
RJFK,31.803,130.719,170,5,5.75,RJFK 100400Z 17005KT 130V250 9999 FEW040 33/24 Q1003 RMK 2CU040 A2963,2024-08-10T04:00:00Z,33,24,6+,29.62
RJFG,30.605,130.992,110,5,5.75,RJFG 100400Z 11005KT 070V140 9999 FEW013 SCT015 BKN/// 29/26 Q1004,2024-08-10T04:00:00Z,29,26,6+,29.65
RJFE,32.666,128.833,20,7,8.06,RJFE 100400Z 02007KT 350V080 9999 FEW030 33/24 Q1003,2024-08-10T04:00:00Z,33,24,6+,29.62
RJEC,43.671,142.447,VRB,5,5.75,RJEC 100400Z VRB05KT 9999 FEW020 SCT030 BKN/// 28/22 Q1007,2024-08-10T04:00:00Z,28,22,6+,29.73
RJDT,34.288,129.325,70,8,9.21,RJDT 100400Z 07008KT 010V110 9999 FEW015 SCT020 31/25 Q1004,2024-08-10T04:00:00Z,31,25,6+,29.65
RJDC,33.93,131.279,190,8,9.21,RJDC 100400Z 19008KT 9999 FEW030 33/26 Q1002,2024-08-10T04:00:00Z,33,26,6+,29.59
RJDB,33.749,129.785,30,11,12.66,RJDB 100400Z AUTO 03011KT 9999 FEW021 32/25 Q1003,2024-08-10T04:00:00Z,32,25,6+,29.62
RJCW,45.404,141.802,80,13,14.96,RJCW 100400Z 08013KT 9999 FEW005 SCT008 BKN012 19/15 Q1009,2024-08-10T04:00:00Z,19,15,6+,29.79
RJCO,43.117,141.381,330,11,12.66,RJCO 100400Z 33011KT 9999 FEW015 SCT025 BKN230 27/23 Q1008,2024-08-10T04:00:00Z,27,23,6+,29.76
RJCK,43.041,144.193,70,8,9.21,RJCK 100400Z 07008KT 030V110 9999 FEW020 BKN040 26/22 Q1007,2024-08-10T04:00:00Z,26,22,6+,29.73
RJCH,41.77,140.822,150,10,11.51,RJCH 100400Z 15010KT 120V200 9999 FEW006 SCT015 BKN025 FEW025TCU 27/23 Q1005,2024-08-10T04:00:00Z,27,23,6+,29.68
RJCB,42.733,143.217,VRB,4,4.6,RJCB 100400Z VRB04KT 9999 SCT030 28/21 Q1006,2024-08-10T04:00:00Z,28,21,6+,29.70
RJBT,35.513,134.787,360,10,11.51,RJBT 100400Z 36010KT 330V040 9999 FEW020 SCT030 28/21 Q1005,2024-08-10T04:00:00Z,28,21,6+,29.68
RJBE,34.633,135.224,210,8,9.21,RJBE 100400Z 21008KT 190V250 9999 FEW030 SCT045 31/24 Q1001,2024-08-10T04:00:00Z,31,24,6+,29.56
RJBD,33.662,135.364,300,13,14.96,RJBD 100400Z 30013KT 270V330 9999 FEW030 32/23 Q1001,2024-08-10T04:00:00Z,32,23,6+,29.56
RJAW,24.784,141.322,270,6,6.9,RJAW 100400Z 27006KT 230V330 9999 SCT015 31/25 Q1001 RMK 4CU015 A2958,2024-08-10T04:00:00Z,31,25,6+,29.56
RJAH,36.182,140.415,30,8,9.21,RJAH 100400Z 03008KT 360V080 9999 FEW020 SCT035 BKN250 32/22 Q0999,2024-08-10T04:00:00Z,32,22,6+,29.50
RJAF,36.167,137.923,360,9,10.36,RJAF 100400Z 36009KT 330V040 9999 FEW035 31/19 Q1004,2024-08-10T04:00:00Z,31,19,6+,29.65
PLCH,1.988,-157.349,100,6,6.9,PLCH 100400Z 10006KT 9999 FEW020 SCT042 29/23 Q1008,2024-08-10T04:00:00Z,29,23,6+,29.76
OYSY,15.966,48.788,260,4,4.6,OYSY 100400Z 26004KT CAVOK 30/19 Q1006 RMK MIN28.6,2024-08-10T04:00:00Z,30,19,6+,29.70
OTHH,25.273,51.609,70,10,11.51,OTHH 100400Z 07010KT CAVOK 35/30 Q1000 NOSIG,2024-08-10T04:00:00Z,35,30,6+,29.53
OSLK,35.402,35.949,110,8,9.21,OSLK 100400Z 11008KT 9999 FEW030 25/20 Q1009,2024-08-10T04:00:00Z,25,20,6+,29.79
OSKL,37.029,41.199,230,4,4.6,OSKL 100400Z 23004KT CAVOK 29/02 Q1004,2024-08-10T04:00:00Z,29,2,6+,29.65
OSDI,33.411,36.516,220,20,23.02,OSDI 100400Z 22020KT CAVOK 20/18 Q1012,2024-08-10T04:00:00Z,20,18,6+,29.88
OSAP,36.183,37.218,290,6,6.9,OSAP 100400Z 29006KT CAVOK 26/20 Q1008,2024-08-10T04:00:00Z,26,20,6+,29.76
ORSU,35.56,45.318,330,3,3.45,ORSU 100400Z 33003KT CAVOK 28/07 Q1008,2024-08-10T04:00:00Z,28,7,6+,29.76
ORNI,31.99,44.405,300,9,10.36,ORNI 100400Z 30009KT 8000 NSC 34/04 Q1002,2024-08-10T04:00:00Z,34,4,4.97,29.59
ORMM,30.549,47.662,260,7,8.06,ORMM 100400Z 26007KT 9999 SCT040 33/04 Q1000 NOSIG,2024-08-10T04:00:00Z,33,4,6+,29.53
ORKK,35.469,44.3494,,,,ORKK 100400Z VRBO2KT CAVOK 34/07 Q1002,2024-08-10T04:00:00Z,34,7,6+,29.59
ORER,36.232,43.951,VRB,1,1.15,ORER 100400Z VRB01KT 8000 NSC 31/06 Q1005,2024-08-10T04:00:00Z,31,6,4.97,29.68
ORBI,33.263,44.235,320,11,12.66,ORBI 100400Z 32011KT CAVOK 33/14 Q1001 NOSIG,2024-08-10T04:00:00Z,33,14,6+,29.56
OPST,32.536,74.364,0,0,0.0,OPST 100400Z 00000KT 4000 FU SCT040 SCT100 31/27 Q1003 TEMPO 05015G25KT 2000 TSRA FEW030CB RH79,2024-08-10T04:00:00Z,31,27,2.49,29.62
OPSK,27.722,68.792,180,10,11.51,OPSK 100400Z 18010KT 4000 HZ SCT100 33/26 Q1002 NOSIG,2024-08-10T04:00:00Z,33,26,2.49,29.59
OMSJ,25.329,55.517,110,15,17.26,OMSJ 100400Z 11015KT CAVOK 33/24 Q1002 NOSIG,2024-08-10T04:00:00Z,33,24,6+,29.59
OMRK,25.613,55.939,120,18,20.71,OMRK 100400Z 12018KT CAVOK 34/23 Q1002 A2960,2024-08-10T04:00:00Z,34,23,6+,29.59
OMFJ,25.112,56.324,140,5,5.75,OMFJ 100400Z 14005KT 8000 FEW018 BKN025 31/26 Q1004 A2966,2024-08-10T04:00:00Z,31,26,4.97,29.65
OMDW,24.897,55.161,80,13,14.96,OMDW 100400Z 08013KT CAVOK 33/24 Q1002 NOSIG,2024-08-10T04:00:00Z,33,24,6+,29.59
OMDB,25.254,55.366,100,13,14.96,OMDB 100400Z 10013KT CAVOK 34/24 Q1001 NOSIG,2024-08-10T04:00:00Z,34,24,6+,29.56
OMAL,24.262,55.609,150,8,9.21,OMAL 100400Z 15008KT CAVOK 33/23 Q1003 NOSIG,2024-08-10T04:00:00Z,33,23,6+,29.62
OMAD,24.428,54.458,140,13,14.96,OMAD 100400Z 14013KT 9000 NSC 35/21 Q1000 NOSIG,2024-08-10T04:00:00Z,35,21,5.59,29.53
OMAA,24.433,54.651,140,12,13.81,OMAA 100400Z 14012KT 6000 NSC 36/21 Q1000 TEMPO 4000 DU,2024-08-10T04:00:00Z,36,21,3.73,29.53
OLBA,33.82,35.491,110,4,4.6,OLBA 100400Z 11004KT 8000 NSC 27/20 Q1010 NOSIG,2024-08-10T04:00:00Z,27,20,4.97,29.82
OKKK,29.227,47.969,190,3,3.45,OKKK 100400Z 19003KT 4500 DU NSC 34/07 Q1002 NOSIG,2024-08-10T04:00:00Z,34,7,2.8,29.59
OJAQ,29.612,35.018,360,10,11.51,OJAQ 100400Z 36010KT 8000 NSC 31/11 Q1009 NOSIG,2024-08-10T04:00:00Z,31,11,4.97,29.79
OJAM,31.973,35.992,100,4,4.6,OJAM 100400Z 10004KT 5000 HZ NSC 21/16 Q1014 NOSIG,2024-08-10T04:00:00Z,21,16,3.11,29.94
OJAI,31.723,35.993,0,0,0.0,OJAI 100400Z 00000KT 5000 HZ NSC 18/13 Q1014 NOSIG,2024-08-10T04:00:00Z,18,13,3.11,29.94
OIZJ,25.653,57.798,110,14,16.11,OIZJ 100400Z 11014KT 6000 FEW031 30/26 Q1003,2024-08-10T04:00:00Z,30,26,3.73,29.62
OIZC,25.445,60.383,0,0,0.0,OIZC 100400Z 00000KT 8000 FEW035 SCT170 32/25 Q1003 A2962,2024-08-10T04:00:00Z,32,25,4.97,29.62
OITZ,36.772,48.363,310,6,6.9,OITZ 100400Z 31006KT CAVOK 21/14 Q1017 A3005,2024-08-10T04:00:00Z,21,14,6+,30.03
OITP,39.604,47.882,190,4,4.6,OITP 100400Z 19004KT CAVOK 24/23 Q1010,2024-08-10T04:00:00Z,24,23,6+,29.82
OITM,37.348,46.146,110,16,18.41,OITM 100400Z 11016KT CAVOK 25/13 Q1013,2024-08-10T04:00:00Z,25,13,6+,29.91
OITK,38.425,44.975,0,0,0.0,OITK 100400Z 00000KT CAVOK 23/14 Q1014 A2995,2024-08-10T04:00:00Z,23,14,6+,29.94
OISY,30.701,51.545,0,0,0.0,OISY 100400Z 00000KT 8000 NSC 24/11 Q1018,2024-08-10T04:00:00Z,24,11,4.97,30.06
OISR,27.364,53.203,110,6,6.9,OISR 100400Z 11006KT 6000 NSC 34/26 Q1004 A2967 NOSIG,2024-08-10T04:00:00Z,34,26,3.73,29.65
OISL,27.67,54.375,80,12,13.81,OISL 100400Z 08012KT 8000 NSC 29/24 Q1007 A2975 NOSIG,2024-08-10T04:00:00Z,29,24,4.97,29.73
OISF,28.895,53.72,320,4,4.6,OISF 100400Z 32004KT 6000 NSC 29/14 Q1013 A2993,2024-08-10T04:00:00Z,29,14,3.73,29.91
OINZ,36.636,53.194,210,2,2.3,OINZ 100400Z 21002KT CAVOK 26/22 Q1011,2024-08-10T04:00:00Z,26,22,6+,29.85
OINR,36.91,50.68,240,4,4.6,OINR 100400Z 24004KT 9999 FEW020CB SCT025 BKN090 25/23 Q1010,2024-08-10T04:00:00Z,25,23,6+,29.82
OINN,36.663,51.465,0,0,0.0,OINN 100400Z 00000KT 9999 FEW020CB BKN026 27/24 Q1009,2024-08-10T04:00:00Z,27,24,6+,29.79
OING,36.908,54.404,0,0,0.0,OING 100400Z 00000KT 9999 FEW030 BKN090 28/23 Q1012 NOSIG,2024-08-10T04:00:00Z,28,23,6+,29.88
OINE,37.383,55.452,0,0,0.0,OINE 100400Z 00000KT 9999 SCT040 30/22 Q1010,2024-08-10T04:00:00Z,30,22,6+,29.82
OIMS,36.171,57.6,60,20,23.02,OIMS 100400Z 06020KT CAVOK 29/12 Q1014,2024-08-10T04:00:00Z,29,12,6+,29.94
OIMN,37.488,57.303,80,4,4.6,OIMN 100400Z 08004KT CAVOK 25/17 Q1016,2024-08-10T04:00:00Z,25,17,6+,30.00
OIMJ,36.425,55.104,70,14,16.11,OIMJ 100400Z 07014KT CAVOK 24/15 Q1016,2024-08-10T04:00:00Z,24,15,6+,30.00
OIMB,32.894,59.29,100,10,11.51,OIMB 100400Z 10010KT 7000 NSC 31/08 Q1014 A2994,2024-08-10T04:00:00Z,31,8,4.35,29.94
OIKQ,26.755,55.902,110,19,21.86,OIKQ 100400Z 11019KT 9999 FEW025 32/29 Q1001 NOSIG,2024-08-10T04:00:00Z,32,29,6+,29.56
OIKM,29.084,58.45,300,12,13.81,OIKM 100400Z 30012KT CAVOK 37/01 Q1007,2024-08-10T04:00:00Z,37,1,6+,29.73
OIKK,30.251,56.964,0,0,0.0,OIKK 100400Z 00000KT CAVOK 29/06 Q1016 A3002,2024-08-10T04:00:00Z,29,6,6+,30.00
OIIP,35.776,50.827,320,10,11.51,OIIP 100400Z 32010KT 8000 NSC 22/15 Q1013 A2993,2024-08-10T04:00:00Z,22,15,4.97,29.91
OIIK,36.243,50.045,210,4,4.6,OIIK 100400Z 21004KT CAVOK 23/16 Q1014 A2997,2024-08-10T04:00:00Z,23,16,6+,29.94
OIIE,35.416,51.152,320,11,12.66,OIIE 100400Z 32011KT CAVOK 27/15 Q1011,2024-08-10T04:00:00Z,27,15,6+,29.85
OIHH,34.869,48.553,110,2,2.3,OIHH 100400Z 11002KT CAVOK 26/06 Q1016 A3003,2024-08-10T04:00:00Z,26,6,6+,30.00
OICS,35.245,47.009,VRB,2,2.3,OICS 100400Z VRB02KT CAVOK 25/07 Q1014 A2996,2024-08-10T04:00:00Z,25,7,6+,29.94
OICM,-99.99,-99.99,0,0,0.0,OICM 100400Z 00000KT CAVOK 32/09 Q0995,2024-08-10T04:00:00Z,32,9,6+,29.38
OICK,33.435,48.283,120,6,6.9,OICK 100400Z 12006KT 9999 SCT090 28/05 Q1011 A2986,2024-08-10T04:00:00Z,28,5,6+,29.85
OIBV,26.81,53.356,150,14,16.11,OIBV 100400Z 15014KT 6000 NSC 35/29 Q1000,2024-08-10T04:00:00Z,35,29,3.73,29.53
OIBS,25.903,54.548,70,16,18.41,OIBS 100400Z 07016KT 7000 NSC 33/30 Q1001,2024-08-10T04:00:00Z,33,30,4.35,29.56
OIBQ,29.259,50.324,140,8,9.21,OIBQ 100400Z 14008KT 3000 BR NSC 33/30 Q1000,2024-08-10T04:00:00Z,33,30,1.86,29.53
OIBL,26.532,54.825,100,14,16.11,OIBL 100400Z 10014KT 7000 NSC 33/27 Q1001,2024-08-10T04:00:00Z,33,27,4.35,29.56
OIBK,26.526,53.98,120,16,18.41,OIBK 100400Z 12016KT 5000 HZ NSC 34/27 Q1000,2024-08-10T04:00:00Z,34,27,3.11,29.53
OIBJ,27.82,52.352,230,2,2.3,OIBJ 100400Z 23002KT 6000 NSC 33/25 Q1007 A2974,2024-08-10T04:00:00Z,33,25,3.73,29.73
OIBH,27.213,54.319,0,0,0.0,OIBH 100400Z 00000KT 4000 HZ NSC 33/28 Q1000 A2953,2024-08-10T04:00:00Z,33,28,2.49,29.53
OIBA,25.876,55.033,90,8,9.21,OIBA 100400Z 09008KT 4000 HZ FEW030 BKN080 33/28 Q1001,2024-08-10T04:00:00Z,33,28,2.49,29.56
OIAM,30.556,49.152,120,4,4.6,OIAM 100400Z 12004KT 2000 BR BKN040 33/31 Q1000,2024-08-10T04:00:00Z,33,31,1.24,29.53
OIAH,30.336,50.83,0,0,0.0,OIAH 100400Z 00000KT 8000 FEW100 32/23 Q1007,2024-08-10T04:00:00Z,32,23,4.97,29.73
OIAG,30.74,49.684,160,6,6.9,OIAG 100400Z 16006KT 3500 HZ BKN040 34/26 Q1000,2024-08-10T04:00:00Z,34,26,2.17,29.53
OIAA,30.366,48.23,190,2,2.3,OIAA 100400Z 19002KT 7000 NSC 34/11 Q1000,2024-08-10T04:00:00Z,34,11,4.35,29.53
OEYN,24.144,38.063,40,2,2.3,OEYN 100400Z 04002KT CAVOK 31/24 Q1003 NOSIG,2024-08-10T04:00:00Z,31,24,6+,29.62
OEWJ,26.199,36.476,30,3,3.45,OEWJ 100400Z 03003KT CAVOK 30/20 Q1006 NOSIG,2024-08-10T04:00:00Z,30,20,6+,29.70
OEWD,20.504,45.197,320,4,4.6,OEWD 100400Z 32004KT CAVOK 31/00 Q1006,2024-08-10T04:00:00Z,31,0,6+,29.70
OETR,31.693,38.731,280,7,8.06,OETR 100400Z 28007KT CAVOK 23/08 Q1012 NOSIG,2024-08-10T04:00:00Z,23,8,6+,29.88
OETF,21.483,40.544,300,5,5.75,OETF 100400Z 30005KT CAVOK 24/16 Q1018 NOSIG,2024-08-10T04:00:00Z,24,16,6+,30.06
OETB,28.366,36.619,260,4,4.6,OETB 100400Z 26004KT CAVOK 28/08 Q1013 NOSIG,2024-08-10T04:00:00Z,28,8,6+,29.91
OESK,29.785,40.1,310,8,9.21,OESK 100400Z 31008KT CAVOK 28/12 Q1013 NOSIG,2024-08-10T04:00:00Z,28,12,6+,29.91
OESH,17.467,47.121,0,0,0.0,OESH 100400Z 00000KT CAVOK 30/11 Q1007 NOSIG,2024-08-10T04:00:00Z,30,11,6+,29.73
OERS,-99.99,-99.99,130,3,3.45,OERS 100400Z 13003KT CAVOK 30/18 Q1006 NOSIG,2024-08-10T04:00:00Z,30,18,6+,29.70
OERR,30.907,41.138,310,8,9.21,OERR 100400Z 31008KT CAVOK 29/05 Q1008 NOSIG,2024-08-10T04:00:00Z,29,5,6+,29.76
OERK,24.945,46.702,300,3,3.45,OERK 100400Z 30003KT CAVOK 31/M02 Q1008 NOSIG,2024-08-10T04:00:00Z,31,-2,6+,29.76
OERF,29.626,43.491,290,5,5.75,OERF 100400Z 29005KT CAVOK 29/M02 Q1007 NOSIG,2024-08-10T04:00:00Z,29,-2,6+,29.73
OEPA,28.335,46.125,0,0,0.0,OEPA 100400Z 00000KT CAVOK 32/02 Q1005 NOSIG,2024-08-10T04:00:00Z,32,2,6+,29.68
OENG,17.611,44.419,250,2,2.3,OENG 100400Z 25002KT CAVOK 28/M02 Q1012 NOSIG,2024-08-10T04:00:00Z,28,-2,6+,29.88
OEMN,-99.99,-99.99,0,0,0.0,OEMN 100400Z 00000KT CAVOK 32/23 Q1007,2024-08-10T04:00:00Z,32,23,6+,29.73
OEMA,24.553,39.705,330,3,3.45,OEMA 100400Z 33003KT CAVOK 34/11 Q1011 NOSIG,2024-08-10T04:00:00Z,34,11,6+,29.85
OEKM,18.301,42.798,0,0,0.0,OEKM 100400Z 00000KT CAVOK 20/14 Q1022 NOSIG,2024-08-10T04:00:00Z,20,14,6+,30.18
OEKJ,24.07,47.58,280,7,8.06,OEKJ 100400Z 28007KT CAVOK 32/05 Q1007,2024-08-10T04:00:00Z,32,5,6+,29.73
OEJN,21.685,39.166,300,7,8.06,OEJN 100400Z 30007KT 9999 FEW025 32/27 Q1005 NOSIG,2024-08-10T04:00:00Z,32,27,6+,29.68
OEHL,27.438,41.686,150,2,2.3,OEHL 100400Z 15002KT CAVOK 29/04 Q1013,2024-08-10T04:00:00Z,29,4,6+,29.91
OEGT,31.412,37.279,290,12,13.81,OEGT 100400Z 29012KT CAVOK 22/17 Q1011 NOSIG,2024-08-10T04:00:00Z,22,17,6+,29.85
OEGS,26.303,43.774,310,5,5.75,OEGS 100400Z 31005KT CAVOK 31/03 Q1009,2024-08-10T04:00:00Z,31,3,6+,29.79
OEGN,16.901,42.586,140,6,6.9,OEGN 100400Z 14006KT 9000 SCT030 SCT100 31/28 Q1006 NOSIG,2024-08-10T04:00:00Z,31,28,5.59,29.70
OEDR,26.265,50.152,150,3,3.45,OEDR 100400Z 15003KT 6000 NSC 34/32 Q1000,2024-08-10T04:00:00Z,34,32,3.73,29.53
OEDM,24.45,44.121,0,0,0.0,OEDM 100400Z 00000KT CAVOK 29/00 Q1011,2024-08-10T04:00:00Z,29,0,6+,29.85
OEDF,26.45,49.817,110,6,6.9,OEDF 100400Z 11006KT 5000 HZ NSC 32/27 Q1001 NOSIG,2024-08-10T04:00:00Z,32,27,3.11,29.56
OEBH,19.984,42.621,290,6,6.9,OEBH 100400Z 29006KT CAVOK 28/16 Q1012 NOSIG,2024-08-10T04:00:00Z,28,16,6+,29.88
OEBA,20.296,41.634,300,12,13.81,OEBA 100400Z 30012KT CAVOK 25/13 Q1018 NOSIG,2024-08-10T04:00:00Z,25,13,6+,30.06
OEAO,26.483,38.117,330,4,4.6,OEAO 100400Z 33004KT CAVOK 34/04 Q1011 NOSIG,2024-08-10T04:00:00Z,34,4,6+,29.85
OEAH,25.285,49.485,0,0,0.0,OEAH 100400Z 00000KT 8000 NSC 33/20 Q1002 NOSIG,2024-08-10T04:00:00Z,33,20,4.97,29.59
OEAB,18.24,42.657,0,0,0.0,OEAB 100400Z 00000KT CAVOK 21/12 Q1022 NOSIG,2024-08-10T04:00:00Z,21,12,6+,30.18
OBBI,26.271,50.634,90,3,3.45,OBBI 100400Z 09003KT 040V150 CAVOK 34/29 Q1001 NOSIG,2024-08-10T04:00:00Z,34,29,6+,29.56
NVVW,-19.455,169.224,130,9,10.36,NVVW 100400Z 13009KT 9999 SCT020 BKN040 27/19 Q1015,2024-08-10T04:00:00Z,27,19,6+,29.97
NVVV,-17.695,168.313,130,8,9.21,NVVV 100400Z 13008KT 9999 SCT018 BKN035 BKN100 24/22 Q1014 RERA,2024-08-10T04:00:00Z,24,22,6+,29.94
NVSS,-15.505,167.22,150,8,9.21,NVSS 100400Z 15008KT 9999 SCT020 27/20 Q1012,2024-08-10T04:00:00Z,27,20,6+,29.88
NSFA,-13.829,-171.993,130,18,20.71,NSFA 100400Z 13018KT 9999 FEW020 SCT045 BKN140 26/22 Q1011,2024-08-10T04:00:00Z,26,22,6+,29.85
NGTA,1.381,173.147,30,4,4.6,NGTA 100400Z 03004KT 9999 FEW019 32/23 Q1006,2024-08-10T04:00:00Z,32,23,6+,29.70
NGFU,-8.523,179.198,100,7,8.06,NGFU 100400Z 10007KT 9999 VCSH FEW016CB SCT018TCU BKN110 28/25 Q1008 RERA,2024-08-10T04:00:00Z,28,25,6+,29.76
NFTV,-18.585,-173.963,100,7,8.06,NFTV 100400Z 10007KT 9999 SCT017TCU BKN270 23/18 Q1016,2024-08-10T04:00:00Z,23,18,6+,30.00
NFTL,-19.777,-174.34,100,13,14.96,NFTL 100400Z 10013KT 9999 FEW017 24/16 Q1017,2024-08-10T04:00:00Z,24,16,6+,30.03
NFTF,-21.241,-175.15,90,8,9.21,NFTF 100400Z 09008KT 9999 SCT018 BKN040 23/16 Q1019,2024-08-10T04:00:00Z,23,16,6+,30.09
NFNS,-16.803,179.341,120,8,9.21,NFNS 100400Z 12008KT 9999 SCT020 BKN045 26/20 Q1015,2024-08-10T04:00:00Z,26,20,6+,29.97
NFNM,-16.691,-179.877,150,17,19.56,NFNM 100400Z 15017KT 9999 FEW022 BKN290 26/20 Q1014,2024-08-10T04:00:00Z,26,20,6+,29.94
NFNL,-16.467,179.339,100,16,18.41,NFNL 100400Z 10016KT 9999 SCT026 BKN300 27/19 Q1014,2024-08-10T04:00:00Z,27,19,6+,29.94
NFNA,-18.043,178.559,120,10,11.51,NFNA 100400Z 12010KT 9999 SCT020 BKN045 25/20 Q1015,2024-08-10T04:00:00Z,25,20,6+,29.97
NFFN,-17.755,177.443,340,12,13.81,NFFN 100400Z 34012KT 9999 FEW030 SCT300 27/19 Q1014 NOSIG,2024-08-10T04:00:00Z,27,19,6+,29.94
MYSM,24.064,-74.529,100,4,4.6,MYSM 100400Z AUTO 10004KT 9999 FEW019/// 28/26 A3011,2024-08-10T04:00:00Z,28,26,6+,30.11
MYNN,25.04,-77.467,110,3,3.45,MYNN 100400Z 11003KT CAVOK 28/25 A3010,2024-08-10T04:00:00Z,28,25,6+,30.10
MYGF,26.555,-78.698,190,5,5.75,MYGF 100400Z AUTO 19005KT //// R24///// // FEW015/// SCT230/// 29/25 A3007,2024-08-10T04:00:00Z,29,25,,30.07
MWCR,19.294,-81.357,60,9,10.36,MWCR 100400Z 06009KT 9999 FEW018 30/26 Q1017,2024-08-10T04:00:00Z,30,26,6+,30.03
MSLP,13.438,-89.056,VRB,2,2.3,MSLP 100400Z VRB02KT 9999 FEW073 26/26 Q1014 A2994 NOSIG,2024-08-10T04:00:00Z,26,26,6+,29.94
MROC,9.991,-84.218,VRB,2,2.3,MROC 100400Z VRB02KT 9999 BCFG NSC 22/20 A3008 NOSIG,2024-08-10T04:00:00Z,22,20,6+,30.08
MRLB,10.589,-85.552,0,0,0.0,MRLB 100400Z 00000KT 9999 BKN020 25/25 A2992,2024-08-10T04:00:00Z,25,25,6+,29.92
MPTO,9.056,-79.391,280,7,8.06,MPTO 100400Z 28007KT 9999 SCT018CB SCT090 27/25 Q1012 NOSIG ,2024-08-10T04:00:00Z,27,25,6+,29.88
MNMG,12.141,-86.177,110,4,4.6,MNMG 100400Z 11004KT 9999 FEW022 SCT300 26/25 Q1013 A2992 NOSIG,2024-08-10T04:00:00Z,26,25,6+,29.91
MKJS,18.502,-77.915,130,4,4.6,MKJS 100400Z 13004KT 9999 FEW022 29/25 Q1016,2024-08-10T04:00:00Z,29,25,6+,30.00
MKJP,17.942,-76.798,VRB,2,2.3,MKJP 100400Z VRB02KT 9999 FEW022 30/26 Q1015,2024-08-10T04:00:00Z,30,26,6+,29.97
MHTG,14.06,-87.216,0,0,0.0,MHTG 100400Z 00000KT 9999 FEW030 SCT090 20/19 Q1021 A3015 NOSIG,2024-08-10T04:00:00Z,20,19,6+,30.15
MHRO,16.316,-86.523,50,3,3.45,MHRO 100400Z 05003KT 9999 TS SCT020 FEW022CB BKN080 28/26 Q1014 A2995 RERA NOSIG,2024-08-10T04:00:00Z,28,26,6+,29.94
MHPR,14.382,-87.621,180,8,9.21,MHPR 100400Z 18008KT 9999 FEW050 SCT100 25/22 Q1019 A3010 NOSIG,2024-08-10T04:00:00Z,25,22,6+,30.09
MHLM,15.442,-87.934,10,5,5.75,MHLM 100400Z 01005KT 9999 FEW026 27/25 Q1014 A2994 NOSIG,2024-08-10T04:00:00Z,27,25,6+,29.94
MHLC,15.737,-86.864,VRB,2,2.3,MHLC 100400Z VRB02KT 9999 FEW035 27/25 Q1014 A2995 NOSIG,2024-08-10T04:00:00Z,27,25,6+,29.94
MHCA,14.875,-85.775,0,0,0.0,MHCA 100400Z 00000KT 9999 SCT028 25/23 Q1017,2024-08-10T04:00:00Z,25,23,6+,30.03
MGMM,16.914,-89.866,0,0,0.0,MGMM 100400Z 00000KT CAVOK 26/25 Q1016 A3000 SCT090,2024-08-10T04:00:00Z,26,25,6+,30.00
MDST,19.407,-70.614,VRB,3,3.45,MDST 100400Z VRB03KT 9999 FEW020CB SCT022 SCT300 26/25 Q1017CB/S,2024-08-10T04:00:00Z,26,25,6+,
MDSD,18.433,-69.667,0,0,0.0,MDSD 100400Z 00000KT 9999 FEW018 SCT300 26/25 Q1016,2024-08-10T04:00:00Z,26,25,6+,30.00
MDPC,18.566,-68.356,60,10,11.51,MDPC 100400Z 06010KT 9999 BKN018 29/26 Q1016,2024-08-10T04:00:00Z,29,26,6+,30.00
LPLA,38.762,-27.091,,,,LPLA 100400Z /////KT 9999 FEW015 23/20 Q1022,2024-08-10T04:00:00Z,23,20,6+,30.18
LPBJ,38.073,-7.931,80,1,1.15,LPBJ 100400Z 08001KT 040V130 CAVOK 20/14 Q1015,2024-08-10T04:00:00Z,20,14,6+,29.97
LKLN,49.675,13.275,0,0,0.0,LKLN 100400Z AUTO 00000KT 9999 FEW041 SCT078 15/14 Q1021,2024-08-10T04:00:00Z,15,14,6+,30.15
LKKV,50.202,12.91,80,2,2.3,LKKV 100400Z 08002KT 9999 BCFG NSC 14/14 Q1021,2024-08-10T04:00:00Z,14,14,6+,30.15
LKKB,50.123,14.538,210,4,4.6,LKKB 100400Z 21004KT CAVOK 18/16 Q1020,2024-08-10T04:00:00Z,18,16,6+,30.12
LIRI,40.62,14.911,50,3,3.45,LIRI 100400Z 05003KT CAVOK 23/18 Q1016,2024-08-10T04:00:00Z,23,18,6+,30.00
LETO,40.489,-3.451,20,8,9.21,LETO 100400Z 02008KT 350V050 CAVOK 22/09 Q1020 NOSIG,2024-08-10T04:00:00Z,22,9,6+,30.12
LBPL,43.453,24.504,220,4,4.6,LBPL 100400Z 22004KT 9999 SCT100 18/16 Q1016,2024-08-10T04:00:00Z,18,16,6+,30.00
LBPG,42.289,24.714,60,2,2.3,LBPG 100400Z 06002KT 9999 SCT100 21/13 Q1016,2024-08-10T04:00:00Z,21,13,6+,30.00
LBIA,42.456,26.352,260,4,4.6,LBIA 100400Z 26004KT 9999 FEW050 BKN100 20/20 Q1016,2024-08-10T04:00:00Z,20,20,6+,30.00
KNEL,40.037,-74.326,210,7,8.06,KNEL 100400Z AUTO 21007KT -RA BKN006 BKN010 OVC050 24/24 A2984 RMK AO2 SLP103 P0014 T02440239 $,2024-08-10T04:00:00Z,24.4,23.9,,29.84
KILM,34.2668,-77.8999,180,4,4.6,KILM 100400Z AUTO 18004KT 6SM BR SCT011 OVC024 27/26 A2995 RMK AO2 T02670256,2024-08-10T04:00:00Z,26.7,25.6,6,29.95
HUEN,0.036,32.437,10,5,5.75,HUEN 100400Z 01005KT 7000 -RA SCT018 FEW020CB 20/18 Q1018 NOSIG,2024-08-10T04:00:00Z,20,18,4.35,30.06
HTZA,-6.222,39.225,0,0,0.0,HTZA 100400Z 00000KT 9999 FEW012 21/21 Q1018 NOSIG,2024-08-10T04:00:00Z,21,21,6+,30.06
HTTB,-5.074,32.833,140,10,11.51,HTTB 100400Z 14010KT CAVOK 17/10 Q1021 NOSIG,2024-08-10T04:00:00Z,17,10,6+,30.15
HTSU,-7.949,31.609,160,3,3.45,HTSU 100400Z 16003KT 9999 SKC 11/06 Q1024,2024-08-10T04:00:00Z,11,6,6+,30.24
HTSO,-10.682,35.584,0,0,0.0,HTSO 100400Z 00000KT 9999 SKC 14/12 Q1024,2024-08-10T04:00:00Z,14,12,6+,30.24
HTMW,-2.442,32.925,110,5,5.75,HTMW 100400Z 11005KT 9999 FEW018 17/15 Q1018 NOSIG,2024-08-10T04:00:00Z,17,15,6+,30.06
HTMU,-1.503,33.802,0,0,0.0,HTMU 100400Z 00000KT 9999 FEW018CB SCT090 21/17 Q1018,2024-08-10T04:00:00Z,21,17,6+,30.06
HTMT,-10.335,40.184,240,5,5.75,HTMT 100400Z 24005KT 9999 FEW018 19/18 Q1019 NOSIG,2024-08-10T04:00:00Z,19,18,6+,30.09
HTMP,-6.355,31.084,0,0,0.0,HTMP 100400Z 00000KT 9999 SKC 14/11 Q1021,2024-08-10T04:00:00Z,14,11,6+,30.15
HTMG,-6.797,37.652,0,0,0.0,HTMG 100400Z 00000KT 9999 FEW018 16/15 Q1020,2024-08-10T04:00:00Z,16,15,6+,30.12
HTKJ,-3.427,37.058,0,0,0.0,HTKJ 100400Z 00000KT 9999 BKN020 14/13 Q1022 NOSIG,2024-08-10T04:00:00Z,14,13,6+,30.18
HTKA,-4.887,29.669,0,0,0.0,HTKA 100400Z 00000KT CAVOK 17/14 Q1015 NOSIG,2024-08-10T04:00:00Z,17,14,6+,29.97
HTIR,-7.676,35.753,180,4,4.6,HTIR 100400Z 18004KT 9999 SKC 11/09 Q1023,2024-08-10T04:00:00Z,11,9,6+,30.21
HTIB,-99.99,-99.99,0,0,0.0,HTIB 100400Z 00000KT CAVOK 18/12 Q1018,2024-08-10T04:00:00Z,18,12,6+,30.06
HTDO,-6.169,35.751,100,7,8.06,HTDO 100400Z 10007KT CAVOK 16/13 Q1021 NOSIG,2024-08-10T04:00:00Z,16,13,6+,30.15
HTDA,-6.881,39.201,210,3,3.45,HTDA 100400Z 21003KT 9000 VCFG SCT012 SCT014 21/19 Q1019 NOSIG,2024-08-10T04:00:00Z,21,19,5.59,30.09
HTBU,-1.332,31.821,0,0,0.0,HTBU 100400Z 00000KT 9999 TSRA SCT010 FEW012CB BKN080 19/18 Q1018 NOSIG,2024-08-10T04:00:00Z,19,18,6+,30.06
HTAR,-3.368,36.626,130,3,3.45,HTAR 100400Z 13003KT 9999 BKN018 14/13 Q1025 NOSIG,2024-08-10T04:00:00Z,14,13,6+,30.27
HKWJ,1.74,40.087,160,8,9.21,HKWJ 100400Z 16008KT 9999 SCT018 BKN023 24/19 Q1015,2024-08-10T04:00:00Z,24,19,6+,29.97
HKNW,-1.322,36.815,0,0,0.0,HKNW 100400Z 00000KT 9999 BNK020 15/12 Q1026,2024-08-10T04:00:00Z,15,12,6+,30.30
HKNK,-0.298,36.159,0,0,0.0,HKNK 100400Z 00000KT 9999 FEW017 14/12,2024-08-10T04:00:00Z,14,12,6+,
HKNI,-0.343,36.915,60,4,4.6,HKNI 100400Z 06004KT 4000 VCFG SCT008 OVC016 13/12,2024-08-10T04:00:00Z,13,12,2.49,
HKML,-3.229,40.102,180,3,3.45,HKML 100400Z 18003KT 9999 FEW019 24/21 Q1017,2024-08-10T04:00:00Z,24,21,6+,30.03
HKKT,0.973,34.959,0,0,0.0,HKKT 100400Z 00000KT 9999 FG FEW018 BKN090 15/14,2024-08-10T04:00:00Z,15,14,6+,
HKKI,-0.086,34.734,10,3,3.45,HKKI 100400Z 01003KT 9999 FEW018 BKN080 18/16 Q1019,2024-08-10T04:00:00Z,18,16,6+,30.09
HKGO,-99.999,-99.999,VRB,3,3.45,HKGO 100400Z AUTO VRB03KT 12/12 Q1029 A30.39,2024-08-10T04:00:00Z,12,12,,30.38
HKGA,-0.464,39.649,0,0,0.0,HKGA 100400Z 00000KT 9999 BKN020 23/20 Q1017,2024-08-10T04:00:00Z,23,20,6+,30.03
HKEM,-0.573,37.497,0,0,0.0,HKEM 100400Z 00000KT 9999 BKN015 15/12,2024-08-10T04:00:00Z,15,12,6+,
HKEL,0.404,35.239,150,6,6.9,HKEL 100400Z 15006KT 9999 FEW014 BKN070 14/13 Q1026,2024-08-10T04:00:00Z,14,13,6+,30.30
HESX,30.108,30.896,20,4,4.6,HESX 100400Z 02004KT CAVOK 24/22 Q1011 NOSIG,2024-08-10T04:00:00Z,24,22,6+,29.85
HESW,29.346,25.507,20,9,10.36,HESW 100400Z 02009KT CAVOK 25/16 Q1011,2024-08-10T04:00:00Z,25,16,6+,29.85
HESN,23.964,32.82,310,4,4.6,HESN 100400Z 31004KT CAVOK 32/17 Q1008 NOSIG,2024-08-10T04:00:00Z,32,17,6+,29.76
HESH,27.977,34.395,350,11,12.66,HESH 100400Z 35011KT CAVOK 33/21 Q1007 NOSIG,2024-08-10T04:00:00Z,33,21,6+,29.73
HESG,26.343,31.743,280,5,5.75,HESG 100400Z 28005KT CAVOK 32/10 Q1007 NOSIG,2024-08-10T04:00:00Z,32,10,6+,29.73
HEPS,31.279,32.238,310,6,6.9,HEPS 100400Z 31006KT CAVOK 28/22 Q1010 NOSIG,2024-08-10T04:00:00Z,28,22,6+,29.82
HEMM,31.325,27.222,250,8,9.21,HEMM 100400Z 25008KT CAVOK 26/22 Q1011 NOSIG,2024-08-10T04:00:00Z,26,22,6+,29.85
HEMA,25.557,34.584,320,10,11.51,HEMA 100400Z 32010KT CAVOK 34/11 Q1007 NOSIG,2024-08-10T04:00:00Z,34,11,6+,29.73
HELX,25.671,32.706,0,0,0.0,HELX 100400Z 00000KT CAVOK 32/09 Q1008 NOSIG,2024-08-10T04:00:00Z,32,9,6+,29.76
HEIS,30.592,32.247,310,6,6.9,HEIS 100400Z 31006KT CAVOK 25/22 Q1010,2024-08-10T04:00:00Z,25,22,6+,29.82
HEGN,27.179,33.801,320,8,9.21,HEGN 100400Z 32008KT CAVOK 32/11 Q1007 NOSIG,2024-08-10T04:00:00Z,32,11,6+,29.73
HEBA,30.918,29.696,160,5,5.75,HEBA 100400Z 16005KT CAVOK 22/20 Q1010 NOSIG,2024-08-10T04:00:00Z,22,20,6+,29.82
HEAT,27.049,31.014,360,5,5.75,HEAT 100400Z 36005KT CAVOK 28/12 Q1011 NOSIG,2024-08-10T04:00:00Z,28,12,6+,29.85
HCMM,2.015,45.305,200,12,13.81,HCMM 100400Z 20012KT 9999 SCT019 BKN070 25/23 Q1015,2024-08-10T04:00:00Z,25,23,6+,29.97
HCMF,11.277,49.141,,,,HCMF 100400Z 00000KTKT CAVOK 34/19 Q1002,2024-08-10T04:00:00Z,34,19,6+,29.59
HBBA,-3.324,29.319,90,2,2.3,HBBA 100400Z 09002KT 6000 NSC 21/20 Q1015 NOSIG,2024-08-10T04:00:00Z,21,20,3.73,29.97
GVSV,16.833,-25.055,70,4,4.6,GVSV 100400Z 07004KT 9999 FEW017 26/22 Q1012 NOSIG,2024-08-10T04:00:00Z,26,22,6+,29.88
GVNP,14.947,-23.484,10,7,8.06,GVNP 100400Z 01007KT 9999 FEW018 25/22 Q1012 NOSIG,2024-08-10T04:00:00Z,25,22,6+,29.88
GVAC,16.742,-22.949,340,15,17.26,GVAC 100400Z 34015KT 9999 OVC014 25/21 Q1011 NOSIG,2024-08-10T04:00:00Z,25,21,6+,29.85
GQPP,20.929,-17.031,20,18,20.71,GQPP 100400Z 02018KT 3200 BLSA NSC 23/18 Q1007 NOSIG,2024-08-10T04:00:00Z,23,18,1.99,29.73
GOTK,12.572,-12.22,260,6,6.9,GOTK 100400Z 26006KT 9999 VCTS FEW030CB 27/24 Q1010,2024-08-10T04:00:00Z,27,24,6+,29.82
GOSS,16.051,-16.461,240,8,9.21,GOSS 100400Z 24008KT 190V280 9999 SCT010 27/23 Q1008,2024-08-10T04:00:00Z,27,23,6+,29.76
GOSP,16.677,-14.964,240,4,4.6,GOSP 100400Z 24004KT CAVOK 26/23 Q1008,2024-08-10T04:00:00Z,26,23,6+,29.76
GOSM,15.597,-13.326,280,2,2.3,GOSM 100400Z 28002KT CAVOK 29/25 Q1008,2024-08-10T04:00:00Z,29,25,6+,29.76
GOOY,14.741,-17.49,240,6,6.9,GOOY 100400Z 24006KT 200V320 9999 SCT013 28/24 Q1009,2024-08-10T04:00:00Z,28,24,6+,29.79
GOOG,15.4,-15.084,280,6,6.9,GOOG 100400Z 28006KT CAVOK 27/24 Q1008,2024-08-10T04:00:00Z,27,24,6+,29.76
GOOD,14.65,-16.23,260,2,2.3,GOOD 100400Z 26002KT 9999 SCT013 28/26 Q1009,2024-08-10T04:00:00Z,28,26,6+,29.79
GOGS,12.389,-16.742,260,6,6.9,GOGS 100400Z 26006KT 9999 SCT013 28/26 Q1010,2024-08-10T04:00:00Z,28,26,6+,29.82
GOGG,12.556,-16.282,240,6,6.9,GOGG 100400Z 24006KT 9999 BKN015 26/26 Q1011,2024-08-10T04:00:00Z,26,26,6+,29.85
GMTN,35.594,-5.32,60,6,6.9,GMTN 100400Z 06006KT 4000 BR OVC004 25/23 Q1014 NOSIG,2024-08-10T04:00:00Z,25,23,2.49,29.94
GMTA,35.177,-3.84,VRB,2,2.3,GMTA 100400Z VRB02KT CAVOK 25/21 Q1015 NOSIG,2024-08-10T04:00:00Z,25,21,6+,29.97
GMMZ,30.939,-6.909,VRB,2,2.3,GMMZ 100400Z VRB02KT 8000 NSC 26/00 Q1020 NOSIG,2024-08-10T04:00:00Z,26,0,4.97,30.12
GMMW,34.993,-3.025,VRB,2,2.3,GMMW 100400Z VRB02KT 8000 SCT019 24/22 Q1016 NOSIG,2024-08-10T04:00:00Z,24,22,4.97,30.00
GMML,27.141,-13.23,40,20,23.02,GMML 100400Z 04020KT 5000 BKN010 21/21 Q1012 NOSIG,2024-08-10T04:00:00Z,21,21,3.11,29.88
GMMI,31.406,-9.687,VRB,1,1.15,GMMI 100400Z AUTO VRB01KT 6000 NSC 19/17 Q1013 NOSIG,2024-08-10T04:00:00Z,19,17,3.73,29.91
GMMB,33.655,-7.221,50,4,4.6,GMMB 100400Z AUTO 05004KT 7000 VV002 19/19 Q1014 NOSIG,2024-08-10T04:00:00Z,19,19,4.35,29.94
GMFM,33.875,-5.52,170,3,3.45,GMFM 100400Z 17003KT 20/15 Q1016,2024-08-10T04:00:00Z,20,15,,30.00
GMFK,31.946,-4.399,100,3,3.45,GMFK 100400Z 10003KT 080V140 CAVOK 32/01 Q1020 NOSIG,2024-08-10T04:00:00Z,32,1,6+,30.12
GMFB,32.514,-1.978,110,14,16.11,GMFB 100400Z AUTO 11014KT 3700 VV006 30/09 Q1021 NOSIG,2024-08-10T04:00:00Z,30,9,2.3,30.15
GMAZ,30.266,-5.854,170,6,6.9,GMAZ 100400Z 17006KT CAVOK 30/M02 Q1016 NOSIG,2024-08-10T04:00:00Z,30,-2,6+,30.00
GMAG,29.031,-10.051,170,6,6.9,GMAG 100400Z AUTO 17006KT CAVOK 19/19 Q1013,2024-08-10T04:00:00Z,19,19,6+,29.91
GLRB,6.234,-10.362,270,5,5.75,GLRB 100400Z 27005KT 9999 BKN012 FEW022CB 24/23 Q1013 CB/W-NW NOSIG,2024-08-10T04:00:00Z,24,23,6+,29.91
GFLL,8.616,-13.195,260,5,5.75,GFLL 100400Z 26005KT 6000 RA BKN008 FEW027CB 24/23 Q1011 RMK-CB-NE/SW,2024-08-10T04:00:00Z,24,23,3.73,29.85
GAKD,14.482,-11.404,270,3,3.45,GAKD 100400Z 27003KT 9999 FEW020 30/26 Q1010,2024-08-10T04:00:00Z,30,26,6+,29.82
FZAA,-4.387,15.448,0,0,0.0,FZAA 100400Z 00000KT 6000 NSC 22/18 Q1015 NOSIG,2024-08-10T04:00:00Z,22,18,3.73,29.97
FYWH,-22.481,17.47,280,8,9.21,FYWH 100400Z 28008KT CAVOK 07/M17 Q1026 NOSIG,2024-08-10T04:00:00Z,7,-17,6+,30.30
FYWE,-22.612,17.08,180,7,8.06,FYWE 100400Z AUTO 18007KT //// // ////// 07/M15 Q1027,2024-08-10T04:00:00Z,7,-15,,30.32
FYWB,-22.98,14.645,100,3,3.45,FYWB 100400Z 10003KT CAVOK 07/03 Q1017,2024-08-10T04:00:00Z,7,3,6+,30.03
FYRU,-17.956,19.724,180,1,1.15,FYRU 100400Z AUTO 18001KT //// // ////// 13/M01 Q1023,2024-08-10T04:00:00Z,13,-1,,30.21
FYOG,-28.585,16.447,,,,FYOG 100400Z AUTO /////KT ///V/// 2200 BR ///////// 08/07 Q1019,2024-08-10T04:00:00Z,8,7,1.37,30.09
FYOA,-17.878,15.953,140,2,2.3,FYOA 100400Z AUTO 14002KT //// // ////// 12/M05 Q1017,2024-08-10T04:00:00Z,12,-5,,30.03
FYLZ,-26.687,15.243,,,,FYLZ 100400Z AUTO /////KT //// // ////// 13/09 Q1018,2024-08-10T04:00:00Z,13,9,,30.06
FYKT,-26.54,18.111,10,5,5.75,FYKT 100400Z AUTO 01005KT //// // ////// 09/M14 Q1021,2024-08-10T04:00:00Z,9,-14,,30.15
FYKM,-17.634,24.177,280,2,2.3,FYKM 100400Z AUTO 28002KT //// // ////// 09/M02 Q1019,2024-08-10T04:00:00Z,9,-2,,30.09
FYGF,-19.599,18.116,270,3,3.45,FYGF 100400Z AUTO 27003KT //// // ////// 10/M06 Q1024,2024-08-10T04:00:00Z,10,-6,,30.24
FWKI,-13.789,33.781,0,0,0.0,FWKI 100400Z 00000KT 5000 HZ SKC 11/09 Q1022 BECMG 3000 VCFG,2024-08-10T04:00:00Z,11,9,3.11,30.18
FVRG,-17.921,31.1,80,4,4.6,FVRG 100400Z 08004KT CAVOK 10/04 Q1025 NOSIG,2024-08-10T04:00:00Z,10,4,6+,30.27
FVJN,-20.021,28.627,310,4,4.6,FVJN 100400Z 31004KT CAVOK 14/M03 Q1024 NOSIG,2024-08-10T04:00:00Z,14,-3,6+,30.24
FTTJ,12.134,15.034,250,5,5.75,FTTJ 100400Z 25005KT 8000 FEW020 24/24 Q1010 NOSIG,2024-08-10T04:00:00Z,24,24,4.97,29.82
FSIA,-4.674,55.522,120,15,17.26,FSIA 100400Z 12015G29KT 100V170 9999 SCT016 26/24 Q1013 NOSIG,2024-08-10T04:00:00Z,26,24,6+,29.91
FQXA,-25.038,33.627,250,4,4.6,FQXA 100400Z 25004KT CAVOK 18/16 Q1018,2024-08-10T04:00:00Z,18,16,6+,30.06
FQVL,-22.017,35.313,350,4,4.6,FQVL 100400Z 35004KT 9999 BKN020 21/21 Q1018,2024-08-10T04:00:00Z,21,21,6+,30.06
FQTT,-16.108,33.64,350,5,5.75,FQTT 100400Z 35005KT CAVOK 15/10 Q1017,2024-08-10T04:00:00Z,15,10,6+,30.03
FQQL,-17.858,36.869,50,4,4.6,FQQL 100400Z 05004KT CAVOK 19/18 Q1019,2024-08-10T04:00:00Z,19,18,6+,30.09
FQPB,-12.989,40.525,290,4,4.6,FQPB 100400Z 29004KT 9999 FEW020 21/21 Q1019,2024-08-10T04:00:00Z,21,21,6+,30.09
FQNP,-15.106,39.282,360,4,4.6,FQNP 100400Z 36004KT 0200 FG FEW009 17/17 Q1020,2024-08-10T04:00:00Z,17,17,0.12,30.12
FQMA,-25.921,32.573,200,5,5.75,FQMA 100400Z 20005KT 9999 FEW030 16/08 Q1016 NOSIG,2024-08-10T04:00:00Z,16,8,6+,30.00
FQCH,-19.148,33.428,,,,FQCH 100400Z /////KT CAVOK 17/15 Q1021,2024-08-10T04:00:00Z,17,15,6+,30.15
FQBR,-19.796,34.908,60,3,3.45,FQBR 100400Z 06003KT 5000 BR NSC 19/17 Q1017,2024-08-10T04:00:00Z,19,17,3.11,30.03
FOOL,0.459,9.412,170,8,9.21,FOOL 100400Z 17008KT 9999 SCT010 24/21 Q1013 NOSIG,2024-08-10T04:00:00Z,24,21,6+,29.91
FNUE,-11.768,19.898,160,4,4.6,FNUE 100400Z AUTO 16004KT 9999 ////// ///// Q////,2024-08-10T04:00:00Z,,,6+,
FNUB,-14.925,13.575,170,6,6.9,FNUB 100400Z AUTO 17006KT 9999 // ////// 15/M03 Q1025,2024-08-10T04:00:00Z,15,-3,6+,30.27
FNHU,-12.809,15.761,VRB,2,2.3,FNHU 100400Z AUTO VRB02KT //// // NCD 14/00 Q1023,2024-08-10T04:00:00Z,14,0,,30.21
FNGI,-17.044,15.684,0,0,0.0,FNGI 100400Z AUTO 00000KT 9999 // NCD 12/M08 Q1020,2024-08-10T04:00:00Z,12,-8,6+,30.12
FNCT,-12.479,13.487,90,2,2.3,FNCT 100400Z AUTO 09002KT CAVOK 15/15 Q1014,2024-08-10T04:00:00Z,15,15,6+,29.94
FNCA,-5.59,12.188,90,4,4.6,FNCA 100400Z AUTO 09004KT 9999 FEW006 SCT010 20/19 Q1014,2024-08-10T04:00:00Z,20,19,6+,29.94
FMNA,-12.35,49.293,140,12,13.81,FMNA 100400Z 14012KT 9999 VCSH SCT020 23/17 Q1017,2024-08-10T04:00:00Z,23,17,6+,30.03
FKYS,3.833,11.521,270,4,4.6,FKYS 100400Z 27004KT 8000 BKN006 21/20 Q1017 NOSIG,2024-08-10T04:00:00Z,21,20,4.97,30.03
FKKD,4.006,9.72,0,0,0.0,FKKD 100400Z 00000KT 9999 -DZ SCT005 BKN013 FEW016CB 25/25 Q1012 TEMPO 3500 RADZ,2024-08-10T04:00:00Z,25,25,6+,29.88
FIMP,-20.434,57.684,120,13,14.96,FIMP 100400Z 12013KT 9999 VCSH SCT016 23/18 Q1024,2024-08-10T04:00:00Z,23,18,6+,30.24
FGSL,3.756,8.71,280,3,3.45,FGSL 100400Z 28003KT 9999 FEW010 25/25 Q1013 NOSIG,2024-08-10T04:00:00Z,25,25,6+,29.91
FGBT,1.905,9.806,170,4,4.6,FGBT 100400Z 17004KT 9999 SCT010 25/23 Q1013,2024-08-10T04:00:00Z,25,23,6+,29.91
FEFF,4.399,18.519,VRB,2,2.3,FEFF 100400Z VRB02KT CAVOK 23/22 Q1012 NOSIG,2024-08-10T04:00:00Z,23,22,6+,29.88
FDSK,-26.359,31.719,360,3,3.45,FDSK 100400Z 36003KT CAVOK 10/07 Q1019 NOSIG,2024-08-10T04:00:00Z,10,7,6+,30.09
FDOT,-26.704,31.425,0,0,0.0,FDOT 100400Z AUTO 00000KT //// // ////// 08/06 Q1020,2024-08-10T04:00:00Z,8,6,,30.12
FDBB,-26.815,31.934,220,3,3.45,FDBB 100400Z AUTO 22003KT //// // ////// 06/05 Q1017,2024-08-10T04:00:00Z,6,5,,30.03
FCPP,-4.816,11.887,130,2,2.3,FCPP 100400Z 13002KT 4000 BR FEW009 19/19 Q1014 NOSIG,2024-08-10T04:00:00Z,19,19,2.49,29.94
FCBB,-4.252,15.253,260,4,4.6,FCBB 100400Z 26004KT 8000 FEW020 22/18 Q1015 NOSIG,2024-08-10T04:00:00Z,22,18,4.97,29.97
FBSK,-24.555,25.918,,,,FBSK 100400Z /////KT CAVOK 06/M11 Q1022 NOSIG,2024-08-10T04:00:00Z,6,-11,6+,30.18
FAWK,-25.83,28.223,0,0,0.0,FAWK 100400Z AUTO 00000KT //// // ////// 07/M08 Q////,2024-08-10T04:00:00Z,7,-8,,
FAWB,-25.654,28.224,210,2,2.3,FAWB 100400Z AUTO 21002KT //// // ////// 07/M07 Q1022,2024-08-10T04:00:00Z,7,-7,,30.18
FAVV,-26.566,27.961,0,0,0.0,FAVV 100400Z AUTO 00000KT //// // ////// 03/M06 Q1026,2024-08-10T04:00:00Z,3,-6,,30.30
FAUT,-31.546,28.673,280,2,2.3,FAUT 100400Z 28002KT CAVOK 06/03 Q1016,2024-08-10T04:00:00Z,6,3,6+,30.00
FAUP,-28.399,21.26,20,5,5.75,FAUP 100400Z 02005KT CAVOK 05/M02 Q1021 NOSIG,2024-08-10T04:00:00Z,5,-2,6+,30.15
FASI,-26.248,28.398,300,3,3.45,FASI 100400Z AUTO 30003KT //// // ////// 05/M08 Q1028,2024-08-10T04:00:00Z,5,-8,,30.35
FAPP,-23.845,29.459,210,5,5.75,FAPP 100400Z AUTO 21005KT //// // ////// 09/M02 Q1025,2024-08-10T04:00:00Z,9,-2,,30.27
FAPN,-25.334,27.173,20,2,2.3,FAPN 100400Z AUTO 02002KT //// // ////// 02/M08 Q1022,2024-08-10T04:00:00Z,2,-8,,30.18
FAPE,-33.985,25.617,300,3,3.45,FAPE 100400Z 30003KT 240V360 CAVOK 08/07 Q1011 NOSIG,2024-08-10T04:00:00Z,8,7,6+,29.85
FAMM,-25.798,25.548,90,3,3.45,FAMM 100400Z 09003KT CAVOK 06/M11 Q1024 NOSIG,2024-08-10T04:00:00Z,6,-11,6+,30.24
FALW,-32.972,18.158,10,15,17.26,FALW 100400Z AUTO 01015KT //// // ////// 12/11 Q1014,2024-08-10T04:00:00Z,12,11,,29.94
FALE,-29.602,31.13,VRB,1,1.15,FALE 100400Z VRB01KT CAVOK 08/06 Q1017 NOSIG,2024-08-10T04:00:00Z,8,6,6+,30.03
FALA,-25.939,27.926,170,2,2.3,FALA 100400Z 17002KT CAVOK 09/M07 Q1024 NOSIG,2024-08-10T04:00:00Z,9,-7,6+,30.24
FAKN,-25.383,31.106,290,1,1.15,FAKN 100400Z 29001KT CAVOK 17/04 Q1021 NOSIG,2024-08-10T04:00:00Z,17,4,6+,30.15
FAKM,-28.803,24.765,30,2,2.3,FAKM 100400Z AUTO 03002KT //// // ////// 01/M00 Q1023,2024-08-10T04:00:00Z,1,0,,30.21
FAJB,-26.15,28,260,2,2.3,FAJB 100400Z AUTO 26002KT //// // ////// 10/M12 Q1024,2024-08-10T04:00:00Z,10,-12,,30.24
FAHS,-24.381,31.044,180,6,6.9,FAHS 100400Z AUTO 18006KT //// // ////// 18/09 Q1019,2024-08-10T04:00:00Z,18,9,,30.09
FAEL,-33.036,27.826,340,6,6.9,FAEL 100400Z 34006KT CAVOK 11/09 Q1014,2024-08-10T04:00:00Z,11,9,6+,29.94
FACT,-33.965,18.602,10,23,26.47,FACT 100400Z 01023KT 9999 FEW020 SCT040 13/09 Q1012 NOSIG,2024-08-10T04:00:00Z,13,9,6+,29.88
FABL,-29.093,26.302,270,3,3.45,FABL 100400Z 27003KT CAVOK M01/M04 Q1024 NOSIG,2024-08-10T04:00:00Z,-1,-4,6+,30.24
EIME,53.306,-6.442,230,12,13.81,EIME 100400Z 23012KT 9999 BKN028 BKN035 15/13 Q1013,2024-08-10T04:00:00Z,15,13,6+,29.91
DXXX,6.166,1.254,260,9,10.36,DXXX 100400Z 26009KT 9999 SCT010 25/22 Q1013 NOSIG,2024-08-10T04:00:00Z,25,22,6+,29.91
DTTX,34.718,10.691,280,3,3.45,DTTX 100400Z 28003KT CAVOK 25/19 Q1015,2024-08-10T04:00:00Z,25,19,6+,29.97
DTTR,31.703,9.257,0,0,0.0,DTTR 100400Z AUTO 00000KT NCD 25/18 Q1016,2024-08-10T04:00:00Z,25,18,,30.00
DTTN,36.483,8.8,240,2,2.3,DTTN 100400Z AUTO 24002KT NCD 22/10 Q1017,2024-08-10T04:00:00Z,22,10,,30.03
DTTL,36.85,11.083,VRB,3,3.45,DTTL 100400Z AUTO VRB03KT NCD 26/25 Q1016,2024-08-10T04:00:00Z,26,25,,30.00
DTTK,35.667,10.1,VRB,2,2.3,DTTK 100400Z VRB02KT CAVOK 27/11 Q1016,2024-08-10T04:00:00Z,27,11,6+,30.00
DTTG,33.733,9.918,100,2,2.3,DTTG 100400Z 10002KT CAVOK 22/17 Q1016,2024-08-10T04:00:00Z,22,17,6+,30.00
DTTF,34.422,8.822,30,8,9.21,DTTF 100400Z 03008KT CAVOK 27/12 Q1018,2024-08-10T04:00:00Z,27,12,6+,30.06
DTTD,32.312,10.386,350,3,3.45,DTTD 100400Z AUTO 35003KT NCD 23/18 Q1017,2024-08-10T04:00:00Z,23,18,,30.03
DTKA,36.98,8.877,160,4,4.6,DTKA 100400Z 16004KT 9999 FEW020 21/18 Q1017,2024-08-10T04:00:00Z,21,18,6+,30.03
DRRN,13.483,2.17,20,16,18.41,DRRN 100400Z 02016KT 8000 -TSRA FEW016 FEW030CB 24/23 Q1012 TEMPO 4500 TSRA,2024-08-10T04:00:00Z,24,23,4.97,29.88
DNMM,6.577,3.321,210,3,3.45,DNMM 100400Z 21003KT 9999 FEW008 24/23 Q1013 NOSIG,2024-08-10T04:00:00Z,24,23,6+,29.91
DNIM,5.427,7.206,0,0,0.0,DNIM 100400Z 00000KT 9999 BKN009 24/24 Q1013,2024-08-10T04:00:00Z,24,24,6+,29.91
DNIL,8.438,4.491,0,0,0.0,DNIL 100400Z 00000KT 9999 FEW009 22/22 Q1013,2024-08-10T04:00:00Z,22,22,6+,29.91
DNAA,9.007,7.263,170,6,6.9,DNAA 100400Z 17006KT 9999 FEW010 24/23 Q1013 TEMPO -RA BKN007,2024-08-10T04:00:00Z,24,23,6+,29.91
DIYO,6.903,-5.366,220,4,4.6,DIYO 100400Z 22004KT 8000 OVC010 23/22 Q1013 NOSIG,2024-08-10T04:00:00Z,23,22,4.97,29.91
DIBK,7.739,-5.074,180,4,4.6,DIBK 100400Z 18004KT 8000 NSC 22/22 Q1014 NOSIG,2024-08-10T04:00:00Z,22,22,4.97,29.94
DGAA,5.6,-0.17,230,7,8.06,DGAA 100400Z 23007KT 9999 FEW013 OVC020 24/22 Q1013 NOSIG,2024-08-10T04:00:00Z,24,22,6+,29.91
DFOO,11.163,-4.322,220,6,6.9,DFOO 100400Z 22006KT CAVOK 25/24 Q1013,2024-08-10T04:00:00Z,25,24,6+,29.91
DBBB,6.357,2.384,240,9,10.36,DBBB 100400Z 24009KT 9999 SCT008 25/23 Q1013 NOSIG,2024-08-10T04:00:00Z,25,23,6+,29.91
DAUZ,28.052,9.643,70,22,25.32,DAUZ 100400Z 07022KT 1500 BLSA NSC 29/14 Q1015,2024-08-10T04:00:00Z,29,14,0.93,29.97
DAUU,31.917,5.413,110,6,6.9,DAUU 100400Z 11006KT CAVOK 31/07 Q1014,2024-08-10T04:00:00Z,31,7,6+,29.94
DAUT,29.237,0.276,110,6,6.9,DAUT 100400Z 11006KT CAVOK 31/04 Q1011,2024-08-10T04:00:00Z,31,4,6+,29.85
DAUO,33.513,6.782,140,4,4.6,DAUO 100400Z 14004KT CAVOK 30/11 Q1015,2024-08-10T04:00:00Z,30,11,6+,29.97
DAUL,33.764,2.928,0,0,0.0,DAUL 100400Z 00000KT 8000 NSC 29/06 Q1019,2024-08-10T04:00:00Z,29,6,4.97,30.09
DAUK,33.068,6.089,110,5,5.75,DAUK 100400Z 11005KT CAVOK 29/07 Q1014,2024-08-10T04:00:00Z,29,7,6+,29.94
DAUI,27.251,2.512,70,8,9.21,DAUI 100400Z 07008KT CAVOK 31/M03 Q1011,2024-08-10T04:00:00Z,31,-3,6+,29.85
DAUH,31.673,6.14,70,5,5.75,DAUH 100400Z 07005KT CAVOK 29/09 Q1014,2024-08-10T04:00:00Z,29,9,6+,29.94
DAUG,32.384,3.794,320,3,3.45,DAUG 100400Z 32003KT CAVOK 30/05 Q1018,2024-08-10T04:00:00Z,30,5,6+,30.06
DAUE,30.571,2.86,80,4,4.6,DAUE 100400Z 08004KT CAVOK 31/02 Q1016,2024-08-10T04:00:00Z,31,2,6+,30.00
DAUB,34.793,5.738,90,4,4.6,DAUB 100400Z 09004KT CAVOK 30/10 Q1016,2024-08-10T04:00:00Z,30,10,6+,30.00
DAUA,27.839,-0.186,110,8,9.21,DAUA 100400Z 11008KT CAVOK 31/03 Q1011,2024-08-10T04:00:00Z,31,3,6+,29.85
DAOY,33.721,1.091,120,4,4.6,DAOY 100400Z 12004KT 9999 SCT030 22/12 Q1022,2024-08-10T04:00:00Z,22,12,6+,30.18
DAOV,35.208,0.147,350,4,4.6,DAOV 100400Z 35004KT 9999 FEW033 SCT100 23/19 Q1017,2024-08-10T04:00:00Z,23,19,6+,30.03
DAOR,31.65,-2.261,100,7,8.06,DAOR 100400Z 10007KT CAVOK 33/05 Q1017,2024-08-10T04:00:00Z,33,5,6+,30.03
DAON,35.013,-1.457,350,3,3.45,DAON 100400Z 35003KT 7000 SCT013 24/22 Q1016,2024-08-10T04:00:00Z,24,22,4.35,30.00
DAOL,35.542,-0.532,140,4,4.6,DAOL 100400Z 14004KT 8000 FEW013 24/20 Q1016,2024-08-10T04:00:00Z,24,20,4.97,30.00
DAOI,36.213,1.332,240,7,8.06,DAOI 100400Z 24007KT 8000 NSC 26/23 Q1016,2024-08-10T04:00:00Z,26,23,4.97,30.00
DAOF,27.7,-8.167,340,4,4.6,DAOF 100400Z 34004KT 8000 NSC 31/M02 Q1012,2024-08-10T04:00:00Z,31,-2,4.97,29.88
DAOB,35.345,1.476,0,0,0.0,DAOB 100400Z 00000KT CAVOK 22/13 Q1021,2024-08-10T04:00:00Z,22,13,6+,30.15
DABT,35.752,6.309,140,3,3.45,DABT 100400Z 14003KT 9999 FEW026 18/04 Q1022,2024-08-10T04:00:00Z,18,4,6+,30.18
DABS,35.432,8.121,80,2,2.3,DABS 100400Z 08002KT CAVOK 20/04 Q1021,2024-08-10T04:00:00Z,20,4,6+,30.15
DABC,36.278,6.629,VRB,2,2.3,DABC 100400Z VRB02KT CAVOK 21/08 Q1021,2024-08-10T04:00:00Z,21,8,6+,30.15
DABB,36.822,7.809,230,2,2.3,DABB 100400Z 23002KT CAVOK 22/20 Q1016,2024-08-10T04:00:00Z,22,20,6+,30.00
DAAV,36.795,5.877,180,4,4.6,DAAV 100400Z 18004KT CAVOK 20/16 Q1016,2024-08-10T04:00:00Z,20,16,6+,30.00
DAAS,36.18,5.33,50,5,5.75,DAAS 100400Z 05005KT CAVOK 24/06 Q1023,2024-08-10T04:00:00Z,24,6,6+,30.21
DAAP,26.724,8.622,70,10,11.51,DAAP 100400Z 07010KT CAVOK 31/12 Q1013,2024-08-10T04:00:00Z,31,12,6+,29.91
DAAJ,24.286,9.464,360,4,4.6,DAAJ 100400Z 36004KT CAVOK 24/M03 Q1015,2024-08-10T04:00:00Z,24,-3,6+,29.97
CZZJ,53.583,-116.462,60,4,4.6,CZZJ 100400Z AUTO 06004KT 17/08 RMK AO1 SLP191 T01690075 56001,2024-08-10T04:00:00Z,16.9,7.5,,
CZVL,53.67,-113.863,130,5,5.75,CZVL 100400Z AUTO 13005KT 9SM CLR 16/08 A3013 RMK SLP206 DENSITY ALT 2700FT,2024-08-10T04:00:00Z,16,8,9,30.13
CZUM,53.562,-64.107,0,0,0.0,CZUM 100400Z AUTO 00000KT 9SM CLR 08/07 A2987 RMK SLP127,2024-08-10T04:00:00Z,8,7,9,29.87
CZTB,48.369,-89.327,290,9,10.36,CZTB 100400Z AUTO 29009KT 12/10 RMK AO1 1001 SLP106 T01190098 50007,2024-08-10T04:00:00Z,11.9,9.8,,
CZSP,46.45,-62.576,150,8,9.21,CZSP 100400Z AUTO 15008KT 18/17 RMK AO1 6036 SLP169 T01780172 50003,2024-08-10T04:00:00Z,17.8,17.2,,
CZSM,60.026,-111.929,160,3,3.45,CZSM 100400Z AUTO 16003KT 21/09 RMK AO1 SLP175 T02110091 56006,2024-08-10T04:00:00Z,21.1,9.1,,
CZSJ,53.063,-93.344,320,4,4.6,CZSJ 100400Z AUTO 32004KT 9SM CLR 09/09 A3004 RMK SLP184,2024-08-10T04:00:00Z,9,9,9,30.04
CZRP,75.377,-105.715,20,7,8.06,CZRP 100400Z AUTO 02007KT 02/01 RMK AO1 SLP094 T00210013 56010,2024-08-10T04:00:00Z,2.1,1.3,,
CZPC,49.522,-114.005,160,4,4.6,CZPC 100400Z AUTO 16004KT 9SM CLR 13/08 A3017 RMK SLP217 DENSITY ALT 4300FT,2024-08-10T04:00:00Z,13,8,9,30.17
CZOL,53.642,-113.364,120,1,1.15,CZOL 100400Z AUTO 12001KT 14/09 RMK AO1 T01400088,2024-08-10T04:00:00Z,14,8.8,,
CZMU,53.563,-112.296,120,6,6.9,CZMU 100400Z AUTO 12006KT 14/09 RMK AO1 T01370086,2024-08-10T04:00:00Z,13.7,8.6,,
CZMJ,50.332,-105.538,60,6,6.9,CZMJ 100400Z AUTO 06006KT 15/07 RMK AO1 SLP242 T01500074 53003,2024-08-10T04:00:00Z,15,7.4,,
CZMD,53.439,-91.766,350,5,5.75,CZMD 100400Z AUTO 35005KT 9SM CLR 13/08 A3001 RMK SLP173,2024-08-10T04:00:00Z,13,8,9,30.01
CZKD,56.037,-96.51,280,2,2.3,CZKD 100400Z AUTO 28002KT 17/12 RMK AO1 SLP182 T01680123 57009,2024-08-10T04:00:00Z,16.8,12.3,,
CZHY,60.839,-115.781,170,4,4.6,CZHY 100400Z AUTO 17004KT 24/10 RMK AO1 SLP132 T02410097 56007,2024-08-10T04:00:00Z,24.1,9.7,,
CZFS,61.76,-121.23,140,8,9.21,CZFS 100400Z AUTO 14008KT 27/09 RMK AO1 SLP069 T02710093 56011,2024-08-10T04:00:00Z,27.1,9.3,,
CZEV,68.313,-133.496,310,6,6.9,CZEV 100400Z AUTO 31006KT 14/13 RMK AO1 SLP056 T01410129 50005,2024-08-10T04:00:00Z,14.1,12.9,,
CZEL,43.642,-80.412,250,2,2.3,CZEL 100400Z AUTO 25002KT 13/13 RMK AO1 SLP121 T01250127 51004,2024-08-10T04:00:00Z,12.5,12.7,,
CZDB,45.422,-63.466,170,5,5.75,CZDB 100400Z AUTO 17005KT 19/19 RMK AO1 8029 SLP173 T01850192 50022,2024-08-10T04:00:00Z,18.5,19.2,,
CZCR,47.99,-66.334,100,14,16.11,CZCR 100400Z AUTO 10014KT 16/15 RMK AO1 8045 PK WND 11017/0350 SLP118 T01590152 50041,2024-08-10T04:00:00Z,15.9,15.2,,
CYZY,55.303,-123.135,60,2,2.3,CYZY 100400Z AUTO 06002KT 9SM CLR 20/13 A2994 RMK SLP144 DENSITY ALT 3400FT,2024-08-10T04:00:00Z,20,13,9,29.94
CYZV,50.217,-66.26,50,6,6.9,CYZV 100400Z 05006KT 15SM -RA FEW040 BKN084 OVC120 15/14 A2988 RMK SC1AC5AC2 -RA INTMT PRESFR SLP122,2024-08-10T04:00:00Z,15,14,15,29.88
CYZU,54.142,-115.785,130,11,12.66,CYZU 100400Z 13011G17KT 15SM FEW240 16/09 A3009 RMK CI1 LAST STFD OBS/NXT 101200Z SLP199 DENSITY ALT 3100FT,2024-08-10T04:00:00Z,16,9,15,30.09
CYZT,50.685,-127.369,VRB,2,2.3,CYZT 100400Z VRB02KT 15SM SCT120 BKN220 16/14 A3001 RMK AC3CI3 FG BANK VIS N 7 SLP165,2024-08-10T04:00:00Z,16,14,15,30.01
CYZS,64.188,-83.351,VRB,2,2.3,CYZS 100400Z VRB02KT 15SM FEW180 11/09 A2992 RMK AC1 SLP137,2024-08-10T04:00:00Z,11,9,15,29.92
CYZR,42.995,-82.307,280,7,8.06,CYZR 100400Z AUTO 28007G15KT 9SM CLR 18/12 A2993 RMK SLP137 DENSITY ALT 1100FT,2024-08-10T04:00:00Z,18,12,9,29.93
CYZH,55.293,-114.773,110,7,8.06,CYZH 100400Z AUTO 11007KT 9SM CLR 16/11 A3010 RMK SLP203 DENSITY ALT 2300FT,2024-08-10T04:00:00Z,16,11,9,30.10
CYZF,62.475,-114.448,140,10,11.51,CYZF 100400Z 14010KT 15SM FEW240 22/11 A2993 RMK CI2 SLP142 DENSITY ALT 1700FT,2024-08-10T04:00:00Z,22,11,15,29.93
CYZE,45.885,-82.57,290,6,6.9,CYZE 100400Z AUTO 29006KT 9SM OVC086 17/14 A2982 RMK SLP101 DENSITY ALT 1100FT,2024-08-10T04:00:00Z,17,14,9,29.82
CYYZ,43.679,-79.629,230,6,6.9,CYYZ 100400Z 23006KT 15SM FEW250 18/13 A2987 RMK CI1 SLP116 DENSITY ALT 1100FT,2024-08-10T04:00:00Z,18,13,15,29.87
CYYY,48.609,-68.208,60,6,6.9,CYYY 100400Z 06006KT 6SM -RA BR SCT012 OVC045 16/16 A2972 RMK SF4SC4 PRESFR SLP068 DENSITY ALT 600FT,2024-08-10T04:00:00Z,16,16,6,29.72
CYYT,47.627,-52.748,260,14,16.11,CYYT 100400Z 26014KT 15SM SCT220 16/14 A3014 RMK CI3 SLP210,2024-08-10T04:00:00Z,16,14,15,30.14
CYYR,53.32,-60.417,270,7,8.06,CYYR 100400Z 27007KT 15SM FEW260 15/06 A2984 RMK CI2 DENSITY ALT 365FT SLP106,2024-08-10T04:00:00Z,15,6,15,29.84
CYYQ,58.745,-94.074,310,5,5.75,CYYQ 100400Z 31005KT 12SM SCT080 20/11 A2998 RMK AC4 SLP156 DENSITY ALT 600FT,2024-08-10T04:00:00Z,20,11,12,29.98
CYYN,50.292,-107.691,130,7,8.06,CYYN 100400Z AUTO 13007KT 9SM CLR 13/02 A3020 RMK SLP233,2024-08-10T04:00:00Z,13,2,9,30.20
CYYL,56.863,-101.073,280,6,6.9,CYYL 100400Z AUTO 28006KT 9SM CLR 17/10 A3013 RMK SLP210 DENSITY ALT 1500FT,2024-08-10T04:00:00Z,17,10,9,30.13
CYYJ,48.642,-123.433,90,3,3.45,CYYJ 100400Z 09003KT 30SM FEW050 FEW250 16/12 A2991 RMK FU1CI1 CI TR SLP129,2024-08-10T04:00:00Z,16,12,30,29.91
CYYG,46.289,-63.128,160,11,12.66,CYYG 100400Z 16011G16KT 6SM BR OVC008 18/18 A3001 RMK ST8 SLP164 DENSITY ALT 600FT,2024-08-10T04:00:00Z,18,18,6,30.01
CYYF,49.46,-119.606,310,4,4.6,CYYF 100400Z 31004KT 15SM FEW090 SCT120 BKN180 25/10 A2998 RMK ACC2AC2AC2 SLP147 DENSITY ALT 2500FT,2024-08-10T04:00:00Z,25,10,15,29.98
CYYE,58.839,-122.59,120,3,3.45,CYYE 100400Z 12003KT 15SM SKC 27/10 A2982 RMK FU1 SLP101 DENSITY ALT 3100FT,2024-08-10T04:00:00Z,27,10,15,29.82
CYYD,54.823,-127.185,320,5,5.75,CYYD 100400Z 32005KT 310V040 20SM FEW090 SCT140 BKN180 20/12 A2996 RMK AC1AC3AC2 SLP147 DENSITY ALT 2700FT,2024-08-10T04:00:00Z,20,12,20,29.96
CYYC,51.116,-114.011,150,11,12.66,CYYC 100400Z 15011KT 15SM FEW170 SCT210 18/08 A3016 RMK AS1CI2 SLP214 DENSITY ALT 4500FT,2024-08-10T04:00:00Z,18,8,15,30.16
CYYB,46.365,-79.423,260,9,10.36,CYYB 100400Z AUTO 26009KT 9SM CLR 17/13 A2978 RMK SLP084 DENSITY ALT 2000FT,2024-08-10T04:00:00Z,17,13,9,29.78
CYXY,60.71,-135.059,160,12,13.81,CYXY 100400Z 16012G20KT 40SM FEW040 SCT075 BKN120 BKN200 19/11 A2985 RMK SC1AC4AC2CI1 SC TR CU ASOCTD SLP117 DENSITY ALT 3400FT,2024-08-10T04:00:00Z,19,11,40,29.85
CYXX,49.027,-122.377,190,6,6.9,CYXX 100400Z 19006KT 15SM FEW100 FEW250 FEW300 22/17 A2991 RMK AC1CS1CI1 CS TR HZ SLP130 DENSITY ALT 1100FT,2024-08-10T04:00:00Z,22,17,15,29.91
CYXU,43.039,-81.162,250,8,9.21,CYXU 100400Z 25008KT 15SM FEW042 17/14 A2993 RMK CF1 SLP133 DENSITY ALT 1400FT,2024-08-10T04:00:00Z,17,14,15,29.93
CYXT,54.471,-128.577,210,4,4.6,CYXT 100400Z 21004KT 190V260 20SM FEW180 25/14 A2992 RMK AC1 TCU TOPS DIST N SLP134 DENSITY ALT 2100FT,2024-08-10T04:00:00Z,25,14,20,29.92
CYXS,53.884,-122.677,0,0,0.0,CYXS 100400Z AUTO 00000KT 9SM CLR 17/12 A2996 RMK SLP154 DENSITY ALT 3000FT,2024-08-10T04:00:00Z,17,12,9,29.96
CYXR,47.698,-79.852,240,5,5.75,CYXR 100400Z AUTO 24005KT 9SM OVC081 18/11 A2971 RMK SLP064 DENSITY ALT 1600FT,2024-08-10T04:00:00Z,18,11,9,29.71
CYXL,50.114,-91.905,360,8,9.21,CYXL 100400Z 36008KT 15SM OVC035 11/09 A2999 RMK SC8 SLP169,2024-08-10T04:00:00Z,11,9,15,29.99
CYXJ,56.247,-120.737,100,12,13.81,CYXJ 100400Z 10012KT 15SM FEW100 21/09 A2996 RMK FU2AC1 AC TR SLP152 DENSITY ALT 3500FT,2024-08-10T04:00:00Z,21,9,15,29.96
CYXH,50.018,-110.717,60,6,6.9,CYXH 100400Z AUTO 06006KT 9SM BKN096 20/03 A3014 RMK SLP204 DENSITY ALT 3300FT,2024-08-10T04:00:00Z,20,3,9,30.14
CYXE,52.172,-106.695,100,5,5.75,CYXE 100400Z 10005KT 10SM BKN300 15/11 A3020 RMK CI7 FU SLP238,2024-08-10T04:00:00Z,15,11,10+,30.20
CYXC,49.614,-115.784,160,5,5.75,CYXC 100400Z 16005KT 25SM FEW120 BKN250 19/07 A3006 RMK AC1CI5 FU SLP172 DENSITY ALT 4200FT,2024-08-10T04:00:00Z,19,7,25,30.06
CYWL,52.186,-122.066,200,3,3.45,CYWL 100400Z 20003KT 180V250 15SM SCT095 BKN150 23/07 A3004 RMK AC4AC3 SLP164 DENSITY ALT 4600FT,2024-08-10T04:00:00Z,23,7,15,30.04
CYWK,52.927,-66.874,0,0,0.0,CYWK 100400Z AUTO 00000KT 9SM CLR 09/08 A2987 RMK SLP126,2024-08-10T04:00:00Z,9,8,9,29.87
CYWH,48.423,-123.387,VRB,3,3.45,CYWH 100400Z VRB03KT 15SM SKC 16/13 A2991 RMK LAST STFD OBS/NXT 101300Z SLP131,2024-08-10T04:00:00Z,16,13,15,29.91
CYWG,49.916,-97.249,300,7,8.06,CYWG 100400Z 30007KT 15SM SKC 09/07 A3013 RMK SLP210,2024-08-10T04:00:00Z,9,7,15,30.13
CYWE,64.192,-114.078,180,8,9.21,CYWE 100400Z AUTO 18008KT 9SM CLR 22/09 A2992 RMK SLP142 DENSITY ALT 2300FT,2024-08-10T04:00:00Z,22,9,9,29.92
CYVT,55.842,-108.418,210,3,3.45,CYVT 100400Z AUTO 21003KT 7SM CLR 19/08 A3016 RMK SLP221 DENSITY ALT 2000FT,2024-08-10T04:00:00Z,19,8,7,30.16
CYVQ,65.278,-126.796,100,7,8.06,CYVQ 100400Z 10007KT 5SM FU FEW070 FEW240 31/12 A2948 RMK FU1AC1CI1 AC TR SLP985 DENSITY ALT 2700FT,2024-08-10T04:00:00Z,31,12,5,29.48
CYVP,58.1,-68.415,260,6,6.9,CYVP 100400Z 26006KT 220V290 15SM SCT082 BKN150 15/11 A2972 RMK AC3AC3 SLP067 DENSITY ALT 400FT,2024-08-10T04:00:00Z,15,11,15,29.72
CYVM,67.552,-64.026,340,19,21.86,CYVM 100400Z AUTO 34019KT 9SM OVC044 07/02 A2966 RMK SLP047,2024-08-10T04:00:00Z,7,2,9,29.66
CYVL,67.021,-126.129,160,6,6.9,CYVL 100400Z AUTO 16006KT 1 1/4SM HZ OVC022 26/13 A2955 RMK SLP012 DENSITY ALT 2900FT,2024-08-10T04:00:00Z,26,13,1.25,29.55
CYVC,55.15,-105.264,0,0,0.0,CYVC 100400Z 00000KT 10SM VV052 14/10 A3019 RMK FU8 FU SLP231,2024-08-10T04:00:00Z,14,10,10+,30.19
CYUY,48.209,-78.83,250,5,5.75,CYUY 100400Z 25005KT 15SM FEW240 14/14 A2969 RMK CI1 SLP056 DENSITY ALT 1400FT,2024-08-10T04:00:00Z,14,14,15,29.69
CYUL,45.468,-73.742,250,7,8.06,CYUL 100400Z 25007KT 15SM OVC008 22/20 A2969 RMK ST8 SLP056 DENSITY ALT 1200FT,2024-08-10T04:00:00Z,22,20,15,29.69
CYUB,69.434,-133.026,320,16,18.41,CYUB 100400Z 32016G21KT 10SM OVC005 13/13 A2965 RMK SC8 SLP043,2024-08-10T04:00:00Z,13,13,10+,29.65
CYTZ,43.627,-79.397,270,8,9.21,CYTZ 100400Z AUTO 27008KT 9SM CLR 20/14 A2986 RMK SLP114 DENSITY ALT 1000FT,2024-08-10T04:00:00Z,20,14,9,29.86
CYTS,48.568,-81.378,260,5,5.75,CYTS 100400Z 26005KT 15SM SCT058 BKN090 17/11 A2974 RMK SC4AC2 SLP074 DENSITY ALT 1700FT,2024-08-10T04:00:00Z,17,11,15,29.74
CYTR,44.115,-77.531,270,7,8.06,CYTR 100400Z 27007KT 15SM SKC 18/13 A2982 RMK DENSITY ALT 1046FT SLP096,2024-08-10T04:00:00Z,18,13,15,29.82
CYTL,53.816,-89.892,30,3,3.45,CYTL 100400Z AUTO 03003KT 9SM CLR 10/07 A2999 RMK SLP167,2024-08-10T04:00:00Z,10,7,9,29.99
CYTH,55.803,-97.846,300,4,4.6,CYTH 100400Z 30004KT 260V360 15SM BKN210 17/11 A3007 RMK CI6 SLP191 DENSITY ALT 1000FT,2024-08-10T04:00:00Z,17,11,15,30.07
CYTE,64.23,-76.528,360,8,9.21,CYTE 100400Z AUTO 36008KT 240V030 9SM CLR 12/04 A2982 RMK SLP102,2024-08-10T04:00:00Z,12,4,9,29.82
CYSM,60.026,-111.929,150,5,5.75,CYSM 100400Z 15005KT 12SM FEW040 21/09 A3003 RMK FU2 SLP175 DENSITY ALT 1500FT,2024-08-10T04:00:00Z,21,9,12,30.03
CYSF,59.252,-105.837,,,,CYSF 100400Z AUTO /////KT 9SM CLR 16/12 A3011 RMK WIND MISG SLP204,2024-08-10T04:00:00Z,16,12,9,30.11
CYSC,45.44,-71.692,230,10,11.51,CYSC 100400Z AUTO 23010G16KT 9SM OVC016 21/19 A2972 RMK SLP066 DENSITY ALT 2000FT,2024-08-10T04:00:00Z,21,19,9,29.72
CYSB,46.622,-80.799,270,5,5.75,CYSB 100400Z 27005KT 15SM SKC 15/10 A2978 RMK SLP088 DENSITY ALT 1600FT,2024-08-10T04:00:00Z,15,10,15,29.78
CYRV,50.958,-118.176,350,3,3.45,CYRV 100400Z AUTO 35003KT 230V030 9SM CLR 21/11 A2999 RMK SLP154 DENSITY ALT 2400FT,2024-08-10T04:00:00Z,21,11,9,29.99
CYRT,62.811,-92.1,120,4,4.6,CYRT 100400Z 12004KT 6SM FU BKN250 14/11 A2998 RMK FU2CI3 SLP154,2024-08-10T04:00:00Z,14,11,6,29.98
CYRJ,48.523,-72.266,150,3,3.45,CYRJ 100400Z 15003KT 090V170 8SM -RA OVC004 17/17 A2965 RMK SF8 PRESRR SLP042 DENSITY ALT 1300FT,2024-08-10T04:00:00Z,17,17,8,29.65
CYRB,74.713,-94.982,60,15,17.26,CYRB 100400Z 06015KT 30SM FEW083 OVC110 08/06 A2977 RMK AC2AC6 SLP088,2024-08-10T04:00:00Z,8,6,30,29.77
CYQZ,53.027,-122.506,VRB,2,2.3,CYQZ 100400Z AUTO VRB02KT 9SM CLR 20/12 A2994 RMK SLP146 DENSITY ALT 2800FT,2024-08-10T04:00:00Z,20,12,9,29.94
CYQY,46.166,-60.049,180,6,6.9,CYQY 100400Z 18006KT 10SM OVC031 17/15 A3014 RMK SC8 SLP209,2024-08-10T04:00:00Z,17,15,10+,30.14
CYQX,48.946,-54.576,240,13,14.96,CYQX 100400Z 24013KT 20SM SCT160 18/10 A3008 RMK AC4 SLP188 DENSITY ALT 800FT,2024-08-10T04:00:00Z,18,10,20,30.08
CYQW,52.769,-108.251,160,4,4.6,CYQW 100400Z AUTO 16004KT 120V190 6SM HZ FEW046 14/09 A3022 RMK SLP244,2024-08-10T04:00:00Z,14,9,6,30.22
CYQV,51.26,-102.461,360,2,2.3,CYQV 100400Z AUTO 36002KT 9SM SCT140 11/08 A3021 RMK SLP242,2024-08-10T04:00:00Z,11,8,9,30.21
CYQU,55.182,-118.882,100,7,8.06,CYQU 100400Z 10007KT 20SM SKC 19/12 A3000 RMK SLP166 DENSITY ALT 3200FT,2024-08-10T04:00:00Z,19,12,20,30.00
CYQT,48.374,-89.33,280,8,9.21,CYQT 100400Z 28008KT 15SM -SHRA SCT019 OVC025 12/10 A2983 RMK SC4SC4 CVCTV CLD EMBD SLP107,2024-08-10T04:00:00Z,12,10,15,29.83
CYQR,50.427,-104.67,80,9,10.36,CYQR 100400Z 08009KT 10SM SKC 16/09 A3022 RMK FU SLP242 DENSITY ALT 2200FT,2024-08-10T04:00:00Z,16,9,10+,30.22
CYQQ,49.712,-124.895,330,10,11.51,CYQQ 100400Z CCA 33010KT 15SM SCT250 24/14 A2992 RMK FU4 DENSITY ALT 1354FT FU SLP130,2024-08-10T04:00:00Z,24,14,15,29.92
CYQL,49.627,-112.792,110,7,8.06,CYQL 100400Z 11007KT 20SM FEW100 14/08 A3014 RMK AC1 AC TR LAST STFD OBS/NXT 101200Z SLP209 DENSITY ALT 3400FT,2024-08-10T04:00:00Z,14,8,20,30.14
CYQK,49.791,-94.361,330,6,6.9,CYQK 100400Z 33006KT 20SM BKN070 BKN100 14/08 A3006 RMK AC6AC1 SLP189,2024-08-10T04:00:00Z,14,8,20,30.06
CYQI,43.831,-66.088,210,21,24.17,CYQI 100400Z 21021G32KT 1/2SM FG VV002 20/20 A3000 RMK FG8 VIS VRB 1/4-3/4 SLP161 DENSITY ALT 700FT,2024-08-10T04:00:00Z,20,20,0.5,30.00
CYQH,60.116,-128.832,250,10,11.51,CYQH 100400Z 25010KT 30SM BKN120 25/09 A2987 RMK AC6 SLP114 DENSITY ALT 4000FT,2024-08-10T04:00:00Z,25,9,30,29.87
CYQG,42.269,-82.963,290,8,9.21,CYQG 100400Z AUTO 29008KT 9SM CLR 18/12 A2997 RMK SLP149 DENSITY ALT 1100FT,2024-08-10T04:00:00Z,18,12,9,29.97
CYQF,52.179,-113.903,140,5,5.75,CYQF 100400Z AUTO 14005KT 9SM CLR 13/05 A3014 RMK SLP214 DENSITY ALT 3200FT,2024-08-10T04:00:00Z,13,5,9,30.14
CYQD,53.975,-101.089,250,6,6.9,CYQD 100400Z AUTO 25006KT 9SM CLR 16/12 A3015 RMK SLP216,2024-08-10T04:00:00Z,16,12,9,30.15
CYQB,46.791,-71.396,320,3,3.45,CYQB 100400Z 32003KT 280V030 8SM -SHRA SCT007 OVC013 18/18 A2952 RMK SF4SC4 CVCTV CLD EMBD PRESRR SLP000 DENSITY ALT 1200FT,2024-08-10T04:00:00Z,18,18,8,29.52
CYQA,44.971,-79.303,270,6,6.9,CYQA 100400Z AUTO 27006KT 200V320 9SM CLR 18/14 A2982 RMK SLP099 DENSITY ALT 1600FT,2024-08-10T04:00:00Z,18,14,9,29.82
CYPY,58.766,-111.117,160,4,4.6,CYPY 100400Z AUTO 16004KT 9SM CLR 18/14 A3007 RMK SLP188 DENSITY ALT 1200FT,2024-08-10T04:00:00Z,18,14,9,30.07
CYPX,60.045,-77.281,290,10,11.51,CYPX 100400Z AUTO 29010KT 9SM CLR 10/09 A2985 RMK SLP110,2024-08-10T04:00:00Z,10,9,9,29.85
CYPQ,44.232,-78.36,VRB,2,2.3,CYPQ 100400Z AUTO VRB02KT 9SM CLR 13/11 A2983 RMK SLP105,2024-08-10T04:00:00Z,13,11,9,29.83
CYPO,54.988,-85.439,360,4,4.6,CYPO 100400Z AUTO 36004KT 3/4SM BR VV003 05/05 A2998 RMK SLP157,2024-08-10T04:00:00Z,5,5,0.75,29.98
CYPH,58.47,-78.08,270,8,9.21,CYPH 100400Z AUTO 27008KT 9SM CLR 10/09 A2988 RMK SLP121,2024-08-10T04:00:00Z,10,9,9,29.88
CYPE,56.228,-117.453,120,8,9.21,CYPE 100400Z AUTO 12008KT 9SM CLR 19/11 A3002 RMK SLP175 DENSITY ALT 2700FT,2024-08-10T04:00:00Z,19,11,9,30.02
CYPA,53.217,-105.679,0,0,0.0,CYPA 100400Z 00000KT 15SM FEW270 13/11 A3020 RMK CI1 SLP238,2024-08-10T04:00:00Z,13,11,15,30.20
CYOW,45.307,-75.66,270,9,10.36,CYOW 100400Z 27009KT 9SM BKN008 OVC100 19/19 A2973 RMK ST7AC1 SLP068 DENSITY ALT 1200FT,2024-08-10T04:00:00Z,19,19,9,29.73
CYOO,43.921,-78.899,290,7,8.06,CYOO 100400Z AUTO 29007KT 9SM CLR 16/12 A2985 RMK SLP110 DENSITY ALT 800FT,2024-08-10T04:00:00Z,16,12,9,29.85
CYOJ,58.628,-117.174,140,5,5.75,CYOJ 100400Z AUTO 14005KT 9SM CLR 22/11 A2996 RMK SLP152 DENSITY ALT 2200FT,2024-08-10T04:00:00Z,22,11,9,29.96
CYOD,54.41,-110.287,120,2,2.3,CYOD 100400Z 12002KT 12SM FEW180 15/11 A3020 RMK AC1 DENSITY ALT 2006FT FU SLP232,2024-08-10T04:00:00Z,15,11,12,30.20
CYNM,49.759,-77.793,130,5,5.75,CYNM 100400Z AUTO 13005KT 9SM SCT060 SCT085 BKN110 18/17 A2967 RMK SLP050 DENSITY ALT 1800FT,2024-08-10T04:00:00Z,18,17,9,29.67
CYNE,53.958,-97.845,0,0,0.0,CYNE 100400Z AUTO 00000KT 9SM FEW081 15/15 A3010 RMK SLP199,2024-08-10T04:00:00Z,15,15,9,30.10
CYNA,50.19,-61.789,190,3,3.45,CYNA 100400Z AUTO 19003KT 9SM OVC160 13/12 A2998 RMK SLP155,2024-08-10T04:00:00Z,13,12,9,29.98
CYMT,49.779,-74.527,50,4,4.6,CYMT 100400Z AUTO 05004KT 9SM FEW010 SCT071 OVC092 16/15 A2972 RMK SLP069 DENSITY ALT 2000FT,2024-08-10T04:00:00Z,16,15,9,29.72
CYMO,51.292,-80.607,360,3,3.45,CYMO 100400Z AUTO 36003KT 9SM SCT230 SCT250 15/14 A2965 RMK SLP043 DENSITY ALT 400FT,2024-08-10T04:00:00Z,15,14,9,29.65
CYMM,56.65,-111.221,160,6,6.9,CYMM 100400Z AUTO 16006KT 9SM CLR 19/08 A3012 RMK SLP206 DENSITY ALT 1700FT,2024-08-10T04:00:00Z,19,8,9,30.12
CYMH,52.304,-55.833,200,4,4.6,CYMH 100400Z AUTO 20004KT 9SM CLR 12/09 A2986 RMK SLP115,2024-08-10T04:00:00Z,12,9,9,29.86
CYMA,63.616,-135.88,60,4,4.6,CYMA 100400Z 06004KT 20SM BKN062TCU BKN090 BKN120 20/15 A2971 RMK TCU5AC1AC1 SLP067 DENSITY ALT 2900FT,2024-08-10T04:00:00Z,20,15,20,29.71
CYLW,49.953,-119.375,VRB,3,3.45,CYLW 100400Z AUTO VRB03KT 9SM SCT180 BKN230 23/10 A2998 RMK SLP149 DENSITY ALT 2600FT,2024-08-10T04:00:00Z,23,10,9,29.98
CYLL,53.312,-110.074,150,4,4.6,CYLL 100400Z 15004KT 15SM FEW260 15/07 A3020 RMK CI1 CI TR LAST STFD OBS/NXT 101300Z SLP236 DENSITY ALT 2400FT,2024-08-10T04:00:00Z,15,7,15,30.20
CYKY,51.517,-109.175,90,8,9.21,CYKY 100400Z 09008KT 15SM FEW180 14/07 A3020 RMK AC1 AC TR SLP231 DENSITY ALT 2500FT,2024-08-10T04:00:00Z,14,7,15,30.20
CYKP,51.659,-85.901,20,9,10.36,CYKP 100400Z AUTO 02009G15KT 9SM OVC012 12/12 A2978 RMK SLP088,2024-08-10T04:00:00Z,12,12,9,29.78
CYKL,54.803,-66.804,270,5,5.75,CYKL 100400Z AUTO 27005KT 9SM CLR 11/04 A2986 RMK SLP125,2024-08-10T04:00:00Z,11,4,9,29.86
CYKJ,57.256,-105.618,0,0,0.0,CYKJ 100400Z AUTO 00000KT 6SM HZ CLR 17/09 A3016 RMK SLP222 DENSITY ALT 2100FT,2024-08-10T04:00:00Z,17,9,6,30.16
CYKF,43.462,-80.386,250,4,4.6,CYKF 100400Z AUTO 25004KT 9SM CLR 16/13 A2990 RMK SLP123 DENSITY ALT 1400FT,2024-08-10T04:00:00Z,16,13,9,29.90
CYKA,50.704,-120.444,VRB,9,10.36,CYKA 100400Z VRB09KT 40SM FEW100CB SCT150 BKN250 25/10 A2996 RMK CB2AC2CI1 SLP144 DENSITY ALT 2500FT,2024-08-10T04:00:00Z,25,10,40,29.96
CYJT,48.545,-58.564,240,16,18.41,CYJT 100400Z 24016KT 15SM FEW005 SCT021 BKN180 20/18 A3010 RMK SF1SC2AC3 SLP194 DENSITY ALT 500FT,2024-08-10T04:00:00Z,20,18,15,30.10
CYIO,72.694,-77.957,130,6,6.9,CYIO 100400Z AUTO 13006KT 9SM 05/03 A2973 RMK CLD MISG SLP075,2024-08-10T04:00:00Z,5,3,9,29.73
CYIN,51.265,-121.681,270,4,4.6,CYIN 100400Z AUTO 27004KT 160V280 9SM BKN120 16/08 A3008 RMK SLP175 DENSITY ALT 4500FT,2024-08-10T04:00:00Z,16,8,9,30.08
CYHZ,44.8781,-63.5136,160,7,8.06,CYHZ 100400Z 16007KT 1/4SM R23/2200FT/N R14/3000V3500FT/N FG VV002 20/20 A3007 RMK FG8 SLP183 DENSITY ALT 1000FT,2024-08-10T04:00:00Z,20,20,0.25,30.07
CYHY,60.839,-115.781,180,5,5.75,CYHY 100400Z 18005KT 12SM SKC 22/10 A2991 RMK FU1 FU SLP135 DENSITY ALT 1600FT,2024-08-10T04:00:00Z,22,10,12,29.91
CYHM,43.173,-79.936,200,3,3.45,CYHM 100400Z 20003KT 15SM FEW070 FEW250 16/13 A2990 RMK AC1CI2 AC TR SLP125 DENSITY ALT 1100FT,2024-08-10T04:00:00Z,16,13,15,29.90
CYHE,49.37,-121.493,260,5,5.75,CYHE 100400Z AUTO 26005KT 9SM CLR 25/18 A2990 RMK SLP126 DENSITY ALT 1300FT,2024-08-10T04:00:00Z,25,18,9,29.90
CYHD,49.83,-92.74,340,5,5.75,CYHD 100400Z AUTO 34005KT 310V010 9SM BKN044 BKN055 OVC068 11/09 A3001 RMK SLP177,2024-08-10T04:00:00Z,11,9,9,30.01
CYGX,56.359,-94.704,230,3,3.45,CYGX 100400Z 23003KT 15SM SCT210 BKN220 19/11 A3001 RMK CI3CC3 SLP170 DENSITY ALT 900FT,2024-08-10T04:00:00Z,19,11,15,30.01
CYGW,55.283,-77.76,50,7,8.06,CYGW 100400Z AUTO 05007KT 9SM CLR 10/08 A2986 RMK SLP114,2024-08-10T04:00:00Z,10,8,9,29.86
CYGL,53.625,-77.7,60,10,11.51,CYGL 100400Z 06010KT 15SM FEW092 18/10 A2975 RMK AC2 SLP080 DENSITY ALT 1400FT,2024-08-10T04:00:00Z,18,10,15,29.75
CYFB,63.75,-68.544,330,14,16.11,CYFB 100400Z 33014KT 15SM FEW062 FEW250 09/04 A2961 RMK SC1CI1 CI TR SLP030,2024-08-10T04:00:00Z,9,4,15,29.61
CYET,53.58,-116.455,60,5,5.75,CYET 100400Z AUTO 06005KT 010V080 9SM CLR 17/09 A3009 RMK SLP193 DENSITY ALT 3800FT,2024-08-10T04:00:00Z,17,9,9,30.09
CYER,56.019,-87.675,180,3,3.45,CYER 100400Z AUTO 18003KT 9SM FEW210 08/07 A3002 RMK SLP169,2024-08-10T04:00:00Z,8,7,9,30.02
CYEN,49.207,-102.963,10,3,3.45,CYEN 100400Z AUTO 01003KT 9SM OVC110 13/08 A3018 RMK SLP230,2024-08-10T04:00:00Z,13,8,9,30.18
CYEK,61.098,-94.072,200,5,5.75,CYEK 100400Z AUTO 20005KT 9SM CLR 14/12 A2999 RMK SLP157,2024-08-10T04:00:00Z,14,12,9,29.99
CYEG,53.308,-113.592,120,10,11.51,CYEG 100400Z 12010KT 20SM SKC 16/08 A3013 RMK SLP209 DENSITY ALT 2800FT,2024-08-10T04:00:00Z,16,8,20,30.13
CYDQ,55.741,-120.188,140,7,8.06,CYDQ 100400Z AUTO 14007KT 9SM CLR 22/08 A2997 RMK SLP152 DENSITY ALT 3400FT,2024-08-10T04:00:00Z,22,8,9,29.97
CYDN,51.1,-100.057,250,6,6.9,CYDN 100400Z AUTO 25006KT 9SM SCT071 BKN230 11/09 A3017 RMK SLP225,2024-08-10T04:00:00Z,11,9,9,30.17
CYDL,58.426,-130.025,210,6,6.9,CYDL 100400Z AUTO 21006KT 9SM CLR 19/09 A2997 RMK SLP147 DENSITY ALT 3700FT,2024-08-10T04:00:00Z,19,9,9,29.97
CYDF,49.212,-57.394,VRB,8,9.21,CYDF 100400Z VRB08KT 15SM FEW210 17/16 A3007 RMK CI2 SLP184 DENSITY ALT 300FT,2024-08-10T04:00:00Z,17,16,15,30.07
CYDB,61.37,-139.032,310,8,9.21,CYDB 100400Z AUTO 31008G15KT 9SM FEW076 21/11 A2973 RMK SLP078 DENSITY ALT 4200FT,2024-08-10T04:00:00Z,21,11,9,29.73
CYCY,70.484,-68.515,310,15,17.26,CYCY 100400Z AUTO 31015G22KT 9SM OVC055 06/01 A2968 RMK SLP054,2024-08-10T04:00:00Z,6,1,9,29.68
CYCO,67.817,-115.135,190,12,13.81,CYCO 100400Z 19012KT 2SM FU VV040 23/12 A2967 RMK FU8 SLP050 DENSITY ALT 1300FT,2024-08-10T04:00:00Z,23,12,2,29.67
CYCK,42.307,-82.085,310,5,5.75,CYCK 100400Z AUTO 31005KT 280V360 9SM BKN055 17/14 A2995 RMK SLP142 DENSITY ALT 1000FT,2024-08-10T04:00:00Z,17,14,9,29.95
CYCG,49.295,-117.634,350,6,6.9,CYCG 100400Z 35006KT 320V070 12SM SCT120 BKN160 BKN230 21/12 A3000 RMK AC4AC1CI2 FU LAST STFD OBS/NXT 101300Z SLP157 DENSITY ALT 2600FT,2024-08-10T04:00:00Z,21,12,12,30.00
CYCD,49.052,-123.874,0,0,0.0,CYCD 100400Z 00000KT 15SM SCT150 BKN250 23/15 A2990 RMK AC3CI3 LAST STFD OBS/NEXT 101300Z SLP127 DENSITY ALT 1100FT,2024-08-10T04:00:00Z,23,15,15,29.90
CYCB,69.106,-105.116,210,4,4.6,CYCB 100400Z 21004KT 2 1/2SM FU SKC 15/12 A2976 RMK FU1 SLP081,2024-08-10T04:00:00Z,15,12,2.5,29.76
CYCA,53.683,-57.042,250,5,5.75,CYCA 100400Z AUTO 25005KT 200V280 9SM FEW200 14/09 A2980 RMK SLP095,2024-08-10T04:00:00Z,14,9,9,29.80
CYBX,51.442,-57.188,VRB,2,2.3,CYBX 100400Z VRB02KT 15SM FEW250 14/13 A2992 RMK CI1 SLP136,2024-08-10T04:00:00Z,14,13,15,29.92
CYBW,51.108,-114.382,150,6,6.9,CYBW 100400Z AUTO 15006KT 9SM CLR 13/07 A3016 RMK SLP219 DENSITY ALT 4400FT,2024-08-10T04:00:00Z,13,7,9,30.16
CYBR,49.91,-99.945,340,6,6.9,CYBR 100400Z 34006KT 15SM FEW250 08/08 A3018 RMK CI2 SLP232,2024-08-10T04:00:00Z,8,8,15,30.18
CYBQ,58.707,-98.511,300,5,5.75,CYBQ 100400Z AUTO 30005KT 9SM CLR 18/10 A3008 RMK SLP194 DENSITY ALT 1400FT,2024-08-10T04:00:00Z,18,10,9,30.08
CYBL,49.951,-125.269,310,3,3.45,CYBL 100400Z 31003KT 30SM FEW060 SCT260 21/16 A2993 RMK SC1CI2 LAST STFD OBS/NEXT 101300Z SLP135 DENSITY ALT 1100FT,2024-08-10T04:00:00Z,21,16,30,29.93
CYBK,64.306,-96.078,280,12,13.81,CYBK 100400Z 28012KT 5SM FU FEW220 22/13 A2994 RMK CI2 SLP142 DENSITY ALT 900FT,2024-08-10T04:00:00Z,22,13,5,29.94
CYBG,48.331,-70.989,90,8,9.21,CYBG 100400Z 09008KT 3SM RA BR OVC005 15/15 A2963 RMK SC8 DENSITY ALT 1172FT VIS VRB 2-4 SLP034,2024-08-10T04:00:00Z,15,15,3,29.63
CYAY,51.39,-56.081,210,13,14.96,CYAY 100400Z AUTO 21013KT 9SM FEW091 17/13 A2991 RMK SLP131 DENSITY ALT 400FT,2024-08-10T04:00:00Z,17,13,9,29.91
CYAT,52.927,-82.432,20,15,17.26,CYAT 100400Z AUTO 02015G21KT 9SM BKN081 OVC093 13/07 A2975 RMK SLP077,2024-08-10T04:00:00Z,13,7,9,29.75
CYAM,46.484,-84.504,240,9,10.36,CYAM 100400Z 24009KT 15SM FEW033 BKN061 BKN085 15/13 A2982 RMK CU1SC5AC2 CU TR SLP102 DENSITY ALT 1000FT,2024-08-10T04:00:00Z,15,13,15,29.82
CYAH,53.757,-73.676,50,3,3.45,CYAH 100400Z AUTO 05003KT 9SM CLR 15/10 A2981 RMK SLP101 DENSITY ALT 1400FT,2024-08-10T04:00:00Z,15,10,9,29.81
CXZV,50.217,-66.26,40,4,4.6,CXZV 100400Z AUTO 04004KT 15/13 RMK AO1 2PAST HR 8031 SLP120 P0001 T01510133 50002,2024-08-10T04:00:00Z,15.1,13.3,,
CXZC,51.292,-80.618,320,1,1.15,CXZC 100400Z AUTO 32001KT 14/13 RMK AO1 SLP048 T01410130 58002,2024-08-10T04:00:00Z,14.1,13,,
CXYH,61.242,-123.742,230,5,5.75,CXYH 100400Z AUTO 23005KT 27/14 RMK AO1 SLP049 T02730137 56007,2024-08-10T04:00:00Z,27.3,13.7,,
CXWN,49.889,-97.13,330,2,2.3,CXWN 100400Z AUTO 33002KT 16/08 RMK AO1 SLP205 T01570079 53005,2024-08-10T04:00:00Z,15.7,7.9,,
CXVN,43.183,-79.4,220,5,5.75,CXVN 100400Z AUTO 22005KT 18/13 RMK AO1 SLP121 T01800126 51013,2024-08-10T04:00:00Z,18,12.6,,
CXVM,53.344,-110.882,150,3,3.45,CXVM 100400Z AUTO 15003KT 16/08 RMK AO1 T01580083,2024-08-10T04:00:00Z,15.8,8.3,,
CXTV,68.746,-133.502,300,12,13.81,CXTV 100400Z AUTO 30012KT 13/12 RMK AO1 SLP051 T01280116 51001,2024-08-10T04:00:00Z,12.8,11.6,,
CXTP,48.557,-53.975,240,9,10.36,CXTP 100400Z AUTO 24009KT 17/14 RMK AO1 SLP196 T01660139 58006,2024-08-10T04:00:00Z,16.6,13.9,,
CXTO,43.667,-79.4,,,,CXTO 100400Z AUTO 18/13 RMK AO1 SLP115 T01820129 51012,2024-08-10T04:00:00Z,18.2,12.9,,
CXTN,69.199,-122.359,180,14,16.11,CXTN 100400Z AUTO 18014KT 21/13 RMK AO1 SLP049 T02130128 56007,2024-08-10T04:00:00Z,21.3,12.8,,
CXTH,53.625,-111.678,110,9,10.36,CXTH 100400Z AUTO 11009KT 17/08 RMK AO1 T01650080,2024-08-10T04:00:00Z,16.5,8,,
CXTD,45.608,-61.68,160,14,16.11,CXTD 100400Z AUTO 16014G19KT 18/17 RMK AO1 2PAST HR 8035 PK WND 16019/0354 SLP182 P0001 T01800173 50020,2024-08-10T04:00:00Z,18,17.3,,
CXSH,46.564,-72.733,270,5,5.75,CXSH 100400Z AUTO 27005KT 19/18 RMK AO1 3020 SLP042 T01890178 50480,2024-08-10T04:00:00Z,18.9,17.8,,
CXSE,73.766,-105.296,100,8,9.21,CXSE 100400Z AUTO 10008KT 02/02 RMK AO1 SLP072 T00160015 58006,2024-08-10T04:00:00Z,1.6,1.5,,
CXRL,54.503,-111.691,130,1,1.15,CXRL 100400Z AUTO 13001KT 13/10 RMK AO1 T01280099,2024-08-10T04:00:00Z,12.8,9.9,,
CXRH,49.57,-57.878,230,8,9.21,CXRH 100400Z AUTO 23008KT 18/15 RMK AO1 SLP182 T01780150 58009,2024-08-10T04:00:00Z,17.8,15,,
CXRB,74.716,-94.983,70,12,13.81,CXRB 100400Z AUTO 07012KT 08/06 RMK AO1 SLP083 T00780058 55002,2024-08-10T04:00:00Z,7.8,5.8,,
CXPC,45.344,-80.044,,,,CXPC 100400Z AUTO 20/13 RMK AO1 SLP100 T02030131 51009,2024-08-10T04:00:00Z,20.3,13.1,,
CXOX,55.146,-105.27,30,1,1.15,CXOX 100400Z AUTO 03001KT 15/10 RMK AO1 SLP224 T01470099 56005,2024-08-10T04:00:00Z,14.7,9.9,,
CXNP,45.76,-64.241,180,10,11.51,CXNP 100400Z AUTO 18010KT 20/19 RMK AO1 6031 PK WND 16017/0346 SLP158 T01980191 50054,2024-08-10T04:00:00Z,19.8,19.1,,
CXNM,46.818,-60.673,180,10,11.51,CXNM 100400Z AUTO 18010G18KT 14/12 RMK AO1 PK WND 19021/0332 T01410124,2024-08-10T04:00:00Z,14.1,12.4,,
CXMY,44.984,-62.484,,,,CXMY 100400Z AUTO 20/20 RMK AO1 1PAST HR M P0008 T01980198 50077,2024-08-10T04:00:00Z,19.8,19.8,,
CXMM,56.649,-111.221,160,6,6.9,CXMM 100400Z AUTO 16006KT 18/08 RMK AO1 SLP206 T01840082 56004,2024-08-10T04:00:00Z,18.4,8.2,,
CXMI,44.602,-63.534,220,7,8.06,CXMI 100400Z AUTO 22007KT 18/18 RMK AO1 SLP178 T01800179 57023,2024-08-10T04:00:00Z,18,17.9,,
CXMG,56.974,-117.451,140,5,5.75,CXMG 100400Z AUTO 14005KT 16/12 RMK AO1 T01590120,2024-08-10T04:00:00Z,15.9,12,,
CXMD,49.188,-98.084,290,4,4.6,CXMD 100400Z AUTO 29004KT 13/09 RMK AO1 SLP217 T01250087 53005,2024-08-10T04:00:00Z,12.5,8.7,,
CXLL,61.125,-122.851,190,1,1.15,CXLL 100400Z AUTO 19001KT 21/18 RMK AO1 SLP072 T02130175 56010,2024-08-10T04:00:00Z,21.3,17.5,,
CXLC,63.601,-113.866,180,8,9.21,CXLC 100400Z AUTO 18008KT 21/10 RMK AO1 PK WND 19019/0301 SLP144 T02130095 56006,2024-08-10T04:00:00Z,21.3,9.5,,
CXLB,44.36,-64.296,200,9,10.36,CXLB 100400Z AUTO 20009KT 18/17 RMK AO1 SLP170 T01800173 57023,2024-08-10T04:00:00Z,18,17.3,,
CXKT,45.067,-64.478,170,3,3.45,CXKT 100400Z AUTO 17003KT 21/21 RMK AO1 SLP160 T02120208 58027,2024-08-10T04:00:00Z,21.2,20.8,,
CXKM,52.849,-111.873,120,6,6.9,CXKM 100400Z AUTO 12006KT 14/08 RMK AO1 T01400081,2024-08-10T04:00:00Z,14,8.1,,
CXKI,48.15,-80,0,0,0.0,CXKI 100400Z AUTO 00000KT 12/11 RMK AO1 SLP055 T01210113 51004,2024-08-10T04:00:00Z,12.1,11.3,,
CXKE,45.005,-75.637,270,3,3.45,CXKE 100400Z AUTO 27003KT 20/20 RMK AO1 SLP069 T01970197 51018,2024-08-10T04:00:00Z,19.7,19.7,,
CXKA,49.405,-82.443,260,8,9.21,CXKA 100400Z AUTO 26008KT 15/14 RMK AO1 3PAST HR 3009 SLP073 P0001 T01480136 50003,2024-08-10T04:00:00Z,14.8,13.6,,
CXIB,46.663,-60.406,210,3,3.45,CXIB 100400Z AUTO 21003KT 18/12 RMK AO1 SLP196 T01760115 58020,2024-08-10T04:00:00Z,17.6,11.5,,
CXHP,55.396,-116.48,130,7,8.06,CXHP 100400Z AUTO 13007KT 18/10 RMK AO1 T01770096,2024-08-10T04:00:00Z,17.7,9.6,,
CXHM,43.286,-79.905,300,1,1.15,CXHM 100400Z AUTO 30001KT 16/12 RMK AO1 SLP122 T01610115 51009,2024-08-10T04:00:00Z,16.1,11.5,,
CXHD,53.185,-112.246,120,6,6.9,CXHD 100400Z AUTO 12006KT 11/08 RMK AO1 T01090083,2024-08-10T04:00:00Z,10.9,8.3,,
CXHA,42.033,-82.896,290,5,5.75,CXHA 100400Z AUTO 29005KT 17/12 RMK AO1 SLP147 T01740123 51012,2024-08-10T04:00:00Z,17.4,12.3,,
CXGH,50.631,-96.984,300,6,6.9,CXGH 100400Z AUTO 30006KT 13/09 RMK AO1 SLP202 T01330092 53002,2024-08-10T04:00:00Z,13.3,9.2,,
CXFR,56.081,-118.44,100,7,8.06,CXFR 100400Z AUTO 10007KT 19/10 RMK AO1 T01850101,2024-08-10T04:00:00Z,18.5,10.1,,
CXET,44.234,-79.779,240,5,5.75,CXET 100400Z AUTO 24005KT 16/12 RMK AO1 SLP113 T01580118 51008,2024-08-10T04:00:00Z,15.8,11.8,,
CXEG,53.307,-113.606,110,10,11.51,CXEG 100400Z AUTO 11010KT 16/08 RMK AO1 SLP205 T01570075 56005,2024-08-10T04:00:00Z,15.7,7.5,,
CXEC,53.573,-113.517,130,8,9.21,CXEC 100400Z AUTO 13008KT 19/07 RMK AO1 SLP202 T01850067 56004,2024-08-10T04:00:00Z,18.5,6.7,,
CXEA,50.631,-93.221,310,3,3.45,CXEA 100400Z AUTO 31003KT 13/08 RMK AO1 SLP178 T01290075 58001,2024-08-10T04:00:00Z,12.9,7.5,,
CXDW,49.4,-98.319,280,7,8.06,CXDW 100400Z AUTO 28007KT 11/09 RMK AO1 SLP219 T01070090 52004,2024-08-10T04:00:00Z,10.7,9,,
CXDK,61.257,-124.468,0,0,0.0,CXDK 100400Z AUTO 00000KT 21/13 RMK AO1 SLP064 T02140133 53001,2024-08-10T04:00:00Z,21.4,13.3,,
CXDI,42.864,-80.545,220,2,2.3,CXDI 100400Z AUTO 22002KT 14/13 RMK AO1 SLP127 T01440132 51007,2024-08-10T04:00:00Z,14.4,13.2,,
CXDE,65.209,-123.434,100,7,8.06,CXDE 100400Z AUTO 10007KT 25/11 RMK AO1 SLP022 T02460112 56008,2024-08-10T04:00:00Z,24.6,11.2,,
CXDB,49.048,-112.808,120,4,4.6,CXDB 100400Z AUTO 12004KT 12/07 RMK AO1 T01230067,2024-08-10T04:00:00Z,12.3,6.7,,
CXCP,50.281,-113.35,100,4,4.6,CXCP 100400Z AUTO 10004KT 13/08 RMK AO1 T01260075,2024-08-10T04:00:00Z,12.6,7.5,,
CXCK,62.115,-136.192,190,8,9.21,CXCK 100400Z AUTO 19008G15KT 23/10 RMK AO1 SLP062 T02340101 56005,2024-08-10T04:00:00Z,23.4,10.1,,
CXCA,49.154,-88.344,340,4,4.6,CXCA 100400Z AUTO 34004KT 13/12 RMK AO1 5PAST HR 6003 SLP086 P0002 T01270117 50038,2024-08-10T04:00:00Z,12.7,11.7,,
CXBO,46.837,-71.197,40,14,16.11,CXBO 100400Z AUTO 04014G19KT 19/19 RMK AO1 7PAST HR M PK WND 04026/0318 P0014 T01910186 50348,2024-08-10T04:00:00Z,19.1,18.6,,
CXBK,50.201,-104.71,50,5,5.75,CXBK 100400Z AUTO 05005KT 12/08 RMK AO1 SLP237 T01210075 53002,2024-08-10T04:00:00Z,12.1,7.5,,
CXBI,44.484,-79.546,260,2,2.3,CXBI 100400Z AUTO 26002KT 14/11 RMK AO1 SLP114 T01350108 51008,2024-08-10T04:00:00Z,13.5,10.8,,
CXAT,73.006,-85.033,120,2,2.3,CXAT 100400Z AUTO 12002KT 08/06 RMK AO1 SLP080 T00800062 56009,2024-08-10T04:00:00Z,8,6.2,,
CXAG,53.917,-112.279,120,7,8.06,CXAG 100400Z AUTO 12007KT 11/09 RMK AO1 T01140087,2024-08-10T04:00:00Z,11.4,8.7,,
CWZW,60.167,-132.733,150,4,4.6,CWZW 100400Z AUTO 15004KT 17/13 RMK AO1 SLP150 T01690131 50005,2024-08-10T04:00:00Z,16.9,13.1,,
CWZV,51.936,-131.016,300,24,27.62,CWZV 100400Z AUTO 30024KT 13/13 RMK AO1 PK WND 30027/0352 SLP172 T01330133 58001,2024-08-10T04:00:00Z,13.3,13.3,,
CWZQ,46.547,-61.049,130,19,21.86,CWZQ 100400Z AUTO 13019G25KT 18/15 RMK AO1 PK WND 14030/0341 SLP180 T01810146 58039,2024-08-10T04:00:00Z,18.1,14.6,,
CWZO,48.568,-123.265,160,12,13.81,CWZO 100400Z AUTO 16012KT RMK AO1 PK WND 16017/0300,2024-08-10T04:00:00Z,,,,
CWZN,47.368,-55.795,230,14,16.11,CWZN 100400Z AUTO 23014KT 17/16 RMK AO1 PK WND 23019/0307 SLP187 T01680155 58010,2024-08-10T04:00:00Z,16.8,15.5,,
CWZL,53.03,-131.602,20,1,1.15,CWZL 100400Z AUTO 02001KT 17/16 RMK AO1 SLP176 T01720160 55002,2024-08-10T04:00:00Z,17.2,16,,
CWZG,51.194,-115.552,60,3,3.45,CWZG 100400Z AUTO 06003KT 16/07 RMK AO1 SLP195 T01620067 53007,2024-08-10T04:00:00Z,16.2,6.7,,
CWZA,49.244,-121.759,110,2,2.3,CWZA 100400Z AUTO 11002KT 23/21 RMK AO1 SLP128 T02310206 53012,2024-08-10T04:00:00Z,23.1,20.6,,
CWYY,49.028,-119.441,160,3,3.45,CWYY 100400Z AUTO 16003KT 25/11 RMK AO1 SLP139 T02490106 52011,2024-08-10T04:00:00Z,24.9,10.6,,
CWYL,51.443,-116.345,50,6,6.9,CWYL 100400Z AUTO 05006KT 15/07 RMK AO1 SLP195 T01500073 53005,2024-08-10T04:00:00Z,15,7.3,,
CWYJ,48.457,-123.305,0,0,0.0,CWYJ 100400Z AUTO 00000KT 16/12 RMK AO1 SLP131 T01620121 53004,2024-08-10T04:00:00Z,16.2,12.1,,
CWXL,49.734,-111.45,80,7,8.06,CWXL 100400Z AUTO 08007KT 14/08 RMK AO1 SLP208 T01430077 56001,2024-08-10T04:00:00Z,14.3,7.7,,
CWXI,51.022,-57.096,230,18,20.71,CWXI 100400Z AUTO 23018KT 17/14 RMK AO1 PK WND 22023/0333 SLP140 T01710141 58007,2024-08-10T04:00:00Z,17.1,14.1,,
CWXC,48.894,-71.032,360,4,4.6,CWXC 100400Z AUTO 36004KT 16/16 RMK AO1 9PAST HR 8041 SLP037 P0015 T01640155 50075,2024-08-10T04:00:00Z,16.4,15.5,,
CWXA,51.083,-115.066,0,0,0.0,CWXA 100400Z AUTO 00000KT 11/07 RMK AO1 SLP236 T01140072 53002,2024-08-10T04:00:00Z,11.4,7.2,,
CWWZ,43.244,-79.218,210,3,3.45,CWWZ 100400Z AUTO 21003KT 20/15 RMK AO1 SLP119 T02040152 51016,2024-08-10T04:00:00Z,20.4,15.2,,
CWWS,52.819,-97.616,310,13,14.96,CWWS 100400Z AUTO 31013KT 19/15 RMK AO1 SLP201 T01900151 57004,2024-08-10T04:00:00Z,19,15.1,,
CWWL,53.493,-130.638,20,12,13.81,CWWL 100400Z AUTO 02012KT 14/14 RMK AO1 SLP169 T01430138 55000,2024-08-10T04:00:00Z,14.3,13.8,,
CWWK,49.018,-122.784,0,0,0.0,CWWK 100400Z AUTO 00000KT 21/18 RMK AO1 SLP135 T02070181 53004,2024-08-10T04:00:00Z,20.7,18.1,,
CWWF,49.695,-103.801,70,7,8.06,CWWF 100400Z AUTO 07007KT 15/09 RMK AO1 SLP231 T01500094 53002,2024-08-10T04:00:00Z,15,9.4,,
CWWE,43.989,-64.662,230,9,10.36,CWWE 100400Z AUTO 23009KT 16/16 RMK AO1 8021 SLP180 T01620162 50008,2024-08-10T04:00:00Z,16.2,16.2,,
CWWB,43.302,-79.791,260,3,3.45,CWWB 100400Z AUTO 26003KT 20/14 RMK AO1 SLP121 T01960140 51009,2024-08-10T04:00:00Z,19.6,14,,
CWWA,49.347,-123.193,0,0,0.0,CWWA 100400Z AUTO 00000KT 22/17 RMK AO1 SLP135 T02210168 53005,2024-08-10T04:00:00Z,22.1,16.8,,
CWVU,44.287,-66.342,150,14,16.11,CWVU 100400Z AUTO 15014G20KT 16/16 RMK AO1 PK WND 15021/0338 SLP143 T01640162 56027,2024-08-10T04:00:00Z,16.4,16.2,,
CWVT,55.841,-108.421,200,1,1.15,CWVT 100400Z AUTO 20001KT 17/09 RMK AO1 SLP236 T01690088 56004,2024-08-10T04:00:00Z,16.9,8.8,,
CWVQ,45.427,-73.929,200,3,3.45,CWVQ 100400Z AUTO 20003KT 21/21 RMK AO1 2PAST HR 1018 SLP054 P0001 T02110206 50002,2024-08-10T04:00:00Z,21.1,20.6,,
CWVP,49.64,-109.514,100,3,3.45,CWVP 100400Z AUTO 10003KT 14/02 RMK AO1 SLP221 T01400017 56001,2024-08-10T04:00:00Z,14,1.7,,
CWVN,49.058,-107.586,50,7,8.06,CWVN 100400Z AUTO 05007KT 09/01 RMK AO1 SLP227 T00860012 53003,2024-08-10T04:00:00Z,8.6,1.2,,
CWVI,53.505,-112.098,120,4,4.6,CWVI 100400Z AUTO 12004KT 16/08 RMK AO1 SLP216 T01640084 56005,2024-08-10T04:00:00Z,16.4,8.4,,
CWVH,68.894,-133.943,280,16,18.41,CWVH 100400Z AUTO 28016G34KT 240V310 ////SM ////// ///// A////,2024-08-10T04:00:00Z,,,,
CWVF,49.106,-123.303,150,1,1.15,CWVF 100400Z AUTO 15001KT 21/19 RMK AO1 T02050186,2024-08-10T04:00:00Z,20.5,18.6,,
CWUX,48.298,-70.92,20,2,2.3,CWUX 100400Z AUTO 02002KT 15/15 RMK AO1 2PAST HR PRESFR 8050 SLP034 P0024 T01470147 50136,2024-08-10T04:00:00Z,14.7,14.7,,
CWUS,49.563,-119.649,280,5,5.75,CWUS 100400Z AUTO 28005KT 25/08 RMK AO1 SLP145 T02530075 53009,2024-08-10T04:00:00Z,25.3,7.5,,
CWTY,46.354,-72.516,280,7,8.06,CWTY 100400Z AUTO 28007KT 19/18 RMK AO1 SLP039 T01930183 53043,2024-08-10T04:00:00Z,19.3,18.3,,
CWTT,45.27,-72.17,240,13,14.96,CWTT 100400Z AUTO 24013G18KT 22/19 RMK AO1 PK WND 25026/0300 T02200192,2024-08-10T04:00:00Z,22,19.2,,
CWTN,47.079,-70.781,240,2,2.3,CWTN 100400Z AUTO 24002KT 19/19 RMK AO1 3PAST HR 6076 PK WND 04030/0320 SLP978 P0009 T01890189 50171,2024-08-10T04:00:00Z,18.9,18.9,,
CWTG,49.317,-67.381,40,11,12.66,CWTG 100400Z AUTO 04011G16KT 16/15 RMK AO1 2PAST HR 8050 SLP097 P0001 T01570149 50019,2024-08-10T04:00:00Z,15.7,14.9,,
CWTA,45.506,-73.579,0,0,0.0,CWTA 100400Z AUTO 00000KT 21/20 RMK AO1 1034 SLP055 T02070195 50005,2024-08-10T04:00:00Z,20.7,19.5,,
CWST,47.354,-70.03,20,6,6.9,CWST 100400Z AUTO 02006KT 16/15 RMK AO1 5PAST HR 6099 SLP986 P0021 T01550152 50206,2024-08-10T04:00:00Z,15.5,15.2,,
CWSS,45.21,-67.253,140,4,4.6,CWSS 100400Z AUTO 14004KT 19/19 RMK AO1 6036 SLP119 T01860186 50007,2024-08-10T04:00:00Z,18.6,18.6,,
CWSR,53.368,-107.553,220,2,2.3,CWSR 100400Z AUTO 22002KT 12/08 RMK AO1 SLP238 T01160080 55002,2024-08-10T04:00:00Z,11.6,8,,
CWSL,50.703,-119.291,0,0,0.0,CWSL 100400Z AUTO 00000KT 20/11 RMK AO1 SLP145 T02030108 51004,2024-08-10T04:00:00Z,20.3,10.8,,
CWSK,49.783,-123.161,310,1,1.15,CWSK 100400Z AUTO 31001KT 25/16 RMK AO1 SLP129 T02480159 51006,2024-08-10T04:00:00Z,24.8,15.9,,
CWSG,49.109,-66.655,100,7,8.06,CWSG 100400Z AUTO 10007KT 17/16 RMK AO1 1PAST HR PRESFR 8048 SLP098 P0000 T01730158 50011,2024-08-10T04:00:00Z,17.3,15.8,,
CWSF,49.251,-65.325,220,3,3.45,CWSF 100400Z AUTO 22003KT 18/14 RMK AO1 1PAST HR 8032 PK WND 18017/0308 SLP122 P0000 T01770138 50001,2024-08-10T04:00:00Z,17.7,13.8,,
CWSD,46.441,-63.837,190,12,13.81,CWSD 100400Z AUTO 19012G19KT 19/19 RMK AO1 PK WND 19019/0356 SLP153 T01880187 58033,2024-08-10T04:00:00Z,18.8,18.7,,
CWRZ,48.419,-64.317,200,8,9.21,CWRZ 100400Z AUTO 20008KT 17/16 RMK AO1 SLP145 T01670162 58031,2024-08-10T04:00:00Z,16.7,16.2,,
CWRY,49.133,-112.051,90,6,6.9,CWRY 100400Z AUTO 09006KT 13/06 RMK AO1 SLP213 T01270057 55001,2024-08-10T04:00:00Z,12.7,5.7,,
CWRU,50.112,-127.941,10,24,27.62,CWRU 100400Z AUTO 01024KT 13/13 RMK AO1 PK WND 00029/0304 SLP162 T01280128 53004,2024-08-10T04:00:00Z,12.8,12.8,,
CWRT,49.628,-114.482,240,1,1.15,CWRT 100400Z AUTO 24001KT 11/08 RMK AO1 SLP217 T01130083 55000,2024-08-10T04:00:00Z,11.3,8.3,,
CWRO,54.161,-131.66,280,13,14.96,CWRO 100400Z AUTO 28013KT 15/15 RMK AO1 PK WND 27019/0302 SLP169 T01450146 55002,2024-08-10T04:00:00Z,14.5,14.6,,
CWRN,45.347,-60.98,160,16,18.41,CWRN 100400Z AUTO 16016KT 19/19 RMK AO1 PK WND 14020/0328 SLP196 T01910187 58032,2024-08-10T04:00:00Z,19.1,18.7,,
CWRM,52.431,-114.907,130,3,3.45,CWRM 100400Z AUTO 13003KT 12/08 RMK AO1 SLP178 T01150077 56004,2024-08-10T04:00:00Z,11.5,7.7,,
CWRK,45.072,-77.879,240,2,2.3,CWRK 100400Z AUTO 24002KT 16/13 RMK AO1 SLP091 T01600132 51014,2024-08-10T04:00:00Z,16,13.2,,
CWRJ,51.565,-107.924,80,4,4.6,CWRJ 100400Z AUTO 08004KT 12/06 RMK AO1 SLP234 T01230064 55001,2024-08-10T04:00:00Z,12.3,6.4,,
CWRA,46.659,-53.073,240,11,12.66,CWRA 100400Z AUTO 24011KT 13/13 RMK AO1 SLP229 T01340133 58008,2024-08-10T04:00:00Z,13.4,13.3,,
CWQV,48.26,-70.116,100,10,11.51,CWQV 100400Z AUTO 10010G17KT 16/15 RMK AO1 PK WND 09020/0328 T01610147,2024-08-10T04:00:00Z,16.1,14.7,,
CWQR,50.221,-64.207,150,6,6.9,CWQR 100400Z AUTO 15006KT 13/11 RMK AO1 T01260110,2024-08-10T04:00:00Z,12.6,11,,
CWQP,43.84,-77.153,300,16,18.41,CWQP 100400Z AUTO 30016G22KT 21/14 RMK AO1 PK WND 29025/0316 SLP100 T02060140 52022,2024-08-10T04:00:00Z,20.6,14,,
CWQO,48.416,-68.893,50,11,12.66,CWQO 100400Z AUTO 05011KT 10/10 RMK AO1 PK WND 05017/0316 T00980097,2024-08-10T04:00:00Z,9.8,9.7,,
CWQK,48.298,-123.531,260,26,29.92,CWQK 100400Z AUTO 26026KT 12/12 RMK AO1 PK WND 26028/0318 SLP129 T01190119 53002,2024-08-10T04:00:00Z,11.9,11.9,,
CWQH,45.369,-71.824,220,11,12.66,CWQH 100400Z AUTO 22011KT 22/19 RMK AO1 1064 PK WND 19019/0314 SLP068 T02180192 50002,2024-08-10T04:00:00Z,21.8,19.2,,
CWPZ,54.383,-125.959,40,3,3.45,CWPZ 100400Z AUTO 04003KT 23/09 RMK AO1 SLP154 T02310086 53010,2024-08-10T04:00:00Z,23.1,8.6,,
CWPR,49.468,-120.514,350,4,4.6,CWPR 100400Z AUTO 35004KT 21/07 RMK AO1 SLP158 T02140074 51016,2024-08-10T04:00:00Z,21.4,7.4,,
CWPO,49.191,-98.905,330,3,3.45,CWPO 100400Z AUTO 33003KT 09/08 RMK AO1 SLP235 T00940080 53006,2024-08-10T04:00:00Z,9.4,8,,
CWPK,47.922,-74.624,300,2,2.3,CWPK 100400Z AUTO 30002KT 17/16 RMK AO1 3PAST HR 3001 SLP056 P0001 T01650161 50004,2024-08-10T04:00:00Z,16.5,16.1,,
CWPE,45.058,-66.459,180,7,8.06,CWPE 100400Z AUTO 18007KT 16/15 RMK AO1 6032 SLP137 T01550154 50002,2024-08-10T04:00:00Z,15.5,15.4,,
CWPD,47.562,-71.229,10,7,8.06,CWPD 100400Z AUTO 01007G16KT 14/13 RMK AO1 4PAST HR 6065 SLP983 P0013 T01380131 50231,2024-08-10T04:00:00Z,13.8,13.1,,
CWPC,42.868,-79.253,290,4,4.6,CWPC 100400Z AUTO 29004KT 20/13 RMK AO1 PK WND 31018/0304 SLP139 T02030127 51014,2024-08-10T04:00:00Z,20.3,12.7,,
CWOY,51.767,-104.2,100,4,4.6,CWOY 100400Z AUTO 10004KT 13/09 RMK AO1 SLP244 T01280088 53003,2024-08-10T04:00:00Z,12.8,8.8,,
CWOE,49.123,-110.469,100,9,10.36,CWOE 100400Z AUTO 10009KT 15/01 RMK AO1 SLP211 T01500014,2024-08-10T04:00:00Z,15,1.4,,
CWOD,48.842,-72.546,330,3,3.45,CWOD 100400Z AUTO 33003KT 17/16 RMK AO1 9PAST HR 5020 SLP051 P0004 T01650159 50032,2024-08-10T04:00:00Z,16.5,15.9,,
CWOC,48.012,-65.332,120,4,4.6,CWOC 100400Z AUTO 12004KT 16/15 RMK AO1 SLP135 T01630154 58040,2024-08-10T04:00:00Z,16.3,15.4,,
CWNZ,49.747,-84.164,20,2,2.3,CWNZ 100400Z AUTO 02002KT 13/12 RMK AO1 SLP074 T01270117 51002,2024-08-10T04:00:00Z,12.7,11.7,,
CWNQ,46.226,-72.657,260,10,11.51,CWNQ 100400Z AUTO 26010KT 21/19 RMK AO1 3054 PK WND 25020/0304 SLP045 T02090190 50257,2024-08-10T04:00:00Z,20.9,19,,
CWNP,50.269,-117.817,110,2,2.3,CWNP 100400Z AUTO 11002KT 19/11 RMK AO1 SLP155 T01920106 53004,2024-08-10T04:00:00Z,19.2,10.6,,
CWNM,49.491,-117.305,220,3,3.45,CWNM 100400Z AUTO 22003KT 22/12 RMK AO1 SLP151 T02170118 52007,2024-08-10T04:00:00Z,21.7,11.8,,
CWNK,49.498,-98.03,290,5,5.75,CWNK 100400Z AUTO 29005KT 12/10 RMK AO1 SLP216 T01150100 52004,2024-08-10T04:00:00Z,11.5,10,,
CWNH,47.806,-69.548,60,4,4.6,CWNH 100400Z AUTO 06004KT 17/16 RMK AO1 2PAST HR PRESFR 8102 SLP006 P0040 T01670161 50270,2024-08-10T04:00:00Z,16.7,16.1,,
CWNE,47.058,-63.997,160,8,9.21,CWNE 100400Z AUTO 16008KT 18/17 RMK AO1 SLP142 T01840170 57042,2024-08-10T04:00:00Z,18.4,17,,
CWND,69.632,-135.445,320,14,16.11,CWND 100400Z AUTO 32014KT 10/10 RMK AO1 PK WND 33017/0335 SLP039 T01030102 50003,2024-08-10T04:00:00Z,10.3,10.2,,
CWNC,43.951,-78.165,280,7,8.06,CWNC 100400Z AUTO 28007KT 20/13 RMK AO1 SLP101 T01960132 51019,2024-08-10T04:00:00Z,19.6,13.2,,
CWMZ,45.033,-80.367,280,21,24.17,CWMZ 100400Z AUTO 28021KT 20/14 RMK AO1 PK WND 27026/0345 SLP098 T02030144 50006,2024-08-10T04:00:00Z,20.3,14.4,,
CWMT,63.134,-117.245,150,6,6.9,CWMT 100400Z AUTO 15006KT 23/10 RMK AO1 SLP110 T02330102 56009,2024-08-10T04:00:00Z,23.3,10.2,,
CWMQ,49.903,-109.466,90,4,4.6,CWMQ 100400Z AUTO 09004KT 13/04 RMK AO1 SLP215 T01250038 53002,2024-08-10T04:00:00Z,12.5,3.8,,
CWMM,49.208,-122.69,190,1,1.15,CWMM 100400Z AUTO 19001KT 25/16 RMK AO1 SLP130 T02480161 53007,2024-08-10T04:00:00Z,24.8,16.1,,
CWMJ,46.275,-75.992,190,3,3.45,CWMJ 100400Z AUTO 19003KT 18/18 RMK AO1 SLP064 T01780178 53014,2024-08-10T04:00:00Z,17.8,17.8,,
CWME,52.187,-127.471,200,5,5.75,CWME 100400Z AUTO 20005KT 20/14 RMK AO1 PK WND 22017/0308 SLP157 T02040142 53008,2024-08-10T04:00:00Z,20.4,14.2,,
CWLS,43.983,-80.74,220,3,3.45,CWLS 100400Z AUTO 22003KT 15/13 RMK AO1 SLP117 T01510126 50001,2024-08-10T04:00:00Z,15.1,12.6,,
CWLP,50.94,-127.632,270,15,17.26,CWLP 100400Z AUTO 27015KT 14/12 RMK AO1 PK WND 29019/0309 SLP168 T01360115 55001,2024-08-10T04:00:00Z,13.6,11.5,,
CWLM,48.413,-123.325,230,8,9.21,CWLM 100400Z AUTO 23008KT 14/11 RMK AO1 SLP126 T01420113 53002,2024-08-10T04:00:00Z,14.2,11.3,,
CWLE,50.951,-107.143,30,3,3.45,CWLE 100400Z AUTO 03003KT 13/04 RMK AO1 SLP237 T01300039 55000,2024-08-10T04:00:00Z,13,3.9,,
CWLC,54.296,-130.609,270,9,10.36,CWLC 100400Z AUTO 27009KT 15/15 RMK AO1 PK WND 27017/0315 T01540154,2024-08-10T04:00:00Z,15.4,15.4,,
CWLB,54.769,-112.024,0,0,0.0,CWLB 100400Z AUTO 00000KT 15/10 RMK AO1 SLP225 T01480100 55003,2024-08-10T04:00:00Z,14.8,10,,
CWKX,58.429,-130.011,200,5,5.75,CWKX 100400Z AUTO 20005KT 19/08 RMK AO1 SLP163 T01880081 53004,2024-08-10T04:00:00Z,18.8,8.1,,
CWKO,49.168,-105.979,90,1,1.15,CWKO 100400Z AUTO 09001KT 14/02 RMK AO1 SLP242 T01420015 53002,2024-08-10T04:00:00Z,14.2,1.5,,
CWKM,69.595,-140.174,230,4,4.6,CWKM 100400Z AUTO 23004KT ////SM ////// 11/11 A2975,2024-08-10T04:00:00Z,11,11,,29.75
CWKK,49.713,-88.332,350,18,20.71,CWKK 100400Z AUTO 35018G24KT 14/13 RMK AO1 8PAST HR 0001 PK WND 35024/0352 SLP088 P0003 T01360126 50014,2024-08-10T04:00:00Z,13.6,12.6,,
CWKH,48.568,-123.542,,,,CWKH 100400Z AUTO 22/14 RMK AO1 SLP132 T02220138 53004,2024-08-10T04:00:00Z,22.2,13.8,,
CWKG,44.432,-65.203,200,5,5.75,CWKG 100400Z AUTO 20005KT 22/22 RMK AO1 SLP173 T02170216 56022,2024-08-10T04:00:00Z,21.7,21.6,,
CWJX,50.876,-109.501,90,7,8.06,CWJX 100400Z AUTO 09007KT 13/M00 RMK AO1 SLP220 T01281003 53002,2024-08-10T04:00:00Z,12.8,-0.3,,
CWJV,50.223,-119.194,70,2,2.3,CWJV 100400Z AUTO 07002KT 21/10 RMK AO1 SLP150 T02120104 50005,2024-08-10T04:00:00Z,21.2,10.4,,
CWJU,54.255,-133.058,240,12,13.81,CWJU 100400Z AUTO 24012KT 14/14 RMK AO1 SLP180 T01430141 55000,2024-08-10T04:00:00Z,14.3,14.1,,
CWJT,46.08,-74.556,0,0,0.0,CWJT 100400Z AUTO 00000KT 18/18 RMK AO1 2014 SLP066 T01820182 50002,2024-08-10T04:00:00Z,18.2,18.2,,
CWJR,49.04,-116.483,360,3,3.45,CWJR 100400Z AUTO 36003KT 23/08 RMK AO1 SLP141 T02330077 53001,2024-08-10T04:00:00Z,23.3,7.7,,
CWJO,48.425,-71.143,110,8,9.21,CWJO 100400Z AUTO 11008KT 15/15 RMK AO1 2PAST HR 6053 SLP028 P0024 T01520146 50179,2024-08-10T04:00:00Z,15.2,14.6,,
CWJI,49.729,-105.946,70,2,2.3,CWJI 100400Z AUTO 07002KT 12/02 RMK AO1 SLP236 T01210024 53001,2024-08-10T04:00:00Z,12.1,2.4,,
CWJH,56.333,-103.283,240,3,3.45,CWJH 100400Z AUTO 24003KT 14/08 RMK AO1 SLP218 T01420081 56003,2024-08-10T04:00:00Z,14.2,8.1,,
CWJD,53.187,-99.268,290,3,3.45,CWJD 100400Z AUTO 29003KT 11/10 RMK AO1 SLP208 T01140099 56005,2024-08-10T04:00:00Z,11.4,9.9,,
CWJC,61.132,-100.884,320,5,5.75,CWJC 100400Z AUTO 32005KT RMK AO1 56003,2024-08-10T04:00:00Z,,,,
CWJB,46.781,-71.288,330,5,5.75,CWJB 100400Z AUTO 33005KT 18/18 RMK AO1 7PAST HR M PK WND 01017/0330 P0011 T01770177 50337,2024-08-10T04:00:00Z,17.7,17.7,,
CWIZ,45.294,-73.35,210,6,6.9,CWIZ 100400Z AUTO 21006KT 21/20 RMK AO1 T02090203 50002,2024-08-10T04:00:00Z,20.9,20.3,,
CWIW,51.667,-105.4,80,1,1.15,CWIW 100400Z AUTO 08001KT 12/08 RMK AO1 SLP240 T01150082 53004,2024-08-10T04:00:00Z,11.5,8.2,,
CWIT,45.167,-73.678,200,3,3.45,CWIT 100400Z AUTO 20003KT 21/20 RMK AO1 1PAST HR 1023 SLP061 P0000 T02140201 50003,2024-08-10T04:00:00Z,21.4,20.1,,
CWIS,47.284,-70.637,50,5,5.75,CWIS 100400Z AUTO 05005KT RMK AO1 5PAST HR 6078 P0053 50564,2024-08-10T04:00:00Z,,,,
CWIP,50.162,-66.434,70,3,3.45,CWIP 100400Z AUTO 07003KT 14/14 RMK AO1 2PAST HR M P0001 T01400140 50002,2024-08-10T04:00:00Z,14,14,,
CWIK,50.366,-102.567,30,2,2.3,CWIK 100400Z AUTO 03002KT 12/08 RMK AO1 SLP239 T01230083 53003,2024-08-10T04:00:00Z,12.3,8.3,,
CWIJ,65.756,-111.246,190,12,13.81,CWIJ 100400Z AUTO 19012KT 18/10 RMK AO1 SLP147 T01810100 56007,2024-08-10T04:00:00Z,18.1,10,,
CWII,50.695,-96.562,20,6,6.9,CWII 100400Z AUTO 02006KT 18/07 RMK AO1 PK WND 33020/0303 SLP199 T01780072 53002,2024-08-10T04:00:00Z,17.8,7.2,,
CWIG,47.074,-70.533,20,17,19.56,CWIG 100400Z AUTO 02017G26KT RMK AO1 PK WND 00026/0352,2024-08-10T04:00:00Z,,,,
CWID,61.317,-117.605,120,3,3.45,CWID 100400Z AUTO 12003KT 23/12 RMK AO1 SLP113 T02290115 56008,2024-08-10T04:00:00Z,22.9,11.5,,
CWHV,46.205,-70.785,200,7,8.06,CWHV 100400Z AUTO 20007G20KT 21/19 RMK AO1 3PAST HR 5004 PK WND 21023/0317 SLP023 P0001 T02060188 50080,2024-08-10T04:00:00Z,20.6,18.8,,
CWHT,60.773,-137.581,280,8,9.21,CWHT 100400Z AUTO 28008KT 20/09 RMK AO1 PK WND 25027/0334 SLP091 T01960093 58007,2024-08-10T04:00:00Z,19.6,9.3,,
CWHQ,46.691,-71.972,260,5,5.75,CWHQ 100400Z AUTO 26005KT 19/18 RMK AO1 T01910175 50422,2024-08-10T04:00:00Z,19.1,17.5,,
CWHO,55.448,-60.23,VRB,24,27.62,CWHO 100400Z AUTO 00024KT 15/07 RMK AO1 SLP069 T01530070 56015,2024-08-10T04:00:00Z,15.3,7,,
CWHL,54.172,-130.361,310,4,4.6,CWHL 100400Z AUTO 31004KT 15/15 RMK AO1 SLP171 T01540152 56002,2024-08-10T04:00:00Z,15.4,15.2,,
CWGY,51.67,-110.206,120,7,8.06,CWGY 100400Z AUTO 12007KT 13/07 RMK AO1 SLP229 T01300070 55000,2024-08-10T04:00:00Z,13,7,,
CWGW,49.745,-114.884,360,4,4.6,CWGW 100400Z AUTO 36004KT 15/09 RMK AO1 SLP209 T01460093 53004,2024-08-10T04:00:00Z,14.6,9.3,,
CWGT,49.487,-124.435,290,5,5.75,CWGT 100400Z AUTO 29005KT 23/ RMK AO1 SLP130 T0230 53002,2024-08-10T04:00:00Z,23,,,
CWGR,47.425,-61.775,160,12,13.81,CWGR 100400Z AUTO 16012G17KT 17/16 RMK AO1 4PAST HR 8026 PK WND 16020/0336 SLP175 P0002 T01740162 50004,2024-08-10T04:00:00Z,17.4,16.2,,
CWGM,49.133,-113.806,110,3,3.45,CWGM 100400Z AUTO 11003KT 11/08 RMK AO1 SLP212 T01080080 53001,2024-08-10T04:00:00Z,10.8,8,,
CWGL,44.55,-79.218,270,15,17.26,CWGL 100400Z AUTO 27015KT 19/14 RMK AO1 PK WND 27020/0311 SLP090 T01930135 51007,2024-08-10T04:00:00Z,19.3,13.5,,
CWGD,43.765,-81.712,280,12,13.81,CWGD 100400Z AUTO 28012G19KT 19/14 RMK AO1 PK WND 29022/0332 SLP122 T01850136 51008,2024-08-10T04:00:00Z,18.5,13.6,,
CWGB,49.336,-124.149,260,6,6.9,CWGB 100400Z AUTO 26006KT 22/18 RMK AO1 SLP126 T02180184 53002,2024-08-10T04:00:00Z,21.8,18.4,,
CWFJ,49.2,-113.278,150,3,3.45,CWFJ 100400Z AUTO 15003KT 12/09 RMK AO1 SLP205 T01240093 53001,2024-08-10T04:00:00Z,12.4,9.3,,
CWFF,52.817,-104.601,120,4,4.6,CWFF 100400Z AUTO 12004KT 14/08 RMK AO1 SLP239 T01400082 56001,2024-08-10T04:00:00Z,14,8.2,,
CWEZ,48.783,-123.046,140,3,3.45,CWEZ 100400Z AUTO 14003KT 19/15 RMK AO1 SLP129 T01910154 53002,2024-08-10T04:00:00Z,19.1,15.4,,
CWEW,45.809,-73.435,240,2,2.3,CWEW 100400Z AUTO 24002KT 20/20 RMK AO1 1055 SLP058 T01990196 50018,2024-08-10T04:00:00Z,19.9,19.6,,
CWER,46.997,-70.808,50,27,31.07,CWER 100400Z AUTO 05027G33KT RMK AO1 PK WND 05044/0301,2024-08-10T04:00:00Z,,,,
CWEQ,52.115,-101.233,250,3,3.45,CWEQ 100400Z AUTO 25003KT 10/09 RMK AO1 SLP233 T00990086 55000,2024-08-10T04:00:00Z,9.9,8.6,,
CWEP,46.46,-61.988,170,16,18.41,CWEP 100400Z AUTO 17016G21KT 19/18 RMK AO1 PK WND 18021/0306 SLP177 T01890177 56037,2024-08-10T04:00:00Z,18.9,17.7,,
CWEL,49.209,-123.808,100,3,3.45,CWEL 100400Z AUTO 10003KT 21/18 RMK AO1 SLP126 T02140182 53002,2024-08-10T04:00:00Z,21.4,18.2,,
CWEK,54.58,-130.698,70,2,2.3,CWEK 100400Z AUTO 07002KT 17/16 RMK AO1 SLP167 T01710158 55000,2024-08-10T04:00:00Z,17.1,15.8,,
CWEH,49.438,-108.989,90,7,8.06,CWEH 100400Z AUTO 09007KT 12/02 RMK AO1 SLP224 T01210022 56002,2024-08-10T04:00:00Z,12.1,2.2,,
CWEF,47.226,-60.141,190,12,13.81,CWEF 100400Z AUTO 19012G17KT 19/14 RMK AO1 PK WND 19017/0337 SLP187 T01860139 58021,2024-08-10T04:00:00Z,18.6,13.9,,
CWEB,49.383,-126.543,140,3,3.45,CWEB 100400Z AUTO 14003KT 13/13 RMK AO1 SLP146 T01250130 55000,2024-08-10T04:00:00Z,12.5,13,,
CWDZ,51.445,-112.677,110,4,4.6,CWDZ 100400Z AUTO 11004KT 16/10 RMK AO1 SLP200 T01630095 55002,2024-08-10T04:00:00Z,16.3,9.5,,
CWDV,49.033,-90.467,320,6,6.9,CWDV 100400Z AUTO 32006KT 10/09 RMK AO1 2PAST HR 1003 SLP134 P0001 T00980094 50012,2024-08-10T04:00:00Z,9.8,9.4,,
CWDQ,47.415,-72.788,340,2,2.3,CWDQ 100400Z AUTO 34002KT 19/18 RMK AO1 4PAST HR 5005 SLP040 P0002 T01870176 50165,2024-08-10T04:00:00Z,18.7,17.6,,
CWDO,49.688,-54.8,240,16,18.41,CWDO 100400Z AUTO 24016G22KT 18/12 RMK AO1 PK WND 25023/0300 SLP144 T01780117 58014,2024-08-10T04:00:00Z,17.8,11.7,,
CWDM,50.465,-59.64,230,7,8.06,CWDM 100400Z AUTO 23007KT 13/11 RMK AO1 SLP150 T01330107 58011,2024-08-10T04:00:00Z,13.3,10.7,,
CWDK,50.006,-113.631,100,7,8.06,CWDK 100400Z AUTO 10007KT 15/08 RMK AO1 SLP208 T01480078 56004,2024-08-10T04:00:00Z,14.8,7.8,,
CWDJ,50.408,-104.58,90,7,8.06,CWDJ 100400Z AUTO 09007KT 15/07 RMK AO1 SLP234 T01510073 53005,2024-08-10T04:00:00Z,15.1,7.3,,
CWDC,59.56,-108.487,70,3,3.45,CWDC 100400Z AUTO 07003KT 16/10 RMK AO1 SLP206 T01620104 56007,2024-08-10T04:00:00Z,16.2,10.4,,
CWDA,50.721,-56.113,280,26,29.92,CWDA 100400Z AUTO 28026G33KT 19/12 RMK AO1 PK WND 28043/0311 SLP134 T01860123 56011,2024-08-10T04:00:00Z,18.6,12.3,,
CWCT,52.074,-111.448,100,7,8.06,CWCT 100400Z AUTO 10007KT 11/06 RMK AO1 SLP234 T01140059 55000,2024-08-10T04:00:00Z,11.4,5.9,,
CWCJ,48.588,-86.295,290,2,2.3,CWCJ 100400Z AUTO 29002KT 12/11 RMK AO1 SLP071 T01240110 58007,2024-08-10T04:00:00Z,12.4,11,,
CWCI,47.341,-85.807,300,15,17.26,CWCI 100400Z AUTO 30015KT 15/15 RMK AO1 PK WND 27022/0332 SLP087 T01500150 58011,2024-08-10T04:00:00Z,15,15,,
CWCF,52.36,-97.022,320,5,5.75,CWCF 100400Z AUTO 32005KT 16/13 RMK AO1 SLP197 T01620133 58004,2024-08-10T04:00:00Z,16.2,13.3,,
CWBZ,45.121,-74.289,220,6,6.9,CWBZ 100400Z AUTO 22006KT 21/21 RMK AO1 SLP056 T02050208 51008,2024-08-10T04:00:00Z,20.5,20.8,,
CWBY,49.839,-64.293,130,8,9.21,CWBY 100400Z AUTO 13008KT 16/14 RMK AO1 SLP141 T01640135 57022,2024-08-10T04:00:00Z,16.4,13.5,,
CWBV,44.825,-62.338,190,19,21.86,CWBV 100400Z AUTO 19019KT 19/19 RMK AO1 PK WND 19024/0301 SLP174 T01870187 56024,2024-08-10T04:00:00Z,18.7,18.7,,
CWBU,53.333,-104.005,160,3,3.45,CWBU 100400Z AUTO 16003KT 12/09 RMK AO1 SLP234 T01230088 56001,2024-08-10T04:00:00Z,12.3,8.8,,
CWBT,50.271,-64.226,70,2,2.3,CWBT 100400Z AUTO 07002KT 14/13 RMK AO1 SLP141 T01390134 58018,2024-08-10T04:00:00Z,13.9,13.4,,
CWBS,46.189,-72.916,230,16,18.41,CWBS 100400Z AUTO 23016KT 21/19 RMK AO1 PK WND 23019/0358 T02080189,2024-08-10T04:00:00Z,20.8,18.9,,
CWBO,50.55,-111.849,100,3,3.45,CWBO 100400Z AUTO 10003KT 14/10 RMK AO1 SLP204 T01410101 56007,2024-08-10T04:00:00Z,14.1,10.1,,
CWBK,45.764,-62.681,190,15,17.26,CWBK 100400Z AUTO 19015G20KT 19/18 RMK AO1 PK WND 19023/0347 SLP166 T01850175 58034,2024-08-10T04:00:00Z,18.5,17.5,,
CWBA,46.71,-79.101,260,5,5.75,CWBA 100400Z AUTO 26005KT 19/12 RMK AO1 T01940123,2024-08-10T04:00:00Z,19.4,12.3,,
CWAV,51.777,-114.681,140,4,4.6,CWAV 100400Z AUTO 14004KT 15/08 RMK AO1 SLP202 T01530084 55000,2024-08-10T04:00:00Z,15.3,8.4,,
CWAR,47.294,-53.993,210,13,14.96,CWAR 100400Z AUTO 21013KT 17/16 RMK AO1 PK WND 24020/0312 SLP213 T01710155 58006,2024-08-10T04:00:00Z,17.1,15.5,,
CWAQ,49.05,-105.483,270,1,1.15,CWAQ 100400Z AUTO 27001KT 12/03 RMK AO1 SLP239 T01210030 53002,2024-08-10T04:00:00Z,12.1,3,,
CWAF,48.069,-69.556,40,21,24.17,CWAF 100400Z AUTO 04021KT 10/10 RMK AO1 6PAST HR M PK WND 03026/0359 P0018 T01000100 50114,2024-08-10T04:00:00Z,10,10,,
CTRA,49.664,-93.733,330,4,4.6,CTRA 100400Z AUTO 33004KT 12/08 RMK AO1 SLP182 T01230083 50001,2024-08-10T04:00:00Z,12.3,8.3,,
CTNK,45.533,-78.266,240,1,1.15,CTNK 100400Z AUTO 24001KT 13/12 RMK AO1 SLP090 T01340124 51012,2024-08-10T04:00:00Z,13.4,12.4,,
CTCK,45.251,-74.963,270,4,4.6,CTCK 100400Z AUTO 27004KT 19/19 RMK AO1 3016 SLP059 T01940191 50002,2024-08-10T04:00:00Z,19.4,19.1,,
CPSV,49.92,-110.915,60,5,5.75,CPSV 100400Z AUTO 06005KT 16/05 RMK AO1 T01550050,2024-08-10T04:00:00Z,15.5,5,,
CPST,51.02,-113.27,140,8,9.21,CPST 100400Z AUTO 14008KT 14/08 RMK AO1 T01400078,2024-08-10T04:00:00Z,14,7.8,,
CPRY,49.488,-112.674,90,4,4.6,CPRY 100400Z AUTO 09004KT 16/09 RMK AO1 T01550093,2024-08-10T04:00:00Z,15.5,9.3,,
CPRO,50.826,-112.06,90,7,8.06,CPRO 100400Z AUTO 09007KT 15/09 RMK AO1 T01470086,2024-08-10T04:00:00Z,14.7,8.6,,
CPFI,49.805,-112.037,110,4,4.6,CPFI 100400Z AUTO 11004KT 14/09 RMK AO1 T01350087,2024-08-10T04:00:00Z,13.5,8.7,,
CMGB,45.373,-72.774,230,3,3.45,CMGB 100400Z AUTO 23003KT 20/20 RMK AO1 1073 SLP068 T01950204 50002,2024-08-10T04:00:00Z,19.5,20.4,,
CMFM,47.323,-71.148,350,5,5.75,CMFM 100400Z AUTO 35005KT 15/14 RMK AO1 5PAST HR 6061 SLP010 P0018 T01450137 50325,2024-08-10T04:00:00Z,14.5,13.7,,
CERM,47.417,-68.325,130,8,9.21,CERM 100400Z AUTO 13008G15KT 18/17 RMK AO1 5PAST HR PRESFR 8082 SLP051 P0025 T01760169 50085,2024-08-10T04:00:00Z,17.6,16.9,,
CAHR,46.344,-63.17,170,10,11.51,CAHR 100400Z AUTO 17010KT 18/17 RMK AO1 8037 SLP161 T01800173 50002,2024-08-10T04:00:00Z,18,17.3,,
BKPR,42.576,21.03,VRB,1,1.15,BKPR 100400Z VRB01KT CAVOK 16/12 Q1021 NOSIG,2024-08-10T04:00:00Z,16,12,6+,30.15
BIRK,64.129,-21.941,80,1,1.15,BIRK 100400Z 08001KT CAVOK 07/06 Q0996,2024-08-10T04:00:00Z,7,6,6+,29.41
BIEG,65.275,-14.409,240,7,8.06,BIEG 100400Z 24007KT 9999 FEW035 BKN050 07/03 Q0997,2024-08-10T04:00:00Z,7,3,6+,29.44
BIAR,65.655,-18.069,300,5,5.75,BIAR 100400Z 30005KT 9999 -DZ OVC013 06/04 Q0999,2024-08-10T04:00:00Z,6,4,6+,29.50
AYPY,-9.443,147.216,140,10,11.51,AYPY 100400Z 14010KT 9999 HZ BKN050 28/22 Q1009,2024-08-10T04:00:00Z,28,22,6+,29.79
AYNZ,-6.568,146.727,80,10,11.51,AYNZ 100400Z 08010G20KT 9999 HZ SCT020 BKN050 27/23 Q1010 RMK:SHRA TO E AND SE,2024-08-10T04:00:00Z,27,23,6+,29.82
AYMH,-5.831,144.3,60,8,9.21,AYMH 100400Z 06008KT 9999 HZ SCT030 24/16 Q1019,2024-08-10T04:00:00Z,24,16,6+,30.09
RODE,26.718,127.783,,,,RODE 100359Z AUTO A2965 RMK AO2 SLPNO PWINO TSNO $,2024-08-10T03:59:00Z,,,,29.65
MUCF,22.159,-80.41,60,6,6.9,MUCF 100359Z AUTO 06006KT 24/23 Q1018,2024-08-10T03:59:00Z,24,23,,30.06
KOXD,39.5047,-84.7838,300,6,6.9,KOXD 100359Z AUTO 30006KT 10SM CLR 18/14 A3007 RMK AO2,2024-08-10T03:59:00Z,18,14,10+,30.07
KNGU,36.937,-76.281,190,7,8.06,KNGU 100359Z 19007KT 8SM SCT008 BKN070 BKN200 26/24 A2994 RMK AO2 SLP137 T02610244,2024-08-10T03:59:00Z,26.1,24.4,8,29.94
PTPN,6.986,158.21,40,4,4.6,PTPN 100358Z 04004KT 15SM SCT018TCU BKN300 31/26 A2977 RMK TCU S-SW,2024-08-10T03:58:00Z,31,26,15,29.77
PANW,59.451,-157.325,210,9,10.36,PANW 100358Z AUTO 21009KT 7SM -RA FEW009 BKN027 OVC041 09/08 A2999 RMK AO2 P0000 $,2024-08-10T03:58:00Z,9,8,7,29.99
KROG,36.3749,-94.1078,10,4,4.6,KROG 100358Z 01004KT CLR 21/12 A3019 RMK AO2 SLP210 T02110122 $,2024-08-10T03:58:00Z,21.1,12.2,,30.19
KPRN,31.8467,-86.6141,350,6,6.9,KPRN 100358Z AUTO 35006KT 10SM CLR 27/22 A2996 RMK AO2 SLP091 T02670222 $,2024-08-10T03:58:00Z,26.7,22.2,10+,29.96
KMEI,32.3348,-88.7507,0,0,0.0,KMEI 100358Z AUTO 00000KT 10SM CLR 24/19 A3001 RMK AO2 SLP157 T02440194,2024-08-10T03:58:00Z,24.4,19.4,10+,30.01
KEUF,31.9516,-85.1312,20,3,3.45,KEUF 100358Z AUTO 02003KT 10SM BKN049 BKN060 29/23 A2996 RMK AO2 SLP141 T02890228,2024-08-10T03:58:00Z,28.9,22.8,10+,29.96
KBKF,39.713,-104.758,340,4,4.6,KBKF 100358Z 34004KT 10SM FEW028 SCT100 BKN170 16/13 A3029 RMK AO2A SLP202 T01550132,2024-08-10T03:58:00Z,15.5,13.2,10+,30.29
PHNG,21.45,-157.763,60,11,12.66,PHNG 100357Z 06011KT 7SM SCT030 29/19 A2994 RMK AO2 SLP132 T02890194 $,2024-08-10T03:57:00Z,28.9,19.4,7,29.94
PAJC,56.312,-158.374,10,5,5.75,PAJC 100357Z AUTO 01005KT 10SM -RA BKN039 BKN048 11/08 A3003 RMK AO2 RAB33 SLP169 P0000 T01110083,2024-08-10T03:57:00Z,11.1,8.3,10+,30.03
KNYL,32.66,-114.608,130,3,3.45,KNYL 100357Z AUTO 13003KT 10SM CLR 38/18 A2971 RMK AO2 SLP056 T03830178 $,2024-08-10T03:57:00Z,38.3,17.8,10+,29.71
KNJW,32.792,-88.832,330,3,3.45,KNJW 100357Z AUTO 33003KT 10SM CLR 24/18 A3005 RMK AO2 SLP087 T02390178 $,2024-08-10T03:57:00Z,23.9,17.8,10+,30.05
KNFL,39.417,-118.705,280,8,9.21,KNFL 100357Z 28008KT 10SM FEW090 31/02 A2998 RMK AO2 SLP125 T03060017,2024-08-10T03:57:00Z,30.6,1.7,10+,29.98
KMNM,45.126,-87.639,VRB,5,5.75,KMNM 100357Z AUTO VRB05KT 10SM CLR 14/10 A2993 RMK AO2 SLP150 T01390100 $,2024-08-10T03:57:00Z,13.9,10,10+,29.93
KFLG,35.1443,-111.666,0,0,0.0,KFLG 100357Z AUTO 00000KT 10SM CLR 19/12 A3032 RMK AO2 SLP156 T01890122,2024-08-10T03:57:00Z,18.9,12.2,10+,30.32
EQYR,36.647,-6.347,80,3,3.45,EQYR 100357Z AUTO 08003KT 10SM CLR 19/19 A2996 RMK AO2 SLP144 T01940189 $,2024-08-10T03:57:00Z,19.4,18.9,10+,29.96
EQYG,35.53,24.15,0,0,0.0,EQYG 100357Z AUTO 00000KT 10SM CLR 24/12 A2996 RMK AO2 SLP135 T02440122 PWINO $ ,2024-08-10T03:57:00Z,24.4,12.2,10+,29.96
TJSJ,18.4326,-66.0107,140,3,3.45,TJSJ 100356Z 14003KT 10SM FEW020 FEW026 SCT031 29/26 A3002 RMK AO2 RAB46E53 SLP165 P0000 T02890261 403220278 $,2024-08-10T03:56:00Z,28.9,26.1,10+,30.02
ROTM,26.271,127.754,330,10,11.51,ROTM 100356Z COR 33010KT 9999 SCT020 BKN030 32/26 A2959 RMK SLP022 T03170261,2024-08-10T03:56:00Z,31.7,26.1,6+,29.59
RJOI,34.144,132.236,170,10,11.51,RJOI 100356Z 17010KT 9999 FEW030 SCT240 33/23 A2960 RMK AO2 SLP024 T03330233,2024-08-10T03:56:00Z,33.3,23.3,6+,29.60
PPIZ,69.735,-163.003,220,9,10.36,PPIZ 100356Z AUTO 22009KT 10SM OVC012 07/05 A2973 RMK AO2 RAE11 SLP072 P0000 T00720050,2024-08-10T03:56:00Z,7.2,5,10+,29.73
PHNY,20.783,-156.955,40,20,23.02,PHNY 100356Z AUTO 04020KT 10SM CLR 24/19 A2999 RMK AO2 PK WND 04026/0327 SLP133 T02440189,2024-08-10T03:56:00Z,24.4,18.9,10+,29.99
PFYU,66.572,-145.243,VRB,4,4.6,PFYU 100356Z AUTO VRB04KT 10SM BKN075 16/09 A2977 RMK AO2 SLP087 T01610094,2024-08-10T03:56:00Z,16.1,9.4,10+,29.77
PFTO,63.329,-142.954,330,8,9.21,PFTO 100356Z AUTO 33008KT 10SM CLR 14/09 A2980 RMK AO2 SLP737 T01440094 $,2024-08-10T03:56:00Z,14.4,9.4,10+,29.80
PFNO,66.819,-161.024,220,8,9.21,PFNO 100356Z AUTO 22008KT 10SM FEW026 13/08 A2976 RMK AO2 SLP079 T01280078 $,2024-08-10T03:56:00Z,12.8,7.8,10+,29.76
PFEL,64.616,-162.272,210,7,8.06,PFEL 100356Z AUTO 21007KT 10SM SCT027 BKN032 OVC110 10/05 A2982 RMK AO2 SLP100 T01000050 PNO $,2024-08-10T03:56:00Z,10,5,10+,29.82
PAWM,64.688,-163.41,220,7,8.06,PAWM 100356Z AUTO 22007KT 5SM HZ FEW018 BKN033 OVC042 09/06 A2982 RMK AO2 SLP100 T00890056 PNO $,2024-08-10T03:56:00Z,8.9,5.6,5,29.82
PAWG,56.486,-132.377,230,3,3.45,PAWG 100356Z 23003KT 10SM BKN090 18/15 A3000,2024-08-10T03:56:00Z,18,15,10+,30.00
PAVD,61.133,-146.251,190,4,4.6,PAVD 100356Z 19004KT 10SM BKN040 BKN050 14/11 A3001 RMK AO2 SLP160 T01440111 $,2024-08-10T03:56:00Z,14.4,11.1,10+,30.01
PAVC,55.115,-162.271,360,6,6.9,PAVC 100356Z AUTO 36006KT 10SM RA OVC024 A2993 RMK AO2 SLPNO FZRANO PNO $,2024-08-10T03:56:00Z,,,10+,29.93
PAVA,61.537,-165.604,170,13,14.96,PAVA 100356Z AUTO 17013KT 10SM FEW022 BKN038 11/07 A2974 RMK AO2 SLP076 T01110067 PNO $,2024-08-10T03:56:00Z,11.1,6.7,10+,29.74
PAUN,63.885,-160.794,0,0,0.0,PAUN 100356Z AUTO 00000KT 10SM CLR 11/04 A2985 RMK AO2 SLP113 T01110044 PNO $,2024-08-10T03:56:00Z,11.1,4.4,10+,29.85
PATG,59.051,-160.398,150,21,24.17,PATG 100356Z AUTO 15021KT 8SM -RA BKN008 OVC011 10/10 A2992 RMK AO2 PK WND 15027/0320 RAE22B40 CIG 005V009 SLP132 P0001 T01000100,2024-08-10T03:56:00Z,10,10,8,29.92
PASY,52.711,174.107,350,15,17.26,PASY 100356Z 35015G19KT 10SM OVC007 13/12 A2959 RMK AO2A SLP022 ALSTG/SLP ESTMD T01290115 PNO FZRANO $,2024-08-10T03:56:00Z,12.9,11.5,10+,29.59
PASX,60.476,-151.053,180,7,8.06,PASX 100356Z AUTO 18007G15KT 150V230 10SM BKN085 12/06 A2997 RMK AO2 SLP155 T01220061,2024-08-10T03:56:00Z,12.2,6.1,10+,29.97
PASL,61.697,-157.167,170,6,6.9,PASL 100356Z AUTO 17006KT 10SM CLR 13/06 A2995 RMK AO2 SLP133 T01280056,2024-08-10T03:56:00Z,12.8,5.6,10+,29.95
PASK,66.599,-159.991,200,7,8.06,PASK 100356Z AUTO 20007KT 10SM SCT085 13/08 A2979 RMK AO2 SLP085 T01280078,2024-08-10T03:56:00Z,12.8,7.8,10+,29.79
PASD,55.318,-160.525,180,16,18.41,PASD 100356Z AUTO 18016KT 10SM BKN020 BKN027 OVC035 11/09 A3000 RMK AO2 RAE23 SLP162 P0000 T01110089 $,2024-08-10T03:56:00Z,11.1,8.9,10+,30.00
PARY,64.731,-155.463,240,6,6.9,PARY 100356Z AUTO 24006KT 10SM FEW060 BKN075 12/05 A2983 RMK AO2 SLP108 T01220050 TSNO,2024-08-10T03:56:00Z,12.2,5,10+,29.83
PARS,61.78,-161.321,170,11,12.66,PARS 100356Z AUTO 17011G15KT 9SM -RA OVC010 10/09 A2984 RMK AO2 CIG 007V012 SLP109 P0004 T01000089 $,2024-08-10T03:56:00Z,10,8.9,9,29.84
PAPH,56.959,-158.631,150,14,16.11,PAPH 100356Z AUTO 15014KT 10SM CLR 12/08 A2999 RMK AO2 SLP156 T01170083 $,2024-08-10T03:56:00Z,11.7,8.3,10+,29.99
PAPG,56.805,-132.935,80,3,3.45,PAPG 100356Z 08003KT 10SM BKN037 BKN060 18/13 A3000 RMK AO2 SLP162 T01830133,2024-08-10T03:56:00Z,18.3,13.3,10+,30.00
PAOU,56.006,-161.162,160,22,25.32,PAOU 100356Z AUTO 16022KT 10SM -RA OVC070 11/07 A2991 RMK AO2 PK WND 17028/0343 SLP126 T01060072 PNO $,2024-08-10T03:56:00Z,10.6,7.2,10+,29.91
PAOO,60.537,-165.089,110,15,17.26,PAOO 100356Z AUTO 11015KT 10SM BKN009 OVC013 09/09 A2974 RMK AO2 RAB21E39 CIG 005V013 SLPNO P0000 T00940089 TSNO $,2024-08-10T03:56:00Z,9.4,8.9,10+,29.74
PANU,64.7304,-158.075,190,8,9.21,PANU 100356Z AUTO 19008KT 10SM FEW036 BKN060 OVC100 10/06 A2986 RMK AO2 RAE10 SLP019 P0000 T01000056,2024-08-10T03:56:00Z,10,5.6,10+,29.86
PANI,61.578,-159.539,0,0,0.0,PANI 100356Z AUTO 00000KT 10SM -RA BKN039 OVC049 12/08 A2987 RMK AO2 SLP117 P0000 T01170078 $,2024-08-10T03:56:00Z,11.7,7.8,10+,29.87
PAMY,60.376,-166.262,100,11,12.66,PAMY 100356Z AUTO 10011KT 10SM -RA BKN008 OVC013 09/09 A2968 RMK AO2 RAB41 CIG 007V011 SLP049 T00940089 TSNO PNO $,2024-08-10T03:56:00Z,9.4,8.9,10+,29.68
PAMO,62.095,-163.686,110,12,13.81,PAMO 100356Z AUTO 11012KT 10SM OVC006 09/08 A2979 RMK AO2 RAE18 CIG 004V008 SLP091 P0000 T00890083,2024-08-10T03:56:00Z,8.9,8.3,10+,29.79
PAMK,63.484,-162.115,210,5,5.75,PAMK 100356Z AUTO 21005KT 10SM FEW037 BKN055 OVC070 10/08 A2984 RMK AO2 RAE52 SLP104 P0000 T01000078,2024-08-10T03:56:00Z,10,7.8,10+,29.84
PAMH,63.889,-152.292,230,9,10.36,PAMH 100356Z AUTO 23009KT 10SM BKN048 OVC085 12/05 A2989 RMK AO2 SLP120 T01170050 TSNO PNO $,2024-08-10T03:56:00Z,11.7,5,10+,29.89
PAMD,59.442,-146.317,270,13,14.96,PAMD 100356Z AUTO 27013G22KT CLR 12/08 A3002 RMK AO2 SLP164 P0001 T01170078 PWINO $,2024-08-10T03:56:00Z,11.7,7.8,,30.02
PALG,61.538,-160.34,VRB,3,3.45,PALG 100356Z AUTO VRB03KT 10SM -RA OVC042 10/08 A2986 RMK AO2 SLP115 T01000083 PNO $,2024-08-10T03:56:00Z,10,8.3,10+,29.86
PAKI,59.935,-164.033,,,,PAKI 100356Z AUTO BKN008 BKN012 OVC024 10/09 A2974 RMK AO2 CIG 006V011 SLP071 T01000094 PWINO $,2024-08-10T03:56:00Z,10,9.4,,29.74
PAIN,63.733,-148.912,360,6,6.9,PAIN 100356Z AUTO 36006KT 10SM BKN033 OVC050 09/08 A2987 RMK AO2 RAE24 SLP129 P0000 T00940078,2024-08-10T03:56:00Z,9.4,7.8,10+,29.87
PAIK,66.975,-160.439,VRB,3,3.45,PAIK 100356Z AUTO VRB03KT 10SM SCT055 BKN080 13/07 A2978 RMK AO2 SLP087 T01280072,2024-08-10T03:56:00Z,12.8,7.2,10+,29.78
PAII,58.186,-157.375,160,8,9.21,PAII 100356Z AUTO 16008KT 10SM -RA BKN055 OVC070 11/09 A3003 RMK AO2 RAB27 SLP166 P0000 T01110089,2024-08-10T03:56:00Z,11.1,8.9,10+,30.03
PAIG,59.325,-155.897,230,10,11.51,PAIG 100356Z AUTO 23010KT 10SM BKN030 OVC042 11/07 A3001 RMK AO2 SLP171 T01110072,2024-08-10T03:56:00Z,11.1,7.2,10+,30.01
PAHY,55.202,-132.825,270,3,3.45,PAHY 100356Z AUTO 27003KT 10SM OVC010 16/16 A3002 RMK AO2 SLP162 T01610156 PNO $,2024-08-10T03:56:00Z,16.1,15.6,10+,30.02
PAHL,65.699,-156.353,220,7,8.06,PAHL 100356Z AUTO 22007KT 10SM -RA BKN038 OVC055 13/07 A2981 RMK AO2 RAB49 SLP099 P0000 T01280067 TSNO,2024-08-10T03:56:00Z,12.8,6.7,10+,29.81
PAHC,62.191,-159.773,0,0,0.0,PAHC 100356Z AUTO 00000KT 10SM OVC049 11/07 A2987 RMK AO2 SLP120 T01110067,2024-08-10T03:56:00Z,11.1,6.7,10+,29.87
PAGS,58.425,-135.707,0,0,0.0,PAGS 100356Z AUTO 00000KT 4SM -RA BR OVC003 16/15 A2981 RMK AO2 CIG 003V007 SLP095 P0000 T01560150 TSNO,2024-08-10T03:56:00Z,15.6,15,4,29.81
PAGN,57.502,-134.589,0,0,0.0,PAGN 100356Z AUTO 00000KT 10SM BKN004 BKN011 OVC024 15/15 A3001 RMK AO2 SLP152 T01500150,2024-08-10T03:56:00Z,15,15,10+,30.01
PAGL,64.548,-163.013,210,7,8.06,PAGL 100356Z AUTO 21007KT 10SM FEW033 BKN065 OVC110 09/07 A2983 RMK AO2 RAB25E45 SLP097 T00940067 PNO $,2024-08-10T03:56:00Z,9.4,6.7,10+,29.83
PAGA,64.738,-156.92,230,7,8.06,PAGA 100356Z AUTO 23007KT 10SM SCT041 BKN049 13/04 A2985 RMK AO2 SLP109 T01280044 TSNO $,2024-08-10T03:56:00Z,12.8,4.4,10+,29.85
PAFM,67.106,-157.858,40,5,5.75,PAFM 100356Z AUTO 04005KT 10SM -RA FEW004 BKN047 OVC055 09/09 A2983 RMK AO2 SLP107 P0004 T00940089,2024-08-10T03:56:00Z,9.4,8.9,10+,29.83
PADU,53.896,-166.543,160,11,12.66,PADU 100356Z 16011G18KT 10SM OVC038 11/04 A2963 RMK AO2 RAE32 PRESFR SLP034 P0000 T01060039 $,2024-08-10T03:56:00Z,10.6,3.9,10+,29.63
PADL,59.04,-158.507,190,11,12.66,PADL 100356Z 19011G15KT 10SM BKN022 OVC031 10/08 A2997 RMK AO2 RAE46 SLP151 RGD BASED P0000 T01000078,2024-08-10T03:56:00Z,10,7.8,10+,29.97
PACX,67.252,-150.204,210,8,9.21,PACX 100356Z AUTO 21008KT 10SM FEW060 15/06 A2977 RMK AO2 SLP710 T01500056,2024-08-10T03:56:00Z,15,5.6,10+,29.77
PABV,61.416,-149.511,200,9,10.36,PABV 100356Z AUTO 20009KT 10SM -RA OVC050 11/06 A2997 RMK AO2 RAE00B19 SLP148 P0000 T01110061,2024-08-10T03:56:00Z,11.1,6.1,10+,29.97
PABL,65.979,-161.146,200,12,13.81,PABL 100356Z AUTO 20012KT 10SM SCT045 12/06 A2978 RMK AO2 RAB09E29 SLP085 P0000 T01220061,2024-08-10T03:56:00Z,12.2,6.1,10+,29.78
KYKN,42.9142,-97.3807,290,3,3.45,KYKN 100356Z AUTO 29003KT 10SM CLR 15/09 A3020 RMK AO2 SLP237 T01500089 $,2024-08-10T03:56:00Z,15,8.9,10+,30.20
KY50,44.0435,-89.304,250,4,4.6,KY50 100356Z AUTO 25004KT 10SM SCT090 12/11 A3003 RMK AO2 SLP167 T01170111 $,2024-08-10T03:56:00Z,11.7,11.1,10+,30.03
KWVL,44.5301,-69.6753,210,17,19.56,KWVL 100356Z AUTO 21017G23KT 9SM -RA OVC008 23/23 A2976 RMK AO2 PK WND 21028/0344 CIG 005V011 SLP099 P0006 T02330228,2024-08-10T03:56:00Z,23.3,22.8,9,29.76
KWMC,40.9018,-117.808,230,7,8.06,KWMC 100356Z AUTO 23007KT 10SM CLR 24/M02 A2999 RMK AO2 SLP099 T02441017,2024-08-10T03:56:00Z,24.4,-1.7,10+,29.99
KWJF,34.7412,-118.213,280,14,16.11,KWJF 100356Z 28014KT 10SM CLR 31/M01 A2991 RMK AO2 RAE0257B18E35 SLP099 P0000 T03111006,2024-08-10T03:56:00Z,31.1,-0.6,10+,29.91
KVPZ,41.4535,-86.998,280,9,10.36,KVPZ 100356Z AUTO 28009KT 10SM CLR 16/11 A3007 RMK AO2 SLP179 T01560111,2024-08-10T03:56:00Z,15.6,11.1,10+,30.07
KVIS,36.3135,-119.388,270,3,3.45,KVIS 100356Z AUTO 27003KT 10SM CLR 32/14 A2982 RMK AO2 SLP093 T03170144,2024-08-10T03:56:00Z,31.7,14.4,10+,29.82
KVBT,36.3444,-94.2211,10,6,6.9,KVBT 100356Z AUTO 01006KT 10SM CLR 22/12 A3019 RMK AO2 SLP215 T02170122,2024-08-10T03:56:00Z,21.7,12.2,10+,30.19
KUKI,39.1278,-123.2,VRB,3,3.45,KUKI 100356Z AUTO VRB03KT 10SM CLR 27/06 A2988 RMK AO2 SLP110 T02670056,2024-08-10T03:56:00Z,26.7,5.6,10+,29.88
KUDG,34.4474,-79.8902,190,5,5.75,KUDG 100356Z AUTO 19005KT 10SM SCT036 26/26 A2995 RMK AO2 SLP140 T02560256 403280228,2024-08-10T03:56:00Z,25.6,25.6,10+,29.95
KUCP,41.0228,-80.4153,0,0,0.0,KUCP 100356Z AUTO 00000KT 10SM FEW049 18/18 A2998 RMK AO2 SLP161 T01780178 PNO $,2024-08-10T03:56:00Z,17.8,17.8,10+,29.98
KTVF,48.0597,-96.1787,0,0,0.0,KTVF 100356Z AUTO 00000KT 10SM SCT049 12/09 A3013 RMK AO2 SLP209 T01170089,2024-08-10T03:56:00Z,11.7,8.9,10+,30.13
KTPH,38.0505,-117.091,260,3,3.45,KTPH 100356Z AUTO 26003KT 10SM CLR 28/01 A3009 RMK AO2 SLP094 T02830011,2024-08-10T03:56:00Z,28.3,1.1,10+,30.09
KSUE,44.847,-87.425,260,7,8.06,KSUE 100356Z AUTO 26007KT 10SM SCT070 15/12 A2994 RMK AO2 SLP138 T01500117,2024-08-10T03:56:00Z,15,11.7,10+,29.94
KSRC,35.2134,-91.7393,340,4,4.6,KSRC 100356Z AUTO 34004KT 10SM CLR 24/18 A3010 RMK AO2 SLP188 T02390183 $,2024-08-10T03:56:00Z,23.9,18.3,10+,30.10
KSQI,41.7432,-89.6655,260,5,5.75,KSQI 100356Z AUTO 26005KT 10SM CLR 14/13 A3010 RMK AO2 SLP057 T01390128 PNO $,2024-08-10T03:56:00Z,13.9,12.8,10+,30.10
KSOP,35.2371,-79.3921,150,4,4.6,KSOP 100356Z AUTO 15004KT CLR 26/26 A2996 RMK AO2 SLPNO T02610256 PWINO $,2024-08-10T03:56:00Z,26.1,25.6,,29.96
KSMP,47.2764,-121.338,0,0,0.0,KSMP 100356Z AUTO 00000KT 10SM SCT075 20/08 A3012 RMK AO2 SLP167 T02000083,2024-08-10T03:56:00Z,20,8.3,10+,30.12
KSMN,45.1283,-113.883,10,3,3.45,KSMN 100356Z AUTO 01003KT 10SM FEW120 21/11 A3004 RMK AO2 SLP141 T02060111,2024-08-10T03:56:00Z,20.6,11.1,10+,30.04
KSLG,36.1941,-94.488,20,5,5.75,KSLG 100356Z AUTO 02005KT 10SM CLR 22/12 A3018 RMK AO2 SLP207 T02220117,2024-08-10T03:56:00Z,22.2,11.7,10+,30.18
KSLE,44.9049,-123.001,290,8,9.21,KSLE 100356Z AUTO 29008KT 10SM CLR 25/12 A2993 RMK AO2 SLP134 T02500117,2024-08-10T03:56:00Z,25,11.7,10+,29.93
KSKX,36.4584,-105.675,0,0,0.0,KSKX 100356Z AUTO 00000KT 10SM OVC090 16/14 A3043 RMK AO2 RAE48 SLP242 P0000 T01610139,2024-08-10T03:56:00Z,16.1,13.9,10+,30.43
KSHV,32.4473,-93.8244,80,5,5.75,KSHV 100356Z 08005KT 10SM CLR 27/21 A3005 RMK SLPNO,2024-08-10T03:56:00Z,27,21,10+,30.05
KSGU,37.0444,-113.503,260,10,11.51,KSGU 100356Z AUTO 26010KT 10SM CLR 36/12 A2990 RMK AO2 LTG DSNT E AND SE SLP081 T03610117,2024-08-10T03:56:00Z,36.1,11.7,10+,29.90
KSGT,34.5998,-91.5763,360,5,5.75,KSGT 100356Z AUTO 36005KT 10SM CLR 23/22 A3009 RMK AO2 SLP187 T02330217 $,2024-08-10T03:56:00Z,23.3,21.7,10+,30.09
KSGJ,29.9592,-81.341,220,5,5.75,KSGJ 100356Z AUTO 22005KT 10SM CLR 27/24 A3001 RMK AO2 SLP161 T02720244 403440267,2024-08-10T03:56:00Z,27.2,24.4,10+,30.01
KSGH,39.8358,-83.8443,330,6,6.9,KSGH 100356Z AUTO 33006KT 10SM CLR 17/14 A3005 RMK AO2 SLP171 T01720139 402780172,2024-08-10T03:56:00Z,17.2,13.9,10+,30.05
KSFZ,41.9168,-71.4924,220,8,9.21,KSFZ 100356Z AUTO 22008KT 180V250 7SM -RA OVC010 24/ A2986 RMK AO2 CIG 006V015 SLP107 P0002 T0239 $,2024-08-10T03:56:00Z,23.9,,7,29.86
KSFO,37.6196,-122.366,270,12,13.81,KSFO 100356Z 27012KT 10SM FEW001 BKN006 13/12 A2994 RMK AO2 SLP140 T01280122,2024-08-10T03:56:00Z,12.8,12.2,10+,29.94
KSDY,47.7029,-104.195,360,4,4.6,KSDY 100356Z AUTO 36004KT 10SM CLR 16/05 A3021 RMK AO2 SLP231 T01560050 PNO $,2024-08-10T03:56:00Z,15.6,5,10+,30.21
KSDF,38.1774,-85.7308,340,13,14.96,KSDF 100356Z 34013G17KT 10SM CLR 22/13 A3006 RMK AO2 SLP173 T02220133,2024-08-10T03:56:00Z,22.2,13.3,10+,30.06
KSBP,35.2382,-120.644,310,6,6.9,KSBP 100356Z AUTO 31006KT 10SM CLR 16/12 A2991 RMK AO2 SLP125 T01560117 $,2024-08-10T03:56:00Z,15.6,11.7,10+,29.91
KRKD,44.0611,-69.1014,200,13,14.96,KRKD 100356Z AUTO 20013G19KT 5SM -RA BR OVC003 21/21 A2985 RMK AO2 SLP108 P0001 T02060206,2024-08-10T03:56:00Z,20.6,20.6,5,29.85
KRDM,44.2558,-121.141,350,8,9.21,KRDM 100356Z AUTO 35008KT 10SM CLR 27/04 A2999 RMK AO2 SLP126 T02670039 $,2024-08-10T03:56:00Z,26.7,3.9,10+,29.99
KPWT,47.4942,-122.759,200,4,4.6,KPWT 100356Z AUTO 20004KT 10SM CLR 22/17 A2995 RMK AO2 SLP143 T02220172,2024-08-10T03:56:00Z,22.2,17.2,10+,29.95
KPWG,31.4891,-97.3202,0,0,0.0,KPWG 100356Z AUTO 00000KT 10SM CLR 27/23 A3008 RMK AO2 SLP178 T02670228 PNO $,2024-08-10T03:56:00Z,26.7,22.8,10+,30.08
KPVU,40.224,-111.725,120,3,3.45,KPVU 100356Z AUTO 12003KT 9SM CLR 26/13 A3005 RMK AO2 SLP116 T02560128 $,2024-08-10T03:56:00Z,25.6,12.8,9,30.05
KPVC,42.0743,-70.2183,190,15,17.26,KPVC 100356Z AUTO 19015G22KT 9SM FEW018 23/23 A2989 RMK AO2 SLP122 T02330228,2024-08-10T03:56:00Z,23.3,22.8,9,29.89
KPTV,36.0274,-119.063,160,3,3.45,KPTV 100356Z AUTO 16003KT 10SM CLR 30/13 A2983 RMK AO2 SLP097 T03000133,2024-08-10T03:56:00Z,30,13.3,10+,29.83
KPTN,29.71,-91.3381,350,5,5.75,KPTN 100356Z AUTO 35005KT 10SM CLR A3000 RMK AO2 SLPNO FZRANO $,2024-08-10T03:56:00Z,,,10+,30.00
KPRX,33.6359,-95.4514,340,4,4.6,KPRX 100356Z AUTO 34004KT 10SM CLR 28/21 A3007 RMK AO2 SLP177 T02780206,2024-08-10T03:56:00Z,27.8,20.6,10+,30.07
KPIB,31.4727,-89.3383,0,0,0.0,KPIB 100356Z AUTO 00000KT 10SM CLR 23/19 A3002 RMK AO2 SLP162 T02330194,2024-08-10T03:56:00Z,23.3,19.4,10+,30.02
KP28,37.2664,-98.5463,60,6,6.9,KP28 100356Z AUTO 06006KT 19/09 A3023 RMK AO1 SLP225 T01890089 $,2024-08-10T03:56:00Z,18.9,8.9,,30.23
KOWB,37.7297,-87.1683,350,4,4.6,KOWB 100356Z 35004KT 10SM CLR 20/14 A3009 RMK AO2 SLP189 T02000144,2024-08-10T03:56:00Z,20,14.4,10+,30.09
KOTH,43.4194,-124.244,340,8,9.21,KOTH 100356Z 34008KT 10SM OVC013 16/14 A3004 RMK AO2 SLP173 T01610139,2024-08-10T03:56:00Z,16.1,13.9,10+,30.04
KOTG,43.6525,-95.5759,310,4,4.6,KOTG 100356Z AUTO 31004KT 10SM CLR 11/09 A3020 RMK AO2 SLP229 T01110094,2024-08-10T03:56:00Z,11.1,9.4,10+,30.20
KOLU,41.4472,-97.3391,0,0,0.0,KOLU 100356Z AUTO 00000KT 10SM CLR 15/12 A3024 RMK AO2 SLP237 T01500117,2024-08-10T03:56:00Z,15,11.7,10+,30.24
KOKK,40.5304,-86.055,260,6,6.9,KOKK 100356Z AUTO 26006KT 10SM CLR 15/14 A3008 RMK AO2 SLP182 T01500139,2024-08-10T03:56:00Z,15,13.9,10+,30.08
KOFK,41.9799,-97.4335,170,3,3.45,KOFK 100356Z AUTO 17003KT 10SM CLR 11/08 A3022 RMK AO2 SLP232 T01110083,2024-08-10T03:56:00Z,11.1,8.3,10+,30.22
KOCH,31.5809,-94.7081,0,0,0.0,KOCH 100356Z AUTO 00000KT 10SM CLR 27/23 A3007 RMK AO2 SLP180 T02720228,2024-08-10T03:56:00Z,27.2,22.8,10+,30.07
KNYG,38.503,-77.301,170,8,9.21,KNYG 100356Z AUTO 17008KT 7SM BKN075 BKN095 27/25 A2991 RMK AO2 SLP130 T02670250 PNO $,2024-08-10T03:56:00Z,26.7,25,7,29.91
KNXP,34.294,-116.147,200,6,6.9,KNXP 100356Z AUTO 20006KT 10SM CLR 36/13 A2991 RMK AO2 SLP086 T03610128,2024-08-10T03:56:00Z,36.1,12.8,10+,29.91
KNSE,30.728,-87.022,0,0,0.0,KNSE 100356Z 00000KT 10SM SCT050 BKN250 27/24 A2995 RMK AO2 SLP127 T2 SET T02670244 $,2024-08-10T03:56:00Z,26.7,24.4,10+,29.95
KNQI,27.507,-97.81,120,4,4.6,KNQI 100356Z AUTO 12004KT 10SM CLR 28/25 A3001 RMK AO2 SLP158 T02830250 $,2024-08-10T03:56:00Z,28.3,25,10+,30.01
KNPA,30.356,-87.323,,,,KNPA 100356Z AUTO 10SM BKN055 31/25 A2994 RMK AO2 SLP141 T03060250 $,2024-08-10T03:56:00Z,30.6,25,10+,29.94
KNOG,27.895,-98.043,140,6,6.9,KNOG 100356Z AUTO 14006KT 10SM CLR 26/24 A3002 RMK AO2 SLP145 T02560244 $,2024-08-10T03:56:00Z,25.6,24.4,10+,30.02
KNMM,32.546,-88.543,310,3,3.45,KNMM 100356Z AUTO 31003KT 10SM CLR 24/19 A3001 RMK AO2 SLP168 T02440189,2024-08-10T03:56:00Z,24.4,18.9,10+,30.01
KNLC,36.3024,-119.94,330,10,11.51,KNLC 100356Z AUTO 33010KT 10SM CLR 31/10 A2981 RMK AO2 SLP094 T03060100,2024-08-10T03:56:00Z,30.6,10,10+,29.81
KNJK,32.823,-115.668,90,4,4.6,KNJK 100356Z AUTO 09004KT 10SM CLR 38/16 A2970 RMK AO2 SLP071 T03780161 $,2024-08-10T03:56:00Z,37.8,16.1,10+,29.70
KNID,35.688,-117.69,180,6,6.9,KNID 100356Z AUTO 18006KT 10SM FEW120 36/04 A2982 RMK AO2 SLP069 T03560044 $,2024-08-10T03:56:00Z,35.6,4.4,10+,29.82
KNGP,27.688,-97.292,150,6,6.9,KNGP 100356Z AUTO 15006KT 10SM CLR A3000 RMK AO2 SLP160,2024-08-10T03:56:00Z,,,10+,30.00
KNDZ,30.6973,-87.0207,90,4,4.6,KNDZ 100356Z 09004KT 10SM FEW050 SCT250 29/23 A2995 RMK AO2 SLP127 T02940233 $,2024-08-10T03:56:00Z,29.4,23.3,10+,29.95
KNBC,32.477,-80.722,190,3,3.45,KNBC 100356Z AUTO 19003KT 10SM CLR 29/26 A2995 RMK AO2 SLP141 T02890261,2024-08-10T03:56:00Z,28.9,26.1,10+,29.95
KMVN,38.3284,-88.853,10,3,3.45,KMVN 100356Z AUTO 01003KT 10SM CLR 18/14 A3014 RMK AO2 SLP206 T01830144,2024-08-10T03:56:00Z,18.3,14.4,10+,30.14
KMTW,44.1322,-87.6819,280,9,10.36,KMTW 100356Z AUTO 28009KT 10SM BKN075 16/10 RMK AO2 SLPNO T01560100 $,2024-08-10T03:56:00Z,15.6,10,10+,
KMQY,36.0029,-86.5144,340,12,13.81,KMQY 100356Z AUTO 34012KT 10SM CLR 23/17 A3007 RMK AO2 SLP184 T02330172,2024-08-10T03:56:00Z,23.3,17.2,10+,30.07
KMOB,30.6882,-88.2459,340,6,6.9,KMOB 100356Z 34006KT 10SM SCT055 SCT200 30/23 A2998 RMK SLP148 T02890222,2024-08-10T03:56:00Z,30,22.2,10+,29.98
KMML,44.4504,-95.8215,260,4,4.6,KMML 100356Z AUTO 26004KT 10SM CLR 11/11 A3018 RMK AO2 SLP225 T01110111,2024-08-10T03:56:00Z,11.1,11.1,10+,30.18
KMKT,44.2184,-93.9179,280,6,6.9,KMKT 100356Z AUTO 28006KT 10SM CLR 14/11 A3015 RMK AO2 SLP210 T01440111,2024-08-10T03:56:00Z,14.4,11.1,10+,30.15
KMEH,45.512,-118.425,0,0,0.0,KMEH 100356Z AUTO 00000KT 10SM CLR 18/09 A3005 RMK AO2 SLP154 T01780089,2024-08-10T03:56:00Z,17.8,8.9,10+,30.05
KMDT,40.1962,-76.7725,310,3,3.45,KMDT 100356Z 31003KT 10SM FEW250 22/21 A2988 RMK AO2 SLP117 T02220206,2024-08-10T03:56:00Z,22.2,20.6,10+,29.88
KMBL,44.2714,-86.2377,280,14,16.11,KMBL 100356Z AUTO 28014G20KT 10SM FEW034 17/13 A2993 RMK AO2 SLP132 T01720128 402060106,2024-08-10T03:56:00Z,17.2,12.8,10+,29.93
KM19,35.643,-91.1735,10,4,4.6,KM19 100356Z AUTO 01004KT 10SM CLR 19/17 A3010 RMK AO2 SLP189 T01940167 $,2024-08-10T03:56:00Z,19.4,16.7,10+,30.10
KLZU,33.9828,-83.9585,0,0,0.0,KLZU 100356Z AUTO 00000KT 10SM CLR 26/21 A2998 RMK AO2 SLP150 T02610206,2024-08-10T03:56:00Z,26.1,20.6,10+,29.98
KLWS,46.3746,-117.015,300,5,5.75,KLWS 100356Z AUTO 30005KT 10SM CLR 30/06 A2986 RMK AO2 SLP098 T03000061,2024-08-10T03:56:00Z,30,6.1,10+,29.86
KLRD,27.551,-99.4614,120,14,16.11,KLRD 100356Z 12014G18KT 10SM CLR 32/23 A3000 RMK AO2 SLP155 T03170228,2024-08-10T03:56:00Z,31.7,22.8,10+,30.00
KLPC,34.6646,-120.464,290,6,6.9,KLPC 100356Z AUTO 29006KT 10SM OVC005 14/14 A2992 RMK AO2 SLP131 T01390139,2024-08-10T03:56:00Z,13.9,13.9,10+,29.92
KLNR,43.2111,-90.1874,270,4,4.6,KLNR 100356Z AUTO 27004KT 10SM CLR 13/10 A3007 RMK AO2 SLP176 T01330100,2024-08-10T03:56:00Z,13.3,10,10+,30.07
KLGD,45.2906,-118.009,330,7,8.06,KLGD 100356Z AUTO 33007KT 10SM CLR 24/08 A2999 RMK AO2 SLP134 T02440078 $,2024-08-10T03:56:00Z,24.4,7.8,10+,29.99
KLBT,34.6082,-79.059,0,0,0.0,KLBT 100356Z AUTO 00000KT 10SM OVC095 26/24 A2994 RMK AO2 SLPNO T02560239 PWINO,2024-08-10T03:56:00Z,25.6,23.9,10+,29.94
KLAS,36.0719,-115.163,180,7,8.06,KLAS 100356Z 18007KT 10SM FEW100 SCT160 SCT220 38/12 A2985 RMK AO2 SLP075 T03830122,2024-08-10T03:56:00Z,38.3,12.2,10+,29.85
KJXN,42.259,-84.4589,240,4,4.6,KJXN 100356Z AUTO 24004KT 10SM OVC060 16/12 A3000 RMK AO2 SLP155 T01560122,2024-08-10T03:56:00Z,15.6,12.2,10+,30.00
KJRB,40.701,-74.009,230,8,9.21,KJRB 100356Z AUTO 23008KT 10SM OVC007 24/23 A2984 RMK AO2 SLP104 T02390228 402780217 PNO $,2024-08-10T03:56:00Z,23.9,22.8,10+,29.84
KJMS,46.9259,-98.6704,0,0,0.0,KJMS 100356Z AUTO 00000KT 10SM CLR 11/09 A3018 RMK AO2 SLP222 T01110094,2024-08-10T03:56:00Z,11.1,9.4,10+,30.18
KJHW,42.1534,-79.2542,290,4,4.6,KJHW 100356Z AUTO 29004KT 10SM FEW032 SCT046 18/16 A2997 RMK AO2 SLP146 T01780161,2024-08-10T03:56:00Z,17.8,16.1,10+,29.97
KJAX,30.4953,-81.6937,220,3,3.45,KJAX 100356Z 22003KT 10SM BKN250 27/25 A2998 RMK AO2 SLP152 T02670250 $,2024-08-10T03:56:00Z,26.7,25,10+,29.98
KJAC,43.6129,-110.737,360,4,4.6,KJAC 100356Z AUTO 36004KT 10SM BKN120 18/03 A3024 RMK AO2 SLP181 T01780028,2024-08-10T03:56:00Z,17.8,2.8,10+,30.24
KITH,42.4931,-76.4569,270,9,10.36,KITH 100356Z 27009KT 10SM BKN050 21/18 A2989 RMK AO2 SLP115 T02110183,2024-08-10T03:56:00Z,21.1,18.3,10+,29.89
KISM,28.2924,-81.4371,240,4,4.6,KISM 100356Z AUTO 24004KT 10SM CLR 27/25 A3004 RMK AO2 SLP172 T02720250 $,2024-08-10T03:56:00Z,27.2,25,10+,30.04
KINW,35.028,-110.722,190,5,5.75,KINW 100356Z AUTO 19005KT 10SM SCT055 SCT065 OVC100 26/15 A3017 RMK AO2 RAB09E53 SLP137 P0000 T02560150,2024-08-10T03:56:00Z,25.6,15,10+,30.17
KILE,31.084,-97.6885,30,3,3.45,KILE 100356Z AUTO 03003KT 10SM CLR 27/22 A3009 RMK AO2 SLP178 T02670222,2024-08-10T03:56:00Z,26.7,22.2,10+,30.09
KHYS,38.8392,-99.2742,0,0,0.0,KHYS 100356Z AUTO 00000KT 10SM OVC044 16/12 A3027 RMK AO2 SLP246 T01560117,2024-08-10T03:56:00Z,15.6,11.7,10+,30.27
KHYA,41.6719,-70.2697,190,17,19.56,KHYA 100356Z AUTO 19017G33KT 8SM FEW023 SCT027 BKN034 24/23 A2989 RMK AO2 PK WND 19033/0347 SLP123 T02440233,2024-08-10T03:56:00Z,24.4,23.3,8,29.89
KHPN,41.0624,-73.7046,180,5,5.75,KHPN 100356Z 18005KT 1SM R16/P6000FT -RA BR OVC002 23/23 A2983 RMK AO2 DZE52RAB52 SLP094 P0003 T02330228,2024-08-10T03:56:00Z,23.3,22.8,1,29.83
KHND,35.9658,-115.134,200,7,8.06,KHND 100356Z AUTO 20007KT 10SM CLR 36/13 A2989 RMK AO2 SLP102 T03610133,2024-08-10T03:56:00Z,36.1,13.3,10+,29.89
KHNB,38.2505,-86.9473,330,4,4.6,KHNB 100356Z AUTO 33004KT 10SM CLR 18/15 A3010 RMK AO2 SLP188 T01830150,2024-08-10T03:56:00Z,18.3,15,10+,30.10
KHEZ,31.6159,-91.2973,10,3,3.45,KHEZ 100356Z AUTO 01003KT 10SM CLR 24/21 A3005 RMK AO2 SLP172 T02390211,2024-08-10T03:56:00Z,23.9,21.1,10+,30.05
KHEF,38.724,-77.5175,290,5,5.75,KHEF 100356Z AUTO 29005KT 10SM BKN095 24/24 A2991 RMK AO2 SLP132 T02390239 403000233,2024-08-10T03:56:00Z,23.9,23.9,10+,29.91
KHDN,40.4842,-107.23,100,12,13.81,KHDN 100356Z AUTO 10012KT 10SM CLR 17/09 A3033 RMK AO2 SLP205 T01670089 PNO $,2024-08-10T03:56:00Z,16.7,8.9,10+,30.33
KGXY,40.4345,-104.63,100,9,10.36,KGXY 100356Z AUTO 10009KT 9SM FEW100 SCT120 15/13 A3023 RMK AO2 RAE45 SLP216 P0002 T01500133,2024-08-10T03:56:00Z,15,13.3,9,30.23
KGVQ,43.0298,-78.1665,,,,KGVQ 100356Z AUTO 10SM CLR 19/13 A2990 RMK AO2 SLP118 T01890133 $,2024-08-10T03:56:00Z,18.9,13.3,10+,29.90
KGUC,38.5322,-106.942,320,3,3.45,KGUC 100356Z AUTO 32003KT 10SM RA OVC055 14/11 A3046 RMK AO2 RAB09 SLP239 P0004 T01390111,2024-08-10T03:56:00Z,13.9,11.1,10+,30.46
KGTU,30.6809,-97.6767,0,0,0.0,KGTU 100356Z AUTO 00000KT 10SM BKN044 28/18 A3010 RMK AO2 LTG DSNT W SLP184 T02780183,2024-08-10T03:56:00Z,27.8,18.3,10+,30.10
KGTR,33.456,-88.593,350,6,6.9,KGTR 100356Z AUTO 35006KT 10SM CLR 24/21 A3003 RMK AO2 SLP172 T02390206,2024-08-10T03:56:00Z,23.9,20.6,10+,30.03
KGRD,34.2539,-82.1526,0,0,0.0,KGRD 100356Z AUTO 00000KT 10SM CLR 26/24 A2996 RMK AO2 SLP136 T02610239,2024-08-10T03:56:00Z,26.1,23.9,10+,29.96
KGPZ,47.2029,-93.5071,310,8,9.21,KGPZ 100356Z AUTO 31008KT 10SM OVC050 14/08 A3008 RMK AO2 SLP189 T01440083,2024-08-10T03:56:00Z,14.4,8.3,10+,30.08
KGNR,45.4649,-69.5543,200,13,14.96,KGNR 100356Z AUTO 20013G27KT 22/22 A2973 RMK AO1 PK WND 20038/0323 SLP064 P0013 T02170217 $,2024-08-10T03:56:00Z,21.7,21.7,,29.73
KGNA,47.745,-90.346,,,,KGNA 100356Z AUTO 13/10 A2987 RMK AO1 SLP114 T01280100,2024-08-10T03:56:00Z,12.8,10,,29.87
KGDV,47.14,-104.813,80,4,4.6,KGDV 100356Z AUTO 08004KT 10SM CLR 16/04 A3021 RMK AO2 SLP224 T01560044 TSNO PNO $,2024-08-10T03:56:00Z,15.6,4.4,10+,30.21
KGBD,38.3405,-98.8592,30,3,3.45,KGBD 100356Z AUTO 03003KT 10SM OVC050 16/13 A3026 RMK AO2 SLP240 T01560133,2024-08-10T03:56:00Z,15.6,13.3,10+,30.26
KGAD,33.9686,-86.0917,0,0,0.0,KGAD 100356Z AUTO 00000KT 10SM CLR 23/21 A3001 RMK AO2 SLP158 T02280211 $,2024-08-10T03:56:00Z,22.8,21.1,10+,30.01
KFWN,41.1993,-74.6259,70,3,3.45,KFWN 100356Z AUTO 07003KT 3SM -RA BR SCT007 OVC036 24/23 A2983 RMK AO2 P0001 T02390228,2024-08-10T03:56:00Z,23.9,22.8,3,29.83
KFSD,43.5775,-96.7539,0,0,0.0,KFSD 100356Z 00000KT 10SM CLR 13/09 A3019 RMK AO2 SLP223 T01280089,2024-08-10T03:56:00Z,12.8,8.9,10+,30.19
KFOD,42.549,-94.182,0,0,0.0,KFOD 100356Z AUTO 00000KT 10SM CLR A3018 RMK AO2 SLPNO FZRANO $,2024-08-10T03:56:00Z,,,10+,30.18
KFNL,40.4427,-105.01,210,5,5.75,KFNL 100356Z AUTO 21005KT 5SM BR CLR 14/14 A3024 RMK AO2 RAE16 SLP204 T01440144 PNO $,2024-08-10T03:56:00Z,14.4,14.4,5,30.24
KFLP,36.2925,-92.5851,20,3,3.45,KFLP 100356Z AUTO 02003KT 10SM CLR 23/15 A3015 RMK AO2 SLP203 T02280150,2024-08-10T03:56:00Z,22.8,15,10+,30.15
KFKL,41.3806,-79.8603,260,4,4.6,KFKL 100356Z AUTO 26004KT 10SM FEW045 BKN055 18/15 A2999 RMK AO2 SLP148 T01830150,2024-08-10T03:56:00Z,18.3,15,10+,29.99
KFCI,37.407,-77.522,0,0,0.0,KFCI 100356Z AUTO 00000KT 10SM FEW085 24/ A2992 RMK AO2 SLP139 T0244 403000233,2024-08-10T03:56:00Z,24.4,,10+,29.92
KFAM,37.7631,-90.4292,340,5,5.75,KFAM 100356Z AUTO 34005KT 10SM CLR 19/13 A3016 RMK AO2 SLP217 T01890133,2024-08-10T03:56:00Z,18.9,13.3,10+,30.16
KEWK,38.0621,-97.275,360,4,4.6,KEWK 100356Z AUTO 36004KT 10SM BKN110 16/15 A3025 RMK AO2 SLP236 T01560150,2024-08-10T03:56:00Z,15.6,15,10+,30.25
KEUL,43.6405,-116.63,270,5,5.75,KEUL 100356Z AUTO 27005KT 10SM CLR 28/11 A2985 RMK AO2 SLP082 T02830111,2024-08-10T03:56:00Z,28.3,11.1,10+,29.85
KESC,45.7225,-87.0893,270,6,6.9,KESC 100356Z AUTO 27006KT 10SM BKN070 12/11 A2989 RMK AO2 SLP122 T01170111 $,2024-08-10T03:56:00Z,11.7,11.1,10+,29.89
KENV,40.7211,-114.031,290,5,5.75,KENV 100356Z AUTO 29005KT 10SM CLR 29/06 A2998 RMK AO2 SLP101 T02890061,2024-08-10T03:56:00Z,28.9,6.1,10+,29.98
KELZ,42.1077,-77.9842,260,6,6.9,KELZ 100356Z AUTO 26006KT 10SM CLR 17/16 A2997 RMK AO2 SLP139 T01720161,2024-08-10T03:56:00Z,17.2,16.1,10+,29.97
KEKY,33.314,-86.925,20,4,4.6,KEKY 100356Z AUTO 02004KT 10SM CLR 26/19 A3001 RMK AO2 SLP010 T02610194,2024-08-10T03:56:00Z,26.1,19.4,10+,30.01
KEKQ,36.8576,-84.8562,0,0,0.0,KEKQ 100356Z AUTO 00000KT 10SM FEW040 BKN049 22/21 A3008 RMK AO2 SLP175 T02170206 402890206 PNO $,2024-08-10T03:56:00Z,21.7,20.6,10+,30.08
KEKO,40.824,-115.786,0,0,0.0,KEKO 100356Z AUTO 00000KT 10SM CLR 26/00 A3005 RMK AO2 SLP112 T02560000,2024-08-10T03:56:00Z,25.6,0,10+,30.05
KEHR,37.8066,-87.6824,330,5,5.75,KEHR 100356Z AUTO 33005KT 10SM CLR 19/14 A3011 RMK AO2 SLP194 T01890139,2024-08-10T03:56:00Z,18.9,13.9,10+,30.11
KEGE,39.6448,-106.918,0,0,0.0,KEGE 100356Z AUTO 00000KT 10SM CLR 16/13 A3037 RMK AO2 SLP177 T01560133 PNO $,2024-08-10T03:56:00Z,15.6,13.3,10+,30.37
KEED,34.7678,-114.618,260,3,3.45,KEED 100356Z AUTO 26003KT 10SM SCT110 39/16 A2976 RMK AO2 SLP043 T03890161,2024-08-10T03:56:00Z,38.9,16.1,10+,29.76
KEAU,44.8665,-91.4881,260,5,5.75,KEAU 100356Z AUTO 26005KT 10SM OVC075 13/10 A3005 RMK AO2 SLP178 T01330100 $,2024-08-10T03:56:00Z,13.3,10,10+,30.05
KEAR,40.7193,-99.0086,250,6,6.9,KEAR 100356Z AUTO 25006KT 10SM OVC100 17/13 A3026 RMK AO2 SLP239 T01670128,2024-08-10T03:56:00Z,16.7,12.8,10+,30.26
KDYR,35.9957,-89.4057,20,6,6.9,KDYR 100356Z AUTO 02006KT 10SM CLR 21/14 A3010 RMK AO2 SLP195 T02110144,2024-08-10T03:56:00Z,21.1,14.4,10+,30.10
KDWU,38.556,-82.7375,0,0,0.0,KDWU 100356Z AUTO 00000KT 10SM BKN050 BKN065 24/18 A3001 RMK AO2 SLP157 T02390183 403170228 $,2024-08-10T03:56:00Z,23.9,18.3,10+,30.01
KDVL,48.1136,-98.9034,0,0,0.0,KDVL 100356Z AUTO 00000KT 9SM CLR 13/09 A3018 RMK AO2 SLP228 T01330094,2024-08-10T03:56:00Z,13.3,9.4,9,30.18
KDUG,31.4725,-109.602,140,8,9.21,KDUG 100356Z AUTO 14008KT 10SM CLR 23/18 A3011 RMK AO2 SLP130 T02280178,2024-08-10T03:56:00Z,22.8,17.8,10+,30.11
KDIK,46.7997,-102.797,,,,KDIK 100356Z AUTO A3020 RMK AO2 SLPNO PWINO $,2024-08-10T03:56:00Z,,,,30.20
KDIJ,43.745,-111.091,150,3,3.45,KDIJ 100356Z AUTO 15003KT 10SM BKN120 15/05 A3025 RMK AO2 SLP176 T01500050 $,2024-08-10T03:56:00Z,15,5,10+,30.25
KDAY,39.9064,-84.2185,310,6,6.9,KDAY 100356Z 31006KT 10SM FEW045 18/14 A3005 RMK AO2 SLP170 T01780139,2024-08-10T03:56:00Z,17.8,13.9,10+,30.05
KD07,45.0326,-102.02,100,8,9.21,KD07 100356Z AUTO 10008KT 14/04 A3021 RMK AO1 SLP229 T01390044,2024-08-10T03:56:00Z,13.9,4.4,,30.21
KCXY,40.2184,-76.8552,240,5,5.75,KCXY 100356Z AUTO 24005KT 10SM CLR 23/19 A2989 RMK AO2 SLP120 T02280194 $,2024-08-10T03:56:00Z,22.8,19.4,10+,29.89
KCWI,41.8295,-90.3328,280,5,5.75,KCWI 100356Z AUTO 28005KT 10SM CLR 12/ A3011 RMK AO2 SLP200 T0122,2024-08-10T03:56:00Z,12.2,,10+,30.11
KCVO,44.5013,-123.293,300,17,19.56,KCVO 100356Z 30017G20KT 10SM CLR 18/13 A2996 RMK AO2 SLP145 T01830128,2024-08-10T03:56:00Z,18.3,12.8,10+,29.96
KCVN,34.4227,-103.08,130,11,12.66,KCVN 100356Z AUTO 13011KT 10SM CLR 24/15 A3023 RMK AO2 SLP196 T02440150,2024-08-10T03:56:00Z,24.4,15,10+,30.23
KCTB,48.6036,-112.377,90,5,5.75,KCTB 100356Z AUTO 09005KT 10SM SCT075 16/06 A3017 RMK AO2 SLP200 T01610061,2024-08-10T03:56:00Z,16.1,6.1,10+,30.17
KCOE,47.7719,-116.833,20,6,6.9,KCOE 100356Z AUTO 02006KT 10SM CLR 22/08 A2997 RMK AO2 SLP148 T02220083 PNO $,2024-08-10T03:56:00Z,22.2,8.3,10+,29.97
KCOD,44.52,-109.027,0,0,0.0,KCOD 100356Z AUTO 00000KT 10SM CLR 14/11 A3022 RMK AO2 SLP203 T01390106,2024-08-10T03:56:00Z,13.9,10.6,10+,30.22
KCIU,46.2531,-84.4773,250,3,3.45,KCIU 100356Z AUTO 25003KT 10SM BKN070 OVC085 14/13 A2984 RMK AO2 RAB30E43 SLP104 P0000 T01390128,2024-08-10T03:56:00Z,13.9,12.8,10+,29.84
KCHS,32.8994,-80.0407,190,7,8.06,KCHS 100356Z 19007KT 10SM FEW050 FEW075 FEW200 27/24 A2995 RMK AO2 SLP141 T02720244,2024-08-10T03:56:00Z,27.2,24.4,10+,29.95
KCEC,41.7836,-124.238,200,4,4.6,KCEC 100356Z AUTO 20004KT 9SM OVC004 13/13 A3000 RMK AO2 SLP161 T01330133,2024-08-10T03:56:00Z,13.3,13.3,9,30.00
KCAE,33.9422,-81.118,0,0,0.0,KCAE 100356Z 00000KT 10SM FEW045 FEW070 SCT090 27/25 A2992 RMK AO2 SLP129 T02720250,2024-08-10T03:56:00Z,27.2,25,10+,29.92
KBZN,45.7876,-111.162,130,5,5.75,KBZN 100356Z 13005KT 10SM CLR 19/08 A3013 RMK AO2 SLP174 T01890078,2024-08-10T03:56:00Z,18.9,7.8,10+,30.13
KBVX,35.7259,-91.6517,310,3,3.45,KBVX 100356Z AUTO 31003KT 10SM CLR 21/18 A3012 RMK AO2 SLP196 T02110178,2024-08-10T03:56:00Z,21.1,17.8,10+,30.12
KBTP,40.7765,-79.9568,0,0,0.0,KBTP 100356Z AUTO 00000KT 10SM CLR 19/18 A2999 RMK AO2 SLP153 T01890183,2024-08-10T03:56:00Z,18.9,18.3,10+,29.99
KBMI,40.4777,-88.9144,250,5,5.75,KBMI 100356Z AUTO 25005KT 10SM CLR 15/13 A3013 RMK AO2 SLP199 T01500128,2024-08-10T03:56:00Z,15,12.8,10+,30.13
KBKX,44.3075,-96.8183,0,0,0.0,KBKX 100356Z AUTO 00000KT 10SM CLR 12/10 A3020 RMK AO2 SLP237 T01220100,2024-08-10T03:56:00Z,12.2,10,10+,30.20
KBJJ,40.8732,-81.8886,300,8,9.21,KBJJ 100356Z AUTO 30008KT 10SM OVC046 19/13 A3001 RMK AO2 SLP155 T01940133,2024-08-10T03:56:00Z,19.4,13.3,10+,30.01
KBIH,37.3711,-118.359,290,5,5.75,KBIH 100356Z AUTO 29005KT 10SM CLR 30/06 A2997 RMK AO2 SLP088 T03000061,2024-08-10T03:56:00Z,30,6.1,10+,29.97
KBHB,44.4549,-68.3617,200,17,19.56,KBHB 100356Z AUTO 20017G26KT 7SM -RA OVC005 22/22 A2986 RMK AO2 PK WND 21029/0346 RAB55 SLP113 P0000 T02220217 402220144,2024-08-10T03:56:00Z,22.2,21.7,7,29.86
KAUO,32.617,-85.4342,340,6,6.9,KAUO 100356Z AUTO 34006KT 10SM CLR 27/22 A2999 RMK AO2 SLP143 T02670222,2024-08-10T03:56:00Z,26.7,22.2,10+,29.99
KART,43.9888,-76.0261,220,5,5.75,KART 100356Z AUTO 22005KT 10SM FEW060 21/18 A2980 RMK AO2 SLP085 T02060183,2024-08-10T03:56:00Z,20.6,18.3,10+,29.80
KARG,36.1256,-90.9216,20,5,5.75,KARG 100356Z AUTO 02005KT 10SM CLR 21/16 A3011 RMK AO2 SLP194 T02110156,2024-08-10T03:56:00Z,21.1,15.6,10+,30.11
KAND,34.498,-82.7092,70,6,6.9,KAND 100356Z AUTO 07006KT 10SM FEW050 SCT075 28/23 A2995 RMK AO2 LTG DSNT NE SLP130 T02780228,2024-08-10T03:56:00Z,27.8,22.8,10+,29.95
KALK,31.606,-110.428,310,7,8.06,KALK 100356Z AUTO 31007KT 10SM OVC110 22/16 A3013 RMK AO2 SLP108 T02220161,2024-08-10T03:56:00Z,22.2,16.1,10+,30.13
KAJO,33.8956,-117.596,320,5,5.75,KAJO 100356Z AUTO 32005KT 10SM CLR 23/16 A2987 RMK AO2 SLP107 T02330161,2024-08-10T03:56:00Z,23.3,16.1,10+,29.87
KAIZ,38.1005,-92.5475,0,0,0.0,KAIZ 100356Z AUTO 00000KT 10SM CLR 18/13 A3020 RMK AO2 SLP218 T01830128 PNO $,2024-08-10T03:56:00Z,18.3,12.8,10+,30.20
KAFJ,40.1362,-80.2851,270,3,3.45,KAFJ 100356Z AUTO 27003KT 10SM FEW050 19/18 A3001 RMK AO2 SLP155 T01890178,2024-08-10T03:56:00Z,18.9,17.8,10+,30.01
KADF,34.0953,-93.069,0,0,0.0,KADF 100356Z AUTO 00000KT 10SM CLR 23/22 A3008 RMK AO2 SLP181 T02330222,2024-08-10T03:56:00Z,23.3,22.2,10+,30.08
K8D3,45.669,-96.9918,270,6,6.9,K8D3 100356Z AUTO 27006KT 12/09 A3016 RMK AO1 SLP207 T01220094,2024-08-10T03:56:00Z,12.2,9.4,,30.16
K79J,31.3061,-86.3902,320,3,3.45,K79J 100356Z AUTO 32003KT 10SM OVC095 29/23 A2995 RMK AO2 SLP136 T02890233 TSNO,2024-08-10T03:56:00Z,28.9,23.3,10+,29.95
K2WX,45.6043,-103.547,,,,K2WX 100356Z AUTO A3018 RMK AO1 SLPNO,2024-08-10T03:56:00Z,,,,30.18
K1M4,34.2832,-87.5986,360,4,4.6,K1M4 100356Z AUTO 36004KT 10SM CLR 23/19 A3007 RMK AO2 SLP165 T02330194 $,2024-08-10T03:56:00Z,23.3,19.4,10+,30.07
TXKF,32.364,-64.679,140,10,11.51,TXKF 100355Z 14010KT 9999 FEW020 28/25 Q1024 ,2024-08-10T03:55:00Z,28,25,6+,30.24
TNCE,17.497,-62.979,VRB,1,1.15,TNCE 100355Z AUTO VRB01KT //// // ///////// 25/23 Q1016 RE//,2024-08-10T03:55:00Z,25,23,,30.00
TNCB,12.133,-68.277,80,10,11.51,TNCB 100355Z AUTO 08010KT 9999 BKN018/// 29/24 Q1012,2024-08-10T03:55:00Z,29,24,6+,29.88
RODN,26.356,127.768,310,10,11.51,RODN 100355Z 31010KT 10SM SCT040 BKN080 33/26 A2958 RMK AO2A SLP017 T03280256 FZRANO $,2024-08-10T03:55:00Z,32.8,25.6,10+,29.58
RKSO,37.091,127.03,240,4,4.6,RKSO 100355Z 24004KT 10SM SCT035 33/24 A2961 RMK AO2A SLP030 T03300244 $,2024-08-10T03:55:00Z,33,24.4,10+,29.61
RKSG,36.962,127.031,0,0,0.0,RKSG 100355Z 00000KT 10SM FEW150 FEW180 33/24 A2961 RMK AO2A SLP029 T03310242 $,2024-08-10T03:55:00Z,33.1,24.2,10+,29.61
RKJK,35.9,126.618,270,7,8.06,RKJK 100355Z AUTO 27007KT 6SM HZ FEW170 FEW200 33/25 A2960 RMK AO2 SLP028 T03340245 $,2024-08-10T03:55:00Z,33.4,24.5,6,29.60
RJTY,35.749,139.349,20,10,11.51,RJTY 100355Z 02010G15KT 10SM FEW030 SCT080 34/21 A2954 RMK AO2A SLP001 T03380209 FZRANO $,2024-08-10T03:55:00Z,33.8,20.9,10+,29.54
PWAK,19.287,166.623,70,15,17.26,PWAK 100355Z AUTO 07015KT 8SM SCT019 BKN043 31/25 A2981 RMK AO2 SLP097 T03130246,2024-08-10T03:55:00Z,31.3,24.6,8,29.81
PHSF,19.758,-155.557,250,7,8.06,PHSF 100355Z AUTO 25007KT 9SM FEW017 BKN030 18/13 A3028 RMK AO2 SLP153 T01820133 $,2024-08-10T03:55:00Z,18.2,13.3,9,30.28
PHHI,21.478,-158.044,70,10,11.51,PHHI 100355Z AUTO 07010KT 10SM SCT035 26/18 A2998 RMK AO2 SLP142 T02630176 $,2024-08-10T03:55:00Z,26.3,17.6,10+,29.98
PGUA,13.583,144.918,110,7,8.06,PGUA 100355Z AUTO 11007KT 10SM CLR 29/24 A2979 RMK AO2 SLP078 T02940238 $,2024-08-10T03:55:00Z,29.4,23.8,10+,29.79
PATL,62.893,-155.977,60,11,12.66,PATL 100355Z AUTO 06011KT 10SM SCT028 BKN075 10/05 A2993 RMK AO2 SLP139 T01020045,2024-08-10T03:55:00Z,10.2,4.5,10+,29.93
PASV,61.101,-155.577,220,9,10.36,PASV 100355Z AUTO 22009KT 10SM FEW029 BKN110 09/03 A2995 RMK AO2 SLP148 T00880028,2024-08-10T03:55:00Z,8.8,2.8,10+,29.95
PAFR,61.263,-149.66,190,12,13.81,PAFR 100355Z AUTO 19012KT 8SM -RA BKN048 OVC070 10/06 A2994 RMK AO2 RAB04 SLP141 P0001 T01010064 $,2024-08-10T03:55:00Z,10.1,6.4,8,29.94
PAFB,64.836,-147.614,50,3,3.45,PAFB 100355Z 05003KT 9SM SCT035 BKN045 OVC100 16/11 A2980 RMK AO2A SLP097 T01620113 $,2024-08-10T03:55:00Z,16.2,11.3,9,29.80
PAEH,58.652,-162.062,20,20,23.02,PAEH 100355Z AUTO 02020G32KT 3SM -RA OVC004 09/08 A2983 RMK AO2 PK WND 01037/0257 SHRAB0158E0323DZB0337E0350 SLP105 P0003 T00870080,2024-08-10T03:55:00Z,8.7,8,3,29.83
PAED,61.25,-149.837,220,17,19.56,PAED 100355Z 22017G25KT 9SM -RA BKN055 OVC070 12/05 A2992 RMK AO2A PK WND 21026/02 SLP128 P0000 T01210048,2024-08-10T03:55:00Z,12.1,4.8,9,29.92
OTBH,25.117,51.315,90,8,9.21,OTBH 100355Z 09008KT 8000 HZ CLR 35/30 A2953 Q1000 RMK AO2A SLP000 T03500296 FZRANO $,2024-08-10T03:55:00Z,35,29.6,4.97,29.53
OPFA,31.365,72.995,90,4,4.6,OPFA 100355Z 09004KT 4000 FU NSC 34/28 Q1003 NOSIG,2024-08-10T03:55:00Z,34,28,2.49,29.62
OKAS,29.347,47.521,280,7,8.06,OKAS 100355Z AUTO 28007KT 9999 CLR 35/04 A2959 RMK AO2 SLP013 T03480043 $,2024-08-10T03:55:00Z,34.8,4.3,6+,29.59
OEPS,24.063,47.581,0,0,0.0,OEPS 100355Z 00000KT 9999 CLR 32/03 A2974 RMK AO2A SLP046 WND DATA ESTMD T03200033,2024-08-10T03:55:00Z,32,3.3,6+,29.74
LIVT,45.677,13.754,90,4,4.6,LIVT 100355Z AUTO 09004KT //// 27/18 Q1017,2024-08-10T03:55:00Z,27,18,,30.03
LIVP,46.143,11.038,10,6,6.9,LIVP 100355Z 01006KT CAVOK 13/11 Q1030,2024-08-10T03:55:00Z,13,11,6+,30.41
LIVM,44.441,12.296,,,,LIVM 100355Z AUTO /////KT //// ///// Q////,2024-08-10T03:55:00Z,,,,
LIVF,43.517,12.728,0,0,0.0,LIVF 100355Z 00000KT CAVOK 23/12 Q1018,2024-08-10T03:55:00Z,23,12,6+,30.06
LIVD,46.729,12.228,90,2,2.3,LIVD 100355Z AUTO 09002KT //// 12/12 Q1027,2024-08-10T03:55:00Z,12,12,,30.32
LIVC,44.194,10.7,110,8,9.21,LIVC 100355Z AUTO 11008KT //// 16/07 Q1032,2024-08-10T03:55:00Z,16,7,,30.47
LIRY,-99.99,-99.99,270,2,2.3,LIRY 100355Z AUTO 27002KT //// 22/18 Q1017,2024-08-10T03:55:00Z,22,18,,30.03
LIRX,42.731,10.396,10,6,6.9,LIRX 100355Z AUTO 01006KT //// 26/14 Q1018,2024-08-10T03:55:00Z,26,14,,30.06
LIRT,41.047,15.233,10,5,5.75,LIRT 100355Z AUTO 01005KT //// 22/08 Q1023,2024-08-10T03:55:00Z,22,8,,30.21
LIRS,42.76,11.072,VRB,2,2.3,LIRS 100355Z VRB02KT CAVOK 23/19 Q1015 RMK FEW FEW200 VIS MIN 9999 WIND THR03 10003KT WIND THR21 12002KT BLU,2024-08-10T03:55:00Z,23,19,6+,29.97
LIRM,41.061,14.082,10,5,5.75,LIRM 100355Z 01005KT CAVOK 23/19 Q1016 RMK SKC VIS MIN 9999 WIND THR06 03005KT BLU,2024-08-10T03:55:00Z,23,19,6+,30.00
LIRK,42.466,12.979,80,10,11.51,LIRK 100355Z AUTO 08010KT 360V150 //// 18/08 Q1026,2024-08-10T03:55:00Z,18,8,,30.30
LIRE,41.656,12.449,100,1,1.15,LIRE 100355Z 10001KT CAVOK 25/// Q1016,2024-08-10T03:55:00Z,,,6+,30.00
LIQO,42.387,11.17,280,10,11.51,LIQO 100355Z AUTO 28010KT //// 25/18 Q1020,2024-08-10T03:55:00Z,25,18,,30.12
LIQC,40.558,14.201,0,0,0.0,LIQC 100355Z 00000KT CAVOK 27/26 Q1016 RMK SKC QUK / QUL / VIS MAR 12 KM VIS MIN 9999,2024-08-10T03:55:00Z,27,26,6+,30.00
LIPS,45.689,12.101,50,5,5.75,LIPS 100355Z 05005KT CAVOK 23/20 Q1017 RMK SKC VIS MIN 9999 WIND THR26 06005KT WIND THR08 05004KT BLU,2024-08-10T03:55:00Z,23,20,6+,30.03
LIPL,45.432,10.268,60,2,2.3,LIPL 100355Z 06002KT CAVOK 24/23 Q1017 RMK SKC VIS MIN 9999 WIND THR31 08002KT WIND THR13 07002KT BLU,2024-08-10T03:55:00Z,24,23,6+,30.03
LIPI,45.979,13.049,10,3,3.45,LIPI 100355Z 01003KT CAVOK 22/20 Q1018 RMK SKC VIS MIN 9999 WIND THR06 03004KT WIND THR24 06003KT BLU,2024-08-10T03:55:00Z,22,20,6+,30.06
LIPC,44.224,12.307,220,1,1.15,LIPC 100355Z 22001KT CAVOK 21/19 Q1017 RMK SKC VIS MIN 9999 WIND THR11 25001KT WIND THR29 22002KT BLU,2024-08-10T03:55:00Z,21,19,6+,30.03
LIPA,46.03,12.599,20,3,3.45,LIPA 100355Z 02003KT CAVOK 23/22 Q1018 RMK SKC VIS MIN 9999 WIND THR05 /////KT WIND THR23 /////KT A3008 BLU,2024-08-10T03:55:00Z,23,22,6+,30.06
LIMY,44.258,7.794,320,3,3.45,LIMY 100355Z AUTO 32003KT //// 24/19 Q1021,2024-08-10T03:55:00Z,24,19,,30.15
LIMK,45.033,7.731,,,,LIMK 100355Z AUTO /////KT //// 23/20 Q1021,2024-08-10T03:55:00Z,23,20,,30.15
LIMH,45.935,7.707,,,,LIMH 100355Z AUTO /////KT //// ///// Q////,2024-08-10T03:55:00Z,,,,
LIED,39.354,8.973,330,5,5.75,LIED 100355Z 33005KT CAVOK 24/23 Q1015 RMK SKC VIS MIN 9999 WIND THR34 /////KT WIND THR16 01004KT BLU,2024-08-10T03:55:00Z,24,23,6+,29.97
LIEB,39.931,9.713,330,6,6.9,LIEB 100355Z 33006KT 9999 SCT040 26/23 Q1016 RMK SCT QUK 1 QUL 0 VIS MAR 20 KM MON LIB VIS MIN 9999,2024-08-10T03:55:00Z,26,23,6+,30.00
LICZ,37.406,14.919,300,4,4.6,LICZ 100355Z 30004KT 8000 NSC 25/25 Q1015 RMK SKC VIS MIN 8000 WIND THR28 33003KT WIND THR10 31005KT A2999 BLU,2024-08-10T03:55:00Z,25,25,4.97,29.97
LICT,37.911,12.488,0,0,0.0,LICT 100355Z 00000KT CAVOK 21/19 Q1015 RMK SKC VIS MIN 9999 WIND THR13 12002KT BLU,2024-08-10T03:55:00Z,21,19,6+,29.97
LIBY,39.811,18.342,360,11,12.66,LIBY 100355Z AUTO 36011KT 330V030 //// 26/21 Q1014,2024-08-10T03:55:00Z,26,21,,29.94
LIBV,40.766,16.935,320,8,9.21,LIBV 100355Z 32008KT CAVOK 24/15 Q1017 RMK SKC VIS MIN 9999 WIND THR32 36006KT WIND THR14 33009KT BLU,2024-08-10T03:55:00Z,24,15,6+,30.03
LIBQ,39.331,16.396,,,,LIBQ 100355Z AUTO /////KT //// 16/12 Q1026,2024-08-10T03:55:00Z,16,12,,30.30
LIBN,40.238,18.138,310,3,3.45,LIBN 100355Z 31003KT CAVOK 24/23 Q1014 RMK SKC VIS MIN 9999 WIND THR14 30003KT WIND THR32 31004KT BLU,2024-08-10T03:55:00Z,24,23,6+,29.94
LIBA,41.538,15.714,280,8,9.21,LIBA 100355Z 28008KT CAVOK 22/18 Q1016 RMK SKC VIS MIN 9999 WIND THR11 27008KT WIND THR29/////KT BLU,2024-08-10T03:55:00Z,22,18,6+,30.00
KXNO,33.612,-81.07,100,3,3.45,KXNO 100355Z AUTO 10003KT 10SM CLR 27/25 A2992 RMK AO2 SLP131 T02690251 $,2024-08-10T03:55:00Z,26.9,25.1,10+,29.92
KXMR,28.4674,-80.5589,200,8,9.21,KXMR 100355Z AUTO 20008KT 10SM CLR 26/24 A2999 RMK AO2 SLP159 T02640238 PWINO $,2024-08-10T03:55:00Z,26.4,23.8,10+,29.99
KXIF,-99.99,-99.99,0,0,0.0,KXIF 100355Z AUTO 00000KT 9SM CLR 21/20 A2992 RMK AO2 SLP130 T02140204 $,2024-08-10T03:55:00Z,21.4,20.4,9,29.92
KWRB,32.639,-83.593,140,4,4.6,KWRB 100355Z AUTO 14004KT 10SM FEW055 26/24 A2993 RMK AO2 SLP134 T02630239,2024-08-10T03:55:00Z,26.3,23.9,10+,29.93
KVPS,30.483,-86.526,320,3,3.45,KVPS 100355Z AUTO 32003KT 10SM FEW046 FEW060 BKN110 27/25 A2993 RMK AO2 LTG DSNT SE-S SLP141 T02690249 $,2024-08-10T03:55:00Z,26.9,24.9,10+,29.93
KVOK,43.938,-90.253,260,6,6.9,KVOK 100355Z AUTO 26006KT 10SM BKN047 BKN060 12/10 A3003 RMK AO2 SLP173 T01170096 $,2024-08-10T03:55:00Z,11.7,9.6,10+,30.03
KVAD,30.979,-83.192,0,0,0.0,KVAD 100355Z AUTO 00000KT 10SM FEW017 28/26 A2995 RMK AO2 SLP142 T02770261 $,2024-08-10T03:55:00Z,27.7,26.1,10+,29.95
KTTS,28.5987,-80.6815,210,9,10.36,KTTS 100355Z AUTO 21009KT 10SM SCT140 27/24 A3000 RMK AO2 SLP163 T02710239 CHINO RWY33 $,2024-08-10T03:55:00Z,27.1,23.9,10+,30.00
KTQS,34.633,-120.617,360,8,9.21,KTQS 100355Z AUTO 36008KT 3/8SM FG VV001 13/13 A2992 RMK AO2 SLP135 T01300127 RVRNO,2024-08-10T03:55:00Z,13,12.7,0.38,29.92
KTIK,35.415,-97.386,30,9,10.36,KTIK 100355Z AUTO 03009KT 10SM FEW150 FEW170 23/10 A3012 RMK AO2 SLP192 T02320103,2024-08-10T03:55:00Z,23.2,10.3,10+,30.12
KTCM,47.149,-122.475,290,4,4.6,KTCM 100355Z AUTO 29004KT 10SM CLR 24/16 A2993 RMK AO2 SLP137 T02400155 $,2024-08-10T03:55:00Z,24,15.5,10+,29.93
KTBN,37.7445,-92.1447,350,3,3.45,KTBN 100355Z AUTO 35003KT 10SM CLR 18/13 A3016 RMK AO2 SLP209 T01780129,2024-08-10T03:55:00Z,17.8,12.9,10+,30.16
KT70,29.117,-100.473,270,10,11.51,KT70 100355Z AUTO 27010KT 10SM CLR 33/17 A2999 RMK AO2 SLP139 T03250167 $,2024-08-10T03:55:00Z,32.5,16.7,10+,29.99
KSZL,38.736,-93.55,300,3,3.45,KSZL 100355Z 30003KT 10SM SCT200 18/12 A3018 RMK AO2A SLP218 T01800120,2024-08-10T03:55:00Z,18,12,10+,30.18
KSXS,31.364,-85.846,0,0,0.0,KSXS 100355Z AUTO 00000KT 10SM BKN044 BKN055 28/25 A2992 RMK AO2 LTG DSNT SW SLP129 T02840252 $,2024-08-10T03:55:00Z,28.4,25.2,10+,29.92
KSVN,32.011,-81.131,190,5,5.75,KSVN 100355Z AUTO 19005KT 10SM R28/4500FT FEW100 29/24 A2992 RMK AO2 SLP135 T02850242 $,2024-08-10T03:55:00Z,28.5,24.2,10+,29.92
KSUU,38.25,-121.938,220,24,27.62,KSUU 100355Z AUTO 22024KT 10SM CLR 19/11 A2979 RMK AO2 PK WND 24030/33 SLP094 T01920110 $,2024-08-10T03:55:00Z,19.2,11,10+,29.79
KSSC,33.978,-80.466,170,3,3.45,KSSC 100355Z 17003KT 10SM SCT050 27/25 A2994 RMK SLP133 WND DATA ESTMD ALSTG ESTMD T02710245,2024-08-10T03:55:00Z,27.1,24.5,10+,29.94
KSLI,33.796,-118.042,330,4,4.6,KSLI 100355Z AUTO 33004KT 8SM CLR 21/16 A2983 RMK AO2 SLP104 T02140163,2024-08-10T03:55:00Z,21.4,16.3,8,29.83
KSKF,29.392,-98.581,80,17,19.56,KSKF 100355Z 08017G25KT 7SM FEW007 SCT060 28/19 A3002 RMK AO2A PK WND 09026/43 SLP157 T02830187 $,2024-08-10T03:55:00Z,28.3,18.7,7,30.02
KSKA,47.612,-117.679,350,7,8.06,KSKA 100355Z 35007KT 10SM BKN220 24/06 A2998 RMK AO2A SLP130 T02420055 $,2024-08-10T03:55:00Z,24.2,5.5,10+,29.98
KSHM,38.8,-104.52,130,7,8.06,KSHM 100355Z AUTO 13007KT 1/2SM FG VV002 14/14 A3029 RMK AO2 VIS 1/2V1 1/4 SLP216 T01390137 RVRNO $,2024-08-10T03:55:00Z,13.9,13.7,0.5,30.29
KSEQ,29.566,-97.908,50,12,13.81,KSEQ 100355Z AUTO 05012KT 10SM FEW075 SCT100 OVC130 25/21 A2998 RMK AO2 PK WND 11035/0256 RAB0257E41 SLP147 P0002 T02450210 $,2024-08-10T03:55:00Z,24.5,21,10+,29.98
KSCK,37.89,-121.226,270,11,12.66,KSCK 100355Z 27011KT 10SM CLR 26/07 A2984 RMK AO2 SLP106 T02610067,2024-08-10T03:55:00Z,26.1,6.7,10+,29.84
KRYM,46.0878,-94.353,280,7,8.06,KRYM 100355Z AUTO 28007KT 10SM CLR 13/09 A3008 RMK AO2 SLP190 T01250093 $,2024-08-10T03:55:00Z,12.5,9.3,10+,30.08
KRNO,39.5077,-119.768,280,12,13.81,KRNO 100355Z 28012G21KT 10SM CLR 29/04 A3006 RMK AO2 PK WND 27029/0336 SLP117 T02890039,2024-08-10T03:55:00Z,28.9,3.9,10+,30.06
KRND,29.537,-98.268,80,5,5.75,KRND 100355Z AUTO 08005KT 10SM CLR 28/17 A3001 RMK AO2 PK WND 11034/21 SLP152 T02780173 $,2024-08-10T03:55:00Z,27.8,17.3,10+,30.01
KRIV,33.878,-117.244,300,5,5.75,KRIV 100355Z AUTO 30005KT 10SM CLR 26/14 A2989 RMK AO2 SLP106 T02600141,2024-08-10T03:55:00Z,26,14.1,10+,29.89
KRDR,47.9477,-97.4029,310,6,6.9,KRDR 100355Z AUTO 31006KT 10SM CLR 12/08 A3012 RMK AO2 SLP206 T01210082 $,2024-08-10T03:55:00Z,12.1,8.2,10+,30.12
KRCA,44.155,-103.118,180,5,5.75,KRCA 100355Z AUTO 18005KT 10SM CLR 16/09 A3017 RMK AO2 SLP206 T01600094,2024-08-10T03:55:00Z,16,9.4,10+,30.17
KQTZ,-99.99,-99.99,290,6,6.9,KQTZ 100355Z 29006KT 9999 SKC 33/14 A2958 RMK SLP017,2024-08-10T03:55:00Z,33,14,6+,29.58
KQRH,-99.99,-99.99,240,3,3.45,KQRH 100355Z AUTO 24003KT 9999 FEW190 33/21 A2969 RMK AO2 SHRAE02 SLP057 WND DATA ESTMD T03260211,2024-08-10T03:55:00Z,32.6,21.1,6+,29.69
KQHY,-99.99,-99.99,310,10,11.51,KQHY 100355Z AUTO 31010G19KT 10SM VCTS -RA BKN045 BKN065 BKN080 OVC100 27/25 A2994 RMK AO2 RAB39 SLP146 P0001 T02700248,2024-08-10T03:55:00Z,27,24.8,10+,29.94
KQDG,-99.99,-99.99,100,8,9.21,KQDG 100355Z AUTO 10008KT 9999 SCT017 OVC042 27/23 A2966 RMK AO2 SLP046 T02680234 PWINO $,2024-08-10T03:55:00Z,26.8,23.4,6+,29.66
KQD3,-99.99,-99.99,270,7,8.06,KQD3 100355Z 27007KT 9999 SCT140 BKN190 32/21 A2980 RMK AO2A SLP083 WND DATA ESTMD T03170214,2024-08-10T03:55:00Z,31.7,21.4,6+,29.80
KQBR,-99.99,-99.99,VRB,6,6.9,KQBR 100355Z AUTO VRB06KT 10SM FEW140 BKN230 27/07 A3004 RMK AO2 SLP039 WND DATA ESTMD T02740071,2024-08-10T03:55:00Z,27.4,7.1,10+,30.04
KPSM,43.0677,-70.8127,180,9,10.36,KPSM 100355Z 18009G17KT 7SM -RA FEW012 BKN020 OVC028 26/23 A2979 RMK AO2A SLP090 P0002 T02550233,2024-08-10T03:55:00Z,25.5,23.3,7,29.79
KPOE,31.047,-93.194,20,3,3.45,KPOE 100355Z AUTO 02003KT 10SM CLR 28/22 A3003 RMK AO2 SLP168 T02790219,2024-08-10T03:55:00Z,27.9,21.9,10+,30.03
KPOB,35.175,-79.008,0,0,0.0,KPOB 100355Z AUTO 00000KT 10SM CLR 26/24 A2993 RMK AO2 SLP136 T02640240 $,2024-08-10T03:55:00Z,26.4,24,10+,29.93
KPHP,44.051,-101.601,100,4,4.6,KPHP 100355Z AUTO 10004KT 10SM SCT080 SCT090 20/06 A3020 RMK AO2 SLPNO T02000056,2024-08-10T03:55:00Z,20,5.6,10+,30.20
KPAM,30.071,-85.577,0,0,0.0,KPAM 100355Z 00000KT 10SM CLR 30/26 A2993 RMK A02A SLP138 T03000257,2024-08-10T03:55:00Z,30,25.7,10+,29.93
KP58,44.0217,-82.7929,260,5,5.75,KP58 100355Z AUTO 26005KT 18/12 A2990 RMK AO1 SLP118 T01780117,2024-08-10T03:55:00Z,17.8,11.7,,29.90
KOZR,31.2767,-85.7105,140,3,3.45,KOZR 100355Z AUTO 14003KT 10SM FEW049 27/25 A2993 RMK AO2 LTG DSNT SW SLP134 T02740252 $,2024-08-10T03:55:00Z,27.4,25.2,10+,29.93
KOFF,41.122,-95.91,0,0,0.0,KOFF 100355Z AUTO 00000KT 10SM CLR 15/10 A3020 RMK AO2 SLP229 T01540100 $,2024-08-10T03:55:00Z,15.4,10,10+,30.20
KNTD,34.124,-119.123,290,5,5.75,KNTD 100355Z 29005KT 8SM SCT006 16/14 A2986 RMK AO2 SLP111 T01560144 $,2024-08-10T03:55:00Z,15.6,14.4,8,29.86
KNBG,29.837,-90.024,30,4,4.6,KNBG 100355Z 03004KT 10SM CLR 29/21 A2997 RMK AO2 SLP148 T02940211 $,2024-08-10T03:55:00Z,29.4,21.1,10+,29.97
KMXF,32.3877,-86.3724,350,6,6.9,KMXF 100355Z AUTO 35006KT 10SM CLR 28/22 A2993 RMK AO2 SLP135 T02830220,2024-08-10T03:55:00Z,28.3,22,10+,29.93
KMUO,43.03,-115.859,30,4,4.6,KMUO 100355Z AUTO 03004KT 9SM CLR 27/02 A2985 RMK AO2 SLP075 T02730016 $,2024-08-10T03:55:00Z,27.3,1.6,9,29.85
KMUI,40.4381,-76.5643,270,6,6.9,KMUI 100355Z AUTO 27006KT 10SM CLR 25/19 A2987 RMK AO2 SLP114 T02500187,2024-08-10T03:55:00Z,25,18.7,10+,29.87
KMTC,42.6045,-82.8353,280,7,8.06,KMTC 100355Z AUTO 28007KT 10SM CLR 19/12 A2992 RMK AO2 SLP134 T01930118 $,2024-08-10T03:55:00Z,19.3,11.8,10+,29.92
KMMT,33.922,-80.802,0,0,0.0,KMMT 100355Z AUTO 00000KT 10SM SCT047 SCT090 26/25 A2991 RMK AO2 SLP129 T02630247 $,2024-08-10T03:55:00Z,26.3,24.7,10+,29.91
KMKG,43.1711,-86.2368,280,10,11.51,KMKG 100355Z AUTO 28010KT 10SM SCT038 BKN050 BKN080 19/11 A2999 RMK AO2 SLP152 T01890106,2024-08-10T03:55:00Z,18.9,10.6,10+,29.99
KMIB,48.4062,-101.341,0,0,0.0,KMIB 100355Z 00000KT 10SM FEW085 17/11 A3014 RMK AO2A SLP211 T01740105,2024-08-10T03:55:00Z,17.4,10.5,10+,30.14
KMGE,33.9189,-84.5266,320,7,8.06,KMGE 100355Z AUTO 32007KT 10SM CLR 28/20 A2997 RMK AO2 SLP134 T02760199 $,2024-08-10T03:55:00Z,27.6,19.9,10+,29.97
KMCF,27.8598,-82.5133,220,9,10.36,KMCF 100355Z AUTO 22009KT 10SM CLR 30/26 A3000 RMK AO2 SLP162 T02980259 FZRANO $,2024-08-10T03:55:00Z,29.8,25.9,10+,30.00
KLUF,33.538,-112.38,100,4,4.6,KLUF 100355Z AUTO 10004KT 10SM CLR 39/12 A2977 RMK AO2 SLP063 T03860123 $,2024-08-10T03:55:00Z,38.6,12.3,10+,29.77
KLTS,34.666,-99.27,50,9,10.36,KLTS 100355Z 05009KT 10SM SCT160 24/14 A3013 RMK AO2A SLP189 T02430138 $,2024-08-10T03:55:00Z,24.3,13.8,10+,30.13
KLSV,36.236,-115.034,120,3,3.45,KLSV 100355Z AUTO 12003KT 10SM CLR 37/11 A2979 RMK AO2 SLP056 T03720105 $,2024-08-10T03:55:00Z,37.2,10.5,10+,29.79
KLSF,32.3239,-84.9826,0,0,0.0,KLSF 100355Z AUTO 00000KT 10SM SCT055 OVC120 26/25 A2992 RMK AO2 DZB0258E14 SLP134 P0000 T02600249 RVRNO FZRANO VISNO RWY33 $,2024-08-10T03:55:00Z,26,24.9,10+,29.92
KLRF,34.92,-92.131,0,0,0.0,KLRF 100355Z AUTO 00000KT 10SM CLR 22/19 A3005 RMK AO2 SLP175 T02220192 $,2024-08-10T03:55:00Z,22.2,19.2,10+,30.05
KLOR,31.36,-85.749,40,3,3.45,KLOR 100355Z AUTO 04003KT 9SM FEW049 SCT060 BKN080 OVC110 27/26 A2993 RMK AO2 LTG DSNT SW RAB20E45 SLP116 P0000 T02710255 $,2024-08-10T03:55:00Z,27.1,25.5,9,29.93
KLLJ,44.523,-114.216,0,0,0.0,KLLJ 100355Z AUTO 00000KT 10SM CLR 17/08 A3009 RMK AO2 SLP137 T01720083,2024-08-10T03:55:00Z,17.2,8.3,10+,30.09
KLIC,39.2733,-103.667,130,9,10.36,KLIC 100355Z AUTO 13009KT 4SM BR OVC003 13/12 A3031 RMK AO2 SLP219 T01330122,2024-08-10T03:55:00Z,13.3,12.2,4,30.31
KLHW,31.8872,-81.5625,0,0,0.0,KLHW 100355Z AUTO 00000KT 10SM FEW055 27/25 A2992 RMK AO2 SLP134 T02660246 $,2024-08-10T03:55:00Z,26.6,24.6,10+,29.92
KLGF,32.868,-114.393,0,0,0.0,KLGF 100355Z AUTO 00000KT 10SM CLR 36/16 A2972 RMK AO2 SLP059 T03570164 $,2024-08-10T03:55:00Z,35.7,16.4,10+,29.72
KLFI,37.088,-76.349,190,8,9.21,KLFI 100355Z AUTO 19008KT 9SM OVC008 26/24 A2991 RMK AO2 SLP135 T02620244 $,2024-08-10T03:55:00Z,26.2,24.4,9,29.91
KLCK,39.83,-82.919,300,6,6.9,KLCK 100355Z AUTO 30006KT 10SM CLR 21/15 A3001 RMK AO2 T02100147,2024-08-10T03:55:00Z,21,14.7,10+,30.01
KIRK,40.0966,-92.5469,0,0,0.0,KIRK 100355Z AUTO 00000KT 10SM CLR 12/11 A3019 RMK AO2 SLP224 T01220111,2024-08-10T03:55:00Z,12.2,11.1,10+,30.19
KINS,36.586,-115.69,110,9,10.36,KINS 100355Z AUTO 11009KT 10SM SCT110 35/12 A2990 RMK AO2 SLP062 T03510115,2024-08-10T03:55:00Z,35.1,11.5,10+,29.90
KIAB,37.622,-97.268,40,8,9.21,KIAB 100355Z AUTO 04008KT 10SM BKN190 OVC220 18/11 A3022 RMK AO2 SLP229 T01760112,2024-08-10T03:55:00Z,17.6,11.2,10+,30.22
KHUA,34.676,-86.6854,20,5,5.75,KHUA 100355Z AUTO 02005KT 10SM CLR 25/19 A3001 RMK AO2 SLPNO T02450189 $,2024-08-10T03:55:00Z,24.5,18.9,10+,30.01
KHST,25.49,-80.379,0,0,0.0,KHST 100355Z AUTO 00000KT 10SM SCT220 26/24 A3004 RMK AO2 SLP176 T02630241,2024-08-10T03:55:00Z,26.3,24.1,10+,30.04
KHOP,36.672,-87.495,320,4,4.6,KHOP 100355Z AUTO 32004KT 10SM CLR 20/15 A3007 RMK AO2 SLP179 T02030153 PWINO $,2024-08-10T03:55:00Z,20.3,15.3,10+,30.07
KHON,44.3792,-98.2227,0,0,0.0,KHON 100355Z AUTO 00000KT 10SM CLR 12/09 A3019 RMK AO2 SLP224 T01170089,2024-08-10T03:55:00Z,11.7,8.9,10+,30.19
KHMN,32.852,-106.108,30,3,3.45,KHMN 100355Z AUTO 03003KT 10SM CLR 28/12 A3015 RMK AO2 SLP125 T02750123 $,2024-08-10T03:55:00Z,27.5,12.3,10+,30.15
KHLR,31.1361,-97.7149,40,4,4.6,KHLR 100355Z AUTO 04004KT 10SM CLR 27/21 A3007 RMK AO2 SLP170 T02680213,2024-08-10T03:55:00Z,26.8,21.3,10+,30.07
KHIF,41.111,-111.962,100,13,14.96,KHIF 100355Z AUTO 10013G20KT 10SM BKN130 BKN210 25/07 A3003 RMK AO2 SLP097 T02450072,2024-08-10T03:55:00Z,24.5,7.2,10+,30.03
KHEY,31.348,-85.655,10,3,3.45,KHEY 100355Z AUTO 01003KT 10SM SCT047 BKN055 BKN080 BKN090 28/26 A2990 RMK AO2 SLP123 T02810257 $,2024-08-10T03:55:00Z,28.1,25.7,10+,29.90
KGXF,32.885,-112.721,30,4,4.6,KGXF 100355Z AUTO 03004KT 10SM CLR 38/17 A2976 RMK AO2 SLP061 T03770171 FZRANO $,2024-08-10T03:55:00Z,37.7,17.1,10+,29.76
KGXA,34.565,-117.669,270,10,11.51,KGXA 100355Z AUTO 27010KT 230V290 10SM CLR 31/08 A2992 RMK AO2 SLP090 WND DATA ESTMD T03120081,2024-08-10T03:55:00Z,31.2,8.1,10+,29.92
KGUS,40.6375,-86.1631,270,6,6.9,KGUS 100355Z AUTO 27006KT 10SM CLR 15/12 A3005 RMK AO2 SLP176 T01500123,2024-08-10T03:55:00Z,15,12.3,10+,30.05
KGUR,42.261,-104.732,110,8,9.21,KGUR 100355Z AUTO 11008KT 10SM OVC007 15/14 A3024 RMK AO2 LTG DSNT S SLP239 T01480135,2024-08-10T03:55:00Z,14.8,13.5,10+,30.24
KGTB,44.0617,-75.7218,270,9,10.36,KGTB 100355Z AUTO 27009KT 10SM CLR 22/20 A2977 RMK AO2 SLP077 T02160202,2024-08-10T03:55:00Z,21.6,20.2,10+,29.77
KGRK,31.0779,-97.8323,80,3,3.45,KGRK 100355Z AUTO 08003KT 10SM CLR 27/23 A3008 RMK AO2 SLP171 T02670225,2024-08-10T03:55:00Z,26.7,22.5,10+,30.08
KGRF,47.079,-122.58,270,10,11.51,KGRF 100355Z AUTO 27010KT 10SM CLR 23/14 A2992 RMK AO2 SLP134 T02330135 $,2024-08-10T03:55:00Z,23.3,13.5,10+,29.92
KGPI,48.3041,-114.264,20,6,6.9,KGPI 100355Z 02006KT 10SM CLR 19/M01 A3004 RMK AO2 SLP159 T01941011,2024-08-10T03:55:00Z,19.4,-1.1,10+,30.04
KGOV,44.681,-84.727,280,7,8.06,KGOV 100355Z AUTO 28007KT 10SM FEW033 15/12 A2989 RMK AO2 SLP125 T01500121 402310097 $,2024-08-10T03:55:00Z,15,12.1,10+,29.89
KGFA,47.505,-111.187,40,9,10.36,KGFA 100355Z AUTO 04009KT 10SM CLR 18/06 A3010 RMK AO2 SLP185 T01790064 $,2024-08-10T03:55:00Z,17.9,6.4,10+,30.10
KFTK,37.907,-85.973,310,6,6.9,KFTK 100355Z AUTO 31006KT 10SM CLR 20/16 A3005 RMK AO2 SLP172 T01990157 $,2024-08-10T03:55:00Z,19.9,15.7,10+,30.05
KFRI,39.0568,-96.7617,220,4,4.6,KFRI 100355Z AUTO 22004KT 10SM CLR 17/14 A3023 RMK AO2 SLP232 T01710138 PNO $,2024-08-10T03:55:00Z,17.1,13.8,10+,30.23
KFFO,39.837,-84.035,320,5,5.75,KFFO 100355Z AUTO 32005KT 10SM CLR 20/13 A3003 RMK AO2 SLP166 T01980130,2024-08-10T03:55:00Z,19.8,13,10+,30.03
KFCS,38.6756,-104.751,0,0,0.0,KFCS 100355Z 00000KT 10SM SCT100 OVC130 15/13 A3027 RMK AO2A RAE30 SLP223 T01510133 $,2024-08-10T03:55:00Z,15.1,13.3,10+,30.27
KFBG,35.131,-78.932,0,0,0.0,KFBG 100355Z 00000KT 9SM CLR 26/25 A2992 RMK AO2A SLP132 T02610245 $,2024-08-10T03:55:00Z,26.1,24.5,9,29.92
KEND,36.338,-97.919,40,10,11.51,KEND 100355Z AUTO 04010KT 10SM SCT100 OVC130 22/10 A3017 RMK AO2 SLP208 T02170099 $,2024-08-10T03:55:00Z,21.7,9.9,10+,30.17
KEGI,30.653,-86.525,290,4,4.6,KEGI 100355Z AUTO 29004KT 10SM SCT041 SCT050 BKN070 OVC090 28/25 A2994 RMK AO2 LTG DSNT S SLP137 T02770247 $,2024-08-10T03:55:00Z,27.7,24.7,10+,29.94
KEDW,34.908,-117.874,240,10,11.51,KEDW 100355Z 24010KT 40SM CLR 33/M01 A2987 RMK AO2A SLP084 T03331012,2024-08-10T03:55:00Z,33.3,-1.2,40,29.87
KEAT,47.3975,-120.201,300,14,16.11,KEAT 100355Z AUTO 30014G23KT 10SM FEW070 FEW095 BKN110 24/11 A2996 RMK AO2 RAB32E48 SLP136 P0000 T02440106,2024-08-10T03:55:00Z,24.4,10.6,10+,29.96
KDYS,32.406,-99.85,120,9,10.36,KDYS 100355Z AUTO 12009KT 10SM CLR 29/21 A3010 RMK AO2 SLP162 T02920209 $,2024-08-10T03:55:00Z,29.2,20.9,10+,30.10
KDOV,39.13,-75.465,210,8,9.21,KDOV 100355Z AUTO 21008KT 10SM BKN090 25/24 A2986 RMK AO2 SLP115 T02540238,2024-08-10T03:55:00Z,25.4,23.8,10+,29.86
KDMA,32.165,-110.887,120,15,17.26,KDMA 100355Z AUTO 12015KT 10SM BKN140 OVC160 32/12 A2992 RMK AO2 LTG DSNT SW-W SLP084 T03220124 $,2024-08-10T03:55:00Z,32.2,12.4,10+,29.92
KDLF,29.3666,-100.785,90,9,10.36,KDLF 100355Z AUTO 09009KT 10SM CLR 33/16 A2997 RMK AO2 SLP133 T03280162 $,2024-08-10T03:55:00Z,32.8,16.2,10+,29.97
KDAA,38.714,-77.178,0,0,0.0,KDAA 100355Z AUTO 00000KT 7SM FEW090 25/24 A2988 RMK AO2 SLP121 T02460239 $,2024-08-10T03:55:00Z,24.6,23.9,7,29.88
KCWN,38.748,-104.847,300,6,6.9,KCWN 100355Z AUTO 30006KT 10SM SCT110 OVC140 15/11 A3033 RMK AO2 SLP119 T01470109 $,2024-08-10T03:55:00Z,14.7,10.9,10+,30.33
KCVS,34.381,-103.322,120,8,9.21,KCVS 100355Z 12008KT 10SM SCT200 24/16 A3021 RMK AO2A LTG DSNT W SLP169 T02430155 $,2024-08-10T03:55:00Z,24.3,15.5,10+,30.21
KCOF,28.242,-80.608,200,10,11.51,KCOF 100355Z AUTO 20010KT 10SM BKN100 27/24 A3000 RMK AO2 SLP163 T02710235 $,2024-08-10T03:55:00Z,27.1,23.5,10+,30.00
KCNW,31.637,-97.071,360,3,3.45,KCNW 100355Z 36003KT 10SM SKC 26/23 A3006,2024-08-10T03:55:00Z,26,23,10+,30.06
KCMY,43.9581,-90.7398,0,0,0.0,KCMY 100355Z AUTO 00000KT 10SM FEW048 OVC070 11/11 A3005 RMK AO2 SLP181 T01100108,2024-08-10T03:55:00Z,11,10.8,10+,30.05
KCMA,34.2114,-119.088,290,3,3.45,KCMA 100355Z AUTO 29003KT 9SM CLR 19/15 A2985 RMK AO2 SLP115 T01940150 $,2024-08-10T03:55:00Z,19.4,15,9,29.85
KCBM,33.6519,-88.4567,340,5,5.75,KCBM 100355Z AUTO 34005KT 10SM CLR 25/21 A2998 RMK AO2 SLP152 T02520206 $,2024-08-10T03:55:00Z,25.2,20.6,10+,29.98
KBYS,35.271,-116.634,90,10,11.51,KBYS 100355Z AUTO 09010KT 10SM CLR 37/12 A2982 RMK AO2 SLP061 T03700124 $,2024-08-10T03:55:00Z,37,12.4,10+,29.82
KBLV,38.54,-89.845,350,5,5.75,KBLV 100355Z AUTO 35005KT 10SM CLR 18/14 A3013 RMK AO2 SLP204 T01840141 $,2024-08-10T03:55:00Z,18.4,14.1,10+,30.13
KBKT,37.082,-77.953,210,4,4.6,KBKT 100355Z AUTO 21004KT 9SM FEW090 23/23 A2991 RMK AO2 LTG DSNT E SLP128 T02340227 $,2024-08-10T03:55:00Z,23.4,22.7,9,29.91
KBIX,30.415,-88.922,20,4,4.6,KBIX 100355Z AUTO 02004KT 10SM CLR 29/21 A2994 RMK AO2 SLP141 T02940208,2024-08-10T03:55:00Z,29.4,20.8,10+,29.94
KBIF,31.861,-106.369,120,14,16.11,KBIF 100355Z AUTO 12014KT 10SM FEW130 32/10 A3006 RMK AO2 SLP102 T03210096 $,2024-08-10T03:55:00Z,32.1,9.6,10+,30.06
KBAD,32.488,-93.658,0,0,0.0,KBAD 100355Z AUTO 00000KT 10SM CLR 27/21 A3005 RMK AO2 SLP178 T02680211,2024-08-10T03:55:00Z,26.8,21.1,10+,30.05
KBAB,39.145,-121.436,170,8,9.21,KBAB 100355Z AUTO 17008KT 10SM CLR 28/07 A2978 RMK AO2 SLP087 T02800067 $,2024-08-10T03:55:00Z,28,6.7,10+,29.78
KANJ,46.48,-84.3581,230,9,10.36,KANJ 100355Z AUTO 23009KT 10SM SCT044 BKN080 OVC090 14/13 A2982 RMK AO2 SLP095 T01440133,2024-08-10T03:55:00Z,14.4,13.3,10+,29.82
KADW,38.8215,-76.8654,220,5,5.75,KADW 100355Z AUTO 22005KT 10SM CLR 25/24 A2988 RMK AO2 SLP123 T02510237 $,2024-08-10T03:55:00Z,25.1,23.7,10+,29.88
K9L2,34.996,-117.857,250,7,8.06,K9L2 100355Z AUTO 25007KT 9SM CLR 33/03 A2987 RMK AO2 SLP085 T03270027 $,2024-08-10T03:55:00Z,32.7,2.7,9,29.87
K1OW,40.885,-103.999,90,9,10.36,K1OW 100355Z AUTO 09009KT 10SM BKN013 OVC120 12/11 A3039 RMK AO2 LTG DSNT W RAB08E17DZB17E20 SLP262 T01160113 PNO $,2024-08-10T03:55:00Z,11.6,11.3,10+,30.39
K1ON,48.82,-101.28,60,3,3.45,K1ON 100355Z AUTO 06003KT 10SM OVC080 13/12 A3017 RMK AO2 SLP224 T01340120 $,2024-08-10T03:55:00Z,13.4,12,10+,30.17
K1NW,40.632,-103.836,150,11,12.66,K1NW 100355Z AUTO 15011KT 10SM BKN015 OVC090 13/11 A3024 RMK AO2 BKN V OVC SLP211 T01340113 $,2024-08-10T03:55:00Z,13.4,11.3,10+,30.24
K1NN,48.76,-101.59,0,0,0.0,K1NN 100355Z AUTO 00000KT 10SM SCT075 SCT100 13/12 M RMK AO2 SLPNO T01330120 $,2024-08-10T03:55:00Z,13.3,12,10+,
K1MN,48.67,-101.88,300,3,3.45,K1MN 100355Z AUTO 30003KT M M BKN060 BKN095 15/12 A3016 RMK AO2 SLP219 T01470115 RVRNO PWINO TSNO $,2024-08-10T03:55:00Z,14.7,11.5,,30.16
K1MM,47.014,-109.63,120,7,8.06,K1MM 100355Z AUTO 12007KT 10SM SCT140 12/04 A3015 RMK AO2 SLP201 T01240044 $,2024-08-10T03:55:00Z,12.4,4.4,10+,30.15
K1LN,48.79,-102.27,240,5,5.75,K1LN 100355Z AUTO 24005KT 10SM CLR 11/08 A3018 RMK AO2 SLP229 T01050084 $,2024-08-10T03:55:00Z,10.5,8.4,10+,30.18
K1LM,46.694,-109.74,120,11,12.66,K1LM 100355Z AUTO 12011KT 10SM SCT210 14/06 A3018 RMK AO2 SLP198 T01420058 $,2024-08-10T03:55:00Z,14.2,5.8,10+,30.18
K1KN,48.55,-102.12,260,5,5.75,K1KN 100355Z AUTO 26005KT 10SM SCT090 12/10 A3018 RMK AO2 SLP226 T01190095 $,2024-08-10T03:55:00Z,11.9,9.5,10+,30.18
K1JW,40.961,-103.199,130,7,8.06,K1JW 100355Z AUTO 13007KT 10SM OVC019 13/12 A3025 RMK AO2 SLP219 T01280119 $,2024-08-10T03:55:00Z,12.8,11.9,10+,30.25
K1JN,48.41,-101.89,260,5,5.75,K1JN 100355Z AUTO 26005KT 10SM FEW060 BKN090 13/11 A3018 RMK AO2 SLP227 T01340106 $,2024-08-10T03:55:00Z,13.4,10.6,10+,30.18
K1IW,41.046,-102.865,130,9,10.36,K1IW 100355Z AUTO 13009KT 10SM OVC028 14/13 A3025 RMK AO2 SLP221 T01380127 $,2024-08-10T03:55:00Z,13.8,12.7,10+,30.25
K1IN,48.34,-102.3,260,3,3.45,K1IN 100355Z AUTO 26003KT 10SM FEW065 15/09 A3017 RMK AO2 SLP220 T01450089 $,2024-08-10T03:55:00Z,14.5,8.9,10+,30.17
K1HN,47.97,-102.22,0,0,0.0,K1HN 100355Z AUTO 00000KT 10SM CLR 08/07 A3017 RMK AO2 SLP226 T00820067 $,2024-08-10T03:55:00Z,8.2,6.7,10+,30.17
K1GW,41.208,-103.097,140,8,9.21,K1GW 100355Z AUTO 14008KT 10SM BKN008 BKN021 OVC031 13/12 A3026 RMK AO2 SLP226 T01310120 $,2024-08-10T03:55:00Z,13.1,12,10+,30.26
K1GN,48.12,-101.96,250,5,5.75,K1GN 100355Z AUTO 25005KT 10SM FEW090 11/08 A3016 RMK AO2 SLP221 T01130082 $,2024-08-10T03:55:00Z,11.3,8.2,10+,30.16
K1FW,41.364,-103.489,140,8,9.21,K1FW 100355Z AUTO 14008KT 7SM BKN006 13/12 A3027 RMK AO2 BKN V SCT SLP222 T01250119 $,2024-08-10T03:55:00Z,12.5,11.9,7,30.27
K1EW,41.103,-103.983,130,8,9.21,K1EW 100355Z AUTO 13008KT 10SM FEW013 BKN022 12/11 A3026 RMK AO2 LTG DSNT W CIG 020V220 SLP219 T01220113 $,2024-08-10T03:55:00Z,12.2,11.3,10+,30.26
K1EN,47.75,-101.67,240,4,4.6,K1EN 100355Z AUTO 24004KT 10SM CLR 10/06 M RMK AO2 SLPNO T01010064 $,2024-08-10T03:55:00Z,10.1,6.4,10+,
K1EM,47.454,-109.416,90,10,11.51,K1EM 100355Z AUTO 09010KT 10SM BKN095 16/05 A3014 RMK AO2 SLP194 T01620046 $,2024-08-10T03:55:00Z,16.2,4.6,10+,30.14
K1DW,41.361,-103.794,150,7,8.06,K1DW 100355Z AUTO 15007KT 7SM SCT007 BKN011 OVC032 13/13 A3031 RMK AO2 CIG 007V011 BKN V OVC SLP237 T01340128 $,2024-08-10T03:55:00Z,13.4,12.8,7,30.31
K1DN,47.8,-101.3,0,0,0.0,K1DN 100355Z AUTO 00000KT 10SM FEW060 OVC080 14/09 A3016 RMK AO2 SLP218 T01380094 $,2024-08-10T03:55:00Z,13.8,9.4,10+,30.16
K1CW,41.581,-103.573,140,4,4.6,K1CW 100355Z AUTO 14004KT 10SM OVC012 14/12 A3028 RMK AO2 SLP231 T01400124 $,2024-08-10T03:55:00Z,14,12.4,10+,30.28
K1BM,47.285,-110.359,110,9,10.36,K1BM 100355Z AUTO 11009KT 10SM FEW090 17/05 A3014 RMK AO2 SLP190 T01680054 $,2024-08-10T03:55:00Z,16.8,5.4,10+,30.14
K1AW,41.329,-104.265,120,5,5.75,K1AW 100355Z AUTO 12005KT 5SM BR OVC003 13/12 A3031 RMK AO2 LTG DSNT W SLP229 T01250120 $,2024-08-10T03:55:00Z,12.5,12,5,30.31
K1AM,47.281,-110.801,90,12,13.81,K1AM 100355Z AUTO 09012KT 10SM CLR 19/06 A3011 RMK AO2 SLP177 T01890057 $,2024-08-10T03:55:00Z,18.9,5.7,10+,30.11
FJDG,-7.313,72.411,170,15,17.26,FJDG 100355Z 17015G22KT 9999 FEW020 SCT080 BKN220 29/24 A2994 RMK SLP132 T02890244,2024-08-10T03:55:00Z,28.9,24.4,6+,29.94
ETOU,50.048,8.329,0,0,0.0,ETOU 100355Z AUTO 00000KT 9999 BKN070 17/15 A3011 RMK AO2 SLP197 T01690147,2024-08-10T03:55:00Z,16.9,14.7,6+,30.11
ETIK,49.472,10.39,0,0,0.0,ETIK 100355Z AUTO 00000KT 9999 CLR 16/15 A3014 RMK AO2 SLP204 T01630152,2024-08-10T03:55:00Z,16.3,15.2,6+,30.14
ETIH,49.216,11.839,290,3,3.45,ETIH 100355Z AUTO 29003KT 9999 CLR 15/13 A3016 RMK AO2 SLP209 T01510133,2024-08-10T03:55:00Z,15.1,13.3,6+,30.16
ETIC,49.696,11.941,0,0,0.0,ETIC 100355Z AUTO 00000KT 9999 SCT032 SCT070 14/13 A3013 RMK AO2 SLP201 T01440133 $,2024-08-10T03:55:00Z,14.4,13.3,6+,30.13
ETEB,49.308,10.639,0,0,0.0,ETEB 100355Z AUTO 00000KT 9999 CLR 17/14 A3015 RMK AO2 SLP216 T01660141 $,2024-08-10T03:55:00Z,16.6,14.1,6+,30.15
ETAD,49.979,6.698,250,4,4.6,ETAD 100355Z AUTO 25004KT 9999 CLR 16/15 A3012 RMK AO2 SLP186 T01620152,2024-08-10T03:55:00Z,16.2,15.2,6+,30.12
EGVA,51.682,-1.79,230,9,10.36,EGVA 100355Z AUTO 23009KT 9999 BKN049 OVC060 15/13 A3003 RMK AO2 SLP172 T01470126 $,2024-08-10T03:55:00Z,14.7,12.6,6+,30.03
EGUN,52.362,0.486,220,7,8.06,EGUN 100355Z 22007KT 9999 BKN095 BKN180 15/12 A3004 RMK AO2A SLP176 T01490122 $,2024-08-10T03:55:00Z,14.9,12.2,6+,30.04
EGUL,52.409,0.561,230,5,5.75,EGUL 100355Z AUTO 23005KT 9999 SCT095 14/10 A3004 RMK AO2 SLP176 T01360104 FZRANO $,2024-08-10T03:55:00Z,13.6,10.4,6+,30.04
BGTL,76.527,-68.758,70,11,12.66,BGTL 100355Z AUTO 07011G19KT 9999 CLR 07/M05 A2954 RMK AO2 SLP985 T00701047 401180042 TSNO $,2024-08-10T03:55:00Z,7,-4.7,6+,29.54
PHOG,20.8887,-156.435,20,21,24.17,PHOG 100354Z 02021KT 10SM FEW035 SCT050 26/21 A2994 RMK AO2 PK WND 03027/0256 SLP142 T02560211,2024-08-10T03:54:00Z,25.6,21.1,10+,29.94
PHMK,21.1545,-157.096,50,11,12.66,PHMK 100354Z 05011G20KT 10SM CLR 27/19 A2996 RMK AO2 PK WND 03027/0257 SLP146 T02720189,2024-08-10T03:54:00Z,27.2,18.9,10+,29.96
PGUM,13.4796,144.796,0,0,0.0,PGUM 100354Z 00000KT 10SM SCT030 31/24 A2979 RMK AO2 SLP078 T03060239,2024-08-10T03:54:00Z,30.6,23.9,10+,29.79
PGSN,15.116,145.72,150,8,9.21,PGSN 100354Z 15008KT 10SM SCT023 32/24 A2977 RMK AO2 SLP102 T03220244 $,2024-08-10T03:54:00Z,32.2,24.4,10+,29.77
PAKN,58.683,-156.656,190,9,10.36,PAKN 100354Z 19009KT 10SM BKN034 BKN044 OVC055 10/08 A2999 RMK AO2 SLP154 T01000083,2024-08-10T03:54:00Z,10,8.3,10+,29.99
PAHN,59.243,-135.511,130,9,10.36,PAHN 100354Z AUTO 13009KT 10SM OVC012 17/15 A2997 RMK AO2 SLP149 T01720150,2024-08-10T03:54:00Z,17.2,15,10+,29.97
KWLD,37.1649,-97.035,20,5,5.75,KWLD 100354Z AUTO 02005KT 10SM CLR 19/11 A3024 RMK AO2 SLP231 T01890111,2024-08-10T03:54:00Z,18.9,11.1,10+,30.24
KWAL,37.9372,-75.4662,200,8,9.21,KWAL 100354Z AUTO 20008KT 3SM RA BR BKN048 BKN085 BKN120 23/22 A2993 RMK AO2 LTG DSNT W RAB34 SLP133 P0004 T02280222,2024-08-10T03:54:00Z,22.8,22.2,3,29.93
KVTA,40.0263,-82.4635,300,4,4.6,KVTA 100354Z AUTO 30004KT 10SM CLR 19/15 A3000 RMK AO2 SLP153 T01890150,2024-08-10T03:54:00Z,18.9,15,10+,30.00
KVAY,39.9408,-74.8407,VRB,5,5.75,KVAY 100354Z AUTO VRB05KT 10SM FEW009 BKN070 OVC080 25/24 A2985 RMK AO2 SLP108 T02500239,2024-08-10T03:54:00Z,25,23.9,10+,29.85
KUZA,34.9836,-81.0562,0,0,0.0,KUZA 100354Z AUTO 00000KT 10SM CLR 24/24 A2996 RMK AO2 SLP129 T02390239,2024-08-10T03:54:00Z,23.9,23.9,10+,29.96
KUIN,39.9371,-91.1966,240,3,3.45,KUIN 100354Z AUTO 24003KT 10SM CLR 16/12 A3016 RMK AO2 SLP209 T01610122,2024-08-10T03:54:00Z,16.1,12.2,10+,30.16
KTQE,41.763,-96.1797,0,0,0.0,KTQE 100354Z AUTO 00000KT 10SM CLR 12/10 A3020 RMK AO2 SLP219 T01220100,2024-08-10T03:54:00Z,12.2,10,10+,30.20
KSYR,43.1111,-76.1038,270,7,8.06,KSYR 100354Z 27007KT 10SM FEW026 BKN042 23/21 A2983 RMK AO2 SLP097 T02330206 $,2024-08-10T03:54:00Z,23.3,20.6,10+,29.83
KSUS,38.6575,-90.6557,360,3,3.45,KSUS 100354Z AUTO 36003KT 10SM CLR 19/13 A3015 RMK AO2 SLP204 T01890133,2024-08-10T03:54:00Z,18.9,13.3,10+,30.15
KSLC,40.7707,-111.965,120,11,12.66,KSLC 100354Z 12011KT 10SM FEW110 FEW150 BKN190 BKN230 28/08 A3001 RMK AO2 SLP097 T02780078,2024-08-10T03:54:00Z,27.8,7.8,10+,30.01
KSET,38.9304,-90.4329,350,4,4.6,KSET 100354Z AUTO 35004KT 10SM CLR 18/13 A3015 RMK AO2 SLP205 T01780133,2024-08-10T03:54:00Z,17.8,13.3,10+,30.15
KSBN,41.7072,-86.3163,290,7,8.06,KSBN 100354Z AUTO 29007KT 10SM SCT060 18/12 A3005 RMK AO2 SLP172 T01780122,2024-08-10T03:54:00Z,17.8,12.2,10+,30.05
KRST,43.904,-92.4921,260,6,6.9,KRST 100354Z 26006KT 10SM CLR 11/09 A3011 RMK AO2 SLP199 T01110089,2024-08-10T03:54:00Z,11.1,8.9,10+,30.11
KRSP,39.646,-77.468,VRB,6,6.9,KRSP 100354Z AUTO VRB06KT 10SM CLR 21/18 A2997 RMK AO2 SLP142 T02060183 PWINO $,2024-08-10T03:54:00Z,20.6,18.3,10+,29.97
KROC,43.1172,-77.6754,280,9,10.36,KROC 100354Z 28009KT 10SM CLR 22/14 A2988 RMK AO2 SLP117 T02170144,2024-08-10T03:54:00Z,21.7,14.4,10+,29.88
KROA,37.3172,-79.9737,320,5,5.75,KROA 100354Z 32005KT 10SM CLR 23/19 A3000 RMK AO2 SLP145 T02280189,2024-08-10T03:54:00Z,22.8,18.9,10+,30.00
KRKS,41.5947,-109.053,70,8,9.21,KRKS 100354Z AUTO 07008KT 10SM SCT110 17/08 A3030 RMK AO2 SLP190 T01670078,2024-08-10T03:54:00Z,16.7,7.8,10+,30.30
KRIC,37.5115,-77.3234,130,4,4.6,KRIC 100354Z 13004KT 10SM BKN085 26/24 A2992 RMK AO2 SLP135 T02610244 $,2024-08-10T03:54:00Z,26.1,24.4,10+,29.92
KRFD,42.1915,-89.0876,0,0,0.0,KRFD 100354Z 00000KT 10SM FEW075 14/12 A3009 RMK AO2 SLP189 T01440117 $,2024-08-10T03:54:00Z,14.4,11.7,10+,30.09
KRDG,40.3734,-75.9593,260,4,4.6,KRDG 100354Z AUTO 26004KT 10SM OVC075 25/22 A2987 RMK AO2 SLP117 T02500217,2024-08-10T03:54:00Z,25,21.7,10+,29.87
KPTW,40.238,-75.5549,0,0,0.0,KPTW 100354Z AUTO 00000KT 10SM OVC075 24/23 A2989 RMK AO2 SLP115 T02440233,2024-08-10T03:54:00Z,24.4,23.3,10+,29.89
KPNE,40.0789,-75.0133,230,8,9.21,KPNE 100354Z AUTO 23008KT 10SM SCT008 SCT017 OVC090 26/24 A2986 RMK AO2 SLP110 T02560239,2024-08-10T03:54:00Z,25.6,23.9,10+,29.86
KPLN,45.5644,-84.7929,0,0,0.0,KPLN 100354Z AUTO 00000KT 10SM FEW033 FEW047 SCT080 14/13 A2987 RMK AO2 SLP114 T01440128,2024-08-10T03:54:00Z,14.4,12.8,10+,29.87
KPIA,40.6675,-89.6842,270,3,3.45,KPIA 100354Z 27003KT 10SM CLR 16/13 A3012 RMK AO2 SLP197 T01560128,2024-08-10T03:54:00Z,15.6,12.8,10+,30.12
KPHF,37.1322,-76.494,200,6,6.9,KPHF 100354Z 20006KT 10SM FEW075 25/24 A2992 RMK AO2 SLP132 T02500239,2024-08-10T03:54:00Z,25,23.9,10+,29.92
KOLS,31.4208,-110.847,100,6,6.9,KOLS 100354Z AUTO 10006KT 10SM BKN120 27/13 A3004 RMK AO2 SLP103 T02720128,2024-08-10T03:54:00Z,27.2,12.8,10+,30.04
KOLM,46.9737,-122.905,190,4,4.6,KOLM 100354Z AUTO 19004KT 10SM CLR 23/16 A2994 RMK AO2 SLP138 T02280156,2024-08-10T03:54:00Z,22.8,15.6,10+,29.94
KOFP,37.7093,-77.4349,0,0,0.0,KOFP 100354Z AUTO 00000KT 10SM OVC100 26/24 A2992 RMK AO2 SLP130 T02610244,2024-08-10T03:54:00Z,26.1,24.4,10+,29.92
KNAK,38.9913,-76.4891,0,0,0.0,KNAK 100354Z AUTO 00000KT 10SM CLR 26/24 A2989 RMK AO2 SLP122 T02560239 $,2024-08-10T03:54:00Z,25.6,23.9,10+,29.89
KN60,47.654,-101.436,0,0,0.0,KN60 100354Z AUTO 00000KT 12/07 A3019 RMK AO1 SLP223 T01170067,2024-08-10T03:54:00Z,11.7,6.7,,30.19
KMVL,44.5328,-72.6152,180,4,4.6,KMVL 100354Z AUTO 18004KT 10SM CLR 21/18 A2976 RMK AO2 SLP077 T02060183,2024-08-10T03:54:00Z,20.6,18.3,10+,29.76
KMOT,48.252,-101.269,180,3,3.45,KMOT 100354Z AUTO 18003KT 10SM BKN070 OVC090 17/09 A3016 RMK AO2 SLP214 T01720094,2024-08-10T03:54:00Z,17.2,9.4,10+,30.16
KMKC,39.1279,-94.5892,0,0,0.0,KMKC 100354Z 00000KT 10SM CLR 18/12 A3021 RMK AO2 SLP226 T01830122,2024-08-10T03:54:00Z,18.3,12.2,10+,30.21
KMGJ,41.509,-74.2645,230,6,6.9,KMGJ 100354Z AUTO 23006KT 8SM -RA FEW027 SCT034 OVC048 23/23 A2981 RMK AO2 SLP090 P0005 T02330228,2024-08-10T03:54:00Z,23.3,22.8,8,29.81
KMFI,44.6379,-90.1875,270,6,6.9,KMFI 100354Z AUTO 27006KT 10SM CLR 12/09 A3003 RMK AO2 SLP171 T01170094,2024-08-10T03:54:00Z,11.7,9.4,10+,30.03
KMEM,35.0564,-89.9864,50,6,6.9,KMEM 100354Z 05006KT 10SM CLR 25/16 A3007 RMK AO2 SLP178 T02500156,2024-08-10T03:54:00Z,25,15.6,10+,30.07
KLYH,37.3213,-79.2065,200,3,3.45,KLYH 100354Z AUTO 20003KT 7SM CLR 23/22 A2995 RMK AO2 SLP132 T02280222,2024-08-10T03:54:00Z,22.8,22.2,7,29.95
KLWT,47.0544,-109.457,130,7,8.06,KLWT 100354Z AUTO 13007KT 10SM CLR 15/04 A3019 RMK AO2 SLP197 T01500044,2024-08-10T03:54:00Z,15,4.4,10+,30.19
KLWM,42.7125,-71.1256,210,8,9.21,KLWM 100354Z AUTO 21008G18KT 10SM BKN016 OVC022 26/23 A2982 RMK AO2 PK WND 21026/0309 RAB05E49 SLP096 P0000 T02560233,2024-08-10T03:54:00Z,25.6,23.3,10+,29.82
KLNK,40.8478,-96.7647,0,0,0.0,KLNK 100354Z 00000KT 9SM FEW120 16/12 A3023 RMK AO2 SLP233 T01560122,2024-08-10T03:54:00Z,15.6,12.2,9,30.23
KLEX,38.0339,-84.6114,320,5,5.75,KLEX 100354Z 32005KT 10SM CLR 22/16 A3006 RMK AO2 SLP168 T02170161 $,2024-08-10T03:54:00Z,21.7,16.1,10+,30.06
KLAF,40.4124,-86.9474,270,4,4.6,KLAF 100354Z AUTO 27004KT 10SM CLR 15/12 A3008 RMK AO2 SLP183 T01500122,2024-08-10T03:54:00Z,15,12.2,10+,30.08
KJST,40.3149,-78.8307,290,5,5.75,KJST 100354Z AUTO 29005KT 10SM CLR 19/15 A3000 RMK AO2 SLP146 T01890150,2024-08-10T03:54:00Z,18.9,15,10+,30.00
KJAN,32.3198,-90.0778,360,6,6.9,KJAN 100354Z 36006KT 10SM CLR 27/20 A3002 RMK AO2 SLP161 T02670200,2024-08-10T03:54:00Z,26.7,20,10+,30.02
KISW,44.3591,-89.837,260,4,4.6,KISW 100354Z AUTO 26004KT 10SM FEW080 12/09 A3004 RMK AO2 SLP174 T01220089,2024-08-10T03:54:00Z,12.2,8.9,10+,30.04
KIPT,41.243,-76.9217,290,8,9.21,KIPT 100354Z AUTO 29008KT 10SM CLR 22/20 A2988 RMK AO2 SLP115 T02220200,2024-08-10T03:54:00Z,22.2,20,10+,29.88
KINT,36.1335,-80.2244,180,3,3.45,KINT 100354Z AUTO 18003KT 10SM OVC065 24/23 A3000 RMK AO2 LTG DSNT E AND SE RAE17 SLP145 P0005 T02440228,2024-08-10T03:54:00Z,24.4,22.8,10+,30.00
KINL,48.5594,-93.3955,290,5,5.75,KINL 100354Z AUTO 29005KT 10SM BKN042 BKN055 OVC070 13/09 A3004 RMK AO2 SLP176 T01330089,2024-08-10T03:54:00Z,13.3,8.9,10+,30.04
KIND,39.7252,-86.2816,300,7,8.06,KIND 100354Z 30007KT 10SM CLR 17/12 A3009 RMK AO2 SLP183 T01720122,2024-08-10T03:54:00Z,17.2,12.2,10+,30.09
KIMT,45.8134,-88.1129,280,8,9.21,KIMT 100354Z AUTO 28008KT 10SM BKN036 BKN044 OVC060 14/08 A2989 RMK AO2 SLP121 T01440078,2024-08-10T03:54:00Z,14.4,7.8,10+,29.89
KILN,39.4308,-83.777,320,6,6.9,KILN 100354Z AUTO 32006KT 10SM CLR 20/14 A3004 RMK AO2 SLP161 T02000144 $,2024-08-10T03:54:00Z,20,14.4,10+,30.04
KHWD,37.6589,-122.121,260,6,6.9,KHWD 100354Z 26006KT 10SM BKN008 16/12 A2995 RMK AO2 SLP151 T01560122,2024-08-10T03:54:00Z,15.6,12.2,10+,29.95
KGED,38.6898,-75.3625,210,6,6.9,KGED 100354Z AUTO 21006KT 10SM FEW007 SCT095 SCT120 24/24 A2990 RMK AO2 SLP123 T02440244,2024-08-10T03:54:00Z,24.4,24.4,10+,29.90
KGCN,35.9458,-112.155,0,0,0.0,KGCN 100354Z AUTO 00000KT 10SM CLR 17/16 A3029 RMK AO2 SLP159 T01720156,2024-08-10T03:54:00Z,17.2,15.6,10+,30.29
KGCK,37.9221,-100.723,90,8,9.21,KGCK 100354Z AUTO 09008KT 10SM BKN032 14/11 A3026 RMK AO2 SLP233 T01440111,2024-08-10T03:54:00Z,14.4,11.1,10+,30.26
KFZY,43.3504,-76.3831,270,7,8.06,KFZY 100354Z AUTO 27007KT 10SM CLR 21/19 A2983 RMK AO2 SLP098 T02110194 $,2024-08-10T03:54:00Z,21.1,19.4,10+,29.83
KFWA,40.9725,-85.2064,240,6,6.9,KFWA 100354Z 24006KT 10SM FEW045 FEW060 16/12 A3004 RMK AO2 SLP169 T01560122,2024-08-10T03:54:00Z,15.6,12.2,10+,30.04
KFIG,41.0465,-78.4112,0,0,0.0,KFIG 100354Z AUTO 00000KT 10SM CLR 18/17 A2997 RMK AO2 SLP142 T01830172,2024-08-10T03:54:00Z,18.3,17.2,10+,29.97
KEVV,38.0502,-87.5147,340,7,8.06,KEVV 100354Z AUTO 34007KT 10SM CLR 19/14 A3010 RMK AO2 SLP189 T01940139,2024-08-10T03:54:00Z,19.4,13.9,10+,30.10
KEUG,44.1331,-123.216,0,0,0.0,KEUG 100354Z 00000KT 10SM FEW200 23/13 A2995 RMK AO2 SLP142 T02280133,2024-08-10T03:54:00Z,22.8,13.3,10+,29.95
KEFD,29.606,-95.16,170,6,6.9,KEFD 100354Z 17006KT 9SM FEW060 29/26 A3000,2024-08-10T03:54:00Z,29,26,9,30.00
KECG,36.2571,-76.1716,180,5,5.75,KECG 100354Z AUTO 18005KT 9SM SCT009 BKN015 OVC021 26/25 A2995 RMK AO2 SLP140 T02610250,2024-08-10T03:54:00Z,26.1,25,9,29.95
KDYL,40.3302,-75.1228,250,5,5.75,KDYL 100354Z AUTO 25005KT 10SM SCT006 BKN070 24/23 A2985 RMK AO2 SLP103 T02440233,2024-08-10T03:54:00Z,24.4,23.3,10+,29.85
KDSV,42.5699,-77.7142,0,0,0.0,KDSV 100354Z AUTO 00000KT 10SM CLR 19/18 A2991 RMK AO2 SLP133 T01940178,2024-08-10T03:54:00Z,19.4,17.8,10+,29.91
KDSM,41.534,-93.6531,270,5,5.75,KDSM 100354Z 27005KT 10SM CLR 16/11 A3017 RMK AO2 SLP214 T01610111,2024-08-10T03:54:00Z,16.1,11.1,10+,30.17
KDEC,39.8308,-88.8719,260,5,5.75,KDEC 100354Z AUTO 26005KT 10SM CLR 18/13 A3013 RMK AO2 SLP200 T01780133,2024-08-10T03:54:00Z,17.8,13.3,10+,30.13
KCRW,38.3795,-81.5911,160,3,3.45,KCRW 100354Z 16003KT 10SM BKN075 23/18 A3000 RMK AO2 SLP151 T02280178,2024-08-10T03:54:00Z,22.8,17.8,10+,30.00
KCOU,38.8171,-92.2148,330,3,3.45,KCOU 100354Z AUTO 33003KT 10SM CLR 17/12 A3019 RMK AO2 SLP217 T01720122 $,2024-08-10T03:54:00Z,17.2,12.2,10+,30.19
KCEU,34.6722,-82.8814,10,5,5.75,KCEU 100354Z AUTO 01005KT 10SM CLR 26/23 A2997 RMK AO2 LTG DSNT E SLP135 T02610233,2024-08-10T03:54:00Z,26.1,23.3,10+,29.97
KBWI,39.1733,-76.684,240,4,4.6,KBWI 100354Z 24004KT 10SM FEW055 FEW095 SCT250 25/24 A2988 RMK AO2 SLP118 T02500244,2024-08-10T03:54:00Z,25,24.4,10+,29.88
KBUF,42.94,-78.7361,270,6,6.9,KBUF 100354Z 27006KT 10SM FEW070 FEW280 19/12 A2990 RMK AO2 SLP122 T01940117 $,2024-08-10T03:54:00Z,19.4,11.7,10+,29.90
KBTV,44.4683,-73.1499,180,8,9.21,KBTV 100354Z 18008KT 10SM BKN045 23/19 A2974 RMK AO2 SLP068 /LAST/ T02330194,2024-08-10T03:54:00Z,23.3,19.4,10+,29.74
KBOS,42.3606,-71.0097,190,17,19.56,KBOS 100354Z 19017KT 7SM -RA SCT013 BKN034 OVC050 24/23 A2982 RMK AO2 PK WND 19033/0304 SLP099 P0019 T02440233,2024-08-10T03:54:00Z,24.4,23.3,7,29.82
KBFL,35.4342,-119.055,350,5,5.75,KBFL 100354Z AUTO 35005KT 10SM CLR 35/03 A2982 RMK AO2 SLP088 T03500033,2024-08-10T03:54:00Z,35,3.3,10+,29.82
KAVL,35.4318,-82.5379,350,4,4.6,KAVL 100354Z AUTO 35004KT 10SM BKN065 24/18 A3007 RMK AO2 SLP151 T02440183,2024-08-10T03:54:00Z,24.4,18.3,10+,30.07
KAUW,44.9265,-89.6248,280,8,9.21,KAUW 100354Z AUTO 28008KT 10SM CLR 12/09 A2999 RMK AO2 SLP161 T01170094,2024-08-10T03:54:00Z,11.7,9.4,10+,29.99
KAPN,45.0716,-83.5645,240,7,8.06,KAPN 100354Z AUTO 24007KT 10SM FEW041 SCT048 SCT070 17/12 A2988 RMK AO2 SLP115 T01670117,2024-08-10T03:54:00Z,16.7,11.7,10+,29.88
KAPC,38.2075,-122.28,220,8,9.21,KAPC 100354Z AUTO 22008KT 10SM CLR 17/13 A2989 RMK AO2 SLP112 T01670133,2024-08-10T03:54:00Z,16.7,13.3,10+,29.89
KALO,42.5544,-92.4013,310,3,3.45,KALO 100354Z AUTO 31003KT 10SM CLR 13/10 A3013 RMK AO2 SLP201 T01330100,2024-08-10T03:54:00Z,13.3,10,10+,30.13
KAKR,41.0373,-81.4634,270,7,8.06,KAKR 100354Z AUTO 27007KT 10SM CLR 20/14 A2999 RMK AO2 SLP147 T02000139 PWINO $,2024-08-10T03:54:00Z,20,13.9,10+,29.99
KAKQ,36.9827,-77.0014,0,0,0.0,KAKQ 100354Z AUTO 00000KT 8SM SCT065 BKN080 25/24 A2992 RMK AO2 SLP131 T02500244,2024-08-10T03:54:00Z,25,24.4,8,29.92
KAKH,35.1968,-81.1555,360,4,4.6,KAKH 100354Z AUTO 36004KT 10SM CLR 26/22 A2997 RMK AO2 LTG DSNT W AND NW SLP139 T02560222,2024-08-10T03:54:00Z,25.6,22.2,10+,29.97
KAAO,37.7496,-97.2191,10,4,4.6,KAAO 100354Z AUTO 01004KT 10SM CLR 16/12 A3024 RMK AO2 SLP234 T01610117,2024-08-10T03:54:00Z,16.1,11.7,10+,30.24
K1V4,44.42,-72.019,,,,K1V4 100354Z AUTO 22/20 A2975 RMK AO1 SLP065 T02220200,2024-08-10T03:54:00Z,22.2,20,,29.75
K12N,41.0093,-74.7363,0,0,0.0,K12N 100354Z AUTO 00000KT 24/23 A2984 RMK AO1 SLP095 P0003 T02390228,2024-08-10T03:54:00Z,23.9,22.8,,29.84
TJNR,18.253,-65.638,70,6,6.9,TJNR 100353Z AUTO 07006KT 9SM FEW019 30/26 A3003 RMK AO2 SLP168 T03000256 403390283 PNO $,2024-08-10T03:53:00Z,30,25.6,9,30.03
TISX,17.6997,-64.8126,70,9,10.36,TISX 100353Z AUTO 07009KT 10SM CLR 29/25 A3000 RMK AO2 SLP158 T02890250 403330272 $,2024-08-10T03:53:00Z,28.9,25,10+,30.00
PTTP,6.96,158.21,120,3,3.45,PTTP 100353Z 12003KT 15SM SCT018TCU BKN300 30/24 A2978 RMK TCU SE-S SLP085 T03010243,2024-08-10T03:53:00Z,30.1,24.3,15,29.78
PHTO,19.7191,-155.049,20,6,6.9,PHTO 100353Z 02006KT 10SM SCT023 27/21 A2995 RMK AO2 SLP140 T02670211,2024-08-10T03:53:00Z,26.7,21.1,10+,29.95
PHNL,21.3151,-157.924,30,8,9.21,PHNL 100353Z COR 03008KT 10SM FEW024 FEW038 28/18 A2994 RMK AO2 SLP139 T02830183 $,2024-08-10T03:53:00Z,28.3,18.3,10+,29.94
PHLI,21.9805,-159.339,30,11,12.66,PHLI 100353Z 03011KT 10SM FEW025 27/21 A2998 RMK AO2 SLP149 T02720206,2024-08-10T03:53:00Z,27.2,20.6,10+,29.98
PHKO,19.7378,-156.048,230,8,9.21,PHKO 100353Z 23008KT 10SM FEW040 28/20 A2991 RMK AO2 SLP128 T02830200,2024-08-10T03:53:00Z,28.3,20,10+,29.91
PHJR,21.312,-158.07,50,8,9.21,PHJR 100353Z 05008KT 020V080 10SM CLR 29/18 A2995 RMK AO2 SLP148 T02940178,2024-08-10T03:53:00Z,29.4,17.8,10+,29.95
PAWD,60.129,-149.418,100,3,3.45,PAWD 100353Z AUTO 10003KT 10SM -RA BKN060 OVC070 12/07 A2994 RMK AO2 RAB24 SLP137 P0000 T01220072 TSNO,2024-08-10T03:53:00Z,12.2,7.2,10+,29.94
PAVL,67.731,-164.548,280,6,6.9,PAVL 100353Z AUTO 28006KT 10SM SCT048 BKN060 07/04 A2975 RMK AO2 SLP074 T00720044 TSNO PNO $,2024-08-10T03:53:00Z,7.2,4.4,10+,29.75
PATK,62.319,-150.097,190,10,11.51,PATK 100353Z AUTO 19010G18KT 10SM CLR 14/06 A2989 RMK AO2 SLP125 T01390061 TSNO,2024-08-10T03:53:00Z,13.9,6.1,10+,29.89
PASO,59.443,-151.702,VRB,5,5.75,PASO 100353Z AUTO VRB05KT 10SM FEW041 21/05 A3001 RMK AO2 SLP162 T02110050 TSNO,2024-08-10T03:53:00Z,21.1,5,10+,30.01
PASN,57.155,-170.223,130,8,9.21,PASN 100353Z AUTO 13008KT 1/4SM FG VV003 09/08 A2940 RMK AO2 SLP955 T00890078 TSNO,2024-08-10T03:53:00Z,8.9,7.8,0.25,29.40
PASI,57.047,-135.364,220,4,4.6,PASI 100353Z 22004KT 1 1/4SM -RA BR OVC004 17/15 A3001 RMK AO2 SLP160 P0004 T01670150 $,2024-08-10T03:53:00Z,16.7,15,1.25,30.01
PASC,70.191,-148.48,350,10,11.51,PASC 100353Z 35010KT 10SM BKN003 OVC008 10/08 A2972 RMK AO2 SLP063 T01000083 PNO,2024-08-10T03:53:00Z,10,8.3,10+,29.72
PAQT,70.213,-150.994,20,8,9.21,PAQT 100353Z AUTO 02008KT 10SM OVC007 11/ A2976 RMK AO2 CIG 005V011 SLP078 T0106 TSNO $,2024-08-10T03:53:00Z,10.6,,10+,29.76
PAPB,56.576,-169.663,180,12,13.81,PAPB 100353Z AUTO 18012KT 3/4SM BR VV002 09/09 A2940 RMK AO2 SLP941 T00940094 TSNO $,2024-08-10T03:53:00Z,9.4,9.4,0.75,29.40
PAOM,64.5111,-165.44,180,7,8.06,PAOM 100353Z AUTO 18007KT 10SM FEW018 SCT024 OVC120 09/05 A2978 RMK AO2 SLP084 T00890050 TSNO,2024-08-10T03:53:00Z,8.9,5,10+,29.78
PANN,64.547,-149.087,240,5,5.75,PANN 100353Z AUTO 24005KT 10SM FEW024 BKN070 OVC080 14/09 A2983 RMK AO2 SLP107 T01440094 TSNO $,2024-08-10T03:53:00Z,14.4,9.4,10+,29.83
PANC,61.1691,-150.028,210,11,12.66,PANC 100353Z 21011KT 10SM -RA FEW045 BKN060 OVC110 12/06 A2992 RMK AO2 PK WND 17032/0303 RAB41 SLP133 P0000 T01220056,2024-08-10T03:53:00Z,12.2,5.6,10+,29.92
PAMR,61.215,-149.85,200,11,12.66,PAMR 100353Z 20011KT 10SM -RA BKN060 BKN070 OVC090 12/05 A2994 RMK AO2 RAB04E23B48 SLP140 P0000 T01220050,2024-08-10T03:53:00Z,12.2,5,10+,29.94
PAMC,62.957,-155.61,220,8,9.21,PAMC 100353Z AUTO 22008KT 10SM FEW080 12/06 A2990 RMK AO2 RAB17E26 SLP130 P0000 T01220061 TSNO,2024-08-10T03:53:00Z,12.2,6.1,10+,29.90
PALH,61.179,-149.962,220,13,14.96,PALH 100353Z 22013G25KT 10SM -RA BKN065 OVC090 12/04 A2995 RMK AO2 RAB51 SLP141 P0000 T01170044,2024-08-10T03:53:00Z,11.7,4.4,10+,29.95
PAKV,64.321,-158.732,VRB,5,5.75,PAKV 100353Z AUTO VRB05KT 10SM OVC070 10/06 A2987 RMK AO2 SLP117 T01000061 TSNO $,2024-08-10T03:53:00Z,10,6.1,10+,29.87
PAKT,55.3592,-131.722,310,6,6.9,PAKT 100353Z 31006KT 10SM BKN095 20/16 A2999 RMK AO2 SLP155 HARBOR WIND 29010KT T02000161,2024-08-10T03:53:00Z,20,16.1,10+,29.99
PAJN,58.354,-134.556,90,8,9.21,PAJN 100353Z 09008KT 7SM -RA FEW014 SCT028 OVC034 16/15 A2999 RMK AO2 RAE0256B16 SLP156 P0000 T01610150,2024-08-10T03:53:00Z,16.1,15,7,29.99
PAIL,59.7492,-154.909,230,4,4.6,PAIL 100353Z AUTO 23004KT 10SM OVC046 11/06 A3002 RMK AO2 SLP167 T01110056 TSNO,2024-08-10T03:53:00Z,11.1,5.6,10+,30.02
PAHO,59.642,-151.491,240,18,20.71,PAHO 100353Z 24018G25KT 10SM FEW100 12/07 A3000 RMK AO2 SLP161 T01220067,2024-08-10T03:53:00Z,12.2,6.7,10+,30.00
PAGK,62.1592,-145.459,150,15,17.26,PAGK 100353Z AUTO 15015G24KT 10SM CLR 17/07 A2981 RMK AO2 PK WND 15026/0308 SLP095 T01670067 TSNO,2024-08-10T03:53:00Z,16.7,6.7,10+,29.81
PAFA,64.8031,-147.876,290,11,12.66,PAFA 100353Z 29011KT 10SM SCT033 BKN060 BKN110 BKN200 17/10 A2981 RMK AO2 SLP098 T01670100 $,2024-08-10T03:53:00Z,16.7,10,10+,29.81
PAEN,60.579,-151.242,190,20,23.02,PAEN 100353Z 19020G31KT 10SM BKN100 12/06 A2993 RMK AO2 PK WND 19031/0351 SLP139 T01170056,2024-08-10T03:53:00Z,11.7,5.6,10+,29.93
PADQ,57.7507,-152.488,70,3,3.45,PADQ 100353Z 07003KT 10SM OVC050 12/09 A3006 RMK AO2 SLP180 T01170089,2024-08-10T03:53:00Z,11.7,8.9,10+,30.06
PADE,66.0695,-162.761,260,12,13.81,PADE 100353Z AUTO 26012KT 10SM OVC041 12/08 A2974 RMK AO2 SLP070 T01170078 TSNO $,2024-08-10T03:53:00Z,11.7,7.8,10+,29.74
PACV,60.486,-145.445,150,4,4.6,PACV 100353Z 15004KT 8SM FEW026 16/09 A3000 RMK AO2 SLP158 T01610089,2024-08-10T03:53:00Z,16.1,8.9,8,30.00
PABT,66.9176,-151.519,210,3,3.45,PABT 100353Z 21003KT 10SM FEW050 SCT070 SCT130 15/06 A2978 RMK AO2 SLP091 T01500061 $,2024-08-10T03:53:00Z,15,6.1,10+,29.78
PABR,71.2837,-156.784,30,3,3.45,PABR 100353Z 03003KT 10SM OVC015 08/05 A2974,2024-08-10T03:53:00Z,8,5,10+,29.74
PABI,63.9931,-145.721,300,5,5.75,PABI 100353Z 30005KT 10SM FEW040 SCT060 SCT110 BKN200 14/08 A2985 RMK AO2 SLP114 T01390083,2024-08-10T03:53:00Z,13.9,8.3,10+,29.85
PAAQ,61.5951,-149.092,VRB,3,3.45,PAAQ 100353Z AUTO VRB03KT 10SM BKN035 OVC046 12/09 A2993 RMK AO2 RAE40 SLP135 P0001 T01220094 TSNO,2024-08-10T03:53:00Z,12.2,9.4,10+,29.93
KZZV,39.9461,-81.8932,300,3,3.45,KZZV 100353Z AUTO 30003KT 10SM FEW050 21/16 A3000 RMK AO2 SLP150 T02060156,2024-08-10T03:53:00Z,20.6,15.6,10+,30.00
KYKM,46.564,-120.535,350,15,17.26,KYKM 100353Z 35015G23KT 10SM CLR 29/09 A2993 RMK AO2 LTG DSNT NW SLP126 T02940094,2024-08-10T03:53:00Z,29.4,9.4,10+,29.93
KYIP,42.242,-83.5214,240,6,6.9,KYIP 100353Z 24006KT 10SM CLR 17/12 A2999 RMK AO2 SLP148 T01720117,2024-08-10T03:53:00Z,17.2,11.7,10+,29.99
KXNA,36.2897,-94.3115,20,7,8.06,KXNA 100353Z AUTO 02007KT 10SM CLR 22/11 A3017 RMK AO2 SLP203 T02220111,2024-08-10T03:53:00Z,22.2,11.1,10+,30.17
KWVI,36.9394,-121.79,150,4,4.6,KWVI 100353Z AUTO 15004KT 10SM CLR 14/12 A2994 RMK AO2 SLP138 T01440117,2024-08-10T03:53:00Z,14.4,11.7,10+,29.94
KWRL,43.9654,-107.95,150,4,4.6,KWRL 100353Z AUTO 15004KT 10SM CLR 17/11 A3015 RMK AO2 SLP184 T01670111,2024-08-10T03:53:00Z,16.7,11.1,10+,30.15
KVUO,45.621,-122.654,340,4,4.6,KVUO 100353Z AUTO 34004KT 10SM CLR 26/15 A2994 RMK AO2 SLP138 T02560150,2024-08-10T03:53:00Z,25.6,15,10+,29.94
KVRB,27.6553,-80.4142,210,5,5.75,KVRB 100353Z AUTO 21005KT 10SM OVC110 27/25 A3004 RMK AO2 RAE04 SLP171 P0001 T02670250,2024-08-10T03:53:00Z,26.7,25,10+,30.04
KVLD,30.7763,-83.2739,180,7,8.06,KVLD 100353Z AUTO 18007KT 10SM CLR 28/26 A2996 RMK AO2 SLP150 T02780261,2024-08-10T03:53:00Z,27.8,26.1,10+,29.96
KVIH,38.1318,-91.7647,340,4,4.6,KVIH 100353Z AUTO 34004KT 10SM CLR 17/13 A3019 RMK AO2 SLP216 T01720133,2024-08-10T03:53:00Z,17.2,13.3,10+,30.19
KVGT,36.2121,-115.194,180,5,5.75,KVGT 100353Z AUTO 18005KT 10SM CLR 38/13 A2984 RMK AO2 SLP087 T03780128,2024-08-10T03:53:00Z,37.8,12.8,10+,29.84
KVEL,40.4429,-109.513,30,10,11.51,KVEL 100353Z AUTO 03010KT 10SM SCT080 OVC100 21/13 A3019 RMK AO2 PK WND 34029/0309 RAB0259E29 SLP156 P0000 T02060128,2024-08-10T03:53:00Z,20.6,12.8,10+,30.19
KVCB,38.3775,-121.959,190,7,8.06,KVCB 100353Z AUTO 19007KT 10SM CLR 27/09 A2981 RMK AO2 SLP091 T02670089,2024-08-10T03:53:00Z,26.7,8.9,10+,29.81
KUTS,30.7443,-95.5866,60,5,5.75,KUTS 100353Z AUTO 06005KT 10SM CLR 26/23 A3004 RMK AO2 SLP167 T02560233,2024-08-10T03:53:00Z,25.6,23.3,10+,30.04
KUNO,36.8791,-91.9052,10,5,5.75,KUNO 100353Z AUTO 01005KT 10SM CLR 19/12 A3018 RMK AO2 SLP208 T01940117,2024-08-10T03:53:00Z,19.4,11.7,10+,30.18
KUAO,45.2466,-122.771,VRB,3,3.45,KUAO 100353Z AUTO VRB03KT 10SM CLR 26/14 A2994 RMK AO2 SLP136 T02560144,2024-08-10T03:53:00Z,25.6,14.4,10+,29.94
KTYS,35.818,-83.9857,20,4,4.6,KTYS 100353Z 02004KT 10SM OVC055 25/18 A3002 RMK AO2 SLP154 T02500183,2024-08-10T03:53:00Z,25,18.3,10+,30.02
KTYR,32.3587,-95.404,0,0,0.0,KTYR 100353Z AUTO 00000KT 10SM CLR 28/22 A3006 RMK AO2 SLP172 T02780217,2024-08-10T03:53:00Z,27.8,21.7,10+,30.06
KTXK,33.4561,-93.9878,90,3,3.45,KTXK 100353Z AUTO 09003KT 10SM CLR 28/21 A3006 RMK AO2 SLP175 T02780211 $,2024-08-10T03:53:00Z,27.8,21.1,10+,30.06
KTVR,32.3481,-91.0299,VRB,4,4.6,KTVR 100353Z AUTO VRB04KT 10SM CLR 26/21 A3004 RMK AO2 SLP176 T02560211,2024-08-10T03:53:00Z,25.6,21.1,10+,30.04
KTVL,38.8984,-119.996,220,7,8.06,KTVL 100353Z AUTO 22007KT 10SM CLR 21/04 A3023 RMK AO2 SLP168 T02060039,2024-08-10T03:53:00Z,20.6,3.9,10+,30.23
KTVC,44.739,-85.5694,250,9,10.36,KTVC 100353Z AUTO 25009KT 10SM FEW045 SCT075 SCT095 18/12 A2989 RMK AO2 RAB41E51 SLP120 P0000 T01780122,2024-08-10T03:53:00Z,17.8,12.2,10+,29.89
KTUS,32.1315,-110.956,120,11,12.66,KTUS 100353Z 12011KT 10SM CLR 33/14 A2995 RMK AO2 LTG DSNT SW SLP089 T03280144,2024-08-10T03:53:00Z,32.8,14.4,10+,29.95
KTUP,34.2622,-88.7713,350,7,8.06,KTUP 100353Z 35007KT 10SM CLR 26/21 A3004 RMK AO2 SLP168 T02560211,2024-08-10T03:53:00Z,25.6,21.1,10+,30.04
KTUL,36.1985,-95.8783,350,9,10.36,KTUL 100353Z 35009KT 10SM SCT100 BKN200 21/12 A3017 RMK AO2 SLP208 T02110117,2024-08-10T03:53:00Z,21.1,11.7,10+,30.17
KTTD,45.551,-122.41,0,0,0.0,KTTD 100353Z AUTO 00000KT 10SM CLR 26/17 A2992 RMK AO2 SLP132 T02610167,2024-08-10T03:53:00Z,26.1,16.7,10+,29.92
KTRL,32.7131,-96.2688,0,0,0.0,KTRL 100353Z AUTO 00000KT 10SM CLR 28/21 A3007 RMK AO2 SLP174 T02780211,2024-08-10T03:53:00Z,27.8,21.1,10+,30.07
KTRI,36.4797,-82.3989,0,0,0.0,KTRI 100353Z 00000KT 10SM BKN046 24/19 A3005 RMK AO2 SLP147 T02390194,2024-08-10T03:53:00Z,23.9,19.4,10+,30.05
KTPA,27.9633,-82.54,200,8,9.21,KTPA 100353Z 20008KT 10SM SCT023 SCT200 29/26 A3002 RMK AO2 SLP163 T02940261 $,2024-08-10T03:53:00Z,29.4,26.1,10+,30.02
KTOP,39.0724,-95.626,0,0,0.0,KTOP 100353Z AUTO 00000KT 10SM CLR 17/14 A3022 RMK AO2 SLP230 T01720144,2024-08-10T03:53:00Z,17.2,14.4,10+,30.22
KTOI,31.8574,-86.0103,360,5,5.75,KTOI 100353Z AUTO 36005KT 10SM FEW065 27/23 A2996 RMK AO2 SLP139 T02720233,2024-08-10T03:53:00Z,27.2,23.3,10+,29.96
KTMB,25.6423,-80.4347,0,0,0.0,KTMB 100353Z AUTO 00000KT 10SM CLR 27/24 A3006 RMK AO2 RAB38E41 SLP177 P0000 T02670239 $,2024-08-10T03:53:00Z,26.7,23.9,10+,30.06
KTLH,30.3935,-84.3513,210,4,4.6,KTLH 100353Z AUTO 21004KT 10SM CLR 26/23 A2996 RMK AO2 SLP143 T02610233,2024-08-10T03:53:00Z,26.1,23.3,10+,29.96
KTKI,33.1828,-96.5899,350,4,4.6,KTKI 100353Z AUTO 35004KT 10SM CLR 26/23 A3007 RMK AO2 SLP179 T02560228,2024-08-10T03:53:00Z,25.6,22.8,10+,30.07
KTIW,47.2674,-122.576,270,4,4.6,KTIW 100353Z AUTO 27004KT 10SM CLR 23/16 A2994 RMK AO2 SLP135 T02330161,2024-08-10T03:53:00Z,23.3,16.1,10+,29.94
KTHV,39.9194,-76.8768,0,0,0.0,KTHV 100353Z AUTO 00000KT 10SM CLR 23/22 A2990 RMK AO2 SLP124 T02280217 $,2024-08-10T03:53:00Z,22.8,21.7,10+,29.90
KTDZ,41.5633,-83.4767,270,6,6.9,KTDZ 100353Z AUTO 27006KT 10SM CLR 18/12 A3001 RMK AO2 SLP157 T01830117,2024-08-10T03:53:00Z,18.3,11.7,10+,30.01
KTCS,33.2369,-107.268,90,6,6.9,KTCS 100353Z AUTO 09006KT 10SM FEW120 28/11 A3017 RMK AO2 SLP119 T02780106,2024-08-10T03:53:00Z,27.8,10.6,10+,30.17
KTCL,33.2122,-87.6155,0,0,0.0,KTCL 100353Z AUTO 00000KT 10SM CLR 26/21 A2999 RMK AO2 SLP152 T02560206,2024-08-10T03:53:00Z,25.6,20.6,10+,29.99
KTCC,35.1805,-103.601,110,5,5.75,KTCC 100353Z AUTO 11005KT 10SM FEW110 21/18 A3020 RMK AO2 LTG DSNT N AND NE AND S RAE05 SLP177 P0000 T02110178,2024-08-10T03:53:00Z,21.1,17.8,10+,30.20
KSWO,36.1624,-97.0832,30,11,12.66,KSWO 100353Z AUTO 03011KT 10SM CLR 22/11 A3018 RMK AO2 SLP210 T02220106,2024-08-10T03:53:00Z,22.2,10.6,10+,30.18
KSTS,38.5037,-122.811,160,7,8.06,KSTS 100353Z AUTO 16007KT 10SM FU CLR 15/12 A2990 RMK AO2 SLP118 T01500122,2024-08-10T03:53:00Z,15,12.2,10+,29.90
KSTP,44.9324,-93.0559,280,10,11.51,KSTP 100353Z AUTO 28010KT 10SM CLR 17/09 A3010 RMK AO2 SLP188 T01670089,2024-08-10T03:53:00Z,16.7,8.9,10+,30.10
KSTJ,39.7683,-94.9095,0,0,0.0,KSTJ 100353Z AUTO 00000KT 9SM CLR 16/14 A3021 RMK AO2 SLP226 T01610144,2024-08-10T03:53:00Z,16.1,14.4,9,30.21
KSTC,45.5442,-94.0517,280,7,8.06,KSTC 100353Z 28007KT 10SM CLR 14/09 A3010 RMK AO2 SLP201 T01440089,2024-08-10T03:53:00Z,14.4,8.9,10+,30.10
KSSF,29.339,-98.472,100,9,10.36,KSSF 100353Z AUTO 10009G22KT 10SM FEW060 27/19 A3003 RMK AO2 PK WND 08033/0329 SLP155 T02670189 $,2024-08-10T03:53:00Z,26.7,18.9,10+,30.03
KSRQ,27.4015,-82.5596,210,7,8.06,KSRQ 100353Z AUTO 21007KT 10SM FEW019 29/26 A3002 RMK AO2 LTG DSNT SE SLP163 T02890261,2024-08-10T03:53:00Z,28.9,26.1,10+,30.02
KSPW,43.1682,-95.2101,310,4,4.6,KSPW 100353Z AUTO 31004KT 10SM CLR 12/09 A3018 RMK AO2 SLP218 T01220089,2024-08-10T03:53:00Z,12.2,8.9,10+,30.18
KSPG,27.7685,-82.6257,220,6,6.9,KSPG 100353Z AUTO 22006KT 10SM FEW022 30/26 A3000 RMK AO2 SLP157 T03000261 PWINO $,2024-08-10T03:53:00Z,30,26.1,10+,30.00
KSPB,45.7691,-122.864,350,4,4.6,KSPB 100353Z AUTO 35004KT 10SM CLR A2992 RMK AO2 SLPNO,2024-08-10T03:53:00Z,,,10+,29.92
KSNS,36.6635,-121.609,330,10,11.51,KSNS 100353Z AUTO 33010KT 8SM CLR 15/12 A2993 RMK AO2 SLP143 T01500122,2024-08-10T03:53:00Z,15,12.2,8,29.93
KSNA,33.6798,-117.867,200,6,6.9,KSNA 100353Z 20006KT 8SM FEW010 21/17 A2986 RMK AO2 SLP111 T02060167 $,2024-08-10T03:53:00Z,20.6,16.7,8,29.86
KSMF,38.7007,-121.595,150,10,11.51,KSMF 100353Z 15010KT 10SM CLR 26/11 A2980 RMK AO2 SLP090 T02560106,2024-08-10T03:53:00Z,25.6,10.6,10+,29.80
KSLN,38.78,-97.6446,320,4,4.6,KSLN 100353Z 32004KT 10SM BKN100 17/14 A3025 RMK AO2 SLP237 T01670144,2024-08-10T03:53:00Z,16.7,14.4,10+,30.25
KSJC,37.3594,-121.924,320,12,13.81,KSJC 100353Z 32012KT 10SM FEW035 18/13 A2993 RMK AO2 SLP136 T01780133,2024-08-10T03:53:00Z,17.8,13.3,10+,29.93
KSIY,41.7737,-122.468,360,8,9.21,KSIY 100353Z AUTO 36008KT 9SM CLR 27/08 A2996 RMK AO2 SLP129 T02720083,2024-08-10T03:53:00Z,27.2,8.3,9,29.96
KSHR,44.7603,-106.974,180,3,3.45,KSHR 100353Z AUTO 18003KT 10SM CLR 15/12 A3017 RMK AO2 SLP197 T01500117,2024-08-10T03:53:00Z,15,11.7,10+,30.17
KSGR,29.6197,-95.6575,0,0,0.0,KSGR 100353Z AUTO 00000KT 10SM CLR 27/26 A3001 RMK AO2 SLP164 T02670256,2024-08-10T03:53:00Z,26.7,25.6,10+,30.01
KSFF,47.6857,-117.321,340,8,9.21,KSFF 100353Z AUTO 34008G16KT 10SM CLR 27/07 A2995 RMK AO2 SLP125 T02670072,2024-08-10T03:53:00Z,26.7,7.2,10+,29.95
KSFB,28.7795,-81.2436,210,5,5.75,KSFB 100353Z AUTO 21005KT 10SM FEW120 28/25 A3001 RMK AO2 SLP161 T02780250,2024-08-10T03:53:00Z,27.8,25,10+,30.01
KSEG,40.8193,-76.8658,0,0,0.0,KSEG 100353Z AUTO 00000KT 10SM CLR 21/19 A2990 RMK AO2 SLP121 T02110194,2024-08-10T03:53:00Z,21.1,19.4,10+,29.90
KSEA,47.4447,-122.314,290,4,4.6,KSEA 100353Z 29004KT 10SM FEW250 23/14 A2994 RMK AO2 SLP143 T02330144,2024-08-10T03:53:00Z,23.3,14.4,10+,29.94
KSDM,32.5758,-116.994,270,4,4.6,KSDM 100353Z AUTO 27004KT 10SM CLR 19/16 A2989 RMK AO2 SLP116 T01940161,2024-08-10T03:53:00Z,19.4,16.1,10+,29.89
KSDL,33.6124,-111.923,0,0,0.0,KSDL 100353Z AUTO 00000KT 10SM CLR 37/15 A2983 RMK AO2 SLP070 T03720150,2024-08-10T03:53:00Z,37.2,15,10+,29.83
KSBM,43.7748,-87.849,260,9,10.36,KSBM 100353Z AUTO 26009KT 10SM CLR 16/11 A2999 RMK AO2 SLP154 T01560106,2024-08-10T03:53:00Z,15.6,10.6,10+,29.99
KSBA,34.4241,-119.842,110,5,5.75,KSBA 100353Z 11005KT 8SM CLR 17/14 A2983 RMK AO2 SLP102 T01670144 $,2024-08-10T03:53:00Z,16.7,14.4,8,29.83
KSAV,32.1313,-81.2023,190,6,6.9,KSAV 100353Z 19006KT 10SM BKN100 28/25 A2995 RMK AO2 SLP141 LAST T02780250,2024-08-10T03:53:00Z,27.8,25,10+,29.95
KSAF,35.611,-106.096,360,9,10.36,KSAF 100353Z 36009KT SCT090 18/15 A3034 RMK AO2 SLP180 T01780150 $,2024-08-10T03:53:00Z,17.8,15,,30.34
KSAC,38.5066,-121.496,190,6,6.9,KSAC 100353Z 19006G16KT 10SM CLR 23/09 A2982 RMK AO2 SLP098 T02330094,2024-08-10T03:53:00Z,23.3,9.4,10+,29.82
KRXE,43.8321,-111.808,70,5,5.75,KRXE 100353Z AUTO 07005KT 10SM CLR 18/09 A3010 RMK AO2 SLP152 T01830094,2024-08-10T03:53:00Z,18.3,9.4,10+,30.10
KRWL,41.8065,-107.195,150,5,5.75,KRWL 100353Z AUTO 15005KT 10SM CLR 12/10 A3032 RMK AO2 SLP197 T01220100 $,2024-08-10T03:53:00Z,12.2,10,10+,30.32
KRWI,35.8502,-77.8951,170,4,4.6,KRWI 100353Z AUTO 17004KT 8SM SCT085 25/23 A2994 RMK AO2 SLP137 T02500233,2024-08-10T03:53:00Z,25,23.3,8,29.94
KRWF,44.5483,-95.0804,280,6,6.9,KRWF 100353Z AUTO 28006KT 10SM CLR 13/11 A3016 RMK AO2 SLP212 T01280106,2024-08-10T03:53:00Z,12.8,10.6,10+,30.16
KRVS,36.0424,-95.9902,10,7,8.06,KRVS 100353Z AUTO 01007G20KT 10SM FEW120 22/10 A3016 RMK AO2 SLP216 T02220100,2024-08-10T03:53:00Z,22.2,10,10+,30.16
KRUE,35.2573,-93.095,0,0,0.0,KRUE 100353Z AUTO 00000KT 10SM CLR 23/18 A3009 RMK AO2 SLP183 T02330183 $,2024-08-10T03:53:00Z,23.3,18.3,10+,30.09
KRTN,36.7418,-104.508,340,9,10.36,KRTN 100353Z AUTO 34009KT 10SM OVC032 16/14 A3036 RMK AO2 RAE19 SLP207 P0000 T01610139,2024-08-10T03:53:00Z,16.1,13.9,10+,30.36
KRSW,26.538,-81.7567,210,5,5.75,KRSW 100353Z AUTO 21005KT 10SM CLR 28/26 A3004 RMK AO2 SLP169 T02830256,2024-08-10T03:53:00Z,28.3,25.6,10+,30.04
KRQE,35.6571,-109.06,0,0,0.0,KRQE 100353Z AUTO 00000KT 10SM BKN110 19/13 A3032 RMK AO2 SLP151 T01890133,2024-08-10T03:53:00Z,18.9,13.3,10+,30.32
KRNT,47.4951,-122.214,0,0,0.0,KRNT 100353Z 00000KT 10SM CLR 26/17 A2992 RMK AO2 SLP136 T02560167,2024-08-10T03:53:00Z,25.6,16.7,10+,29.92
KRNM,33.038,-116.916,300,5,5.75,KRNM 100353Z AUTO 30005KT 10SM CLR 22/17 A2990 RMK AO2 SLP109 T02170167 $,2024-08-10T03:53:00Z,21.7,16.7,10+,29.90
KRMG,34.3483,-85.1616,360,3,3.45,KRMG 100353Z AUTO 36003KT 10SM CLR 24/19 A2998 RMK AO2 SLP142 T02440194,2024-08-10T03:53:00Z,24.4,19.4,10+,29.98
KRKP,28.0837,-97.0467,130,4,4.6,KRKP 100353Z AUTO 13004KT 9SM CLR 29/25 A3001 RMK AO2 SLP162 T02940250,2024-08-10T03:53:00Z,29.4,25,9,30.01
KRIW,43.0622,-108.447,60,9,10.36,KRIW 100353Z AUTO 06009KT 10SM CLR 17/10 A3023 RMK AO2 SLP188 T01670100,2024-08-10T03:53:00Z,16.7,10,10+,30.23
KRIL,39.5279,-107.72,340,3,3.45,KRIL 100353Z AUTO 34003KT 10SM CLR 18/12 A3026 RMK AO2 SLP183 T01830122,2024-08-10T03:53:00Z,18.3,12.2,10+,30.26
KRDD,40.5146,-122.298,180,4,4.6,KRDD 100353Z AUTO 18004KT 10SM CLR 32/14 A2978 RMK AO2 SLP078 T03170139,2024-08-10T03:53:00Z,31.7,13.9,10+,29.78
KRBG,43.2337,-123.358,320,7,8.06,KRBG 100353Z AUTO 32007KT 10SM CLR 26/12 A2995 RMK AO2 SLP140 T02610117,2024-08-10T03:53:00Z,26.1,11.7,10+,29.95
KRBD,32.6782,-96.8677,80,5,5.75,KRBD 100353Z AUTO 08005KT 10SM CLR 29/19 A3007 RMK AO2 SLP172 T02940194,2024-08-10T03:53:00Z,29.4,19.4,10+,30.07
KRAL,33.9528,-117.435,270,7,8.06,KRAL 100353Z AUTO 27007KT 10SM CLR 25/15 A2987 RMK AO2 SLP097 T02500150,2024-08-10T03:53:00Z,25,15,10+,29.87
KRAC,42.7586,-87.8178,260,6,6.9,KRAC 100353Z AUTO 26006KT 10SM CLR 16/11 A3005 RMK AO2 SLP174 T01560111,2024-08-10T03:53:00Z,15.6,11.1,10+,30.05
KPWA,35.5411,-97.6472,40,10,11.51,KPWA 100353Z AUTO 04010KT 10SM FEW110 23/12 A3017 RMK AO2 SLP205 P0001 T02330117 $,2024-08-10T03:53:00Z,23.3,11.7,10+,30.17
KPUW,46.7438,-117.116,360,4,4.6,KPUW 100353Z AUTO 36004KT 7SM CLR 22/03 A2997 RMK AO2 SLP129 T02220033,2024-08-10T03:53:00Z,22.2,3.3,7,29.97
KPUC,39.6089,-110.755,310,7,8.06,KPUC 100353Z AUTO 31007KT 10SM FEW110 19/12 A3021 RMK AO2 WSHFT 0309 RAE25 SLP151 P0003 T01940117,2024-08-10T03:53:00Z,19.4,11.7,10+,30.21
KPUB,38.2887,-104.506,210,6,6.9,KPUB 100353Z AUTO 21006KT 6SM -RA BR SCT005 BKN095 OVC110 17/16 A3027 RMK AO2 SLP205 P0005 T01670156,2024-08-10T03:53:00Z,16.7,15.6,6,30.27
KPTK,42.6632,-83.41,290,8,9.21,KPTK 100353Z 29008KT 10SM BKN200 17/11 A2997 RMK SLPNO LAST,2024-08-10T03:53:00Z,17,11,10+,29.97
KPSX,28.7248,-96.2535,340,3,3.45,KPSX 100353Z AUTO 34003KT 10SM CLR 26/24 A3002 RMK AO2 SLP164 T02610244 $,2024-08-10T03:53:00Z,26.1,24.4,10+,30.02
KPSP,33.8222,-116.504,0,0,0.0,KPSP 100353Z 00000KT 10SM CLR 39/17 A2974 RMK AO2 SLP066 T03890172 $,2024-08-10T03:53:00Z,38.9,17.2,10+,29.74
KPSC,46.2695,-119.118,350,7,8.06,KPSC 100353Z 35007KT 10SM CLR 26/14 A2985 RMK AO2 SLP104 T02610144,2024-08-10T03:53:00Z,26.1,14.4,10+,29.85
KPRC,34.6491,-112.422,0,0,0.0,KPRC 100353Z 00000KT 10SM CLR 25/14 A3015 RMK AO2 SLP122 T02500139,2024-08-10T03:53:00Z,25,13.9,10+,30.15
KPRB,35.6693,-120.629,310,20,23.02,KPRB 100353Z AUTO 31020G29KT 10SM CLR 26/04 A2988 RMK AO2 PK WND 31030/0308 SLP112 T02560039,2024-08-10T03:53:00Z,25.6,3.9,10+,29.88
KPQL,30.4631,-88.5316,350,3,3.45,KPQL 100353Z AUTO 35003KT 10SM CLR 29/23 A2996 RMK AO2 SLP146 T02890228,2024-08-10T03:53:00Z,28.9,22.8,10+,29.96
KPOF,36.7697,-90.3224,10,3,3.45,KPOF 100353Z AUTO 01003KT 10SM CLR 21/15 A3011 RMK AO2 SLP191 T02110150,2024-08-10T03:53:00Z,21.1,15,10+,30.11
KPNS,30.478,-87.1869,320,6,6.9,KPNS 100353Z AUTO 32006KT 10SM SCT043 BKN050 BKN060 28/22 A2995 RMK AO2 LTG DSNT E SLP142 T02780222,2024-08-10T03:53:00Z,27.8,22.2,10+,29.95
KPNC,36.7369,-97.1024,30,10,11.51,KPNC 100353Z AUTO 03010KT 10SM CLR 19/11 A3021 RMK AO2 SLP218 T01940111,2024-08-10T03:53:00Z,19.4,11.1,10+,30.21
KPMP,26.2464,-80.111,230,3,3.45,KPMP 100353Z AUTO 23003KT 10SM CLR 27/24 A3006 RMK AO2 SLP178 T02720239,2024-08-10T03:53:00Z,27.2,23.9,10+,30.06
KPMD,34.6295,-118.083,240,8,9.21,KPMD 100353Z 24008KT 10SM CLR 32/08 A2994 RMK AO2 SLP100 T03170078,2024-08-10T03:53:00Z,31.7,7.8,10+,29.94
KPKD,46.8971,-95.0695,320,7,8.06,KPKD 100353Z AUTO 32007KT 10SM CLR 10/08 A3011 RMK AO2 SLP202 T01000078,2024-08-10T03:53:00Z,10,7.8,10+,30.11
KPKB,39.3395,-81.4438,320,4,4.6,KPKB 100353Z AUTO 32004KT 10SM CLR 22/17 A2999 RMK AO2 SLP150 T02170167,2024-08-10T03:53:00Z,21.7,16.7,10+,29.99
KPIR,44.3819,-100.286,120,4,4.6,KPIR 100353Z AUTO 12004KT 10SM CLR 13/06 A3019 RMK AO2 SLP221 T01330061,2024-08-10T03:53:00Z,13.3,6.1,10+,30.19
KPIL,26.1597,-97.3378,120,6,6.9,KPIL 100353Z AUTO 12006KT 10SM CLR 29/25 A3001 RMK AO2 SLP163 T02890250,2024-08-10T03:53:00Z,28.9,25,10+,30.01
KPIH,42.9197,-112.572,50,11,12.66,KPIH 100353Z 05011KT 10SM CLR 23/06 A3007 RMK AO2 SLP135 T02280056,2024-08-10T03:53:00Z,22.8,5.6,10+,30.07
KPIE,27.9126,-82.6855,210,6,6.9,KPIE 100353Z AUTO 21006KT 10SM FEW023 SCT029 29/26 A3001 RMK AO2 SLP161 T02940261,2024-08-10T03:53:00Z,29.4,26.1,10+,30.01
KPHD,40.4703,-81.4218,0,0,0.0,KPHD 100353Z AUTO 00000KT 10SM CLR 19/16 A2999 RMK AO2 SLP150 T01940156,2024-08-10T03:53:00Z,19.4,15.6,10+,29.99
KPGD,26.9185,-81.9939,170,5,5.75,KPGD 100353Z AUTO 17005KT 10SM CLR 29/26 A3004 RMK AO2 LTG DSNT NW SLP173 T02890261,2024-08-10T03:53:00Z,28.9,26.1,10+,30.04
KPGA,36.9211,-111.449,190,6,6.9,KPGA 100353Z AUTO 19006KT 10SM CLR 29/14 A3006 RMK AO2 SLP107 T02890139,2024-08-10T03:53:00Z,28.9,13.9,10+,30.06
KPEO,42.6441,-77.0528,250,7,8.06,KPEO 100353Z AUTO 25007KT 10SM CLR 21/17 A2989 RMK AO2 SLP117 T02110167,2024-08-10T03:53:00Z,21.1,16.7,10+,29.89
KPDX,45.5958,-122.609,0,0,0.0,KPDX 100353Z 00000KT 10SM BKN190 26/16 A2992 RMK AO2 SLP132 T02560156,2024-08-10T03:53:00Z,25.6,15.6,10+,29.92
KPDT,45.6975,-118.834,300,4,4.6,KPDT 100353Z AUTO 30004KT 10SM CLR 27/09 A2991 RMK AO2 SLP110 T02670094,2024-08-10T03:53:00Z,26.7,9.4,10+,29.91
KPDK,33.8783,-84.298,330,5,5.75,KPDK 100353Z AUTO 33005KT 10SM CLR 27/20 A2998 RMK AO2 SLP130 T02670200,2024-08-10T03:53:00Z,26.7,20,10+,29.98
KPBI,26.6851,-80.0992,200,5,5.75,KPBI 100353Z 20005KT 10SM CLR 27/24 A3005 RMK AO2 SLP176 T02720244,2024-08-10T03:53:00Z,27.2,24.4,10+,30.05
KPBG,44.6392,-73.4631,0,0,0.0,KPBG 100353Z AUTO 00000KT 10SM OVC033 23/19 A2972 RMK AO2 SLP064 T02330194,2024-08-10T03:53:00Z,23.3,19.4,10+,29.72
KPBF,34.1798,-91.9344,10,4,4.6,KPBF 100353Z AUTO 01004KT 10SM CLR 25/ A3007 RMK AO2 SLP181 T0250 $,2024-08-10T03:53:00Z,25,,10+,30.07
KPAH,37.0652,-88.7793,10,3,3.45,KPAH 100353Z 01003KT 10SM CLR 21/14 A3010 RMK AO2 SLP189 T02060139,2024-08-10T03:53:00Z,20.6,13.9,10+,30.10
KPAE,47.9232,-122.283,330,4,4.6,KPAE 100353Z AUTO 33004KT 10SM CLR 22/15 A2996 RMK AO2 SLP141 T02170150,2024-08-10T03:53:00Z,21.7,15,10+,29.96
KP68,39.602,-116.006,0,0,0.0,KP68 100353Z AUTO 00000KT 20/04 A3015 RMK AO1 SLP119 T02000039,2024-08-10T03:53:00Z,20,3.9,,30.15
KOVS,43.1561,-90.6775,0,0,0.0,KOVS 100353Z AUTO 00000KT 10SM CLR 12/10 A3009 RMK AO2 SLP191 T01220100,2024-08-10T03:53:00Z,12.2,10,10+,30.09
KOVE,39.4943,-121.622,120,5,5.75,KOVE 100353Z AUTO 12005KT 10SM CLR 32/12 A2980 RMK AO2 SLP092 T03170122,2024-08-10T03:53:00Z,31.7,12.2,10+,29.80
KOTM,41.1008,-92.4445,250,6,6.9,KOTM 100353Z AUTO 25006KT 10SM CLR 13/11 A3015 RMK AO2 SLP209 T01330111,2024-08-10T03:53:00Z,13.3,11.1,10+,30.15
KOSU,40.0784,-83.0782,330,7,8.06,KOSU 100353Z AUTO 33007KT 10SM CLR 21/13 A3002 RMK AO2 SLP160 T02060133,2024-08-10T03:53:00Z,20.6,13.3,10+,30.02
KOSH,43.9669,-88.5582,280,7,8.06,KOSH 100353Z AUTO 28007KT 10SM SCT080 14/11 A3000 RMK AO2 SLP155 T01440106,2024-08-10T03:53:00Z,14.4,10.6,10+,30.00
KORL,28.5465,-81.3354,210,4,4.6,KORL 100353Z AUTO 21004KT 10SM CLR 28/25 A3003 RMK AO1 SLP170 T02780250,2024-08-10T03:53:00Z,27.8,25,10+,30.03
KOQT,36.023,-84.2336,0,0,0.0,KOQT 100353Z AUTO 00000KT 10SM CLR 23/19 A3004 RMK AO2 SLP155 T02280189,2024-08-10T03:53:00Z,22.8,18.9,10+,30.04
KOPF,25.9102,-80.2828,0,0,0.0,KOPF 100353Z AUTO 00000KT 10SM CLR 27/24 A3006 RMK AO2 SLP179 T02670239 $,2024-08-10T03:53:00Z,26.7,23.9,10+,30.06
KONT,34.0531,-117.577,250,8,9.21,KONT 100353Z 25008KT 10SM CLR 25/14 A2987 RMK AO2 SLP099 T02500144,2024-08-10T03:53:00Z,25,14.4,10+,29.87
KONO,44.0143,-117.008,330,11,12.66,KONO 100353Z AUTO 33011G19KT 10SM CLR 31/07 A2984 RMK AO2 SLP085 T03060067,2024-08-10T03:53:00Z,30.6,6.7,10+,29.84
KOMK,48.4611,-119.521,310,11,12.66,KOMK 100353Z AUTO 31011KT 10SM FEW120 26/09 A2998 RMK AO2 SLP142 T02610094,2024-08-10T03:53:00Z,26.1,9.4,10+,29.98
KOLF,48.0942,-105.578,40,3,3.45,KOLF 100353Z AUTO 04003KT 10SM CLR 16/02 A3019 RMK AO2 SLP223 T01560017,2024-08-10T03:53:00Z,15.6,1.7,10+,30.19
KOJC,38.85,-94.7395,0,0,0.0,KOJC 100353Z AUTO 00000KT 10SM CLR 18/11 A3022 RMK AO2 SLP229 T01830106,2024-08-10T03:53:00Z,18.3,10.6,10+,30.22
KOGD,41.1941,-112.017,160,4,4.6,KOGD 100353Z AUTO 16004KT 10SM CLR 27/10 A3002 RMK AO2 SLP094 T02720100,2024-08-10T03:53:00Z,27.2,10,10+,30.02
KODX,41.6234,-98.9489,0,0,0.0,KODX 100353Z AUTO 00000KT 10SM BKN100 16/13 A3022 RMK AO2 SLP231 T01610128,2024-08-10T03:53:00Z,16.1,12.8,10+,30.22
KODO,31.925,-102.387,150,10,11.51,KODO 100353Z AUTO 15010KT 10SM CLR 31/14 A3013 RMK AO2 SLP147 T03110144,2024-08-10T03:53:00Z,31.1,14.4,10+,30.13
KOAK,37.7178,-122.233,280,11,12.66,KOAK 100353Z 28011KT 10SM BKN007 16/14 A2996 RMK AO2 CIG 006V010 SLP144 T01560139,2024-08-10T03:53:00Z,15.6,13.9,10+,29.96
KNUW,48.355,-122.664,0,0,0.0,KNUW 100353Z 00000KT 10SM SCT100 SCT230 15/12 A2995 RMK AO2 SLP145 T01500122,2024-08-10T03:53:00Z,15,12.2,10+,29.95
KNUI,38.152,-76.432,180,5,5.75,KNUI 100353Z AUTO 18005KT 10SM OVC075 25/24 A2990 RMK AO2 SLP125 T02500244,2024-08-10T03:53:00Z,25,24.4,10+,29.90
KNSI,33.2337,-119.456,290,11,12.66,KNSI 100353Z AUTO 29011G21KT 4SM HZ OVC002 14/ A2986 RMK AO2 SLP107 T0144 $,2024-08-10T03:53:00Z,14.4,,4,29.86
KNRS,32.563,-117.111,270,5,5.75,KNRS 100353Z AUTO 27005KT 10SM OVC012 A2989 RMK AO2 SLP123 $,2024-08-10T03:53:00Z,,,10+,29.89
KNQX,24.5801,-81.6829,210,6,6.9,KNQX 100353Z AUTO 21006KT 10SM CLR 29/26 A3003 RMK AO2 SLP169 T02890261 $,2024-08-10T03:53:00Z,28.9,26.1,10+,30.03
KNIP,30.2346,-81.6746,200,7,8.06,KNIP 100353Z 20007KT 10SM SCT250 29/24 A2999 RMK AO2 SLP152 T02890244 $,2024-08-10T03:53:00Z,28.9,24.4,10+,29.99
KNEW,30.0494,-90.029,10,17,19.56,KNEW 100353Z 01017KT 10SM CLR 32/22 A2998 RMK AO2 SLP146 T03220217,2024-08-10T03:53:00Z,32.2,21.7,10+,29.98
KMYV,39.102,-121.569,170,5,5.75,KMYV 100353Z AUTO 17005KT 10SM CLR 29/12 A2979 RMK AO2 SLP091 T02890117,2024-08-10T03:53:00Z,28.9,11.7,10+,29.79
KMYF,32.8145,-117.137,240,4,4.6,KMYF 100353Z AUTO 24004KT 10SM CLR 20/17 A2989 RMK AO2 SLP116 T02000167,2024-08-10T03:53:00Z,20,16.7,10+,29.89
KMWT,34.5466,-93.5779,0,0,0.0,KMWT 100353Z AUTO 00000KT 10SM CLR 24/17 A3007 RMK AO2 SLP165 T02390167,2024-08-10T03:53:00Z,23.9,16.7,10+,30.07
KMWL,32.7816,-98.0602,90,3,3.45,KMWL 100353Z AUTO 09003KT 10SM CLR 27/20 A3009 RMK AO2 SLP174 T02670200,2024-08-10T03:53:00Z,26.7,20,10+,30.09
KMTO,39.4744,-88.2724,280,5,5.75,KMTO 100353Z AUTO 28005KT 10SM CLR 14/13 A3012 RMK AO2 SLP198 T01390133,2024-08-10T03:53:00Z,13.9,13.3,10+,30.12
KMTH,24.7262,-81.0477,0,0,0.0,KMTH 100353Z AUTO 00000KT 10SM CLR 28/25 A3004 RMK AO2 SLP171 T02830250,2024-08-10T03:53:00Z,28.3,25,10+,30.04
KMSY,29.9974,-90.2777,10,7,8.06,KMSY 100353Z 01007KT 9SM CLR 32/21 A2997 RMK AO2 SLP153 T03170206,2024-08-10T03:53:00Z,31.7,20.6,9,29.97
KMSP,44.8852,-93.2313,290,7,8.06,KMSP 100353Z 29007KT 10SM FEW080 16/08 A3010 RMK AO2 SLP192 T01560083,2024-08-10T03:53:00Z,15.6,8.3,10+,30.10
KMSO,46.9208,-114.094,20,5,5.75,KMSO 100353Z 02005KT 10SM CLR 23/09 A3002 RMK AO2 SLP144 T02330089,2024-08-10T03:53:00Z,23.3,8.9,10+,30.02
KMSN,43.1407,-89.3452,VRB,4,4.6,KMSN 100353Z VRB04KT 10SM CLR 16/11 A3005 RMK AO2 SLP174 LAST T01560106,2024-08-10T03:53:00Z,15.6,10.6,10+,30.05
KMSL,34.7439,-87.5997,360,6,6.9,KMSL 100353Z AUTO 36006KT 10SM CLR 26/19 A3003 RMK AO2 SLP161 T02610194,2024-08-10T03:53:00Z,26.1,19.4,10+,30.03
KMRB,39.4037,-77.975,150,3,3.45,KMRB 100353Z AUTO 15003KT 10SM CLR 22/19 A2992 RMK AO2 SLP126 T02170189,2024-08-10T03:53:00Z,21.7,18.9,10+,29.92
KMPO,41.1368,-75.3771,300,10,11.51,KMPO 100353Z AUTO 30010G20KT 10SM FEW011 BKN045 OVC070 20/18 A2991 RMK AO2 RAB18E27 SLP118 P0000 T02000183,2024-08-10T03:53:00Z,20,18.3,10+,29.91
KMOD,37.6254,-120.955,330,11,12.66,KMOD 100353Z 33011KT 10SM CLR 30/05 A2982 RMK AO2 SLP098 T03000050,2024-08-10T03:53:00Z,30,5,10+,29.82
KMNN,40.6158,-83.0673,290,3,3.45,KMNN 100353Z AUTO 29003KT 10SM CLR 17/12 A3003 RMK AO2 SLP165 T01720122,2024-08-10T03:53:00Z,17.2,12.2,10+,30.03
KMMV,45.1957,-123.134,240,8,9.21,KMMV 100353Z AUTO 24008KT 10SM CLR 21/14 A2993 RMK AO2 SLP134 T02110144,2024-08-10T03:53:00Z,21.1,14.4,10+,29.93
KMLU,32.5155,-92.03,0,0,0.0,KMLU 100353Z AUTO 00000KT 10SM CLR 25/21 A3006 RMK AO2 SLP176 T02500206,2024-08-10T03:53:00Z,25,20.6,10+,30.06
KMLS,46.4265,-105.883,60,11,12.66,KMLS 100353Z AUTO 06011KT 10SM CLR 18/02 A3017 RMK AO2 SLP204 T01830017,2024-08-10T03:53:00Z,18.3,1.7,10+,30.17
KMLP,47.4548,-115.671,VRB,3,3.45,KMLP 100353Z AUTO VRB03KT 10SM CLR 16/05 A3018 RMK AO2 SLP130 T01560050,2024-08-10T03:53:00Z,15.6,5,10+,30.18
KMLC,34.8824,-95.7815,10,9,10.36,KMLC 100353Z AUTO 01009KT 10SM CLR 26/12 A3012 RMK AO2 SLP187 T02610122,2024-08-10T03:53:00Z,26.1,12.2,10+,30.12
KMLB,28.0997,-80.6356,160,11,12.66,KMLB 100353Z AUTO 16011KT 10SM -RA SCT036 BKN050 OVC095 26/23 A3003 RMK AO2 PK WND 18029/0335 RAB37 SLP166 P0000 T02560233,2024-08-10T03:53:00Z,25.6,23.3,10+,30.03
KMKO,35.6576,-95.3658,360,9,10.36,KMKO 100353Z AUTO 36009KT 10SM CLR 24/12 A3016 RMK AO2 SLP203 T02440117,2024-08-10T03:53:00Z,24.4,11.7,10+,30.16
KMKL,35.5933,-88.917,40,3,3.45,KMKL 100353Z AUTO 04003KT 10SM CLR 19/16 A3008 RMK AO2 SLP182 T01940156,2024-08-10T03:53:00Z,19.4,15.6,10+,30.08
KMIW,42.1106,-92.9163,280,4,4.6,KMIW 100353Z AUTO 28004KT 10SM CLR 13/11 A3015 RMK AO2 SLP207 T01330106,2024-08-10T03:53:00Z,13.3,10.6,10+,30.15
KMIE,40.2345,-85.3936,280,5,5.75,KMIE 100353Z AUTO 28005KT 10SM CLR 16/12 A3006 RMK AO2 SLP172 T01560117,2024-08-10T03:53:00Z,15.6,11.7,10+,30.06
KMIC,45.0623,-93.3511,270,7,8.06,KMIC 100353Z AUTO 27007KT 10SM CLR 15/09 A3009 RMK AO2 SLP187 T01500094,2024-08-10T03:53:00Z,15,9.4,10+,30.09
KMIA,25.7881,-80.3169,VRB,4,4.6,KMIA 100353Z VRB04KT 10SM FEW025 SCT100 SCT200 BKN250 28/23 A3006 RMK AO2 SLP179 T02780233,2024-08-10T03:53:00Z,27.8,23.3,10+,30.06
KMHT,42.9245,-71.4377,170,10,11.51,KMHT 100353Z 17010G19KT 10SM SCT021 BKN036 OVC070 26/23 A2978 RMK AO2 RAE53 SLP093 P0003 T02560233,2024-08-10T03:53:00Z,25.6,23.3,10+,29.78
KMHE,43.7743,-98.0384,0,0,0.0,KMHE 100353Z AUTO 00000KT 10SM CLR 16/09 A3020 RMK AO2 SLP223 T01560094,2024-08-10T03:53:00Z,15.6,9.4,10+,30.20
KMGY,39.5918,-84.2263,320,6,6.9,KMGY 100353Z AUTO 32006KT 10SM CLR 19/13 A3004 RMK AO2 SLP165 T01940128,2024-08-10T03:53:00Z,19.4,12.8,10+,30.04
KMGM,32.2997,-86.4074,340,4,4.6,KMGM 100353Z 34004KT 10SM CLR 28/22 A2996 RMK AO2 SLP141 T02780222,2024-08-10T03:53:00Z,27.8,22.2,10+,29.96
KMFR,42.375,-122.877,350,5,5.75,KMFR 100353Z AUTO 35005KT 10SM CLR 27/09 A2992 RMK AO2 SLP121 T02670094,2024-08-10T03:53:00Z,26.7,9.4,10+,29.92
KMFE,26.1791,-98.2445,130,8,9.21,KMFE 100353Z 13008KT 10SM CLR 30/24 A3001 RMK AO2 SLP162 T03000239,2024-08-10T03:53:00Z,30,23.9,10+,30.01
KMDW,41.7841,-87.7551,250,5,5.75,KMDW 100353Z 25005KT 10SM CLR 17/11 A3006 RMK AO2 SLP173 T01720111,2024-08-10T03:53:00Z,17.2,11.1,10+,30.06
KMCW,43.1543,-93.3262,290,8,9.21,KMCW 100353Z AUTO 29008KT 10SM CLR 12/09 A3015 RMK AO2 SLP207 T01170094,2024-08-10T03:53:00Z,11.7,9.4,10+,30.15
KMCO,28.4182,-81.3241,200,5,5.75,KMCO 100353Z 20005KT 10SM FEW250 27/25 A3003 RMK AO2 SLP166 T02720250,2024-08-10T03:53:00Z,27.2,25,10+,30.03
KMCN,32.6889,-83.6529,260,3,3.45,KMCN 100353Z AUTO 26003KT 10SM BKN055 26/24 A2994 RMK AO2 SLP134 T02560244,2024-08-10T03:53:00Z,25.6,24.4,10+,29.94
KMCK,40.204,-100.59,220,5,5.75,KMCK 100353Z AUTO 22005KT 10SM FEW035 OVC047 15/13 A3028 RMK AO2 SLP247 T01500128,2024-08-10T03:53:00Z,15,12.8,10+,30.28
KMCI,39.2975,-94.7309,280,4,4.6,KMCI 100353Z 28004KT 10SM BKN200 16/11 A3021 RMK AO2 SLP226 T01610111,2024-08-10T03:53:00Z,16.1,11.1,10+,30.21
KMCE,37.286,-120.518,340,9,10.36,KMCE 100353Z AUTO 34009KT 10SM CLR 31/12 A2981 RMK AO2 SLP094 T03110117,2024-08-10T03:53:00Z,31.1,11.7,10+,29.81
KMCB,31.1823,-90.4721,340,7,8.06,KMCB 100353Z AUTO 34007KT 10SM CLR 26/20 A3002 RMK AO2 SLP157 T02610200,2024-08-10T03:53:00Z,26.1,20,10+,30.02
KMBS,43.5281,-84.0813,240,5,5.75,KMBS 100353Z AUTO 24005KT 10SM OVC060 17/13 A2995 RMK AO2 SLP141 T01720128,2024-08-10T03:53:00Z,17.2,12.8,10+,29.95
KMAI,30.837,-85.1835,180,4,4.6,KMAI 100353Z AUTO 18004KT 10SM CLR 27/24 A2993 RMK AO2 SLP134 T02670244,2024-08-10T03:53:00Z,26.7,24.4,10+,29.93
KMAF,31.9475,-102.209,150,9,10.36,KMAF 100353Z 15009KT 10SM CLR 31/14 A3011 RMK AO2 SLP143 T03060144,2024-08-10T03:53:00Z,30.6,14.4,10+,30.11
KMAE,36.9851,-120.111,310,8,9.21,KMAE 100353Z AUTO 31008KT 10SM CLR 31/13 A2982 RMK AO2 SLP094 T03110128,2024-08-10T03:53:00Z,31.1,12.8,10+,29.82
KLXV,39.228,-106.316,0,0,0.0,KLXV 100353Z AUTO 00000KT 10SM BKN110 09/08 A3054 RMK AO2 RAE04 SLP185 P0000 T00940083,2024-08-10T03:53:00Z,9.4,8.3,10+,30.54
KLXT,38.9577,-94.3712,310,3,3.45,KLXT 100353Z AUTO 31003KT 10SM CLR 17/11 A3022 RMK AO2 SLP230 T01720111 $,2024-08-10T03:53:00Z,17.2,11.1,10+,30.22
KLWV,38.7604,-87.599,340,6,6.9,KLWV 100353Z AUTO 34006KT 10SM CLR 18/14 A3011 RMK AO2 SLP192 T01780144,2024-08-10T03:53:00Z,17.8,14.4,10+,30.11
KLWD,40.6306,-93.9005,290,5,5.75,KLWD 100353Z AUTO 29005KT 10SM CLR 13/10 A3019 RMK AO2 SLP223 T01280100,2024-08-10T03:53:00Z,12.8,10,10+,30.19
KLVS,35.6558,-105.139,20,6,6.9,KLVS 100353Z AUTO 02006KT 10SM -RA FEW060 OVC085 14/13 A3039 RMK AO2 LTG DSNT E RAE0259B42 TSE03 SLP204 P0000 T01440128,2024-08-10T03:53:00Z,14.4,12.8,10+,30.39
KLVM,45.6984,-110.442,110,11,12.66,KLVM 100353Z AUTO 11011KT 10SM CLR 18/07 A3016 RMK AO2 SLP181 T01830067,2024-08-10T03:53:00Z,18.3,6.7,10+,30.16
KLVK,37.6931,-121.815,280,9,10.36,KLVK 100353Z 28009KT 10SM CLR 18/11 A2990 RMK AO2 SLP123 T01780111,2024-08-10T03:53:00Z,17.8,11.1,10+,29.90
KLVJ,29.5192,-95.2423,0,0,0.0,KLVJ 100353Z AUTO 00000KT 9SM CLR 29/27 A3002 RMK AO2 SLP166 T02890267,2024-08-10T03:53:00Z,28.9,26.7,9,30.02
KLUK,39.106,-84.4161,330,7,8.06,KLUK 100353Z AUTO 33007KT 10SM CLR 22/13 A3004 RMK AO2 SLP168 T02170133,2024-08-10T03:53:00Z,21.7,13.3,10+,30.04
KLSE,43.8792,-91.253,300,11,12.66,KLSE 100353Z AUTO 30011KT 10SM CLR 17/08 A3007 RMK AO2 SLP177 T01720083,2024-08-10T03:53:00Z,17.2,8.3,10+,30.07
KLPR,41.3463,-82.1788,270,7,8.06,KLPR 100353Z AUTO 27007KT 10SM CLR 18/13 A3000 RMK AO2 SLP152 T01780133,2024-08-10T03:53:00Z,17.8,13.3,10+,30.00
KLOZ,37.0896,-84.0688,280,3,3.45,KLOZ 100353Z AUTO 28003KT 10SM FEW035 SCT060 23/20 A3005 RMK AO2 SLP163 T02280200,2024-08-10T03:53:00Z,22.8,20,10+,30.05
KLOU,38.2302,-85.6629,320,6,6.9,KLOU 100353Z AUTO 32006KT 10SM CLR 21/14 A3006 RMK AO2 SLP173 T02110139,2024-08-10T03:53:00Z,21.1,13.9,10+,30.06
KLOL,40.0685,-118.57,270,9,10.36,KLOL 100353Z AUTO 27009KT 10SM CLR 28/01 A2997 RMK AO2 SLP099 T02830011,2024-08-10T03:53:00Z,28.3,1.1,10+,29.97
KLNS,40.1206,-76.2944,290,7,8.06,KLNS 100353Z AUTO 29007KT 10SM CLR 23/21 A2989 RMK AO2 SLP118 T02330206,2024-08-10T03:53:00Z,23.3,20.6,10+,29.89
KLMT,42.147,-121.726,290,7,8.06,KLMT 100353Z AUTO 29007KT 10SM CLR 23/12 A3004 RMK AO2 SLP129 T02280117,2024-08-10T03:53:00Z,22.8,11.7,10+,30.04
KLLQ,33.636,-91.7555,0,0,0.0,KLLQ 100353Z AUTO 00000KT 10SM CLR 23/22 A3007 RMK AO2 SLP179 T02330217,2024-08-10T03:53:00Z,23.3,21.7,10+,30.07
KLKV,42.1538,-120.403,0,0,0.0,KLKV 100353Z AUTO 00000KT 10SM CLR 21/05 A3005 RMK AO2 SLP135 T02060050,2024-08-10T03:53:00Z,20.6,5,10+,30.05
KLIT,34.7273,-92.2358,30,4,4.6,KLIT 100353Z 03004KT 10SM CLR 26/19 A3008 RMK AO2 SLP185 T02560189,2024-08-10T03:53:00Z,25.6,18.9,10+,30.08
KLHX,38.0495,-103.513,150,8,9.21,KLHX 100353Z AUTO 15008KT 10SM OVC011 15/13 A3030 RMK AO2 SLP222 T01500128,2024-08-10T03:53:00Z,15,12.8,10+,30.30
KLHQ,39.7573,-82.6633,290,3,3.45,KLHQ 100353Z AUTO 29003KT 10SM CLR 19/15 A3001 RMK AO2 SLP156 T01890150,2024-08-10T03:53:00Z,18.9,15,10+,30.01
KLGB,33.8118,-118.147,310,6,6.9,KLGB 100353Z 31006KT 10SM CLR 20/16 A2986 RMK AO2 SLP111 T02000161,2024-08-10T03:53:00Z,20,16.1,10+,29.86
KLFT,30.1986,-91.9896,360,6,6.9,KLFT 100353Z 36006KT 10SM CLR 29/22 A3001 RMK AO2 SLP160 T02940217,2024-08-10T03:53:00Z,29.4,21.7,10+,30.01
KLFK,31.2359,-94.7546,10,4,4.6,KLFK 100353Z AUTO 01004KT 10SM CLR 27/23 A3005 RMK AO2 SLP170 T02720233,2024-08-10T03:53:00Z,27.2,23.3,10+,30.05
KLEE,28.8214,-81.8006,210,7,8.06,KLEE 100353Z AUTO 21007KT 6SM BR CLR 28/26 A3002 RMK AO2 SLP164 T02780261,2024-08-10T03:53:00Z,27.8,26.1,6,30.02
KLCH,30.1255,-93.2277,50,5,5.75,KLCH 100353Z 05005KT 10SM CLR 29/23 A3001 RMK AO2 SLP171 T02890228,2024-08-10T03:53:00Z,28.9,22.8,10+,30.01
KLBX,29.1154,-95.4632,0,0,0.0,KLBX 100353Z AUTO 00000KT 8SM CLR 26/26 A3001 RMK AO2 SLP163 T02610261,2024-08-10T03:53:00Z,26.1,26.1,8,30.01
KLBF,41.122,-100.669,200,3,3.45,KLBF 100353Z AUTO 20003KT 10SM BKN048 OVC080 16/12 A3027 RMK AO2 SLP241 T01560122,2024-08-10T03:53:00Z,15.6,12.2,10+,30.27
KLBB,33.6658,-101.823,110,11,12.66,KLBB 100353Z 11011KT 10SM CLR 25/18 A3018 RMK AO2 SLP172 T02500183,2024-08-10T03:53:00Z,25,18.3,10+,30.18
KLAW,34.5577,-98.4172,30,8,9.21,KLAW 100353Z AUTO 03008KT 10SM CLR 26/16 A3014 RMK AO2 SLP193 T02560156,2024-08-10T03:53:00Z,25.6,15.6,10+,30.14
KLAN,42.7761,-84.5997,260,7,8.06,KLAN 100353Z 26007KT 10SM FEW046 OVC065 17/12 A2998 RMK AO2 SLP151 T01670122,2024-08-10T03:53:00Z,16.7,12.2,10+,29.98
KLAA,38.0718,-102.687,150,8,9.21,KLAA 100353Z AUTO 15008KT 10SM OVC021 16/11 A3028 RMK AO2 SLP223 T01610106,2024-08-10T03:53:00Z,16.1,10.6,10+,30.28
KJLN,37.1522,-94.4952,10,5,5.75,KJLN 100353Z AUTO 01005KT 10SM CLR 19/12 A3021 RMK AO2 SLP221 T01940122,2024-08-10T03:53:00Z,19.4,12.2,10+,30.21
KJKL,37.5913,-83.3137,VRB,3,3.45,KJKL 100353Z AUTO VRB03KT 10SM FEW036 SCT060 23/18 A3005 RMK AO2 SLP159 T02280183,2024-08-10T03:53:00Z,22.8,18.3,10+,30.05
KJER,42.7274,-114.455,100,7,8.06,KJER 100353Z AUTO 10007G26KT 10SM CLR 26/05 A3001 RMK AO2 PK WND 09026/0344 SLP118 T02560050,2024-08-10T03:53:00Z,25.6,5,10+,30.01
KJEF,38.5945,-92.1567,0,0,0.0,KJEF 100353Z AUTO 00000KT 10SM CLR 19/13 A3018 RMK AO2 SLP207 T01890128,2024-08-10T03:53:00Z,18.9,12.8,10+,30.18
KJBR,35.8357,-90.6442,360,6,6.9,KJBR 100353Z AUTO 36006KT 10SM CLR 23/14 A3010 RMK AO2 SLP189 T02330144 $,2024-08-10T03:53:00Z,23.3,14.4,10+,30.10
KIXD,38.8221,-94.8902,0,0,0.0,KIXD 100353Z AUTO 00000KT 10SM CLR 17/13 A3023 RMK AO2 SLP231 T01670128,2024-08-10T03:53:00Z,16.7,12.8,10+,30.23
KIWI,43.9639,-69.7114,200,10,11.51,KIWI 100353Z AUTO 20010G20KT 9SM -RA OVC007 24/22 A2984 RMK AO2 PK WND 20031/0304 SLP102 P0004 T02390222,2024-08-10T03:53:00Z,23.9,22.2,9,29.84
KITR,39.2415,-102.282,140,6,6.9,KITR 100353Z AUTO 14006KT 10SM OVC016 14/11 A3031 RMK AO2 SLP232 T01390106 $,2024-08-10T03:53:00Z,13.9,10.6,10+,30.31
KIPL,32.8346,-115.577,,,,KIPL 100353Z AUTO A2967 RMK AO2 SLPNO PWINO $,2024-08-10T03:53:00Z,,,,29.67
KINK,31.7801,-103.202,150,11,12.66,KINK 100353Z AUTO 15011KT CLR 32/13 A3008 RMK AO2 SLP131 T03220128,2024-08-10T03:53:00Z,32.2,12.8,,30.08
KIDA,43.5204,-112.068,30,6,6.9,KIDA 100353Z AUTO 03006KT 10SM CLR 19/08 A3010 RMK AO2 SLP155 T01940078,2024-08-10T03:53:00Z,19.4,7.8,10+,30.10
KICT,37.6475,-97.43,20,7,8.06,KICT 100353Z 02007KT 10SM SCT070 BKN100 OVC180 18/11 A3023 RMK AO2 SLP230 T01780111,2024-08-10T03:53:00Z,17.8,11.1,10+,30.23
KICR,43.391,-99.8462,140,8,9.21,KICR 100353Z AUTO 14008KT 10SM CLR 14/07 A3022 RMK AO2 SLP229 T01440067,2024-08-10T03:53:00Z,14.4,6.7,10+,30.22
KIAH,29.9844,-95.3607,80,4,4.6,KIAH 100353Z 08004KT 10SM FEW050 SCT250 30/23 A3001 RMK AO2 SLP162 T03000233,2024-08-10T03:53:00Z,30,23.3,10+,30.01
KIAG,43.1083,-78.9382,270,4,4.6,KIAG 100353Z AUTO 27004KT 10SM CLR 17/12 A2989 RMK AO2 SLP120 T01670122,2024-08-10T03:53:00Z,16.7,12.2,10+,29.89
KHZY,41.7794,-80.6968,250,5,5.75,KHZY 100353Z AUTO 25005KT 10SM BKN055 18/16 A2995 RMK AO2 SLP137 T01830156,2024-08-10T03:53:00Z,18.3,15.6,10+,29.95
KHYR,46.0303,-91.4426,290,5,5.75,KHYR 100353Z AUTO 29005KT 10SM OVC037 13/08 A3003 RMK AO2 SLP171 T01330083,2024-08-10T03:53:00Z,13.3,8.3,10+,30.03
KHWO,25.9996,-80.2412,,,,KHWO 100353Z 10SM CLR 28/24 A3006 RMK AO2 SLP180 T02830239 $,2024-08-10T03:53:00Z,28.3,23.9,10+,30.06
KHVR,48.5425,-109.764,90,9,10.36,KHVR 100353Z AUTO 09009KT 10SM CLR 18/05 A3015 RMK AO2 SLP201 T01780050,2024-08-10T03:53:00Z,17.8,5,10+,30.15
KHUF,39.4429,-87.3221,330,5,5.75,KHUF 100353Z 33005KT 10SM CLR 17/13 A3011 RMK AO2 SLP192 T01720133,2024-08-10T03:53:00Z,17.2,13.3,10+,30.11
KHSV,34.6441,-86.7861,360,7,8.06,KHSV 100353Z 36007KT 10SM CLR 26/19 A3002 RMK AO2 SLP156 T02560189,2024-08-10T03:53:00Z,25.6,18.9,10+,30.02
KHSI,40.6002,-98.4264,280,5,5.75,KHSI 100353Z AUTO 28005KT 10SM SCT090 OVC110 16/13 A3025 RMK AO2 SLP238 T01610128,2024-08-10T03:53:00Z,16.1,12.8,10+,30.25
KHRO,36.2673,-93.1566,340,4,4.6,KHRO 100353Z AUTO 34004KT 10SM CLR 20/13 A3018 RMK AO2 SLP205 T02000128 $,2024-08-10T03:53:00Z,20,12.8,10+,30.18
KHRI,45.8259,-119.261,250,5,5.75,KHRI 100353Z AUTO 25005KT 10SM CLR 28/12 A2986 RMK AO2 SLP106 T02780117,2024-08-10T03:53:00Z,27.8,11.7,10+,29.86
KHQM,46.9729,-123.931,280,7,8.06,KHQM 100353Z AUTO 28007KT 10SM OVC007 16/14 A3000 RMK AO2 SLP163 T01560144,2024-08-10T03:53:00Z,15.6,14.4,10+,30.00
KHOU,29.6458,-95.2821,200,3,3.45,KHOU 100353Z 20003KT 10SM FEW080 SCT250 30/26 A3001 RMK AO2 SLP165 T03000261,2024-08-10T03:53:00Z,30,26.1,10+,30.01
KHOT,34.4755,-93.1041,90,5,5.75,KHOT 100353Z AUTO 09005KT 10SM CLR 27/18 A3009 RMK AO2 SLP180 T02670183,2024-08-10T03:53:00Z,26.7,18.3,10+,30.09
KHLN,46.6045,-111.989,320,6,6.9,KHLN 100353Z AUTO 32006KT 10SM CLR 21/09 A3012 RMK AO2 SLP188 T02060089,2024-08-10T03:53:00Z,20.6,8.9,10+,30.12
KHLG,40.1699,-80.6441,300,5,5.75,KHLG 100353Z AUTO 30005KT 10SM BKN050 22/17 A2999 RMK AO2 SLP149 T02220167,2024-08-10T03:53:00Z,22.2,16.7,10+,29.99
KHKY,35.742,-81.3822,0,0,0.0,KHKY 100353Z AUTO 00000KT 9SM 23/22 A2999 RMK AO2 LTG DSNT S AND SW SLP131 T02330222 $,2024-08-10T03:53:00Z,23.3,22.2,9,29.99
KHKS,32.3376,-90.2214,340,3,3.45,KHKS 100353Z AUTO 34003KT 10SM CLR 26/21 A3003 RMK AO2 SLP160 T02610206,2024-08-10T03:53:00Z,26.1,20.6,10+,30.03
KHKA,35.9378,-89.8332,20,5,5.75,KHKA 100353Z AUTO 02005KT 10SM CLR 20/17 A3009 RMK AO2 SLP186 T02000167 $,2024-08-10T03:53:00Z,20,16.7,10+,30.09
KHJO,36.3114,-119.623,300,8,9.21,KHJO 100353Z AUTO 30008KT 10SM CLR 36/12 A2981 RMK AO2 SLP094 T03560117,2024-08-10T03:53:00Z,35.6,11.7,10+,29.81
KHIO,45.5476,-122.956,290,8,9.21,KHIO 100353Z AUTO 29008KT 10SM CLR 24/14 A2993 RMK AO2 SLP132 T02440144,2024-08-10T03:53:00Z,24.4,14.4,10+,29.93
KHIB,47.3804,-92.8325,330,10,11.51,KHIB 100353Z AUTO 33010KT 10SM OVC040 13/08 A3004 RMK AO2 SLP178 T01280078,2024-08-10T03:53:00Z,12.8,7.8,10+,30.04
KHGR,39.7062,-77.7304,10,3,3.45,KHGR 100353Z AUTO 01003KT 10SM CLR 24/19 A2993 RMK AO2 SLP137 T02390189,2024-08-10T03:53:00Z,23.9,18.9,10+,29.93
KHEI,46.0108,-102.652,90,10,11.51,KHEI 100353Z AUTO 09010KT 10SM CLR 14/06 A3022 RMK AO2 SLP227 T01390056,2024-08-10T03:53:00Z,13.9,5.6,10+,30.22
KHBR,34.9891,-99.0528,50,8,9.21,KHBR 100353Z AUTO 05008KT 10SM FEW050 FEW100 22/13 A3018 RMK AO2 SLP208 T02220133,2024-08-10T03:53:00Z,22.2,13.3,10+,30.18
KHBG,31.2648,-89.2561,0,0,0.0,KHBG 100353Z AUTO 00000KT 10SM CLR 25/19 A3000 RMK AO2 SLP155 T02500194,2024-08-10T03:53:00Z,25,19.4,10+,30.00
KHAO,39.3612,-84.5206,320,8,9.21,KHAO 100353Z AUTO 32008KT 10SM CLR 20/14 A3006 RMK AO2 SLP175 T02000139,2024-08-10T03:53:00Z,20,13.9,10+,30.06
KGZH,31.4191,-87.0484,0,0,0.0,KGZH 100353Z AUTO 00000KT 10SM CLR 27/22 A2997 RMK AO2 SLP144 T02670222,2024-08-10T03:53:00Z,26.7,22.2,10+,29.97
KGWO,33.4961,-90.0894,360,4,4.6,KGWO 100353Z AUTO 36004KT 10SM CLR 25/21 A3004 RMK AO2 SLP169 T02500211,2024-08-10T03:53:00Z,25,21.1,10+,30.04
KGVL,34.2721,-83.8305,300,4,4.6,KGVL 100353Z AUTO 30004KT 10SM CLR 26/19 A3001 RMK AO2 SLP142 T02610189,2024-08-10T03:53:00Z,26.1,18.9,10+,30.01
KGUP,35.5086,-108.793,90,5,5.75,KGUP 100353Z AUTO 09005KT 10SM OVC110 18/15 A3029 RMK AO2 SLP112 T01780150,2024-08-10T03:53:00Z,17.8,15,10+,30.29
KGTF,47.4733,-111.383,40,10,11.51,KGTF 100353Z 04010KT 10SM CLR 18/07 A3012 RMK AO2 SLP185 T01780072,2024-08-10T03:53:00Z,17.8,7.2,10+,30.12
KGSP,34.8842,-82.2209,30,7,8.06,KGSP 100353Z AUTO 03007KT 10SM TS BKN039 27/21 A2998 RMK AO2 TSB49 SLP135 T02720206,2024-08-10T03:53:00Z,27.2,20.6,10+,29.98
KGSH,41.5265,-85.7872,260,4,4.6,KGSH 100353Z AUTO 26004KT 10SM BKN040 OVC060 17/13 A3003 RMK AO2 SLP166 T01720133,2024-08-10T03:53:00Z,17.2,13.3,10+,30.03
KGRR,42.8821,-85.523,270,8,9.21,KGRR 100353Z 27008KT 10SM FEW065 17/11 A2999 RMK AO2 SLP152 LAST T01670111 $,2024-08-10T03:53:00Z,16.7,11.1,10+,29.99
KGRI,40.9615,-98.313,0,0,0.0,KGRI 100353Z 00000KT 10SM CLR 17/13 A3025 RMK AO2 SLP240 T01670133,2024-08-10T03:53:00Z,16.7,13.3,10+,30.25
KGRB,44.4796,-88.137,250,7,8.06,KGRB 100353Z 25007KT 10SM CLR 14/11 A2996 RMK AO2 SLP147 T01390106,2024-08-10T03:53:00Z,13.9,10.6,10+,29.96
KGPT,30.4121,-89.0809,340,5,5.75,KGPT 100353Z AUTO 34005KT 10SM CLR 29/22 A2996 RMK AO2 SLP144 T02890217,2024-08-10T03:53:00Z,28.9,21.7,10+,29.96
KGOK,35.8517,-97.4142,40,7,8.06,KGOK 100353Z AUTO 04007KT 10SM CLR 22/11 A3017 RMK AO2 SLP210 T02220111 $,2024-08-10T03:53:00Z,22.2,11.1,10+,30.17
KGNV,29.6917,-82.276,150,3,3.45,KGNV 100353Z AUTO 15003KT 10SM CLR 27/26 A3002 RMK AO2 SLP161 T02670261,2024-08-10T03:53:00Z,26.7,26.1,10+,30.02
KGLR,45.0166,-84.6894,240,5,5.75,KGLR 100353Z AUTO 24005KT 10SM FEW029 SCT095 15/13 A2990 RMK AO2 RAE07B31E46 SLP121 P0002 T01500128,2024-08-10T03:53:00Z,15,12.8,10+,29.90
KGLH,33.4772,-90.9847,350,5,5.75,KGLH 100353Z AUTO 35005KT 10SM CLR 23/21 A3004 RMK AO2 SLP179 T02280211,2024-08-10T03:53:00Z,22.8,21.1,10+,30.04
KGKY,32.6583,-97.0951,0,0,0.0,KGKY 100353Z AUTO 00000KT 10SM CLR 30/21 A3007 RMK AO2 SLP172 T03000211,2024-08-10T03:53:00Z,30,21.1,10+,30.07
KGKJ,41.6258,-80.2123,210,5,5.75,KGKJ 100353Z AUTO 21005KT 10SM CLR 18/16 A2997 RMK AO2 SLP140 T01780156,2024-08-10T03:53:00Z,17.8,15.6,10+,29.97
KGJT,39.1344,-108.541,90,8,9.21,KGJT 100353Z 09008KT 10SM SCT110 19/16 A3020 RMK AO2 RAE48 SLP162 P0000 T01890156,2024-08-10T03:53:00Z,18.9,15.6,10+,30.20
KGIF,28.0614,-81.7568,170,5,5.75,KGIF 100353Z AUTO 17005KT 10SM CLR 28/26 A3004 RMK AO2 SLP170 T02780256,2024-08-10T03:53:00Z,27.8,25.6,10+,30.04
KGGW,48.2142,-106.621,100,8,9.21,KGGW 100353Z AUTO 10008KT 10SM CLR 17/02 A3018 RMK AO2 SLP216 T01670022,2024-08-10T03:53:00Z,16.7,2.2,10+,30.18
KGGG,32.3909,-94.714,0,0,0.0,KGGG 100353Z AUTO 00000KT 10SM CLR 26/22 A3005 RMK AO2 SLP169 T02560222 $,2024-08-10T03:53:00Z,25.6,22.2,10+,30.05
KGFK,47.9428,-97.1829,300,7,8.06,KGFK 100353Z 30007KT 7SM CLR 11/07 A3013 RMK AO2 SLP205 T01110072,2024-08-10T03:53:00Z,11.1,7.2,7,30.13
KGEZ,39.5854,-85.7998,310,5,5.75,KGEZ 100353Z AUTO 31005KT 10SM CLR 17/13 A3007 RMK AO2 SLP177 T01720128 $,2024-08-10T03:53:00Z,17.2,12.8,10+,30.07
KGEY,44.5173,-108.075,310,7,8.06,KGEY 100353Z AUTO 31007KT 10SM CLR 20/07 A3014 RMK AO2 SLP177 T02000072,2024-08-10T03:53:00Z,20,7.2,10+,30.14
KGEG,47.6217,-117.528,340,8,9.21,KGEG 100353Z 34008KT 10SM FEW160 SCT250 25/07 A2997 RMK AO2 SLP131 T02500067,2024-08-10T03:53:00Z,25,6.7,10+,29.97
KGCC,44.3398,-105.542,180,9,10.36,KGCC 100353Z AUTO 18009KT 10SM CLR 14/11 A3021 RMK AO2 SLP206 T01440106,2024-08-10T03:53:00Z,14.4,10.6,10+,30.21
KGAG,36.2966,-99.7686,80,4,4.6,KGAG 100353Z AUTO 08004KT 10SM OVC090 18/12 A3023 RMK AO2 SLP221 T01780122,2024-08-10T03:53:00Z,17.8,12.2,10+,30.23
KFYV,36.0103,-94.1624,VRB,4,4.6,KFYV 100353Z AUTO VRB04KT 10SM CLR 24/12 A3016 RMK AO2 SLP199 T02390117,2024-08-10T03:53:00Z,23.9,11.7,10+,30.16
KFXE,26.199,-80.1776,200,4,4.6,KFXE 100353Z AUTO 20004KT 10SM CLR 28/24 A3005 RMK AO2 SLP177 T02780244,2024-08-10T03:53:00Z,27.8,24.4,10+,30.05
KFUL,33.8715,-117.986,310,4,4.6,KFUL 100353Z 31004KT 10SM CLR 22/17 A2985 RMK AO2 SLP106 T02220167,2024-08-10T03:53:00Z,22.2,16.7,10+,29.85
KFTY,33.7776,-84.5247,330,6,6.9,KFTY 100353Z 33006KT 10SM CLR 27/20 A2998 RMK AO2 SLP139 T02670200,2024-08-10T03:53:00Z,26.7,20,10+,29.98
KFTW,32.8248,-97.364,30,6,6.9,KFTW 100353Z 03006KT 10SM CLR 28/21 A3006 RMK AO2 SLP170 T02830206,2024-08-10T03:53:00Z,28.3,20.6,10+,30.06
KFST,30.9119,-102.917,130,12,13.81,KFST 100353Z AUTO 13012KT 10SM CLR 30/14 A3010 RMK AO2 SLP136 T03000144 $,2024-08-10T03:53:00Z,30,14.4,10+,30.10
KFSM,35.3335,-94.3653,20,6,6.9,KFSM 100353Z 02006KT 10SM CLR 27/13 A3009 RMK AO2 SLP183 T02670128,2024-08-10T03:53:00Z,26.7,12.8,10+,30.09
KFPR,27.4981,-80.3763,190,3,3.45,KFPR 100353Z AUTO 19003KT 10SM BKN110 26/23 A3005 RMK AO2 SLP174 T02610233,2024-08-10T03:53:00Z,26.1,23.3,10+,30.05
KFOK,40.8506,-72.6193,200,12,13.81,KFOK 100353Z AUTO 20012G25KT 3SM -RA BR BKN006 OVC010 24/23 A2988 RMK AO2 PK WND 22027/0338 RAB0257 SLP116 P0008 T02390228,2024-08-10T03:53:00Z,23.9,22.8,3,29.88
KFOE,38.9414,-95.6513,0,0,0.0,KFOE 100353Z AUTO 00000KT 10SM CLR 16/14 A3023 RMK AO2 SLP232 T01610144 $,2024-08-10T03:53:00Z,16.1,14.4,10+,30.23
KFNT,42.9669,-83.75,230,6,6.9,KFNT 100353Z AUTO 23006KT 10SM OVC060 17/12 A2997 RMK AO2 SLP145 T01670117 $,2024-08-10T03:53:00Z,16.7,11.7,10+,29.97
KFNB,40.0791,-95.5893,0,0,0.0,KFNB 100353Z AUTO 00000KT 10SM CLR 16/12 A3020 RMK AO2 SLP223 T01560117,2024-08-10T03:53:00Z,15.6,11.7,10+,30.20
KFMY,26.584,-81.8615,200,4,4.6,KFMY 100353Z 20004KT 10SM CLR 28/25 A3003 RMK AO2 SLP170 T02830250,2024-08-10T03:53:00Z,28.3,25,10+,30.03
KFLO,34.1877,-79.7308,120,3,3.45,KFLO 100353Z AUTO 12003KT 7SM FEW046 FEW060 26/25 A2995 RMK AO2 SLP138 T02610250,2024-08-10T03:53:00Z,26.1,25,7,29.95
KFLL,26.0787,-80.1622,180,4,4.6,KFLL 100353Z 18004KT 10SM SCT200 BKN250 28/23 A3005 RMK AO2 SLP174 T02780233,2024-08-10T03:53:00Z,27.8,23.3,10+,30.05
KFLD,43.7695,-88.4907,220,5,5.75,KFLD 100353Z AUTO 22005KT 10SM FEW080 13/11 A3002 RMK AO2 SLP165 T01280106,2024-08-10T03:53:00Z,12.8,10.6,10+,30.02
KFHR,48.52,-123.026,110,4,4.6,KFHR 100353Z AUTO 11004KT 10SM CLR 14/11 A2994 RMK AO2 SLP138 T01390106,2024-08-10T03:53:00Z,13.9,10.6,10+,29.94
KFFT,38.1846,-84.9039,320,5,5.75,KFFT 100353Z AUTO 32005KT 10SM CLR 21/16 A3005 RMK AO2 SLP168 T02110161,2024-08-10T03:53:00Z,21.1,16.1,10+,30.05
KFFC,33.3543,-84.5689,0,0,0.0,KFFC 100353Z AUTO 00000KT 10SM CLR 25/22 A2998 RMK AO2 SLP144 T02500222,2024-08-10T03:53:00Z,25,22.2,10+,29.98
KFDY,41.0137,-83.6681,270,5,5.75,KFDY 100353Z AUTO 27005KT 10SM CLR 16/11 A3001 RMK AO2 SLP155 T01610111,2024-08-10T03:53:00Z,16.1,11.1,10+,30.01
KFDR,34.3531,-98.9876,50,11,12.66,KFDR 100353Z AUTO 05011KT 10SM CLR 26/16 A3011 RMK AO2 SLP178 T02560156,2024-08-10T03:53:00Z,25.6,15.6,10+,30.11
KFCM,44.8321,-93.4705,280,7,8.06,KFCM 100353Z AUTO 28007KT 10SM CLR 16/09 A3010 RMK AO2 SLP190 T01560094,2024-08-10T03:53:00Z,15.6,9.4,10+,30.10
KFAT,36.78,-119.72,320,6,6.9,KFAT 100353Z 32006KT 10SM FEW050 FEW200 34/08 A2981 RMK AO2 SLP090 T03440083,2024-08-10T03:53:00Z,34.4,8.3,10+,29.81
KFAR,46.9242,-96.8119,290,3,3.45,KFAR 100353Z 29003KT 10SM CLR 13/08 A3014 RMK AO2 SLP209 T01280078,2024-08-10T03:53:00Z,12.8,7.8,10+,30.14
KEYW,24.5571,-81.7554,210,7,8.06,KEYW 100353Z AUTO 21007KT 10SM CLR 29/24 A3004 RMK AO2 SLP178 T02890239 $,2024-08-10T03:53:00Z,28.9,23.9,10+,30.04
KEYE,39.8248,-86.2958,300,9,10.36,KEYE 100353Z AUTO 30009KT 10SM CLR 18/13 A3008 RMK AO2 SLP180 T01780128,2024-08-10T03:53:00Z,17.8,12.8,10+,30.08
KEWB,41.6791,-70.9591,180,17,19.56,KEWB 100353Z 18017G26KT 10SM OVC011 26/24 A2987 RMK AO2 PK WND 19026/0338 RAB42E51 SLP113 P0000 T02610244,2024-08-10T03:53:00Z,26.1,24.4,10+,29.87
KEVW,41.2727,-111.031,160,10,11.51,KEVW 100353Z AUTO 16010KT 10SM CLR 13/09 A3029 RMK AO2 WSHFT 0325 SLP171 T01330089,2024-08-10T03:53:00Z,13.3,8.9,10+,30.29
KESF,31.3963,-92.2828,0,0,0.0,KESF 100353Z AUTO 00000KT 10SM CLR 27/21 A3003 RMK AO2 SLP166 T02670211,2024-08-10T03:53:00Z,26.7,21.1,10+,30.03
KEQY,35.0147,-80.6242,0,0,0.0,KEQY 100353Z AUTO 00000KT 10SM CLR A2995 RMK AO2 SLPNO $,2024-08-10T03:53:00Z,,,10+,29.95
KEPH,47.3078,-119.516,,,,KEPH 100353Z AUTO 10SM CLR 27/08 A2993 RMK AO2 SLP124 T02720078 $,2024-08-10T03:53:00Z,27.2,7.8,10+,29.93
KENW,42.5953,-87.9383,250,7,8.06,KENW 100353Z AUTO 25007KT 10SM CLR 14/11 A3004 RMK AO2 SLP172 T01390111,2024-08-10T03:53:00Z,13.9,11.1,10+,30.04
KEMP,38.3291,-96.1945,280,3,3.45,KEMP 100353Z AUTO 28003KT 10SM CLR 17/14 A3024 RMK AO2 SLP234 T01670139,2024-08-10T03:53:00Z,16.7,13.9,10+,30.24
KELY,39.2954,-114.847,0,0,0.0,KELY 100353Z AUTO 00000KT 10SM CLR 22/08 A3019 RMK AO2 SLP107 T02220078,2024-08-10T03:53:00Z,22.2,7.8,10+,30.19
KELN,47.0338,-120.531,260,12,13.81,KELN 100353Z AUTO 26012KT 10SM BKN110 27/09 A2999 RMK AO2 LTG DSNT SW SLP143 T02670089,2024-08-10T03:53:00Z,26.7,8.9,10+,29.99
KELM,42.1601,-76.89,260,8,9.21,KELM 100353Z 26008KT 10SM CLR 22/18 A2989 RMK AO2 SLP114 T02220178,2024-08-10T03:53:00Z,22.2,17.8,10+,29.89
KELD,33.2207,-92.814,0,0,0.0,KELD 100353Z AUTO 00000KT 10SM CLR 23/21 A3007 RMK AO2 SLP178 T02280211,2024-08-10T03:53:00Z,22.8,21.1,10+,30.07
KEET,33.1783,-86.7818,0,0,0.0,KEET 100353Z AUTO 00000KT 10SM CLR 24/22 A2999 RMK AO2 SLP149 T02390217,2024-08-10T03:53:00Z,23.9,21.7,10+,29.99
KEEO,40.0444,-107.888,20,6,6.9,KEEO 100353Z AUTO 02006KT 10SM CLR 16/11 A3028 RMK AO2 SLP171 T01560106,2024-08-10T03:53:00Z,15.6,10.6,10+,30.28
KECP,30.3487,-85.7884,180,4,4.6,KECP 100353Z AUTO 18004KT 10SM CLR 29/27 A2993 RMK AO1 SLP145 T02890267,2024-08-10T03:53:00Z,28.9,26.7,10+,29.93
KDXR,41.3722,-73.4834,,,,KDXR 100353Z AUTO 9SM OVC008 24/23 A2983 RMK AO2 RAE00B17E40 SLP097 P0000 T02390228,2024-08-10T03:53:00Z,23.9,22.8,9,29.83
KDWH,30.068,-95.5563,70,5,5.75,KDWH 100353Z AUTO 07005KT 10SM BKN065 31/23 A3002 RMK AO2 SLP162 T03060228,2024-08-10T03:53:00Z,30.6,22.8,10+,30.02
KDVT,33.6902,-112.066,240,4,4.6,KDVT 100353Z 24004KT 10SM CLR 37/16 A2981 RMK AO2 SLP067 T03670156,2024-08-10T03:53:00Z,36.7,15.6,10+,29.81
KDUJ,41.1795,-78.8933,0,0,0.0,KDUJ 100353Z AUTO 00000KT 10SM CLR 17/16 A2997 RMK AO2 SLP138 T01720156,2024-08-10T03:53:00Z,17.2,15.6,10+,29.97
KDTW,42.2311,-83.3312,280,5,5.75,KDTW 100353Z 28005KT 10SM FEW050 FEW250 17/12 A2998 RMK AO2 SLP150 T01720117,2024-08-10T03:53:00Z,17.2,11.7,10+,29.98
KDTO,33.2088,-97.1992,0,0,0.0,KDTO 100353Z AUTO 00000KT 10SM CLR 25/22 A3008 RMK AO2 SLP176 T02500217 TSNO,2024-08-10T03:53:00Z,25,21.7,10+,30.08
KDTN,32.5429,-93.745,90,3,3.45,KDTN 100353Z 09003KT 10SM CLR 28/21 A3006 RMK AO2 SLP176 T02780206,2024-08-10T03:53:00Z,27.8,20.6,10+,30.06
KDRT,29.3784,-100.927,80,7,8.06,KDRT 100353Z AUTO 08007KT 10SM CLR 34/17 A2999 RMK AO2 SLP142 T03440167 $,2024-08-10T03:53:00Z,34.4,16.7,10+,29.99
KDRO,37.1431,-107.76,210,5,5.75,KDRO 100353Z AUTO 21005KT 10SM SCT060 BKN075 OVC085 20/12 A3032 RMK AO2 SLP189 T02000122,2024-08-10T03:53:00Z,20,12.2,10+,30.32
KDRA,36.621,-116.029,190,9,10.36,KDRA 100353Z AUTO 19009KT 10SM CLR 35/10 A2991 RMK AO2 SLP065 T03500100,2024-08-10T03:53:00Z,35,10,10+,29.91
KDNL,33.4668,-82.0385,0,0,0.0,KDNL 100353Z AUTO 00000KT 10SM CLR 28/24 A2994 RMK AO2 SLP133 T02780244,2024-08-10T03:53:00Z,27.8,24.4,10+,29.94
KDMO,38.712,-93.1747,0,0,0.0,KDMO 100353Z AUTO 00000KT 10SM CLR 17/12 A3020 RMK AO2 SLP222 T01720122,2024-08-10T03:53:00Z,17.2,12.2,10+,30.20
KDMN,32.2592,-107.721,70,6,6.9,KDMN 100353Z AUTO 07006KT 10SM CLR 28/07 A3010 RMK AO2 SLP104 T02830072,2024-08-10T03:53:00Z,28.3,7.2,10+,30.10
KDMH,39.281,-76.611,,,,KDMH 100353Z AUTO 27/24 RMK AO1 SLPNO T02670239 $,2024-08-10T03:53:00Z,26.7,23.9,,
KDLS,45.619,-121.166,320,14,16.11,KDLS 100353Z AUTO 32014KT 10SM CLR 27/16 A2985 RMK AO2 SLP107 T02670161 $,2024-08-10T03:53:00Z,26.7,16.1,10+,29.85
KDLN,45.2584,-112.555,180,3,3.45,KDLN 100353Z AUTO 18003KT 10SM SCT110 17/06 A3014 RMK AO2 SLP164 T01670061,2024-08-10T03:53:00Z,16.7,6.1,10+,30.14
KDKK,42.4932,-79.2762,,,,KDKK 100353Z AUTO 10SM OVC039 23/13 A2992 RMK AO2 SLP129 T02330133,2024-08-10T03:53:00Z,23.3,13.3,10+,29.92
KDHN,31.3177,-85.4432,0,0,0.0,KDHN 100353Z 00000KT 10SM BKN120 28/25 A2998 RMK AO2 LTG DSNT SW SLP144 T02830250,2024-08-10T03:53:00Z,28.3,25,10+,29.98
KDFW,32.8974,-97.0219,20,7,8.06,KDFW 100353Z 02007KT 10SM SCT250 28/22 A3005 RMK AO2 SLP167 T02830217,2024-08-10T03:53:00Z,28.3,21.7,10+,30.05
KDFI,41.3357,-84.4285,0,0,0.0,KDFI 100353Z AUTO 00000KT 10SM CLR 14/12 A3002 RMK AO2 SLP164 T01440122,2024-08-10T03:53:00Z,14.4,12.2,10+,30.02
KDEW,47.9742,-117.429,340,5,5.75,KDEW 100353Z AUTO 34005KT 10SM SCT120 22/07 A2998 RMK AO2 SLP137 T02170067,2024-08-10T03:53:00Z,21.7,6.7,10+,29.98
KDET,42.4072,-83.009,280,5,5.75,KDET 100353Z 28005KT 10SM CLR 20/10 A2997 RMK AO2 SLP144 T02000100,2024-08-10T03:53:00Z,20,10,10+,29.97
KDEQ,34.048,-94.4016,0,0,0.0,KDEQ 100353Z AUTO 00000KT 10SM BKN055 26/23 A3004 RMK AO2 SLP168 T02560228,2024-08-10T03:53:00Z,25.6,22.8,10+,30.04
KDEN,39.8466,-104.656,100,3,3.45,KDEN 100353Z 10003KT 8SM FEW040 BKN100 OVC130 15/13 A3026 RMK AO2 RAB09E37 SLP195 P0000 T01500133,2024-08-10T03:53:00Z,15,13.3,8,30.26
KDCU,34.658,-86.9434,360,6,6.9,KDCU 100353Z AUTO 36006KT 10SM CLR 24/19 A3003 RMK AO2 SLP160 T02390194 $,2024-08-10T03:53:00Z,23.9,19.4,10+,30.03
KDBQ,42.3984,-90.7092,300,8,9.21,KDBQ 100353Z AUTO 30008KT 10SM CLR 14/09 A3011 RMK AO2 SLP194 T01440094,2024-08-10T03:53:00Z,14.4,9.4,10+,30.11
KDAN,36.5729,-79.335,210,3,3.45,KDAN 100353Z AUTO 21003KT 10SM CLR 24/23 A2994 RMK AO2 LTG DSNT SW SLP128 T02440233,2024-08-10T03:53:00Z,24.4,23.3,10+,29.94
KDAL,32.8384,-96.8358,50,3,3.45,KDAL 100353Z 05003KT 10SM FEW250 29/22 A3006 RMK AO2 SLP172 T02940217 $,2024-08-10T03:53:00Z,29.4,21.7,10+,30.06
KDAB,29.1735,-81.0719,200,5,5.75,KDAB 100353Z 20005KT 10SM FEW120 SCT200 27/25 A3001 RMK AO2 SLP161 T02720250,2024-08-10T03:53:00Z,27.2,25,10+,30.01
KCXO,30.3611,-95.4176,0,0,0.0,KCXO 100353Z AUTO 00000KT 10SM CLR 29/23 A3003 RMK AO2 SLP165 T02890228,2024-08-10T03:53:00Z,28.9,22.8,10+,30.03
KCUB,33.972,-80.9939,0,0,0.0,KCUB 100353Z AUTO 00000KT 10SM SCT045 BKN060 27/23 A2994 RMK AO2 SLP134 T02720233 $,2024-08-10T03:53:00Z,27.2,23.3,10+,29.94
KCSM,35.3568,-99.2041,10,7,8.06,KCSM 100353Z 01007KT 10SM CLR 20/13 A3021 RMK AO2 SLP213 T02000133,2024-08-10T03:53:00Z,20,13.3,10+,30.21
KCRS,32.0316,-96.3994,80,6,6.9,KCRS 100353Z AUTO 08006KT 10SM CLR 29/22 A3007 RMK AO2 SLP178 T02940217,2024-08-10T03:53:00Z,29.4,21.7,10+,30.07
KCRG,30.3371,-81.5128,210,3,3.45,KCRG 100353Z AUTO 21003KT 10SM CLR 28/25 A2999 RMK AO2 SLP153 T02830250,2024-08-10T03:53:00Z,28.3,25,10+,29.99
KCRE,33.8162,-78.7204,220,10,11.51,KCRE 100353Z AUTO 22010G21KT 5SM BR OVC006 28/27 A2994 RMK AO1 SLP138 T02780272,2024-08-10T03:53:00Z,27.8,27.2,5,29.94
KCQC,35.003,-105.663,10,6,6.9,KCQC 100353Z AUTO 01006KT 10SM CLR 18/12 A3040 RMK AO2 SLP212 T01780122 $,2024-08-10T03:53:00Z,17.8,12.2,10+,30.40
KCPS,38.57,-90.156,350,7,8.06,KCPS 100353Z AUTO 35007KT 10SM CLR 19/14 A3015 RMK AO2 SLP205 T01940139,2024-08-10T03:53:00Z,19.4,13.9,10+,30.15
KCPR,42.8978,-106.474,90,9,10.36,KCPR 100353Z AUTO 09009KT 10SM CLR 14/11 A3025 RMK AO2 SLP203 T01390106 $,2024-08-10T03:53:00Z,13.9,10.6,10+,30.25
KCNY,38.7501,-109.763,50,11,12.66,KCNY 100353Z AUTO 05011KT 10SM CLR 23/14 A3011 RMK AO2 SLP131 T02330139,2024-08-10T03:53:00Z,23.3,13.9,10+,30.11
KCNO,33.9756,-117.625,300,7,8.06,KCNO 100353Z 30007KT 10SM CLR 24/16 A2987 RMK AO2 SLP109 LAST T02390156 $,2024-08-10T03:53:00Z,23.9,15.6,10+,29.87
KCNM,32.3335,-104.258,150,11,12.66,KCNM 100353Z AUTO 15011KT 10SM CLR 31/12 A3010 RMK AO2 SLP130 T03110117,2024-08-10T03:53:00Z,31.1,11.7,10+,30.10
KCMI,40.0324,-88.2755,260,3,3.45,KCMI 100353Z 26003KT 10SM CLR 14/13 A3012 RMK AO2 SLP198 T01440128,2024-08-10T03:53:00Z,14.4,12.8,10+,30.12
KCLM,48.1219,-123.507,280,3,3.45,KCLM 100353Z AUTO 28003KT 10SM CLR 16/13 A2995 RMK AO2 SLP143 T01560133,2024-08-10T03:53:00Z,15.6,13.3,10+,29.95
KCLL,30.5912,-96.3631,90,5,5.75,KCLL 100353Z AUTO 09005KT 10SM CLR 31/23 A3003 RMK AO2 SLP165 T03060228,2024-08-10T03:53:00Z,30.6,22.8,10+,30.03
KCKB,39.3022,-80.2239,0,0,0.0,KCKB 100353Z 00000KT 10SM FEW060 20/18 A2999 RMK AO2 SLP142 T02000183,2024-08-10T03:53:00Z,20,18.3,10+,29.99
KCHO,38.1374,-78.4551,0,0,0.0,KCHO 100353Z AUTO 00000KT 10SM SCT065 24/22 A2992 RMK AO2 SLP122 T02390217 $,2024-08-10T03:53:00Z,23.9,21.7,10+,29.92
KCHA,35.0336,-85.2004,360,6,6.9,KCHA 100353Z 36006KT 10SM CLR 27/18 A3001 RMK AO2 SLP154 LAST T02670183,2024-08-10T03:53:00Z,26.7,18.3,10+,30.01
KCGI,37.2254,-89.5785,10,6,6.9,KCGI 100353Z AUTO 01006KT 10SM CLR 21/14 A3011 RMK AO2 SLP193 T02060144,2024-08-10T03:53:00Z,20.6,14.4,10+,30.11
KCEW,30.7771,-86.5194,0,0,0.0,KCEW 100353Z AUTO 00000KT 7SM FEW050 BKN060 OVC075 27/26 A2996 RMK AO2 LTG DSNT SW SLP141 T02670256 $,2024-08-10T03:53:00Z,26.7,25.6,7,29.96
KCDS,34.4275,-100.284,70,11,12.66,KCDS 100353Z AUTO 07011G17KT 10SM CLR 24/16 A3016 RMK AO2 SLP188 T02390161,2024-08-10T03:53:00Z,23.9,16.1,10+,30.16
KCDR,42.8374,-103.098,220,6,6.9,KCDR 100353Z AUTO 22006KT 10SM OVC060 16/12 A3025 RMK AO2 SLP239 T01560122 $,2024-08-10T03:53:00Z,15.6,12.2,10+,30.25
KCDC,37.7067,-113.097,50,16,18.41,KCDC 100353Z AUTO 05016G27KT 10SM -RA OVC090 23/12 A3020 RMK AO2 PK WND 06032/0338 WSHFT 0246 RAB38 SLP145 P0001 T02280117,2024-08-10T03:53:00Z,22.8,11.7,10+,30.20
KCCR,37.9916,-122.053,190,15,17.26,KCCR 100353Z 19015KT 10SM CLR 19/11 A2987 RMK AO2 SLP102 T01940111,2024-08-10T03:53:00Z,19.4,11.1,10+,29.87
KCAG,40.493,-107.524,,,,KCAG 100353Z AUTO A3028 RMK AO2 SLPNO PWINO $,2024-08-10T03:53:00Z,,,,30.28
KBYI,42.5452,-113.769,VRB,4,4.6,KBYI 100353Z AUTO VRB04KT 10SM CLR 24/07 A3002 RMK AO2 SLP120 T02390067,2024-08-10T03:53:00Z,23.9,6.7,10+,30.02
KBYG,44.3812,-106.719,160,9,10.36,KBYG 100353Z AUTO 16009KT 10SM BKN031 15/12 A3023 RMK AO2 SLP202 T01500117,2024-08-10T03:53:00Z,15,11.7,10+,30.23
KBWG,36.9647,-86.4238,0,0,0.0,KBWG 100353Z AUTO 00000KT 10SM CLR 22/16 A3007 RMK AO2 SLP178 T02170156,2024-08-10T03:53:00Z,21.7,15.6,10+,30.07
KBVO,36.7664,-96.0129,VRB,5,5.75,KBVO 100353Z AUTO VRB05KT 10SM CLR 19/10 A3021 RMK AO2 SLP221 T01940100,2024-08-10T03:53:00Z,19.4,10,10+,30.21
KBUR,34.1996,-118.365,120,8,9.21,KBUR 100353Z 12008KT 10SM CLR 22/14 A2987 RMK AO2 SLP101 T02170144 $,2024-08-10T03:53:00Z,21.7,14.4,10+,29.87
KBTR,30.5378,-91.1468,10,7,8.06,KBTR 100353Z 01007KT 10SM CLR 29/21 A3000 RMK AO2 SLP157 T02890206,2024-08-10T03:53:00Z,28.9,20.6,10+,30.00
KBTM,45.9644,-112.501,220,6,6.9,KBTM 100353Z AUTO 22006KT 10SM BKN100 16/07 A3018 RMK AO2 SLP174 T01610072,2024-08-10T03:53:00Z,16.1,7.2,10+,30.18
KBTL,42.3119,-85.2415,280,7,8.06,KBTL 100353Z AUTO 28007KT 10SM BKN035 OVC049 18/12 A3001 RMK AO2 SLP156 T01780117,2024-08-10T03:53:00Z,17.8,11.7,10+,30.01
KBRO,25.9146,-97.4231,110,6,6.9,KBRO 100353Z 11006KT 10SM CLR 28/26 A3001 RMK AO2 SLP161 T02830256,2024-08-10T03:53:00Z,28.3,25.6,10+,30.01
KBRL,40.7729,-91.1255,280,4,4.6,KBRL 100353Z AUTO 28004KT 10SM CLR 14/12 A3013 RMK AO2 SLP202 T01440117,2024-08-10T03:53:00Z,14.4,11.7,10+,30.13
KBRD,46.4021,-94.1273,290,6,6.9,KBRD 100353Z AUTO 29006KT 10SM CLR 14/08 A3010 RMK AO2 SLP193 T01440083,2024-08-10T03:53:00Z,14.4,8.3,10+,30.10
KBPT,29.9521,-94.0262,40,10,11.51,KBPT 100353Z AUTO 04010KT 10SM CLR 31/23 A3000 RMK AO2 SLP159 T03060228,2024-08-10T03:53:00Z,30.6,22.8,10+,30.00
KBPK,36.3705,-92.4719,0,0,0.0,KBPK 100353Z AUTO 00000KT 10SM CLR 21/13 A3015 RMK AO2 SLP200 T02110128,2024-08-10T03:53:00Z,21.1,12.8,10+,30.15
KBPI,42.578,-110.11,140,10,11.51,KBPI 100353Z AUTO 14010KT 10SM BKN120 17/08 A3029 RMK AO2 WSHFT 0321 SLP164 T01720083,2024-08-10T03:53:00Z,17.2,8.3,10+,30.29
KBOI,43.567,-116.241,VRB,3,3.45,KBOI 100353Z VRB03KT 10SM CLR 29/07 A2986 RMK AO2 SLP077 T02940072,2024-08-10T03:53:00Z,29.4,7.2,10+,29.86
KBNO,43.5949,-118.958,350,7,8.06,KBNO 100353Z AUTO 35007KT 9SM CLR 23/01 A2999 RMK AO2 SLP115 T02330006 $,2024-08-10T03:53:00Z,23.3,0.6,9,29.99
KBNA,36.1105,-86.6881,350,6,6.9,KBNA 100353Z 35006KT 10SM FEW250 24/15 A3007 RMK AO2 SLP176 T02390150,2024-08-10T03:53:00Z,23.9,15,10+,30.07
KBMG,39.1432,-86.6168,330,5,5.75,KBMG 100353Z AUTO 33005KT 10SM CLR 18/13 A3009 RMK AO2 SLP185 T01780128,2024-08-10T03:53:00Z,17.8,12.8,10+,30.09
KBLI,48.7991,-122.541,190,8,9.21,KBLI 100353Z 19008KT 10SM CLR 19/16 A2992 RMK AO2 SLP136 T01940156,2024-08-10T03:53:00Z,19.4,15.6,10+,29.92
KBKL,41.5173,-81.6832,,,,KBKL 100353Z AUTO A2995 RMK AO2 SLPNO PWINO $,2024-08-10T03:53:00Z,,,,29.95
KBKE,44.843,-117.81,310,7,8.06,KBKE 100353Z AUTO 31007KT 10SM CLR 23/06 A3000 RMK AO2 SLP130 T02330061,2024-08-10T03:53:00Z,23.3,6.1,10+,30.00
KBIV,42.7463,-86.0968,290,6,6.9,KBIV 100353Z AUTO 29006KT 10SM SCT055 18/11 A3001 RMK AO2 SLP158 T01830106,2024-08-10T03:53:00Z,18.3,10.6,10+,30.01
KBIL,45.8072,-108.546,50,8,9.21,KBIL 100353Z 05008KT 10SM SCT220 18/07 A3017 RMK AO2 SLP195 T01830067,2024-08-10T03:53:00Z,18.3,6.7,10+,30.17
KBHM,33.5655,-86.7449,0,0,0.0,KBHM 100353Z 00000KT 10SM CLR 24/19 A3002 RMK AO2 SLP157 T02440194,2024-08-10T03:53:00Z,24.4,19.4,10+,30.02
KBGR,44.7979,-68.8195,180,19,21.86,KBGR 100353Z 18019G34KT 10SM -RA OVC006 23/22 A2980 RMK AO2 PK WND 17038/0313 RAE33B41 CIG 005V010 SLP088 P0003 T02280217,2024-08-10T03:53:00Z,22.8,21.7,10+,29.80
KBGM,42.2068,-75.9799,290,7,8.06,KBGM 100353Z 29007KT 10SM FEW019 BKN070 21/19 A2989 RMK AO2 SLP113 T02060189,2024-08-10T03:53:00Z,20.6,18.9,10+,29.89
KBFI,47.5455,-122.315,320,3,3.45,KBFI 100353Z 32003KT 10SM FU CLR 26/14 A2992 RMK AO2 SLP130 T02560144,2024-08-10T03:53:00Z,25.6,14.4,10+,29.92
KBFD,41.7984,-78.6354,260,4,4.6,KBFD 100353Z AUTO 26004KT 10SM CLR 18/17 A2997 RMK AO2 SLP134 T01830172,2024-08-10T03:53:00Z,18.3,17.2,10+,29.97
KBEH,42.129,-86.4152,280,9,10.36,KBEH 100353Z AUTO 28009G19KT 10SM SCT065 19/12 A3002 RMK AO2 SLP163 T01940117,2024-08-10T03:53:00Z,19.4,11.7,10+,30.02
KBDE,48.7261,-94.6122,270,4,4.6,KBDE 100353Z AUTO 27004KT 10SM FEW043 13/09 A3007 RMK AO2 SLP185 T01330089,2024-08-10T03:53:00Z,13.3,8.9,10+,30.07
KBBW,41.4365,-99.6385,,,,KBBW 100353Z AUTO 10SM CLR 14/12 A3024 RMK AO2 SLP233 T01390122 $,2024-08-10T03:53:00Z,13.9,12.2,10+,30.24
KBAF,42.16,-72.7124,180,9,10.36,KBAF 100353Z AUTO 18009KT 10SM OVC008 23/23 A2980 RMK AO2 RAE43 CIG 004V012 SLP090 P0001 T02330228,2024-08-10T03:53:00Z,23.3,22.8,10+,29.80
KAZO,42.2283,-85.546,290,7,8.06,KAZO 100353Z AUTO 29007KT SCT034 BKN046 BKN070 18/13 A3001 RMK AO2 SLP160 T01830128 $,2024-08-10T03:53:00Z,18.3,12.8,,30.01
KAXN,45.868,-95.394,280,7,8.06,KAXN 100353Z AUTO 28007KT 10SM CLR 13/08 A3015 RMK AO2 SLP211 T01280083,2024-08-10T03:53:00Z,12.8,8.3,10+,30.15
KAWM,35.1401,-90.2359,0,0,0.0,KAWM 100353Z AUTO 00000KT 10SM CLR 22/18 A3006 RMK AO2 SLP176 T02220183,2024-08-10T03:53:00Z,22.2,18.3,10+,30.06
KAUS,30.2099,-97.6806,VRB,3,3.45,KAUS 100353Z VRB03KT 10SM FEW060 25/24 A3006 RMK AO2 PK WND 19029/0314 RAE39 TSE37 SLP167 OCNL LTG DSNT SW TS MOV SW P0020 T02500239 $,2024-08-10T03:53:00Z,25,23.9,10+,30.06
KATY,44.9045,-97.1496,0,0,0.0,KATY 100353Z AUTO 00000KT 10SM CLR 13/10 A3018 RMK AO2 SLP219 T01330100,2024-08-10T03:53:00Z,13.3,10,10+,30.18
KASE,39.2299,-106.871,130,4,4.6,KASE 100353Z AUTO 13004KT 10SM FEW110 12/09 A3040 RMK AO2 SLPNO T01220094,2024-08-10T03:53:00Z,12.2,9.4,10+,30.40
KASD,30.3436,-89.8224,0,0,0.0,KASD 100353Z AUTO 00000KT 10SM CLR 27/22 A2998 RMK AO2 SLP151 T02670217,2024-08-10T03:53:00Z,26.7,21.7,10+,29.98
KARB,42.2239,-83.7398,250,4,4.6,KARB 100353Z AUTO 25004KT 10SM CLR 13/11 A2998 RMK AO2 SLP148 T01280111,2024-08-10T03:53:00Z,12.8,11.1,10+,29.98
KARA,30.0292,-91.8845,10,4,4.6,KARA 100353Z AUTO 01004KT 10SM CLR 27/22 A3000 RMK AO2 SLP159 T02670222,2024-08-10T03:53:00Z,26.7,22.2,10+,30.00
KAPF,26.155,-81.7751,200,4,4.6,KAPF 100353Z AUTO 20004KT 10SM CLR 29/ A3003 RMK AO2 SLP169 T0289,2024-08-10T03:53:00Z,28.9,,10+,30.03
KAPA,39.5599,-104.848,10,5,5.75,KAPA 100353Z 01005KT 10SM FEW015 BKN025 16/13 A3031 RMK AO2 RAB18E53 SLP218 P0000 T01560133,2024-08-10T03:53:00Z,15.6,13.3,10+,30.31
KAOO,40.2999,-78.3168,150,4,4.6,KAOO 100353Z AUTO 15004KT 10SM CLR 18/16 A2997 RMK AO2 SLP139 T01830161,2024-08-10T03:53:00Z,18.3,16.1,10+,29.97
KAOH,40.7081,-84.0214,310,5,5.75,KAOH 100353Z AUTO 31005KT 10SM 16/13 A3004 RMK AO2 SLPNO T01560128 $,2024-08-10T03:53:00Z,15.6,12.8,10+,30.04
KANB,33.5904,-85.8479,100,3,3.45,KANB 100353Z AUTO 10003KT 10SM CLR 26/21 A2999 RMK AO2 SLP145 T02610206,2024-08-10T03:53:00Z,26.1,20.6,10+,29.99
KAMW,41.9905,-93.6185,290,4,4.6,KAMW 100353Z AUTO 29004KT 10SM CLR 14/10 A3017 RMK AO2 SLP210 T01440100,2024-08-10T03:53:00Z,14.4,10,10+,30.17
KAMG,31.5401,-82.5074,230,3,3.45,KAMG 100353Z AUTO 23003KT 8SM CLR 26/23 A2996 RMK AO2 SLP142 T02610233,2024-08-10T03:53:00Z,26.1,23.3,8,29.96
KAMA,35.2203,-101.717,110,12,13.81,KAMA 100353Z 11012KT 10SM CLR 21/16 A3024 RMK AO2 SLP190 T02060161,2024-08-10T03:53:00Z,20.6,16.1,10+,30.24
KALW,46.0946,-118.286,140,5,5.75,KALW 100353Z AUTO 14005KT 10SM CLR 28/11 A2988 RMK AO2 SLP109 T02780111,2024-08-10T03:53:00Z,27.8,11.1,10+,29.88
KALI,27.7413,-98.0251,110,4,4.6,KALI 100353Z AUTO 11004KT 10SM CLR 27/24 A3001 RMK AO2 SLP161 T02720239,2024-08-10T03:53:00Z,27.2,23.9,10+,30.01
KAKO,40.1743,-103.215,170,14,16.11,KAKO 100353Z AUTO 17014G21KT 10SM OVC012 14/12 A3029 RMK AO2 SLP226 T01390122,2024-08-10T03:53:00Z,13.9,12.2,10+,30.29
KAIA,42.0573,-102.802,170,6,6.9,KAIA 100353Z AUTO 17006KT 10SM OVC012 14/13 A3028 RMK AO2 SLP237 T01390128,2024-08-10T03:53:00Z,13.9,12.8,10+,30.28
KAGC,40.3551,-79.9215,290,4,4.6,KAGC 100353Z AUTO 29004KT 10SM CLR 23/16 A2997 RMK AO2 SLP143 T02280161,2024-08-10T03:53:00Z,22.8,16.1,10+,29.97
KAFW,32.99,-97.32,30,6,6.9,KAFW 100353Z 03006KT 10SM FEW200 SCT250 28/21 A3007 RMK AO2 SLP167 T02830211,2024-08-10T03:53:00Z,28.3,21.1,10+,30.07
KAEX,31.3346,-92.5585,30,5,5.75,KAEX 100353Z 03005KT 10SM CLR 27/22 A3003 RMK AO2 SLP171 T02670217,2024-08-10T03:53:00Z,26.7,21.7,10+,30.03
KADG,41.8678,-84.0794,250,3,3.45,KADG 100353Z AUTO 25003KT 10SM SCT055 16/12 A3001 RMK AO2 SLP159 T01560117,2024-08-10T03:53:00Z,15.6,11.7,10+,30.01
KACV,40.9784,-124.105,0,0,0.0,KACV 100353Z AUTO 00000KT 10SM OVC006 13/13 A3001 RMK AO2 CIG 005V009 SLP168 T01330128,2024-08-10T03:53:00Z,13.3,12.8,10+,30.01
KABY,31.5364,-84.1958,0,0,0.0,KABY 100353Z AUTO 00000KT 10SM CLR 26/22 A2996 RMK AO2 SLP142 T02560217,2024-08-10T03:53:00Z,25.6,21.7,10+,29.96
KABR,45.4436,-98.4138,0,0,0.0,KABR 100353Z AUTO 00000KT 10SM CLR 12/09 A3018 RMK AO2 SLP220 T01220094,2024-08-10T03:53:00Z,12.2,9.4,10+,30.18
KAAF,29.7268,-85.0248,240,7,8.06,KAAF 100353Z AUTO 24007KT 10SM CLR 30/25 A2995 RMK AO2 SLP141 T03000250,2024-08-10T03:53:00Z,30,25,10+,29.95
RJSH,40.552,141.467,60,8,9.21,RJSH 100352Z 06008KT 9999 FEW006 SCT010 BKN020 27/23 Q1005 RMK 1ST006 4ST010 6CU020 A2969,2024-08-10T03:52:00Z,27,23,6+,29.68
PTYA,9.487,138.077,VRB,6,6.9,PTYA 100352Z VRB06KT 12SM FEW017 SCT130 BKN300 31/26 A2980 RMK SLP093 T03090260,2024-08-10T03:52:00Z,30.9,26,12,29.80
PGWT,14.997,145.624,VRB,4,4.6,PGWT 100352Z VRB04KT 7SM FEW016 BKN040 BKN140 31/25 A2979,2024-08-10T03:52:00Z,31,25,7,29.79
PATA,65.173,-152.107,230,5,5.75,PATA 100352Z 23005KT 10SM FEW025 SCT065 BKN080 14/09 A2984 RMK AO2 SLP108 T01390089 $,2024-08-10T03:52:00Z,13.9,8.9,10+,29.84
PABA,70.135,-143.585,70,6,6.9,PABA 100352Z AUTO 07006KT 10SM BKN100 12/12 A2974 RMK AO2 SLP077 T01170117,2024-08-10T03:52:00Z,11.7,11.7,10+,29.74
KVTN,42.8585,-100.551,230,5,5.75,KVTN 100352Z AUTO 23005KT 10SM CLR 14/08 A3022 RMK AO2 SLP229 T01390078,2024-08-10T03:52:00Z,13.9,7.8,10+,30.22
KTRM,33.6317,-116.164,0,0,0.0,KTRM 100352Z AUTO 00000KT 10SM CLR 33/19 A2967 RMK AO2 SLP051 T03280194,2024-08-10T03:52:00Z,32.8,19.4,10+,29.67
KTOL,41.5871,-83.8054,260,7,8.06,KTOL 100352Z 26007KT 10SM CLR 16/13 A3001 RMK AO2 SLP161 T01610128 $,2024-08-10T03:52:00Z,16.1,12.8,10+,30.01
KSUX,42.3917,-96.3795,0,0,0.0,KSUX 100352Z AUTO 00000KT 10SM CLR 12/11 A3020 RMK AO2 SLP225 T01220106,2024-08-10T03:52:00Z,12.2,10.6,10+,30.20
KSPS,33.9785,-98.493,50,10,11.51,KSPS 100352Z 05010KT 10SM CLR 27/18 A3011 RMK AO2 SLP183 T02670178,2024-08-10T03:52:00Z,26.7,17.8,10+,30.11
KSPI,39.8453,-89.684,240,5,5.75,KSPI 100352Z AUTO 24005KT 10SM CLR 14/13 A3014 RMK AO2 SLP204 T01440133,2024-08-10T03:52:00Z,14.4,13.3,10+,30.14
KSGF,37.2398,-93.39,10,8,9.21,KSGF 100352Z 01008KT 10SM CLR 19/12 A3019 RMK AO2 SLP213 T01940122,2024-08-10T03:52:00Z,19.4,12.2,10+,30.19
KREO,42.5902,-117.865,100,7,8.06,KREO 100352Z AUTO 10007KT 25/00 A2995 RMK AO1 SLP098 T02500000,2024-08-10T03:52:00Z,25,0,,29.95
KRAP,44.0458,-103.054,150,4,4.6,KRAP 100352Z 15004KT 10SM SCT085 14/09 A3021 RMK AO2 SLP218 T01440094,2024-08-10T03:52:00Z,14.4,9.4,10+,30.21
KPYM,41.9085,-70.7278,200,10,11.51,KPYM 100352Z AUTO 20010G24KT 10SM -RA BKN014 OVC021 26/24 A2987 RMK AO2 PK WND 22031/0315 RAB44 SLP114 P0000 T02560239,2024-08-10T03:52:00Z,25.6,23.9,10+,29.87
KPWK,42.1208,-87.9048,270,5,5.75,KPWK 100352Z AUTO 27005KT 10SM CLR 17/12 A3007 RMK AO2 SLP180 T01720117 $,2024-08-10T03:52:00Z,17.2,11.7,10+,30.07
KPPF,37.3281,-95.5044,20,3,3.45,KPPF 100352Z AUTO 02003KT 10SM CLR 18/12 A3023 RMK AO2 SLP229 T01830117,2024-08-10T03:52:00Z,18.3,11.7,10+,30.23
KORE,42.57,-72.287,,,,KORE 100352Z AUTO A2982 RMK AO2 SLPNO PWINO $,2024-08-10T03:52:00Z,,,,29.82
KOMA,41.3119,-95.9018,0,0,0.0,KOMA 100352Z 00000KT 10SM SCT250 17/11 A3020 RMK AO2 SLP223 T01670106,2024-08-10T03:52:00Z,16.7,10.6,10+,30.20
KOKC,35.3843,-97.6003,40,9,10.36,KOKC 100352Z 04009KT 10SM BKN140 BKN200 23/11 A3017 RMK AO2 SLP204 T02330106,2024-08-10T03:52:00Z,23.3,10.6,10+,30.17
KNZY,32.6922,-117.21,260,4,4.6,KNZY 100352Z 26004KT 10SM SCT014 20/18 A2987 RMK AO2 SLP115 T02000183 $,2024-08-10T03:52:00Z,20,18.3,10+,29.87
KNRB,30.396,-81.423,220,6,6.9,KNRB 100352Z AUTO 22006KT 10SM CLR 28/26 A2998 RMK AO2 SLP151 T02830261 $,2024-08-10T03:52:00Z,28.3,26.1,10+,29.98
KNHK,38.284,-76.408,0,0,0.0,KNHK 100352Z AUTO 00000KT 10SM FEW049 OVC075 26/23 A2990 RMK AO2 SLP127 T02610233 $,2024-08-10T03:52:00Z,26.1,23.3,10+,29.90
KNFW,32.781,-97.436,40,3,3.45,KNFW 100352Z 04003KT 10SM BKN250 29/21 A3008 RMK AO2 SLP167 T02940206 $,2024-08-10T03:52:00Z,29.4,20.6,10+,30.08
KMWN,44.271,-71.304,250,44,50.63,KMWN 100352Z 25044G52KT 1/16SM -DZ FG VV000 13/13 RMK,2024-08-10T03:52:00Z,13,13,0.06,
KMWH,47.193,-119.315,350,9,10.36,KMWH 100352Z 35009KT 10SM CLR 27/09 A2993 RMK AO2 SLP125 T02670089,2024-08-10T03:52:00Z,26.7,8.9,10+,29.93
KMLI,41.4482,-90.5237,230,5,5.75,KMLI 100352Z 23005KT 10SM CLR 14/11 A3011 RMK AO2 SLP193 T01390106,2024-08-10T03:52:00Z,13.9,10.6,10+,30.11
KMLF,38.4225,-113.011,310,6,6.9,KMLF 100352Z AUTO 31006KT 10SM CLR 21/18 A3012 RMK AO2 RAE0254 SLP131 P0000 T02060178,2024-08-10T03:52:00Z,20.6,17.8,10+,30.12
KMKE,42.9549,-87.9045,290,4,4.6,KMKE 100352Z 29004KT 10SM FEW048 BKN080 17/11 A3002 RMK AO2 SLP164 T01720111,2024-08-10T03:52:00Z,17.2,11.1,10+,30.02
KMFD,40.8204,-82.5177,280,4,4.6,KMFD 100352Z AUTO 28004KT 10SM CLR 17/12 A3003 RMK AO2 SLP160 T01720117,2024-08-10T03:52:00Z,17.2,11.7,10+,30.03
KMEB,34.7913,-79.3683,170,3,3.45,KMEB 100352Z AUTO 17003KT 6SM BR CLR 25/25 A2994 RMK AO2 SLP136 T02500250,2024-08-10T03:52:00Z,25,25,6,29.94
KMDH,37.7833,-89.2453,330,4,4.6,KMDH 100352Z AUTO 33004KT 10SM CLR 18/15 A3013 RMK AO2 SLP199 T01830150,2024-08-10T03:52:00Z,18.3,15,10+,30.13
KMBG,45.543,-100.404,80,7,8.06,KMBG 100352Z AUTO 08007KT 10SM CLR 16/07 A3018 RMK AO2 SLP215 T01560067,2024-08-10T03:52:00Z,15.6,6.7,10+,30.18
KLWC,39.0078,-95.2115,0,0,0.0,KLWC 100352Z AUTO 00000KT 10SM CLR 16/14 A3022 RMK AO1 SLP230 T01560144,2024-08-10T03:52:00Z,15.6,14.4,10+,30.22
KIOW,41.6394,-91.5445,270,5,5.75,KIOW 100352Z AUTO 27005KT 10SM CLR 13/09 A3014 RMK AO2 SLP205 T01330094,2024-08-10T03:52:00Z,13.3,9.4,10+,30.14
KIEN,43.0261,-102.52,220,6,6.9,KIEN 100352Z AUTO 22006KT 10SM BKN080 14/12 A3026 RMK AO2 SLP236 T01440122,2024-08-10T03:52:00Z,14.4,12.2,10+,30.26
KIAD,38.9348,-77.4473,0,0,0.0,KIAD 100352Z COR 00000KT 10SM FEW100 24/23 A2991 RMK AO2 SLP125 T02390228,2024-08-10T03:52:00Z,23.9,22.8,10+,29.91
KHUT,38.0682,-97.8607,40,3,3.45,KHUT 100352Z AUTO 04003KT 10SM CLR 16/12 A3024 RMK AO2 SLP227 T01560122,2024-08-10T03:52:00Z,15.6,12.2,10+,30.24
KHRL,26.2303,-97.6556,130,6,6.9,KHRL 100352Z 13006KT 10SM CLR 27/25 A3001 RMK AO2 SLP161 T02670250,2024-08-10T03:52:00Z,26.7,25,10+,30.01
KHIE,44.3659,-71.5522,240,6,6.9,KHIE 100352Z AUTO 24006KT 10SM FEW070 22/19 A2979 RMK AO2 SLP082 T02220189,2024-08-10T03:52:00Z,22.2,18.9,10+,29.79
KGLS,29.2704,-94.8642,180,3,3.45,KGLS 100352Z AUTO 18003KT 10SM CLR 30/26 A3001 RMK AO2 SLP163 T03000261,2024-08-10T03:52:00Z,30,26.1,10+,30.01
KFIT,42.5549,-71.757,190,5,5.75,KFIT 100352Z AUTO 19005KT 10SM -RA SCT021 BKN027 OVC037 24/23 A2981 RMK AO2 SLP094 P0003 T02440228,2024-08-10T03:52:00Z,24.4,22.8,10+,29.81
KEST,43.4008,-94.7476,300,5,5.75,KEST 100352Z AUTO 30005KT 10SM CLR 11/09 A3017 RMK AO2 SLP216 T01110089,2024-08-10T03:52:00Z,11.1,8.9,10+,30.17
KDVN,41.6133,-90.5948,260,6,6.9,KDVN 100352Z AUTO 26006KT 10SM CLR 14/11 A3013 RMK AO2 SLP197 T01440111,2024-08-10T03:52:00Z,14.4,11.1,10+,30.13
KDPA,41.8964,-88.2512,240,3,3.45,KDPA 100352Z 24003KT 10SM CLR 14/12 A3006 RMK AO2 SLP179 T01440117,2024-08-10T03:52:00Z,14.4,11.7,10+,30.06
KDDC,37.7711,-99.9692,90,6,6.9,KDDC 100352Z AUTO 09006KT 10SM CLR 16/11 A3025 RMK AO2 SLP228 T01560111,2024-08-10T03:52:00Z,15.6,11.1,10+,30.25
KDCA,38.8472,-77.0345,220,4,4.6,KDCA 100352Z 22004KT 10SM FEW040 FEW080 26/24 A2989 RMK AO2 SLP123 T02610239,2024-08-10T03:52:00Z,26.1,23.9,10+,29.89
KCVG,39.0444,-84.6724,320,7,8.06,KCVG 100352Z 32007KT 10SM FEW045 20/14 A3005 RMK AO2 SLP167 T02000144 $,2024-08-10T03:52:00Z,20,14.4,10+,30.05
KCNU,37.6705,-95.4846,20,4,4.6,KCNU 100352Z AUTO 02004KT 10SM CLR 18/13 A3022 RMK AO2 SLP224 T01830128,2024-08-10T03:52:00Z,18.3,12.8,10+,30.22
KCLT,35.2225,-80.9543,350,6,6.9,KCLT 100352Z 35006KT 10SM FEW050 FEW065 SCT250 26/23 A2997 RMK AO2 LTG DSNT W SLP151 CB DSNT W-NW T02610228,2024-08-10T03:52:00Z,26.1,22.8,10+,29.97
KCKV,36.6169,-87.4118,350,7,8.06,KCKV 100352Z AUTO 35007KT 10SM CLR 19/15 A3008 RMK AO2 SLP181 T01940150,2024-08-10T03:52:00Z,19.4,15,10+,30.08
KCID,41.8829,-91.7246,300,6,6.9,KCID 100352Z 30006KT 10SM CLR 13/10 A3012 RMK AO2 SLP200 T01280100,2024-08-10T03:52:00Z,12.8,10,10+,30.12
KCFV,37.0912,-95.5726,360,8,9.21,KCFV 100352Z AUTO 36008KT 10SM CLR 20/11 A3020 RMK AO2 SLP221 T02000111,2024-08-10T03:52:00Z,20,11.1,10+,30.20
KBML,44.576,-71.1782,130,4,4.6,KBML 100352Z AUTO 13004KT 10SM FEW036 22/19 A2979 RMK AO2 SLP082 T02220189,2024-08-10T03:52:00Z,22.2,18.9,10+,29.79
KBLU,39.2762,-120.709,200,3,3.45,KBLU 100352Z AUTO 20003KT 10SM CLR 22/03 A3019 RMK AO2 SLP113 T02170033 TSNO,2024-08-10T03:52:00Z,21.7,3.3,10+,30.19
KBLH,33.6188,-114.715,130,4,4.6,KBLH 100352Z AUTO 13004KT 10SM CLR 38/19 A2971 RMK AO2 SLP054 T03780194 $,2024-08-10T03:52:00Z,37.8,19.4,10+,29.71
KBLF,37.2978,-81.2036,250,5,5.75,KBLF 100352Z AUTO 25005KT 10SM BKN036 19/17 A3011 RMK AO2 SLP165 T01940172,2024-08-10T03:52:00Z,19.4,17.2,10+,30.11
KBIS,46.7823,-100.757,140,3,3.45,KBIS 100352Z AUTO 14003KT 10SM CLR 12/09 A3019 RMK AO2 SLP226 T01220094,2024-08-10T03:52:00Z,12.2,9.4,10+,30.19
KBDR,41.1642,-73.1266,190,13,14.96,KBDR 100352Z AUTO 19013KT 6SM -RA BR FEW008 OVC021 23/22 A2982 RMK AO2 RAB01 SLP099 P0004 T02330222,2024-08-10T03:52:00Z,23.3,22.2,6,29.82
KBAN,38.355,-119.522,,,,KBAN 100352Z AUTO 10SM CLR 23/M01 A3025 RMK AO2 SLP129 T02331006,2024-08-10T03:52:00Z,23.3,-0.6,10+,30.25
KATL,33.6297,-84.4422,330,7,8.06,KATL 100352Z 33007KT 10SM FEW250 28/20 A2998 RMK AO2 SLP140 T02780200,2024-08-10T03:52:00Z,27.8,20,10+,29.98
KARR,41.7713,-88.4815,0,0,0.0,KARR 100352Z AUTO 00000KT 10SM CLR 13/11 A3007 RMK AO2 SLP182 T01280111,2024-08-10T03:52:00Z,12.8,11.1,10+,30.07
KALS,37.4393,-105.862,50,7,8.06,KALS 100352Z AUTO 05007KT 10SM FEW033 SCT095 14/12 A3040 RMK AO2 LTG DSNT NE SLP217 T01390122,2024-08-10T03:52:00Z,13.9,12.2,10+,30.40
KABI,32.4106,-99.6821,110,9,10.36,KABI 100352Z 11009KT 10SM CLR 29/21 A3012 RMK AO2 SLP171 T02890211 $,2024-08-10T03:52:00Z,28.9,21.1,10+,30.12
MUGM,19.909,-75.206,320,9,10.36,MUGM 100351Z 32009KT 10SM CLR 28/24 A3003 RMK AO2 SLP169 T02830239 $,2024-08-10T03:51:00Z,28.3,23.9,10+,30.03
MMQT,20.617,-100.194,70,11,12.66,MMQT 100351Z 07011KT 7SM SCT020 19/14 A3036 RMK 8/500,2024-08-10T03:51:00Z,19,14,7,30.36
KYNG,41.2548,-80.6736,0,0,0.0,KYNG 100351Z 00000KT 10SM SCT038 BKN050 17/16 A2998 RMK AO2 SLP144 T01720161,2024-08-10T03:51:00Z,17.2,16.1,10+,29.98
KXWA,48.2542,-103.747,180,5,5.75,KXWA 100351Z AUTO 18005KT 10SM CLR 14/04 A3021 RMK AO2 SLP237 T01390039,2024-08-10T03:51:00Z,13.9,3.9,10+,30.21
KVNY,34.2121,-118.491,90,7,8.06,KVNY 100351Z 09007KT 10SM CLR 24/13 A2985 RMK AO2 SLP099 T02440128 $,2024-08-10T03:51:00Z,24.4,12.8,10+,29.85
KVCT,28.8624,-96.9301,320,3,3.45,KVCT 100351Z AUTO 32003KT 9SM CLR 26/24 A3004 RMK AO2 SLP171 T02560244 $,2024-08-10T03:51:00Z,25.6,24.4,9,30.04
KUGN,42.4255,-87.8634,240,6,6.9,KUGN 100351Z AUTO 24006KT 10SM CLR 14/11 A3004 RMK AO2 SLP165 T01440111,2024-08-10T03:51:00Z,14.4,11.1,10+,30.04
KTPL,31.157,-97.4094,330,4,4.6,KTPL 100351Z AUTO 33004KT 10SM CLR 26/22 A3009 RMK AO2 SLP176 T02560222,2024-08-10T03:51:00Z,25.6,22.2,10+,30.09
KSTL,38.7524,-90.3734,350,4,4.6,KSTL 100351Z 35004KT 10SM FEW047 SCT250 19/13 A3016 RMK AO2 SLP205 T01890128,2024-08-10T03:51:00Z,18.9,12.8,10+,30.16
KSNT,44.1708,-114.927,0,0,0.0,KSNT 100351Z AUTO 00000KT 16/05 A3018 RMK AO1 SLP120 T01560050,2024-08-10T03:51:00Z,15.6,5,,30.18
KSMO,34.021,-118.447,210,4,4.6,KSMO 100351Z 21004KT 10SM OVC007 18/16 A2987 RMK AO2 SLP114 T01830161,2024-08-10T03:51:00Z,18.3,16.1,10+,29.87
KSJT,31.3517,-100.495,100,11,12.66,KSJT 100351Z AUTO 10011KT 10SM CLR 30/19 A3008 RMK AO2 SLP158 T03000194,2024-08-10T03:51:00Z,30,19.4,10+,30.08
KSDB,34.7433,-118.725,VRB,4,4.6,KSDB 100351Z AUTO VRB04G21KT 10SM CLR 27/07 A3011 RMK AO2 SLP129 T02670067,2024-08-10T03:51:00Z,26.7,6.7,10+,30.11
KSAT,29.5443,-98.4839,100,15,17.26,KSAT 100351Z 10015G27KT 10SM BKN055 BKN140 BKN250 27/19 A3005 RMK AO2 PK WND 11043/0333 PRESFR SLP157 CB OCNL LTGIC DSNT NE-E MOVG SW T02720194,2024-08-10T03:51:00Z,27.2,19.4,10+,30.05
KSAD,32.8565,-109.636,180,8,9.21,KSAD 100351Z AUTO 18008KT 10SM FEW110 32/13 A2996 RMK AO2 SLP083 T03220133,2024-08-10T03:51:00Z,32.2,13.3,10+,29.96
KROW,33.3074,-104.508,120,6,6.9,KROW 100351Z AUTO 12006KT 10SM BKN095 BKN110 31/13 A3014 RMK AO2 SLP132 T03060133 $,2024-08-10T03:51:00Z,30.6,13.3,10+,30.14
KRDU,35.8923,-78.782,0,0,0.0,KRDU 100351Z 00000KT 10SM FEW030 24/22 A2994 RMK AO2 SLP134 OCNL LTG DSNT NW CB DSNT NW MOV ESE T02390222,2024-08-10T03:51:00Z,23.9,22.2,10+,29.94
KPWM,43.6424,-70.3044,190,12,13.81,KPWM 100351Z AUTO 19012G21KT 6SM BR OVC006 22/21 A2980 RMK AO2 PK WND 18026/0334 RAE08 SLP092 P0000 T02170211,2024-08-10T03:51:00Z,21.7,21.1,6,29.80
KPIT,40.4814,-80.2083,290,7,8.06,KPIT 100351Z 29007KT 10SM SCT048 22/17 A2998 RMK AO2 SLP148 T02170167,2024-08-10T03:51:00Z,21.7,16.7,10+,29.98
KPHX,33.4278,-112.004,0,0,0.0,KPHX 100351Z 00000KT 10SM FEW090 FEW150 SCT250 39/13 A2977 RMK AO2 SLP058 T03890133,2024-08-10T03:51:00Z,38.9,13.3,10+,29.77
KP59,47.467,-87.875,340,12,13.81,KP59 100351Z AUTO 34012G22KT 13/12 A2979 RMK AO1 PK WND 33026/0303 SLP085 P0002 T01330117,2024-08-10T03:51:00Z,13.3,11.7,,29.79
KORD,41.9602,-87.9316,240,6,6.9,KORD 100351Z 24006KT 10SM FEW050 17/12 A3006 RMK AO2 SLP175 T01670117,2024-08-10T03:51:00Z,16.7,11.7,10+,30.06
KOCF,29.1636,-82.221,180,4,4.6,KOCF 100351Z AUTO 18004KT 10SM CLR 27/24 A3002 RMK AO2 SLP163 T02720244,2024-08-10T03:51:00Z,27.2,24.4,10+,30.02
KNYC,40.779,-73.9692,VRB,5,5.75,KNYC 100351Z AUTO VRB05KT 5SM BR OVC009 24/23 A2985 RMK AO2 RAE15 SLP099 P0001 T02390228,2024-08-10T03:51:00Z,23.9,22.8,5,29.85
KMYL,44.8943,-116.1,360,7,8.06,KMYL 100351Z AUTO 36007KT 10SM CLR 22/05 A3007 RMK AO2 SLP140 T02170050,2024-08-10T03:51:00Z,21.7,5,10+,30.07
KMPV,44.205,-72.5655,160,4,4.6,KMPV 100351Z AUTO 16004KT 10SM CLR 21/18 A2982 RMK AO2 SLP094 T02060183,2024-08-10T03:51:00Z,20.6,18.3,10+,29.82
KLGA,40.7794,-73.8803,200,9,10.36,KLGA 100351Z 20009KT 10SM OVC009 24/22 A2982 RMK AO2 SLP097 T02440222,2024-08-10T03:51:00Z,24.4,22.2,10+,29.82
KJFK,40.6392,-73.7639,200,12,13.81,KJFK 100351Z 20012KT 8SM BKN013 BKN025 OVC050 23/23 A2984 RMK AO2 RAB30E40 SLP104 P0000 T02330228,2024-08-10T03:51:00Z,23.3,22.8,8,29.84
KJCT,30.5105,-99.7665,80,11,12.66,KJCT 100351Z AUTO 08011KT 10SM CLR 29/21 A3010 RMK AO2 LTG DSNT E SLP152 T02940211,2024-08-10T03:51:00Z,29.4,21.1,10+,30.10
KILG,39.6744,-75.6057,260,10,11.51,KILG 100351Z AUTO 26010KT 10SM FEW008 SCT045 OVC070 25/24 A2987 RMK AO2 SLP115 T02500244 $,2024-08-10T03:51:00Z,25,24.4,10+,29.87
KIGM,35.2575,-113.934,170,4,4.6,KIGM 100351Z AUTO 17004KT 10SM CLR 29/15 A2999 RMK AO2 SLP081 T02940150,2024-08-10T03:51:00Z,29.4,15,10+,29.99
KHTS,38.3653,-82.5548,350,3,3.45,KHTS 100351Z 35003KT 10SM BKN047 BKN065 24/18 A3000 RMK AO2 SLP151 T02440183,2024-08-10T03:51:00Z,24.4,18.3,10+,30.00
KHSE,35.2324,-75.6223,190,9,10.36,KHSE 100351Z AUTO 19009KT 5SM BR FEW020 26/25 A2997 RMK AO2 LTG DSNT NE RAE47 SLP148 P0012 T02560250,2024-08-10T03:51:00Z,25.6,25,5,29.97
KHDO,29.3601,-99.1742,110,12,13.81,KHDO 100351Z AUTO 11012KT 10SM CLR 31/19 A3005 RMK AO2 SLP157 T03110194,2024-08-10T03:51:00Z,31.1,19.4,10+,30.05
KEWR,40.6828,-74.1692,210,9,10.36,KEWR 100351Z 21009KT 10SM BKN009 BKN014 OVC020 25/24 A2982 RMK AO2 RAE12B43E50 SLP097 P0000 T02500239,2024-08-10T03:51:00Z,25,23.9,10+,29.82
KERI,42.0803,-80.1824,150,4,4.6,KERI 100351Z 15004KT 10SM SCT046 BKN055 20/17 A2993 RMK AO2 SLP130 T02000167,2024-08-10T03:51:00Z,20,16.7,10+,29.93
KELP,31.8123,-106.377,90,14,16.11,KELP 100351Z 09014G24KT 10SM FEW130 33/09 A3007 RMK AO2 SLP096 T03280089,2024-08-10T03:51:00Z,32.8,8.9,10+,30.07
KEKN,38.8899,-79.8554,0,0,0.0,KEKN 100351Z AUTO 00000KT 10SM OVC065 21/21 A3004 RMK AO2 SLP161 T02110206,2024-08-10T03:51:00Z,21.1,20.6,10+,30.04
KDAW,43.2794,-70.9243,170,8,9.21,KDAW 100351Z AUTO 17008KT 130V200 4SM -RA SCT017 BKN027 OVC039 26/23 A2979 RMK AO2 RAB19 SLP083 P0002 T02560228,2024-08-10T03:51:00Z,25.6,22.8,4,29.79
KCSG,32.5163,-84.9422,0,0,0.0,KCSG 100351Z AUTO 00000KT 10SM SCT065 28/23 A2996 RMK AO2 SLP138 T02830228,2024-08-10T03:51:00Z,28.3,22.8,10+,29.96
KCRP,27.7733,-97.513,170,5,5.75,KCRP 100351Z 17005KT 10SM FEW025 26/25 A3000 RMK AO2 SLP159 T02610250,2024-08-10T03:51:00Z,26.1,25,10+,30.00
KCON,43.2049,-71.5026,160,7,8.06,KCON 100351Z AUTO 16007KT 10SM FEW016 BKN025 OVC030 24/23 A2978 RMK AO2 RAE18 SLP084 P0007 T02390233,2024-08-10T03:51:00Z,23.9,23.3,10+,29.78
KCMH,39.9907,-82.8771,330,13,14.96,KCMH 100351Z 33013KT 10SM FEW045 21/14 A3001 RMK AO2 SLP156 T02110139,2024-08-10T03:51:00Z,21.1,13.9,10+,30.01
KCLE,41.4057,-81.8519,290,8,9.21,KCLE 100351Z 29008KT 10SM SCT050 21/13 A2996 RMK AO2 SLP154 T02110133,2024-08-10T03:51:00Z,21.1,13.3,10+,29.96
KCDJ,39.8198,-93.577,0,0,0.0,KCDJ 100351Z AUTO 00000KT 15/13 A3021 RMK AO1 SLP223 T01500128,2024-08-10T03:51:00Z,15,12.8,,30.21
KCAK,40.9181,-81.4434,280,5,5.75,KCAK 100351Z 28005KT 10SM FEW046 SCT055 19/14 A2999 RMK AO2 SLP148 T01890139,2024-08-10T03:51:00Z,18.9,13.9,10+,29.99
KBKW,37.7836,-81.1228,340,6,6.9,KBKW 100351Z AUTO 34006KT 10SM OVC060 23/16 A3008 RMK AO2 SLP149 T02280156,2024-08-10T03:51:00Z,22.8,15.6,10+,30.08
KBHK,46.3521,-104.261,90,5,5.75,KBHK 100351Z AUTO 09005KT 10SM CLR 12/03 A3021 RMK AO2 SLP224 T01170033,2024-08-10T03:51:00Z,11.7,3.3,10+,30.21
KBGD,35.695,-101.396,80,9,10.36,KBGD 100351Z AUTO 08009KT 10SM FEW060 19/15 A3025 RMK AO2 LTG DSNT NW SLP213 T01940150,2024-08-10T03:51:00Z,19.4,15,10+,30.25
KBAZ,29.7089,-98.0459,130,3,3.45,KBAZ 100351Z AUTO 13003KT 10SM CLR 24/23 A3003 RMK AO2 PK WND 14032/0306 RAE26 TSE0259B02E17 SLP158 P0000 T02440228,2024-08-10T03:51:00Z,24.4,22.8,10+,30.03
KAVX,33.4042,-118.415,0,0,0.0,KAVX 100351Z AUTO 00000KT 10SM CLR 24/M09 A2992 RMK AO2 SLP105 T02391094 $,2024-08-10T03:51:00Z,23.9,-9.4,10+,29.92
KATT,30.3208,-97.7604,VRB,3,3.45,KATT 100351Z AUTO VRB03KT 10SM CLR 28/22 A3008 RMK AO2 TSB14E29 SLP169 T02780217 $,2024-08-10T03:51:00Z,27.8,21.7,10+,30.08
KALB,42.7473,-73.7991,0,0,0.0,KALB 100351Z 00000KT 10SM BKN004 OVC100 24/23 A2979 RMK AO2 DZE49 SLP086 P0000 T02390228,2024-08-10T03:51:00Z,23.9,22.8,10+,29.79
KAHN,33.9477,-83.3274,0,0,0.0,KAHN 100351Z AUTO 00000KT 10SM BKN100 27/22 A2996 RMK AO2 SLP135 T02670217,2024-08-10T03:51:00Z,26.7,21.7,10+,29.96
KACT,31.618,-97.2283,10,5,5.75,KACT 100351Z 01005KT 10SM CLR 26/24 A3006 RMK AO2 SLP171 T02610239,2024-08-10T03:51:00Z,26.1,23.9,10+,30.06
KABE,40.658,-75.4347,260,7,8.06,KABE 100351Z 26007KT 10SM FEW060 24/22 A2985 RMK AO2 SLP106 T02390217,2024-08-10T03:51:00Z,23.9,21.7,10+,29.85
K6R6,30.0482,-102.213,100,5,5.75,K6R6 100351Z AUTO 10005KT 29/16 A3007 RMK AO1 SLP142 T02940161,2024-08-10T03:51:00Z,29.4,16.1,,30.07
PTRO,7.367,134.544,250,9,10.36,PTRO 100350Z 25009G13KT 15SM FEW010 SCT018 BKN130 BKN320 33/24 A2981 ,2024-08-10T03:50:00Z,33,24,15,29.81
PTKK,7.462,151.843,VRB,4,4.6,PTKK 100350Z VRB04KT 15SM FEW014 SCT120 OVC280 32/27 A2975 RMK SLP078 T03170265,2024-08-10T03:50:00Z,31.7,26.5,15,29.75
PGRO,14.172,145.24,VRB,4,4.6,PGRO 100350Z COR VRB04KT 7SM FEW013 BKN100 30/25 A2974,2024-08-10T03:50:00Z,30,25,7,29.74
OOSH,24.388,56.624,150,4,4.6,OOSH 100350Z AUTO 15004KT //// ////// 31/25 Q1004 RMK QFE1000 RH073? PR000.0,2024-08-10T03:50:00Z,31,25,,29.65
OOSA,17.044,54.102,110,6,6.9,OOSA 100350Z 11006KT 2500 -DZ BR BKN005 OVC015 24/24 Q1006 NOSIG,2024-08-10T03:50:00Z,24,24,1.55,29.70
OOMS,23.595,58.298,350,4,4.6,OOMS 100350Z 35004KT 9999 FEW025 SCT040 29/24 Q1004 NOSIG,2024-08-10T03:50:00Z,29,24,6+,29.65
OOKB,26.168,56.239,160,11,12.66,OOKB 100350Z 16011KT 130V190 CAVOK 33/24 Q1002 NOSIG,2024-08-10T03:50:00Z,33,24,6+,29.59
OODQ,19.511,57.657,210,29,33.37,OODQ 100350Z AUTO 21029KT //// R22///// ///////// 25/23 Q1002 NOSIG RMK RH86? 0,2024-08-10T03:50:00Z,25,23,,29.59
OOAD,22.5,57.37,90,10,11.51,OOAD 100350Z AUTO 09010KT //// R31///// // ///////// 27/22 Q1006 NOSIG,2024-08-10T03:50:00Z,27,22,,29.70
NSTU,-14.337,-170.721,140,16,18.41,NSTU 100350Z 14016G21KT 12SM SCT018 BKN040 OVC100 26/21 A2993 RMK SLP137 T02630206,2024-08-10T03:50:00Z,26.3,20.6,12,29.93
MUVR,23.033,-81.435,120,6,6.9,MUVR 100350Z 12006KT 9000 FEW030 SCT090 24/XX Q1017,2024-08-10T03:50:00Z,24,,5.59,30.03
MUSC,22.494,-79.931,330,3,3.45,MUSC 100350Z 33003KT 9000 SCT025 22/21 Q1019,2024-08-10T03:50:00Z,22,21,5.59,30.09
MUHG,20.786,-76.316,50,5,5.75,MUHG 100350Z 05005KT 9000 NSC 26/24 Q1018,2024-08-10T03:50:00Z,26,24,5.59,30.06
MUHA,22.991,-82.41,VRB,3,3.45,MUHA 100350Z VRB03KT 9000 SCT030 24/23 Q1018,2024-08-10T03:50:00Z,24,23,5.59,30.06
MUCU,19.971,-75.837,20,5,5.75,MUCU 100350Z 02005KT 350V060 9000 SCT020 28/22 Q1017,2024-08-10T03:50:00Z,28,22,5.59,30.03
MUCM,21.42,-77.85,20,7,8.06,MUCM 100350Z 02007KT 9000 FEW020 BKN250 26/24 Q1018,2024-08-10T03:50:00Z,26,24,5.59,30.06
MUCL,21.621,-81.552,80,6,6.9,MUCL 100350Z AUTO 08006KT 030V110 28/25 Q1017,2024-08-10T03:50:00Z,28,25,,30.03
MUCC,22.456,-78.339,90,9,10.36,MUCC 100350Z 09009KT 9000 SCT020 30/26 Q1017,2024-08-10T03:50:00Z,30,26,5.59,30.03
LXGB,36.151,-5.35,90,10,11.51,LXGB 100350Z 09010KT 9999 FEW012 BKN025 25/21 Q1015,2024-08-10T03:50:00Z,25,21,6+,29.97
LWOH,41.181,20.744,350,5,5.75,LWOH 100350Z 35005KT CAVOK 19/13 Q1020,2024-08-10T03:50:00Z,19,13,6+,30.12
LTFO,41.179,40.845,180,5,5.75,LTFO 100350Z 18005KT 9999 SCT035 25/20 Q1011,2024-08-10T03:50:00Z,25,20,6+,29.85
LTFH,41.255,36.567,160,4,4.6,LTFH 100350Z 16004KT CAVOK 20/20 Q1012 NOSIG,2024-08-10T03:50:00Z,20,20,6+,29.88
LTFG,36.299,32.3,120,4,4.6,LTFG 100350Z 12004KT 9999 SCT015 BKN020 25/21 Q1008,2024-08-10T03:50:00Z,25,21,6+,29.76
LTFD,39.559,27.025,80,8,9.21,LTFD 100350Z 08008KT 9999 FEW035 24/19 Q1013,2024-08-10T03:50:00Z,24,19,6+,29.91
LTFB,37.951,27.333,VRB,1,1.15,LTFB 100350Z VRB01KT CAVOK 19/15 Q1010,2024-08-10T03:50:00Z,19,15,6+,29.82
LTDA,36.361,36.283,230,13,14.96,LTDA 100350Z 23013KT 200V260 CAVOK 28/23 Q1007 NOSIG,2024-08-10T03:50:00Z,28,23,6+,29.73
LTCW,37.55,44.238,0,0,0.0,LTCW 100350Z 00000KT 9999 FEW040 15/10 Q1019,2024-08-10T03:50:00Z,15,10,6+,30.09
LTCV,37.365,42.06,240,8,9.21,LTCV 100350Z 24008KT 9999 R11/P1499N R29/1300U NSC 30/07 Q1006,2024-08-10T03:50:00Z,30,7,6+,29.70
LTCT,39.977,43.878,310,4,4.6,LTCT 100350Z 31004KT 280V340 CAVOK 26/14 Q1013,2024-08-10T03:50:00Z,26,14,6+,29.91
LTCR,37.232,40.638,VRB,3,3.45,LTCR 100350Z VRB03KT CAVOK 33/05 Q1005,2024-08-10T03:50:00Z,33,5,6+,29.68
LTCP,37.731,38.469,350,5,5.75,LTCP 100350Z 35005KT CAVOK 30/03 Q1008,2024-08-10T03:50:00Z,30,3,6+,29.76
LTCN,37.539,36.953,VRB,3,3.45,LTCN 100350Z VRB03KT CAVOK 24/20 Q1009,2024-08-10T03:50:00Z,24,20,6+,29.79
LTCL,37.978,41.842,0,0,0.0,LTCL 100350Z 00000KT CAVOK 24/08 Q1008,2024-08-10T03:50:00Z,24,8,6+,29.76
LTCK,38.748,41.661,0,0,0.0,LTCK 100350Z 00000KT CAVOK 18/05 Q1014,2024-08-10T03:50:00Z,18,5,6+,29.94
LTCI,38.469,43.337,VRB,2,2.3,LTCI 100350Z VRB02KT 9999 FEW040 21/10 Q1017 NOSIG,2024-08-10T03:50:00Z,21,10,6+,30.03
LTCF,40.562,43.115,VRB,2,2.3,LTCF 100350Z VRB02KT CAVOK 14/12 Q1020 NOSIG,2024-08-10T03:50:00Z,14,12,6+,30.12
LTCD,39.71,39.527,0,0,0.0,LTCD 100350Z 00000KT CAVOK 17/11 Q1016 NOSIG,2024-08-10T03:50:00Z,17,11,6+,30.00
LTCB,40.967,38.081,VRB,1,1.15,LTCB 100350Z VRB01KT 9999 FEW035 25/20 Q1012 NOSIG,2024-08-10T03:50:00Z,25,20,6+,29.88
LTCA,38.607,39.291,250,4,4.6,LTCA 100350Z 25004KT CAVOK 22/01 Q1012 NOSIG,2024-08-10T03:50:00Z,22,1,6+,29.88
LTBY,39.81,30.519,260,7,8.06,LTBY 100350Z 26007KT CAVOK 19/16 Q1016,2024-08-10T03:50:00Z,19,16,6+,30.00
LTBQ,40.735,30.083,0,0,0.0,LTBQ 100350Z 00000KT 9999 BKN025 21/21 Q1014 NOSIG,2024-08-10T03:50:00Z,21,21,6+,29.94
LTBO,38.68,29.483,150,2,2.3,LTBO 100350Z 15002KT CAVOK 14/10 Q1015,2024-08-10T03:50:00Z,14,10,6+,29.97
LTBH,40.14,26.425,20,4,4.6,LTBH 100350Z 02004KT CAVOK 21/18 Q1014,2024-08-10T03:50:00Z,21,18,6+,29.94
LTBF,39.619,27.926,0,0,0.0,LTBF 100350Z 00000KT 9999 SCT023 22/21 Q1013 NOSIG,2024-08-10T03:50:00Z,22,21,6+,29.91
LTBD,37.816,27.886,0,0,0.0,LTBD 100350Z 00000KT CAVOK 22/16 Q1010,2024-08-10T03:50:00Z,22,16,6+,29.82
LTAY,37.785,29.701,230,4,4.6,LTAY 100350Z 23004KT CAVOK 18/10 Q1015 NOSIG,2024-08-10T03:50:00Z,18,10,6+,29.97
LTAW,40.308,36.368,VRB,1,1.15,LTAW 100350Z VRB01KT CAVOK 19/15 Q1015,2024-08-10T03:50:00Z,19,15,6+,29.97
LTAS,41.507,32.089,VRB,1,1.15,LTAS 100350Z VRB01KT 8000 SCT023 BKN080 20/20 Q1012,2024-08-10T03:50:00Z,20,20,4.97,29.88
LTAR,39.798,36.894,0,0,0.0,LTAR 100350Z 00000KT CAVOK 16/03 Q1019,2024-08-10T03:50:00Z,16,3,6+,30.09
LTAN,37.979,32.562,40,8,9.21,LTAN 100350Z 04008KT 9999 FEW040 BKN100 22/12 Q1015 NOSIG,2024-08-10T03:50:00Z,22,12,6+,29.97
LTAE,40.079,32.566,40,8,9.21,LTAE 100350Z 04008KT CAVOK 20/15 Q1014 NOSIG RMK RWY21 02007KT,2024-08-10T03:50:00Z,20,15,6+,29.94
LOXZ,47.203,14.744,VRB,2,2.3,LOXZ 100350Z VRB02KT 9999 FEW070 SCT300 15/13 Q1023,2024-08-10T03:50:00Z,15,13,6+,30.21
LGRX,38.151,21.426,0,0,0.0,LGRX 100350Z 00000KT CAVOK 21/19 Q1013,2024-08-10T03:50:00Z,21,19,6+,29.91
LGNX,37.081,25.369,10,7,8.06,LGNX 100350Z 01007KT CAVOK 25/22 Q1011,2024-08-10T03:50:00Z,25,22,6+,29.85
LGHI,38.343,26.141,10,8,9.21,LGHI 100350Z 01008KT CAVOK 26/18 Q1010,2024-08-10T03:50:00Z,26,18,6+,29.82
KDAG,34.8537,-116.787,270,13,14.96,KDAG 100350Z AUTO 27013KT 10SM FEW110 38/04 A2983 RMK AO2 SLP069 T03780039,2024-08-10T03:50:00Z,37.8,3.9,10+,29.83
ETNG,50.964,6.032,230,4,4.6,ETNG 100350Z AUTO 23004KT 190V260 9999 // NCD 15/13 Q1019,2024-08-10T03:50:00Z,15,13,6+,30.09
EGYP,-51.82,-58.448,20,4,4.6,EGYP 100350Z 02004KT 9999 BKN018 BKN050 02/02 Q0998,2024-08-10T03:50:00Z,2,2,6+,29.47
EGXC,53.094,-0.173,210,7,8.06,EGXC 100350Z 21007KT CAVOK 13/11 Q1016 RMK BLU,2024-08-10T03:50:00Z,13,11,6+,30.00
EGQS,57.711,-3.324,250,9,10.36,EGQS 100350Z 25009KT 9999 FEW024 SCT050 13/11 Q1004 RMK BLU,2024-08-10T03:50:00Z,13,11,6+,29.65
EGNM,53.862,-1.665,180,4,4.6,EGNM 100350Z 18004KT 150V220 9999 OVC015 14/11 Q1014,2024-08-10T03:50:00Z,14,11,6+,29.94
BGSF,67.013,-50.718,30,5,5.75,BGSF 100350Z AUTO 03005KT 9999NDV BKN190/// 07/04 Q0996,2024-08-10T03:50:00Z,7,4,,29.41
BGKK,65.575,-37.133,270,2,2.3,BGKK 100350Z AUTO 27002KT 0250NDV FG VV001/// M00/M01 Q0992,2024-08-10T03:50:00Z,0,-1,,29.29
BGJN,69.24,-51.064,0,0,0.0,BGJN 100350Z AUTO 00000KT 9999NDV OVC048/// 06/05 Q0997,2024-08-10T03:50:00Z,6,5,,29.44
BGGH,64.191,-51.677,30,7,8.06,BGGH 100350Z AUTO 03007KT 9999 -RA FEW038/// BKN068/// OVC089/// 06/05 Q0995,2024-08-10T03:50:00Z,6,5,6+,29.38
BGBW,61.164,-45.42,220,7,8.06,BGBW 100350Z AUTO 22007KT 170V260 7000NDV -SHRA FEW020/// BKN026/// 09/07 Q0997,2024-08-10T03:50:00Z,9,7,,29.44
KBKB,31.022,-92.911,0,0,0.0,KBKB 100349Z AUTO 00000KT 10SM 27/22 A3002 RMK AO2 SLP189 T02670217 $,2024-08-10T03:49:00Z,26.7,21.7,10+,30.02
RKSP,37.962,124.67,160,7,8.06,RKSP 100348Z 16007G017KT 9999 BKN009 OVC250 27/26 A2964 RMK CIG009,2024-08-10T03:48:00Z,27,26,6+,29.64
MMTM,22.29,-97.863,100,3,3.45,MMTM 100348Z 10003KT 7SM FEW015 BKN200 28/26 A2999 RMK 8/108 HZY,2024-08-10T03:48:00Z,28,26,7,29.99
KJDN,47.3259,-106.949,90,6,6.9,KJDN 100348Z AUTO 09006KT 18/05 A3018 RMK AO1 SLP212 T01780050,2024-08-10T03:48:00Z,17.8,5,,30.18
KSUN,43.4969,-114.292,310,5,5.75,KSUN 100347Z COR 31005KT 10SM SCT120 18/10 A3011,2024-08-10T03:47:00Z,18,10,10+,30.11
KPOC,34.0928,-117.779,260,7,8.06,KPOC 100347Z 26007KT 10SM CLR 23/14 A2989 RMK LAST,2024-08-10T03:47:00Z,23,14,10+,29.89
KPAO,37.458,-122.112,340,7,8.06,KPAO 100347Z 34007KT 10SM SKC 16/13 A2994 RMK LAST,2024-08-10T03:47:00Z,16,13,10+,29.94
KGYR,33.428,-112.368,0,0,0.0,KGYR 100347Z 00000KT 10SM SCT150 BKN200 38/16 A2977 RMK LAST,2024-08-10T03:47:00Z,38,16,10+,29.77
KCHD,33.2669,-111.809,220,4,4.6,KCHD 100347Z 22004KT 10SM BKN150 38/14 A2980 RMK LAST,2024-08-10T03:47:00Z,38,14,10+,29.80
MMTJ,32.544,-116.982,260,7,8.06,MMTJ 100346Z 26007KT 10SM SKC 19/17 A2991 RMK HZY PRESRR,2024-08-10T03:46:00Z,19,17,10+,29.91
EQYS,37.4,14.92,330,3,3.45,EQYS 100346Z AUTO 33003KT 10SM CLR 26/19 A2998 RMK AO2 SLP151 T02610194 $ ,2024-08-10T03:46:00Z,26.1,19.4,10+,29.98
MMTL,20.1725,-87.6622,50,6,6.9,MMTL 100345Z 05006KT 2SM TSRA BKN015CB 26/25 A3002 RMK 8/3//,2024-08-10T03:45:00Z,26,25,2,30.02
MMCL,24.766,-107.476,50,8,9.21,MMCL 100345Z 05008KT 10SM FEW020 SCT090 BKN230 29/22 A2983 RMK 8/463 HZY,2024-08-10T03:45:00Z,29,22,10+,29.83
MMLM,25.688,-109.085,70,5,5.75,MMLM 100344Z 07005KT 10SM FEW020 SCT220 33/19 A2981 RMK 8/501 DSNT CB N,2024-08-10T03:44:00Z,33,19,10+,29.81
MMVR,19.144,-96.189,170,3,3.45,MMVR 100343Z 17003KT 6SM BKN012 BKN200 29/26 A2996 RMK 8/101 HZY DSNT CB 2/3RD QUAD LTGIC,2024-08-10T03:43:00Z,29,26,6,29.96
MMTO,19.343,-99.568,70,7,8.06,MMTO 100343Z 07007KT 6SM -RA SCT020 OVC080 14/12 A3042 RMK 60215 8/46/,2024-08-10T03:43:00Z,14,12,6,30.42
MMMX,19.436,-99.072,290,6,6.9,MMMX 100343Z 29006KT 9SM FEW025 SCT080 BKN220 17/14 A3036 NOSIG RMK 60015 8/472 LWR SC HZY,2024-08-10T03:43:00Z,17,14,9,30.36
MMGL,20.523,-103.312,0,0,0.0,MMGL 100343Z 00000KT 5SM SCT025 BKN100 BKN300 21/17 A3018 RMK 8/563 FQT LTGCC N/NE,2024-08-10T03:43:00Z,21,17,5,30.18
MMUN,21.038,-86.855,150,6,6.9,MMUN 100342Z 15006KT 7SM SCT015 SCT080 BKN250 28/27 A3000 RMK 8/132 OCNL DROPS,2024-08-10T03:42:00Z,28,27,7,30.00
MMTC,25.564,-103.408,60,16,18.41,MMTC 100342Z 06016KT 8SM VCBLDU SCT100 30/14 A3005 RMK 8/070,2024-08-10T03:42:00Z,30,14,8,30.05
MMSM,19.763,-99.002,40,9,10.36,MMSM 100342Z 04009KT 9SM FEW020 SCT080 BKN220 16/11 A3037 RMK 8/463 HZY DSNT CB S SW,2024-08-10T03:42:00Z,16,11,9,30.37
MMMM,19.844,-101.037,150,3,3.45,MMMM 100342Z 15003KT 6SM TS BKN030CB OVC100 17/17 A3024 RMK 60225 8/96/ TS/SE RAE36 RWY/WET,2024-08-10T03:42:00Z,17,17,6,30.24
MMAS,21.702,-102.318,80,6,6.9,MMAS 100342Z 08006KT 8SM SKC 21/13 A3026 RMK HZY,2024-08-10T03:42:00Z,21,13,8,30.26
MMTP,14.795,-92.371,0,0,0.0,MMTP 100341Z 00000KT 8SM FEW020 SCT060 24/23 A2992 RMK 8/460,2024-08-10T03:41:00Z,24,23,8,29.92
MMML,32.631,-115.238,170,5,5.75,MMML 100341Z 17005KT 10SM FEW200 38/14 A2970 RMK 8/008,2024-08-10T03:41:00Z,38,14,10+,29.70
MMMD,20.936,-89.659,90,7,8.06,MMMD 100341Z 09007KT 6SM SCT070 SCT300 26/25 A2998 RMK 8/058 HZY,2024-08-10T03:41:00Z,26,25,6,29.98
MMLP,24.077,-110.364,180,11,12.66,MMLP 100341Z 18011KT 10SM SKC 30/13 A2984,2024-08-10T03:41:00Z,30,13,10+,29.84
MMCV,23.706,-98.959,140,5,5.75,MMCV 100341Z 14005KT 7SM SCT220 27/23 A3004 RMK 8/008 HZY,2024-08-10T03:41:00Z,27,23,7,30.04
MMCP,19.817,-90.502,0,0,0.0,MMCP 100341Z 00000KT 7SM OVC100 26/25 A2997 RMK 8/02/,2024-08-10T03:41:00Z,26,25,7,29.97
MMZC,22.904,-102.68,60,6,6.9,MMZC 100340Z E06006KT 8SM SCT040 BKN100 20/13 A3028 RMK 8/210 HZY,2024-08-10T03:40:00Z,20,13,8,30.28
MMTG,16.571,-93.03,350,12,13.81,MMTG 100340Z 35012KT 8SM SCT025 BKN080 OVC300 26/21 A3003 RMK 8/467 HZY CB N OCNL DROPS,2024-08-10T03:40:00Z,26,21,8,30.03
MMSP,22.256,-100.93,0,0,0.0,MMSP 100340Z 00000KT 8SM SCT025 19/14 A3031 RMK 8/400,2024-08-10T03:40:00Z,19,14,8,30.31
MMSD,23.157,-109.72,200,2,2.3,MMSD 100340Z 20002KT 10SM SKC 32/18 A2983,2024-08-10T03:40:00Z,32,18,10+,29.83
MMMY,25.774,-100.104,80,6,6.9,MMMY 100340Z 08006KT 8SM SKC 26/22 A3005 RMK ISOL AC,2024-08-10T03:40:00Z,26,22,8,30.05
MMLO,20.997,-101.481,40,19,21.86,MMLO 100340Z 04019KT 8SM FEW030 SCT220 22/13 A3018 RMK 8/502,2024-08-10T03:40:00Z,22,13,8,30.18
MMHO,29.097,-111.051,210,7,8.06,MMHO 100340Z 21007KT 10SM SCT200 38/14 A2979 RMK 8/008 ISOL SC DSNT CB 2ND QUAD,2024-08-10T03:40:00Z,38,14,10+,29.79
MMCU,28.701,-105.965,100,3,3.45,MMCU 100340Z 10003KT 10SM SCT080 29/05 A3013 RMK 8/070,2024-08-10T03:40:00Z,29,5,10+,30.13
MMBT,15.775,-96.26,0,0,0.0,MMBT 100340Z 00000KT 6SM SCT020 BKN120 OVC220 24/22 A2987 RMK 8/463,2024-08-10T03:40:00Z,24,22,6,29.87
MMAN,25.865,-100.239,100,6,6.9,MMAN 100340Z 10006KT 8SM SKC 26/21 A3005 RMK ISOL SC,2024-08-10T03:40:00Z,26,21,8,30.05
MMAA,16.758,-99.754,50,7,8.06,MMAA 100340Z 05007KT 5SM -TSRA BKN015CB OVC070 27/24 A2987 RMK 8/96/ TS35 VRB CONDS,2024-08-10T03:40:00Z,27,24,5,29.87
