station_id,latitude,longitude,wind_dir_degrees,wind_speed_kt,wind_speed_mph,raw_text,observation_time,temp_c,dewpoint_c,visibility_statute_mi,altim_in_hg
ULOO,57.79,28.397,0,0,0.0,ULOO 080202Z 00000MPS 0300 0200E R01/0500U PRFG NSC 12/12 Q1013 NOSIG RMK QFE755,2024-08-08T02:02:00Z,12,12,0.19,29.91
CYLH,52.196,-87.936,100,7,8.06,CYLH 080202Z AUTO 10007KT 9SM -RA SCT008 BKN071 BKN094 OVC140 15/14 A2990 RMK SLP132 DENSITY ALT 1100FT,2024-08-08T02:02:00Z,15,14,9,29.90
YPXM,-10.453,105.688,100,13,14.96,YPXM 080201Z AUTO 10013KT 9999 // SCT014 26/22 Q1017 RF00.0/000.0,2024-08-08T02:01:00Z,26,22,6+,30.03
KNBC,32.477,-80.722,310,12,13.81,KNBC 080201Z AUTO 31012G20KT 10SM FEW009 BKN018 OVC024 26/24 A2952 RMK AO2 T02560239 ,2024-08-08T02:01:00Z,25.6,23.9,10+,29.52
CYER,56.019,-87.675,20,4,4.6,CYER 080201Z AUTO 02004KT 6SM BR SCT240 07/07 A3007 RMK SLP187,2024-08-08T02:01:00Z,7,7,6,30.07
ZMUB,47.843,106.766,VRB,2,2.3,ZMUB 080200Z VRB01MPS 9999 FEW030CB BKN033 18/14 Q1012 NOSIG RMK QFE652.0 75 MOP,2024-08-08T02:00:00Z,18,14,6+,29.88
ZMCK,47.651,106.822,100,8,9.21,ZMCK 080200Z 10004MPS 9999 FEW030CB BKN033 19/15 Q1012 NOSIG RMK QFE644.4 75 MOP,2024-08-08T02:00:00Z,19,15,6+,29.88
WSSS,1.368,103.982,150,8,9.21,WSSS 080200Z 15008KT 9999 FEW016 SCT160 BKN300 29/25 Q1012 NOSIG,2024-08-08T02:00:00Z,29,25,6+,29.88
WSSL,1.417,103.866,140,8,9.21,WSSL 080200Z 14008KT 120V180 9999 FEW018 BKN160 30/25 Q1012,2024-08-08T02:00:00Z,30,25,6+,29.88
WSAP,1.36,103.909,120,7,8.06,WSAP 080200Z 12007KT 9999 SCT018 BKN160 30/24 Q1013,2024-08-08T02:00:00Z,30,24,6+,29.91
WIII,-6.125,106.659,VRB,5,5.75,WIII 080200Z VRB05KT 6000 FEW020 29/22 Q1013 NOSIG,2024-08-08T02:00:00Z,29,22,3.73,29.91
WAMM,1.541,124.926,190,10,11.51,WAMM 080200Z 19010KT 150V260 9999 FEW019 31/22 Q1013 NOSIG,2024-08-08T02:00:00Z,31,22,6+,29.91
WAJJ,-2.573,140.514,120,4,4.6,WAJJ 080200Z 12004KT 080V180 9999 FEW012 28/25 Q1012 NOSIG,2024-08-08T02:00:00Z,28,25,6+,29.88
WADL,-8.757,116.277,130,13,14.96,WADL 080200Z 13013KT 100V160 7000 SCT016 29/22 Q1016 NOSIG,2024-08-08T02:00:00Z,29,22,4.35,30.00
VRMM,4.192,73.529,360,6,6.9,VRMM 080200Z 36006KT 9000 -RA FEW016 OVC100 26/24 Q1011 TEMPO FEW017CB,2024-08-08T02:00:00Z,26,24,5.59,29.85
VRMH,6.744,73.171,300,9,10.36,VRMH 080200Z 30009KT 9999 FEW018TCU BKN120 29/25 Q1010,2024-08-08T02:00:00Z,29,25,6+,29.82
VRMG,-0.693,73.156,320,4,4.6,VRMG 080200Z 32004KT 9999 FEW018TCU BKN110 28/25 Q1010 TEMPO 5000 TSRA,2024-08-08T02:00:00Z,28,25,6+,29.82
VOTR,10.765,78.71,280,8,9.21,VOTR 080200Z 28008KT 4000 BR FEW016 BKN100 28/25 Q1009 NOSIG,2024-08-08T02:00:00Z,28,25,2.49,29.79
VOTP,13.633,79.543,VRB,2,2.3,VOTP 080200Z VRB02KT 6000 SCT020 SCT100 29/25 Q1009 NOSIG,2024-08-08T02:00:00Z,29,25,3.73,29.79
VOMM,12.994,80.18,240,5,5.75,VOMM 080200Z 24005KT 4000 -DZ BR SCT016 FEW025TCU BKN080 26/25 Q1008 NOSIG,2024-08-08T02:00:00Z,26,25,2.49,29.76
VOML,12.961,74.89,130,3,3.45,VOML 080200Z 13003KT 1400 R24/2000 BR FEW001 SCT012 OVC080 23/23 Q1011 BECMG 1500 BR,2024-08-08T02:00:00Z,23,23,0.87,29.85
VOHS,17.233,78.429,270,9,10.36,VOHS 080200Z 27009KT 3000 DZ BKN010 BKN015 OVC080 23/21 Q1011 NOSIG,2024-08-08T02:00:00Z,23,21,1.86,29.85
VOHB,15.362,75.085,240,4,4.6,VOHB 080200Z 24004KT 4000 BR SCT008 SCT012 BKN080 23/21 Q1012,2024-08-08T02:00:00Z,23,21,2.49,29.88
VOCL,11.137,75.955,340,2,2.3,VOCL 080200Z 34002KT 4000 BR FEW008 SCT012 BKN080 23/23 Q1011 BECMG 5000 -RA BR,2024-08-08T02:00:00Z,23,23,2.49,29.85
VOBM,15.861,74.617,290,4,4.6,VOBM 080200Z 29004KT 4000 -RA BKN007 SCT012 BKN080 22/22 Q1014,2024-08-08T02:00:00Z,22,22,2.49,29.94
VOBG,12.949,77.663,270,7,8.06,VOBG 080200Z 27007KT 6000 SCT008 SCT012 BKN080 23/21 Q1015 NOSIG,2024-08-08T02:00:00Z,23,21,3.73,29.97
VOAT,10.824,72.176,290,9,10.36,VOAT 080200Z 29009KT 5000 BR SCT012 BKN080 27/25 Q1010 NOSIG,2024-08-08T02:00:00Z,27,25,3.11,29.82
VNKT,27.697,85.359,100,3,3.45,VNKT 080200Z 10003KT 6000 FEW008 SCT030 BKN100 22/22 Q1014 NOSIG,2024-08-08T02:00:00Z,22,22,3.73,29.94
VISM,31.082,77.068,0,0,0.0,VISM 080200Z 00000KT 5000 BR FEW020 BKN060 21/19 Q1013,2024-08-08T02:00:00Z,21,19,3.11,29.91
VHHH,22.309,113.922,220,11,12.66,VHHH 080200Z 22011KT 9999 FEW018 32/26 Q1008 NOSIG,2024-08-08T02:00:00Z,32,26,6+,29.76
VERP,21.182,81.738,260,5,5.75,VERP 080200Z 26005KT 2500 BR SCT010 BKN018 OVC080 25/24 Q1005 NOSIG,2024-08-08T02:00:00Z,25,24,1.55,29.68
VEMN,27.481,95.014,0,0,0.0,VEMN 080200Z 00000KT 5000 BR SCT018 OVC090 27/26 Q1006 NOSIG,2024-08-08T02:00:00Z,27,26,3.11,29.70
VELR,27.296,94.098,320,2,2.3,VELR 080200Z 32002KT 3000 BR SCT008 BKN016 OVC070 25/25 Q1006,2024-08-08T02:00:00Z,25,25,1.86,29.70
VEJS,22.813,86.169,0,0,0.0,VEJS 080200Z 00000KT 3000 BR SCT018 BKN100 27/26 Q1003,2024-08-08T02:00:00Z,27,26,1.86,29.62
VECC,22.651,88.445,150,7,8.06,VECC 080200Z 15007KT 3200 HZ SCT018 FEW030CB BKN100 29/27 Q1004 NOSIG,2024-08-08T02:00:00Z,29,27,1.99,29.65
VAUD,24.618,73.896,210,5,5.75,VAUD 080200Z 21005KT 2500 BR SCT025 BKN080 25/22 Q1006 BECMG 3000 BR,2024-08-08T02:00:00Z,25,22,1.55,29.70
VASU,21.114,72.742,240,12,13.81,VASU 080200Z 24012KT 4000 BR FEW012 SCT020 OVC080 27/25 Q1005 NOSIG,2024-08-08T02:00:00Z,27,25,2.49,29.68
VANP,21.089,79.055,230,2,2.3,VANP 080200Z 23002KT 2000 -RA SCT010 SCT018 OVC080 26/25 Q1007 NOSIG,2024-08-08T02:00:00Z,26,25,1.24,29.73
VAJB,23.178,80.05,280,6,6.9,VAJB 080200Z 28006KT 2000 HZ SCT010 BKN020 OVC080 25/24 Q1006 TEMPO 1500 RA,2024-08-08T02:00:00Z,25,24,1.24,29.70
VABB,19.1,72.859,250,7,8.06,VABB 080200Z 25007G17KT 2500 HZ SCT018 FEW025 BKN090 28/25 Q1007 NOSIG,2024-08-08T02:00:00Z,28,25,1.55,29.73
VAAU,19.863,75.398,250,5,5.75,VAAU 080200Z 25005KT 3000 BR SCT020 BKN100 23/22 Q1009 NOSIG,2024-08-08T02:00:00Z,23,22,1.86,29.79
UTAV,39.083,63.613,350,6,6.9,UTAV 080200Z 35006KT 9000 NSC 26/08 Q1002 R31/CLRD70 NOSIG,2024-08-08T02:00:00Z,26,8,5.59,29.59
UTAT,41.761,59.827,130,8,9.21,UTAT 080200Z 13008KT CAVOK 26/16 Q1003 R08/CLRD70 NOSIG,2024-08-08T02:00:00Z,26,16,6+,29.62
UTAM,37.619,61.897,340,4,4.6,UTAM 080200Z 34004KT CAVOK 24/10 Q1003 R88/CLRD70 NOSIG,2024-08-08T02:00:00Z,24,10,6+,29.62
UTAK,40.054,53.007,330,16,18.41,UTAK 080200Z 33016KT 9999 FEW010 SCT100 25/20 Q1004 R34L/CLRD70 TEMPO BKN004,2024-08-08T02:00:00Z,25,20,6+,29.65
UTAA,37.975,58.371,290,12,13.81,UTAA 080200Z 29012KT 9999 FEW100 30/21 Q1004 R88/CLRD70 NOSIG,2024-08-08T02:00:00Z,30,21,6+,29.65
UMMS,53.883,28.031,360,4,4.6,UMMS 080200Z 36002MPS 320V020 7000 1000W BR NSC 13/13 Q1013 NOSIG,2024-08-08T02:00:00Z,13,13,4.35,29.91
UMGG,52.525,31.015,280,6,6.9,UMGG 080200Z 28003MPS 0200 R28/0400 FG VV002 14/14 Q1011 NOSIG RMK QBB060,2024-08-08T02:00:00Z,14,14,0.12,29.85
UBBZ,39.094,46.734,20,12,13.81,UBBZ 080200Z AUTO 02012KT 9999 // ///050/// 26/18 Q1011,2024-08-08T02:00:00Z,26,18,6+,29.85
UBBY,41.561,46.667,VRB,2,2.3,UBBY 080200Z VRB02KT 9999 FEW100 22/20 Q1012 NOSIG,2024-08-08T02:00:00Z,22,20,6+,29.88
UBBQ,40.809,47.729,80,3,3.45,UBBQ 080200Z 08003KT 9999 FEW050CB BKN070 24/21 Q1010 NOSIG RMK MT OBSC,2024-08-08T02:00:00Z,24,21,6+,29.82
UBBN,39.189,45.458,190,8,9.21,UBBN 080200Z 19008KT 9999 FEW046 SCT100 26/14 Q1010 NOSIG RMK QFE683,2024-08-08T02:00:00Z,26,14,6+,29.82
UBBL,38.746,48.818,130,4,4.6,UBBL 080200Z 13004KT 9999 NSC 22/17 Q1009 NOSIG,2024-08-08T02:00:00Z,22,17,6+,29.79
UBBG,40.738,46.318,250,6,6.9,UBBG 080200Z 25006KT 9999 SCT100 23/17 Q1010 NOSIG,2024-08-08T02:00:00Z,23,17,6+,29.82
UBBF,39.595,47.196,340,2,2.3,UBBF 080200Z AUTO 34002KT 300V360 9999 // ///081/// 25/19 Q1010,2024-08-08T02:00:00Z,25,19,6+,29.82
UBBB,40.469,50.061,320,22,25.32,UBBB 080200Z 32022G32KT 9999 BKN014 26/22 Q1008 NOSIG,2024-08-08T02:00:00Z,26,22,6+,29.76
TUPJ,18.445,-64.543,70,8,9.21,TUPJ 080200Z 07008KT 10SM FEW022 28/24 A2996 RMK Q1014 VIS16KM,2024-08-08T02:00:00Z,28,24,10+,29.96
TNCA,12.501,-70.015,90,13,14.96,TNCA 080200Z 09013KT CAVOK 29/25 Q1011 NOSIG,2024-08-08T02:00:00Z,29,25,6+,29.85
TLPL,13.743,-60.948,80,15,17.26,TLPL 080200Z 08015KT 9999 FEW018 SCT023 28/25 Q1012 NOSIG,2024-08-08T02:00:00Z,28,25,6+,29.88
TFFR,16.265,-61.532,110,4,4.6,TFFR 080200Z AUTO 11004KT CAVOK 26/23 Q1013 TEMPO 4000 SHRA SCT015 BKN030TCU,2024-08-08T02:00:00Z,26,23,6+,29.91
TFFJ,17.904,-62.844,60,17,19.56,TFFJ 080200Z AUTO 06017KT 9999 FEW025 SCT036 29/25 Q1014,2024-08-08T02:00:00Z,29,25,6+,29.94
TFFF,14.591,-61.003,160,4,4.6,TFFF 080200Z AUTO 16004KT 070V190 9999 SCT023 BKN028 BKN045 27/24 Q1012 TEMPO 4000 SHRA SCT014 BKN020TCU,2024-08-08T02:00:00Z,27,24,6+,29.88
TBPB,13.075,-59.492,110,11,12.66,TBPB 080200Z 11011KT 9999 FEW018 28/24 Q1012 NOSIG,2024-08-08T02:00:00Z,28,24,6+,29.88
SYCJ,6.499,-58.254,VRB,2,2.3,SYCJ 080200Z VRB02KT 9999 FEW015 25/25 Q1011 NOSIG,2024-08-08T02:00:00Z,25,25,6+,29.85
SVVA,10.154,-67.92,,,,SVVA 080200Z /////KT 9999 SCT016 24/20 Q1013,2024-08-08T02:00:00Z,24,20,6+,29.91
SVMI,10.603,-66.991,90,2,2.3,SVMI 080200Z 09002KT 9999 FEW016 28/23 Q1011,2024-08-08T02:00:00Z,28,23,6+,29.85
SUMU,-34.838,-56.031,320,6,6.9,SUMU 080200Z 32006KT 9999 SCT040 08/08 Q1013 TEMPO BR,2024-08-08T02:00:00Z,8,8,6+,29.91
SULS,-34.855,-55.094,310,8,9.21,SULS 080200Z 31008KT 9999 BKN040 10/07 Q1012,2024-08-08T02:00:00Z,10,7,6+,29.88
SUAA,-34.788,-56.263,270,9,10.36,SUAA 080200Z 27009KT 9999 FEW025 SCT200 10/07 Q1013,2024-08-08T02:00:00Z,10,7,6+,29.91
SPZO,-13.536,-71.939,90,3,3.45,SPZO 080200Z 09003KT 9999 NSC 10/M01 Q1030 NOSIG RMK BIRD HAZARD RWY 10/28 PP000,2024-08-08T02:00:00Z,10,-1,6+,30.41
SPUR,-5.206,-80.616,180,13,14.96,SPUR 080200Z 18013KT 9999 OVC013 19/14 Q1015 RMK PP000,2024-08-08T02:00:00Z,19,14,6+,29.97
SPTN,-18.049,-70.277,250,3,3.45,SPTN 080200Z 25003KT 9999 OVC020 12/09 Q1017 RMK PP000,2024-08-08T02:00:00Z,12,9,6+,30.03
SPSO,-13.744,-76.221,VRB,1,1.15,SPSO 080200Z VRB01KT 7000 OVC020 17/13 Q1014 RMK PP000,2024-08-08T02:00:00Z,17,13,4.35,29.94
SPRU,-8.087,-79.109,150,9,10.36,SPRU 080200Z 15009KT 6000 BCFG OVC017 16/15 Q1014 RMK PP000,2024-08-08T02:00:00Z,16,15,3.73,29.94
SPQU,-16.341,-71.583,40,5,5.75,SPQU 080200Z 04005KT CAVOK 14/M14 Q1027 NOSIG RMK PP000,2024-08-08T02:00:00Z,14,-14,6+,30.32
SPQT,-3.786,-73.306,270,2,2.3,SPQT 080200Z 27002KT CAVOK 25/23 Q1009 NOSIG RMK PP000,2024-08-08T02:00:00Z,25,23,6+,29.79
SPME,-3.551,-80.385,240,5,5.75,SPME 080200Z 24005KT 9999 BKN015 23/20 Q1012 RMK BIRD HAZARD RWY 32/14 PP000,2024-08-08T02:00:00Z,23,20,6+,29.88
SPJC,-12.024,-77.113,160,6,6.9,SPJC 080200Z 16006KT 9999 OVC022 16/12 Q1014 NOSIG RMK PP000,2024-08-08T02:00:00Z,16,12,6+,29.94
SPHI,-6.787,-79.828,180,13,14.96,SPHI 080200Z 18013KT CAVOK 17/14 Q1014 RMK BIRD HAZARD RWY 19/01 PP000,2024-08-08T02:00:00Z,17,14,6+,29.94
SPCL,-8.378,-74.574,90,3,3.45,SPCL 080200Z 09003KT 9999 SCT020 27/22 Q1010 RMK PP000,2024-08-08T02:00:00Z,27,22,6+,29.82
SOCA,4.822,-52.365,VRB,2,2.3,SOCA 080200Z AUTO VRB02KT 9999 FEW021 27/25 Q1012 NOSIG,2024-08-08T02:00:00Z,27,25,6+,29.88
SMJP,5.453,-55.188,120,6,6.9,SMJP 080200Z 12006KT 9999 FEW018CB 26/25 Q1011 NOSIG,2024-08-08T02:00:00Z,26,25,6+,29.85
SKSP,12.587,-81.704,150,3,3.45,SKSP 080200Z 15003KT 110V210 9999 FEW010 26/26 Q1008,2024-08-08T02:00:00Z,26,26,6+,29.76
SKRG,6.169,-75.426,350,4,4.6,SKRG 080200Z 35004KT 9999 FEW008 SCT015 14/13 Q1025 TEMPO FM0300 BCFG BKN008,2024-08-08T02:00:00Z,14,13,6+,30.27
SKPE,4.814,-75.735,100,6,6.9,SKPE 080200Z 10006KT 9999 SCT020 SCT080 22/18 Q1017,2024-08-08T02:00:00Z,22,18,6+,30.03
SKLT,-4.196,-69.943,VRB,2,2.3,SKLT 080200Z VRB02KT CAVOK 24/23 Q1009,2024-08-08T02:00:00Z,24,23,6+,29.79
SKCL,3.543,-76.382,20,6,6.9,SKCL 080200Z 02006KT 9999 FEW020 SCT080 23/19 Q1014 NOSIG,2024-08-08T02:00:00Z,23,19,6+,29.94
SKCG,10.447,-75.516,20,3,3.45,SKCG 080200Z 02003KT 9999 FEW015 27/25 Q1010,2024-08-08T02:00:00Z,27,25,6+,29.82
SKCC,7.93,-72.509,330,4,4.6,SKCC 080200Z 33004KT 9999 SCT020 28/23 Q1013,2024-08-08T02:00:00Z,28,23,6+,29.91
SKBQ,10.883,-74.78,250,3,3.45,SKBQ 080200Z 25003KT 9999 FEW012 25/24 Q1010 NOSIG,2024-08-08T02:00:00Z,25,24,6+,29.82
SKBO,4.706,-74.151,340,3,3.45,SKBO 080200Z 34003KT 9999 FEW017 12/12 Q1027 NOSIG,2024-08-08T02:00:00Z,12,12,6+,30.32
SKBG,7.127,-73.185,300,3,3.45,SKBG 080200Z 30003KT 2000 BCFG BKN005 21/21 Q1015,2024-08-08T02:00:00Z,21,21,1.24,29.97
SGES,-25.461,-54.849,120,4,4.6,SGES 080200Z 12004KT 0800 FG OVC006 17/17 Q1012,2024-08-08T02:00:00Z,17,17,0.5,29.88
SGAS,-25.248,-57.519,200,12,13.81,SGAS 080200Z 20012KT 6000 DZ OV004 15/14 Q1014,2024-08-08T02:00:00Z,15,14,3.73,29.94
SESA,-2.205,-80.989,220,14,16.11,SESA 080200Z 22014KT 2000 +DZ SCT003 BKN006 BKN010 22/22 Q1013 RMK A2992,2024-08-08T02:00:00Z,22,22,1.24,29.91
SEQM,-0.124,-78.354,20,4,4.6,SEQM 080200Z 02004KT 360V070 9999 BKN030 14/11 Q1026 NOSIG RMK A3031 RMK A3028,2024-08-08T02:00:00Z,14,11,6+,30.30
SEMT,-0.946,-80.679,190,9,10.36,SEMT 080200Z 19009KT 9999 BKN023 24/20 Q1010 RMK A2985,2024-08-08T02:00:00Z,24,20,6+,29.82
SELT,-0.921,-78.619,180,8,9.21,SELT 080200Z 18008KT 9999 SCT040 11/07 Q1030,2024-08-08T02:00:00Z,11,7,6+,30.41
SEGU,-2.158,-79.884,210,13,14.96,SEGU 080200Z 21013KT 9999 SCT026 BKN100 24/20 Q1011 NOSIG RMK A2987,2024-08-08T02:00:00Z,24,20,6+,29.85
SECU,-2.889,-78.984,80,2,2.3,SECU 080200Z 08002KT 9999 FEW100 15/08 Q1025 RMK A3028,2024-08-08T02:00:00Z,15,8,6+,30.27
SCVM,-32.947,-71.479,0,0,0.0,SCVM 080200Z 00000KT CAVOK 08/04 Q1024,2024-08-08T02:00:00Z,8,4,6+,30.24
SCVD,-39.65,-73.086,VRB,2,2.3,SCVD 080200Z AUTO VRB02KT 0700 R35/0750 FG VV002 03/03 Q1029,2024-08-08T02:00:00Z,3,3,0.43,30.38
SCTN,-42.933,-72.699,80,5,5.75,SCTN 080200Z 08005KT CAVOK 03/03 Q1028,2024-08-08T02:00:00Z,3,3,6+,30.35
SCTE,-41.439,-73.094,0,0,0.0,SCTE 080200Z 00000KT 9999 FEW024 02/01 Q1028 NOSIG,2024-08-08T02:00:00Z,2,1,6+,30.35
SCSE,-29.918,-71.201,340,2,2.3,SCSE 080200Z 34002KT 9999 OVC031 11/09 Q1021,2024-08-08T02:00:00Z,11,9,6+,30.15
SCQP,-38.925,-72.648,0,0,0.0,SCQP 080200Z 00000KT CAVOK 01/01 Q1027,2024-08-08T02:00:00Z,1,1,6+,30.32
SCPQ,-42.347,-73.718,210,2,2.3,SCPQ 080200Z AUTO 21002KT 6000 BR BKN021 04/03 Q1028,2024-08-08T02:00:00Z,4,3,3.73,30.35
SCNT,-51.672,-72.528,310,2,2.3,SCNT 080200Z 31002KT 9999 BKN050 M00/M03 Q1017,2024-08-08T02:00:00Z,0,-3,6+,30.03
SCJO,-40.605,-73.061,140,2,2.3,SCJO 080200Z AUTO 14002KT 0200 FG VV001 M00/M00 Q1028,2024-08-08T02:00:00Z,0,0,0.12,30.35
SCIP,-27.161,-109.427,170,3,3.45,SCIP 080200Z 17003KT 120V220 9999 BKN028 17/12 Q1021 NOSIG,2024-08-08T02:00:00Z,17,12,6+,30.15
SCIE,-36.773,-73.063,VRB,2,2.3,SCIE 080200Z VRB02KT 4000 BR NSC 06/05 Q1026,2024-08-08T02:00:00Z,6,5,2.49,30.30
SCIC,-34.966,-71.217,VRB,2,2.3,SCIC 080200Z AUTO VRB02KT //// R/////// // NCD 03/02 Q1025,2024-08-08T02:00:00Z,3,2,,30.27
SCFT,-43.189,-71.853,VRB,2,2.3,SCFT 080200Z AUTO VRB02KT 8000 NCD 01/01 Q1028,2024-08-08T02:00:00Z,1,1,4.97,30.35
SCFA,-23.45,-70.441,200,13,14.96,SCFA 080200Z 20013KT CAVOK 13/10 Q1017 NOSIG,2024-08-08T02:00:00Z,13,10,6+,30.03
SCEL,-33.393,-70.786,140,6,6.9,SCEL 080200Z 14006KT 100V160 9999 BKN050 07/03 Q1023 NOSIG,2024-08-08T02:00:00Z,7,3,6+,30.21
SCDA,-20.535,-70.181,160,6,6.9,SCDA 080200Z 16006KT 9999 OVC024 16/10 Q1017,2024-08-08T02:00:00Z,16,10,6+,30.03
SCCI,-53.003,-70.855,340,9,10.36,SCCI 080200Z 34009KT 9999 -RA BKN040 OVC060 02/M01 Q1014 NOSIG,2024-08-08T02:00:00Z,2,-1,6+,29.94
SCCH,-36.583,-72.031,VRB,1,1.15,SCCH 080200Z AUTO VRB01KT CAVOK 04/03 Q1026,2024-08-08T02:00:00Z,4,3,6+,30.30
SCCF,-22.496,-68.905,190,2,2.3,SCCF 080200Z 19002KT CAVOK 04/M21 Q1026,2024-08-08T02:00:00Z,4,-21,6+,30.30
SCAT,-27.262,-70.774,190,6,6.9,SCAT 080200Z AUTO 19006KT 9999 NCD 10/08 Q1020,2024-08-08T02:00:00Z,10,8,6+,30.12
SCAR,-18.351,-70.336,VRB,1,1.15,SCAR 080200Z VRB01KT 9999 OVC025 16/10 Q1017,2024-08-08T02:00:00Z,16,10,6+,30.03
SBVT,-20.258,-40.286,360,6,6.9,SBVT 080200Z 36006KT CAVOK 23/19 Q1017,2024-08-08T02:00:00Z,23,19,6+,30.03
SBTE,-5.06,-42.824,0,0,0.0,SBTE 080200Z 00000KT CAVOK 27/19 Q1012,2024-08-08T02:00:00Z,27,19,6+,29.88
SBSV,-12.911,-38.331,120,11,12.66,SBSV 080200Z 12011KT 9999 SCT023 BKN050 25/20 Q1017,2024-08-08T02:00:00Z,25,20,6+,30.03
SBSP,-23.627,-46.655,320,3,3.45,SBSP 080200Z 32003KT 230V360 CAVOK 22/09 Q1018,2024-08-08T02:00:00Z,22,9,6+,30.06
SBSN,-2.423,-54.789,0,0,0.0,SBSN 080200Z 00000KT CAVOK 25/25 Q1011,2024-08-08T02:00:00Z,25,25,6+,29.85
SBSL,-2.585,-44.234,60,6,6.9,SBSL 080200Z 06006KT CAVOK 25/24 Q1013,2024-08-08T02:00:00Z,25,24,6+,29.91
SBSJ,-23.229,-45.861,10,3,3.45,SBSJ 080200Z 01003KT CAVOK 22/11 Q1017,2024-08-08T02:00:00Z,22,11,6+,30.03
SBSG,-5.768,-35.376,190,3,3.45,SBSG 080200Z 19003KT 160V220 9999 FEW020 22/21 Q1015,2024-08-08T02:00:00Z,22,21,6+,29.97
SBRP,-21.134,-47.774,270,3,3.45,SBRP 080200Z 27003KT 240V320 CAVOK 23/07 Q1016,2024-08-08T02:00:00Z,23,7,6+,30.00
SBRJ,-22.91,-43.163,310,5,5.75,SBRJ 080200Z 31005KT CAVOK 25/19 Q1012,2024-08-08T02:00:00Z,25,19,6+,29.88
SBRF,-8.126,-34.923,130,7,8.06,SBRF 080200Z 13007KT 090V160 9999 FEW025 26/19 Q1015,2024-08-08T02:00:00Z,26,19,6+,29.97
SBRB,-9.867,-67.897,350,4,4.6,SBRB 080200Z 35004KT CAVOK 27/22 Q1011,2024-08-08T02:00:00Z,27,22,6+,29.85
SBPV,-8.708,-63.901,0,0,0.0,SBPV 080200Z 00000KT 5000 FU NSC 27/21 Q1010,2024-08-08T02:00:00Z,27,21,3.11,29.82
SBPS,-16.439,-39.081,120,3,3.45,SBPS 080200Z 12003KT 090V190 9999 SCT030 23/18 Q1019,2024-08-08T02:00:00Z,23,18,6+,30.09
SBPL,-9.367,-40.565,160,9,10.36,SBPL 080200Z 16009KT CAVOK 25/15 Q1016,2024-08-08T02:00:00Z,25,15,6+,30.00
SBPJ,-10.291,-48.357,VRB,2,2.3,SBPJ 080200Z VRB02KT CAVOK 22/13 Q1014,2024-08-08T02:00:00Z,22,13,6+,29.94
SBOI,3.861,-51.796,0,0,0.0,SBOI 080200Z AUTO 00000KT 9999 // FEW025/// 25/24 Q1012,2024-08-08T02:00:00Z,25,24,6+,29.88
SBNF,-26.88,-48.651,70,3,3.45,SBNF 080200Z 07003KT 9999 FEW008 OVC100 18/17 Q1012,2024-08-08T02:00:00Z,18,17,6+,29.88
SBMQ,0.051,-51.072,60,4,4.6,SBMQ 080200Z 06004KT 9999 BKN017 28/26 Q1012,2024-08-08T02:00:00Z,28,26,6+,29.88
SBMO,-9.511,-35.792,320,4,4.6,SBMO 080200Z 32004KT CAVOK 19/19 Q1016,2024-08-08T02:00:00Z,19,19,6+,30.00
SBMN,-3.146,-59.986,80,4,4.6,SBMN 080200Z 08004KT CAVOK 29/20 Q1011,2024-08-08T02:00:00Z,29,20,6+,29.85
SBMA,-5.368,-49.137,240,1,1.15,SBMA 080200Z 24001KT 5000 FU NSC 23/17 Q1012,2024-08-08T02:00:00Z,23,17,3.11,29.88
SBLO,-23.334,-51.13,50,6,6.9,SBLO 080200Z 05006KT CAVOK 24/09 Q1014,2024-08-08T02:00:00Z,24,9,6+,29.94
SBKP,-23.007,-47.135,40,5,5.75,SBKP 080200Z 04005KT CAVOK 22/10 Q1017,2024-08-08T02:00:00Z,22,10,6+,30.03
SBJP,-7.148,-34.951,170,4,4.6,SBJP 080200Z 17004KT CAVOK 23/20 Q1016,2024-08-08T02:00:00Z,23,20,6+,30.00
SBGR,-23.432,-46.469,70,3,3.45,SBGR 080200Z 07003KT CAVOK 18/11 Q1017,2024-08-08T02:00:00Z,18,11,6+,30.03
SBGO,-16.632,-49.221,330,2,2.3,SBGO 080200Z 33002KT CAVOK 21/11 Q1018,2024-08-08T02:00:00Z,21,11,6+,30.06
SBGL,-22.815,-43.261,150,2,2.3,SBGL 080200Z 15002KT CAVOK 27/17 Q1013,2024-08-08T02:00:00Z,27,17,6+,29.91
SBFZ,-3.776,-38.533,110,12,13.81,SBFZ 080200Z 11012KT 9999 BKN020 26/23 Q1014,2024-08-08T02:00:00Z,26,23,6+,29.94
SBFN,-3.855,-32.423,140,15,17.26,SBFN 080200Z AUTO 14015KT 9999 FEW027 25/20 Q1014,2024-08-08T02:00:00Z,25,20,6+,29.94
SBFL,-27.671,-48.547,130,8,9.21,SBFL 080200Z 13008KT 9999 BKN012 19/16 Q1012,2024-08-08T02:00:00Z,19,16,6+,29.88
SBFI,-25.595,-54.488,140,4,4.6,SBFI 080200Z 14004KT 4000 BR BKN030 OVC070 18/18 Q1012,2024-08-08T02:00:00Z,18,18,2.49,29.88
SBEG,-3.039,-60.05,110,4,4.6,SBEG 080200Z 11004KT CAVOK 29/22 Q1011,2024-08-08T02:00:00Z,29,22,6+,29.85
SBCY,-15.653,-56.116,310,2,2.3,SBCY 080200Z 31002KT CAVOK 27/11 Q1011,2024-08-08T02:00:00Z,27,11,6+,29.85
SBCT,-25.529,-49.176,40,4,4.6,SBCT 080200Z 04004KT CAVOK 19/12 Q1016,2024-08-08T02:00:00Z,19,12,6+,30.00
SBCG,-20.469,-54.672,20,9,10.36,SBCG 080200Z 02009KT CAVOK 26/09 Q1013,2024-08-08T02:00:00Z,26,9,6+,29.91
SBCF,-19.635,-43.966,10,5,5.75,SBCF 080200Z 01005KT CAVOK 20/12 Q1020,2024-08-08T02:00:00Z,20,12,6+,30.12
SBBV,2.846,-60.69,160,7,8.06,SBBV 080200Z 16007KT 9999 VCTS FEW030 FEW035CB SCT080 26/23 Q1012,2024-08-08T02:00:00Z,26,23,6+,29.88
SBBR,-15.867,-47.933,280,3,3.45,SBBR 080200Z 28003KT 250V310 CAVOK 16/10 Q1021,2024-08-08T02:00:00Z,16,10,6+,30.15
SBBG,-31.391,-54.112,230,8,9.21,SBBG 080200Z AUTO 23008KT 9999 -RA FEW027 12/10 Q1015,2024-08-08T02:00:00Z,12,10,6+,29.97
SBBE,-1.379,-48.476,70,8,9.21,SBBE 080200Z 07008KT CAVOK 27/24 Q1012,2024-08-08T02:00:00Z,27,24,6+,29.88
SBAR,-10.984,-37.07,310,3,3.45,SBAR 080200Z 31003KT 9999 FEW024 BKN060 23/21 Q1016,2024-08-08T02:00:00Z,23,21,6+,30.00
SAZN,-38.95,-68.141,140,2,2.3,SAZN 080200Z 14002KT CAVOK 04/00 Q1029,2024-08-08T02:00:00Z,4,0,6+,30.38
RPVP,9.742,118.759,220,8,9.21,RPVP 080200Z 22008KT 9999 FEW019 SCT250 31/25 Q1012 RMK A2988,2024-08-08T02:00:00Z,31,25,6+,29.88
RPVM,10.308,123.978,230,9,10.36,RPVM 080200Z 23009KT 9999 FEW020 SCT300 31/26 Q1012 NOSIG RMK A2988,2024-08-08T02:00:00Z,31,26,6+,29.88
RPVD,9.334,123.297,70,6,6.9,RPVD 080200Z 07006KT 9999 FEW015 SCT070 BKN220 30/25 Q1011 RMK A2985,2024-08-08T02:00:00Z,30,25,6+,29.85
RPMZ,6.92,122.063,30,5,5.75,RPMZ 080200Z 03005KT 9999 FEW016CB BKN090 30/25 Q1012 RMK A2988 CB SE,2024-08-08T02:00:00Z,30,25,6+,29.88
RPMR,6.058,125.096,140,7,8.06,RPMR 080200Z 14007KT 100V190 9999 FEW018 SCT080 30/24 Q1013 RMK A2991,2024-08-08T02:00:00Z,30,24,6+,29.91
RPMD,7.125,125.646,180,6,6.9,RPMD 080200Z 18006KT 9999 SCT020 31/26 Q1012 RMK A2988 LOW CLDS MOV N,2024-08-08T02:00:00Z,31,26,6+,29.88
RPLL,14.507,121.004,310,7,8.06,RPLL 080200Z 31007KT 210V020 9999 SCT023 BKN100 31/28 Q1011 NOSIG RMK A2985,2024-08-08T02:00:00Z,31,28,6+,29.85
RPLI,18.178,120.532,200,11,12.66,RPLI 080200Z 20011KT 9999 FEW017CB BKN020 32/27 Q1009 NOSIG RMK A2980 CB SW,2024-08-08T02:00:00Z,32,27,6+,29.79
RPLC,15.186,120.56,190,2,2.3,RPLC 080200Z 19002KT 7000 -SHRA SCT019 BKN090 30/26 Q1011 RMK A2985,2024-08-08T02:00:00Z,30,26,4.35,29.85
RPLB,14.794,120.271,180,4,4.6,RPLB 080200Z 18004KT 190V220 9999 SCT018 BKN080 30/27 Q1012 RMK A2988,2024-08-08T02:00:00Z,30,27,6+,29.88
PLCH,1.988,-157.349,100,6,6.9,PLCH 080200Z 10006G17KT 9999 FEW020 30/23 Q1009,2024-08-08T02:00:00Z,30,23,6+,29.79
PKWA,8.72,167.724,210,3,3.45,PKWA 080200Z AUTO 21003KT 10SM CLR 30/25 A2983 RMK AO2 T02950245,2024-08-08T02:00:00Z,29.5,24.5,10+,29.83
OYSY,15.966,48.788,210,5,5.75,OYSY 080200Z 21005KT 9000 NSC 33/12 Q1005,2024-08-08T02:00:00Z,33,12,5.59,29.68
OYAA,12.829,45.029,310,4,4.6,OYAA 080200Z 31004KT 240V340 7000 FEW020 SCT100 28/22 Q1004,2024-08-08T02:00:00Z,28,22,4.35,29.65
ORSU,35.56,45.318,290,5,5.75,ORSU 080200Z 29005KT CAVOK 20/06 Q1007,2024-08-08T02:00:00Z,20,6,6+,29.73
ORNI,31.99,44.405,220,8,9.21,ORNI 080200Z 22008KT 7000 NSC 333/07 Q0999,2024-08-08T02:00:00Z,33,7,4.35,29.50
ORMM,30.549,47.662,290,8,9.21,ORMM 080200Z 29008KT 8000 NSC 30/10 Q0997 NOSIG,2024-08-08T02:00:00Z,30,10,4.97,29.44
ORER,36.232,43.951,210,4,4.6,ORER 080200Z 21004KT 7000 NSC 29/05 Q1003,2024-08-08T02:00:00Z,29,5,4.35,29.62
ORBI,33.263,44.235,300,10,11.51,ORBI 080200Z 30010KT CAVOK 32/08 Q0999 NOSIG,2024-08-08T02:00:00Z,32,8,6+,29.50
OPST,32.536,74.364,90,4,4.6,OPST 080200Z 09004KT 3500 -TSRA FEW030CB SCT040 BKN100 26/25 Q1002 TEMPO 05015G30KT 2000 TSRA RH92,2024-08-08T02:00:00Z,26,25,2.17,29.59
OPSK,27.722,68.792,0,0,0.0,OPSK 080200Z 00000KT 4000 NSC 29/26 Q1000 NOSIG,2024-08-08T02:00:00Z,29,26,2.49,29.53
OPPS,33.996,71.515,50,10,11.51,OPPS 080200Z 05010KT 4000 FEW005 FEW025CB SCT020 OVC070 25/25 Q1004,2024-08-08T02:00:00Z,25,25,2.49,29.65
OPMT,30.203,71.419,0,0,0.0,OPMT 080200Z 00000KT 3000 FU NSC 31/27 Q0999 NOSIG,2024-08-08T02:00:00Z,31,27,1.86,29.50
OPKC,24.902,67.139,260,7,8.06,OPKC 080200Z 26007KT 5000 HZ SCT020 BKN030 29/24 Q1002 NOSIG,2024-08-08T02:00:00Z,29,24,3.11,29.59
OPIS,33.551,72.827,90,12,13.81,OPIS 080200Z 09012KT 3000 -TSRA FEW030CB SCT040 OVC100 23/23 Q1004 TEMPO 13015G35KT 2000 TSRA FEW030CB,2024-08-08T02:00:00Z,23,23,1.86,29.65
OMSJ,25.329,55.517,100,14,16.11,OMSJ 080200Z 10014KT CAVOK 33/25 Q0998 NOSIG,2024-08-08T02:00:00Z,33,25,6+,29.47
OMRK,25.613,55.939,110,16,18.41,OMRK 080200Z 11016KT CAVOK 33/24 Q0998 A2950,2024-08-08T02:00:00Z,33,24,6+,29.47
OMFJ,25.112,56.324,170,6,6.9,OMFJ 080200Z 17006KT 8000 SCT020 30/27 Q1000 A2954,2024-08-08T02:00:00Z,30,27,4.97,29.53
OMDW,24.897,55.161,90,6,6.9,OMDW 080200Z 09006KT CAVOK 31/26 Q0998 NOSIG,2024-08-08T02:00:00Z,31,26,6+,29.47
OMDB,25.254,55.366,100,14,16.11,OMDB 080200Z 10014KT 070V130 CAVOK 33/25 Q0997 NOSIG,2024-08-08T02:00:00Z,33,25,6+,29.44
OMAL,24.262,55.609,110,8,9.21,OMAL 080200Z 11008KT CAVOK 31/25 Q1000 NOSIG,2024-08-08T02:00:00Z,31,25,6+,29.53
OMAD,24.428,54.458,130,5,5.75,OMAD 080200Z 13005KT CAVOK 34/25 Q0997 NOSIG,2024-08-08T02:00:00Z,34,25,6+,29.44
OMAA,24.433,54.651,180,3,3.45,OMAA 080200Z 18003KT 150V210 CAVOK 33/24 Q0997 NOSIG,2024-08-08T02:00:00Z,33,24,6+,29.44
OLBA,33.82,35.491,120,4,4.6,OLBA 080200Z 12004KT 7000 SCT026 27/22 Q1008 NOSIG,2024-08-08T02:00:00Z,27,22,4.35,29.76
OJAQ,29.612,35.018,340,5,5.75,OJAQ 080200Z 34005KT CAVOK 31/15 Q1006 NOSIG,2024-08-08T02:00:00Z,31,15,6+,29.70
OJAM,31.973,35.992,0,0,0.0,OJAM 080200Z 00000KT 8000 NSC 23/07 Q1012 NOSIG,2024-08-08T02:00:00Z,23,7,4.97,29.88
OJAI,31.723,35.993,260,4,4.6,OJAI 080200Z 26004KT 5000 HZ NSC 19/16 Q1011 NOSIG,2024-08-08T02:00:00Z,19,16,3.11,29.85
OIZH,29.472,60.901,180,6,6.9,OIZH 080200Z 18006KT CAVOK 21/M03 Q1010 A2982,2024-08-08T02:00:00Z,21,-3,6+,29.82
OITT,38.13,46.24,230,4,4.6,OITT 080200Z 23004KT CAVOK 21/13 Q1013 A2994,2024-08-08T02:00:00Z,21,13,6+,29.91
OITM,37.348,46.146,100,14,16.11,OITM 080200Z 10014KT CAVOK 24/13 Q1010,2024-08-08T02:00:00Z,24,13,6+,29.82
OITL,38.326,48.424,130,4,4.6,OITL 080200Z 13004KT 9999 FEW070 12/10 Q1015,2024-08-08T02:00:00Z,12,10,6+,29.97
OITK,38.425,44.975,50,12,13.81,OITK 080200Z 05012KT 9000 NSC 24/12 Q1012 A2990,2024-08-08T02:00:00Z,24,12,5.59,29.88
OISY,30.701,51.545,0,0,0.0,OISY 080200Z 00000KT CAVOK 21/10 Q1015,2024-08-08T02:00:00Z,21,10,6+,29.97
OISS,29.539,52.59,0,0,0.0,OISS 080200Z 00000KT 8000 SCT040 23/11 Q1010 A2985,2024-08-08T02:00:00Z,23,11,4.97,29.82
OISL,27.67,54.375,90,8,9.21,OISL 080200Z 09008KT 5000 HZ NSC 30/24 Q1003 A2962,2024-08-08T02:00:00Z,30,24,3.11,29.62
OISF,28.895,53.72,310,4,4.6,OISF 080200Z 31004KT 8000 NSC 23/09 Q1009 A2981,2024-08-08T02:00:00Z,23,9,4.97,29.79
OINR,36.91,50.68,0,0,0.0,OINR 080200Z 00000KT 9999 SCT026 24/22 Q1006,2024-08-08T02:00:00Z,24,22,6+,29.70
OINN,36.663,51.465,210,2,2.3,OINN 080200Z 21002KT 9999 BKN025 27/22 Q1006,2024-08-08T02:00:00Z,27,22,6+,29.70
OINE,37.383,55.452,0,0,0.0,OINE 080200Z 00000KT 7000 -RA SCT025 OVC080 24/22 Q1005,2024-08-08T02:00:00Z,24,22,4.35,29.68
OIMM,36.236,59.639,320,6,6.9,OIMM 080200Z 32006KT CAVOK 24/10 Q1011 A2986,2024-08-08T02:00:00Z,24,10,6+,29.85
OIKQ,26.755,55.902,80,4,4.6,OIKQ 080200Z 08004KT 7000 NSC 31/29 Q0998,2024-08-08T02:00:00Z,31,29,4.35,29.47
OIKK,30.251,56.964,0,0,0.0,OIKK 080200Z 00000KT CAVOK 17/M05 Q1013 A2993,2024-08-08T02:00:00Z,17,-5,6+,29.91
OIKB,27.218,56.378,160,12,13.81,OIKB 080200Z 16012KT 8000 SCT030 BKN100 32/27 Q0999 A2950,2024-08-08T02:00:00Z,32,27,4.97,29.50
OIIK,36.243,50.045,280,4,4.6,OIIK 080200Z 28004KT CAVOK 20/14 Q1010 A2983,2024-08-08T02:00:00Z,20,14,6+,29.82
OIII,35.686,51.304,250,6,6.9,OIII 080200Z 25006KT 9999 FEW040 SCT100 31/10 Q1008 A2977 NOSIG,2024-08-08T02:00:00Z,31,10,6+,29.76
OIHH,34.869,48.553,120,4,4.6,OIHH 080200Z 12004KT CAVOK 19/02 Q1013 A2994,2024-08-08T02:00:00Z,19,2,6+,29.91
OIFM,32.752,51.866,280,4,4.6,OIFM 080200Z 28004KT CAVOK 22/M01 Q1012 A2991,2024-08-08T02:00:00Z,22,-1,6+,29.88
OICS,35.245,47.009,0,0,0.0,OICS 080200Z 00000KT CAVOK 18/05 Q1012 A2989,2024-08-08T02:00:00Z,18,5,6+,29.88
OICK,33.435,48.283,140,4,4.6,OICK 080200Z 14004KT CAVOK 22/04 Q1008 A2978,2024-08-08T02:00:00Z,22,4,6+,29.76
OICI,33.588,46.397,90,4,4.6,OICI 080200Z 09004KT CAVOK 22/02 Q1011 A2987,2024-08-08T02:00:00Z,22,2,6+,29.85
OIBQ,29.259,50.324,260,4,4.6,OIBQ 080200Z 26004KT 7000 NSC 33/27 Q0996,2024-08-08T02:00:00Z,33,27,4.35,29.41
OIBP,27.38,52.738,0,0,0.0,OIBP 080200Z 00000KT 7000 NSC 31/26 Q0996 A2944,2024-08-08T02:00:00Z,31,26,4.35,29.41
OIBL,26.532,54.825,220,6,6.9,OIBL 080200Z 22006KT 5000 HZ NSC 33/29 Q0998,2024-08-08T02:00:00Z,33,29,3.11,29.47
OIAW,31.343,48.751,290,6,6.9,OIAW 080200Z 29006KT CAVOK 34/11 Q0995,2024-08-08T02:00:00Z,34,11,6+,29.38
OIAM,30.556,49.152,320,4,4.6,OIAM 080200Z 32004KT 9999 FEW040 30/15 Q0996,2024-08-08T02:00:00Z,30,15,6+,29.41
OIAH,30.336,50.83,0,0,0.0,OIAH 080200Z 00000KT 9999 FEW040 28/10 Q1003,2024-08-08T02:00:00Z,28,10,6+,29.62
OIAG,30.74,49.684,310,4,4.6,OIAG 080200Z 31004KT 9999 SCT040 33/09 Q0996,2024-08-08T02:00:00Z,33,9,6+,29.41
OEYN,24.144,38.063,250,2,2.3,OEYN 080200Z 25002KT 9999 FEW040 32/27 Q1003 NOSIG,2024-08-08T02:00:00Z,32,27,6+,29.62
OEWJ,26.199,36.476,10,5,5.75,OEWJ 080200Z 01005KT CAVOK 30/25 Q1004 NOSIG,2024-08-08T02:00:00Z,30,25,6+,29.65
OEWD,20.504,45.197,260,4,4.6,OEWD 080200Z 26004KT CAVOK 32/12 Q1004,2024-08-08T02:00:00Z,32,12,6+,29.65
OETR,31.693,38.731,270,8,9.21,OETR 080200Z 27008KT CAVOK 24/12 Q1009 NOSIG,2024-08-08T02:00:00Z,24,12,6+,29.79
OETF,21.483,40.544,0,0,0.0,OETF 080200Z 00000KT CAVOK 24/17 Q1017 NOSIG,2024-08-08T02:00:00Z,24,17,6+,30.03
OETB,28.366,36.619,290,4,4.6,OETB 080200Z 29004KT CAVOK 27/04 Q1010 NOSIG,2024-08-08T02:00:00Z,27,4,6+,29.82
OESK,29.785,40.1,30,3,3.45,OESK 080200Z 03003KT CAVOK 24/M03 Q1010 NOSIG,2024-08-08T02:00:00Z,24,-3,6+,29.82
OESH,17.467,47.121,300,8,9.21,OESH 080200Z 30008KT 9999 FEW040 33/02 Q1006 NOSIG,2024-08-08T02:00:00Z,33,2,6+,29.70
OERR,30.907,41.138,260,5,5.75,OERR 080200Z 26005KT CAVOK 28/M06 Q1005 NOSIG,2024-08-08T02:00:00Z,28,-6,6+,29.68
OERK,24.945,46.702,270,3,3.45,OERK 080200Z 27003KT CAVOK 30/M05 Q1005 NOSIG,2024-08-08T02:00:00Z,30,-5,6+,29.68
OERF,29.626,43.491,290,7,8.06,OERF 080200Z 29007KT CAVOK 29/M04 Q1004 NOSIG,2024-08-08T02:00:00Z,29,-4,6+,29.65
OEPA,28.335,46.125,300,4,4.6,OEPA 080200Z 30004KT CAVOK 31/00 Q1002 NOSIG,2024-08-08T02:00:00Z,31,0,6+,29.59
OENG,17.611,44.419,240,8,9.21,OENG 080200Z 24008KT 9999 FEW030 SCT090 27/13 Q1013 NOSIG,2024-08-08T02:00:00Z,27,13,6+,29.91
OEMN,-99.99,-99.99,0,0,0.0,OEMN 080200Z 00000KT 9999 FEW020 29/27 Q1008,2024-08-08T02:00:00Z,29,27,6+,29.76
OEMA,24.553,39.705,270,4,4.6,OEMA 080200Z 27004KT CAVOK 33/13 Q1009 NOSIG,2024-08-08T02:00:00Z,33,13,6+,29.79
OEKM,18.301,42.798,150,6,6.9,OEKM 080200Z 15006KT 9999 FEW022 20/11 Q1021 NOSIG,2024-08-08T02:00:00Z,20,11,6+,30.15
OEKJ,24.07,47.58,230,5,5.75,OEKJ 080200Z 23005KT CAVOK 31/M01 Q1005,2024-08-08T02:00:00Z,31,-1,6+,29.68
OEJN,21.685,39.166,180,5,5.75,OEJN 080200Z 18005KT 9999 FEW035 32/25 Q1006 NOSIG,2024-08-08T02:00:00Z,32,25,6+,29.70
OEHL,27.438,41.686,150,4,4.6,OEHL 080200Z 15004KT CAVOK 25/01 Q1011,2024-08-08T02:00:00Z,25,1,6+,29.85
OEGT,31.412,37.279,270,7,8.06,OEGT 080200Z 27007KT CAVOK 24/11 Q1008 NOSIG,2024-08-08T02:00:00Z,24,11,6+,29.76
OEGS,26.303,43.774,310,4,4.6,OEGS 080200Z 31004KT CAVOK 28/M01 Q1006,2024-08-08T02:00:00Z,28,-1,6+,29.70
OEGN,16.901,42.586,340,3,3.45,OEGN 080200Z 34003KT 9000 FEW030 29/26 Q1007 NOSIG,2024-08-08T02:00:00Z,29,26,5.59,29.73
OEDR,26.265,50.152,0,0,0.0,OEDR 080200Z 00000KT CAVOK 30/22 Q0996,2024-08-08T02:00:00Z,30,22,6+,29.41
OEDM,24.45,44.121,30,8,9.21,OEDM 080200Z 03008KT CAVOK 28/M03 Q1008,2024-08-08T02:00:00Z,28,-3,6+,29.76
OEDF,26.45,49.817,280,3,3.45,OEDF 080200Z 28003KT CAVOK 31/12 Q0997 NOSIG,2024-08-08T02:00:00Z,31,12,6+,29.44
OEBH,19.984,42.621,210,4,4.6,OEBH 080200Z 21004KT CAVOK 27/13 Q1011 NOSIG,2024-08-08T02:00:00Z,27,13,6+,29.85
OEBA,20.296,41.634,240,3,3.45,OEBA 080200Z 24003KT CAVOK 25/15 Q1016 NOSIG,2024-08-08T02:00:00Z,25,15,6+,30.00
OEAO,26.483,38.117,50,4,4.6,OEAO 080200Z 05004KT CAVOK 31/04 Q1008 NOSIG,2024-08-08T02:00:00Z,31,4,6+,29.76
OEAH,25.285,49.485,270,10,11.51,OEAH 080200Z 27010KT CAVOK 34/10 Q0999 NOSIG,2024-08-08T02:00:00Z,34,10,6+,29.50
OEAB,18.24,42.657,150,5,5.75,OEAB 080200Z 15005KT 9999 FEW020 21/10 Q1021 NOSIG,2024-08-08T02:00:00Z,21,10,6+,30.15
NWWW,-22.015,166.213,80,3,3.45,NWWW 080200Z AUTO 08003KT 020V190 9999 -RA SCT035 BKN048 BKN096 21/15 Q1018 TEMPO 3500 SHRA FEW020TCU BKN090,2024-08-08T02:00:00Z,21,15,6+,30.06
NVVW,-19.455,169.224,130,8,9.21,NVVW 080200Z 13008KT 9999 SCT020 BKN120 26/17 Q1018,2024-08-08T02:00:00Z,26,17,6+,30.06
NVVV,-17.695,168.313,110,15,17.26,NVVV 080200Z 11015KT 050V120 9999 BKN020 OVC040 24/19 Q1018,2024-08-08T02:00:00Z,24,19,6+,30.06
NVSS,-15.505,167.22,120,14,16.11,NVSS 080200Z 12014KT 9999 FEW020 SCT040 28/19 Q1016,2024-08-08T02:00:00Z,28,19,6+,30.00
NTAA,-17.554,-149.607,40,11,12.66,NTAA 080200Z 04011KT 9999 FEW016 BKN060 28/23 Q1013 NOSIG,2024-08-08T02:00:00Z,28,23,6+,29.91
NLWW,-13.238,-176.199,110,13,14.96,NLWW 080200Z 11013KT 070V150 9999 SCT031 28/20 Q1013 NOSIG,2024-08-08T02:00:00Z,28,20,6+,29.91
NGTA,1.381,173.147,40,4,4.6,NGTA 080200Z 04004KT 9999 FEW020 BKN300 31/24 Q1009,2024-08-08T02:00:00Z,31,24,6+,29.79
NGFU,-8.523,179.198,110,10,11.51,NGFU 080200Z 11010KT 9999 FEW016CB FEW018TCU BKN110 29/26 Q1009,2024-08-08T02:00:00Z,29,26,6+,29.79
NFTV,-18.585,-173.963,120,9,10.36,NFTV 080200Z 12009KT 9999 FEW016 24/16 Q1018,2024-08-08T02:00:00Z,24,16,6+,30.06
NFTL,-19.777,-174.34,90,7,8.06,NFTL 080200Z 09007KT 9999 FEW011 SCT016 25/14 Q1018 RMK DRY AIR 52%,2024-08-08T02:00:00Z,25,14,6+,30.06
NFTF,-21.241,-175.15,100,14,16.11,NFTF 080200Z 10014KT 9999 SCT017TCU 24/17 Q1019,2024-08-08T02:00:00Z,24,17,6+,30.09
NFNS,-16.803,179.341,120,12,13.81,NFNS 080200Z 12012KT 9999 FEW020 SCT045 25/17 Q1017,2024-08-08T02:00:00Z,25,17,6+,30.03
NFNM,-16.691,-179.877,130,17,19.56,NFNM 080200Z 13017KT 9999 FEW022 SCT050 27/16 Q1016,2024-08-08T02:00:00Z,27,16,6+,30.00
NFNL,-16.467,179.339,120,16,18.41,NFNL 080200Z 12016KT 9999 SCT030 27/16 Q1016,2024-08-08T02:00:00Z,27,16,6+,30.00
NFNA,-18.043,178.559,140,10,11.51,NFNA 080200Z 14010KT 9999 SCT020 24/17 Q1017,2024-08-08T02:00:00Z,24,17,6+,30.03
NFFN,-17.755,177.443,310,12,13.81,NFFN 080200Z 31012KT 9999 SCT028 26/16 Q1016 NOSIG,2024-08-08T02:00:00Z,26,16,6+,30.00
NCSW,-99.99,-99.99,,,,NCSW 080200Z AUTO NIL,2024-08-08T02:00:00Z,,,,
NCRK,-10.032,-161.101,,,,NCRK 080200Z AUTO NIL,2024-08-08T02:00:00Z,,,,
NCPY,-9.01,-158.034,50,12,13.81,NCPY 080200Z AUTO 05012KT //// ////// 30/24 Q1010,2024-08-08T02:00:00Z,30,24,,29.82
NCPL,1.98,-157.48,,,,NCPL 080200Z AUTO NIL,2024-08-08T02:00:00Z,,,,
NCPK,-10.915,-165.839,,,,NCPK 080200Z AUTO NIL,2024-08-08T02:00:00Z,,,,
NCNS,-99.99,-99.99,,,,NCNS 080200Z AUTO NIL,2024-08-08T02:00:00Z,,,,
NCMR,-19.842,-157.703,200,6,6.9,NCMR 080200Z AUTO 20006KT //// ////// 25/20 Q1013,2024-08-08T02:00:00Z,25,20,,29.91
NCMK,-20.137,-157.344,220,6,6.9,NCMK 080200Z AUTO 22006KT //// ////// 25/20 Q1011,2024-08-08T02:00:00Z,25,20,,29.85
NCMH,-10.374,-161.004,170,3,3.45,NCMH 080200Z AUTO 17003KT //// ////// 28/24 Q1011,2024-08-08T02:00:00Z,28,24,,29.85
NCMG,-21.896,-157.907,230,8,9.21,NCMG 080200Z AUTO 23008KT //// ////// 24/16 Q1009,2024-08-08T02:00:00Z,24,16,,29.79
NCAT,-19.968,-158.119,,,,NCAT 080200Z AUTO NIL,2024-08-08T02:00:00Z,,,,
NCAI,-18.829,-159.766,,,,NCAI 080200Z AUTO NIL,2024-08-08T02:00:00Z,,,,
MZBZ,17.538,-88.309,VRB,2,2.3,MZBZ 080200Z VRB02KT 9999 FEW023 28/26 A2987 Q1011 NOSIG RMK DIST CB-N,2024-08-08T02:00:00Z,28,26,6+,29.85
MWCR,19.294,-81.357,0,0,0.0,MWCR 080200Z 00000KT CAVOK 30/25 Q1012,2024-08-08T02:00:00Z,30,25,6+,29.88
MSLP,13.438,-89.056,10,5,5.75,MSLP 080200Z 01005KT 9999 3000E TSRA SCT020 SCT033CB SCT063 26/26 Q1009 A2981 TEMPO 1500 +TSRA RMK CB NE E SE NW,2024-08-08T02:00:00Z,26,26,6+,29.79
MROC,9.991,-84.218,50,5,5.75,MROC 080200Z 05005KT 9999 -RA BKN025 20/19 A3000 NOSIG,2024-08-08T02:00:00Z,20,19,6+,30.00
MRLB,10.589,-85.552,110,5,5.75,MRLB 080200Z 11005KT CAVOK 25/22 A2982,2024-08-08T02:00:00Z,25,22,6+,29.82
MPTO,9.056,-79.391,VRB,2,2.3,MPTO 080200Z VRB02KT 9999 SCT016 SCT090 26/25 Q1010 NOSIG,2024-08-08T02:00:00Z,26,25,6+,29.82
MPPA,8.909,-79.597,200,4,4.6,MPPA 080200Z 20004KT 9999 SCT016 ///// Q1009,2024-08-08T02:00:00Z,,,6+,29.79
MPMG,8.967,-79.555,190,9,10.36,MPMG 080200Z 19009KT 9999 SCT016 27/25 Q1010 NOSIG,2024-08-08T02:00:00Z,27,25,6+,29.82
MPDA,8.391,-82.434,50,8,9.21,MPDA 080200Z 05008KT 6000 TSRA SCT012CB BKN080 24/23 Q1010,2024-08-08T02:00:00Z,24,23,3.73,29.82
MHTG,14.06,-87.216,30,6,6.9,MHTG 080200Z 03006KT 9999 FEW032CB 22/19 Q1017 A3003 NOSIG,2024-08-08T02:00:00Z,22,19,6+,30.03
MHRO,16.316,-86.523,20,4,4.6,MHRO 080200Z 02004KT 9999 FEW025 28/25 Q1011 A2986 NOSIG,2024-08-08T02:00:00Z,28,25,6+,29.85
MHPR,14.382,-87.621,360,6,6.9,MHPR 080200Z 36006KT 9999 VCSH SCT046 FEW048CB BKN090 22/21 Q1015 A2999 RERA NOSIG,2024-08-08T02:00:00Z,22,21,6+,29.97
MHLM,15.442,-87.934,20,5,5.75,MHLM 080200Z 02005KT 9999 FEW025 28/25 Q1011 A2986 NOSIG,2024-08-08T02:00:00Z,28,25,6+,29.85
MHLC,15.737,-86.864,VRB,2,2.3,MHLC 080200Z VRB02KT 9999 FEW020 27/25 Q1011 A2986 NOSIG,2024-08-08T02:00:00Z,27,25,6+,29.85
MGMM,16.914,-89.866,120,4,4.6,MGMM 080200Z 12004KT CAVOK 26/25 Q1013 A2991 FEW100,2024-08-08T02:00:00Z,26,25,6+,29.91
MGGT,14.585,-90.526,360,14,16.11,MGGT 080200Z 36014KT 9999 SCT016 22/16 Q1020 A3012,2024-08-08T02:00:00Z,22,16,6+,30.12
MDST,19.407,-70.614,0,0,0.0,MDST 080200Z 00000KT 9999 FEW020 26/21 Q1013,2024-08-08T02:00:00Z,26,21,6+,29.91
MDSD,18.433,-69.667,140,4,4.6,MDSD 080200Z 14004KT 9999 FEW018 SCT300 26/25 Q1013,2024-08-08T02:00:00Z,26,25,6+,29.91
MDPP,19.759,-70.571,110,6,6.9,MDPP 080200Z 11006KT 9999 FEW020 SCT300 27/25 Q1012,2024-08-08T02:00:00Z,27,25,6+,29.88
MDPC,18.566,-68.356,100,5,5.75,MDPC 080200Z 10005KT 9999 FEW018 28/25 Q1014,2024-08-08T02:00:00Z,28,25,6+,29.94
MDLR,18.451,-68.921,0,0,0.0,MDLR 080200Z 00000KT 9999 FEW016 26/24 Q1014,2024-08-08T02:00:00Z,26,24,6+,29.94
MDJB,18.577,-69.984,0,0,0.0,MDJB 080200Z 00000KT 9999 FEW018 SCT300 26/23 Q1013,2024-08-08T02:00:00Z,26,23,6+,29.91
LZZI,49.231,18.613,70,3,3.45,LZZI 080200Z 07003KT CAVOK 14/13 Q1014,2024-08-08T02:00:00Z,14,13,6+,29.94
LZTT,49.068,20.25,VRB,2,2.3,LZTT 080200Z VRB02KT CAVOK 10/10 Q1016,2024-08-08T02:00:00Z,10,10,6+,30.00
LZPP,48.613,17.832,20,3,3.45,LZPP 080200Z 02003KT CAVOK 17/14 Q1013,2024-08-08T02:00:00Z,17,14,6+,29.91
LZKZ,48.661,21.24,20,3,3.45,LZKZ 080200Z 02003KT CAVOK 16/14 Q1014 NOSIG,2024-08-08T02:00:00Z,16,14,6+,29.94
LZIB,48.17,17.207,260,3,3.45,LZIB 080200Z 26003KT CAVOK 23/16 Q1013 NOSIG,2024-08-08T02:00:00Z,23,16,6+,29.91
LYVR,45.147,21.31,VRB,1,1.15,LYVR 080200Z AUTO VRB01KT CAVOK 13/13 Q1013,2024-08-08T02:00:00Z,13,13,6+,29.91
LYTV,42.405,18.723,0,0,0.0,LYTV 080200Z AUTO 00000KT CAVOK 19/16 Q1011,2024-08-08T02:00:00Z,19,16,6+,29.85
LYPG,42.359,19.252,VRB,1,1.15,LYPG 080200Z AUTO VRB01KT CAVOK 24/16 Q1011,2024-08-08T02:00:00Z,24,16,6+,29.85
LYNI,43.338,21.863,170,1,1.15,LYNI 080200Z 17001KT CAVOK 15/11 Q1015 NOSIG,2024-08-08T02:00:00Z,15,11,6+,29.97
LYKV,43.818,20.587,310,3,3.45,LYKV 080200Z 31003KT CAVOK 13/13 Q1014 NOSIG,2024-08-08T02:00:00Z,13,13,6+,29.94
LYBE,44.824,20.291,180,3,3.45,LYBE 080200Z 18003KT CAVOK 19/14 Q1013 NOSIG,2024-08-08T02:00:00Z,19,14,6+,29.91
LUKK,46.928,28.931,VRB,1,1.15,LUKK 080200Z VRB01KT CAVOK 18/15 Q1013 NOSIG,2024-08-08T02:00:00Z,18,15,6+,29.91
LQTZ,44.461,18.728,VRB,2,2.3,LQTZ 080200Z VRB02KT CAVOK 15/15 Q1013,2024-08-08T02:00:00Z,15,15,6+,29.91
LQSA,43.825,18.331,120,4,4.6,LQSA 080200Z 12004KT CAVOK 17/14 Q1015,2024-08-08T02:00:00Z,17,14,6+,29.97
LQMO,43.285,17.84,150,2,2.3,LQMO 080200Z 15002KT CAVOK 21/16 Q1011,2024-08-08T02:00:00Z,21,16,6+,29.85
LQBK,44.937,17.299,300,6,6.9,LQBK 080200Z 30006KT 9999 BKN047 21/15 Q1013 NOSIG,2024-08-08T02:00:00Z,21,15,6+,29.91
LPMT,38.704,-9.036,320,6,6.9,LPMT 080200Z 32006KT CAVOK 19/17 Q1013,2024-08-08T02:00:00Z,19,17,6+,29.91
LPMR,39.831,-8.887,280,3,3.45,LPMR 080200Z 28003KT 7000 OVC007 17/17 Q1015,2024-08-08T02:00:00Z,17,17,4.35,29.97
LKTB,49.151,16.694,VRB,1,1.15,LKTB 080200Z VRB01KT CAVOK 21/15 Q1013 NOSIG,2024-08-08T02:00:00Z,21,15,6+,29.91
LKPR,50.101,14.26,250,5,5.75,LKPR 080200Z 25005KT CAVOK 18/16 Q1014 NOSIG,2024-08-08T02:00:00Z,18,16,6+,29.94
LKMT,49.696,18.111,230,4,4.6,LKMT 080200Z 23004KT 190V280 CAVOK 17/14 Q1012 NOSIG,2024-08-08T02:00:00Z,17,14,6+,29.88
LKKV,50.202,12.91,260,5,5.75,LKKV 080200Z 26005KT 230V310 CAVOK 18/16 Q1015,2024-08-08T02:00:00Z,18,16,6+,29.97
LHBP,47.437,19.256,VRB,2,2.3,LHBP 080200Z VRB02KT CAVOK 18/12 Q1013 NOSIG,2024-08-08T02:00:00Z,18,12,6+,29.91
LFYR,47.32,1.688,0,0,0.0,LFYR 080200Z AUTO 00000KT 0800 FG NSC 12/11 Q1017,2024-08-08T02:00:00Z,12,11,0.5,30.03
LFVP,46.764,-56.169,260,6,6.9,LFVP 080200Z AUTO 26006KT 9000 NSC 16/15 Q1014,2024-08-08T02:00:00Z,16,15,5.59,29.94
LFTW,43.757,4.416,360,6,6.9,LFTW 080200Z AUTO 36006KT CAVOK 25/18 Q1013,2024-08-08T02:00:00Z,25,18,6+,29.91
LFTH,43.094,6.146,VRB,2,2.3,LFTH 080200Z AUTO VRB02KT CAVOK 21/20 Q1012 NOSIG,2024-08-08T02:00:00Z,21,20,6+,29.88
LFSX,47.783,6.364,280,5,5.75,LFSX 080200Z AUTO 28005KT 9999 OVC039 19/17 Q1017,2024-08-08T02:00:00Z,19,17,6+,30.03
LFST,48.549,7.64,330,4,4.6,LFST 080200Z AUTO 33004KT 9999 BKN038 BKN058 OVC068 20/16 Q1016 TEMPO SHRA FEW040CB,2024-08-08T02:00:00Z,20,16,6+,30.00
LFSO,48.583,5.955,180,4,4.6,LFSO 080200Z AUTO 18004KT CAVOK 16/14 Q1017,2024-08-08T02:00:00Z,16,14,6+,30.03
LFSN,48.692,6.231,VRB,2,2.3,LFSN 080200Z AUTO VRB02KT CAVOK 18/15 Q1017,2024-08-08T02:00:00Z,18,15,6+,30.03
LFSL,45.04,1.486,300,3,3.45,LFSL 080200Z AUTO 30003KT CAVOK 15/12 Q1018,2024-08-08T02:00:00Z,15,12,6+,30.06
LFSI,48.631,4.904,160,2,2.3,LFSI 080200Z AUTO 16002KT CAVOK 16/15 Q1017,2024-08-08T02:00:00Z,16,15,6+,30.03
LFSD,47.269,5.09,310,3,3.45,LFSD 080200Z AUTO 31003KT 9999 FEW025 BKN064 BKN140 17/14 Q1017,2024-08-08T02:00:00Z,17,14,6+,30.03
LFSB,47.614,7.51,260,5,5.75,LFSB 080200Z AUTO 26005KT 9999 FEW035 BKN050 19/18 Q1016 TEMPO SHRA SCT040TCU,2024-08-08T02:00:00Z,19,18,6+,30.00
LFRZ,47.312,-2.163,290,4,4.6,LFRZ 080200Z AUTO 29004KT CAVOK 16/13 Q1018 TEMPO 3000 BR,2024-08-08T02:00:00Z,16,13,6+,30.06
LFRS,47.15,-1.609,190,2,2.3,LFRS 080200Z AUTO 19002KT CAVOK 13/12 Q1018 NOSIG,2024-08-08T02:00:00Z,13,12,6+,30.06
LFRN,48.069,-1.734,290,3,3.45,LFRN 080200Z AUTO 29003KT CAVOK 13/12 Q1018 NOSIG,2024-08-08T02:00:00Z,13,12,6+,30.06
LFRL,48.279,-4.439,200,6,6.9,LFRL 080200Z AUTO 20006KT CAVOK 16/14 Q1017,2024-08-08T02:00:00Z,16,14,6+,30.03
LFRJ,48.527,-4.138,190,8,9.21,LFRJ 080200Z AUTO 19008KT CAVOK 15/14 Q1017,2024-08-08T02:00:00Z,15,14,6+,30.03
LFRG,49.365,0.154,230,5,5.75,LFRG 080200Z AUTO 23005KT CAVOK 15/12 Q1017,2024-08-08T02:00:00Z,15,12,6+,30.03
LFRD,48.589,-2.075,190,5,5.75,LFRD 080200Z AUTO 19005KT CAVOK 13/12 Q1017 NOSIG,2024-08-08T02:00:00Z,13,12,6+,30.03
LFRB,48.444,-4.412,190,8,9.21,LFRB 080200Z AUTO 19008KT 9999 SCT019 BKN049 OVC056 16/15 Q1017 TEMPO BKN008,2024-08-08T02:00:00Z,16,15,6+,30.03
LFQQ,50.562,3.089,240,7,8.06,LFQQ 080200Z AUTO 24007KT CAVOK 17/13 Q1016 TEMPO BKN013 BKN070,2024-08-08T02:00:00Z,17,13,6+,30.00
LFQB,48.325,4.02,0,0,0.0,LFQB 080200Z AUTO 00000KT CAVOK 16/14 Q1017,2024-08-08T02:00:00Z,16,14,6+,30.03
LFQA,49.21,4.155,0,0,0.0,LFQA 080200Z AUTO 00000KT CAVOK 16/13 Q1017,2024-08-08T02:00:00Z,16,13,6+,30.03
LFPV,48.77,2.205,230,1,1.15,LFPV 080200Z AUTO 23001KT CAVOK 17/11 Q1017 NOSIG,2024-08-08T02:00:00Z,17,11,6+,30.03
LFPO,48.717,2.384,290,3,3.45,LFPO 080200Z AUTO 29003KT CAVOK 16/10 Q1017 NOSIG,2024-08-08T02:00:00Z,16,10,6+,30.03
LFPN,48.752,2.114,200,2,2.3,LFPN 080200Z AUTO 20002KT CAVOK 16/12 Q1017,2024-08-08T02:00:00Z,16,12,6+,30.03
LFPM,48.611,2.68,330,2,2.3,LFPM 080200Z AUTO 33002KT CAVOK 16/14 Q1017,2024-08-08T02:00:00Z,16,14,6+,30.03
LFPG,49.015,2.534,310,3,3.45,LFPG 080200Z 31003KT CAVOK 18/12 Q1017 NOSIG,2024-08-08T02:00:00Z,18,12,6+,30.03
LFPB,48.967,2.428,340,2,2.3,LFPB 080200Z AUTO 34002KT CAVOK 18/12 Q1017 NOSIG,2024-08-08T02:00:00Z,18,12,6+,30.03
LFOT,47.444,0.728,280,3,3.45,LFOT 080200Z AUTO 28003KT CAVOK 15/12 Q1017 NOSIG,2024-08-08T02:00:00Z,15,12,6+,30.03
LFOP,49.383,1.182,260,5,5.75,LFOP 080200Z AUTO 26005KT 9999 FEW039 SCT048 BKN056 16/13 Q1017,2024-08-08T02:00:00Z,16,13,6+,30.03
LFOK,48.777,4.165,360,4,4.6,LFOK 080200Z AUTO 36004KT CAVOK 16/13 Q1017 NOSIG,2024-08-08T02:00:00Z,16,13,6+,30.03
LFOH,49.533,0.091,270,8,9.21,LFOH 080200Z AUTO 27008KT 9999 SCT016 SCT021 OVC088 17/13 Q1017,2024-08-08T02:00:00Z,17,13,6+,30.03
LFOE,49.025,1.222,210,4,4.6,LFOE 080200Z AUTO 21004KT CAVOK 16/13 Q1017 NOSIG,2024-08-08T02:00:00Z,16,13,6+,30.03
LFOB,49.454,2.113,VRB,3,3.45,LFOB 080200Z AUTO VRB03KT CAVOK 17/13 Q1017 NOSIG,2024-08-08T02:00:00Z,17,13,6+,30.03
LFMU,43.322,3.353,280,5,5.75,LFMU 080200Z AUTO 28005KT CAVOK 24/18 Q1014,2024-08-08T02:00:00Z,24,18,6+,29.94
LFMT,43.577,3.963,360,4,4.6,LFMT 080200Z AUTO 36004KT CAVOK 24/18 Q1013 NOSIG,2024-08-08T02:00:00Z,24,18,6+,29.91
LFMP,42.737,2.873,300,10,11.51,LFMP 080200Z AUTO 30010KT CAVOK 26/18 Q1015,2024-08-08T02:00:00Z,26,18,6+,29.97
LFMO,44.144,4.861,350,12,13.81,LFMO 080200Z AUTO 35012KT 320V030 CAVOK 25/19 Q1013 NOSIG,2024-08-08T02:00:00Z,25,19,6+,29.91
LFMN,43.658,7.216,330,6,6.9,LFMN 080200Z 33006KT 9999 BKN021 26/22 Q1012 NOSIG,2024-08-08T02:00:00Z,26,22,6+,29.88
LFML,43.438,5.216,350,3,3.45,LFML 080200Z AUTO 35003KT CAVOK 25/17 Q1012 NOSIG,2024-08-08T02:00:00Z,25,17,6+,29.88
LFMK,43.214,2.31,270,8,9.21,LFMK 080200Z AUTO 27008KT 230V290 CAVOK 23/19 Q1016,2024-08-08T02:00:00Z,23,19,6+,30.00
LFMI,43.516,4.935,340,5,5.75,LFMI 080200Z AUTO 34005KT CAVOK 24/19 Q1012 NOSIG,2024-08-08T02:00:00Z,24,19,6+,29.88
LFMH,45.533,4.293,290,4,4.6,LFMH 080200Z AUTO 29004KT 9999 OVC025 20/17 Q1018,2024-08-08T02:00:00Z,20,17,6+,30.06
LFMD,43.544,6.953,VRB,3,3.45,LFMD 080200Z AUTO VRB03KT 9999 BKN018 BKN023 24/22 Q1012,2024-08-08T02:00:00Z,24,22,6+,29.88
LFLY,45.726,4.938,340,7,8.06,LFLY 080200Z AUTO 34007KT 9999 FEW029 22/17 Q1017 NOSIG,2024-08-08T02:00:00Z,22,17,6+,30.03
LFLX,46.87,1.741,0,0,0.0,LFLX 080200Z AUTO 00000KT CAVOK 13/12 Q1018 NOSIG,2024-08-08T02:00:00Z,13,12,6+,30.06
LFLW,44.899,2.421,90,3,3.45,LFLW 080200Z AUTO 09003KT CAVOK 15/14 Q1019,2024-08-08T02:00:00Z,15,14,6+,30.09
LFLS,45.363,5.329,VRB,3,3.45,LFLS 080200Z AUTO VRB03KT CAVOK 20/17 Q1017,2024-08-08T02:00:00Z,20,17,6+,30.03
LFLP,45.93,6.106,70,4,4.6,LFLP 080200Z AUTO 07004KT CAVOK 17/15 Q1017,2024-08-08T02:00:00Z,17,15,6+,30.03
LFLN,46.412,4.025,VRB,2,2.3,LFLN 080200Z AUTO VRB02KT 9999 OVC045 17/16 Q1018,2024-08-08T02:00:00Z,17,16,6+,30.06
LFLL,45.726,5.078,330,8,9.21,LFLL 080200Z 33008KT 9999 FEW033 SCT073 21/18 Q1017 NOSIG,2024-08-08T02:00:00Z,21,18,6+,30.03
LFLC,45.787,3.169,350,4,4.6,LFLC 080200Z AUTO 35004KT 9999 BKN034 BKN049 20/14 Q1018 NOSIG,2024-08-08T02:00:00Z,20,14,6+,30.06
LFLB,45.637,5.883,170,1,1.15,LFLB 080200Z AUTO 17001KT CAVOK 18/16 Q1016,2024-08-08T02:00:00Z,18,16,6+,30.00
LFKJ,41.924,8.803,60,5,5.75,LFKJ 080200Z AUTO 06005KT CAVOK 22/18 Q1013 NOSIG,2024-08-08T02:00:00Z,22,18,6+,29.91
LFKF,41.501,9.098,60,3,3.45,LFKF 080200Z AUTO 06003KT CAVOK 18/17 Q1013,2024-08-08T02:00:00Z,18,17,6+,29.91
LFKC,42.531,8.793,170,5,5.75,LFKC 080200Z AUTO 17005KT CAVOK 22/19 Q1012,2024-08-08T02:00:00Z,22,19,6+,29.88
LFKB,42.553,9.484,240,3,3.45,LFKB 080200Z AUTO 24003KT 9999 BKN021 BKN026 25/23 Q1012 TEMPO BKN014,2024-08-08T02:00:00Z,25,23,6+,29.88
LFJR,47.562,-0.317,0,0,0.0,LFJR 080200Z AUTO 00000KT CAVOK 12/12 Q1018,2024-08-08T02:00:00Z,12,12,6+,30.06
LFJL,48.982,6.251,190,5,5.75,LFJL 080200Z AUTO 19005KT CAVOK 16/15 Q1017 NOSIG,2024-08-08T02:00:00Z,16,15,6+,30.03
LFCR,44.41,2.483,VRB,2,2.3,LFCR 080200Z AUTO VRB02KT CAVOK 16/15 Q1018 NOSIG,2024-08-08T02:00:00Z,16,15,6+,30.06
LFCK,43.556,2.289,40,2,2.3,LFCK 080200Z AUTO 04002KT 9999 BKN046 18/17 Q1018,2024-08-08T02:00:00Z,18,17,6+,30.06
LFBZ,43.469,-1.534,30,3,3.45,LFBZ 080200Z AUTO 03003KT 9999 FEW024/// OVC034/// 21/17 Q1018 NOSIG,2024-08-08T02:00:00Z,21,17,6+,30.06
LFBY,43.69,-1.07,VRB,2,2.3,LFBY 080200Z AUTO VRB02KT 9999 // ////// 20/15 Q1017,2024-08-08T02:00:00Z,20,15,6+,30.03
LFBX,45.196,0.815,0,0,0.0,LFBX 080200Z AUTO 00000KT CAVOK 13/12 Q1018,2024-08-08T02:00:00Z,13,12,6+,30.06
LFBT,43.189,,170,3,3.45,LFBT 080200Z AUTO 17003KT 9999 BKN030 OVC036 20/19 Q1018 TEMPO 4000 BR BKN010,2024-08-08T02:00:00Z,20,19,6+,30.06
LFBP,43.385,-0.416,310,5,5.75,LFBP 080200Z AUTO 31005KT 9999 OVC048/// 20/19 Q1017 NOSIG,2024-08-08T02:00:00Z,20,19,6+,30.03
LFBO,43.621,1.379,310,3,3.45,LFBO 080200Z AUTO 31003KT CAVOK 21/18 Q1017 NOSIG,2024-08-08T02:00:00Z,21,18,6+,30.03
LFBM,43.912,-0.507,310,2,2.3,LFBM 080200Z AUTO 31002KT CAVOK 18/15 Q1017 NOSIG,2024-08-08T02:00:00Z,18,15,6+,30.03
LFBL,45.863,1.179,30,4,4.6,LFBL 080200Z AUTO 03004KT CAVOK 16/13 Q1018 NOSIG,2024-08-08T02:00:00Z,16,13,6+,30.06
LFBI,46.584,0.309,320,3,3.45,LFBI 080200Z AUTO 32003KT CAVOK 14/11 Q1018 NOSIG,2024-08-08T02:00:00Z,14,11,6+,30.06
LFBH,46.178,-1.193,30,3,3.45,LFBH 080200Z AUTO 03003KT CAVOK 15/13 Q1018 NOSIG,2024-08-08T02:00:00Z,15,13,6+,30.06
LFBG,45.665,-0.316,340,5,5.75,LFBG 080200Z AUTO 34005KT CAVOK 17/12 Q1018,2024-08-08T02:00:00Z,17,12,6+,30.06
LFBE,44.826,0.516,0,0,0.0,LFBE 080200Z AUTO 00000KT CAVOK 14/13 Q1017 NOSIG,2024-08-08T02:00:00Z,14,13,6+,30.03
LFBD,44.831,-0.691,VRB,2,2.3,LFBD 080200Z AUTO VRB02KT CAVOK 18/14 Q1018 NOSIG,2024-08-08T02:00:00Z,18,14,6+,30.06
LFBC,44.533,-1.125,20,6,6.9,LFBC 080200Z AUTO 02006KT CAVOK 18/14 Q1018,2024-08-08T02:00:00Z,18,14,6+,30.06
LFAT,50.515,1.623,250,8,9.21,LFAT 080200Z AUTO 25008KT 230V290 9999 FEW015 OVC100 17/14 Q1016,2024-08-08T02:00:00Z,17,14,6+,30.00
LFAQ,49.972,2.704,230,5,5.75,LFAQ 080200Z AUTO 23005KT CAVOK 16/13 Q1017,2024-08-08T02:00:00Z,16,13,6+,30.03
LDZD,44.108,15.347,360,4,4.6,LDZD 080200Z 36004KT 320V030 9999 SCT050 22/21 Q1011 NOSIG,2024-08-08T02:00:00Z,22,21,6+,29.85
LDZA,45.729,16.054,VRB,2,2.3,LDZA 080200Z VRB02KT 9999 -RA VCTS FEW047CB 21/19 Q1013 RESHRA TEMPO TSRA,2024-08-08T02:00:00Z,21,19,6+,29.91
LDSP,43.539,16.301,VRB,6,6.9,LDSP 080200Z AUTO VRB06KT CAVOK 28/18 Q1010 NOSIG,2024-08-08T02:00:00Z,28,18,6+,29.82
LDRI,45.218,14.573,20,4,4.6,LDRI 080200Z 02004KT 9999 FEW040 SCT052 25/21 Q1012,2024-08-08T02:00:00Z,25,21,6+,29.88
LDPL,44.894,13.922,300,5,5.75,LDPL 080200Z AUTO 30005KT CAVOK 23/20 Q1012 NOSIG,2024-08-08T02:00:00Z,23,20,6+,29.88
LDOS,45.463,18.81,70,4,4.6,LDOS 080200Z 07004KT CAVOK 17/13 Q1013,2024-08-08T02:00:00Z,17,13,6+,29.91
LDDU,42.56,18.269,120,2,2.3,LDDU 080200Z 12002KT CAVOK 23/18 Q1012 NOSIG,2024-08-08T02:00:00Z,23,18,6+,29.88
LCPH,34.715,32.479,10,7,8.06,LCPH 080200Z AUTO 01007KT 9999 NCD 24/14 Q1005 NOSIG,2024-08-08T02:00:00Z,24,14,6+,29.68
LCLK,34.874,33.617,VRB,1,1.15,LCLK 080200Z VRB01KT CAVOK 25/22 Q1005 NOSIG,2024-08-08T02:00:00Z,25,22,6+,29.68
LBWN,43.232,27.825,360,3,3.45,LBWN 080200Z AUTO 36003KT 9999 NCD 17/16 Q1013 NOSIG,2024-08-08T02:00:00Z,17,16,6+,29.91
LBSF,42.694,23.414,150,4,4.6,LBSF 080200Z AUTO 15004KT 9999 NCD 15/09 Q1016 NOSIG,2024-08-08T02:00:00Z,15,9,6+,30.00
LBPD,42.064,24.86,260,5,5.75,LBPD 080200Z AUTO 26005KT 9999 NCD 17/10 Q1014,2024-08-08T02:00:00Z,17,10,6+,29.94
LBIA,42.456,26.352,70,6,6.9,LBIA 080200Z 07006KT 9999 SKC 17/15 Q1014,2024-08-08T02:00:00Z,17,15,6+,29.94
LBGO,43.151,25.713,80,4,4.6,LBGO 080200Z AUTO 08004KT 9999 NCD 14/12 Q1014,2024-08-08T02:00:00Z,14,12,6+,29.94
LBBG,42.569,27.514,230,6,6.9,LBBG 080200Z AUTO 23006KT 9999 NCD 19/16 Q1013 NOSIG,2024-08-08T02:00:00Z,19,16,6+,29.91
KXNX,36.3745,-86.41,310,4,4.6,KXNX 080200Z AUTO 31004KT 7SM OVC041 25/24 A2983 RMK A01,2024-08-08T02:00:00Z,25,24,7,29.83
KVTP,37.512,-105.171,300,5,5.75,KVTP 080200Z AUTO 30005KT 10SM OVC090 13/05 A3062 RMK AO2,2024-08-08T02:00:00Z,13,5,10+,30.62
KSEM,32.3367,-86.9836,250,4,4.6,KSEM 080200Z AUTO 25004KT 10SM CLR 29/26 A2971 RMK AO2,2024-08-08T02:00:00Z,29,26,10+,29.71
KQFX,-99.99,-99.99,300,4,4.6,KQFX 080200Z AUTO 30004KT 9999 SCT030 SCT230 30/24 A2969 RMK A02 TSNO,2024-08-08T02:00:00Z,30,24,6+,29.69
KQFV,-99.99,-99.99,330,2,2.3,KQFV 080200Z AUTO 33002KT 9999 BKN190 29/22 A2975 RMK A02 TSNO,2024-08-08T02:00:00Z,29,22,6+,29.75
KQFU,-99.99,-99.99,320,1,1.15,KQFU 080200Z AUTO 32001KT 9999 FEW170 SCT210 30/23 A2974 RMK A02 TSNO,2024-08-08T02:00:00Z,30,23,6+,29.74
KQFT,-99.99,-99.99,180,4,4.6,KQFT 080200Z AUTO 18004KT 9999 BKN200 28/25 A2969 RMK A02 TSNO,2024-08-08T02:00:00Z,28,25,6+,29.69
KQFB,-99.99,-99.99,340,3,3.45,KQFB 080200Z AUTO 34003KT 9999 CLR 33/24 A2974 RMK A02 TSNO,2024-08-08T02:00:00Z,33,24,6+,29.74
KQEX,-99.99,-99.99,340,5,5.75,KQEX 080200Z AUTO 34005KT 9999 FEW032 32/24 A2962 RMK A02 TSNO,2024-08-08T02:00:00Z,32,24,6+,29.62
KQEW,-99.99,-99.99,230,1,1.15,KQEW 080200Z AUTO 23001KT / // SCT029 BKN047 30/26 A2970 RMK A02 TSNO,2024-08-08T02:00:00Z,30,26,,29.70
KQEV,-99.99,-99.99,250,4,4.6,KQEV 080200Z AUTO 25004KT 9000 HZ BKN030 28/25 A2968 RMK A02 TSNO,2024-08-08T02:00:00Z,28,25,5.59,29.68
KQEQ,-99.99,-99.99,250,1,1.15,KQEQ 080200Z AUTO 25001KT 9999 FEW190 29/26 A2973 RMK A02 TSNO,2024-08-08T02:00:00Z,29,26,6+,29.73
KQEP,-99.99,-99.99,120,1,1.15,KQEP 080200Z AUTO 12001KT 9999 SCT018 SCT032 BKN190 30/25 A2972 RMK A02 TSNO,2024-08-08T02:00:00Z,30,25,6+,29.72
KQEJ,-99.99,-99.99,150,1,1.15,KQEJ 080200Z AUTO 15001KT 9999 FEW017 BKN019 BKN190 29/24 A2969 RMK A02 TSNO,2024-08-08T02:00:00Z,29,24,6+,29.69
KONX,36.399,-76.014,100,7,8.06,KONX 080200Z AUTO 10007KT 10SM -DZ SCT008 BKN017 BKN025 25/24 A2985 RMK AO2 T02520241,2024-08-08T02:00:00Z,25.2,24.1,10+,29.85
KIKT,28.5208,-88.2889,VRB,4,4.6,KIKT 080200Z AUTO VRB04KT 10SM CLR 31/26 A2978 RMK A01,2024-08-08T02:00:00Z,31,26,10+,29.78
KGUL,27.3039,-93.5383,0,0,0.0,KGUL 080200Z AUTO 00000KT 10SM CLR 31/24 A2982 RMK A01,2024-08-08T02:00:00Z,31,24,10+,29.82
KEDU,38.53,-121.788,200,10,11.51,KEDU 080200Z AUTO 20010KT 10SM CLR 31/11 A2981 RMK AO1,2024-08-08T02:00:00Z,31,11,10+,29.81
KDSF,28.3426,-88.2649,0,0,0.0,KDSF 080200Z AUTO 00000KT 9SM CLR 32/26 A2978 RMK A01,2024-08-08T02:00:00Z,32,26,9,29.78
K0F2,33.6011,-97.7735,150,3,3.45,K0F2 080200Z AUTO 15003KT 10SM CLR 33/17 A2982 RMK AO2 T03310171,2024-08-08T02:00:00Z,33.1,17.1,10+,29.82
HRYR,-1.969,30.14,310,5,5.75,HRYR 080200Z 31005KT 9999 FEW022 19/09 Q1019 NOSIG,2024-08-08T02:00:00Z,19,9,6+,30.09
HECA,30.133,31.405,30,3,3.45,HECA 080200Z 03003KT CAVOK 28/23 Q1008 NOSIG,2024-08-08T02:00:00Z,28,23,6+,29.76
GVSV,16.833,-25.055,50,9,10.36,GVSV 080200Z 05009KT 9999 FEW022 25/21 Q1012 NOSIG,2024-08-08T02:00:00Z,25,21,6+,29.88
GVNP,14.947,-23.484,40,15,17.26,GVNP 080200Z 04015KT 9999 SCT016 BKN023 25/22 Q1011 NOSIG,2024-08-08T02:00:00Z,25,22,6+,29.85
GVAC,16.742,-22.949,40,5,5.75,GVAC 080200Z 04005KT 9999 SCT014 SCT200 25/20 Q1012 NOSIG,2024-08-08T02:00:00Z,25,20,6+,29.88
GQPP,20.929,-17.031,330,4,4.6,GQPP 080200Z 33004KT 7000 NSC 22/18 Q1011 NOSIG,2024-08-08T02:00:00Z,22,18,4.35,29.85
GMTN,35.594,-5.32,100,4,4.6,GMTN 080200Z 10004KT 5000 SCT005 23/21 Q1012 NOSIG,2024-08-08T02:00:00Z,23,21,3.11,29.88
GMTA,35.177,-3.84,190,3,3.45,GMTA 080200Z 19003KT 8000 NSC 24/20 Q1011 NOSIG,2024-08-08T02:00:00Z,24,20,4.97,29.85
GMMZ,30.939,-6.909,240,6,6.9,GMMZ 080200Z 24006KT 8000 FEW040 31/M04 Q1017 NOSIG,2024-08-08T02:00:00Z,31,-4,4.97,30.03
GMMX,31.607,-8.036,240,7,8.06,GMMX 080200Z 24007KT 22/17 Q1015,2024-08-08T02:00:00Z,22,17,,29.97
GMMW,34.993,-3.025,VRB,1,1.15,GMMW 080200Z VRB01KT 6000 FEW008 23/22 Q1012 NOSIG,2024-08-08T02:00:00Z,23,22,3.73,29.88
GMMN,33.367,-7.59,300,4,4.6,GMMN 080200Z 30004KT 9999 SCT008 20/16 Q1014 NOSIG,2024-08-08T02:00:00Z,20,16,6+,29.94
GMMI,31.406,-9.687,20,6,6.9,GMMI 080200Z AUTO 02006KT 7000 NSC 20/19 Q1013 NOSIG,2024-08-08T02:00:00Z,20,19,4.35,29.91
GMME,34.051,-6.752,0,0,0.0,GMME 080200Z 00000KT 5000 BKN010 20/20 Q1012 NOSIG,2024-08-08T02:00:00Z,20,20,3.11,29.88
GMFM,33.875,-5.52,110,3,3.45,GMFM 080200Z 11003KT CAVOK 20/16 Q1015 NOSIG,2024-08-08T02:00:00Z,20,16,6+,29.97
GMFK,31.946,-4.399,360,19,21.86,GMFK 080200Z 36019KT CAVOK 36/M02 Q1015 NOSIG,2024-08-08T02:00:00Z,36,-2,6+,29.97
GMFF,33.929,-4.976,250,4,4.6,GMFF 080200Z 25004KT CAVOK 22/16 Q1015 NOSIG,2024-08-08T02:00:00Z,22,16,6+,29.97
GMAZ,30.266,-5.854,200,5,5.75,GMAZ 080200Z 20005KT CAVOK 33/M02 Q1013 NOSIG,2024-08-08T02:00:00Z,33,-2,6+,29.91
GMAG,29.031,-10.051,200,6,6.9,GMAG 080200Z AUTO 20006KT CAVOK 19/18 Q1013,2024-08-08T02:00:00Z,19,18,6+,29.91
GMAD,30.325,-9.413,150,4,4.6,GMAD 080200Z 15004KT 8000 NSC 19/19 Q1012 NOSIG,2024-08-08T02:00:00Z,19,19,4.97,29.88
GLRB,6.234,-10.362,0,0,0.0,GLRB 080200Z 00000KT 8000 -DZ FEW003 BKN011 FEW022CB 24/23 Q1012 CB-S NOSIG,2024-08-08T02:00:00Z,24,23,4.97,29.88
GBYD,13.341,-16.653,0,0,0.0,GBYD 080200Z 00000KT 9999 BKN010 25/24 Q1010,2024-08-08T02:00:00Z,25,24,6+,29.82
FSIA,-4.674,55.522,140,11,12.66,FSIA 080200Z 14011KT 9999 FEW021 26/24 Q1011 NOSIG,2024-08-08T02:00:00Z,26,24,6+,29.85
FQXA,-25.038,33.627,50,4,4.6,FQXA 080200Z 05004KT CAVOK 15/14 Q1019,2024-08-08T02:00:00Z,15,14,6+,30.09
FQMA,-25.921,32.573,360,5,5.75,FQMA 080200Z 36005KT CAVOK 15/13 Q1018 NOSIG,2024-08-08T02:00:00Z,15,13,6+,30.06
FQLC,-13.271,35.265,120,4,4.6,FQLC 080200Z 12004KT 9999 CAVOK 14/13 Q1023,2024-08-08T02:00:00Z,14,13,6+,30.21
FQBR,-19.796,34.908,360,2,2.3,FQBR 080200Z 36002KT 9000 FEW018 19/18 Q1017 RMK BR,2024-08-08T02:00:00Z,19,18,5.59,30.03
FMMI,-18.797,47.479,160,4,4.6,FMMI 080200Z 16004KT 110V190 9999 FEW010 BKN020 12/12 Q1024 NOSIG,2024-08-08T02:00:00Z,12,12,6+,30.24
FMCZ,-12.805,45.281,0,0,0.0,FMCZ 080200Z AUTO 00000KT 8000 NSC 22/21 Q1016 TEMPO 4000 SHRA,2024-08-08T02:00:00Z,22,21,4.97,30.00
FIMP,-20.434,57.684,120,4,4.6,FIMP 080200Z 12004KT 9999 SCT018 22/17 Q1020,2024-08-08T02:00:00Z,22,17,6+,30.12
FCBB,-4.252,15.253,290,4,4.6,FCBB 080200Z 29004KT 260V320 8000 NSC 21/18 Q1013 NOSIG,2024-08-08T02:00:00Z,21,18,4.97,29.91
FBSK,-24.555,25.918,,,,FBSK 080200Z /////KT CAVOK 11/05 Q1020 NOSIG,2024-08-08T02:00:00Z,11,5,6+,30.12
FAVV,-26.566,27.961,340,2,2.3,FAVV 080200Z AUTO 34002KT //// // ////// 07/00 Q1024,2024-08-08T02:00:00Z,7,0,,30.24
FAOR,-26.139,28.246,350,7,8.06,FAOR 080200Z 35007KT CAVOK 11/01 Q1024 NOSIG,2024-08-08T02:00:00Z,11,1,6+,30.24
FAJB,-26.15,28,0,0,0.0,FAJB 080200Z AUTO 00000KT //// // ////// 06/00 Q1023,2024-08-08T02:00:00Z,6,0,,30.21
EPWR,51.1032,16.8998,VRB,2,2.3,EPWR 080200Z VRB02KT 9999 FEW020CB 19/18 Q1012 RETS,2024-08-08T02:00:00Z,19,18,6+,29.88
EPWA,52.163,20.961,140,3,3.45,EPWA 080200Z 14003KT CAVOK 16/14 Q1013 NOSIG,2024-08-08T02:00:00Z,16,14,6+,29.91
EPSY,53.482,20.938,30,2,2.3,EPSY 080200Z 03002KT CAVOK 13/13 Q1013,2024-08-08T02:00:00Z,13,13,6+,29.91
EPSC,53.585,14.902,250,5,5.75,EPSC 080200Z 25005KT 220V290 9999 FEW038TCU 18/16 Q1011,2024-08-08T02:00:00Z,18,16,6+,29.85
EPRZ,50.112,22.025,220,2,2.3,EPRZ 080200Z 22002KT CAVOK 15/15 Q1013,2024-08-08T02:00:00Z,15,15,6+,29.91
EPRA,51.39,21.211,220,1,1.15,EPRA 080200Z 22001KT CAVOK 14/13 Q1013,2024-08-08T02:00:00Z,14,13,6+,29.91
EPPO,52.417,16.835,90,5,5.75,EPPO 080200Z 09005KT CAVOK 18/13 Q1011,2024-08-08T02:00:00Z,18,13,6+,29.85
EPMO,52.452,20.642,70,4,4.6,EPMO 080200Z 07004KT CAVOK 16/15 Q1013,2024-08-08T02:00:00Z,16,15,6+,29.91
EPLL,51.724,19.401,90,3,3.45,EPLL 080200Z 09003KT CAVOK 17/13 Q1012,2024-08-08T02:00:00Z,17,13,6+,29.88
EPLB,51.239,22.714,VRB,1,1.15,EPLB 080200Z VRB01KT CAVOK 14/13 Q1013,2024-08-08T02:00:00Z,14,13,6+,29.91
EPKT,50.478,19.085,130,4,4.6,EPKT 080200Z 13004KT CAVOK 18/14 Q1012,2024-08-08T02:00:00Z,18,14,6+,29.88
EPKK,50.078,19.797,VRB,2,2.3,EPKK 080200Z VRB02KT CAVOK 15/14 Q1013,2024-08-08T02:00:00Z,15,14,6+,29.91
EPGD,54.379,18.466,140,4,4.6,EPGD 080200Z 14004KT CAVOK 17/16 Q1012,2024-08-08T02:00:00Z,17,16,6+,29.88
EPBY,53.0962,17.9949,110,3,3.45,EPBY 080200Z 11003KT CAVOK 17/15 Q1011,2024-08-08T02:00:00Z,17,15,6+,29.85
EINN,52.702,-8.925,110,7,8.06,EINN 080200Z 11007KT 9999 BKN009 OVC011 15/14 Q1007 NOSIG,2024-08-08T02:00:00Z,15,14,6+,29.73
EIDW,53.422,-6.298,180,4,4.6,EIDW 080200Z 18004KT 110V240 9999 FEW024 BKN039 14/11 Q1009 NOSIG,2024-08-08T02:00:00Z,14,11,6+,29.79
EICK,51.848,-8.479,150,8,9.21,EICK 080200Z 15008KT 0400 R16/1400D R34/1100N -RA FG OVC002 15/15 Q1007 NOSIG,2024-08-08T02:00:00Z,15,15,0.25,29.73
DIAP,5.261,-3.926,220,8,9.21,DIAP 080200Z 22008KT 9999 SCT012 BKN040 24/22 Q1012 NOSIG,2024-08-08T02:00:00Z,24,22,6+,29.88
BKPR,42.576,21.03,VRB,2,2.3,BKPR 080200Z VRB02KT CAVOK 15/11 Q1016 NOSIG,2024-08-08T02:00:00Z,15,11,6+,30.00
BIRK,64.129,-21.941,120,4,4.6,BIRK 080200Z 12004KT 9999 FEW007 08/08 Q0997,2024-08-08T02:00:00Z,8,8,6+,29.44
BIKF,63.987,-22.614,300,7,8.06,BIKF 080200Z 30007KT CAVOK 08/08 Q0996,2024-08-08T02:00:00Z,8,8,6+,29.41
BIEG,65.275,-14.409,10,5,5.75,BIEG 080200Z 01005KT 9999 OVC008 07/06 Q0998,2024-08-08T02:00:00Z,7,6,6+,29.47
BIAR,65.655,-18.069,310,3,3.45,BIAR 080200Z 31003KT 9999 OVC005 08/07 Q0999,2024-08-08T02:00:00Z,8,7,6+,29.50
UWGG,56.225,43.786,0,0,0.0,UWGG 080159Z 00000MPS 0250 0200SE R36R/0275N FG VV002 14/14 Q1008 R36R/090070 NOSIG RMK QBB070,2024-08-08T01:59:00Z,14,14,0.16,29.76
ULLI,59.798,30.267,0,0,0.0,ULLI 080159Z 00000MPS 0400 0100NW R10R/0250U FG SCT002 12/11 Q1014 R10R/090060 NOSIG RMK QBB070 OBST OBSC,2024-08-08T01:59:00Z,12,11,0.25,29.94
RODE,26.718,127.783,,,,RODE 080159Z AUTO A2972 RMK AO2 SLPNO PWINO TSNO $,2024-08-08T01:59:00Z,,,,29.72
PALH,61.179,-149.962,330,3,3.45,PALH 080159Z AUTO 33003KT 3SM RA BR BKN008 OVC012 15/14 A2996 RMK AO2 P0002 T01500144 TSNO,2024-08-08T01:59:00Z,15,14.4,3,29.96
KNOZ,32.55,-114.512,,,,KNOZ 080159Z AUTO A2980 RMK AO2 SLPNO PWINO TSNO $,2024-08-08T01:59:00Z,,,,29.80
KNGU,36.937,-76.281,70,10,11.51,KNGU 080159Z 07010KT 6SM -RA BR SCT006 BKN032 BKN100 24/23 A2987 RMK AO2 SLP115 T2 SET P0005 T02390228,2024-08-08T01:59:00Z,23.9,22.8,6,29.87
KDCA,38.8472,-77.0345,110,5,5.75,KDCA 080159Z 11005KT 10SM SCT016 SCT025 BKN033 BKN250 27/23 A2990 RMK AO2 LTG DSNT NW T02670228,2024-08-08T01:59:00Z,26.7,22.8,10+,29.90
KCRG,30.3371,-81.5128,350,6,6.9,KCRG 080159Z 35006G16KT 3SM -TSRA BR BKN017 BKN047 OVC100 24/24 A2967 RMK AO2 LTG DSNT ALQDS P0001 T02440244,2024-08-08T01:59:00Z,24.4,24.4,3,29.67
KCHO,38.1374,-78.4551,0,0,0.0,KCHO 080159Z 00000KT 3SM -RA BR FEW014 BKN027 OVC070 24/22 A2988 RMK AO2 LTG DSNT NE T02390222 PNO $,2024-08-08T01:59:00Z,23.9,22.2,3,29.88
CYBC,49.135,-68.202,260,6,6.9,CYBC 080159Z AUTO 26006KT 9SM BKN071 BKN083 OVC100 13/10 A3000 RMK SLP162,2024-08-08T01:59:00Z,13,10,9,30.00
CYAT,52.927,-82.432,130,4,4.6,CYAT 080159Z AUTO 13004KT 9SM FEW047 BKN066 OVC076 12/10 A3002 RMK SLP169,2024-08-08T01:59:00Z,12,10,9,30.02
KTEB,40.859,-74.0562,50,4,4.6,KTEB 080158Z 05004KT 10SM -RA BKN021 OVC044 19/17 A3004 RMK AO2 P0000 T01940172,2024-08-08T01:58:00Z,19.4,17.2,10+,30.04
KROG,36.3749,-94.1078,80,7,8.06,KROG 080158Z AUTO 08007KT CLR 28/17 A2989 RMK AO2 SLP106 T02780167 PWINO TSNO $,2024-08-08T01:58:00Z,27.8,16.7,,29.89
KMRH,34.7326,-76.6566,110,13,14.96,KMRH 080158Z AUTO 11013G20KT 10SM SCT024 SCT085 29/25 A2974 RMK AO2 SLP071 T02890250,2024-08-08T01:58:00Z,28.9,25,10+,29.74
KMEI,32.3348,-88.7507,290,4,4.6,KMEI 080158Z 29004KT 10SM FEW060 31/23 A2975 RMK AO2 SLP068 T03060228,2024-08-08T01:58:00Z,30.6,22.8,10+,29.75
KGVL,34.2721,-83.8305,0,0,0.0,KGVL 080158Z AUTO 00000KT 3SM -RA BR BKN044 OVC070 26/23 A2980 RMK AO2 P0001 T02560233,2024-08-08T01:58:00Z,25.6,23.3,3,29.80
KEUF,31.9516,-85.1312,310,3,3.45,KEUF 080158Z AUTO 31003KT 10SM CLR 27/22 A2971 RMK AO2 SLP054 T02720217,2024-08-08T01:58:00Z,27.2,21.7,10+,29.71
KBKF,39.713,-104.758,140,9,10.36,KBKF 080158Z 14009KT 10SM SCT070 BKN110 BKN180 21/12 A3013 RMK AO2A SLP119 T02070119,2024-08-08T01:58:00Z,20.7,11.9,10+,30.13
K0J4,31.0447,-86.3119,0,0,0.0,K0J4 080158Z AUTO 00000KT 10SM CLR 28/23 A2974 RMK AO2 SLP066 T02830228,2024-08-08T01:58:00Z,28.3,22.8,10+,29.74
YPGV,-12.274,136.82,70,21,24.17,YPGV 080157Z AUTO 07021KT 060V120 9999 // FEW044 28/16 Q1017,2024-08-08T01:57:00Z,28,16,6+,30.03
PTYA,9.487,138.077,100,6,6.9,PTYA 080157Z 10006KT 12SM SCT017 SCT140 BKN300 31/27 A2986 RMK SLP113 T03130267,2024-08-08T01:57:00Z,31.3,26.7,12,29.86
PHNG,21.45,-157.763,50,12,13.81,PHNG 080157Z 05012KT 7SM SCT028 31/21 A3002 RMK AO2 SLP162 T03060206 ,2024-08-08T01:57:00Z,30.6,20.6,7,30.02
PASD,55.318,-160.525,150,6,6.9,PASD 080157Z 15006KT 10SM FEW021 BKN044 BKN070 13/09 A2986 RMK AO2 $,2024-08-08T01:57:00Z,13,9,10+,29.86
PAJC,56.312,-158.374,10,4,4.6,PAJC 080157Z AUTO 01004KT 10SM FEW070 14/08 A2985 RMK AO2 SLPNO T01390078,2024-08-08T01:57:00Z,13.9,7.8,10+,29.85
KNYL,32.66,-114.608,200,14,16.11,KNYL 080157Z 20014KT 10SM SCT100 37/20 A2977 RMK AO2 SLP077 T03720200,2024-08-08T01:57:00Z,37.2,20,10+,29.77
KNJW,32.792,-88.832,320,8,9.21,KNJW 080157Z AUTO 32008KT 10SM CLR 29/23 A2980 RMK AO2 SLP002 T02940233 $,2024-08-08T01:57:00Z,29.4,23.3,10+,29.80
KNJM,34.694,-77.029,100,14,16.11,KNJM 080157Z AUTO 10014G24KT 5SM BR FEW026 SCT043 BKN090 28/26 A2972 RMK AO2 SLP068 T02780256,2024-08-08T01:57:00Z,27.8,25.6,5,29.72
KMWN,44.271,-71.304,0,0,0.0,KMWN 080157Z 00000KT 80SM FEW015 07/05 RMK,2024-08-08T01:57:00Z,7,5,80,
KMNM,45.126,-87.639,0,0,0.0,KMNM 080157Z AUTO 00000KT 10SM CLR 19/12 A2997 RMK AO2 SLP161 T01940122 $,2024-08-08T01:57:00Z,19.4,12.2,10+,29.97
KHUA,34.676,-86.6854,,,,KHUA 080157Z AUTO M M M M M M RMK AO2 SLPNO RVRNO $,2024-08-08T01:57:00Z,,,,
KFLG,35.1443,-111.666,250,5,5.75,KFLG 080157Z 25005KT 10SM CLR 23/13 A3030 RMK AO2 LTG DSNT W AND NW SLP151 T02330128,2024-08-08T01:57:00Z,23.3,12.8,10+,30.30
EQYR,36.647,-6.347,180,6,6.9,EQYR 080157Z AUTO 18006KT 10SM CLR 22/22 A2988 RMK AO2 SLP117 T02170217 $,2024-08-08T01:57:00Z,21.7,21.7,10+,29.88
EQYG,35.53,24.15,300,5,5.75,EQYG 080157Z AUTO 30005KT 10SM CLR 26/23 A2987 RMK AO2 SLP106 T02560228 PWINO $ ,2024-08-08T01:57:00Z,25.6,22.8,10+,29.87
TJSJ,18.4326,-66.0107,90,7,8.06,TJSJ 080156Z 09007KT 10SM FEW030 FEW080 29/25 A2995 RMK AO2 RAB06E15 SLP142 P0001 T02890250,2024-08-08T01:56:00Z,28.9,25,10+,29.95
ROTM,26.271,127.754,80,9,10.36,ROTM 080156Z 08009KT 10SM SCT018 BKN030 BKN100 32/27 A2967 RMK AO2 SLP040 T03170272 PNO $,2024-08-08T01:56:00Z,31.7,27.2,10+,29.67
RJOI,34.144,132.236,170,8,9.21,RJOI 080156Z 17008KT 9999 FEW025 32/23 A2967 RMK AO2 SLP046 T03220233,2024-08-08T01:56:00Z,32.2,23.3,6+,29.67
PPIZ,69.735,-163.003,350,7,8.06,PPIZ 080156Z AUTO 35007KT 10SM OVC070 11/10 A2964 RMK AO2 RAE46 SLP042 P0000 T01060100,2024-08-08T01:56:00Z,10.6,10,10+,29.64
PHNY,20.783,-156.955,30,17,19.56,PHNY 080156Z AUTO 03017KT 10SM CLR 27/19 A3007 RMK AO2 SLP159 T02670194,2024-08-08T01:56:00Z,26.7,19.4,10+,30.07
PFZK,60.9156,-161.488,220,8,9.21,PFZK 080156Z AUTO 22008KT 10SM SCT026 BKN043 OVC080 14/09 A2974 RMK AO2 SLP069 T01390094,2024-08-08T01:56:00Z,13.9,9.4,10+,29.74
PFYU,66.572,-145.243,0,0,0.0,PFYU 080156Z 00000KT 10SM SCT100 28/10 A2983 RMK AO2 SLP108 T02780100,2024-08-08T01:56:00Z,27.8,10,10+,29.83
PFWS,58.704,-157.005,170,12,13.81,PFWS 080156Z AUTO 17012KT 10SM FEW029 BKN042 15/09 A2986 RMK AO2 SLP152 T01500089,2024-08-08T01:56:00Z,15,8.9,10+,29.86
PFTO,63.329,-142.954,220,6,6.9,PFTO 080156Z AUTO 22006KT 10SM CLR 27/07 A2992 RMK AO2 SLP774 T02670072 $,2024-08-08T01:56:00Z,26.7,7.2,10+,29.92
PFSH,64.367,-161.217,170,8,9.21,PFSH 080156Z AUTO 17008KT 10SM FEW060 OVC070 14/12 A2975 RMK AO2 SLP073 T01390117,2024-08-08T01:56:00Z,13.9,11.7,10+,29.75
PFNO,66.819,-161.024,200,23,26.47,PFNO 080156Z AUTO 20023G29KT 9SM FEW040 17/13 A2968 RMK AO2 PK WND 19029/0149 SLP049 T01720133 $,2024-08-08T01:56:00Z,17.2,13.3,9,29.68
PFKW,60.793,-161.44,200,7,8.06,PFKW 080156Z AUTO 20007KT 10SM -RA FEW024 OVC065 14/11 A2975 RMK AO2 RAB07 SLP075 P0000 T01390106,2024-08-08T01:56:00Z,13.9,10.6,10+,29.75
PFKT,65.33,-166.479,230,10,11.51,PFKT 080156Z AUTO 23010KT 10SM BKN007 OVC011 11/10 A2968 RMK AO2 CIG 005V010 SLP051 T01060100,2024-08-08T01:56:00Z,10.6,10,10+,29.68
PFEL,64.616,-162.272,190,7,8.06,PFEL 080156Z AUTO 19007KT 10SM 14/12 A2973 RMK AO2 SLPNO T01390117 PNO $,2024-08-08T01:56:00Z,13.9,11.7,10+,29.73
PFCL,58.837,-158.526,220,11,12.66,PFCL 080156Z AUTO 22011KT 10SM FEW014 OVC075 13/10 A2983 RMK AO2 SLPNO T01330100,2024-08-08T01:56:00Z,13.3,10,10+,29.83
PAWS,61.571,-149.538,310,3,3.45,PAWS 080156Z AUTO 31003KT 10SM RA FEW030 OVC046 16/16 A2996 RMK AO2 SLP148 P0006 T01610156,2024-08-08T01:56:00Z,16.1,15.6,10+,29.96
PAWM,64.688,-163.41,170,9,10.36,PAWM 080156Z AUTO 17009KT 6SM BR OVC011 13/12 A2971 RMK AO2 SLP065 T01330117 PNO $,2024-08-08T01:56:00Z,13.3,11.7,6,29.71
PAVD,61.133,-146.251,0,0,0.0,PAVD 080156Z 00000KT 3SM -RA BR BKN005 BKN015 OVC028 13/13 A3016 RMK AO2 SLP211 P0003 T01330133 $,2024-08-08T01:56:00Z,13.3,13.3,3,30.16
PAVC,55.115,-162.271,270,7,8.06,PAVC 080156Z AUTO 27007KT 10SM OVC041 A2987 RMK AO2 SLPNO FZRANO PNO $,2024-08-08T01:56:00Z,,,10+,29.87
PAVA,61.537,-165.604,240,8,9.21,PAVA 080156Z AUTO 24008KT 3SM -RA BR BKN007 OVC013 10/09 A2972 RMK AO2 RAE23B54 CIG 005V009 SLP069 T01000094 PNO $,2024-08-08T01:56:00Z,10,9.4,3,29.72
PAUN,63.885,-160.794,VRB,3,3.45,PAUN 080156Z AUTO VRB03KT 10SM FEW070 SCT085 16/12 A2974 RMK AO2 RAE15 SLP075 T01610122 PNO $,2024-08-08T01:56:00Z,16.1,12.2,10+,29.74
PATQ,70.469,-157.428,170,14,16.11,PATQ 080156Z AUTO 17014KT 10SM CLR 20/14 A2963 RMK AO2 SLP039 T02000139 TSNO PNO $,2024-08-08T01:56:00Z,20,13.9,10+,29.63
PATG,59.051,-160.398,170,12,13.81,PATG 080156Z AUTO 17012KT 10SM BKN011 OVC080 12/11 A2982 RMK AO2 SLP099 T01220106,2024-08-08T01:56:00Z,12.2,10.6,10+,29.82
PASX,60.476,-151.053,0,0,0.0,PASX 080156Z AUTO 00000KT 7SM -RA SCT034 15/15 A2997 RMK AO2 SLP154 P0002 T01500150,2024-08-08T01:56:00Z,15,15,7,29.97
PASM,62.057,-163.298,190,7,8.06,PASM 080156Z AUTO 19007KT 9SM -RA BKN017 BKN023 OVC036 14/12 A2973 RMK AO2 SLP073 P0001 T01390122,2024-08-08T01:56:00Z,13.9,12.2,9,29.73
PASL,61.697,-157.167,160,5,5.75,PASL 080156Z AUTO 16005KT 10SM SCT015 BKN025 BKN070 15/12 A2986 RMK AO2 SLP102 T01500122,2024-08-08T01:56:00Z,15,12.2,10+,29.86
PASK,66.599,-159.991,170,11,12.66,PASK 080156Z AUTO 17011G15KT 10SM FEW050 OVC070 18/13 A2973 RMK AO2 SLP063 T01830133,2024-08-08T01:56:00Z,18.3,13.3,10+,29.73
PASH,66.252,-166.084,360,6,6.9,PASH 080156Z AUTO 36006KT 5SM BR OVC007 08/07 A2969 RMK AO2 SLP055 T00780072,2024-08-08T01:56:00Z,7.8,7.2,5,29.69
PASA,63.689,-170.49,260,9,10.36,PASA 080156Z AUTO 26009KT 10SM OVC003 06/06 A2967 RMK AO2 RAE30 SLPNO P0000 T00560056,2024-08-08T01:56:00Z,5.6,5.6,10+,29.67
PARY,64.731,-155.463,200,6,6.9,PARY 080156Z AUTO 20006KT 10SM CLR 17/12 A2982 RMK AO2 SLP103 T01720122 TSNO,2024-08-08T01:56:00Z,17.2,12.2,10+,29.82
PARS,61.78,-161.321,180,6,6.9,PARS 080156Z AUTO 18006KT 10SM SCT070 OVC095 16/11 A2974 RMK AO2 RAE13 SLP071 P0000 T01560106 $,2024-08-08T01:56:00Z,15.6,10.6,10+,29.74
PAQH,59.751,-161.842,180,13,14.96,PAQH 080156Z AUTO 18013KT 10SM -RA FEW015 BKN028 OVC050 12/10 A2978 RMK AO2 SLP084 P0001 T01170100,2024-08-08T01:56:00Z,11.7,10,10+,29.78
PAPO,68.345,-166.807,VRB,3,3.45,PAPO 080156Z AUTO VRB03KT 10SM -RA FEW008 BKN016 OVC070 06/03 A2968 RMK AO2 RAB14 SLP049 P0000 T00560033,2024-08-08T01:56:00Z,5.6,3.3,10+,29.68
PAPM,59.011,-161.82,180,17,19.56,PAPM 080156Z AUTO 18017KT 10SM BKN060 12/09 A2978 RMK AO2 SLP085 T01220094,2024-08-08T01:56:00Z,12.2,9.4,10+,29.78
PAPG,56.805,-132.935,80,5,5.75,PAPG 080156Z 08005KT 10SM CLR 20/12 A3017 RMK AO2 SLP221 T02000117,2024-08-08T01:56:00Z,20,11.7,10+,30.17
PAPE,55.9096,-159.16,190,7,8.06,PAPE 080156Z AUTO 19007KT 8SM OVC055 12/07 A2988 RMK AO2 SLP116 T01220067,2024-08-08T01:56:00Z,12.2,6.7,8,29.88
PAOU,56.006,-161.162,280,7,8.06,PAOU 080156Z AUTO 28007KT 10SM SCT048 OVC060 11/08 A2986 RMK AO2 SLP110 T01060078 PNO $,2024-08-08T01:56:00Z,10.6,7.8,10+,29.86
PANW,59.451,-157.325,190,10,11.51,PANW 080156Z AUTO 19010KT 10SM FEW026 SCT040 BKN055 14/11 A2985 RMK AO2 RAE07 SLP110 P0001 T01390106 $,2024-08-08T01:56:00Z,13.9,10.6,10+,29.85
PANU,64.7304,-158.075,200,8,9.21,PANU 080156Z AUTO 20008KT 170V240 10SM CLR 17/11 A2980 RMK AO2 SLP001 T01670111,2024-08-08T01:56:00Z,16.7,11.1,10+,29.80
PANI,61.578,-159.539,0,0,0.0,PANI 080156Z AUTO 00000KT 10SM -RA BKN045 OVC055 14/11 A2975 RMK AO2 RAB23 SLP075 P0004 T01390106 $,2024-08-08T01:56:00Z,13.9,10.6,10+,29.75
PANA,60.694,-161.978,210,11,12.66,PANA 080156Z AUTO 21011KT 9SM BKN080 BKN120 14/09 A2975 RMK AO2 RAE10 SLP073 P0000 T01390094 TSNO,2024-08-08T01:56:00Z,13.9,9.4,9,29.75
PAMY,60.376,-166.262,180,8,9.21,PAMY 080156Z AUTO 18008KT 10SM FEW013 BKN034 OVC060 12/08 A2970 RMK AO2 SLP056 T01170083 TSNO PNO $,2024-08-08T01:56:00Z,11.7,8.3,10+,29.70
PAMH,63.889,-152.292,0,0,0.0,PAMH 080156Z AUTO 00000KT 10SM BKN110 17/16 A2984 RMK AO2 SLP103 T01670156 TSNO PNO $,2024-08-08T01:56:00Z,16.7,15.6,10+,29.84
PAMD,59.442,-146.317,120,17,19.56,PAMD 080156Z AUTO 12017KT BKN006 OVC016 14/14 A3003 RMK AO2 CIG 003V008 SLP169 P0002 T01390139 PWINO $,2024-08-08T01:56:00Z,13.9,13.9,,30.03
PAMB,58.986,-159.05,230,7,8.06,PAMB 080156Z AUTO 23007KT 10SM SCT017 SCT021 OVC070 13/09 A2983 RMK AO2 SLP103 T01330094,2024-08-08T01:56:00Z,13.3,9.4,10+,29.83
PALG,61.538,-160.34,VRB,3,3.45,PALG 080156Z AUTO VRB03KT 10SM FEW029 16/12 A2974 RMK AO2 RAE56 SLP074 T01560122 PNO $,2024-08-08T01:56:00Z,15.6,12.2,10+,29.74
PAKI,59.935,-164.033,,,,PAKI 080156Z AUTO BKN019 OVC026 11/09 A2973 RMK AO2 SLPNO T01110089 PWINO $,2024-08-08T01:56:00Z,11.1,8.9,,29.73
PAKH,56.94,-154.181,110,3,3.45,PAKH 080156Z AUTO 11003KT 10SM SCT028 OVC039 13/11 A2992 RMK AO2 SLP131 T01330111 PNO $,2024-08-08T01:56:00Z,13.3,11.1,10+,29.92
PAKF,54.85,-163.409,0,0,0.0,PAKF 080156Z AUTO 00000KT 8SM SCT021 BKN030 OVC036 10/08 A2987 RMK AO2 SLP113 T01000078,2024-08-08T01:56:00Z,10,7.8,8,29.87
PAJZ,59.727,-157.267,180,10,11.51,PAJZ 080156Z AUTO 18010KT 6SM HZ FEW026 14/11 A2987 RMK AO2 SLP113 T01440111 PNO $,2024-08-08T01:56:00Z,14.4,11.1,6,29.87
PAIN,63.733,-148.912,VRB,3,3.45,PAIN 080156Z AUTO VRB03KT 10SM -RA BKN060 OVC075 16/11 A2996 RMK AO2 RAB38 SLP149 P0000 T01610111,2024-08-08T01:56:00Z,16.1,11.1,10+,29.96
PAIK,66.975,-160.439,170,9,10.36,PAIK 080156Z AUTO 17009G16KT 10SM SCT032 18/13 A2971 RMK AO2 SLP063 T01780128,2024-08-08T01:56:00Z,17.8,12.8,10+,29.71
PAII,58.186,-157.375,290,5,5.75,PAII 080156Z AUTO 29005KT 10SM FEW023 BKN065 13/10 A2988 RMK AO2 SLP115 T01280100,2024-08-08T01:56:00Z,12.8,10,10+,29.88
PAIG,59.325,-155.897,80,4,4.6,PAIG 080156Z AUTO 08004KT 10SM FEW039 BKN085 13/12 A2984 RMK AO2 SLP113 T01280117,2024-08-08T01:56:00Z,12.8,11.7,10+,29.84
PAHY,55.202,-132.825,290,5,5.75,PAHY 080156Z AUTO 29005KT 10SM CLR 21/12 A3017 RMK AO2 SLP213 T02110122 PNO $,2024-08-08T01:56:00Z,21.1,12.2,10+,30.17
PAHL,65.699,-156.353,160,9,10.36,PAHL 080156Z AUTO 16009KT 10SM BKN085 18/12 A2981 RMK AO2 SLP096 T01780122 TSNO,2024-08-08T01:56:00Z,17.8,12.2,10+,29.81
PAHC,62.191,-159.773,190,3,3.45,PAHC 080156Z AUTO 19003KT 10SM FEW055 OVC085 16/13 A2974 RMK AO2 RAE22 SLP077 P0000 T01560128,2024-08-08T01:56:00Z,15.6,12.8,10+,29.74
PAGS,58.425,-135.707,210,5,5.75,PAGS 080156Z AUTO 21005KT 10SM CLR 23/11 A3023 RMK AO2 SLP236 T02280106 TSNO,2024-08-08T01:56:00Z,22.8,10.6,10+,30.23
PAGN,57.502,-134.589,0,0,0.0,PAGN 080156Z AUTO 00000KT 10SM CLR 19/12 A3019 RMK AO2 SLP211 T01890122,2024-08-08T01:56:00Z,18.9,12.2,10+,30.19
PAGL,64.548,-163.013,160,8,9.21,PAGL 080156Z AUTO 16008KT 10SM BKN021 BKN070 14/12 A2973 RMK AO2 SLP063 T01390122 PNO $,2024-08-08T01:56:00Z,13.9,12.2,10+,29.73
PAGH,66.886,-157.159,140,12,13.81,PAGH 080156Z AUTO 14012G19KT 10SM BKN110 18/13 A2978 RMK AO2 SLPNO T01830128,2024-08-08T01:56:00Z,18.3,12.8,10+,29.78
PAGA,64.738,-156.92,210,5,5.75,PAGA 080156Z AUTO 21005KT 10SM BKN035 BKN042 OVC080 18/11 A2980 RMK AO2 SLP093 T01780111 TSNO $,2024-08-08T01:56:00Z,17.8,11.1,10+,29.80
PAFM,67.106,-157.858,150,6,6.9,PAFM 080156Z AUTO 15006KT 10SM BKN036 BKN043 19/13 A2979 RMK AO2 SLP089 P0001 T01890128,2024-08-08T01:56:00Z,18.9,12.8,10+,29.79
PAFE,56.961,-133.91,270,6,6.9,PAFE 080156Z AUTO 27006KT 10SM CLR 19/12 A3020 RMK AO2 SLP235 T01890122,2024-08-08T01:56:00Z,18.9,12.2,10+,30.20
PADU,53.896,-166.543,100,5,5.75,PADU 080156Z 10005KT 10SM BKN022 OVC027 10/07 A2990 RMK AO2 SLP126 T01000072 $,2024-08-08T01:56:00Z,10,7.2,10+,29.90
PADM,61.865,-162.033,230,9,10.36,PADM 080156Z AUTO 23009KT 10SM SCT022 BKN040 OVC110 16/12 A2977 RMK AO2 RAE07 SLP083 P0000 T01610117,2024-08-08T01:56:00Z,16.1,11.7,10+,29.77
PADL,59.04,-158.507,190,9,10.36,PADL 080156Z 19009KT 10SM SCT020 BKN065 14/10 A2982 RMK AO2 SLP101 T01440100,2024-08-08T01:56:00Z,14.4,10,10+,29.82
PADK,51.881,-176.644,240,15,17.26,PADK 080156Z AUTO 24015G24KT 10SM CLR 17/08 A3001 RMK AO2 PK WND 25026/0140 SLP162 T01670083 $,2024-08-08T01:56:00Z,16.7,8.3,10+,30.01
PACX,67.252,-150.204,220,6,6.9,PACX 080156Z AUTO 22006KT 10SM BKN095 21/10 A2988 RMK AO2 SLP745 T02060100,2024-08-08T01:56:00Z,20.6,10,10+,29.88
PACM,61.846,-165.579,270,5,5.75,PACM 080156Z AUTO 27005KT 5SM -RA BR BKN008 OVC018 10/10 A2973 RMK AO2 RAB36 SLP064 P0000 T01000100,2024-08-08T01:56:00Z,10,10,5,29.73
PABV,61.416,-149.511,0,0,0.0,PABV 080156Z AUTO 00000KT 6SM RA BR OVC065 16/15 A2996 RMK AO2 SLP146 P0006 T01610150,2024-08-08T01:56:00Z,16.1,15,6,29.96
PABL,65.979,-161.146,160,12,13.81,PABL 080156Z AUTO 16012KT 10SM -RA OVC050 18/11 A2970 RMK AO2 RAB53 SLP059 P0000 T01780111,2024-08-08T01:56:00Z,17.8,11.1,10+,29.70
PAAK,52.219,-174.208,280,10,11.51,PAAK 080156Z AUTO 28010KT 10SM OVC025 10/10 A3002 RMK AO2 SLP167 T01000100 TSNO,2024-08-08T01:56:00Z,10,10,10+,30.02
MMMX,19.436,-99.072,360,6,6.9,MMMX 080156Z 36006KT 7SM SCT020 SCT080 20/11 A3027 NOSIG RMK 8/460 HZY PCPN S,2024-08-08T01:56:00Z,20,11,7,30.27
KYKN,42.9142,-97.3807,330,10,11.51,KYKN 080156Z AUTO 33010KT 10SM SCT050 24/20 A2993 RMK AO2 LTG DSNT S SLP140 T02390200 $,2024-08-08T01:56:00Z,23.9,20,10+,29.93
KY50,44.0435,-89.304,150,3,3.45,KY50 080156Z AUTO 15003KT 8SM CLR 20/18 A2996 RMK AO2 SLP139 T02000183 $,2024-08-08T01:56:00Z,20,18.3,8,29.96
KWWD,39.0108,-74.9079,60,8,9.21,KWWD 080156Z AUTO 06008KT 9SM BKN004 OVC009 21/21 A2997 RMK AO2 SLP150 T02110211,2024-08-08T01:56:00Z,21.1,21.1,9,29.97
KWVL,44.5301,-69.6753,230,4,4.6,KWVL 080156Z AUTO 23004KT 10SM CLR 17/14 A3005 RMK AO2 SLP200 T01670144,2024-08-08T01:56:00Z,16.7,14.4,10+,30.05
KWMC,40.9018,-117.808,360,8,9.21,KWMC 080156Z AUTO 36008KT 10SM CLR 35/M04 A3002 RMK AO2 SLP115 T03501039,2024-08-08T01:56:00Z,35,-3.9,10+,30.02
KWJF,34.7412,-118.213,240,19,21.86,KWJF 080156Z 24019G28KT 10SM CLR 33/04 A2992 RMK AO2 PK WND 24031/0142 SLP105 T03280039,2024-08-08T01:56:00Z,32.8,3.9,10+,29.92
KVPZ,41.4535,-86.998,10,3,3.45,KVPZ 080156Z AUTO 01003KT 10SM FEW048 19/16 A2994 RMK AO2 SLP136 T01940156,2024-08-08T01:56:00Z,19.4,15.6,10+,29.94
KVIS,36.3135,-119.388,310,9,10.36,KVIS 080156Z AUTO 31009KT 10SM CLR 39/13 A2980 RMK AO2 SLP087 T03940133,2024-08-08T01:56:00Z,39.4,13.3,10+,29.80
KVBT,36.3444,-94.2211,70,7,8.06,KVBT 080156Z AUTO 07007KT 10SM CLR 29/17 A2989 RMK AO2 SLP110 T02890167,2024-08-08T01:56:00Z,28.9,16.7,10+,29.89
KUKI,39.1278,-123.2,80,5,5.75,KUKI 080156Z AUTO 08005KT 10SM CLR 36/09 A2984 RMK AO2 SLP098 T03560094,2024-08-08T01:56:00Z,35.6,9.4,10+,29.84
KUDG,34.4474,-79.8902,20,15,17.26,KUDG 080156Z AUTO 02015G21KT 7SM RA OVC010 24/24 A2960 RMK AO2 LTG DSNT E CIG 007V012 SLP024 P0025 T02440244,2024-08-08T01:56:00Z,24.4,24.4,7,29.60
KUCP,41.0228,-80.4153,60,7,8.06,KUCP 080156Z AUTO 06007KT 10SM OVC030 22/20 A2994 RMK AO2 SLP148 T02170200 PNO $,2024-08-08T01:56:00Z,21.7,20,10+,29.94
KTVF,48.0597,-96.1787,320,9,10.36,KTVF 080156Z AUTO 32009KT 10SM CLR 16/10 A2998 RMK AO2 SLP154 T01610100,2024-08-08T01:56:00Z,16.1,10,10+,29.98
KTPH,38.0505,-117.091,320,6,6.9,KTPH 080156Z AUTO 32006G16KT 10SM CLR 34/00 A3008 RMK AO2 SLP090 T03440000,2024-08-08T01:56:00Z,34.4,0,10+,30.08
KSUE,44.847,-87.425,0,0,0.0,KSUE 080156Z AUTO 00000KT 10SM CLR 19/10 A2998 RMK AO2 SLP148 T01940100,2024-08-08T01:56:00Z,19.4,10,10+,29.98
KSRC,35.2134,-91.7393,40,5,5.75,KSRC 080156Z AUTO 04005KT 10SM CLR 24/19 A2987 RMK AO2 SLP111 T02390189 $,2024-08-08T01:56:00Z,23.9,18.9,10+,29.87
KSQI,41.7432,-89.6655,0,0,0.0,KSQI 080156Z AUTO 00000KT 10SM CLR 19/16 A2996 RMK AO2 SLP008 T01890161 PNO $,2024-08-08T01:56:00Z,18.9,16.1,10+,29.96
KSPD,37.2834,-102.614,290,19,21.86,KSPD 080156Z AUTO 29019G31KT A2999 RMK AO1 PK WND 15032/0112 WSHFT 0138 PRESRR SLPNO $,2024-08-08T01:56:00Z,,,,29.99
KSOP,35.2371,-79.3921,50,10,11.51,KSOP 080156Z AUTO 05010KT BKN020 OVC025 24/23 A2974 RMK AO2 SLP069 T02440233 PWINO $,2024-08-08T01:56:00Z,24.4,23.3,,29.74
KSMP,47.2764,-121.338,VRB,3,3.45,KSMP 080156Z AUTO VRB03KT 10SM CLR 21/12 A3017 RMK AO2 SLP194 T02110117,2024-08-08T01:56:00Z,21.1,11.7,10+,30.17
KSMN,45.1283,-113.883,360,9,10.36,KSMN 080156Z AUTO 36009KT 10SM CLR 28/03 A3003 RMK AO2 SLPNO T02780033,2024-08-08T01:56:00Z,27.8,3.3,10+,30.03
KSLH,45.6523,-84.5202,170,3,3.45,KSLH 080156Z AUTO 17003KT 10SM CLR 20/12 A2999 RMK AO2,2024-08-08T01:56:00Z,20,12,10+,29.99
KSLG,36.1941,-94.488,100,3,3.45,KSLG 080156Z AUTO 10003KT 10SM CLR 28/17 A2987 RMK AO2 SLP100 T02830167,2024-08-08T01:56:00Z,28.3,16.7,10+,29.87
KSLE,44.9049,-123.001,30,7,8.06,KSLE 080156Z 03007KT 10SM CLR 32/14 A2993 RMK AO2 SLP132 T03170144,2024-08-08T01:56:00Z,31.7,14.4,10+,29.93
KSKX,36.4584,-105.675,0,0,0.0,KSKX 080156Z AUTO 00000KT 10SM CLR 23/09 A3025 RMK AO2 SLP168 T02330089,2024-08-08T01:56:00Z,23.3,8.9,10+,30.25
KSHV,32.4473,-93.8244,220,4,4.6,KSHV 080156Z 22004KT 10SM CLR 32/23 A2977 RMK SLPNO,2024-08-08T01:56:00Z,32,23,10+,29.77
KSGU,37.0444,-113.503,260,13,14.96,KSGU 080156Z AUTO 26013KT 10SM CLR 38/12 A2988 RMK AO2 SLP074 T03780122,2024-08-08T01:56:00Z,37.8,12.2,10+,29.88
KSGT,34.5998,-91.5763,20,6,6.9,KSGT 080156Z AUTO 02006KT 10SM CLR 23/19 A2985 RMK AO2 SLP108 T02280194 $,2024-08-08T01:56:00Z,22.8,19.4,10+,29.85
KSGJ,29.9592,-81.341,220,4,4.6,KSGJ 080156Z AUTO 22004KT 10SM FEW055 27/24 A2965 RMK AO2 LTG DSNT NW-NE RAE48 SLPNO P0000 T02720244,2024-08-08T01:56:00Z,27.2,24.4,10+,29.65
KSGH,39.8358,-83.8443,20,8,9.21,KSGH 080156Z AUTO 02008KT 10SM SCT025 22/19 A2990 RMK AO2 SLP119 T02170189,2024-08-08T01:56:00Z,21.7,18.9,10+,29.90
KSFZ,41.9168,-71.4924,0,0,0.0,KSFZ 080156Z AUTO 00000KT 10SM CLR 15/ A3010 RMK AO2 SLP192 T0150 $,2024-08-08T01:56:00Z,15,,10+,30.10
KSFO,37.6196,-122.366,310,20,23.02,KSFO 080156Z 31020G27KT 10SM FEW004 SCT180 16/12 A2990 RMK AO2 PK WND 31027/0155 SLP125 T01560122,2024-08-08T01:56:00Z,15.6,12.2,10+,29.90
KSFM,43.3876,-70.7154,0,0,0.0,KSFM 080156Z AUTO 00000KT 10SM CLR 15/14 A3009 RMK AO2 SLP191 T01500144 PNO $,2024-08-08T01:56:00Z,15,14.4,10+,30.09
KSDY,47.7029,-104.195,360,7,8.06,KSDY 080156Z AUTO 36007KT 10SM CLR 18/06 A3019 RMK AO2 SLP226 T01780056 PNO $,2024-08-08T01:56:00Z,17.8,5.6,10+,30.19
KSDF,38.1774,-85.7308,10,13,14.96,KSDF 080156Z 01013G18KT 10SM FEW038 SCT050 BKN075 28/21 A2981 RMK AO2 SLP090 T02780211,2024-08-08T01:56:00Z,27.8,21.1,10+,29.81
KSBP,35.2382,-120.644,300,9,10.36,KSBP 080156Z 30009KT 10SM CLR 24/14 A2993 RMK AO2 SLP134 T02440144 $,2024-08-08T01:56:00Z,24.4,14.4,10+,29.93
KRUT,43.53,-72.9517,130,10,11.51,KRUT 080156Z AUTO 13010KT 10SM CLR 17/14 A3009 RMK AO2 SLP181 T01670144 $,2024-08-08T01:56:00Z,16.7,14.4,10+,30.09
KRKD,44.0611,-69.1014,280,5,5.75,KRKD 080156Z AUTO 28005KT 10SM CLR 16/15 A3007 RMK AO2 SLP182 T01560150,2024-08-08T01:56:00Z,15.6,15,10+,30.07
KRDM,44.2558,-121.141,350,10,11.51,KRDM 080156Z AUTO 35010KT 10SM CLR 31/03 A3003 RMK AO2 SLP144 T03060028 $,2024-08-08T01:56:00Z,30.6,2.8,10+,30.03
KPWT,47.4942,-122.759,50,5,5.75,KPWT 080156Z AUTO 05005KT 10SM CLR 25/15 A3005 RMK AO2 SLP176 T02500150,2024-08-08T01:56:00Z,25,15,10+,30.05
KPWG,31.4891,-97.3202,80,5,5.75,KPWG 080156Z AUTO 08005KT 10SM CLR 33/17 A2981 RMK AO2 SLP083 T03280172,2024-08-08T01:56:00Z,32.8,17.2,10+,29.81
KPWC,46.7266,-94.3849,0,0,0.0,KPWC 080156Z AUTO 00000KT 7SM 17/16 A2997 RMK AO2,2024-08-08T01:56:00Z,17,16,7,29.97
KPVU,40.224,-111.725,330,10,11.51,KPVU 080156Z 33010KT 10SM SCT200 33/08 A2999 RMK AO2 SLP086 T03280078 $,2024-08-08T01:56:00Z,32.8,7.8,10+,29.99
KPVG,36.7824,-76.452,,,,KPVG 080156Z AUTO 10SM -RA OVC007 24/24 A2986 RMK AO2 CIG 005V010 SLP112 P0006 T02440239 $,2024-08-08T01:56:00Z,24.4,23.9,10+,29.86
KPVC,42.0743,-70.2183,0,0,0.0,KPVC 080156Z AUTO 00000KT 10SM BKN095 17/16 A3009 RMK AO2 SLP187 T01670161,2024-08-08T01:56:00Z,16.7,16.1,10+,30.09
KPTV,36.0274,-119.063,310,5,5.75,KPTV 080156Z AUTO 31005KT 10SM CLR 41/11 A2981 RMK AO2 SLP087 T04060111,2024-08-08T01:56:00Z,40.6,11.1,10+,29.81
KPTN,29.71,-91.3381,0,0,0.0,KPTN 080156Z AUTO 00000KT 10SM FEW060 A2979 RMK AO2 SLPNO FZRANO $,2024-08-08T01:56:00Z,,,10+,29.79
KPRX,33.6359,-95.4514,210,6,6.9,KPRX 080156Z AUTO 21006KT 10SM CLR 33/21 A2978 RMK AO2 SLP076 T03280211,2024-08-08T01:56:00Z,32.8,21.1,10+,29.78
KPQI,46.697,-68.054,0,0,0.0,KPQI 080156Z AUTO 00000KT 10SM CLR 13/08 A3008 RMK AO2 SLP211 T01330078,2024-08-08T01:56:00Z,13.3,7.8,10+,30.08
KPIB,31.4727,-89.3383,0,0,0.0,KPIB 080156Z AUTO 00000KT 10SM CLR 28/23 A2977 RMK AO2 SLP077 T02780233,2024-08-08T01:56:00Z,27.8,23.3,10+,29.77
KP28,37.2664,-98.5463,100,7,8.06,KP28 080156Z AUTO 10007G14KT 34/18 A2979 RMK AO1 SLP067 T03390183 $,2024-08-08T01:56:00Z,33.9,18.3,,29.79
KOXC,41.4741,-73.1353,110,4,4.6,KOXC 080156Z AUTO 11004KT 10SM -RA FEW050 OVC110 17/17 A3009 RMK AO2 RAB05 SLP201 T01720167 PNO $,2024-08-08T01:56:00Z,17.2,16.7,10+,30.09
KOWB,37.7297,-87.1683,340,5,5.75,KOWB 080156Z 34005KT 10SM FEW055 23/22 A2984 RMK AO2 SLP103 T02330217,2024-08-08T01:56:00Z,23.3,21.7,10+,29.84
KOVL,44.7792,-95.0304,0,0,0.0,KOVL 080156Z AUTO 00000KT 10SM OVC028 20/17 A2992 RMK AO2,2024-08-08T01:56:00Z,20,17,10+,29.92
KOTH,43.4194,-124.244,360,17,19.56,KOTH 080156Z 36017G22KT 2SM BR OVC004 14/13 A3001 RMK AO2 PK WND 01030/0103 SLP162 T01440133,2024-08-08T01:56:00Z,14.4,13.3,2,30.01
KOTG,43.6525,-95.5759,180,3,3.45,KOTG 080156Z AUTO 18003KT 4SM BR SCT034 BKN060 22/19 A2993 RMK AO2 SLP132 T02170194,2024-08-08T01:56:00Z,21.7,19.4,4,29.93
KOLU,41.4472,-97.3391,150,5,5.75,KOLU 080156Z AUTO 15005KT 10SM BKN110 24/19 A2992 RMK AO2 SLP124 T02440194,2024-08-08T01:56:00Z,24.4,19.4,10+,29.92
KOKK,40.5304,-86.055,60,7,8.06,KOKK 080156Z AUTO 06007KT 10SM OVC048 21/19 A2994 RMK AO2 SLP134 T02060194,2024-08-08T01:56:00Z,20.6,19.4,10+,29.94
KOFK,41.9799,-97.4335,0,0,0.0,KOFK 080156Z AUTO 00000KT 10SM OVC110 26/20 A2991 RMK AO2 LTG DSNT N SLP118 T02560200,2024-08-08T01:56:00Z,25.6,20,10+,29.91
KOCH,31.5809,-94.7081,0,0,0.0,KOCH 080156Z AUTO 00000KT 10SM CLR 27/24 A2980 RMK AO2 SLP093 T02720244,2024-08-08T01:56:00Z,27.2,24.4,10+,29.80
KOAJ,34.8251,-77.6189,70,14,16.11,KOAJ 080156Z AUTO 07014KT 6SM RA BR BKN008 BKN017 OVC032 26/25 A2970 RMK AO2 RAB20 CIG 007V013 SLP059 P0005 T02610250,2024-08-08T01:56:00Z,26.1,25,6,29.70
KNYG,38.503,-77.301,150,10,11.51,KNYG 080156Z AUTO 15010KT 8SM RA SCT019 BKN026 27/24 A2990 RMK AO2 SLP126 P0000 T02720239,2024-08-08T01:56:00Z,27.2,23.9,8,29.90
KNTU,36.8209,-76.0277,110,11,12.66,KNTU 080156Z 11011KT 6SM -RA BR SCT005 BKN050 OVC150 24/24 A2985 RMK AO2 SLP110 T2 SET P0000 T02440244,2024-08-08T01:56:00Z,24.4,24.4,6,29.85
KNSE,30.728,-87.022,310,3,3.45,KNSE 080156Z 31003KT 10SM CLR 27/23 A2973 RMK AO2 SLP050 T02720233 $,2024-08-08T01:56:00Z,27.2,23.3,10+,29.73
KNQI,27.507,-97.81,140,10,11.51,KNQI 080156Z 14010KT 10SM CLR 31/26 A2978 RMK AO2 SLP080 T03110256 $,2024-08-08T01:56:00Z,31.1,25.6,10+,29.78
KNPA,30.356,-87.323,VRB,3,3.45,KNPA 080156Z VRB03KT 10SM CLR 32/22 A2972 RMK AO2 SLP065 T03220222 $,2024-08-08T01:56:00Z,32.2,22.2,10+,29.72
KNOG,27.895,-98.043,120,9,10.36,KNOG 080156Z AUTO 12009KT 10SM CLR 30/24 A2979 RMK AO2 SLPNO T03000239 PWINO $,2024-08-08T01:56:00Z,30,23.9,10+,29.79
KNMM,32.546,-88.543,360,4,4.6,KNMM 080156Z 36004KT 10SM SCT043 SCT050 BKN070 31/24 A2975 RMK AO2 CIG 043 SOUTH SLP080 T03060239,2024-08-08T01:56:00Z,30.6,23.9,10+,29.75
KNLC,36.3024,-119.94,350,13,14.96,KNLC 080156Z 35013KT 10SM FEW180 41/13 A2979 RMK AO2 SLP084 RH/15 T04060128,2024-08-08T01:56:00Z,40.6,12.8,10+,29.79
KNKT,34.897,-76.881,100,12,13.81,KNKT 080156Z 10012KT 10SM BKN030 OVC100 27/25 A2975 RMK AO2 SLP071 T02720250,2024-08-08T01:56:00Z,27.2,25,10+,29.75
KNJK,32.823,-115.668,230,7,8.06,KNJK 080156Z 23007KT 10SM FEW080 FEW150 SCT250 38/19 A2976 RMK AO2 SLP093 T03830189 $,2024-08-08T01:56:00Z,38.3,18.9,10+,29.76
KNID,35.688,-117.69,270,17,19.56,KNID 080156Z 27017G25KT 10SM FEW150 SCT220 41/06 A2979 RMK AO2 WSHFT 0121 SLP059 T04110056 $,2024-08-08T01:56:00Z,41.1,5.6,10+,29.79
KNGP,27.688,-97.292,140,13,14.96,KNGP 080156Z 14013KT 10SM FEW025 31/24 A2978 RMK AO2 SLP083 T03060244,2024-08-08T01:56:00Z,30.6,24.4,10+,29.78
KNFE,36.701,-76.129,120,9,10.36,KNFE 080156Z AUTO 12009G16KT 10SM SCT026 26/23 A2985 RMK AO2 RAE41 SLP111 P0002 T02610233,2024-08-08T01:56:00Z,26.1,23.3,10+,29.85
KNDZ,30.6973,-87.0207,300,3,3.45,KNDZ 080156Z 30003KT 10SM CLR 27/24 A2973 RMK AO2 SLP050 T02720239 $,2024-08-08T01:56:00Z,27.2,23.9,10+,29.73
KNCA,34.7062,-77.4406,100,13,14.96,KNCA 080156Z 10013G22KT 10SM -RA BR FEW019 BKN034 OVC085 27/25 A2968 RMK AO2 PK WND 10028/0129 SLP053 P0002 T02670250,2024-08-08T01:56:00Z,26.7,25,10+,29.68
KMYR,33.6769,-78.9325,120,12,13.81,KMYR 080156Z 12012G16KT 9SM OVC009 27/27 A2948 RMK AO2 SLP982 T02670267,2024-08-08T01:56:00Z,26.7,26.7,9,29.48
KMVN,38.3284,-88.853,0,0,0.0,KMVN 080156Z AUTO 00000KT 10SM OVC040 22/20 A2988 RMK AO2 SLP120 T02220200,2024-08-08T01:56:00Z,22.2,20,10+,29.88
KMTW,44.1322,-87.6819,0,0,0.0,KMTW 080156Z AUTO 00000KT 10SM CLR 19/16 RMK AO2 SLPNO T01890156 $,2024-08-08T01:56:00Z,18.9,15.6,10+,
KMTC,42.6045,-82.8353,30,5,5.75,KMTC 080156Z 03005KT 10SM FEW250 20/15 A2994 RMK AO2A SLP141 T01970151 $,2024-08-08T01:56:00Z,19.7,15.1,10+,29.94
KMQY,36.0029,-86.5144,330,7,8.06,KMQY 080156Z 33007KT 10SM OVC031 A2982 RMK AO2 SLPNO $,2024-08-08T01:56:00Z,,,10+,29.82
KMOB,30.6882,-88.2459,230,4,4.6,KMOB 080156Z 23004KT 10SM CLR 29/23 A2975 RMK AO2 SLP070 T02940228,2024-08-08T01:56:00Z,29.4,22.8,10+,29.75
KMML,44.4504,-95.8215,330,11,12.66,KMML 080156Z AUTO 33011KT 10SM FEW011 OVC023 21/20 A2994 RMK AO2 SLP137 T02060200,2024-08-08T01:56:00Z,20.6,20,10+,29.94
KMKT,44.2184,-93.9179,130,6,6.9,KMKT 080156Z AUTO 13006KT 10SM -RA OVC042 21/18 A2992 RMK AO2 RAB55 SLP131 P0000 T02060183,2024-08-08T01:56:00Z,20.6,18.3,10+,29.92
KMJX,39.9235,-74.297,60,7,8.06,KMJX 080156Z AUTO 06007KT 4SM -RA BR OVC006 20/19 A3003 RMK AO2 CIG 004V008 SLP172 P0001 T02000194,2024-08-08T01:56:00Z,20,19.4,4,30.03
KMHS,41.3149,-122.317,0,0,0.0,KMHS 080156Z AUTO 00000KT 10SM CLR 31/01 A3001 RMK AO2 SLP149 T03060011,2024-08-08T01:56:00Z,30.6,1.1,10+,30.01
KMEH,45.512,-118.425,0,0,0.0,KMEH 080156Z AUTO 00000KT 10SM CLR 24/06 A3011 RMK AO2 SLP180 T02440061,2024-08-08T01:56:00Z,24.4,6.1,10+,30.11
KMDT,40.1962,-76.7725,120,12,13.81,KMDT 080156Z 12012KT 10SM OVC010 20/18 A2998 RMK AO2 CIG 009V013 SLP152 T02000178 $,2024-08-08T01:56:00Z,20,17.8,10+,29.98
KMBL,44.2714,-86.2377,0,0,0.0,KMBL 080156Z AUTO 00000KT 10SM CLR 17/14 A2998 RMK AO2 SLP151 T01720144,2024-08-08T01:56:00Z,17.2,14.4,10+,29.98
KM19,35.643,-91.1735,330,5,5.75,KM19 080156Z AUTO 33005KT 10SM BKN037 22/18 A2986 RMK AO2 SLP110 T02170183 $,2024-08-08T01:56:00Z,21.7,18.3,10+,29.86
KLZU,33.9828,-83.9585,40,8,9.21,KLZU 080156Z AUTO 04008KT 10SM BKN050 OVC060 31/22 A2975 RMK AO2 SLP070 T03060222,2024-08-08T01:56:00Z,30.6,22.2,10+,29.75
KLWS,46.3746,-117.015,310,5,5.75,KLWS 080156Z 31005KT 10SM CLR 33/02 A2995 RMK AO2 SLP132 T03280022,2024-08-08T01:56:00Z,32.8,2.2,10+,29.95
KLRD,27.551,-99.4614,120,11,12.66,KLRD 080156Z 12011KT 10SM CLR 36/19 A2975 RMK AO2 SLP068 T03560189,2024-08-08T01:56:00Z,35.6,18.9,10+,29.75
KLPC,34.6646,-120.464,270,11,12.66,KLPC 080156Z AUTO 27011KT 10SM CLR 19/14 A2996 RMK AO2 SLP146 T01890144,2024-08-08T01:56:00Z,18.9,14.4,10+,29.96
KLNR,43.2111,-90.1874,0,0,0.0,KLNR 080156Z AUTO 00000KT 10SM CLR 21/18 A2995 RMK AO2 RAB37E46 SLP136 P0000 T02060178,2024-08-08T01:56:00Z,20.6,17.8,10+,29.95
KLGD,45.2906,-118.009,330,7,8.06,KLGD 080156Z AUTO 33007KT 10SM CLR 29/08 A3003 RMK AO2 SLP151 T02940078 $,2024-08-08T01:56:00Z,29.4,7.8,10+,30.03
KLEW,44.0444,-70.2853,0,0,0.0,KLEW 080156Z AUTO 00000KT 10SM CLR 17/16 A3008 RMK AO2 SLP190 T01670156,2024-08-08T01:56:00Z,16.7,15.6,10+,30.08
KLBT,34.6082,-79.059,80,16,18.41,KLBT 080156Z AUTO 08016G25KT 1 3/4SM +TSRA BR FEW012 OVC020 24/23 A2960 RMK AO2 PK WND 04038/0131 LTG DSNT NE AND E AND SW TSB31E46B49 SLP023 P0122 T02440233,2024-08-08T01:56:00Z,24.4,23.3,1.75,29.60
KLBL,37.0375,-100.957,150,9,10.36,KLBL 080156Z AUTO 15009KT 10SM CLR 31/13 A2984 RMK AO2 SLP066 T03060128 PNO $,2024-08-08T01:56:00Z,30.6,12.8,10+,29.84
KLAS,36.0719,-115.163,230,8,9.21,KLAS 080156Z 23008G17KT 10SM FEW120 SCT180 SCT220 42/09 A2981 RMK AO2 SLP059 T04220094,2024-08-08T01:56:00Z,42.2,9.4,10+,29.81
KJXN,42.259,-84.4589,0,0,0.0,KJXN 080156Z AUTO 00000KT 10SM CLR 17/13 A2998 RMK AO2 SLP150 T01720128,2024-08-08T01:56:00Z,17.2,12.8,10+,29.98
KJRB,40.701,-74.009,60,10,11.51,KJRB 080156Z AUTO 06010KT 10SM -RA FEW013 BKN048 OVC060 20/17 A3005 RMK AO2 RAB51 SLP175 T02000172 PNO $,2024-08-08T01:56:00Z,20,17.2,10+,30.05
KJMS,46.9259,-98.6704,320,6,6.9,KJMS 080156Z AUTO 32006KT 10SM SCT041 BKN049 OVC060 17/13 A3004 RMK AO2 SLP172 T01720133,2024-08-08T01:56:00Z,17.2,13.3,10+,30.04
KJHW,42.1534,-79.2542,110,7,8.06,KJHW 080156Z AUTO 11007KT 10SM BKN026 OVC044 19/17 A3002 RMK AO2 SLP163 T01940167,2024-08-08T01:56:00Z,19.4,16.7,10+,30.02
KJAX,30.4953,-81.6937,340,7,8.06,KJAX 080156Z 34007KT 7SM -TSRA FEW014 SCT045CB BKN080 OVC140 26/24 A2966 RMK AO2 PK WND 36029/0115 LTG DSNT SE AND NW TSE13B16 SLP043 OCNL LTGICCG VC E TS VC E MOV S P0006 T02560239 $,2024-08-08T01:56:00Z,25.6,23.9,7,29.66
KJAC,43.6129,-110.737,230,5,5.75,KJAC 080156Z 23005KT 10SM HZ CLR 23/M01 A3018 RMK AO2 SLP170 T02331006,2024-08-08T01:56:00Z,23.3,-0.6,10+,30.18
KIWD,46.5321,-90.126,0,0,0.0,KIWD 080156Z AUTO 00000KT 10SM -RA FEW050 BKN100 16/15 A2996 RMK AO2 SLP145 P0001 T01560150,2024-08-08T01:56:00Z,15.6,15,10+,29.96
KITH,42.4931,-76.4569,140,6,6.9,KITH 080156Z AUTO 14006KT 10SM SCT043 OVC060 19/16 A3006 RMK AO2 SLP173 T01940161,2024-08-08T01:56:00Z,19.4,16.1,10+,30.06
KISP,40.7939,-73.1018,80,5,5.75,KISP 080156Z 08005KT 10SM FEW015 BKN029 OVC060 19/17 A3005 RMK AO2 SLP176 T01890172 $,2024-08-08T01:56:00Z,18.9,17.2,10+,30.05
KISM,28.2924,-81.4371,250,5,5.75,KISM 080156Z 25005KT 9SM CLR 28/24 A2973 RMK AO2 SLP068 T02830239 $,2024-08-08T01:56:00Z,28.3,23.9,9,29.73
KINW,35.028,-110.722,260,14,16.11,KINW 080156Z AUTO 26014G22KT 10SM FEW100 32/12 A3009 RMK AO2 PK WND 26026/0058 LTG DSNT E AND SE SLP100 T03170122,2024-08-08T01:56:00Z,31.7,12.2,10+,30.09
KILE,31.084,-97.6885,110,7,8.06,KILE 080156Z AUTO 11007KT 10SM CLR 33/22 A2981 RMK AO2 SLP080 T03280217,2024-08-08T01:56:00Z,32.8,21.7,10+,29.81
KIKW,43.6643,-84.2613,50,2,2.3,KIKW 080156Z AUTO 05002KT 10SM CLR 18/14 A2999 RMK AO2,2024-08-08T01:56:00Z,18,14,10+,29.99
KI69,39.078,-84.21,20,7,8.06,KI69 080156Z AUTO 02007KT 10SM CLR 24/20 A2988 RMK AO1 T02350196,2024-08-08T01:56:00Z,23.5,19.6,10+,29.88
KHYS,38.8392,-99.2742,70,7,8.06,KHYS 080156Z AUTO 07007KT 10SM CLR 29/18 A2985 RMK AO2 SLP092 T02940183,2024-08-08T01:56:00Z,29.4,18.3,10+,29.85
KHYI,29.8958,-97.8664,140,6,6.9,KHYI 080156Z AUTO 14006KT 10SM CLR 31/23 A2979 RMK AO2 SLP079 T03110228,2024-08-08T01:56:00Z,31.1,22.8,10+,29.79
KHYA,41.6719,-70.2697,0,0,0.0,KHYA 080156Z 00000KT 10SM OVC050 17/16 A3007 RMK AO2 SLP183 T01720156,2024-08-08T01:56:00Z,17.2,15.6,10+,30.07
KHWV,40.8212,-72.8674,0,0,0.0,KHWV 080156Z AUTO 00000KT 10SM OVC021 19/17 A3007 RMK AO2 SLP180 T01890167,2024-08-08T01:56:00Z,18.9,16.7,10+,30.07
KHPN,41.0624,-73.7046,VRB,6,6.9,KHPN 080156Z VRB06KT 10SM OVC015 18/17 A3006 RMK AO2 SLP176 T01830167,2024-08-08T01:56:00Z,18.3,16.7,10+,30.06
KHND,35.9658,-115.134,210,14,16.11,KHND 080156Z 21014KT 10SM CLR 41/11 A2985 RMK AO2 SLP085 T04060111,2024-08-08T01:56:00Z,40.6,11.1,10+,29.85
KHNB,38.2505,-86.9473,360,3,3.45,KHNB 080156Z AUTO 36003KT 10SM CLR 23/22 A2985 RMK AO2 RAB13E23 SLP104 P0000 T02280222,2024-08-08T01:56:00Z,22.8,22.2,10+,29.85
KHEZ,31.6159,-91.2973,0,0,0.0,KHEZ 080156Z AUTO 00000KT 10SM CLR 28/24 A2978 RMK AO2 SLP083 T02780239,2024-08-08T01:56:00Z,27.8,23.9,10+,29.78
KHEF,38.724,-77.5175,100,6,6.9,KHEF 080156Z 10006KT 10SM SCT015 BKN026 OVC055 26/24 A2990 RMK AO2 LTG DSNT N SLP128 T02560244,2024-08-08T01:56:00Z,25.6,24.4,10+,29.90
KHDN,40.4842,-107.23,130,4,4.6,KHDN 080156Z AUTO 13004KT 10SM FEW100 21/12 A3024 RMK AO2 SLP157 T02060117 PNO $,2024-08-08T01:56:00Z,20.6,11.7,10+,30.24
KHCO,48.7524,-96.9376,330,9,10.36,KHCO 080156Z AUTO 33009KT 10SM CLR 16/11 A2998 RMK AO2,2024-08-08T01:56:00Z,16,11,10+,29.98
KGXY,40.4345,-104.63,340,7,8.06,KGXY 080156Z AUTO 34007KT 10SM CLR 21/16 A3008 RMK AO2 SLP144 T02060161,2024-08-08T01:56:00Z,20.6,16.1,10+,30.08
KGVQ,43.0298,-78.1665,,,,KGVQ 080156Z AUTO 10SM CLR 17/15 A3003 RMK AO2 SLP165 T01720150 $,2024-08-08T01:56:00Z,17.2,15,10+,30.03
KGUC,38.5322,-106.942,80,11,12.66,KGUC 080156Z AUTO 08011KT 10SM BKN110 17/12 A3033 RMK AO2 LTG DSNT NE AND SW RAB0058E35 SLP197 P0003 T01720117,2024-08-08T01:56:00Z,17.2,11.7,10+,30.33
KGTU,30.6809,-97.6767,120,6,6.9,KGTU 080156Z 12006KT 10SM CLR 33/19 A2982 RMK AO2 SLP085 T03280189,2024-08-08T01:56:00Z,32.8,18.9,10+,29.82
KGTR,33.456,-88.593,340,8,9.21,KGTR 080156Z AUTO 34008KT 10SM CLR 27/23 A2978 RMK AO2 SLP089 T02670228,2024-08-08T01:56:00Z,26.7,22.8,10+,29.78
KGRD,34.2539,-82.1526,10,10,11.51,KGRD 080156Z AUTO 01010KT 10SM CLR 27/22 A2971 RMK AO2 SLP053 T02670217,2024-08-08T01:56:00Z,26.7,21.7,10+,29.71
KGPZ,47.2029,-93.5071,270,6,6.9,KGPZ 080156Z AUTO 27006KT 2SM -RA BR OVC006 16/16 A2994 RMK AO2 SLP140 P0002 T01610161,2024-08-08T01:56:00Z,16.1,16.1,2,29.94
KGON,41.3279,-72.0489,50,4,4.6,KGON 080156Z 05004KT 10SM BKN110 19/17 A3007 RMK AO2 SLP180 T01890172,2024-08-08T01:56:00Z,18.9,17.2,10+,30.07
KGNR,45.4649,-69.5543,350,6,6.9,KGNR 080156Z AUTO 35006KT 16/09 A3008 RMK AO1 SLP185 T01560089,2024-08-08T01:56:00Z,15.6,8.9,,30.08
KGNA,47.745,-90.346,270,4,4.6,KGNA 080156Z AUTO 27004KT 17/15 A2991 RMK AO1 PK WND 26026/0107 SLP124 P0014 T01670150,2024-08-08T01:56:00Z,16.7,15,,29.91
KGDV,47.14,-104.813,320,8,9.21,KGDV 080156Z AUTO 32008KT 10SM OVC085 16/11 A3022 RMK AO2 SLP230 T01560111 TSNO PNO $,2024-08-08T01:56:00Z,15.6,11.1,10+,30.22
KGBD,38.3405,-98.8592,90,5,5.75,KGBD 080156Z AUTO 09005KT 10SM CLR 29/20 A2985 RMK AO2 SLP087 T02940200,2024-08-08T01:56:00Z,29.4,20,10+,29.85
KGAD,33.9686,-86.0917,0,0,0.0,KGAD 080156Z AUTO 00000KT 10SM CLR 27/26 A2974 RMK AO2 SLP068 T02670256 $,2024-08-08T01:56:00Z,26.7,25.6,10+,29.74
KFSD,43.5775,-96.7539,360,14,16.11,KFSD 080156Z 36014KT 10SM SCT055 BKN080 BKN120 23/19 A2993 RMK AO2 SLP130 T02330194,2024-08-08T01:56:00Z,23.3,19.4,10+,29.93
KFRM,43.6455,-94.4168,170,6,6.9,KFRM 080156Z AUTO 17006KT 10SM OVC070 22/18 A2992 RMK AO2 SLP130 T02220178,2024-08-08T01:56:00Z,22.2,17.8,10+,29.92
KFOD,42.549,-94.182,100,4,4.6,KFOD 080156Z AUTO 10004KT 10SM CLR A2994 RMK AO2 SLPNO FZRANO $,2024-08-08T01:56:00Z,,,10+,29.94
KFNL,40.4427,-105.01,150,6,6.9,KFNL 080156Z AUTO 15006KT 10SM RA CLR 21/15 A3008 RMK AO2 SLP127 T02060150 PNO $,2024-08-08T01:56:00Z,20.6,15,10+,30.08
KFMH,41.6608,-70.5221,30,5,5.75,KFMH 080156Z 03005KT 10SM OVC050 17/15 A3008,2024-08-08T01:56:00Z,17,15,10+,30.08
KFLP,36.2925,-92.5851,0,0,0.0,KFLP 080156Z AUTO 00000KT 10SM CLR 24/19 A2989 RMK AO2 SLP115 T02390194,2024-08-08T01:56:00Z,23.9,19.4,10+,29.89
KFKL,41.3806,-79.8603,80,5,5.75,KFKL 080156Z AUTO 08005KT 10SM OVC020 20/18 A2999 RMK AO2 SLP149 T02000178,2024-08-08T01:56:00Z,20,17.8,10+,29.99
KFCI,37.407,-77.522,90,6,6.9,KFCI 080156Z AUTO 09006KT 10SM OVC011 25/25 A2987 RMK AO2 SLP123 T02500250,2024-08-08T01:56:00Z,25,25,10+,29.87
KFAM,37.7631,-90.4292,350,4,4.6,KFAM 080156Z AUTO 35004KT 10SM OVC031 22/18 A2992 RMK AO2 SLP136 T02220178,2024-08-08T01:56:00Z,22.2,17.8,10+,29.92
KEWK,38.0621,-97.275,90,5,5.75,KEWK 080156Z AUTO 09005KT 10SM CLR 28/17 A2986 RMK AO2 SLP097 T02830172,2024-08-08T01:56:00Z,28.3,17.2,10+,29.86
KEUL,43.6405,-116.63,340,3,3.45,KEUL 080156Z AUTO 34003KT 10SM CLR 31/05 A2995 RMK AO2 SLP121 T03060050,2024-08-08T01:56:00Z,30.6,5,10+,29.95
KESC,45.7225,-87.0893,140,6,6.9,KESC 080156Z AUTO 14006KT 10SM CLR 21/14 A2996 RMK AO2 SLP146 T02110144 $,2024-08-08T01:56:00Z,21.1,14.4,10+,29.96
KENV,40.7211,-114.031,VRB,4,4.6,KENV 080156Z AUTO VRB04KT 10SM CLR 36/M01 A2997 RMK AO2 SLP092 T03561006,2024-08-08T01:56:00Z,35.6,-0.6,10+,29.97
KELZ,42.1077,-77.9842,120,5,5.75,KELZ 080156Z AUTO 12005KT 10SM SCT016 OVC034 18/17 A3006 RMK AO2 SLP173 T01830167,2024-08-08T01:56:00Z,18.3,16.7,10+,30.06
KEKY,33.314,-86.925,310,3,3.45,KEKY 080156Z AUTO 31003KT 10SM CLR 29/24 A2976 RMK AO2 SLP924 T02890239,2024-08-08T01:56:00Z,28.9,23.9,10+,29.76
KEKQ,36.8576,-84.8562,0,0,0.0,KEKQ 080156Z AUTO 00000KT 6SM BR OVC110 24/24 A2982 RMK AO2 SLP084 T02440244 PNO $,2024-08-08T01:56:00Z,24.4,24.4,6,29.82
KEKO,40.824,-115.786,310,5,5.75,KEKO 080156Z AUTO 31005KT 10SM CLR 32/M02 A3008 RMK AO2 SLP123 T03171022 $,2024-08-08T01:56:00Z,31.7,-2.2,10+,30.08
KEHR,37.8066,-87.6824,340,4,4.6,KEHR 080156Z AUTO 34004KT 10SM SCT026 SCT055 22/20 A2986 RMK AO2 SLP108 T02220200,2024-08-08T01:56:00Z,22.2,20,10+,29.86
KEGE,39.6448,-106.918,140,15,17.26,KEGE 080156Z AUTO 14015G21KT 10SM OVC095 17/12 A3031 RMK AO2 TSE08RAE56 PRESFR SLP159 T01670122 PNO $,2024-08-08T01:56:00Z,16.7,12.2,10+,30.31
KEEN,42.898,-72.2695,0,0,0.0,KEEN 080156Z AUTO 00000KT 10SM CLR 16/16 A3009 RMK AO2 SLP193 T01610156 $,2024-08-08T01:56:00Z,16.1,15.6,10+,30.09
KEED,34.7678,-114.618,210,10,11.51,KEED 080156Z AUTO 21010KT 10SM SCT110 39/20 A2978 RMK AO2 SLP046 T03940200,2024-08-08T01:56:00Z,39.4,20,10+,29.78
KEAU,44.8665,-91.4881,300,3,3.45,KEAU 080156Z AUTO 30003KT 10SM BKN048 OVC095 20/17 A2995 RMK AO2 SLP140 T02000167,2024-08-08T01:56:00Z,20,16.7,10+,29.95
KEAR,40.7193,-99.0086,130,6,6.9,KEAR 080156Z AUTO 13006KT 10SM CLR 23/19 A2994 RMK AO2 SLP122 T02330194,2024-08-08T01:56:00Z,23.3,19.4,10+,29.94
KDYR,35.9957,-89.4057,320,4,4.6,KDYR 080156Z AUTO 32004KT 10SM OVC050 24/21 A2984 RMK AO2 SLP108 T02390211,2024-08-08T01:56:00Z,23.9,21.1,10+,29.84
KDWU,38.556,-82.7375,360,4,4.6,KDWU 080156Z AUTO 36004KT 10SM CLR 27/23 A2981 RMK AO2 SLP090 T02670233 $,2024-08-08T01:56:00Z,26.7,23.3,10+,29.81
KDVL,48.1136,-98.9034,330,13,14.96,KDVL 080156Z AUTO 33013KT 10SM CLR 16/08 A3006 RMK AO2 SLP183 T01610078,2024-08-08T01:56:00Z,16.1,7.8,10+,30.06
KDUG,31.4725,-109.602,40,10,11.51,KDUG 080156Z AUTO 04010KT 10SM VCTS BKN070 OVC090 28/17 A3007 RMK AO2 LTG DSNT ALQDS SLP111 T02830167,2024-08-08T01:56:00Z,28.3,16.7,10+,30.07
KDIK,46.7997,-102.797,310,8,9.21,KDIK 080156Z AUTO 31008KT 8SM BKN095 OVC120 16/11 A3015 RMK AO2 SLP207 T01560106,2024-08-08T01:56:00Z,15.6,10.6,8,30.15
KDIJ,43.745,-111.091,200,4,4.6,KDIJ 080156Z AUTO 20004KT 10SM CLR 22/01 A3019 RMK AO2 SLP161 T02220011 $,2024-08-08T01:56:00Z,22.2,1.1,10+,30.19
KDAY,39.9064,-84.2185,20,8,9.21,KDAY 080156Z 02008KT 10SM FEW037 SCT045 22/19 A2990 RMK AO2 SLP119 T02170194,2024-08-08T01:56:00Z,21.7,19.4,10+,29.90
KD07,45.0326,-102.02,30,12,13.81,KD07 080156Z AUTO 03012KT 18/12 A3013 RMK AO1 SLP194 T01830122,2024-08-08T01:56:00Z,18.3,12.2,,30.13
KCXY,40.2184,-76.8552,70,10,11.51,KCXY 080156Z AUTO 07010KT 10SM OVC007 21/18 A2999 RMK AO2 SLP155 T02060178,2024-08-08T01:56:00Z,20.6,17.8,10+,29.99
KCWI,41.8295,-90.3328,40,3,3.45,KCWI 080156Z AUTO 04003KT 10SM CLR 19/17 A2996 RMK AO2 SLP144 T01940172,2024-08-08T01:56:00Z,19.4,17.2,10+,29.96
KCVO,44.5013,-123.293,40,4,4.6,KCVO 080156Z 04004KT 10SM CLR 29/13 A2995 RMK AO2 SLP140 T02890133,2024-08-08T01:56:00Z,28.9,13.3,10+,29.95
KCVN,34.4227,-103.08,160,9,10.36,KCVN 080156Z AUTO 16009KT 10SM CLR 31/05 A2999 RMK AO2 SLP100 T03060050,2024-08-08T01:56:00Z,30.6,5,10+,29.99
KCTB,48.6036,-112.377,70,7,8.06,KCTB 080156Z AUTO 07007KT 9SM BKN080 16/07 A3031 RMK AO2 SLP254 T01610072,2024-08-08T01:56:00Z,16.1,7.2,9,30.31
KCOE,47.7719,-116.833,30,6,6.9,KCOE 080156Z AUTO 03006KT 10SM 28/08 A3006 RMK AO2 SLP176 T02830078 PNO $,2024-08-08T01:56:00Z,28.3,7.8,10+,30.06
KCOD,44.52,-109.027,300,9,10.36,KCOD 080156Z AUTO 30009KT 10SM -RA FEW019 SCT036 OVC043 14/12 A3031 RMK AO2 LTG DSNT W-NE TSB26E48RAB01 SLP234 P0001 T01390117,2024-08-08T01:56:00Z,13.9,11.7,10+,30.31
KCIU,46.2531,-84.4773,150,6,6.9,KCIU 080156Z AUTO 15006KT 10SM CLR 18/12 A3001 RMK AO2 SLP160 T01830122,2024-08-08T01:56:00Z,18.3,12.2,10+,30.01
KCHS,32.8994,-80.0407,350,13,14.96,KCHS 080156Z 35013G18KT 8SM -RA BKN010 OVC015 26/24 A2944 RMK AO2 RAB06 SLP968 CB DSNT NE P0001 T02560244,2024-08-08T01:56:00Z,25.6,24.4,8,29.44
KCAE,33.9422,-81.118,10,12,13.81,KCAE 080156Z 01012G20KT 10SM SCT033 BKN040 BKN049 27/23 A2961 RMK AO2 SLP024 T02720228,2024-08-08T01:56:00Z,27.2,22.8,10+,29.61
KBZN,45.7876,-111.162,170,13,14.96,KBZN 080156Z 17013KT 10SM CLR 20/12 A3019 RMK AO2 SLP194 T02000122,2024-08-08T01:56:00Z,20,12.2,10+,30.19
KBVX,35.7259,-91.6517,20,5,5.75,KBVX 080156Z AUTO 02005KT 10SM OVC029 24/19 A2988 RMK AO2 SLP116 T02390189,2024-08-08T01:56:00Z,23.9,18.9,10+,29.88
KBTP,40.7765,-79.9568,50,7,8.06,KBTP 080156Z AUTO 05007KT 10SM OVC014 21/20 A2996 RMK AO2 SLP143 T02110200,2024-08-08T01:56:00Z,21.1,20,10+,29.96
KBOK,42.0754,-124.29,140,3,3.45,KBOK 080156Z AUTO 14003KT 10SM CLR 18/13 A2993 RMK AO2 SLP134 T01830128,2024-08-08T01:56:00Z,18.3,12.8,10+,29.93
KBMI,40.4777,-88.9144,50,6,6.9,KBMI 080156Z 05006KT 10SM OVC044 22/19 A2994 RMK AO2 SLP132 T02220194,2024-08-08T01:56:00Z,22.2,19.4,10+,29.94
KBLM,40.1822,-74.1207,50,11,12.66,KBLM 080156Z AUTO 05011G15KT 10SM OVC011 20/18 A3004 RMK AO2 SLP172 T02000183 PNO $,2024-08-08T01:56:00Z,20,18.3,10+,30.04
KBKX,44.3075,-96.8183,350,10,11.51,KBKX 080156Z AUTO 35010KT 10SM FEW026 OVC033 21/18 A2997 RMK AO2 SLP153 T02060178,2024-08-08T01:56:00Z,20.6,17.8,10+,29.97
KBJJ,40.8732,-81.8886,20,4,4.6,KBJJ 080156Z AUTO 02004KT 10SM BKN037 22/19 A2992 RMK AO2 SLP127 T02220189,2024-08-08T01:56:00Z,22.2,18.9,10+,29.92
KBIH,37.3711,-118.359,320,4,4.6,KBIH 080156Z AUTO 32004KT 10SM CLR 37/07 A2994 RMK AO2 SLP079 T03720067,2024-08-08T01:56:00Z,37.2,6.7,10+,29.94
KBID,41.1668,-71.5757,60,8,9.21,KBID 080156Z AUTO 06008KT 10SM FEW020 18/16 A3007 RMK AO2 SLP183 T01780156 PNO $,2024-08-08T01:56:00Z,17.8,15.6,10+,30.07
KBHB,44.4549,-68.3617,200,4,4.6,KBHB 080156Z AUTO 20004KT 10SM CLR 16/14 A3007 RMK AO2 SLP183 T01560144,2024-08-08T01:56:00Z,15.6,14.4,10+,30.07
KAUO,32.617,-85.4342,310,3,3.45,KAUO 080156Z AUTO 31003KT 10SM CLR 29/23 A2975 RMK AO2 SLP059 T02890233,2024-08-08T01:56:00Z,28.9,23.3,10+,29.75
KASH,42.7798,-71.5141,0,0,0.0,KASH 080156Z AUTO 00000KT 10SM CLR 17/17 A3009 RMK AO2 SLP193 T01670167,2024-08-08T01:56:00Z,16.7,16.7,10+,30.09
KART,43.9888,-76.0261,90,3,3.45,KART 080156Z AUTO 09003KT 10SM CLR 17/13 A3004 RMK AO2 SLP169 T01670128,2024-08-08T01:56:00Z,16.7,12.8,10+,30.04
KARG,36.1256,-90.9216,330,5,5.75,KARG 080156Z AUTO 33005KT 10SM CLR 21/19 A2986 RMK AO2 SLP112 T02110194,2024-08-08T01:56:00Z,21.1,19.4,10+,29.86
KAND,34.498,-82.7092,50,8,9.21,KAND 080156Z AUTO 05008KT 10SM CLR 29/21 A2973 RMK AO2 SLP054 T02890211,2024-08-08T01:56:00Z,28.9,21.1,10+,29.73
KALK,31.606,-110.428,240,7,8.06,KALK 080156Z AUTO 24007KT 10SM CLR 23/18 A3015 RMK AO2 SLP122 T02330178,2024-08-08T01:56:00Z,23.3,17.8,10+,30.15
KAJO,33.8956,-117.596,260,11,12.66,KAJO 080156Z AUTO 26011G17KT 10SM CLR 25/17 A2992 RMK AO2 SLP124 T02500172,2024-08-08T01:56:00Z,25,17.2,10+,29.92
KAIZ,38.1005,-92.5475,60,4,4.6,KAIZ 080156Z AUTO 06004KT 10SM CLR 22/17 A2992 RMK AO2 SLP124 T02170172 PNO $,2024-08-08T01:56:00Z,21.7,17.2,10+,29.92
KAFJ,40.1362,-80.2851,40,9,10.36,KAFJ 080156Z AUTO 04009KT 10SM CLR 23/21 A2993 RMK AO2 SLP127 T02280206,2024-08-08T01:56:00Z,22.8,20.6,10+,29.93
KADF,34.0953,-93.069,VRB,4,4.6,KADF 080156Z AUTO VRB04KT 10SM CLR 29/24 A2981 RMK AO2 SLP091 T02890239,2024-08-08T01:56:00Z,28.9,23.9,10+,29.81
K8D3,45.669,-96.9918,330,9,10.36,K8D3 080156Z AUTO 33009KT 18/17 A2998 RMK AO1 SLP143 T01830167,2024-08-08T01:56:00Z,18.3,16.7,,29.98
K79J,31.3061,-86.3902,0,0,0.0,K79J 080156Z AUTO 00000KT 10SM CLR 29/24 A2972 RMK AO2 SLP059 T02890239 TSNO,2024-08-08T01:56:00Z,28.9,23.9,10+,29.72
K2WX,45.6043,-103.547,,,,K2WX 080156Z AUTO A3017 RMK AO1 SLPNO,2024-08-08T01:56:00Z,,,,30.17
K1M4,34.2832,-87.5986,340,7,8.06,K1M4 080156Z AUTO 34007KT 10SM CLR 24/21 A2982 RMK AO2 SLP079 T02390206 $,2024-08-08T01:56:00Z,23.9,20.6,10+,29.82
CYKP,51.659,-85.901,170,3,3.45,CYKP 080156Z AUTO 17003KT 5SM -RA BR FEW026 OVC086 15/15 A2994 RMK PCPN 1.5MM PAST HR SLP139,2024-08-08T01:56:00Z,15,15,5,29.94
TXKF,32.364,-64.679,140,9,10.36,TXKF 080155Z 14009KT 9999 FEW022 28/24 Q1020 ,2024-08-08T01:55:00Z,28,24,6+,30.12
TNCE,17.497,-62.979,80,12,13.81,TNCE 080155Z AUTO 08012KT 050V110 //// // ///////// 28/24 Q1014 RE//,2024-08-08T01:55:00Z,28,24,,29.94
TNCB,12.133,-68.277,80,11,12.66,TNCB 080155Z AUTO 08011KT 9999 NCD 29/25 Q1011,2024-08-08T01:55:00Z,29,25,6+,29.85
TJPS,18.011,-66.567,0,0,0.0,TJPS 080155Z AUTO 00000KT 10SM CLR 27/24 A2993 RMK AO2 PWINO,2024-08-08T01:55:00Z,27,24,10+,29.93
RODN,26.356,127.768,110,8,9.21,RODN 080155Z 11008KT 10SM BKN021 32/27 A2966 RMK AO2A SLP044 T03170267 FZRANO $,2024-08-08T01:55:00Z,31.7,26.7,10+,29.66
RKSO,37.091,127.03,210,5,5.75,RKSO 080155Z 21005KT 7SM FEW020 SCT090 BKN120 29/24 A2968 RMK AO2A SLP054 T02860243 $,2024-08-08T01:55:00Z,28.6,24.3,7,29.68
RKJK,35.9,126.618,340,8,9.21,RKJK 080155Z 34008KT 6SM HZ FEW040 SCT050 BKN130 29/23 A2967 RMK AO2A SLP051 T02860230 $,2024-08-08T01:55:00Z,28.6,23,6,29.67
RJTY,35.749,139.349,100,3,3.45,RJTY 080155Z 10003KT 10SM FEW020 SCT028 BKN033 29/23 A2968 RMK AO2A SLP050 T02900229 FZRANO $,2024-08-08T01:55:00Z,29,22.9,10+,29.68
PWAK,19.287,166.623,120,8,9.21,PWAK 080155Z AUTO 12008KT 5SM HZ BKN019 BKN160 32/26 A2992 RMK AO2 CIG 019V160 BKN019 V SCT SLP134 T03230256,2024-08-08T01:55:00Z,32.3,25.6,5,29.92
PHSF,19.758,-155.557,260,12,13.81,PHSF 080155Z AUTO 26012KT 10SM CLR 23/15 A3035 RMK AO2 SLP152 T02270150 $,2024-08-08T01:55:00Z,22.7,15,10+,30.35
PHHI,21.478,-158.044,80,10,11.51,PHHI 080155Z AUTO 08010KT 10SM CLR 28/18 A3006 RMK AO2 SLP168 T02770178 $,2024-08-08T01:55:00Z,27.7,17.8,10+,30.06
PGUA,13.583,144.918,110,7,8.06,PGUA 080155Z AUTO 11007KT 10SM CLR 31/26 A2989 RMK AO2 SLP112 T03110259 $,2024-08-08T01:55:00Z,31.1,25.9,10+,29.89
PAWG,56.486,-132.377,310,4,4.6,PAWG 080155Z 31004KT 10SM CLR 22/11 A3016,2024-08-08T01:55:00Z,22,11,10+,30.16
PAUT,54.145,-165.604,330,6,6.9,PAUT 080155Z AUTO 33006KT 10SM BKN028 OVC033 09/09 A2988 RMK AO2,2024-08-08T01:55:00Z,9,9,10+,29.88
PATL,62.893,-155.977,VRB,5,5.75,PATL 080155Z AUTO VRB05KT 10SM FEW013 BKN034 BKN080 14/12 A2988 RMK AO2 SLP115 T01440123,2024-08-08T01:55:00Z,14.4,12.3,10+,29.88
PASY,52.711,174.107,190,10,11.51,PASY 080155Z 19010KT 10SM FEW012 BKN085 13/10 A2995 RMK AO2A SLP142 ALSTG/SLP ESTMD T01260101 PNO FZRANO $,2024-08-08T01:55:00Z,12.6,10.1,10+,29.95
PASV,61.101,-155.577,210,7,8.06,PASV 080155Z AUTO 21007KT 10SM OVC014 13/11 A2985 RMK AO2 SHRAB0001E0115 SLP104 T01260105,2024-08-08T01:55:00Z,12.6,10.5,10+,29.85
PALU,68.873,-166.101,100,7,8.06,PALU 080155Z AUTO 10007KT 10SM -SHRA OVC004 09/08 A2967 RMK AO2 RAB0103E0142DZB0105E0116SHRAB0142 SLP046 P0000 T00860082,2024-08-08T01:55:00Z,8.6,8.2,10+,29.67
PAIM,65.994,-153.695,260,2,2.3,PAIM 080155Z AUTO 26002KT 10SM BKN060 BKN080 16/14 A2985 RMK AO2 SLP103 P0001 T01640141,2024-08-08T01:55:00Z,16.4,14.1,10+,29.85
PAFR,61.263,-149.66,10,4,4.6,PAFR 080155Z AUTO 01004KT 6SM RA BR OVC005 16/15 A2995 RMK AO2 SLP144 P0015 T01570151 $,2024-08-08T01:55:00Z,15.7,15.1,6,29.95
PAFB,64.836,-147.614,0,0,0.0,PAFB 080155Z 00000KT 10SM SCT120 BKN200 27/10 A2980 RMK AO2A SLP095 T02660103,2024-08-08T01:55:00Z,26.6,10.3,10+,29.80
PAEI,64.654,-147.094,0,0,0.0,PAEI 080155Z 00000KT 10SM BKN120 BKN160 25/14 A2978 RMK AO2A SLP086 T02490140 $,2024-08-08T01:55:00Z,24.9,14,10+,29.78
PAEH,58.652,-162.062,360,12,13.81,PAEH 080155Z AUTO 36012KT 230V070 10SM BKN003 09/08 A2979 RMK AO2 SHRAB0113E0137 SLP091 T00860075,2024-08-08T01:55:00Z,8.6,7.5,10+,29.79
PAED,61.25,-149.837,20,3,3.45,PAED 080155Z 02003KT 10SM -RA BKN007 BKN020 OVC040 16/15 A2994 RMK AO2A SLP134 P0010 T01600145 $,2024-08-08T01:55:00Z,16,14.5,10+,29.94
PACZ,61.776,-166.043,220,3,3.45,PACZ 080155Z AUTO 22003KT 10SM -SHRA OVC018 09/08 A2969 RMK AO2 RAB0118E0151SHRAB0151 SLP057 P0000 T00870080,2024-08-08T01:55:00Z,8.7,8,10+,29.69
PAAD,70.136,-146.29,0,0,0.0,PAAD 080155Z AUTO 00000KT 10SM OVC110 16/11 A2974 RMK AO2 T01610106,2024-08-08T01:55:00Z,16.1,10.6,10+,29.74
OTBH,25.117,51.315,0,0,0.0,OTBH 080155Z 00000KT 9000 HZ CLR 31/18 A2943 Q0996 RMK AO2A SLP966 T03140180 FZRANO $,2024-08-08T01:55:00Z,31.4,18,5.59,29.41
OPLA,31.522,74.404,150,11,12.66,OPLA 080155Z 15011KT 4000 FU SCT100 27/25 Q1002 NOSIG RMK QFE977 A29.59,2024-08-08T01:55:00Z,27,25,2.49,29.59
OPFA,31.365,72.995,90,8,9.21,OPFA 080155Z 09008KT 2500 BR SCT040 BKN100 29/27 Q1002 TEMPO 31015G30KT 1500 TSRA FEW030CB,2024-08-08T01:55:00Z,29,27,1.55,29.59
OKAS,29.347,47.521,300,8,9.21,OKAS 080155Z AUTO 30008KT 9999 FEW240 34/06 A2950 RMK AO2 SLP983 T03410064 $,2024-08-08T01:55:00Z,34.1,6.4,6+,29.50
NZCM,-77.85,166.667,0,0,0.0,NZCM 080155Z AUTO 00000KT 9999 OVC075 M14/M19 A2977 RMK AO2 SLP088 T11401186 $,2024-08-08T01:55:00Z,-14,-18.6,6+,29.77
KZPH,28.2268,-82.1564,210,4,4.6,KZPH 080155Z AUTO 21004KT 10SM CLR 28/25 A2974 RMK A02 T02790248,2024-08-08T01:55:00Z,27.9,24.8,10+,29.74
KZER,40.7072,-76.371,100,15,17.26,KZER 080155Z AUTO 10015G19KT 1/2SM RA OVC002 15/15 A3005 RMK AO2,2024-08-08T01:55:00Z,15,15,0.5,30.05
KY63,45.9891,-95.9946,350,9,10.36,KY63 080155Z AUTO 35009KT 10SM SCT016 BKN029 OVC050 18/17 A2997 RMK AO2 T01800169,2024-08-08T01:55:00Z,18,16.9,10+,29.97
KY51,43.5814,-90.8997,0,0,0.0,KY51 080155Z AUTO 00000KT 10SM 21/16 A2997 RMK AO2 T02060157,2024-08-08T01:55:00Z,20.6,15.7,10+,29.97
KY49,47.1599,-94.6433,290,5,5.75,KY49 080155Z AUTO 29005KT 10SM BKN060 16/16 A2994 RMK AO2 T01550155,2024-08-08T01:55:00Z,15.5,15.5,10+,29.94
KY31,44.2434,-84.18,0,0,0.0,KY31 080155Z AUTO 00000KT 10SM CLR 13/12 A3000 RMK AO2 T01290117,2024-08-08T01:55:00Z,12.9,11.7,10+,30.00
KY23,45.311,-91.638,0,0,0.0,KY23 080155Z AUTO 00000KT 10SM -RA OVC100 19/18 A2995 RMK AO2 T01880176,2024-08-08T01:55:00Z,18.8,17.6,10+,29.95
KY19,46.7648,-100.894,330,8,9.21,KY19 080155Z AUTO 33008KT 10SM SCT110 16/12 A3012 RMK AO2,2024-08-08T01:55:00Z,16,12,10+,30.12
KXSA,37.8606,-76.9016,0,0,0.0,KXSA 080155Z AUTO 00000KT 10SM SCT012 25/25 A2989 RMK AO2 T02450245,2024-08-08T01:55:00Z,24.5,24.5,10+,29.89
KXNO,33.612,-81.07,340,10,11.51,KXNO 080155Z AUTO 34010KT 10SM -RA FEW007 FEW011 SCT024 OVC036 25/23 A2959 RMK AO2 RAE0056DZB0056E0057RAB0057 SLP020 P0000 T02490233 $,2024-08-08T01:55:00Z,24.9,23.3,10+,29.59
KXMR,28.4674,-80.5589,220,8,9.21,KXMR 080155Z AUTO 22008KT 10SM OVC210 30/25 A2967 RMK AO2 SLP050 T02980251 PWINO $,2024-08-08T01:55:00Z,29.8,25.1,10+,29.67
KXLL,40.5704,-75.4894,60,7,8.06,KXLL 080155Z AUTO 06007KT 7SM OVC007 18/17 A3005 RMK AO2,2024-08-08T01:55:00Z,18,17,7,30.05
KXIF,-99.99,-99.99,120,3,3.45,KXIF 080155Z AUTO 12003KT 5SM -RA BR OVC006 21/21 A2995 RMK AO2 SLP141 P0028 T02120207 $,2024-08-08T01:55:00Z,21.2,20.7,5,29.95
KX60,29.3524,-82.4743,240,5,5.75,KX60 080155Z AUTO 24005KT 10SM CLR 28/25 A2969 RMK AO2 LTG DSNT NE AND E T02770252,2024-08-08T01:55:00Z,27.7,25.2,10+,29.69
KX26,27.813,-80.497,200,8,9.21,KX26 080155Z AUTO 20008KT 10SM CLR 28/25 A2974 RMK AO2 T02830249,2024-08-08T01:55:00Z,28.3,24.9,10+,29.74
KX07,27.8934,-81.6167,230,6,6.9,KX07 080155Z AUTO 23006KT 28/27 A2974 RMK A01,2024-08-08T01:55:00Z,28,27,,29.74
KWYS,44.6811,-111.124,40,14,16.11,KWYS 080155Z AUTO 04014KT 10SM BKN090 BKN110 20/08 A3022 RMK AO2,2024-08-08T01:55:00Z,20,8,10+,30.22
KWRI,40.016,-74.591,60,9,10.36,KWRI 080155Z 06009KT 9SM OVC004 20/19 A3001 RMK AO2A TWR VIS 2 1/2 SLP161 T01970187 $,2024-08-08T01:55:00Z,19.7,18.7,9,30.01
KWRB,32.639,-83.593,0,0,0.0,KWRB 080155Z 00000KT 10SM FEW080 SCT100 28/24 A2966 RMK AO2A SLP043 T02830238,2024-08-08T01:55:00Z,28.3,23.8,10+,29.66
KWHP,34.2596,-118.415,0,0,0.0,KWHP 080155Z 00000KT 10SM SKC 27/16 A2995,2024-08-08T01:55:00Z,27,16,10+,29.95
KWDR,33.981,-83.667,0,0,0.0,KWDR 080155Z AUTO 00000KT 5SM +RA SCT019 BKN055 OVC110 26/22 A2976 RMK AO2,2024-08-08T01:55:00Z,26,22,5,29.76
KW99,38.9947,-79.1421,0,0,0.0,KW99 080155Z AUTO 00000KT 10SM SCT026 BKN033 OVC041 23/23 A2989 RMK AO2 T02340226,2024-08-08T01:55:00Z,23.4,22.6,10+,29.89
KW96,37.5027,-77.126,110,6,6.9,KW96 080155Z AUTO 11006KT 10SM BKN013 BKN017 24/23 A2987 RMK AO1 T02430229,2024-08-08T01:55:00Z,24.3,22.9,10+,29.87
KW81,37.1813,-78.0977,100,4,4.6,KW81 080155Z AUTO 10004KT 10SM OVC011 24/23 A2986 RMK AO1 T02400225,2024-08-08T01:55:00Z,24,22.5,10+,29.86
KW78,36.7087,-78.846,80,5,5.75,KW78 080155Z AUTO 08005KT 10SM SCT018 BKN025 SCT041 24/23 A2983 RMK AO1 T02440230,2024-08-08T01:55:00Z,24.4,23,10+,29.83
KW75,37.6024,-76.4477,150,5,5.75,KW75 080155Z AUTO 15005KT 10SM OVC010 A2989 RMK AO1,2024-08-08T01:55:00Z,,,10+,29.89
KW63,36.6008,-78.5559,60,5,5.75,KW63 080155Z AUTO 06005KT 10SM BKN013 BKN019 25/23 A2982 RMK AO1,2024-08-08T01:55:00Z,25,23,10+,29.82
KW31,36.9599,-78.1838,80,4,4.6,KW31 080155Z AUTO 08004KT 10SM BKN011 BKN021 OVC028 25/24 A2985 RMK AO1 T02500240,2024-08-08T01:55:00Z,25,24,10+,29.85
KW22,39.001,-80.2712,0,0,0.0,KW22 080155Z AUTO 00000KT 7SM OVC110 23/23 A2989 RMK AO2,2024-08-08T01:55:00Z,23,23,7,29.89
KW13,38.077,-78.944,120,5,5.75,KW13 080155Z AUTO 12005KT 10SM BKN011 BKN024 OVC100 24/22 A2992 RMK AO1 T02360221,2024-08-08T01:55:00Z,23.6,22.1,10+,29.92
KVYS,41.3517,-89.1496,10,4,4.6,KVYS 080155Z AUTO 01004KT 10SM CLR 19/15 A2993 RMK AO2 T01890149,2024-08-08T01:55:00Z,18.9,14.9,10+,29.93
KVWU,48.1502,-94.512,310,5,5.75,KVWU 080155Z AUTO 31005KT 10SM SCT070 19/14 A2991 RMK AO2,2024-08-08T01:55:00Z,19,14,10+,29.91
KVVV,45.2994,-96.4256,350,12,13.81,KVVV 080155Z AUTO 35012G17KT 10SM SCT014 SCT026 OVC035 18/17 A2996 RMK AO2,2024-08-08T01:55:00Z,18,17,10+,29.96
KVVS,39.9581,-79.6575,50,6,6.9,KVVS 080155Z AUTO 05006KT 10SM CLR 24/20 A2991 RMK AO2 T02390201,2024-08-08T01:55:00Z,23.9,20.1,10+,29.91
KVTI,42.2176,-92.0248,130,4,4.6,KVTI 080155Z AUTO 13004KT 10SM CLR 21/18 A2995 RMK AO2 T02070176,2024-08-08T01:55:00Z,20.7,17.6,10+,29.95
KVPS,30.483,-86.526,320,6,6.9,KVPS 080155Z AUTO 32006KT 10SM CLR 32/22 A2971 RMK AO2 SLP066 T03190220 $,2024-08-08T01:55:00Z,31.9,22,10+,29.71
KVPC,34.1158,-84.8507,280,3,3.45,KVPC 080155Z AUTO 28003KT 10SM CLR 28/22 A2973 RMK AO2,2024-08-08T01:55:00Z,28,22,10+,29.73
KVOK,43.938,-90.253,180,5,5.75,KVOK 080155Z 18005KT 10SM BKN050 BKN100 BKN150 22/16 A2993 RMK AO2A SLP136 T02170164,2024-08-08T01:55:00Z,21.7,16.4,10+,29.93
KVNC,27.0728,-82.44,260,10,11.51,KVNC 080155Z AUTO 26010G15KT 10SM SCT017 30/30 A2977 RMK AO2,2024-08-08T01:55:00Z,30,30,10+,29.77
KVLL,42.543,-83.178,40,8,9.21,KVLL 080155Z AUTO 04008KT 10SM CLR 21/14 A3000 RMK AO2 T02100142,2024-08-08T01:55:00Z,21,14.2,10+,30.00
KVKS,32.2359,-90.9269,30,6,6.9,KVKS 080155Z AUTO 03006KT 10SM CLR 31/27 A2976 RMK A01,2024-08-08T01:55:00Z,31,27,10+,29.76
KVJI,36.6871,-82.037,90,5,5.75,KVJI 080155Z AUTO 09005KT 10SM CLR 26/19 A2986 RMK AO2 T02550192,2024-08-08T01:55:00Z,25.5,19.2,10+,29.86
KVHN,31.0602,-104.783,80,3,3.45,KVHN 080155Z AUTO 08003KT 10SM CLR 34/09 A3000 RMK AO2 T03370089,2024-08-08T01:55:00Z,33.7,8.9,10+,30.00
KVGN,34.8494,-120.6,320,4,4.6,KVGN 080155Z AUTO 32004KT 5SM HZ CLR 17/14 A2995 RMK AO2 SLP144 T01720141,2024-08-08T01:55:00Z,17.2,14.1,5,29.95
KVGC,42.8444,-75.5637,0,0,0.0,KVGC 080155Z AUTO 00000KT 10SM OVC050 18/15 A3007 RMK AO2,2024-08-08T01:55:00Z,18,15,10+,30.07
KVES,40.2056,-84.5346,40,5,5.75,KVES 080155Z AUTO 04005KT 7SM OVC026 20/17 A2992 RMK AO2,2024-08-08T01:55:00Z,20,17,7,29.92
KVER,38.9496,-92.6842,60,3,3.45,KVER 080155Z AUTO 06003KT 10SM CLR 23/19 A2992 RMK AO2 T02340193 TSNO,2024-08-08T01:55:00Z,23.4,19.3,10+,29.92
KVDI,32.1933,-82.3642,330,4,4.6,KVDI 080155Z AUTO 33004KT 10SM SCT065 SCT080 28/23 A2965 RMK AO2,2024-08-08T01:55:00Z,28,23,10+,29.65
KVDF,28.0198,-82.3415,,,,KVDF 080155Z AUTO 10SM CLR 28/26 A2974 RMK AO2,2024-08-08T01:55:00Z,28,26,10+,29.74
KVCV,34.5933,-117.389,180,14,16.11,KVCV 080155Z AUTO 18014KT 10SM CLR 34/M02 A2998 RMK AO2,2024-08-08T01:55:00Z,34,-2,10+,29.98
KVBW,38.366,-78.968,0,0,0.0,KVBW 080155Z AUTO 00000KT 10SM SCT050 23/23 A2990 RMK AO1 P0001 T02300230,2024-08-08T01:55:00Z,23,23,10+,29.90
KVBG,34.733,-120.583,340,4,4.6,KVBG 080155Z AUTO 34004KT 9SM CLR 20/15 A2996 RMK AO2 SLP148 T01970151 TSNO $,2024-08-08T01:55:00Z,19.7,15.1,9,29.96
KVAF,27.3536,-94.6253,0,0,0.0,KVAF 080155Z AUTO 00000KT 10SM CLR 30/23 A2984 RMK A01,2024-08-08T01:55:00Z,30,23,10+,29.84
KVAD,30.979,-83.192,330,3,3.45,KVAD 080155Z AUTO 33003KT 10SM CLR 29/25 A2965 RMK AO2 SLP040 T02940247 $,2024-08-08T01:55:00Z,29.4,24.7,10+,29.65
KUYF,39.9312,-83.465,20,5,5.75,KUYF 080155Z AUTO 02005KT 10SM 21/20 A2991 RMK AO2,2024-08-08T01:55:00Z,21,20,10+,29.91
KUXL,30.135,-93.3767,230,4,4.6,KUXL 080155Z AUTO 23004KT 10SM SCT065 30/26 A2980 RMK AO2 T03010260,2024-08-08T01:55:00Z,30.1,26,10+,29.80
KUWL,39.8752,-85.3313,50,7,8.06,KUWL 080155Z AUTO 05007G12KT 10SM CLR 21/19 A2992 RMK A01,2024-08-08T01:55:00Z,21,19,10+,29.92
KUVA,29.2135,-99.743,120,5,5.75,KUVA 080155Z AUTO 12005KT 10SM CLR 35/16 A2978 RMK AO2 T03480162,2024-08-08T01:55:00Z,34.8,16.2,10+,29.78
KUUV,38.2335,-91.1609,50,3,3.45,KUUV 080155Z AUTO 05003KT 10SM OVC034 21/18 A2994 RMK AO2,2024-08-08T01:55:00Z,21,18,10+,29.94
KUTA,34.6766,-90.344,350,5,5.75,KUTA 080155Z AUTO 35005KT 10SM CLR 22/20 A2982 RMK AO2 T02160205 $,2024-08-08T01:55:00Z,21.6,20.5,10+,29.82
KUSE,41.6118,-84.1275,40,4,4.6,KUSE 080155Z AUTO 04004KT 10SM 19/16 A2995 RMK AO2,2024-08-08T01:55:00Z,19,16,10+,29.95
KUOX,34.3851,-89.5435,340,3,3.45,KUOX 080155Z AUTO 34003KT 10SM CLR 23/19 A2983 RMK AO2 PWINO,2024-08-08T01:55:00Z,23,19,10+,29.83
KUNU,43.4285,-88.7017,100,3,3.45,KUNU 080155Z AUTO 10003KT 10SM CLR 18/11 A2998 RMK AO2 T01800106,2024-08-08T01:55:00Z,18,10.6,10+,29.98
KUNI,39.2129,-82.2204,20,5,5.75,KUNI 080155Z AUTO 02005KT 10SM CLR 24/20 A2985 RMK AO2 T02430195,2024-08-08T01:55:00Z,24.3,19.5,10+,29.85
KUMP,39.936,-86.0478,50,6,6.9,KUMP 080155Z AUTO 05006KT 10SM CLR 22/19 A2992 RMK AO2 T02180186,2024-08-08T01:55:00Z,21.8,18.6,10+,29.92
KULS,37.6037,-101.377,120,10,11.51,KULS 080155Z AUTO 12010KT 10SM CLR 34/11 A2982 RMK AO2,2024-08-08T01:55:00Z,34,11,10+,29.82
KULM,44.3228,-94.5024,0,0,0.0,KULM 080155Z AUTO 00000KT 10SM -DZ OVC040 21/17 A2991 RMK AO2,2024-08-08T01:55:00Z,21,17,10+,29.91
KUKT,40.4368,-75.3802,VRB,4,4.6,KUKT 080155Z AUTO VRB04KT 2 1/2SM BR OVC006 18/18 A3004 RMK AO2,2024-08-08T01:55:00Z,18,18,2.5,30.04
KUKL,38.3041,-95.7217,90,5,5.75,KUKL 080155Z AUTO 09005KT 10SM CLR 24/18 A2988 RMK AO2 T02400178,2024-08-08T01:55:00Z,24,17.8,10+,29.88
KUES,43.0425,-88.2465,0,0,0.0,KUES 080155Z AUTO 00000KT 10SM CLR 16/11 A2999 RMK AO2,2024-08-08T01:55:00Z,16,11,10+,29.99
KUBE,45.5046,-91.978,230,4,4.6,KUBE 080155Z AUTO 23004KT 10SM -RA OVC090 19/17 A2996 RMK AO2 P0002,2024-08-08T01:55:00Z,19,17,10+,29.96
KU69,40.198,-110.387,90,9,10.36,KU69 080155Z AUTO 09009KT 10SM CLR 29/06 A3012 RMK A01,2024-08-08T01:55:00Z,29,6,10+,30.12
KU68,44.9113,-108.447,20,18,20.71,KU68 080155Z AUTO 02018G29KT 10SM SCT110 18/10 A3021 RMK AO2 LTG DSNT S,2024-08-08T01:55:00Z,18,10,10+,30.21
KU64,37.9333,-109.34,340,16,18.41,KU64 080155Z AUTO 34016G24KT 10SM BKN110 27/05 A3026 RMK AO2 LTG DSNT NE T02720053 $,2024-08-08T01:55:00Z,27.2,5.3,10+,30.26
KU52,38.232,-112.672,150,5,5.75,KU52 080155Z AUTO 15005KT 10SM FEW120 28/06 A3012 RMK AO2 PWINO,2024-08-08T01:55:00Z,28,6,10+,30.12
KU42,40.6196,-111.99,10,5,5.75,KU42 080155Z AUTO 01005KT 10SM CLR 33/M04 A3003 RMK AO1 T03291045,2024-08-08T01:55:00Z,32.9,-4.5,10+,30.03
KTYQ,40.0345,-86.2488,50,5,5.75,KTYQ 080155Z AUTO 05005KT 10SM CLR 20/18 A2993 RMK AO2 T01980180,2024-08-08T01:55:00Z,19.8,18,10+,29.93
KTYL,34.4577,-110.112,290,10,11.51,KTYL 080155Z AUTO 29010G15KT 10SM TS BKN095 25/09 A3023 RMK AO2 LTG DSNT E AND NW,2024-08-08T01:55:00Z,25,9,10+,30.23
KTXW,26.1824,-97.9742,150,9,10.36,KTXW 080155Z AUTO 15009KT 10SM CLR 31/22 A2978 RMK AO2 T03130224,2024-08-08T01:55:00Z,31.3,22.4,10+,29.78
KTWT,37.5432,-87.9568,330,4,4.6,KTWT 080155Z AUTO 33004KT 10SM OVC020 23/21 A2986 RMK AO2,2024-08-08T01:55:00Z,23,21,10+,29.86
KTWM,47.0192,-91.7447,250,6,6.9,KTWM 080155Z AUTO 25006KT 10SM -RA OVC042 15/15 A2992 RMK AO2,2024-08-08T01:55:00Z,15,15,10+,29.92
KTVY,40.6127,-112.354,0,0,0.0,KTVY 080155Z AUTO 00000KT 10SM CLR 32/00 A2999 RMK AO2,2024-08-08T01:55:00Z,32,0,10+,29.99
KTVK,40.6832,-92.8984,0,0,0.0,KTVK 080155Z AUTO 00000KT 20/18 A2995 RMK A01,2024-08-08T01:55:00Z,20,18,,29.95
KTVI,30.9026,-83.8826,300,3,3.45,KTVI 080155Z AUTO 30003KT 10SM CLR 28/23 A2969 RMK AO2,2024-08-08T01:55:00Z,28,23,10+,29.69
KTTS,28.5987,-80.6815,240,5,5.75,KTTS 080155Z AUTO 24005KT 10SM FEW190 SCT220 29/23 A2967 RMK AO2 SLP051 T02930232 CHINO RWY33 $,2024-08-08T01:55:00Z,29.3,23.2,10+,29.67
KTTF,41.9371,-83.4332,20,3,3.45,KTTF 080155Z AUTO 02003KT 10SM CLR 19/15 A2994 RMK AO2 T01890146,2024-08-08T01:55:00Z,18.9,14.6,10+,29.94
KTSP,35.1387,-118.442,300,11,12.66,KTSP 080155Z AUTO 30011G22KT 10SM CLR 32/03 A3009 RMK AO2,2024-08-08T01:55:00Z,32,3,10+,30.09
KTQV,36.007,-78.937,60,9,10.36,KTQV 080155Z AUTO 06009G17KT 6SM BR BKN011 BKN020 OVC042 24/23 A2979 RMK A01 P0001,2024-08-08T01:55:00Z,24,23,6,29.79
KTQH,35.9304,-95.0025,0,0,0.0,KTQH 080155Z AUTO 00000KT 10SM CLR 28/15 A2983 RMK AO2,2024-08-08T01:55:00Z,28,15,10+,29.83
KTPF,27.9153,-82.4518,250,3,3.45,KTPF 080155Z AUTO 25003KT 10SM SCT120 30/25 A2974 RMK AO2,2024-08-08T01:55:00Z,30,25,10+,29.74
KTOC,34.588,-83.2974,320,5,5.75,KTOC 080155Z AUTO 32005KT 10SM BKN100 OVC120 25/24 A2976 RMK AO2 T02480238,2024-08-08T01:55:00Z,24.8,23.8,10+,29.76
KTOB,44.0202,-92.8295,0,0,0.0,KTOB 080155Z AUTO 00000KT 10SM SCT080 BKN100 19/17 A2995 RMK AO2,2024-08-08T01:55:00Z,19,17,10+,29.95
KTNU,41.6701,-93.019,140,5,5.75,KTNU 080155Z AUTO 14005KT 10SM CLR 20/20 A2994 RMK A01,2024-08-08T01:55:00Z,20,20,10+,29.94
KTNB,36.1988,-81.6515,100,4,4.6,KTNB 080155Z AUTO 10004KT 10SM SCT019 SCT027 SCT038 21/21 A2977 RMK AO2 T02050205,2024-08-08T01:55:00Z,20.5,20.5,10+,29.77
KTMK,45.421,-123.814,280,5,5.75,KTMK 080155Z AUTO 28005KT 10SM CLR 19/19 A3002 RMK AO2,2024-08-08T01:55:00Z,19,19,10+,30.02
KTME,29.806,-95.903,0,0,0.0,KTME 080155Z AUTO 00000KT 10SM CLR 29/26 A2979 RMK AO2,2024-08-08T01:55:00Z,29,26,10+,29.79
KTMA,31.4229,-83.4859,290,3,3.45,KTMA 080155Z AUTO 29003KT 10SM CLR 29/25 A2968 RMK AO2 T02880246,2024-08-08T01:55:00Z,28.8,24.6,10+,29.68
KTKX,36.2226,-90.0367,330,6,6.9,KTKX 080155Z AUTO 33006KT 6SM HZ CLR 23/20 A2984 RMK AO2,2024-08-08T01:55:00Z,23,20,6,29.84
KTKV,45.469,-89.805,0,0,0.0,KTKV 080155Z AUTO 00000KT 10SM OVC110 17/15 A2997 RMK AO2 T01720146 PWINO,2024-08-08T01:55:00Z,17.2,14.6,10+,29.97
KTKC,44.25,-95.612,310,4,4.6,KTKC 080155Z AUTO 31004KT 10SM BKN023 BKN041 OVC060 20/20 A2993 RMK AO2,2024-08-08T01:55:00Z,20,20,10+,29.93
KTIP,40.291,-88.146,40,4,4.6,KTIP 080155Z AUTO 04004KT 10SM BKN049 22/19 A2992 RMK AO2 T02160185,2024-08-08T01:55:00Z,21.6,18.5,10+,29.92
KTIK,35.415,-97.386,110,7,8.06,KTIK 080155Z AUTO 11007KT 10SM CLR 31/21 A2977 RMK AO2 SLP067 T03140212,2024-08-08T01:55:00Z,31.4,21.2,10+,29.77
KTIF,41.9646,-100.569,20,16,18.41,KTIF 080155Z AUTO 02016G20KT 10SM SCT060 26/16 A3002 RMK AO2 LTG DSNT S THRU W T02550161,2024-08-08T01:55:00Z,25.5,16.1,10+,30.02
KTHA,35.3804,-86.2419,350,8,9.21,KTHA 080155Z AUTO 35008KT 10SM SCT013 SCT034 SCT042 24/22 A2979 RMK A01,2024-08-08T01:55:00Z,24,22,10+,29.79
KTGI,37.8279,-75.9964,120,12,13.81,KTGI 080155Z AUTO 12012G18KT 10SM SCT011 SCT120 25/24 A2989 RMK AO1 T02530237,2024-08-08T01:55:00Z,25.3,23.7,10+,29.89
KTFP,27.9132,-97.2132,180,8,9.21,KTFP 080155Z AUTO 18008KT 10SM CLR 30/25 A2977 RMK AO1 T02970250,2024-08-08T01:55:00Z,29.7,25,10+,29.77
KTEX,37.954,-107.909,130,4,4.6,KTEX 080155Z AUTO 13004KT 10SM SCT095 18/08 A3043 RMK AO2,2024-08-08T01:55:00Z,18,8,10+,30.43
KTEW,42.5636,-84.4222,0,0,0.0,KTEW 080155Z AUTO 00000KT 10SM CLR 18/12 A2998 RMK AO2 T01770122,2024-08-08T01:55:00Z,17.7,12.2,10+,29.98
KTCY,37.6919,-121.444,320,12,13.81,KTCY 080155Z AUTO 32012G20KT 10SM CLR 36/03 A2982 RMK A01,2024-08-08T01:55:00Z,36,3,10+,29.82
KTCM,47.149,-122.475,30,9,10.36,KTCM 080155Z AUTO 03009KT 10SM CLR 26/14 A3003 RMK AO2 SLP171 T02560138 $,2024-08-08T01:55:00Z,25.6,13.8,10+,30.03
KTBR,32.48,-81.738,330,6,6.9,KTBR 080155Z AUTO 33006KT 10SM CLR 26/22 A2961 RMK AO2 T02590223,2024-08-08T01:55:00Z,25.9,22.3,10+,29.61
KTBN,37.7445,-92.1447,0,0,0.0,KTBN 080155Z AUTO 00000KT 10SM CLR 22/17 A2990 RMK AO2 SLP119 T02160170,2024-08-08T01:55:00Z,21.6,17,10+,29.90
KTAZ,39.535,-89.3294,280,3,3.45,KTAZ 080155Z AUTO 28003KT 10SM BKN038 OVC050 22/20 A2991 RMK AO2 T02150202,2024-08-08T01:55:00Z,21.5,20.2,10+,29.91
KT89,29.2774,-103.691,110,6,6.9,KT89 080155Z AUTO 11006KT 10SM CLR 35/05 A2985 RMK A01,2024-08-08T01:55:00Z,35,5,10+,29.85
KT82,30.239,-98.904,110,3,3.45,KT82 080155Z AUTO 11003KT 10SM CLR 32/17 A2983 RMK AO2 T03240169,2024-08-08T01:55:00Z,32.4,16.9,10+,29.83
KT78,30.0754,-94.6996,0,0,0.0,KT78 080155Z AUTO 00000KT 2SM HZ BKN065 28/26 A2978 RMK AO2 VIS 1V5,2024-08-08T01:55:00Z,28,26,2,29.78
KT74,30.5704,-97.4447,120,6,6.9,KT74 080155Z AUTO 12006KT 10SM CLR 32/22 A2980 RMK AO2 T03160218,2024-08-08T01:55:00Z,31.6,21.8,10+,29.80
KT70,29.117,-100.473,80,6,6.9,KT70 080155Z AUTO 08006KT 9SM CLR 36/15 A2975 RMK AO2 SLP058 T03590150 $,2024-08-08T01:55:00Z,35.9,15,9,29.75
KT69,28.0418,-97.541,160,7,8.06,KT69 080155Z AUTO 16007KT 10SM CLR 30/26 A2978 RMK A01,2024-08-08T01:55:00Z,30,26,10+,29.78
KT41,29.6709,-95.0644,190,6,6.9,KT41 080155Z AUTO 19006KT 10SM SCT065 31/25 A2979 RMK AO2 T03070246,2024-08-08T01:55:00Z,30.7,24.6,10+,29.79
KT35,30.8789,-96.9704,0,0,0.0,KT35 080155Z AUTO 00000KT 10SM CLR 31/23 A2979 RMK AO2 T03120230,2024-08-08T01:55:00Z,31.2,23,10+,29.79
KT20,29.5301,-97.463,150,4,4.6,KT20 080155Z AUTO 15004KT 10SM CLR 32/22 A2977 RMK AO2 T03160221,2024-08-08T01:55:00Z,31.6,22.1,10+,29.77
KSZY,35.2064,-88.5012,0,0,0.0,KSZY 080155Z AUTO 00000KT 10SM CLR 22/19 A2980 RMK A01,2024-08-08T01:55:00Z,22,19,10+,29.80
KSZL,38.736,-93.55,60,5,5.75,KSZL 080155Z 06005KT 10SM CLR 23/17 A2988 RMK AO2A SLP115 T02340171 $,2024-08-08T01:55:00Z,23.4,17.1,10+,29.88
KSYN,44.474,-93.014,0,0,0.0,KSYN 080155Z AUTO 00000KT 10SM BKN080 OVC090 20/19 A2994 RMK AO2 T01980190,2024-08-08T01:55:00Z,19.8,19,10+,29.94
KSYM,38.2199,-83.5835,VRB,5,5.75,KSYM 080155Z AUTO VRB05KT 10SM OVC043 26/22 A2984 RMK AO2,2024-08-08T01:55:00Z,26,22,10+,29.84
KSYI,35.5594,-86.4406,330,6,6.9,KSYI 080155Z AUTO 33006KT 10SM OVC020 25/23 A2980 RMK A01,2024-08-08T01:55:00Z,25,23,10+,29.80
KSYF,39.7583,-101.793,30,12,13.81,KSYF 080155Z AUTO 03012KT 10SM CLR 29/16 A2998 RMK AO2 PRESRR,2024-08-08T01:55:00Z,29,16,10+,29.98
KSXS,31.364,-85.846,310,6,6.9,KSXS 080155Z AUTO 31006KT 9SM CLR 30/23 A2969 RMK AO2 SLP051 T03030232 $,2024-08-08T01:55:00Z,30.3,23.2,9,29.69
KSXK,42.9895,-96.1645,160,6,6.9,KSXK 080155Z AUTO 16006KT 10SM CLR 22/20 A2989 RMK AO2,2024-08-08T01:55:00Z,22,20,10+,29.89
KSWW,32.4688,-100.467,110,7,8.06,KSWW 080155Z AUTO 11007G14KT 10SM 36/06 A2988 RMK AO2 T03580063,2024-08-08T01:55:00Z,35.8,6.3,10+,29.88
KSVN,32.011,-81.131,320,12,13.81,KSVN 080155Z 32012KT 10SM -RA FEW020 SCT025 OVC030 26/24 A2954 RMK AO2A RAE0057DZB0057E0058RAB0058E00RAB47 SLP006 P0000 T02610239 $,2024-08-08T01:55:00Z,26.1,23.9,10+,29.54
KSVC,32.631,-108.147,330,6,6.9,KSVC 080155Z AUTO 33006KT 10SM CLR 24/12 A3013 RMK AO2 LTG DSNT SW T02410117,2024-08-08T01:55:00Z,24.1,11.7,10+,30.13
KSUZ,34.5862,-92.4802,80,4,4.6,KSUZ 080155Z AUTO 08004KT 10SM CLR 26/23 A2984 RMK A01,2024-08-08T01:55:00Z,26,23,10+,29.84
KSUW,46.6833,-92.0926,0,0,0.0,KSUW 080155Z AUTO 00000KT 10SM RA OVC042 15/15 A2993 RMK AO2 P0001 T01530147,2024-08-08T01:55:00Z,15.3,14.7,10+,29.93
KSUU,38.25,-121.938,240,14,16.11,KSUU 080155Z AUTO 24014KT 10SM CLR 27/08 A2983 RMK AO2 PK WND 25026/24 SLP107 T02690083 $,2024-08-08T01:55:00Z,26.9,8.3,10+,29.83
KSTK,40.6133,-103.261,170,4,4.6,KSTK 080155Z AUTO 17004KT 10SM VCTS CLR 21/16 A3000 RMK AO2 LTG DSNT NE S AND SW,2024-08-08T01:55:00Z,21,16,10+,30.00
KSTF,33.4326,-88.8506,VRB,3,3.45,KSTF 080155Z AUTO VRB03KT 10SM OVC030 27/23 A2976 RMK AO2,2024-08-08T01:55:00Z,27,23,10+,29.76
KSTE,44.5437,-89.5347,150,3,3.45,KSTE 080155Z AUTO 15003KT 10SM CLR 22/15 A2996 RMK AO2 T02150152,2024-08-08T01:55:00Z,21.5,15.2,10+,29.96
KSSI,31.1527,-81.3905,270,8,9.21,KSSI 080155Z AUTO 27008KT 10SM FEW047 SCT110 26/25 A2960 RMK AO2 LTG DSNT S AND SW,2024-08-08T01:55:00Z,26,25,10+,29.60
KSSC,33.978,-80.466,10,15,17.26,KSSC 080155Z 01015G21KT 10SM -RA SCT012 BKN020 OVC025 25/24 A2958 RMK AO2A SLP014 P0006 T02490235 $,2024-08-08T01:55:00Z,24.9,23.5,10+,29.58
KSRR,33.4667,-105.528,210,8,9.21,KSRR 080155Z AUTO 21008KT 10SM OVC110 26/07 A3023 RMK AO2,2024-08-08T01:55:00Z,26,7,10+,30.23
KSRE,35.271,-96.675,0,0,0.0,KSRE 080155Z AUTO 00000KT 10SM CLR 30/21 A2980 RMK AO2,2024-08-08T01:55:00Z,30,21,10+,29.80
KSPK,40.1497,-111.677,310,5,5.75,KSPK 080155Z AUTO 31005KT 1SM HZ CLR 28/15 A2999 RMK AO2,2024-08-08T01:55:00Z,28,15,1,29.99
KSPF,44.4811,-103.788,VRB,9,10.36,KSPF 080155Z AUTO 8.80000009G15KT 10SM OVC030 18/12 A3023 RMK AO2,2024-08-08T01:55:00Z,18,12,10+,30.23
KSPA,34.9106,-81.9589,40,9,10.36,KSPA 080155Z AUTO 04009G14KT 10SM SCT100 26/21 A2974 RMK AO2,2024-08-08T01:55:00Z,26,21,10+,29.74
KSOW,34.2686,-110.002,220,12,13.81,KSOW 080155Z AUTO 22012KT 10SM VCTS CLR 21/11 A3027 RMK AO2 LTG DSNT NW-E,2024-08-08T01:55:00Z,21,11,10+,30.27
KSOA,30.5853,-100.651,180,4,4.6,KSOA 080155Z AUTO 18004KT 10SM CLR 33/15 A2989 RMK AO2,2024-08-08T01:55:00Z,33,15,10+,29.89
KSNL,35.3611,-96.9445,110,6,6.9,KSNL 080155Z AUTO 11006KT 10SM CLR 34/17 A2981 RMK AO2 T03350171,2024-08-08T01:55:00Z,33.5,17.1,10+,29.81
KSNK,32.6917,-100.951,110,4,4.6,KSNK 080155Z AUTO 11004KT 10SM CLR 36/06 A2987 RMK AO2 T03630061,2024-08-08T01:55:00Z,36.3,6.1,10+,29.87
KSNC,41.383,-72.506,0,0,0.0,KSNC 080155Z AUTO 00000KT 10SM -DZ CLR 18/18 A3008 RMK AO2,2024-08-08T01:55:00Z,18,18,10+,30.08
KSMS,34.0003,-80.3582,360,10,11.51,KSMS 080155Z AUTO 36010KT 6SM BR SCT010 BKN014 OVC024 24/24 A2959 RMK AO2,2024-08-08T01:55:00Z,24,24,6,29.59
KSME,37.0529,-84.6141,360,3,3.45,KSME 080155Z AUTO 36003KT 10SM BKN120 27/24 A2978 RMK AO2,2024-08-08T01:55:00Z,27,24,10+,29.78
KSMD,41.144,-85.1492,0,0,0.0,KSMD 080155Z AUTO 00000KT 9SM OVC050 21/17 A2996 RMK A01,2024-08-08T01:55:00Z,21,17,9,29.96
KSLR,33.1615,-95.6189,190,4,4.6,KSLR 080155Z AUTO 19004KT 10SM CLR 32/21 A2980 RMK AO2 T03190210,2024-08-08T01:55:00Z,31.9,21,10+,29.80
KSLO,38.6446,-88.9612,0,0,0.0,KSLO 080155Z AUTO 00000KT 10SM OVC042 22/20 A2989 RMK AO2 T02230202,2024-08-08T01:55:00Z,22.3,20.2,10+,29.89
KSLI,33.796,-118.042,220,6,6.9,KSLI 080155Z 22006KT 7SM SCT012 BKN150 22/18 A2990 RMK AO2A SLP128 T02180176,2024-08-08T01:55:00Z,21.8,17.6,7,29.90
KSLB,42.5972,-95.2399,160,3,3.45,KSLB 080155Z AUTO 16003KT CLR 21/19 A2993 RMK AO2,2024-08-08T01:55:00Z,21,19,,29.93
KSKF,29.392,-98.581,130,13,14.96,KSKF 080155Z AUTO 13013KT 10SM CLR 35/19 A2974 RMK AO2 SLP061 T03510194 $,2024-08-08T01:55:00Z,35.1,19.4,10+,29.74
KSKA,47.612,-117.679,80,9,10.36,KSKA 080155Z 08009KT 10SM CLR 29/02 A3004 RMK AO2A SLP151 T02900015 $,2024-08-08T01:55:00Z,29,1.5,10+,30.04
KSJX,45.6928,-85.5662,0,0,0.0,KSJX 080155Z AUTO 00000KT 10SM CLR 17/15 A3000 RMK AO2 T01680146,2024-08-08T01:55:00Z,16.8,14.6,10+,30.00
KSJS,37.7489,-82.6413,50,3,3.45,KSJS 080155Z AUTO 05003KT 10SM CLR 25/21 A2982 RMK AO2 T02520214,2024-08-08T01:55:00Z,25.2,21.4,10+,29.82
KSIK,36.9027,-89.5577,10,8,9.21,KSIK 080155Z AUTO 01008KT 10SM OVC050 24/19 A2985 RMK AO2 T02360192,2024-08-08T01:55:00Z,23.6,19.2,10+,29.85
KSHM,38.8,-104.52,40,14,16.11,KSHM 080155Z AUTO 04014KT 10SM SCT120 BKN190 21/13 A3017 RMK AO2 LTG DSNT NE AND W SLPNO T02120131 $,2024-08-08T01:55:00Z,21.2,13.1,10+,30.17
KSHL,43.2082,-95.8354,150,4,4.6,KSHL 080155Z AUTO 15004KT 10SM SCT037 21/20 A2990 RMK AO2,2024-08-08T01:55:00Z,21,20,10+,29.90
KSHD,38.2601,-78.9013,,,,KSHD 080155Z AUTO 10SM BKN026 BKN030 BKN055 23/22 A2992 RMK AO2 T02250221,2024-08-08T01:55:00Z,22.5,22.1,10+,29.92
KSGS,44.8601,-93.0321,0,0,0.0,KSGS 080155Z AUTO 00000KT 10SM SCT039 BKN065 BKN080 22/15 A2992 RMK AO2 T02150146,2024-08-08T01:55:00Z,21.5,14.6,10+,29.92
KSFQ,36.6825,-76.6013,80,5,5.75,KSFQ 080155Z AUTO 08005KT 10SM -RA 25/24 A2985 RMK AO2 P0006 T02450243,2024-08-08T01:55:00Z,24.5,24.3,10+,29.85
KSEZ,34.8467,-111.788,170,9,10.36,KSEZ 080155Z AUTO 17009G14KT 10SM CLR 28/14 A3012 RMK AO2,2024-08-08T01:55:00Z,28,14,10+,30.12
KSEQ,29.566,-97.908,,,,KSEQ 080155Z AUTO M 10SM M 32/22 A2974 RMK AO2 SLP065 T03150222 $,2024-08-08T01:55:00Z,31.5,22.2,10+,29.74
KSEP,32.215,-98.1793,100,4,4.6,KSEP 080155Z AUTO 10004KT 10SM CLR 30/15 A2987 RMK AO2 T03020150,2024-08-08T01:55:00Z,30.2,15,10+,29.87
KSEF,27.4553,-81.3415,240,9,10.36,KSEF 080155Z AUTO 24009KT 10SM CLR 29/26 A2976 RMK AO2 T02870260,2024-08-08T01:55:00Z,28.7,26,10+,29.76
KSDC,43.2355,-77.1201,60,3,3.45,KSDC 080155Z AUTO 06003KT 10SM CLR 22/13 A3003 RMK AO2,2024-08-08T01:55:00Z,22,13,10+,30.03
KSDA,40.7533,-95.4112,0,0,0.0,KSDA 080155Z AUTO 00000KT 10SM CLR 23/21 A2989 RMK AO2,2024-08-08T01:55:00Z,23,21,10+,29.89
KSCX,36.4553,-84.584,0,0,0.0,KSCX 080155Z AUTO 00000KT 8SM FEW048 FEW055 FEW120 24/24 A2982 RMK A01,2024-08-08T01:55:00Z,24,24,8,29.82
KSCK,37.89,-121.226,290,9,10.36,KSCK 080155Z AUTO 29009KT 10SM CLR 35/10 A2982 RMK AO2 SLP098 T03500100,2024-08-08T01:55:00Z,35,10,10+,29.82
KSCD,33.1732,-86.2933,0,0,0.0,KSCD 080155Z AUTO 00000KT 10SM SCT070 BKN090 OVC110 28/24 A2974 RMK AO2 T02760242,2024-08-08T01:55:00Z,27.6,24.2,10+,29.74
KSBX,48.541,-111.871,80,5,5.75,KSBX 080155Z AUTO 08005KT 10SM CLR 17/10 A3033 RMK AO2 LTG DSNT NW,2024-08-08T01:55:00Z,17,10,10+,30.33
KSBO,32.6111,-82.3702,340,6,6.9,KSBO 080155Z AUTO 34006KT 10SM SCT120 27/22 A2966 RMK AO2,2024-08-08T01:55:00Z,27,22,10+,29.66
KSAZ,46.3785,-94.8017,350,6,6.9,KSAZ 080155Z AUTO 35006G14KT 4SM DZ SCT005 BKN013 OVC023 18/17 A2994 RMK AO2 P0005,2024-08-08T01:55:00Z,18,17,4,29.94
KSAR,38.1463,-89.7025,360,3,3.45,KSAR 080155Z AUTO 36003KT 10SM OVC029 22/20 A2991 RMK AO2 T02200196,2024-08-08T01:55:00Z,22,19.6,10+,29.91
KSAA,41.447,-106.815,360,5,5.75,KSAA 080155Z AUTO 36005KT 10SM CLR 26/00 A3018 RMK AO2,2024-08-08T01:55:00Z,26,0,10+,30.18
KS52,48.4282,-120.15,140,11,12.66,KS52 080155Z AUTO 14011KT 10SM SCT110 32/05 A2999 RMK AO2 T03190052,2024-08-08T01:55:00Z,31.9,5.2,10+,29.99
KS39,44.2858,-120.901,340,10,11.51,KS39 080155Z AUTO 34010KT 10SM CLR 30/M01 A3004 RMK AO2,2024-08-08T01:55:00Z,30,-1,10+,30.04
KS34,47.4718,-114.901,40,7,8.06,KS34 080155Z AUTO 04007G13KT 10SM CLR 25/12 A3010 RMK AO2 LTG DSNT N,2024-08-08T01:55:00Z,25,12,10+,30.10
KS33,44.6653,-121.157,350,7,8.06,KS33 080155Z AUTO 35007KT 10SM CLR 29/02 A3003 RMK AO2,2024-08-08T01:55:00Z,29,2,10+,30.03
KS32,47.424,-98.11,330,9,10.36,KS32 080155Z AUTO 33009KT 10SM 17/12 A3003 RMK AO2 TSNO,2024-08-08T01:55:00Z,17,12,10+,30.03
KS25,47.7954,-103.257,10,11,12.66,KS25 080155Z AUTO 01011KT 10SM CLR 17/05 A3018 RMK AO2,2024-08-08T01:55:00Z,17,5,10+,30.18
KS24,41.296,-83.037,60,7,8.06,KS24 080155Z AUTO 06007KT 10SM OVC044 22/19 A2992 RMK AO2 P0001,2024-08-08T01:55:00Z,22,19,10+,29.92
KS21,43.8801,-121.454,20,9,10.36,KS21 080155Z AUTO 02009KT 7SM CLR 26/02 A3014 RMK AO2,2024-08-08T01:55:00Z,26,2,7,30.14
KS12,44.6394,-123.058,VRB,3,3.45,KS12 080155Z VRB03KT 10SM CLR 30/13 A2993 RMK AO2 CAUTION: LG BIRDS IN VICINITY OF AIRPORT,2024-08-08T01:55:00Z,30,13,10+,29.93
KRZT,39.4402,-83.0209,30,5,5.75,KRZT 080155Z AUTO 03005KT 10SM CLR 22/18 A2988 RMK AO2 PWINO,2024-08-08T01:55:00Z,22,18,10+,29.88
KRZR,35.207,-84.8005,0,0,0.0,KRZR 080155Z AUTO 00000KT 10SM FEW120 25/24 A2973 RMK A01,2024-08-08T01:55:00Z,25,24,10+,29.73
KRZL,40.9488,-87.1851,360,4,4.6,KRZL 080155Z AUTO 36004KT 10SM BKN049 20/17 A2994 RMK AO2,2024-08-08T01:55:00Z,20,17,10+,29.94
KRYW,30.498,-97.969,110,5,5.75,KRYW 080155Z AUTO 11005KT CLR 32/21 A2985 RMK AO2 T03150207 PWINO,2024-08-08T01:55:00Z,31.5,20.7,,29.85
KRYM,46.0878,-94.353,0,0,0.0,KRYM 080155Z AUTO 00000KT 8SM BKN023 OVC030 17/16 A2991 RMK AO2 RAB12E21DZB21E34 SLP131 P0000 T01730160 $,2024-08-08T01:55:00Z,17.3,16,8,29.91
KRWV,30.5161,-96.7051,120,3,3.45,KRWV 080155Z AUTO 12003KT 10SM CLR 30/22 A2980 RMK AO2 T03030220,2024-08-08T01:55:00Z,30.3,22,10+,29.80
KRVL,40.6768,-77.6251,40,7,8.06,KRVL 080155Z AUTO 04007KT 8SM OVC009 20/19 A2999 RMK AO2,2024-08-08T01:55:00Z,20,19,8,29.99
KRVJ,32.059,-82.153,0,0,0.0,KRVJ 080155Z AUTO 00000KT 10SM SCT095 24/ A2963 RMK AO2 P0002 T0243////,2024-08-08T01:55:00Z,24.3,,10+,29.63
KRVF,45.534,-112.303,360,27,31.07,KRVF 080155Z AUTO 36027KT 10SM CLR 22/07 A3014 RMK AO2,2024-08-08T01:55:00Z,22,7,10+,30.14
KRTS,39.6658,-119.873,290,14,16.11,KRTS 080155Z AUTO 29014KT 10SM CLR 31/01 A3015 RMK AO2,2024-08-08T01:55:00Z,31,1,10+,30.15
KRSN,32.5159,-92.5899,0,0,0.0,KRSN 080155Z AUTO 00000KT 9SM 28/26 A2977 RMK AO2 T02760256 $,2024-08-08T01:55:00Z,27.6,25.6,9,29.77
KRRT,48.9318,-95.3405,290,5,5.75,KRRT 080155Z AUTO 29005KT 10SM BKN050 17/13 A2993 RMK AO2,2024-08-08T01:55:00Z,17,13,10+,29.93
KRQB,43.722,-85.498,0,0,0.0,KRQB 080155Z AUTO 00000KT 10SM CLR 18/13 A3000 RMK AO2 T01800131,2024-08-08T01:55:00Z,18,13.1,10+,30.00
KRPJ,41.8906,-89.0817,30,5,5.75,KRPJ 080155Z AUTO 03005KT 10SM CLR 18/12 A2997 RMK AO2 T01750120,2024-08-08T01:55:00Z,17.5,12,10+,29.97
KRPH,33.1096,-98.5537,120,5,5.75,KRPH 080155Z AUTO 12005KT 10SM CLR 34/16 A2979 RMK AO2 T03370157,2024-08-08T01:55:00Z,33.7,15.7,10+,29.79
KRPD,45.4186,-91.7764,200,4,4.6,KRPD 080155Z AUTO 20004KT 10SM -RA SCT050 OVC090 19/16 A2996 RMK AO2 T01870155,2024-08-08T01:55:00Z,18.7,15.5,10+,29.96
KROX,48.856,-95.6949,310,10,11.51,KROX 080155Z AUTO 31010KT 10SM CLR 16/11 A2994 RMK AO2,2024-08-08T01:55:00Z,16,11,10+,29.94
KROS,45.6962,-92.9543,0,0,0.0,KROS 080155Z AUTO 00000KT 10SM DZ SCT055 OVC080 16/14 A2994 RMK AO2 P0003 T01580140,2024-08-08T01:55:00Z,15.8,14,10+,29.94
KRNV,33.762,-90.759,10,5,5.75,KRNV 080155Z AUTO 01005KT 10SM CLR 23/21 A2981 RMK AO2 T02320212 $,2024-08-08T01:55:00Z,23.2,21.2,10+,29.81
KRNP,42.9937,-84.1347,0,0,0.0,KRNP 080155Z AUTO 00000KT 10SM CLR 17/13 A2999 RMK AO2 T01660134,2024-08-08T01:55:00Z,16.6,13.4,10+,29.99
KRNO,39.5077,-119.768,280,15,17.26,KRNO 080155Z 28015G24KT 10SM FEW100 FEW250 34/03 A3007 RMK AO2 PK WND 29027/0143 SLP118 T03390033,2024-08-08T01:55:00Z,33.9,3.3,10+,30.07
KRND,29.537,-98.268,150,9,10.36,KRND 080155Z AUTO 15009KT 10SM CLR 33/20 A2975 RMK AO2 SLP064 T03340198 $,2024-08-08T01:55:00Z,33.4,19.8,10+,29.75
KRNC,35.6991,-85.8402,340,5,5.75,KRNC 080155Z AUTO 34005KT 8SM 25/23 A2979 RMK A01,2024-08-08T01:55:00Z,25,23,8,29.79
KRMY,42.2524,-84.9526,0,0,0.0,KRMY 080155Z AUTO 00000KT 10SM CLR 17/14 A2998 RMK AO2 T01720135,2024-08-08T01:55:00Z,17.2,13.5,10+,29.98
KRMN,38.3941,-77.4523,110,5,5.75,KRMN 080155Z AUTO 11005KT 10SM BKN019 26/22 A2989 RMK AO2 T02580220,2024-08-08T01:55:00Z,25.8,22,10+,29.89
KRLD,46.3086,-119.306,40,5,5.75,KRLD 080155Z AUTO 04005KT 7SM CLR 35/08 A2992 RMK AO2 T03450079,2024-08-08T01:55:00Z,34.5,7.9,7,29.92
KRKR,35.0187,-94.6202,0,0,0.0,KRKR 080155Z AUTO 00000KT 10SM CLR 30/22 A2978 RMK AO2,2024-08-08T01:55:00Z,30,22,10+,29.78
KRIV,33.878,-117.244,310,7,8.06,KRIV 080155Z AUTO 31007KT 10SM CLR 30/09 A2995 RMK AO2 SLP126 T02970092,2024-08-08T01:55:00Z,29.7,9.2,10+,29.95
KRGK,44.5927,-92.4844,0,0,0.0,KRGK 080155Z AUTO 00000KT 10SM SCT046 BKN080 OVC090 21/18 A2993 RMK AO2,2024-08-08T01:55:00Z,21,18,10+,29.93
KRGA,37.6305,-84.329,330,3,3.45,KRGA 080155Z AUTO 33003KT 10SM OVC120 25/23 A2982 RMK AO2,2024-08-08T01:55:00Z,25,23,10+,29.82
KRFI,32.1441,-94.8539,0,0,0.0,KRFI 080155Z AUTO 00000KT 10SM CLR 29/22 A2980 RMK AO2 T02920224 PWINO,2024-08-08T01:55:00Z,29.2,22.4,10+,29.80
KREG,30.1756,-90.9397,0,0,0.0,KREG 080155Z AUTO 00000KT 10SM CLR 28/25 A2977 RMK AO2 T02840246,2024-08-08T01:55:00Z,28.4,24.6,10+,29.77
KRDR,47.9477,-97.4029,340,6,6.9,KRDR 080155Z AUTO 34006KT 10SM SCT180 16/09 A2997 RMK AO2 SLP154 T01610090 $,2024-08-08T01:55:00Z,16.1,9,10+,29.97
KRDK,41.0107,-95.2622,0,0,0.0,KRDK 080155Z AUTO 00000KT 10SM CLR 22/20 A2991 RMK AO2,2024-08-08T01:55:00Z,22,20,10+,29.91
KRCX,45.4935,-90.9985,190,4,4.6,KRCX 080155Z AUTO 19004KT 10SM OVC110 19/16 A2997 RMK AO2 T01880159,2024-08-08T01:55:00Z,18.8,15.9,10+,29.97
KRCV,37.7092,-106.355,330,10,11.51,KRCV 080155Z AUTO 33010KT 10SM VCTSRA SCT065 OVC090 15/13 A3040 RMK AO2 LTG DSNT SE W AND NW T01540125,2024-08-08T01:55:00Z,15.4,12.5,10+,30.40
KRCR,41.0651,-86.1864,0,0,0.0,KRCR 080155Z AUTO 00000KT 10SM OVC047 22/21 A2994 RMK AO2,2024-08-08T01:55:00Z,22,21,10+,29.94
KRCM,38.7855,-93.8058,40,3,3.45,KRCM 080155Z AUTO 04003KT 10SM CLR 23/17 A2990 RMK AO2,2024-08-08T01:55:00Z,23,17,10+,29.90
KRCA,44.155,-103.118,10,11,12.66,KRCA 080155Z 01011KT 10SM OVC037 22/13 A3013 RMK AO2A SLP180 T02210132,2024-08-08T01:55:00Z,22.1,13.2,10+,30.13
KRBW,32.921,-80.64,320,10,11.51,KRBW 080155Z AUTO 32010G17KT 7SM -DZ SCT008 BKN011 OVC023 23/23 A2952 RMK AO2,2024-08-08T01:55:00Z,23,23,7,29.52
KRBO,27.7781,-97.6878,150,10,11.51,KRBO 080155Z AUTO 15010KT 10SM CLR 30/26 A2979 RMK AO2 T02960260,2024-08-08T01:55:00Z,29.6,26,10+,29.79
KRAW,38.3484,-93.3436,80,4,4.6,KRAW 080155Z AUTO 08004KT 10SM CLR 23/17 A2992 RMK AO2,2024-08-08T01:55:00Z,23,17,10+,29.92
KRAS,27.8083,-97.0853,150,11,12.66,KRAS 080155Z AUTO 15011KT 10SM CLR 30/26 A2980 RMK AO2 T03000260,2024-08-08T01:55:00Z,30,26,10+,29.80
KQVF,-99.99,-99.99,210,14,16.11,KQVF 080155Z 21014G25KT 7SM CLR 35/02 A2988 RMK AO2A SLP059 WND DATA ESTMD ALSTG/SLP ESTMD,2024-08-08T01:55:00Z,35,2,7,29.88
KQRH,-99.99,-99.99,60,7,8.06,KQRH 080155Z AUTO 06007KT 9999 CLR 31/27 A2966 RMK AO2 SLP046 WND DATA ESTMD T03080266,2024-08-08T01:55:00Z,30.8,26.6,6+,29.66
KQHY,-99.99,-99.99,0,0,0.0,KQHY 080155Z AUTO 00000KT 10SM CLR 32/22 A2972 RMK AO2 SLP072 T03170221,2024-08-08T01:55:00Z,31.7,22.1,10+,29.72
KQDG,-99.99,-99.99,330,12,13.81,KQDG 080155Z AUTO 33012KT 9999 FEW021 FEW080 28/24 A2960 RMK AO2 SLP025 T02840239 $,2024-08-08T01:55:00Z,28.4,23.9,6+,29.60
KQD3,-99.99,-99.99,0,0,0.0,KQD3 080155Z 00000KT 9999 FEW140 32/24 A2975 RMK AO2A SLP059 WND DATA ESTMD T03160244,2024-08-08T01:55:00Z,31.6,24.4,6+,29.75
KQBL,-99.99,-99.99,0,0,0.0,KQBL 080155Z AUTO 00000KT 10SM CLR 31/21 A2973 RMK AO2 SLP073 WND DATA ESTMD T03120209,2024-08-08T01:55:00Z,31.2,20.9,10+,29.73
KPZZ,28.4344,-91.0344,270,12,13.81,KPZZ 080155Z AUTO 27012KT 10SM CLR 31/26 A2980 RMK A01,2024-08-08T01:55:00Z,31,26,10+,29.80
KPZQ,45.4085,-83.812,140,3,3.45,KPZQ 080155Z AUTO 14003KT 10SM CLR 18/11 A3001 RMK AO2 T01840113,2024-08-08T01:55:00Z,18.4,11.3,10+,30.01
KPYX,36.4103,-100.751,140,8,9.21,KPYX 080155Z AUTO 14008KT 10SM CLR A2985 RMK AO2,2024-08-08T01:55:00Z,,,10+,29.85
KPXE,32.5072,-83.7656,0,0,0.0,KPXE 080155Z AUTO 00000KT 10SM SCT060 SCT065 BKN075 27/25 A2969 RMK AO2 T02740252,2024-08-08T01:55:00Z,27.4,25.2,10+,29.69
KPWD,48.7912,-104.525,10,10,11.51,KPWD 080155Z AUTO 01010KT 10SM CLR 16/M00 A3021 RMK AO2,2024-08-08T01:55:00Z,16,0,10+,30.21
KPVJ,34.7041,-97.2211,0,0,0.0,KPVJ 080155Z AUTO 00000KT 10SM CLR 32/19 A2979 RMK AO2 T03170192,2024-08-08T01:55:00Z,31.7,19.2,10+,29.79
KPVE,35.6592,-88.1929,340,4,4.6,KPVE 080155Z AUTO 34004KT 10SM CLR 22/20 A2980 RMK A01,2024-08-08T01:55:00Z,22,20,10+,29.80
KPVB,42.6909,-90.4413,0,0,0.0,KPVB 080155Z AUTO 00000KT 10SM CLR 20/17 A2997 RMK AO1 T02020167,2024-08-08T01:55:00Z,20.2,16.7,10+,29.97
KPUJ,33.9085,-84.9369,320,7,8.06,KPUJ 080155Z AUTO 32007KT 7SM CLR 27/18 A2976 RMK AO2,2024-08-08T01:55:00Z,27,18,7,29.76
KPTT,37.7069,-98.7453,100,5,5.75,KPTT 080155Z AUTO 10005KT 10SM CLR 33/18 A2984 RMK AO2 LTG DSNT NW T03250176,2024-08-08T01:55:00Z,32.5,17.6,10+,29.84
KPTS,37.4512,-94.7322,100,4,4.6,KPTS 080155Z AUTO 10004KT 10SM CLR 26/18 A2986 RMK AO2 T02640177 PWINO,2024-08-08T01:55:00Z,26.4,17.7,10+,29.86
KPTD,44.6757,-74.9469,110,3,3.45,KPTD 080155Z AUTO 11003KT 10SM FEW035 FEW044 FEW049 16/13 A3006 RMK AO2,2024-08-08T01:55:00Z,16,13,10+,30.06
KPTB,37.1803,-77.5081,70,7,8.06,KPTB 080155Z AUTO 07007KT 10SM -RA OVC012 25/23 A2987 RMK AO2 T02470230,2024-08-08T01:55:00Z,24.7,23,10+,29.87
KPSO,37.291,-107.056,0,0,0.0,KPSO 080155Z AUTO 00000KT 10SM SCT100 SCT120 22/10 A3030 RMK AO2 LTG DSNT S T02190100,2024-08-08T01:55:00Z,21.9,10,10+,30.30
KPSN,31.7784,-95.7048,0,0,0.0,KPSN 080155Z AUTO 00000KT 9SM CLR 28/24 A2978 RMK AO2,2024-08-08T01:55:00Z,28,24,9,29.78
KPSM,43.0677,-70.8127,0,0,0.0,KPSM 080155Z 00000KT 10SM FEW100 17/15 A3007 RMK AO2A SLP185 T01690147,2024-08-08T01:55:00Z,16.9,14.7,10+,30.07
KPSK,37.1337,-80.6789,90,5,5.75,KPSK 080155Z AUTO 09005KT 10SM SCT020 23/20 A2991 RMK AO2 T02250203,2024-08-08T01:55:00Z,22.5,20.3,10+,29.91
KPRS,29.6346,-104.358,0,0,0.0,KPRS 080155Z AUTO 00000KT 10SM CLR 36/10 A2988 RMK AO2 T03600097,2024-08-08T01:55:00Z,36,9.7,10+,29.88
KPRG,39.6982,-87.6669,0,0,0.0,KPRG 080155Z AUTO 00000KT 10SM SCT050 21/19 A2991 RMK AO2 T02050185,2024-08-08T01:55:00Z,20.5,18.5,10+,29.91
KPPO,41.5705,-86.7333,50,3,3.45,KPPO 080155Z AUTO 05003KT 10SM BKN046 20/16 A2994 RMK AO2,2024-08-08T01:55:00Z,20,16,10+,29.94
KPOY,44.8641,-108.79,330,14,16.11,KPOY 080155Z AUTO 33014KT 10SM VCTS CLR 15/08 A3026 RMK AO2 LTG DSNT SE,2024-08-08T01:55:00Z,15,8,10+,30.26
KPOV,41.209,-81.2479,70,5,5.75,KPOV 080155Z AUTO 07005KT 10SM BKN027 OVC035 20/17 A2994 RMK AO2 T02020171 PWINO,2024-08-08T01:55:00Z,20.2,17.1,10+,29.94
KPOB,35.175,-79.008,40,14,16.11,KPOB 080155Z AUTO 04014KT 7SM RA BR FEW010 25/23 A2967 RMK AO2 SLP048 P0014 T02480232 $,2024-08-08T01:55:00Z,24.8,23.2,7,29.67
KPO1,48.134,-105.162,360,8,9.21,KPO1 080155Z AUTO 36008KT 10SM CLR 17/06 A3021 RMK AO2,2024-08-08T01:55:00Z,17,6,10+,30.21
KPNT,40.9233,-88.6213,70,4,4.6,KPNT 080155Z AUTO 07004KT 10SM CLR 19/18 A2993 RMK AO2 T01880183,2024-08-08T01:55:00Z,18.8,18.3,10+,29.93
KPNM,45.556,-93.608,0,0,0.0,KPNM 080155Z AUTO 00000KT 10SM OVC050 17/16 A2994 RMK AO2,2024-08-08T01:55:00Z,17,16,10+,29.94
KPNA,42.7929,-109.805,280,7,8.06,KPNA 080155Z AUTO 28007KT 10SM CLR 23/M03 A3026 RMK AO2,2024-08-08T01:55:00Z,23,-3,10+,30.26
KPMV,40.9446,-95.9124,0,0,0.0,KPMV 080155Z AUTO 00000KT 10SM SCT110 24/18 A2991 RMK AO2 T02390183,2024-08-08T01:55:00Z,23.9,18.3,10+,29.91
KPMU,34.3656,-89.8904,0,0,0.0,KPMU 080155Z AUTO 00000KT 10SM SCT035 23/19 A2981 RMK AO2,2024-08-08T01:55:00Z,23,19,10+,29.81
KPLU,47.1005,-122.285,0,0,0.0,KPLU 080155Z AUTO 00000KT 8SM CLR 26/14 A3004 RMK AO2,2024-08-08T01:55:00Z,26,14,8,30.04
KPLR,33.5608,-86.2463,0,0,0.0,KPLR 080155Z AUTO 00000KT 10SM BKN060 OVC070 27/27 A2973 RMK A01,2024-08-08T01:55:00Z,27,27,10+,29.73
KPLD,40.4532,-84.9848,40,4,4.6,KPLD 080155Z AUTO 04004KT 10SM OVC026 21/16 A2992 RMK AO2,2024-08-08T01:55:00Z,21,16,10+,29.92
KPJC,40.8009,-80.1624,60,5,5.75,KPJC 080155Z AUTO 06005KT 10SM BKN020 OVC030 22/18 A2993 RMK AO2,2024-08-08T01:55:00Z,22,18,10+,29.93
KPIM,32.8421,-84.8766,0,0,0.0,KPIM 080155Z AUTO 00000KT 10SM CLR 26/24 A2973 RMK AO2,2024-08-08T01:55:00Z,26,24,10+,29.73
KPHT,36.3322,-88.3871,340,6,6.9,KPHT 080155Z AUTO 34006KT 10SM SCT045 23/21 A2981 RMK A01,2024-08-08T01:55:00Z,23,21,10+,29.81
KPHP,44.051,-101.601,30,10,11.51,KPHP 080155Z AUTO 03010KT 10SM OVC080 22/12 A3009 RMK AO2 SLP171 T02170122,2024-08-08T01:55:00Z,21.7,12.2,10+,30.09
KPHN,42.9103,-82.5332,0,0,0.0,KPHN 080155Z AUTO 00000KT 10SM 17/16 A2998 RMK AO2,2024-08-08T01:55:00Z,17,16,10+,29.98
KPEZ,28.9561,-98.5184,160,10,11.51,KPEZ 080155Z AUTO 16010G14KT 10SM CLR 34/19 A2978 RMK AO2 T03440194,2024-08-08T01:55:00Z,34.4,19.4,10+,29.78
KPEX,45.3725,-94.7388,0,0,0.0,KPEX 080155Z AUTO 00000KT 10SM OVC022 18/16 A2993 RMK AO2,2024-08-08T01:55:00Z,18,16,10+,29.93
KPEQ,31.382,-103.512,150,4,4.6,KPEQ 080155Z AUTO 15004KT 10SM CLR 35/07 A2986 RMK AO2 T03500065,2024-08-08T01:55:00Z,35,6.5,10+,29.86
KPEA,41.3989,-92.9431,110,3,3.45,KPEA 080155Z AUTO 11003KT 5SM HZ CLR 22/17 A2994 RMK AO2 T02160170,2024-08-08T01:55:00Z,21.6,17,5,29.94
KPDC,43.0194,-91.1212,0,0,0.0,KPDC 080155Z AUTO 00000KT 10SM SCT003 SCT009 SCT120 22/16 A2995 RMK AO2 T02150162,2024-08-08T01:55:00Z,21.5,16.2,10+,29.95
KPCZ,44.3342,-89.0203,0,0,0.0,KPCZ 080155Z AUTO 00000KT 10SM CLR 20/17 A2996 RMK AO2 T02030171,2024-08-08T01:55:00Z,20.3,17.1,10+,29.96
KPCW,41.5188,-82.8692,90,15,17.26,KPCW 080155Z AUTO 09015KT 10SM FEW028 BKN037 OVC048 23/18 A2992 RMK AO2,2024-08-08T01:55:00Z,23,18,10+,29.92
KPCM,28.0013,-82.1593,230,4,4.6,KPCM 080155Z AUTO 23004KT 10SM CLR 30/26 A2976 RMK AO2,2024-08-08T01:55:00Z,30,26,10+,29.76
KPCD,37.8749,-89.8582,10,3,3.45,KPCD 080155Z AUTO 01003KT 10SM SCT027 OVC036 23/20 A2988 RMK AO2 T02280198,2024-08-08T01:55:00Z,22.8,19.8,10+,29.88
KPBX,37.5587,-82.5674,20,5,5.75,KPBX 080155Z AUTO 02005KT 10SM CLR 26/20 A2983 RMK AO2 T02570203,2024-08-08T01:55:00Z,25.7,20.3,10+,29.83
KPBH,45.7064,-90.4052,0,0,0.0,KPBH 080155Z AUTO 00000KT 10SM OVC120 17/16 A2996 RMK AO2 T01720161,2024-08-08T01:55:00Z,17.2,16.1,10+,29.96
KPAN,34.2551,-111.338,40,3,3.45,KPAN 080155Z AUTO 04003KT 10SM CLR 23/14 A3019 RMK AO2 PWINO TSNO,2024-08-08T01:55:00Z,23,14,10+,30.19
KPAM,30.071,-85.577,300,4,4.6,KPAM 080155Z 30004KT 10SM CLR 30/26 A2969 RMK AO2A SLP057 T03020259 $,2024-08-08T01:55:00Z,30.2,25.9,10+,29.69
KP58,44.0217,-82.7929,40,12,13.81,KP58 080155Z AUTO 04012KT 22/14 A2999 RMK AO1 SLP149 T02220144,2024-08-08T01:55:00Z,22.2,14.4,,29.99
KP52,34.7263,-112.034,VRB,4,4.6,KP52 080155Z AUTO VRB04G13KT 10SM CLR 32/14 A2999 RMK AO2 LTG DSNT N AND SW,2024-08-08T01:55:00Z,32,14,10+,29.99
KP08,32.9359,-111.427,0,0,0.0,KP08 080155Z AUTO 00000KT 10SM CLR 34/18 A2989 RMK AO2,2024-08-08T01:55:00Z,34,18,10+,29.89
KOZW,42.6327,-83.9854,0,0,0.0,KOZW 080155Z AUTO 00000KT 10SM CLR 19/13 A2999 RMK AO2 T01860132,2024-08-08T01:55:00Z,18.6,13.2,10+,29.99
KOZS,37.9745,-92.6897,80,3,3.45,KOZS 080155Z AUTO 08003KT 10SM CLR 21/16 A2992 RMK AO2,2024-08-08T01:55:00Z,21,16,10+,29.92
KOZR,31.2767,-85.7105,300,4,4.6,KOZR 080155Z AUTO 30004KT 10SM CLR 29/23 A2969 RMK AO2 SLP052 T02890231 $,2024-08-08T01:55:00Z,28.9,23.1,10+,29.69
KOZA,30.7312,-101.203,190,6,6.9,KOZA 080155Z AUTO 19006KT 10SM CLR 34/11 A2988 RMK AO2,2024-08-08T01:55:00Z,34,11,10+,29.88
KOYM,41.4118,-78.5131,90,7,8.06,KOYM 080155Z AUTO 09007KT 10SM OVC008 18/17 A3005 RMK AO2 PWINO,2024-08-08T01:55:00Z,18,17,10+,30.05
KOYE,28.8669,-90.4911,220,15,17.26,KOYE 080155Z AUTO 22015KT 10SM CLR 32/26 A2978 RMK A01,2024-08-08T01:55:00Z,32,26,10+,29.78
KOXV,41.2984,-93.1114,100,4,4.6,KOXV 080155Z AUTO 10004KT 10SM CLR 22/17 A2993 RMK AO2,2024-08-08T01:55:00Z,22,17,10+,29.93
KOXI,41.3275,-86.665,0,0,0.0,KOXI 080155Z AUTO 00000KT 10SM CLR 18/16 A2994 RMK AO1,2024-08-08T01:55:00Z,18,16,10+,29.94
KOWP,36.1721,-96.1536,80,3,3.45,KOWP 080155Z AUTO 08003KT 10SM CLR 32/16 A2984 RMK AO2 T03150157,2024-08-08T01:55:00Z,31.5,15.7,10+,29.84
KOWI,38.5409,-95.2542,80,5,5.75,KOWI 080155Z AUTO 08005KT 10SM CLR 24/20 A2987 RMK AO2 PWINO,2024-08-08T01:55:00Z,24,20,10+,29.87
KOSC,44.453,-83.396,0,0,0.0,KOSC 080155Z AUTO 00000KT 10SM CLR 16/11 A3001 RMK AO2 T01600114,2024-08-08T01:55:00Z,16,11.4,10+,30.01
KOSA,33.0936,-94.9601,210,3,3.45,KOSA 080155Z AUTO 21003KT 10SM CLR 29/25 A2977 RMK AO2 T02940249,2024-08-08T01:55:00Z,29.4,24.9,10+,29.77
KORS,48.7081,-122.909,0,0,0.0,KORS 080155Z AUTO 00000KT 10SM CLR 22/15 A3002 RMK AO2,2024-08-08T01:55:00Z,22,15,10+,30.02
KORK,34.833,-92.2557,40,10,11.51,KORK 080155Z AUTO 04010KT 10SM CLR M17/M20 A2985 RMK AO2,2024-08-08T01:55:00Z,-17,-20,10+,29.85
KORG,30.068,-93.8043,220,3,3.45,KORG 080155Z AUTO 22003KT 10SM CLR 30/24 A2980 RMK AO2 T02960238,2024-08-08T01:55:00Z,29.6,23.8,10+,29.80
KOQN,39.9889,-75.5803,80,6,6.9,KOQN 080155Z AUTO 08006KT 3SM BR OVC007 19/18 A3002 RMK AO2 P0001,2024-08-08T01:55:00Z,19,18,3,30.02
KOPN,32.954,-84.2595,0,0,0.0,KOPN 080155Z AUTO 00000KT 10SM CLR 28/17 A2972 RMK AO2,2024-08-08T01:55:00Z,28,17,10+,29.72
KOOA,41.2273,-92.4919,110,5,5.75,KOOA 080155Z AUTO 11005KT 5SM CLR 21/18 A2994 RMK AO2 T02100175,2024-08-08T01:55:00Z,21,17.5,5,29.94
KONZ,42.0991,-83.161,50,5,5.75,KONZ 080155Z AUTO 05005KT 10SM CLR 21/14 A2995 RMK AO2 T02070143,2024-08-08T01:55:00Z,20.7,14.3,10+,29.95
KONP,44.5825,-124.057,350,10,11.51,KONP 080155Z AUTO 35010G14KT 7SM OVC003 14/14 A3003 RMK AO2,2024-08-08T01:55:00Z,14,14,7,30.03
KONM,34.0263,-106.904,150,5,5.75,KONM 080155Z AUTO 15005KT 10SM CLR 32/05 A3001 RMK AO2 LTG DSNT NE AND NW T03240045,2024-08-08T01:55:00Z,32.4,4.5,10+,30.01
KONL,42.4691,-98.6903,20,10,11.51,KONL 080155Z AUTO 02010G17KT 10SM OVC075 24/19 A2998 RMK AO2 T02430185,2024-08-08T01:55:00Z,24.3,18.5,10+,29.98
KONA,44.076,-91.707,0,0,0.0,KONA 080155Z AUTO 00000KT 10SM BKN100 21/15 A2994 RMK AO2,2024-08-08T01:55:00Z,21,15,10+,29.94
KOMH,38.2487,-78.0454,0,0,0.0,KOMH 080155Z AUTO 00000KT 10SM SCT065 BKN110 23/23 A2990 RMK AO2,2024-08-08T01:55:00Z,23,23,10+,29.90
KOLZ,42.6831,-91.976,150,4,4.6,KOLZ 080155Z AUTO 15004KT 10SM CLR 20/19 A2996 RMK A01,2024-08-08T01:55:00Z,20,19,10+,29.96
KOLG,46.3153,-91.8183,20,3,3.45,KOLG 080155Z AUTO 02003KT 7SM SCT037 BKN047 OVC100 14/13 A2994 RMK AO1 P0009,2024-08-08T01:55:00Z,14,13,7,29.94
KOLE,42.2429,-78.3721,90,4,4.6,KOLE 080155Z AUTO 09004KT 10SM BKN035 OVC047 17/16 A3005 RMK AO2,2024-08-08T01:55:00Z,17,16,10+,30.05
KOKZ,32.9651,-82.8387,10,3,3.45,KOKZ 080155Z AUTO 01003KT 10SM CLR 28/23 A2968 RMK AO2 T02800227,2024-08-08T01:55:00Z,28,22.7,10+,29.68
KOKV,39.1406,-78.1391,0,0,0.0,KOKV 080155Z AUTO 00000KT 10SM BKN015 BKN025 OVC030 22/22 A2990 RMK AO2,2024-08-08T01:55:00Z,22,22,10+,29.90
KOKM,35.6713,-95.9514,0,0,0.0,KOKM 080155Z AUTO 00000KT 10SM CLR 29/18 A2981 RMK AO2 T02880178,2024-08-08T01:55:00Z,28.8,17.8,10+,29.81
KOJA,35.5484,-98.6702,170,9,10.36,KOJA 080155Z AUTO 17009KT 10SM CLR 35/16 A2982 RMK AO2 T03470159,2024-08-08T01:55:00Z,34.7,15.9,10+,29.82
KOIN,39.8298,-100.538,70,8,9.21,KOIN 080155Z AUTO 07008KT 10SM CLR 28/17 A2998 RMK AO1 T02800167,2024-08-08T01:55:00Z,28,16.7,10+,29.98
KOIC,42.5642,-75.5269,0,0,0.0,KOIC 080155Z AUTO 00000KT 10SM OVC055 18/16 A3009 RMK AO2 T01820161,2024-08-08T01:55:00Z,18.2,16.1,10+,30.09
KOGS,44.68,-75.4641,0,0,0.0,KOGS 080155Z AUTO 00000KT 10SM CLR 14/14 A3003 RMK AO2,2024-08-08T01:55:00Z,14,14,10+,30.03
KOGA,41.1164,-101.768,340,6,6.9,KOGA 080155Z AUTO 34006KT 10SM -RA SCT055 BKN120 25/19 A3001 RMK AO2 LTG DSNT ALQDS T02520193,2024-08-08T01:55:00Z,25.2,19.3,10+,30.01
KOFF,41.122,-95.91,80,4,4.6,KOFF 080155Z 08004KT 10SM FEW110 24/19 A2990 RMK AO2A SLP122 T02430185 $,2024-08-08T01:55:00Z,24.3,18.5,10+,29.90
KOEO,45.3108,-92.6948,0,0,0.0,KOEO 080155Z AUTO 00000KT 10SM SCT042 SCT048 OVC070 18/17 A2997 RMK AO2 P0003 T01820173 PWINO,2024-08-08T01:55:00Z,18.2,17.3,10+,29.97
KOEB,41.9308,-85.0544,30,1,1.15,KOEB 080155Z AUTO 03001KT 8SM CLR 17/15 A2997 RMK AO2,2024-08-08T01:55:00Z,17,15,8,29.97
KOCQ,44.8749,-87.9084,0,0,0.0,KOCQ 080155Z AUTO 00000KT 10SM CLR 19/14 A2995 RMK AO1 T01860137,2024-08-08T01:55:00Z,18.6,13.7,10+,29.95
KOBE,27.2663,-80.8487,220,6,6.9,KOBE 080155Z AUTO 22006KT 10SM CLR 28/25 A2974 RMK AO2,2024-08-08T01:55:00Z,28,25,10+,29.74
KOAR,36.6815,-121.757,290,8,9.21,KOAR 080155Z AUTO 29008KT 7SM OVC003 08/07 A2996 RMK AO2,2024-08-08T01:55:00Z,8,7,7,29.96
KO86,40.9845,-122.693,180,7,8.06,KO86 080155Z AUTO 18007KT 10SM CLR 36/M00 A2993 RMK A01,2024-08-08T01:55:00Z,36,0,10+,29.93
KO69,38.2601,-122.607,310,7,8.06,KO69 080155Z AUTO 31007G15KT 280V350 10SM CLR 17/11 A2992 RMK A01,2024-08-08T01:55:00Z,17,11,10+,29.92
KO54,40.746,-122.922,0,0,0.0,KO54 080155Z AUTO 00000KT 10SM CLR 35/02 A2992 RMK A01,2024-08-08T01:55:00Z,35,2,10+,29.92
KO32,36.6691,-119.453,290,5,5.75,KO32 080155Z AUTO 29005KT 9SM CLR 38/17 A2977 RMK AO2 T03790167 $,2024-08-08T01:55:00Z,37.9,16.7,9,29.77
KO22,38.03,-120.415,270,6,6.9,KO22 080155Z AUTO 27006KT 10SM CLR 36/M01 A2994 RMK A01,2024-08-08T01:55:00Z,36,-1,10+,29.94
KO05,40.2865,-121.243,180,10,11.51,KO05 080155Z AUTO 18010KT 10SM CLR 30/M11 A3013 RMK A01,2024-08-08T01:55:00Z,30,-11,10+,30.13
KNY0,42.999,-74.3292,140,4,4.6,KNY0 080155Z AUTO 14004KT 10SM CLR 17/15 A3007 RMK AO2 T01730147,2024-08-08T01:55:00Z,17.3,14.7,10+,30.07
KNUQ,37.4059,-122.049,330,7,8.06,KNUQ 080155Z AUTO 33007G13KT 9SM CLR 21/15 A2990 RMK AO2,2024-08-08T01:55:00Z,21,15,9,29.90
KNRN,39.8497,-99.8915,70,9,10.36,KNRN 080155Z AUTO 07009KT 10SM CLR 26/16 A2995 RMK AO2,2024-08-08T01:55:00Z,26,16,10+,29.95
KNBG,29.837,-90.024,260,3,3.45,KNBG 080155Z 26003KT 10SM FEW050 FEW250 29/24 A2976 RMK AO2 SLP077 T02890244 PNO $,2024-08-08T01:55:00Z,28.9,24.4,10+,29.76
KN79,40.8371,-76.546,80,6,6.9,KN79 080155Z AUTO 08006KT 10SM BKN012 19/18 A3001 RMK AO2 T01860181,2024-08-08T01:55:00Z,18.6,18.1,10+,30.01
KN38,41.7287,-77.3958,50,4,4.6,KN38 080155Z AUTO 05004KT 10SM SCT009 BKN012 OVC029 18/18 A3004 RMK AO2,2024-08-08T01:55:00Z,18,18,10+,30.04
KN03,42.5929,-76.2174,80,5,5.75,KN03 080155Z AUTO 08005KT 10SM OVC060 18/15 A3006 RMK AO2,2024-08-08T01:55:00Z,18,15,10+,30.06
KMZJ,32.5147,-111.335,0,0,0.0,KMZJ 080155Z AUTO 00000KT 10SM CLR 34/17 A2993 RMK AO2 LTG DSNT E-SW,2024-08-08T01:55:00Z,34,17,10+,29.93
KMZH,46.4163,-92.8049,0,0,0.0,KMZH 080155Z AUTO 00000KT 7SM -DZ OVC045 15/14 A2994 RMK AO2,2024-08-08T01:55:00Z,15,14,7,29.94
KMYP,38.4972,-106.32,240,6,6.9,KMYP 080155Z AUTO 24006KT 10SM SCT085 SCT120 10/03 A3077 RMK AO2,2024-08-08T01:55:00Z,10,3,10+,30.77
KMYJ,39.1561,-91.8129,0,0,0.0,KMYJ 080155Z AUTO 00000KT 10SM CLR 20/17 A2992 RMK AO2,2024-08-08T01:55:00Z,20,17,10+,29.92
KMXF,32.3877,-86.3724,250,3,3.45,KMXF 080155Z AUTO 25003KT 10SM FEW070 BKN090 OVC100 30/25 A2967 RMK AO2 RAE11DZB11E18DZB26E31 SLP047 P0000 T03030246,2024-08-08T01:55:00Z,30.3,24.6,10+,29.67
KMWO,39.5324,-84.3973,30,7,8.06,KMWO 080155Z AUTO 03007KT 10SM CLR 22/19 A2989 RMK AO2 T02230186,2024-08-08T01:55:00Z,22.3,18.6,10+,29.89
KMWM,43.91,-95.1073,0,0,0.0,KMWM 080155Z AUTO 00000KT 10SM SCT039 BKN046 BKN075 22/18 A2991 RMK AO2,2024-08-08T01:55:00Z,22,18,10+,29.91
KMWA,37.7544,-89.0118,360,4,4.6,KMWA 080155Z AUTO 36004KT 10SM SCT014 SCT020 OVC029 22/20 A2989 RMK AO2 T02170196,2024-08-08T01:55:00Z,21.7,19.6,10+,29.89
KMVH,46.838,-108.936,330,5,5.75,KMVH 080155Z AUTO 33005KT 10SM FEW009 BKN014 OVC019 12/10 A3032 RMK AO2,2024-08-08T01:55:00Z,12,10,10+,30.32
KMVE,44.9675,-95.7116,300,5,5.75,KMVE 080155Z AUTO 30005KT 10SM BKN010 BKN025 OVC035 20/19 A2993 RMK AO2,2024-08-08T01:55:00Z,20,19,10+,29.93
KMUT,41.367,-91.1406,0,0,0.0,KMUT 080155Z AUTO 00000KT 10SM CLR 20/20 A2995 RMK AO2,2024-08-08T01:55:00Z,20,20,10+,29.95
KMUI,40.4381,-76.5643,70,8,9.21,KMUI 080155Z 07008G15KT 7SM OVC008 19/17 A2999 RMK AO2A SLP156 T01910170,2024-08-08T01:55:00Z,19.1,17,7,29.99
KMTV,36.6272,-80.0134,60,3,3.45,KMTV 080155Z AUTO 06003KT 10SM BKN014 OVC055 24/22 A2987 RMK AO2 T02360216,2024-08-08T01:55:00Z,23.6,21.6,10+,29.87
KMTK,28.6967,-89.3958,300,12,13.81,KMTK 080155Z AUTO 30012KT 10SM CLR A2978 RMK A01,2024-08-08T01:55:00Z,,,10+,29.78
KMRT,40.2237,-83.3475,40,6,6.9,KMRT 080155Z AUTO 04006KT 10SM SCT025 SCT032 BKN037 21/19 A2991 RMK AO2 T02110185,2024-08-08T01:55:00Z,21.1,18.5,10+,29.91
KMRJ,42.8875,-90.2315,0,0,0.0,KMRJ 080155Z AUTO 00000KT 10SM CLR 21/13 A3000 RMK AO2 PWINO,2024-08-08T01:55:00Z,21,13,10+,30.00
KMQW,32.0942,-82.882,350,3,3.45,KMQW 080155Z AUTO 35003KT 10SM CLR 28/24 A2966 RMK AO2 T02780238,2024-08-08T01:55:00Z,27.8,23.8,10+,29.66
KMQS,39.9773,-75.8605,70,8,9.21,KMQS 080155Z AUTO 07008KT 2SM -RA BKN003 OVC007 19/19 A3002 RMK AO2 P0001,2024-08-08T01:55:00Z,19,19,2,30.02
KMQJ,39.8402,-85.894,40,7,8.06,KMQJ 080155Z AUTO 04007KT 10SM CLR 20/19 A2992 RMK AO2 T02050190 $,2024-08-08T01:55:00Z,20.5,19,10+,29.92
KMQB,40.5176,-90.6481,360,4,4.6,KMQB 080155Z AUTO 36004KT 10SM SCT043 20/18 A2996 RMK AO2 T01950183,2024-08-08T01:55:00Z,19.5,18.3,10+,29.96
KMPR,38.3491,-97.6883,70,9,10.36,KMPR 080155Z AUTO 07009KT 5SM HZ CLR 31/17 A2984 RMK AO2 T03140171,2024-08-08T01:55:00Z,31.4,17.1,5,29.84
KMOX,45.5677,-95.9659,350,13,14.96,KMOX 080155Z AUTO 35013G24KT 9SM SCT007 BKN011 OVC021 18/18 A2993 RMK AO2,2024-08-08T01:55:00Z,18,18,9,29.93
KMOR,36.1746,-83.3853,360,4,4.6,KMOR 080155Z AUTO 36004KT 10SM SCT050 27/24 A2977 RMK A01,2024-08-08T01:55:00Z,27,24,10+,29.77
KMOP,43.6229,-84.743,70,3,3.45,KMOP 080155Z AUTO 07003KT 10SM CLR 18/15 A2999 RMK AO2 T01750145,2024-08-08T01:55:00Z,17.5,14.5,10+,29.99
KMNZ,31.6697,-98.1462,0,0,0.0,KMNZ 080155Z AUTO 00000KT 10SM CLR 32/13 A2984 RMK AO2 T03210131 TSNO,2024-08-08T01:55:00Z,32.1,13.1,10+,29.84
KMNI,33.5882,-80.2059,20,13,14.96,KMNI 080155Z AUTO 02013G17KT 10SM BKN009 OVC013 23/23 A2952 RMK AO2 P0001,2024-08-08T01:55:00Z,23,23,10+,29.52
KMNH,39.2232,-104.642,40,5,5.75,KMNH 080155Z AUTO 04005KT 10SM CLR 17/11 A3030 RMK AO2 LTG DSNT E AND W,2024-08-08T01:55:00Z,17,11,10+,30.30
KMNE,32.6433,-93.2972,0,0,0.0,KMNE 080155Z AUTO 00000KT 10SM CLR 29/22 A2978 RMK AO2,2024-08-08T01:55:00Z,29,22,10+,29.78
KMMT,33.922,-80.802,350,10,11.51,KMMT 080155Z AUTO 35010KT 9SM RA BKN013 25/23 A2958 RMK AO2 CIG 013V027 BKN V SCT SLP017 P0006 T02470231 $,2024-08-08T01:55:00Z,24.7,23.1,9,29.58
KMMI,35.3952,-84.5612,340,7,8.06,KMMI 080155Z AUTO 34007KT 10SM BKN050 BKN065 28/22 A2977 RMK A01,2024-08-08T01:55:00Z,28,22,10+,29.77
KMMH,37.6253,-118.838,280,13,14.96,KMMH 080155Z AUTO 28013G21KT 10SM CLR 27/02 A3030 RMK AO2 T02740021,2024-08-08T01:55:00Z,27.4,2.1,10+,30.30
KMLJ,33.153,-83.242,0,0,0.0,KMLJ 080155Z AUTO 00000KT 10SM FEW065 29/25 A2967 RMK AO2,2024-08-08T01:55:00Z,29,25,10+,29.67
KMLE,41.1981,-96.1131,0,0,0.0,KMLE 080155Z AUTO 00000KT 10SM CLR 25/18 A2991 RMK AO2 T02480175,2024-08-08T01:55:00Z,24.8,17.5,10+,29.91
KMKS,33.1874,-80.0363,20,10,11.51,KMKS 080155Z AUTO 02010G20KT 7SM OVC007 25/24 A2944 RMK AO2 LTG DSNT E AND SE P0003,2024-08-08T01:55:00Z,25,24,7,29.44
KMKQ,27.5197,-90.0981,0,0,0.0,KMKQ 080155Z AUTO 00000KT 10SM CLR 30/25 A2981 RMK A01,2024-08-08T01:55:00Z,30,25,10+,29.81
KMKN,31.924,-98.5978,110,6,6.9,KMKN 080155Z AUTO 11006KT CLR 32/14 A2984 RMK AO2 T03170135 PWINO,2024-08-08T01:55:00Z,31.7,13.5,,29.84
KMKJ,36.8944,-81.3449,100,4,4.6,KMKJ 080155Z AUTO 10004KT 10SM SCT032 SCT042 23/20 A2994 RMK AO2 T02250200,2024-08-08T01:55:00Z,22.5,20,10+,29.94
KMKG,43.1711,-86.2368,0,0,0.0,KMKG 080155Z 00000KT 10SM BKN250 21/14 A2997 RMK AO2 SLP145 T02110144,2024-08-08T01:55:00Z,21.1,14.4,10+,29.97
KMJQ,43.6496,-94.9885,180,6,6.9,KMJQ 080155Z AUTO 18006KT 10SM BKN042 BKN048 22/17 A2992 RMK AO2,2024-08-08T01:55:00Z,22,17,10+,29.92
KMJD,30.494,-89.6535,0,0,0.0,KMJD 080155Z AUTO 00000KT 1/4SM FG VV002 28/26 A2975 RMK AO2,2024-08-08T01:55:00Z,28,26,0.25,29.75
KMIO,36.9128,-94.8893,60,5,5.75,KMIO 080155Z AUTO 06005KT 10SM CLR 28/18 A2984 RMK AO2 PWINO,2024-08-08T01:55:00Z,28,18,10+,29.84
KMIB,48.4062,-101.341,10,6,6.9,KMIB 080155Z 01006KT 10SM SCT050 15/07 A3011 RMK AO2A SLP203 T01490065,2024-08-08T01:55:00Z,14.9,6.5,10+,30.11
KMHR,38.56,-121.284,220,11,12.66,KMHR 080155Z AUTO 22011KT 10SM CLR 35/07 A2980 RMK A01,2024-08-08T01:55:00Z,35,7,10+,29.80
KMGR,31.0835,-83.8035,280,3,3.45,KMGR 080155Z AUTO 28003KT 9SM CLR 28/26 A2968 RMK AO2 T02760261 $,2024-08-08T01:55:00Z,27.6,26.1,9,29.68
KMGN,45.4241,-84.913,80,3,3.45,KMGN 080155Z AUTO 08003KT 10SM CLR 20/13 A2999 RMK AO2 T02060132,2024-08-08T01:55:00Z,20.6,13.2,10+,29.99
KMGG,45.2354,-93.9896,0,0,0.0,KMGG 080155Z AUTO 00000KT 10SM SCT032 SCT038 OVC044 18/17 A2994 RMK AO2 T01820165,2024-08-08T01:55:00Z,18.2,16.5,10+,29.94
KMGE,33.9189,-84.5266,340,5,5.75,KMGE 080155Z 34005KT 10SM CLR 30/20 A2972 RMK AO2A SLP050 T03020201 $,2024-08-08T01:55:00Z,30.2,20.1,10+,29.72
KMGC,41.7048,-86.8183,0,0,0.0,KMGC 080155Z AUTO 00000KT 10SM CLR 18/16 A2995 RMK AO2,2024-08-08T01:55:00Z,18,16,10+,29.95
KMFV,37.646,-75.763,90,5,5.75,KMFV 080155Z AUTO 09005KT 10SM CLR 22/20 A2990 RMK AO2 T02210203,2024-08-08T01:55:00Z,22.1,20.3,10+,29.90
KMEZ,34.5414,-94.1918,0,0,0.0,KMEZ 080155Z AUTO 00000KT 10SM CLR 28/21 A2982 RMK AO2 T02760212,2024-08-08T01:55:00Z,27.6,21.2,10+,29.82
KMEV,38.9963,-119.75,240,7,8.06,KMEV 080155Z AUTO 24007KT 10SM CLR 31/04 A3012 RMK AO2,2024-08-08T01:55:00Z,31,4,10+,30.12
KMDZ,45.1013,-90.3064,0,0,0.0,KMDZ 080155Z AUTO 00000KT 10SM OVC120 18/18 A2997 RMK AO2 T01830178 PWINO,2024-08-08T01:55:00Z,18.3,17.8,10+,29.97
KMDS,44.0141,-97.0817,350,7,8.06,KMDS 080155Z AUTO 35007KT 10SM FEW021 BKN120 20/20 A2996 RMK AO2 TSNO,2024-08-08T01:55:00Z,20,20,10+,29.96
KMDQ,34.866,-86.559,360,10,11.51,KMDQ 080155Z AUTO 36010KT 10SM OVC037 27/23 A2978 RMK A02 T02730231,2024-08-08T01:55:00Z,27.3,23.1,10+,29.78
KMDD,32.0359,-102.1,190,5,5.75,KMDD 080155Z AUTO 19005KT 10SM CLR 36/09 A2988 RMK AO2 T03580088,2024-08-08T01:55:00Z,35.8,8.8,10+,29.88
KMCX,40.7127,-86.7649,60,4,4.6,KMCX 080155Z AUTO 06004KT 10SM OVC050 21/17 A2992 RMK AO2 T02110173,2024-08-08T01:55:00Z,21.1,17.3,10+,29.92
KMCJ,29.7139,-95.3967,150,11,12.66,KMCJ 080155Z AUTO 15011G17KT OVC065 31/24 A2977 RMK A01,2024-08-08T01:55:00Z,31,24,,29.77
KMCF,27.8598,-82.5133,240,4,4.6,KMCF 080155Z AUTO 24004KT 10SM CLR 30/26 A2972 RMK AO2 SLP067 T02980259 FZRANO $,2024-08-08T01:55:00Z,29.8,25.9,10+,29.72
KMCD,45.866,-84.634,130,5,5.75,KMCD 080155Z AUTO 13005KT 10SM CLR 21/11 A3000 RMK AO2 T02050111,2024-08-08T01:55:00Z,20.5,11.1,10+,30.00
KMBY,39.464,-92.4244,70,5,5.75,KMBY 080155Z AUTO 07005KT 10SM CLR 21/16 A2993 RMK AO2,2024-08-08T01:55:00Z,21,16,10+,29.93
KMBT,35.8767,-86.3793,350,7,8.06,KMBT 080155Z AUTO 35007KT 9SM OVC026 26/23 A2978 RMK A01,2024-08-08T01:55:00Z,26,23,9,29.78
KMAW,36.5945,-89.9865,340,6,6.9,KMAW 080155Z AUTO 34006KT 10SM BKN029 23/20 A2987 RMK AO1,2024-08-08T01:55:00Z,23,20,10+,29.87
KMAO,34.1852,-79.3341,20,17,19.56,KMAO 080155Z AUTO 02017G24KT 2SM +RA 23/23 A2955 RMK AO2 LTG DSNT N AND NE P0002,2024-08-08T01:55:00Z,23,23,2,29.55
KMAN,43.582,-116.521,0,0,0.0,KMAN 080155Z AUTO 00000KT 9SM CLR 31/05 A2996 RMK A01,2024-08-08T01:55:00Z,31,5,9,29.96
KM91,36.5363,-86.919,330,4,4.6,KM91 080155Z AUTO 33004KT 10SM OVC043 24/22 A2981 RMK A01,2024-08-08T01:55:00Z,24,22,10+,29.81
KM75,48.3686,-107.919,250,4,4.6,KM75 080155Z AUTO 25004KT 2 1/2SM BR SCT034 BKN040 OVC070 13/13 A3026 RMK A01 P0014,2024-08-08T01:55:00Z,13,13,2.5,30.26
KM40,33.8755,-88.4872,340,5,5.75,KM40 080155Z AUTO 34005KT 10SM CLR 25/23 A2980 RMK AO2,2024-08-08T01:55:00Z,25,23,10+,29.80
KM30,37.1824,-88.7487,350,5,5.75,KM30 080155Z AUTO 35005KT 10SM SCT015 22/21 A2986 RMK AO2 T02150210,2024-08-08T01:55:00Z,21.5,21,10+,29.86
KM21,37.2291,-87.1542,340,6,6.9,KM21 080155Z AUTO 34006KT 10SM SCT029 23/21 A2983 RMK AO2 T02320211,2024-08-08T01:55:00Z,23.2,21.1,10+,29.83
KM08,35.2155,-89.0449,0,0,0.0,KM08 080155Z AUTO 00000KT 10SM CLR 22/20 A2980 RMK A01,2024-08-08T01:55:00Z,22,20,10+,29.80
KM02,36.1289,-87.4283,350,5,5.75,KM02 080155Z AUTO 35005KT 10SM FEW030 OVC040 23/21 A2982 RMK A01,2024-08-08T01:55:00Z,23,21,10+,29.82
KM01,35.2004,-90.0548,10,4,4.6,KM01 080155Z AUTO 01004KT 10SM CLR 23/21 A2981 RMK AO2 T02260209 $,2024-08-08T01:55:00Z,22.6,20.9,10+,29.81
KLYV,43.6217,-96.214,360,3,3.45,KLYV 080155Z AUTO 36003KT 10SM BKN030 OVC034 23/18 A2993 RMK AO2,2024-08-08T01:55:00Z,23,18,10+,29.93
KLYO,38.343,-98.2266,90,8,9.21,KLYO 080155Z AUTO 09008KT 10SM CLR 31/17 A2984 RMK AO2 T03080174,2024-08-08T01:55:00Z,30.8,17.4,10+,29.84
KLXY,31.6446,-96.5122,,,,KLXY 080155Z AUTO 10SM CLR 31/20 A2980 RMK AO2 T03060203 TSNO,2024-08-08T01:55:00Z,30.6,20.3,10+,29.80
KLXN,40.7915,-99.775,130,7,8.06,KLXN 080155Z AUTO 13007KT 10SM CLR 26/19 A2996 RMK AO2 LTG DSNT SW THRU NW T02610185,2024-08-08T01:55:00Z,26.1,18.5,10+,29.96
KLXL,45.9509,-94.3441,0,0,0.0,KLXL 080155Z AUTO 00000KT 10SM SCT035 BKN040 OVC070 16/16 A2992 RMK AO2,2024-08-08T01:55:00Z,16,16,10+,29.92
KLWB,37.8633,-80.3923,120,3,3.45,KLWB 080155Z AUTO 12003KT 10SM SCT032 SCT038 SCT046 25/20 A2993 RMK AO2 T02450198,2024-08-08T01:55:00Z,24.5,19.8,10+,29.93
KLWA,42.3476,-86.2578,0,0,0.0,KLWA 080155Z AUTO 00000KT 10SM CLR 17/17 A2996 RMK AO2 T01730169,2024-08-08T01:55:00Z,17.3,16.9,10+,29.96
KLVN,44.6252,-93.2273,0,0,0.0,KLVN 080155Z AUTO 00000KT 10SM OVC070 19/18 A2994 RMK AO2,2024-08-08T01:55:00Z,19,18,10+,29.94
KLVL,36.7723,-77.7925,30,3,3.45,KLVL 080155Z AUTO 03003KT 10SM SCT008 SCT011 BKN016 25/24 A2984 RMK AO1 P0001 T02500242,2024-08-08T01:55:00Z,25,24.2,10+,29.84
KLUX,34.508,-81.949,30,6,6.9,KLUX 080155Z AUTO 03006KT 10SM CLR 26/22 A2972 RMK AO2,2024-08-08T01:55:00Z,26,22,10+,29.72
KLUV,32.7481,-101.913,230,3,3.45,KLUV 080155Z AUTO 23003KT 10SM CLR 34/10 A2991 RMK AO2,2024-08-08T01:55:00Z,34,10,10+,29.91
KLUM,44.8936,-91.8665,0,0,0.0,KLUM 080155Z AUTO 00000KT 10SM BKN040 OVC049 21/15 A2996 RMK AO2 T02120146 PWINO,2024-08-08T01:55:00Z,21.2,14.6,10+,29.96
KLUL,31.6682,-89.1705,0,0,0.0,KLUL 080155Z AUTO 00000KT 10SM CLR 29/24 A2976 RMK A02 T02940236,2024-08-08T01:55:00Z,29.4,23.6,10+,29.76
KLUG,35.5082,-86.8055,340,5,5.75,KLUG 080155Z AUTO 34005KT 10SM FEW030 FEW040 OVC046 24/22 A2980 RMK A01,2024-08-08T01:55:00Z,24,22,10+,29.80
KLUF,33.538,-112.38,170,10,11.51,KLUF 080155Z 17010KT 10SM CLR 38/15 A2981 RMK AO2A SLP078 T03800145 $,2024-08-08T01:55:00Z,38,14.5,10+,29.81
KLUD,33.2568,-97.5826,0,0,0.0,KLUD 080155Z AUTO 00000KT 10SM CLR 35/16 A2982 RMK AO2 T03470157,2024-08-08T01:55:00Z,34.7,15.7,10+,29.82
KLUA,38.667,-78.501,0,0,0.0,KLUA 080155Z AUTO 00000KT 10SM 26/22 A2989 RMK AO2,2024-08-08T01:55:00Z,26,22,10+,29.89
KLTS,34.666,-99.27,140,10,11.51,KLTS 080155Z AUTO 14010KT 10SM CLR 34/12 A2978 RMK AO2 SLP061 T03430120 $,2024-08-08T01:55:00Z,34.3,12,10+,29.78
KLSV,36.236,-115.034,130,17,19.56,KLSV 080155Z AUTO 13017G22KT 10SM CLR 38/15 A2974 RMK AO2 SLP037 T03760154 $,2024-08-08T01:55:00Z,37.6,15.4,10+,29.74
KLSF,32.3239,-84.9826,0,0,0.0,KLSF 080155Z AUTO 00000KT 10SM CLR 26/23 A2966 RMK AO2 SLP046 T02590226 RVRNO FZRANO VISNO RWY33 $,2024-08-08T01:55:00Z,25.9,22.6,10+,29.66
KLRY,38.6074,-94.3453,90,3,3.45,KLRY 080155Z AUTO 09003KT 10SM CLR 25/17 A2992 RMK AO2,2024-08-08T01:55:00Z,25,17,10+,29.92
KLRU,32.2884,-106.913,250,8,9.21,KLRU 080155Z AUTO 25008KT 10SM CLR 34/08 A3002 RMK AO2 T03360084,2024-08-08T01:55:00Z,33.6,8.4,10+,30.02
KLRJ,42.7771,-96.195,180,3,3.45,KLRJ 080155Z AUTO 18003KT 10SM CLR 23/23 A2989 RMK AO2,2024-08-08T01:55:00Z,23,23,10+,29.89
KLQK,34.8069,-82.7047,60,4,4.6,KLQK 080155Z AUTO 06004KT 10SM CLR 28/24 A2975 RMK AO2 T02760235,2024-08-08T01:55:00Z,27.6,23.5,10+,29.75
KLOT,41.6031,-88.1017,50,5,5.75,KLOT 080155Z AUTO 05005KT 10SM CLR 20/17 A2995 RMK AO2,2024-08-08T01:55:00Z,20,17,10+,29.95
KLOR,31.36,-85.749,300,4,4.6,KLOR 080155Z AUTO 30004KT 10SM CLR 30/24 A2970 RMK AO2 SLP038 T03000236 $,2024-08-08T01:55:00Z,30,23.6,10+,29.70
KLNP,36.9884,-82.524,0,0,0.0,KLNP 080155Z AUTO 00000KT 10SM SCT047 SCT055 21/20 A2991 RMK AO2,2024-08-08T01:55:00Z,21,20,10+,29.91
KLNL,46.1515,-89.2108,0,0,0.0,KLNL 080155Z AUTO 00000KT 10SM SCT048 SCT070 OVC110 17/16 A2999 RMK AO2 P0001 T01650161,2024-08-08T01:55:00Z,16.5,16.1,10+,29.99
KLNC,32.5832,-96.7209,0,0,0.0,KLNC 080155Z AUTO 00000KT 10SM CLR 30/21 A2980 RMK AO2 T02960209,2024-08-08T01:55:00Z,29.6,20.9,10+,29.80
KLNA,26.5925,-80.0848,160,3,3.45,KLNA 080155Z AUTO 16003KT 10SM SCT044 OVC110 29/25 A2979 RMK AO2 T02870251,2024-08-08T01:55:00Z,28.7,25.1,10+,29.79
KLMS,33.15,-89.063,350,4,4.6,KLMS 080155Z AUTO 35004KT 10SM CLR 28/24 A2981 RMK AO2,2024-08-08T01:55:00Z,28,24,10+,29.81
KLMO,40.1612,-105.16,140,7,8.06,KLMO 080155Z AUTO 14007KT 10SM CLR 26/11 A3008 RMK AO2 T02590105,2024-08-08T01:55:00Z,25.9,10.5,10+,30.08
KLLN,33.556,-102.375,150,6,6.9,KLLN 080155Z AUTO 15006KT 10SM CLR 31/09 A2996 RMK AO2,2024-08-08T01:55:00Z,31,9,10+,29.96
KLLJ,44.523,-114.216,350,8,9.21,KLLJ 080155Z AUTO 35008KT 10SM CLR 26/03 A3006 RMK AO2 SLP114 T02610033,2024-08-08T01:55:00Z,26.1,3.3,10+,30.06
KLKU,38.0085,-77.9681,100,3,3.45,KLKU 080155Z AUTO 10003KT 10SM BKN120 25/23 A2989 RMK AO2 T02480230,2024-08-08T01:55:00Z,24.8,23,10+,29.89
KLKR,34.7266,-80.8532,30,7,8.06,KLKR 080155Z AUTO 03007G14KT 360V070 10SM BKN025 BKN030 BKN041 26/22 A2969 RMK AO2,2024-08-08T01:55:00Z,26,22,10+,29.69
KLJF,45.0948,-94.5084,150,3,3.45,KLJF 080155Z AUTO 15003KT 10SM RA SCT025 BKN031 OVC038 18/14 A2992 RMK AO2,2024-08-08T01:55:00Z,18,14,10+,29.92
KLHW,31.8872,-81.5625,310,9,10.36,KLHW 080155Z 31009KT 10SM SCT060 BKN080 26/23 A2955 RMK AO2A SLP009 T02640228 $,2024-08-08T01:55:00Z,26.4,22.8,10+,29.55
KLHM,38.9148,-121.352,190,7,8.06,KLHM 080155Z AUTO 19007KT 10SM CLR 37/M03 A2980 RMK AO1,2024-08-08T01:55:00Z,37,-3,10+,29.80
KLHB,30.8693,-96.6207,0,0,0.0,KLHB 080155Z AUTO 00000KT CLR 32/23 A2979 RMK AO2 T03170228 PWINO,2024-08-08T01:55:00Z,31.7,22.8,,29.79
KLGF,32.868,-114.393,250,9,10.36,KLGF 080155Z AUTO 25009KT 9SM CLR 39/18 A2977 RMK AO2 SLP076 T03880175 $,2024-08-08T01:55:00Z,38.8,17.5,9,29.77
KLGC,33.0093,-85.0717,0,0,0.0,KLGC 080155Z AUTO 00000KT 10SM CLR 26/23 A2973 RMK AO2 T02560230,2024-08-08T01:55:00Z,25.6,23,10+,29.73
KLFI,37.088,-76.349,90,13,14.96,KLFI 080155Z 09013KT 8SM -RA OVC015 24/23 A2986 RMK AO2A DZE01RAB01 SLP118 P0006 T02430229 $,2024-08-08T01:55:00Z,24.3,22.9,8,29.86
KLDM,43.9614,-86.4107,0,0,0.0,KLDM 080155Z AUTO 00000KT 10SM CLR 18/13 A2997 RMK AO2 T01780132,2024-08-08T01:55:00Z,17.8,13.2,10+,29.97
KLCQ,30.1838,-82.5684,260,4,4.6,KLCQ 080155Z AUTO 26004KT 10SM SCT085 27/25 A2967 RMK AO2 LTG DSNT E,2024-08-08T01:55:00Z,27,25,10+,29.67
KLCK,39.83,-82.919,40,6,6.9,KLCK 080155Z AUTO 04006KT 10SM CLR 22/19 A2987 RMK AO2 T02240191,2024-08-08T01:55:00Z,22.4,19.1,10+,29.87
KLCG,42.2423,-96.983,0,0,0.0,KLCG 080155Z AUTO 00000KT 10SM OVC110 24/21 A2991 RMK AO2 T02410213,2024-08-08T01:55:00Z,24.1,21.3,10+,29.91
KLBO,37.6449,-92.6544,80,5,5.75,KLBO 080155Z AUTO 08005KT 10SM CLR 22/18 A2993 RMK AO2,2024-08-08T01:55:00Z,22,18,10+,29.93
KLAM,35.8789,-106.262,30,16,18.41,KLAM 080155Z AUTO 03016G26KT 6SM TSRA SCT033 BKN090 21/11 A3025 RMK AO2 TSB0151 P0001 T02090115 $,2024-08-08T01:55:00Z,20.9,11.5,6,30.25
KL35,34.2626,-116.855,260,6,6.9,KL35 080155Z AUTO 26006KT 10SM CLR 23/07 A3030 RMK AO2,2024-08-08T01:55:00Z,23,7,10+,30.30
KL18,33.3551,-117.249,260,4,4.6,KL18 080155Z AUTO 26004KT 10SM CLR 22/18 A2996 RMK AO2,2024-08-08T01:55:00Z,22,18,10+,29.96
KL08,33.2604,-116.323,60,5,5.75,KL08 080155Z AUTO 06005KT 10SM CLR 39/15 A2977 RMK AO2,2024-08-08T01:55:00Z,39,15,10+,29.77
KKY8,37.953,-86.8592,0,0,0.0,KKY8 080155Z AUTO 00000KT 10SM FEW030 SCT036 SCT047 24/23 A2983 RMK A01,2024-08-08T01:55:00Z,24,23,10+,29.83
KKNB,37.0078,-112.53,0,0,0.0,KKNB 080155Z AUTO 00000G11KT 10SM CLR 31/13 A3011 RMK A01,2024-08-08T01:55:00Z,31,13,10+,30.11
KK88,37.8692,-95.384,80,6,6.9,KK88 080155Z AUTO 08006KT 9SM FEW044 26/18 A2986 RMK AO2,2024-08-08T01:55:00Z,26,18,9,29.86
KK83,39.9053,-95.7747,100,5,5.75,KK83 080155Z AUTO 10005KT 10SM CLR 23/17 A2993 RMK AO2 T02320169,2024-08-08T01:55:00Z,23.2,16.9,10+,29.93
KK82,39.7606,-98.7957,50,9,10.36,KK82 080155Z AUTO 05009KT 10SM CLR 26/17 A2989 RMK AO2 T02610174,2024-08-08T01:55:00Z,26.1,17.4,10+,29.89
KK70,25.322,-80.277,230,5,5.75,KK70 080155Z AUTO 23005G11KT 10SM OVC120 29/25 A2979 RMK AO2,2024-08-08T01:55:00Z,29,25,10+,29.79
KJZI,32.7025,-80.0058,320,5,5.75,KJZI 080155Z AUTO 32005G12KT OVC008 25/25 A2944 RMK AO2,2024-08-08T01:55:00Z,25,25,,29.44
KJYR,40.8942,-97.6258,100,3,3.45,KJYR 080155Z AUTO 10003KT 9SM CLR 22/18 A2992 RMK AO2,2024-08-08T01:55:00Z,22,18,9,29.92
KJYO,39.0826,-77.5605,70,3,3.45,KJYO 080155Z AUTO 07003KT 10SM VCTSRA SCT006 BKN021 OVC026 24/24 A2992 RMK AO2,2024-08-08T01:55:00Z,24,24,10+,29.92
KJYM,41.9197,-84.5853,30,2,2.3,KJYM 080155Z AUTO 03002KT 10SM CLR 16/14 A2998 RMK AO2,2024-08-08T01:55:00Z,16,14,10+,29.98
KJYL,32.6459,-81.5894,340,5,5.75,KJYL 080155Z AUTO 34005KT 27/25 A2961 RMK AO2 T02650253 PWINO,2024-08-08T01:55:00Z,26.5,25.3,,29.61
KJYG,43.9855,-94.5527,140,4,4.6,KJYG 080155Z AUTO 14004KT 10SM BKN042 OVC060 21/20 A2990 RMK AO2,2024-08-08T01:55:00Z,21,20,10+,29.90
KJXI,32.7036,-94.9471,0,0,0.0,KJXI 080155Z AUTO 00000KT 10SM CLR 31/21 A2978 RMK AO2 T03050211,2024-08-08T01:55:00Z,30.5,21.1,10+,29.78
KJWY,32.456,-96.914,170,4,4.6,KJWY 080155Z AUTO 17004KT 10SM CLR 31/19 A2981 RMK AO2 T03080192 TSNO $,2024-08-08T01:55:00Z,30.8,19.2,10+,29.81
KJWG,35.863,-98.423,140,9,10.36,KJWG 080155Z AUTO 14009KT 10SM CLR 35/16 A2983 RMK AO2 T03450163,2024-08-08T01:55:00Z,34.5,16.3,10+,29.83
KJVY,38.3692,-85.7366,20,8,9.21,KJVY 080155Z 02008G14KT 10SM BKN070 M40/ A2982 RMK AO2 TEMP/DEW PT/DENSITY ALT UNRELIABLE. RWY 18 PREFERRED CALM WIND,2024-08-08T01:55:00Z,-40,,10+,29.82
KJTC,34.1292,-109.309,10,10,11.51,KJTC 080155Z AUTO 01010KT 5SM VCTS RA FEW002 SCT017 BKN030 17/14 A3032 RMK AO2 LTG DSNT N AND NE AND S,2024-08-08T01:55:00Z,17,14,5,30.32
KJSY,45.3556,-117.254,340,4,4.6,KJSY 080155Z AUTO 34004KT 10SM CLR 27/01 A3012 RMK AO2 T02710011,2024-08-08T01:55:00Z,27.1,1.1,10+,30.12
KJSV,35.4381,-94.8012,50,4,4.6,KJSV 080155Z AUTO 05004KT 10SM CLR 32/17 A2978 RMK AO2,2024-08-08T01:55:00Z,32,17,10+,29.78
KJSO,31.869,-95.2145,210,3,3.45,KJSO 080155Z AUTO 21003KT 10SM CLR 29/22 A2983 RMK AO2 T02860220,2024-08-08T01:55:00Z,28.6,22,10+,29.83
KJRO,38.9861,-82.5756,360,4,4.6,KJRO 080155Z AUTO 36004KT 10SM CLR 25/21 A2984 RMK AO2,2024-08-08T01:55:00Z,25,21,10+,29.84
KJQF,35.3896,-80.7074,50,12,13.81,KJQF 080155Z 05012G26KT 10SM SCT075 26/22 A2978,2024-08-08T01:55:00Z,26,22,10+,29.78
KJPX,40.9605,-72.2511,70,3,3.45,KJPX 080155Z AUTO 07003KT 10SM OVC021 18/15 A3006 RMK AO2 P0001 T01820151,2024-08-08T01:55:00Z,18.2,15.1,10+,30.06
KJOT,41.5176,-88.179,70,6,6.9,KJOT 080155Z AUTO 07006KT 10SM CLR 21/15 A2994 RMK AO2 T02120148,2024-08-08T01:55:00Z,21.2,14.8,10+,29.94
KJMR,45.8885,-93.269,0,0,0.0,KJMR 080155Z AUTO 00000KT 10SM BKN060 OVC100 16/16 A2997 RMK AO2,2024-08-08T01:55:00Z,16,16,10+,29.97
KJKJ,46.8404,-96.6545,310,3,3.45,KJKJ 080155Z AUTO 31003KT 10SM SCT042 OVC060 17/16 A2998 RMK AO2,2024-08-08T01:55:00Z,17,16,10+,29.98
KJKA,30.291,-87.661,270,4,4.6,KJKA 080155Z AUTO 27004KT 10SM CLR 29/26 A2973 RMK AO2,2024-08-08T01:55:00Z,29,26,10+,29.73
KJHN,37.5782,-101.73,130,6,6.9,KJHN 080155Z AUTO 13006KT 10SM CLR 30/12 A2985 RMK AO2 LTG DSNT N AND W T03020118,2024-08-08T01:55:00Z,30.2,11.8,10+,29.85
KJGG,37.24,-76.718,90,5,5.75,KJGG 080155Z AUTO 09005KT 10SM SCT030 BKN041 OVC240 25/23 A2986 RMK AO2 T02480234 $,2024-08-08T01:55:00Z,24.8,23.4,10+,29.86
KJFZ,37.0634,-81.7969,130,6,6.9,KJFZ 080155Z AUTO 13006KT 10SM CLR 25/20 A2991 RMK AO2 T02510200,2024-08-08T01:55:00Z,25.1,20,10+,29.91
KJFX,33.9008,-87.3092,320,3,3.45,KJFX 080155Z AUTO 32003KT 10SM CLR 28/24 A2977 RMK AO2,2024-08-08T01:55:00Z,28,24,10+,29.77
KJCA,34.1739,-83.5583,50,8,9.21,KJCA 080155Z AUTO 05008KT 10SM BKN070 BKN080 OVC120 26/23 A2976 RMK AO2 T02560234,2024-08-08T01:55:00Z,25.6,23.4,10+,29.76
KJAS,30.8904,-94.0332,0,0,0.0,KJAS 080155Z AUTO 00000KT 8SM 27/24 RMK AO2,2024-08-08T01:55:00Z,27,24,8,
KJAQ,38.3742,-120.794,290,7,8.06,KJAQ 080155Z AUTO 29007KT 10SM CLR 35/05 A2994 RMK AO1 T03450050,2024-08-08T01:55:00Z,34.5,5,10+,29.94
KIZA,34.6059,-120.076,270,10,11.51,KIZA 080155Z AUTO 27010KT 10SM CLR 26/15 A2993 RMK AO2,2024-08-08T01:55:00Z,26,15,10+,29.93
KIYA,29.976,-92.0826,0,0,0.0,KIYA 080155Z AUTO 00000KT 10SM CLR 27/26 A2977 RMK AO2 T02750256 $,2024-08-08T01:55:00Z,27.5,25.6,10+,29.77
KIXA,36.331,-77.6333,70,3,3.45,KIXA 080155Z AUTO 07003KT 10SM -DZ OVC007 23/23 A2982 RMK AO2 P0002,2024-08-08T01:55:00Z,23,23,10+,29.82
KISQ,45.9729,-86.1728,0,0,0.0,KISQ 080155Z AUTO 00000KT 10SM CLR 17/15 A2997 RMK AO2 T01650145,2024-08-08T01:55:00Z,16.5,14.5,10+,29.97
KIRK,40.0966,-92.5469,70,4,4.6,KIRK 080155Z AUTO 07004KT 10SM CLR 21/17 A2994 RMK AO2 SLP136 T02110167,2024-08-08T01:55:00Z,21.1,16.7,10+,29.94
KIOB,38.0574,-83.9829,40,5,5.75,KIOB 080155Z AUTO 04005KT 10SM BKN110 26/22 A2985 RMK AO2 PWINO,2024-08-08T01:55:00Z,26,22,10+,29.85
KINS,36.586,-115.69,270,6,6.9,KINS 080155Z AUTO 27006KT 10SM CLR 38/06 A2989 RMK AO2 SLP059 T03830061,2024-08-08T01:55:00Z,38.3,6.1,10+,29.89
KINJ,32.0844,-97.0959,110,5,5.75,KINJ 080155Z AUTO 11005KT 10SM CLR 30/20 A2981 RMK AO2 T03030195,2024-08-08T01:55:00Z,30.3,19.5,10+,29.81
KINF,28.8062,-82.319,0,0,0.0,KINF 080155Z AUTO 00000KT 7SM CLR 27/26 A2971 RMK AO2,2024-08-08T01:55:00Z,27,26,7,29.71
KIMS,38.7515,-85.4689,20,3,3.45,KIMS 080155Z AUTO 02003KT 10SM CLR 23/21 A2988 RMK AO2,2024-08-08T01:55:00Z,23,21,10+,29.88
KIMM,26.4321,-81.4073,210,3,3.45,KIMM 080155Z AUTO 21003KT 10SM FEW029 FEW036 27/26 A2978 RMK AO2,2024-08-08T01:55:00Z,27,26,10+,29.78
KIKV,41.6878,-93.5695,0,0,0.0,KIKV 080155Z AUTO 00000KT CLR 21/17 A2994 RMK AO2,2024-08-08T01:55:00Z,21,17,,29.94
KIKK,41.0687,-87.8537,50,6,6.9,KIKK 080155Z AUTO 05006KT 10SM CLR 19/16 A2994 RMK AO2 T01870156,2024-08-08T01:55:00Z,18.7,15.6,10+,29.94
KIKG,27.5464,-98.0292,110,6,6.9,KIKG 080155Z AUTO 11006KT 7SM CLR 30/24 A2978 RMK AO2 T03000241,2024-08-08T01:55:00Z,30,24.1,7,29.78
KIJX,39.774,-90.2419,0,0,0.0,KIJX 080155Z AUTO 00000KT 10SM BKN048 20/20 A2993 RMK AO2 T02000197,2024-08-08T01:55:00Z,20,19.7,10+,29.93
KIIY,33.7797,-82.8135,30,4,4.6,KIIY 080155Z AUTO 03004KT 10SM CLR 27/23 A2970 RMK AO2 T02680225,2024-08-08T01:55:00Z,26.8,22.5,10+,29.70
KIIB,42.4544,-91.9504,130,5,5.75,KIIB 080155Z AUTO 13005KT 10SM CLR 19/17 A2997 RMK AO2 T01870171,2024-08-08T01:55:00Z,18.7,17.1,10+,29.97
KIGQ,41.5412,-87.5282,40,3,3.45,KIGQ 080155Z AUTO 04003KT 10SM CLR 21/17 A2995 RMK AO2 T02050174,2024-08-08T01:55:00Z,20.5,17.4,10+,29.95
KIFP,35.1487,-114.561,190,10,11.51,KIFP 080155Z AUTO 19010KT 10SM CLR 39/17 A2976 RMK AO2,2024-08-08T01:55:00Z,39,17,10+,29.76
KIFA,42.4691,-93.2651,150,4,4.6,KIFA 080155Z AUTO 15004KT 10SM CLR 20/17 A2996 RMK AO2 T02040171,2024-08-08T01:55:00Z,20.4,17.1,10+,29.96
KIER,31.736,-93.1003,0,0,0.0,KIER 080155Z AUTO 00000KT 10SM CLR 27/27 A2978 RMK AO2 T02700265,2024-08-08T01:55:00Z,27,26.5,10+,29.78
KIDP,37.1566,-95.7792,100,7,8.06,KIDP 080155Z AUTO 10007KT 10SM CLR 28/17 A2983 RMK AO2,2024-08-08T01:55:00Z,28,17,10+,29.83
KIDI,40.6337,-79.1036,100,7,8.06,KIDI 080155Z AUTO 10007KT 10SM OVC010 21/20 A2999 RMK A01,2024-08-08T01:55:00Z,21,20,10+,29.99
KICL,40.7242,-95.0222,0,0,0.0,KICL 080155Z AUTO 00000KT 10SM CLR 22/22 A2992 RMK AO2,2024-08-08T01:55:00Z,22,22,10+,29.92
KIBM,41.1894,-103.671,30,7,8.06,KIBM 080155Z AUTO 03007KT 10SM CLR 22/15 A3012 RMK AO2 LTG DSNT SE T02180149,2024-08-08T01:55:00Z,21.8,14.9,10+,30.12
KIAB,37.622,-97.268,130,8,9.21,KIAB 080155Z AUTO 13008KT 10SM CLR 32/17 A2982 RMK AO2 SLP085 T03150170,2024-08-08T01:55:00Z,31.5,17,10+,29.82
KI95,40.6142,-83.6374,40,7,8.06,KI95 080155Z AUTO 04007KT 10SM OVC030 21/20 A2990 RMK A01,2024-08-08T01:55:00Z,21,20,10+,29.90
KI75,41.0472,-93.6876,80,3,3.45,KI75 080155Z AUTO 08003KT 7SM CLR 22/17 A2994 RMK AO2 T02230167,2024-08-08T01:55:00Z,22.3,16.7,7,29.94
KI74,40.1314,-83.757,0,0,0.0,KI74 080155Z AUTO 00000KT 10SM SCT028 19/17 A2991 RMK AO2,2024-08-08T01:55:00Z,19,17,10+,29.91
KI68,39.4664,-84.2532,30,7,8.06,KI68 080155Z AUTO 03007KT 10SM CLR 23/23 A2987 RMK AO2,2024-08-08T01:55:00Z,23,23,10+,29.87
KI67,39.2565,-84.7753,30,6,6.9,KI67 080155Z AUTO 03006KT 10SM CLR 22/18 A2987 RMK AO1,2024-08-08T01:55:00Z,22,18,10+,29.87
KI63,39.9883,-90.8023,0,0,0.0,KI63 080155Z AUTO 00000KT 10SM BKN040 20/19 A2994 RMK AO2 T02010186,2024-08-08T01:55:00Z,20.1,18.6,10+,29.94
KI40,40.3101,-81.8544,0,0,0.0,KI40 080155Z AUTO 00000KT 10SM OVC024 22/19 A2991 RMK AO2,2024-08-08T01:55:00Z,22,19,10+,29.91
KI35,36.8577,-83.3586,0,0,0.0,KI35 080155Z AUTO 00000KT 10SM SCT055 27/23 A2983 RMK AO2 T02710228,2024-08-08T01:55:00Z,27.1,22.8,10+,29.83
KI23,39.5697,-83.4239,30,4,4.6,KI23 080155Z AUTO 03004KT 10SM SCT025 20/19 A2988 RMK AO1,2024-08-08T01:55:00Z,20,19,10+,29.88
KI16,37.5998,-81.5589,,,,KI16 080155Z AUTO 5SM BR BKN002 BKN045 OVC050 24/23 A2990 RMK AO2 T02360234,2024-08-08T01:55:00Z,23.6,23.4,5,29.90
KHZX,46.6189,-93.3128,160,3,3.45,KHZX 080155Z AUTO 16003KT 7SM SCT002 BKN036 OVC048 15/15 A2993 RMK AO2 P0006,2024-08-08T01:55:00Z,15,15,7,29.93
KHZR,30.718,-91.48,0,0,0.0,KHZR 080155Z AUTO 00000KT 10SM 28/25 A2979 RMK AO2 T02830247,2024-08-08T01:55:00Z,28.3,24.7,10+,29.79
KHZL,40.9845,-75.9901,100,4,4.6,KHZL 080155Z AUTO 10004KT OVC006 17/16 A3008 RMK AO2 P0001 PWINO,2024-08-08T01:55:00Z,17,16,,30.08
KHZE,47.288,-101.577,350,6,6.9,KHZE 080155Z AUTO 35006KT 10SM 17/08 A3015 RMK AO2,2024-08-08T01:55:00Z,17,8,10+,30.15
KHZD,36.089,-88.4654,0,0,0.0,KHZD 080155Z AUTO 00000KT 10SM CLR 23/21 A2980 RMK A01,2024-08-08T01:55:00Z,23,21,10+,29.80
KHYX,43.4319,-83.8648,60,3,3.45,KHYX 080155Z AUTO 06003KT 10SM CLR 18/15 A2999 RMK AO2,2024-08-08T01:55:00Z,18,15,10+,29.99
KHYW,33.8256,-79.1259,60,6,6.9,KHYW 080155Z AUTO 06006KT 7SM DZ SCT007 SCT012 25/25 A2949 RMK AO2 LTG DSNT N AND NE P0001,2024-08-08T01:55:00Z,25,25,7,29.49
KHXD,32.2263,-80.6949,330,12,13.81,KHXD 080155Z AUTO 33012G19KT 10SM FEW009 BKN014 BKN023 25/24 A2953 RMK AO2,2024-08-08T01:55:00Z,25,24,10+,29.53
KHWY,38.5876,-77.715,0,0,0.0,KHWY 080155Z AUTO 00000KT 10SM BKN014 BKN024 BKN050 26/24 A2990 RMK AO2 LTG DSNT NE T02560238,2024-08-08T01:55:00Z,25.6,23.8,10+,29.90
KHVS,34.4065,-80.1198,30,13,14.96,KHVS 080155Z AUTO 03013G20KT 4SM VCTS RA BKN023 BKN029 OVC035 24/23 A2961 RMK AO2 LTG DSNT NE AND E P0021,2024-08-08T01:55:00Z,24,23,4,29.61
KHVE,38.418,-110.704,240,6,6.9,KHVE 080155Z AUTO 24006KT 10SM CLR 35/03 A2997 RMK AO2,2024-08-08T01:55:00Z,35,3,10+,29.97
KHVC,36.8603,-87.4478,330,7,8.06,KHVC 080155Z AUTO 33007KT 10SM FEW027 SCT033 OVC045 23/23 A2983 RMK AO2,2024-08-08T01:55:00Z,23,23,10+,29.83
KHTH,38.5448,-118.631,330,6,6.9,KHTH 080155Z AUTO 33006KT 10SM CLR 35/M00 A3001 RMK A01,2024-08-08T01:55:00Z,35,0,10+,30.01
KHST,25.49,-80.379,210,6,6.9,KHST 080155Z AUTO 21006KT 10SM BKN120 29/25 A2979 RMK AO2 SLP091 T02860248,2024-08-08T01:55:00Z,28.6,24.8,10+,29.79
KHSP,37.9531,-79.8285,100,6,6.9,KHSP 080155Z AUTO 10006KT 1/4SM FG 21/21 A3002 RMK AO2 T02130211,2024-08-08T01:55:00Z,21.3,21.1,0.25,30.02
KHSE,35.2324,-75.6223,130,20,23.02,KHSE 080155Z AUTO 13020G33KT 1 3/4SM +RA BR BKN027 BKN039 BKN060 27/26 A2982 RMK AO2 PK WND 15033/0153 LTG DSNT NW RAB55 P0000 T02670261,2024-08-08T01:55:00Z,26.7,26.1,1.75,29.82
KHSB,37.8128,-88.5449,350,5,5.75,KHSB 080155Z AUTO 35005KT 10SM SCT014 OVC036 22/21 A2987 RMK AO2 T02200206,2024-08-08T01:55:00Z,22,20.6,10+,29.87
KHRX,34.8628,-102.32,190,5,5.75,KHRX 080155Z AUTO 19005KT 10SM CLR 31/02 A2996 RMK AO2 T03140018 TSNO,2024-08-08T01:55:00Z,31.4,1.8,10+,29.96
KHRT,30.428,-86.69,0,0,0.0,KHRT 080155Z 00000KT 10SM CLR 31/22 A2970 RMK AO2A SLP055 T03110218 $,2024-08-08T01:55:00Z,31.1,21.8,10+,29.70
KHRF,46.2575,-114.127,360,12,13.81,KHRF 080155Z AUTO 36012G19KT 10SM CLR 22/11 A3011 RMK AO2,2024-08-08T01:55:00Z,22,11,10+,30.11
KHQZ,32.7514,-96.5291,160,4,4.6,KHQZ 080155Z AUTO 16004KT 10SM CLR 32/20 A2979 RMK AO1 T03160197,2024-08-08T01:55:00Z,31.6,19.7,10+,29.79
KHQU,33.5279,-82.518,360,4,4.6,KHQU 080155Z AUTO 36004KT 10SM CLR A2968 RMK AO2,2024-08-08T01:55:00Z,,,10+,29.68
KHQG,37.1647,-101.371,180,6,6.9,KHQG 080155Z AUTO 18006KT 10SM CLR 29/14 A2984 RMK AO2,2024-08-08T01:55:00Z,29,14,10+,29.84
KHPT,42.7175,-93.2244,0,0,0.0,KHPT 080155Z AUTO 00000KT 10SM CLR 17/16 A2995 RMK AO2,2024-08-08T01:55:00Z,17,16,10+,29.95
KHOP,36.672,-87.495,350,10,11.51,KHOP 080155Z AUTO 35010KT 10SM CLR 24/21 A2981 RMK AO2 SLP092 T02350210 PWINO $,2024-08-08T01:55:00Z,23.5,21,10+,29.81
KHON,44.3792,-98.2227,360,17,19.56,KHON 080155Z AUTO 36017G25KT 10SM FEW020 BKN029 OVC037 20/16 A3001 RMK AO2 PK WND 35028/0132 SLP157 T02000161,2024-08-08T01:55:00Z,20,16.1,10+,30.01
KHOE,31.0561,-82.7726,270,3,3.45,KHOE 080155Z AUTO 27003KT 10SM SCT065 SCT075 BKN085 27/23 A2966 RMK AO2 LTG DSNT SE T02780240,2024-08-08T01:55:00Z,27.8,24,10+,29.66
KHOB,32.6797,-103.222,190,6,6.9,KHOB 080155Z AUTO 19006KT 10SM CLR 33/02 A2995 RMK AO2,2024-08-08T01:55:00Z,33,2,10+,29.95
KHNR,41.5841,-95.3358,0,0,0.0,KHNR 080155Z AUTO 00000KT 10SM CLR 21/19 A2992 RMK A01,2024-08-08T01:55:00Z,21,19,10+,29.92
KHMT,33.7303,-117.027,230,9,10.36,KHMT 080155Z AUTO 23009KT 10SM CLR 28/15 A2997 RMK AO2,2024-08-08T01:55:00Z,28,15,10+,29.97
KHMP,33.3916,-84.3312,330,3,3.45,KHMP 080155Z AUTO 33003KT 3 1/2SM HZ CLR 25/22 A2976 RMK AO2 T02500225,2024-08-08T01:55:00Z,25,22.5,3.5,29.76
KHMN,32.852,-106.108,220,5,5.75,KHMN 080155Z AUTO 22005KT 10SM CLR 35/06 A2998 RMK AO2 SLP062 T03510064 $,2024-08-08T01:55:00Z,35.1,6.4,10+,29.98
KHLX,36.7637,-80.8211,90,6,6.9,KHLX 080155Z AUTO 09006KT 10SM SCT070 BKN090 21/18 A2992 RMK AO2,2024-08-08T01:55:00Z,21,18,10+,29.92
KHLR,31.1361,-97.7149,130,9,10.36,KHLR 080155Z AUTO 13009KT 10SM CLR 34/21 A2979 RMK AO2 SLP074 T03360214,2024-08-08T01:55:00Z,33.6,21.4,10+,29.79
KHLB,39.3463,-85.2602,0,0,0.0,KHLB 080155Z AUTO 00000KT 10SM CLR 21/21 A2989 RMK A01,2024-08-08T01:55:00Z,21,21,10+,29.89
KHII,34.5659,-114.352,190,10,11.51,KHII 080155Z AUTO 19010KT 10SM CLR 39/19 A2977 RMK AO2,2024-08-08T01:55:00Z,39,19,10+,29.77
KHIF,41.111,-111.962,350,3,3.45,KHIF 080155Z 35003KT 10SM CLR 33/M06 A3001 RMK AO2A SLP084 T03301057,2024-08-08T01:55:00Z,33,-5.7,10+,30.01
KHHW,34.0308,-95.5401,300,4,4.6,KHHW 080155Z AUTO 30004KT 10SM CLR 33/18 A2977 RMK AO2,2024-08-08T01:55:00Z,33,18,10+,29.77
KHHG,40.8543,-85.4543,0,0,0.0,KHHG 080155Z AUTO 00000KT 10SM OVC047 21/18 A2995 RMK AO2 T02090178,2024-08-08T01:55:00Z,20.9,17.8,10+,29.95
KHHF,35.8929,-100.405,170,11,12.66,KHHF 080155Z AUTO 17011KT 10SM CLR 36/11 A2982 RMK AO2 T03640112,2024-08-08T01:55:00Z,36.4,11.2,10+,29.82
KHFJ,36.9105,-94.0099,50,3,3.45,KHFJ 080155Z AUTO 05003KT 10SM CLR 23/17 A2990 RMK AO2,2024-08-08T01:55:00Z,23,17,10+,29.90
KHFF,35.0424,-79.4973,60,12,13.81,KHFF 080155Z AUTO 06012G18KT 10SM -RA BKN018 OVC026 25/24 A2967 RMK AO2 LTG DSNT E-SE RAE23RAB39 CIG 018V025 SLP046 P0002 T02490235 $,2024-08-08T01:55:00Z,24.9,23.5,10+,29.67
KHEY,31.348,-85.655,320,4,4.6,KHEY 080155Z AUTO 32004KT 10SM CLR 29/24 A2967 RMK AO2 SLP045 T02900241,2024-08-08T01:55:00Z,29,24.1,10+,29.67
KHEQ,40.5715,-102.277,0,0,0.0,KHEQ 080155Z AUTO 00000KT 10SM VCTS CLR 25/18 A3004 RMK AO2 LTG DSNT ALQS,2024-08-08T01:55:00Z,25,18,10+,30.04
KHEG,30.2771,-81.8087,260,7,8.06,KHEG 080155Z AUTO 26007KT 10SM FEW060 OVC070 29/24 A2966 RMK AO2 TSNO,2024-08-08T01:55:00Z,29,24,10+,29.66
KHDE,40.4496,-99.3363,60,5,5.75,KHDE 080155Z AUTO 06005KT 10SM CLR 23/19 A2993 RMK AO2 LTG DSNT W T02310192,2024-08-08T01:55:00Z,23.1,19.2,10+,29.93
KHDC,30.5237,-90.4176,310,3,3.45,KHDC 080155Z AUTO 31003KT 10SM CLR 29/24 A2977 RMK AO2 T02920238,2024-08-08T01:55:00Z,29.2,23.8,10+,29.77
KHCR,40.4774,-111.433,10,7,8.06,KHCR 080155Z AUTO 01007KT 10SM CLR 30/01 A3009 RMK AO2 T02980013,2024-08-08T01:55:00Z,29.8,1.3,10+,30.09
KHCD,44.8597,-94.3855,0,0,0.0,KHCD 080155Z AUTO 00000KT 10SM OVC028 20/15 A2994 RMK AO2 T01960153 TSNO,2024-08-08T01:55:00Z,19.6,15.3,10+,29.94
KHAI,41.9591,-85.5933,0,0,0.0,KHAI 080155Z AUTO 00000KT 7SM +RA CLR 19/15 A2997 RMK AO2 T01850154,2024-08-08T01:55:00Z,18.5,15.4,7,29.97
KHAF,37.5136,-122.5,240,4,4.6,KHAF 080155Z AUTO 24004KT 4SM BR OVC005 14/14 A2997 RMK AO2,2024-08-08T01:55:00Z,14,14,4,29.97
KHAE,39.7262,-91.4425,0,0,0.0,KHAE 080155Z AUTO 00000KT 10SM CLR 20/17 A2993 RMK AO2,2024-08-08T01:55:00Z,20,17,10+,29.93
KGZS,35.1533,-87.0543,10,9,10.36,KGZS 080155Z AUTO 01009KT 10SM OVC039 26/24 A2978 RMK A01,2024-08-08T01:55:00Z,26,24,10+,29.78
KGZL,35.2913,-95.0956,0,0,0.0,KGZL 080155Z AUTO 00000KT 10SM CLR 31/19 A2988 RMK AO2,2024-08-08T01:55:00Z,31,19,10+,29.88
KGYL,44.7588,-94.0905,0,0,0.0,KGYL 080155Z AUTO 00000KT 7SM BKN031 OVC043 20/17 A2992 RMK AO2 T01970171,2024-08-08T01:55:00Z,19.7,17.1,7,29.92
KGYI,33.7231,-96.6714,0,0,0.0,KGYI 080155Z AUTO 00000KT 10SM CLR 32/20 A2981 RMK AO2 T03220203 TSNO,2024-08-08T01:55:00Z,32.2,20.3,10+,29.81
KGYH,34.763,-82.375,60,13,14.96,KGYH 080155Z AUTO 06013G20KT 10SM CLR 27/21 A2975 RMK AO2,2024-08-08T01:55:00Z,27,21,10+,29.75
KGYF,26.1292,-94.8981,210,3,3.45,KGYF 080155Z AUTO 21003KT 10SM CLR 31/24 A2982 RMK AO2 T03120244,2024-08-08T01:55:00Z,31.2,24.4,10+,29.82
KGXF,32.885,-112.721,320,6,6.9,KGXF 080155Z AUTO 32006KT 10SM CLR 38/17 A2982 RMK AO2 SLP082 T03790173 FZRANO $,2024-08-08T01:55:00Z,37.9,17.3,10+,29.82
KGXA,34.565,-117.669,260,13,14.96,KGXA 080155Z AUTO 26013G21KT 10SM CLR 34/04 A2992 RMK AO2 SLP091 WND DATA ESTMD T03440039,2024-08-08T01:55:00Z,34.4,3.9,10+,29.92
KGWR,46.2185,-97.6396,320,5,5.75,KGWR 080155Z AUTO 32005KT 10SM OVC050 17/17 A3002 RMK A01,2024-08-08T01:55:00Z,17,17,10+,30.02
KGWB,41.3061,-85.0585,0,0,0.0,KGWB 080155Z AUTO 00000KT 10SM SCT050 18/16 A2996 RMK AO2,2024-08-08T01:55:00Z,18,16,10+,29.96
KGVW,29.1303,-94.5466,VRB,4,4.6,KGVW 080155Z AUTO VRB04KT 10SM OVC055 30/25 A2981 RMK A01,2024-08-08T01:55:00Z,30,25,10+,29.81
KGVE,38.1569,-78.1656,0,0,0.0,KGVE 080155Z AUTO 00000KT 10SM SCT060 25/23 A2988 RMK AO1 T02470233,2024-08-08T01:55:00Z,24.7,23.3,10+,29.88
KGUS,40.6375,-86.1631,80,4,4.6,KGUS 080155Z AUTO 08004KT 10SM OVC049 22/18 A2991 RMK AO2 SLP127 T02210179 $,2024-08-08T01:55:00Z,22.1,17.9,10+,29.91
KGUR,42.261,-104.732,120,15,17.26,KGUR 080155Z AUTO 12015G22KT 10SM BKN080 OVC100 23/17 A3011 RMK AO2 LTG DSNT S SLP171 T02250170,2024-08-08T01:55:00Z,22.5,17,10+,30.11
KGTB,44.0617,-75.7218,0,0,0.0,KGTB 080155Z 00000KT 10SM CLR 17/13 A3002 RMK AO2A SLP164 T01700131,2024-08-08T01:55:00Z,17,13.1,10+,30.02
KGSB,35.3446,-77.9458,70,13,14.96,KGSB 080155Z 07013KT 8SM -RA SCT008 OVC015 26/25 A2971 RMK AO2A CIG 015V021 SLP063 P0017 T02580247 $,2024-08-08T01:55:00Z,25.8,24.7,8,29.71
KGRN,42.8039,-102.181,40,12,13.81,KGRN 080155Z AUTO 04012KT 10SM BKN055 BKN070 23/13 A3011 RMK AO2 LTG DSNT S T02250130,2024-08-08T01:55:00Z,22.5,13,10+,30.11
KGRK,31.0779,-97.8323,100,9,10.36,KGRK 080155Z AUTO 10009KT 6SM HZ CLR 34/21 A2980 RMK AO2 SLP075 T03380205,2024-08-08T01:55:00Z,33.8,20.5,6,29.80
KGRF,47.079,-122.58,340,8,9.21,KGRF 080155Z AUTO 34008KT 10SM CLR 27/13 A3000 RMK AO2 SLP161 T02660133 $,2024-08-08T01:55:00Z,26.6,13.3,10+,30.00
KGPI,48.3041,-114.264,10,15,17.26,KGPI 080155Z 01015G25KT 10SM CLR 21/09 A3017 RMK AO2 PK WND 01027/0123 SLP207 T02060089,2024-08-08T01:55:00Z,20.6,8.9,10+,30.17
KGPC,39.635,-86.816,30,6,6.9,KGPC 080155Z AUTO 03006KT 10SM CLR 21/19 A2990 RMK AO2 T02080188,2024-08-08T01:55:00Z,20.8,18.8,10+,29.90
KGOV,44.681,-84.727,150,6,6.9,KGOV 080155Z AUTO 15006KT 10SM BKN220 19/13 A2999 RMK AO2 SLP159 T01850125 $,2024-08-08T01:55:00Z,18.5,12.5,10+,29.99
KGOP,31.4208,-97.7951,80,4,4.6,KGOP 080155Z AUTO 08004KT 10SM CLR 32/16 A2981 RMK AO2,2024-08-08T01:55:00Z,32,16,10+,29.81
KGOO,39.224,-121.003,0,0,0.0,KGOO 080155Z AUTO 00000KT 10SM CLR 32/M01 A3003 RMK A01,2024-08-08T01:55:00Z,32,-1,10+,30.03
KGNT,35.1653,-107.902,340,23,26.47,KGNT 080155Z AUTO 34023G31KT 10SM SCT110 26/07 A3020 RMK AO2 LTG DSNT N S AND NW T02610071,2024-08-08T01:55:00Z,26.1,7.1,10+,30.20
KGNG,42.9155,-114.765,250,8,9.21,KGNG 080155Z AUTO 25008KT 10SM CLR 26/M00 A3003 RMK AO2,2024-08-08T01:55:00Z,26,0,10+,30.03
KGMJ,36.607,-94.7369,60,3,3.45,KGMJ 080155Z AUTO 06003KT 10SM CLR 28/18 A2983 RMK AO2 TSNO,2024-08-08T01:55:00Z,28,18,10+,29.83
KGLY,38.3572,-93.6774,0,0,0.0,KGLY 080155Z AUTO 00000KT 10SM CLR 24/18 A2989 RMK AO2,2024-08-08T01:55:00Z,24,18,10+,29.89
KGLW,37.0337,-85.9523,310,3,3.45,KGLW 080155Z AUTO 31003KT 10SM BKN033 BKN042 OVC047 26/23 A2982 RMK AO2 T02550232,2024-08-08T01:55:00Z,25.5,23.2,10+,29.82
KGKT,35.8568,-83.5333,0,0,0.0,KGKT 080155Z AUTO 00000KT 10SM CLR 27/23 A2976 RMK A01,2024-08-08T01:55:00Z,27,23,10+,29.76
KGIC,45.9411,-116.133,70,9,10.36,KGIC 080155Z AUTO 07009KT 10SM CLR 26/05 A3008 RMK AO1 P0010,2024-08-08T01:55:00Z,26,5,10+,30.08
KGHG,42.0961,-70.6769,0,0,0.0,KGHG 080155Z AUTO 00000KT 10SM BKN120 17/15 A3008 RMK AO2,2024-08-08T01:55:00Z,17,15,10+,30.08
KGGI,41.7097,-92.7332,130,3,3.45,KGGI 080155Z AUTO 13003KT 10SM CLR 22/18 A2996 RMK AO2 T02190177,2024-08-08T01:55:00Z,21.9,17.7,10+,29.96
KGGF,40.871,-101.734,0,0,0.0,KGGF 080155Z AUTO 00000KT 10SM VCTS CLR 27/21 A3000 RMK AO2 LTG DSNT N AND NE AND S,2024-08-08T01:55:00Z,27,21,10+,30.00
KGGE,33.3138,-79.3187,60,4,4.6,KGGE 080155Z AUTO 06004KT 10SM SCT008 BKN014 BKN029 26/25 A2945 RMK AO2 LTG DSNT W,2024-08-08T01:55:00Z,26,25,10+,29.45
KGFA,47.505,-111.187,40,6,6.9,KGFA 080155Z AUTO 04006KT 10SM BKN055 17/12 A3027 RMK AO2 SLP251 T01670118 $,2024-08-08T01:55:00Z,16.7,11.8,10+,30.27
KGDK,39.6935,-83.9896,0,0,0.0,KGDK 080155Z AUTO 00000KT 10SM SCT027 22/21 A2988 RMK AO2,2024-08-08T01:55:00Z,22,21,10+,29.88
KGDB,44.7521,-95.5591,310,8,9.21,KGDB 080155Z AUTO 31008G16KT 1 3/4SM -RA SCT007 BKN011 OVC019 20/19 A2994 RMK AO2 P0002 T02030192,2024-08-08T01:55:00Z,20.3,19.2,1.75,29.94
KGDA,37.3344,-88.1095,10,6,6.9,KGDA 080155Z AUTO 01006KT 10SM OVC011 22/19 A2986 RMK AO2 T02150194 PWINO,2024-08-08T01:55:00Z,21.5,19.4,10+,29.86
KGCY,36.1924,-82.8135,40,4,4.6,KGCY 080155Z AUTO 04004KT 10SM CLR 27/21 A2979 RMK A01,2024-08-08T01:55:00Z,27,21,10+,29.79
KGCM,36.2918,-95.4825,60,5,5.75,KGCM 080155Z AUTO 06005KT 10SM BKN055 27/20 A2980 RMK AO2,2024-08-08T01:55:00Z,27,20,10+,29.80
KGBK,27.2039,-92.2025,VRB,5,5.75,KGBK 080155Z AUTO VRB05KT 10SM BKN026 BKN031 BKN038 31/25 A2981 RMK A01,2024-08-08T01:55:00Z,31,25,10+,29.81
KGBG,40.9329,-90.4334,0,0,0.0,KGBG 080155Z AUTO 00000KT 10SM CLR 19/15 A2996 RMK AO2 T01910153,2024-08-08T01:55:00Z,19.1,15.3,10+,29.96
KGAF,48.4081,-97.3694,340,10,11.51,KGAF 080155Z AUTO 34010KT 8SM CLR 17/08 A3000 RMK AO2,2024-08-08T01:55:00Z,17,8,8,30.00
KFZG,31.684,-83.2712,0,0,0.0,KFZG 080155Z AUTO 00000KT 10SM CLR 29/24 A2967 RMK AO2 T02860236,2024-08-08T01:55:00Z,28.6,23.6,10+,29.67
KFYM,35.0603,-86.5656,350,8,9.21,KFYM 080155Z AUTO 35008KT 10SM SCT001 OVC018 26/24 A2980 RMK A01,2024-08-08T01:55:00Z,26,24,10+,29.80
KFYJ,37.5224,-76.7663,0,0,0.0,KFYJ 080155Z AUTO 00000KT 10SM SCT011 24/23 A2988 RMK AO1 T02400230,2024-08-08T01:55:00Z,24,23,10+,29.88
KFYG,38.5877,-90.9915,0,0,0.0,KFYG 080155Z AUTO 00000KT 10SM 23/22 A2991 RMK AO2,2024-08-08T01:55:00Z,23,22,10+,29.91
KFYE,35.2061,-89.3929,330,5,5.75,KFYE 080155Z AUTO 33005KT 10SM CLR 23/20 A2981 RMK A01,2024-08-08T01:55:00Z,23,20,10+,29.81
KFXY,43.2323,-93.6237,0,0,0.0,KFXY 080155Z AUTO 00000KT 10SM SCT050 19/17 A2995 RMK AO2,2024-08-08T01:55:00Z,19,17,10+,29.95
KFWS,32.558,-97.308,140,4,4.6,KFWS 080155Z AUTO 14004KT 10SM CLR 31/19 A2982 RMK AO2 T03070186,2024-08-08T01:55:00Z,30.7,18.6,10+,29.82
KFWC,38.3796,-88.4135,330,3,3.45,KFWC 080155Z AUTO 33003KT 10SM SCT034 OVC040 22/20 A2987 RMK AO2 T02170195,2024-08-08T01:55:00Z,21.7,19.5,10+,29.87
KFWB,36.6933,-93.4049,70,4,4.6,KFWB 080155Z AUTO 07004KT 10SM CLR 25/18 A2990 RMK AO2,2024-08-08T01:55:00Z,25,18,10+,29.90
KFVX,37.363,-78.4372,0,0,0.0,KFVX 080155Z AUTO 00000KT 10SM SCT008 OVC013 25/25 A2986 RMK AO2 T02450245,2024-08-08T01:55:00Z,24.5,24.5,10+,29.86
KFTN,28.2111,-100.024,210,3,3.45,KFTN 080155Z AUTO 21003KT 9SM FEW110 36/16 A2977 RMK A01,2024-08-08T01:55:00Z,36,16,9,29.77
KFTK,37.907,-85.973,320,6,6.9,KFTK 080155Z AUTO 32006KT 10SM FEW039 FEW060 25/23 A2980 RMK AO2 SLP086 T02520228 $,2024-08-08T01:55:00Z,25.2,22.8,10+,29.80
KFSW,40.6615,-91.3267,330,2,2.3,KFSW 080155Z AUTO 33002KT 10SM CLR 20/18 A2993 RMK AO2,2024-08-08T01:55:00Z,20,18,10+,29.93
KFSK,37.796,-94.7676,50,5,5.75,KFSK 080155Z AUTO 05005KT 10SM CLR 25/18 A2987 RMK AO2 T02550181,2024-08-08T01:55:00Z,25.5,18.1,10+,29.87
KFSE,47.589,-95.773,320,7,8.06,KFSE 080155Z AUTO 32007KT 10SM CLR 15/11 A2997 RMK AO2,2024-08-08T01:55:00Z,15,11,10+,29.97
KFRR,38.9169,-78.2487,50,5,5.75,KFRR 080155Z AUTO 05005KT 10SM BKN004 OVC025 23/23 A2990 RMK AO1,2024-08-08T01:55:00Z,23,23,10+,29.90
KFRI,39.0568,-96.7617,50,8,9.21,KFRI 080155Z AUTO 05008KT 10SM CLR 26/19 A2986 RMK AO2 SLP102 T02570193 PNO $,2024-08-08T01:55:00Z,25.7,19.3,10+,29.86
KFRH,38.5034,-86.6442,0,0,0.0,KFRH 080155Z AUTO 00000KT 10SM SCT030 SCT037 23/18 A2986 RMK AO1,2024-08-08T01:55:00Z,23,18,10+,29.86
KFPY,30.0719,-83.5731,0,0,0.0,KFPY 080155Z AUTO 00000KT 10SM CLR 29/24 A2968 RMK AO2 T02920241,2024-08-08T01:55:00Z,29.2,24.1,10+,29.68
KFPK,42.5764,-84.8125,0,0,0.0,KFPK 080155Z AUTO 00000KT 10SM CLR 18/13 A2997 RMK AO2,2024-08-08T01:55:00Z,18,13,10+,29.97
KFMM,40.3315,-103.807,0,0,0.0,KFMM 080155Z AUTO 00000KT 10SM CLR 23/14 A3001 RMK AO2 LTG DSNT SE,2024-08-08T01:55:00Z,23,14,10+,30.01
KFLY,38.9439,-104.568,360,10,11.51,KFLY 080155Z AUTO 36010G26KT 10SM CLR 20/11 A3027 RMK AO2 LTG DSNT NE E AND W T01950107,2024-08-08T01:55:00Z,19.5,10.7,10+,30.27
KFKS,44.6246,-86.1985,0,0,0.0,KFKS 080155Z AUTO 00000KT 10SM CLR 17/14 A2999 RMK AO2 T01720138,2024-08-08T01:55:00Z,17.2,13.8,10+,29.99
KFKR,40.2748,-86.5644,40,6,6.9,KFKR 080155Z AUTO 04006KT 10SM OVC045 21/21 A2991 RMK AO2,2024-08-08T01:55:00Z,21,21,10+,29.91
KFKN,36.6984,-76.9032,70,6,6.9,KFKN 080155Z AUTO 07006KT 10SM -RA OVC008 24/23 A2984 RMK AO2 P0005 T02380233,2024-08-08T01:55:00Z,23.8,23.3,10+,29.84
KFKA,43.677,-92.174,0,0,0.0,KFKA 080155Z AUTO 00000KT 9SM SCT085 SCT110 19/19 A2995 RMK AO2,2024-08-08T01:55:00Z,19,19,9,29.95
KFIN,29.467,-81.207,230,4,4.6,KFIN 080155Z AUTO 23004KT 10SM BKN110 28/24 A2967 RMK AO2 LTG DSNT N AND NE T02750235,2024-08-08T01:55:00Z,27.5,23.5,10+,29.67
KFHU,31.586,-110.348,240,8,9.21,KFHU 080155Z AUTO 24008KT 10SM CLR 26/18 A3013 RMK AO2 LTG DSNT N AND E AND W SLP139 T02560180,2024-08-08T01:55:00Z,25.6,18,10+,30.13
KFHB,30.6131,-81.4623,300,7,8.06,KFHB 080155Z AUTO 30007KT 10SM TS BKN075 OVC090 25/24 A2964 RMK AO2 LTG DSNT SE AND S P0042,2024-08-08T01:55:00Z,25,24,10+,29.64
KFFX,43.4417,-85.9936,0,0,0.0,KFFX 080155Z AUTO 00000KT 10SM CLR 19/14 A2997 RMK AO2 T01870136,2024-08-08T01:55:00Z,18.7,13.6,10+,29.97
KFFO,39.837,-84.035,20,7,8.06,KFFO 080155Z AUTO 02007KT 10SM CLR 23/19 A2988 RMK AO2 SLP115 T02280189,2024-08-08T01:55:00Z,22.8,18.9,10+,29.88
KFFM,46.2865,-96.1534,340,8,9.21,KFFM 080155Z AUTO 34008KT 10SM OVC060 18/18 A2997 RMK AO2,2024-08-08T01:55:00Z,18,18,10+,29.97
KFFL,41.0521,-91.9834,70,3,3.45,KFFL 080155Z AUTO 07003KT 10SM CLR 20/18 A2994 RMK A01,2024-08-08T01:55:00Z,20,18,10+,29.94
KFET,41.4489,-96.5237,0,0,0.0,KFET 080155Z AUTO 00000KT 10SM BKN120 25/17 A2992 RMK AO2 T02510173,2024-08-08T01:55:00Z,25.1,17.3,10+,29.92
KFDW,34.3151,-81.1119,10,9,10.36,KFDW 080155Z AUTO 01009G22KT 10SM BKN027 BKN033 25/22 A2966 RMK AO1,2024-08-08T01:55:00Z,25,22,10+,29.66
KFCS,38.6756,-104.751,60,12,13.81,KFCS 080155Z 06012KT 10SM SCT080 BKN100 OVC130 24/12 A3014 RMK AO2A SLP135 T02360116 $,2024-08-08T01:55:00Z,23.6,11.6,10+,30.14
KFCH,36.7338,-119.82,300,11,12.66,KFCH 080155Z AUTO 30011KT 10SM CLR 40/10 A2980 RMK A01,2024-08-08T01:55:00Z,40,10,10+,29.80
KFBR,41.3941,-110.406,340,9,10.36,KFBR 080155Z AUTO 34009KT 10SM CLR 28/M04 A3027 RMK AO2 T02751042,2024-08-08T01:55:00Z,27.5,-4.2,10+,30.27
KFBL,44.3298,-93.3119,90,3,3.45,KFBL 080155Z AUTO 09003KT 10SM OVC060 21/17 A2993 RMK AO2,2024-08-08T01:55:00Z,21,17,10+,29.93
KFBG,35.131,-78.932,50,13,14.96,KFBG 080155Z AUTO 05013G19KT 2 1/2SM RA BR OVC023 25/24 A2966 RMK AO2 SLP044 P0020 T02530239 $,2024-08-08T01:55:00Z,25.3,23.9,2.5,29.66
KFAF,37.134,-76.61,100,7,8.06,KFAF 080155Z AUTO 10007KT 10SM OVC011 25/23 A2983 RMK AO2 SLP105 T02530229 $,2024-08-08T01:55:00Z,25.3,22.9,10+,29.83
KF95,30.4881,-85.1148,0,0,0.0,KF95 080155Z AUTO 00000KT 9SM CLR 26/26 A2969 RMK AO2,2024-08-08T01:55:00Z,26,26,9,29.69
KF70,33.577,-117.126,190,9,10.36,KF70 080155Z AUTO 19009KT 10SM CLR 26/14 A2996 RMK AO2,2024-08-08T01:55:00Z,26,14,10+,29.96
KF46,32.9322,-96.4349,170,4,4.6,KF46 080155Z AUTO 17004KT 10SM CLR 33/20 A2979 RMK AO2 T03310198,2024-08-08T01:55:00Z,33.1,19.8,10+,29.79
KF44,32.165,-95.829,0,0,0.0,KF44 080155Z AUTO 00000KT 10SM CLR 28/24 A2978 RMK AO2,2024-08-08T01:55:00Z,28,24,10+,29.78
KF17,31.8277,-94.154,0,0,0.0,KF17 080155Z AUTO 00000KT 10SM CLR 26/23 A2980 RMK AO2,2024-08-08T01:55:00Z,26,23,10+,29.80
KF05,34.2283,-99.2834,120,6,6.9,KF05 080155Z AUTO 12006KT 10SM CLR 37/12 A2980 RMK AO2 T03680120,2024-08-08T01:55:00Z,36.8,12,10+,29.80
KEZZ,39.729,-94.2785,110,5,5.75,KEZZ 080155Z AUTO 11005KT 10SM CLR 23/19 A2994 RMK AO2 T02320185,2024-08-08T01:55:00Z,23.2,18.5,10+,29.94
KEZS,44.787,-88.5639,0,0,0.0,KEZS 080155Z AUTO 00000KT 10SM CLR 22/17 A2997 RMK AO2 T02170172,2024-08-08T01:55:00Z,21.7,17.2,10+,29.97
KEZP,28.2198,-92.7944,280,5,5.75,KEZP 080155Z AUTO 28005KT 10SM CLR 30/24 A2982 RMK A01,2024-08-08T01:55:00Z,30,24,10+,29.82
KEZM,32.2136,-83.1321,0,0,0.0,KEZM 080155Z AUTO 00000KT 10SM SCT080 25/24 A2969 RMK AO2,2024-08-08T01:55:00Z,25,24,10+,29.69
KEZF,38.2685,-77.448,120,3,3.45,KEZF 080155Z AUTO 12003KT 10SM OVC017 26/26 A2987 RMK AO2 T02550255,2024-08-08T01:55:00Z,25.5,25.5,10+,29.87
KEVU,40.3524,-94.9137,130,3,3.45,KEVU 080155Z AUTO 13003KT 10SM CLR 25/18 A2991 RMK AO2 T02550190,2024-08-08T01:55:00Z,25.5,19,10+,29.91
KEVM,47.4274,-92.4972,230,6,6.9,KEVM 080155Z AUTO 23006KT 10SM -RA OVC008 15/15 A2993 RMK AO2 P0002 T01520148,2024-08-08T01:55:00Z,15.2,14.8,10+,29.93
KETO,28.0336,-89.1008,310,12,13.81,KETO 080155Z AUTO 31012KT 10SM CLR 31/26 A2979 RMK A01,2024-08-08T01:55:00Z,31,26,10+,29.79
KETN,32.4164,-98.8113,90,6,6.9,KETN 080155Z AUTO 09006KT 10SM CLR 32/14 A2984 RMK AO2 T03170141,2024-08-08T01:55:00Z,31.7,14.1,10+,29.84
KETB,43.4225,-88.1326,0,0,0.0,KETB 080155Z AUTO 00000KT 10SM CLR 16/12 A2998 RMK AO2,2024-08-08T01:55:00Z,16,12,10+,29.98
KERV,29.9779,-99.0872,110,5,5.75,KERV 080155Z AUTO 11005KT 10SM CLR 33/19 A2983 RMK AO2 T03260186,2024-08-08T01:55:00Z,32.6,18.6,10+,29.83
KEQA,37.7753,-96.8145,110,6,6.9,KEQA 080155Z AUTO 11006KT 10SM CLR 27/16 A2985 RMK AO2,2024-08-08T01:55:00Z,27,16,10+,29.85
KENL,38.5095,-89.09,350,5,5.75,KENL 080155Z AUTO 35005KT 10SM OVC037 22/20 A2989 RMK AO2 T02210202,2024-08-08T01:55:00Z,22.1,20.2,10+,29.89
KEND,36.338,-97.919,120,12,13.81,KEND 080155Z AUTO 12012KT 10SM CLR 34/18 A2975 RMK AO2 SLP059 T03390184 $,2024-08-08T01:55:00Z,33.9,18.4,10+,29.75
KEMV,36.6858,-77.485,0,0,0.0,KEMV 080155Z AUTO 00000KT 10SM BKN019 OVC025 24/23 A2984 RMK AO2 T02410233,2024-08-08T01:55:00Z,24.1,23.3,10+,29.84
KEMM,41.8224,-110.555,340,8,9.21,KEMM 080155Z AUTO 34008KT 10SM CLR 23/M03 A3028 RMK AO2,2024-08-08T01:55:00Z,23,-3,10+,30.28
KELO,47.8287,-91.8371,220,6,6.9,KELO 080155Z AUTO 22006KT 10SM SCT007 BKN012 OVC022 15/15 A2992 RMK AO2,2024-08-08T01:55:00Z,15,15,10+,29.92
KELK,35.4261,-99.3926,160,10,11.51,KELK 080155Z AUTO 16010KT 8SM CLR 35/13 A2983 RMK AO2 T03500133 $,2024-08-08T01:55:00Z,35,13.3,8,29.83
KELA,29.602,-96.3239,,,,KELA 080155Z AUTO 10SM CLR 27/18 A2978 RMK AO2 T02730183,2024-08-08T01:55:00Z,27.3,18.3,10+,29.78
KEKX,37.6924,-85.9204,340,3,3.45,KEKX 080155Z AUTO 34003KT 10SM CLR 25/22 A2981 RMK AO2 T02470217,2024-08-08T01:55:00Z,24.7,21.7,10+,29.81
KEKS,45.276,-111.65,340,22,25.32,KEKS 080155Z AUTO 34022G28KT 10SM CLR 20/06 A3022 RMK AO2,2024-08-08T01:55:00Z,20,6,10+,30.22
KEKM,41.7222,-86,50,6,6.9,KEKM 080155Z 05006KT 10SM SCT048 22/15 A2995 RMK AO2 T02220152 $,2024-08-08T01:55:00Z,22.2,15.2,10+,29.95
KEKE,28.4971,-91.5702,250,5,5.75,KEKE 080155Z AUTO 25005KT 10SM CLR 31/25 A2974 RMK A01,2024-08-08T01:55:00Z,31,25,10+,29.74
KEIK,40.0117,-105.05,170,13,14.96,KEIK 080155Z AUTO 17013KT 9SM CLR 25/12 A3008 RMK AO2 LTG DSNT E AND SW T02460122,2024-08-08T01:55:00Z,24.6,12.2,9,30.08
KEHY,41.725,-106.459,60,16,18.41,KEHY 080155Z AUTO 06016G22KT 10SM 22/03 A3022 RMK AO2 PWINO,2024-08-08T01:55:00Z,22,3,10+,30.22
KEHA,37.0011,-101.88,180,9,10.36,KEHA 080155Z AUTO 18009KT 10SM CLR 29/11 A2991 RMK AO2 T02870112,2024-08-08T01:55:00Z,28.7,11.2,10+,29.91
KEGV,45.9309,-89.267,0,0,0.0,KEGV 080155Z AUTO 00000KT 10SM OVC120 18/13 A2996 RMK AO2 T01800125,2024-08-08T01:55:00Z,18,12.5,10+,29.96
KEGT,37.3251,-97.3901,90,8,9.21,KEGT 080155Z AUTO 09008KT 10SM CLR 29/18 A2982 RMK AO2 T02940182,2024-08-08T01:55:00Z,29.4,18.2,10+,29.82
KEGI,30.653,-86.525,0,0,0.0,KEGI 080155Z AUTO 00000KT 10SM CLR 30/22 A2971 RMK AO2 SLP059 T02960223 $,2024-08-08T01:55:00Z,29.6,22.3,10+,29.71
KEFT,42.6196,-89.5931,100,4,4.6,KEFT 080155Z AUTO 10004KT 10SM CLR 21/15 A2996 RMK AO2 T02060148,2024-08-08T01:55:00Z,20.6,14.8,10+,29.96
KEFK,44.8886,-72.2296,0,0,0.0,KEFK 080155Z AUTO 00000KT 10SM CLR 16/11 A3011 RMK AO2 T01620105,2024-08-08T01:55:00Z,16.2,10.5,10+,30.11
KEDJ,40.3714,-83.8142,40,5,5.75,KEDJ 080155Z AUTO 04005KT 10SM BKN025 OVC029 20/20 A2992 RMK A01 P0001,2024-08-08T01:55:00Z,20,20,10+,29.92
KEDC,30.3926,-97.5621,0,0,0.0,KEDC 080155Z AUTO 00000KT 9SM BKN055 31/21 A2978 RMK AO2,2024-08-08T01:55:00Z,31,21,9,29.78
KECU,29.948,-100.174,140,3,3.45,KECU 080155Z AUTO 14003KT 10SM 32/14 A2991 RMK AO2,2024-08-08T01:55:00Z,32,14,10+,29.91
KECS,43.8845,-104.312,10,10,11.51,KECS 080155Z AUTO 01010G16KT 10SM OVC080 20/10 A3018 RMK AO2,2024-08-08T01:55:00Z,20,10,10+,30.18
KEBS,42.4372,-93.8725,140,6,6.9,KEBS 080155Z AUTO 14006KT 10SM CLR 20/17 A2992 RMK AO2,2024-08-08T01:55:00Z,20,17,10+,29.92
KEBA,34.0957,-82.8121,0,0,0.0,KEBA 080155Z AUTO 00000KT 10SM CLR 27/22 A2971 RMK AO2 T02740223,2024-08-08T01:55:00Z,27.4,22.3,10+,29.71
KEAT,47.3975,-120.201,120,6,6.9,KEAT 080155Z AUTO 12006KT 10SM CLR 33/13 A2995 RMK AO2 SLP129 T03280128,2024-08-08T01:55:00Z,32.8,12.8,10+,29.95
KE77,32.634,-110.647,240,7,8.06,KE77 080155Z AUTO 24007G12KT 10SM VCTS CLR 26/17 A3009 RMK AO2 LTG DSNT S-W,2024-08-08T01:55:00Z,26,17,10+,30.09
KE57,32.976,-102.843,140,7,8.06,KE57 080155Z AUTO 14007KT 10SM CLR 33/04 A2995 RMK AO2,2024-08-08T01:55:00Z,33,4,10+,29.95
KE42,36.2193,-101.194,160,9,10.36,KE42 080155Z AUTO 16009KT 10SM CLR 32/12 A2987 RMK AO2 T03170121,2024-08-08T01:55:00Z,31.7,12.1,10+,29.87
KE41,31.1945,-101.473,170,3,3.45,KE41 080155Z AUTO 17003KT 10SM CLR 35/10 A2989 RMK AO2 T03520100,2024-08-08T01:55:00Z,35.2,10,10+,29.89
KE38,30.3851,-103.68,140,5,5.75,KE38 080155Z AUTO 14005KT 10SM CLR 30/08 A3008 RMK AO2 T03030077,2024-08-08T01:55:00Z,30.3,7.7,10+,30.08
KE16,37.0797,-121.598,140,11,12.66,KE16 080155Z AUTO 14011KT 10SM CLR 26/12 A2992 RMK AO2,2024-08-08T01:55:00Z,26,12,10+,29.92
KE11,32.3281,-102.528,170,4,4.6,KE11 080155Z AUTO 17004KT 34/08 A2992 RMK AO2 T03350075 PWINO,2024-08-08T01:55:00Z,33.5,7.5,,29.92
KE01,31.5804,-102.908,150,5,5.75,KE01 080155Z AUTO 15005KT 10SM CLR 36/07 A2986 RMK AO2,2024-08-08T01:55:00Z,36,7,10+,29.86
KDZJ,34.8552,-84.0014,0,0,0.0,KDZJ 080155Z AUTO 00000KT 10SM CLR 24/22 A2982 RMK AO2 T02380219,2024-08-08T01:55:00Z,23.8,21.9,10+,29.82
KDZB,30.521,-98.3574,130,4,4.6,KDZB 080155Z AUTO 13004KT 10SM CLR 33/17 A2980 RMK AO2 T03270173,2024-08-08T01:55:00Z,32.7,17.3,10+,29.80
KDYT,46.7231,-92.0438,220,5,5.75,KDYT 080155Z AUTO 22005KT 9SM -RA OVC042 16/16 A2992 RMK AO2 P0014,2024-08-08T01:55:00Z,16,16,9,29.92
KDYS,32.406,-99.85,100,10,11.51,KDYS 080155Z AUTO 10010KT 10SM CLR 37/09 A2981 RMK AO2 SLP061 T03660092,2024-08-08T01:55:00Z,36.6,9.2,10+,29.81
KDYB,33.062,-80.28,0,0,0.0,KDYB 080155Z AUTO 00000KT 7SM -RA OVC008 25/25 A2946 RMK AO2 P0031,2024-08-08T01:55:00Z,25,25,7,29.46
KDYA,32.4641,-87.9504,250,3,3.45,KDYA 080155Z AUTO 25003KT 7SM BKN070 28/25 A2972 RMK AO2 T02820249,2024-08-08T01:55:00Z,28.2,24.9,7,29.72
KDXX,44.9839,-96.1789,320,9,10.36,KDXX 080155Z AUTO 32009KT 10SM SCT009 BKN017 OVC044 20/19 A2997 RMK AO2,2024-08-08T01:55:00Z,20,19,10+,29.97
KDWX,41.037,-107.5,140,6,6.9,KDWX 080155Z AUTO 14006KT 10SM SCT120 24/09 A3020 RMK AO2 T02430087,2024-08-08T01:55:00Z,24.3,8.7,10+,30.20
KDWA,38.5803,-121.854,160,8,9.21,KDWA 080155Z AUTO 16008KT 10SM CLR 33/12 A2981 RMK AO2,2024-08-08T01:55:00Z,33,12,10+,29.81
KDVO,38.1417,-122.555,360,10,11.51,KDVO 080155Z AUTO 36010KT 10SM CLR A2988 RMK AO2,2024-08-08T01:55:00Z,,,10+,29.88
KDUX,35.8608,-102.009,180,9,10.36,KDUX 080155Z AUTO 18009KT 10SM CLR 29/06 A2992 RMK AO2 T02900056,2024-08-08T01:55:00Z,29,5.6,10+,29.92
KDUH,41.7375,-83.6493,0,0,0.0,KDUH 080155Z AUTO 00000KT 10SM BKN039 20/15 A2994 RMK AO2 T02020152,2024-08-08T01:55:00Z,20.2,15.2,10+,29.94
KDUC,34.4778,-97.9616,150,6,6.9,KDUC 080155Z AUTO 15006KT 10SM CLR 33/17 A2982 RMK AO2,2024-08-08T01:55:00Z,33,17,10+,29.82
KDUA,33.9427,-96.3967,0,0,0.0,KDUA 080155Z AUTO 00000KT 10SM CLR 35/16 A2981 RMK AO2,2024-08-08T01:55:00Z,35,16,10+,29.81
KDTL,46.8286,-95.8857,310,5,5.75,KDTL 080155Z AUTO 31005KT 10SM OVC050 17/15 A2997 RMK AO2,2024-08-08T01:55:00Z,17,15,10+,29.97
KDTA,39.3879,-112.504,50,6,6.9,KDTA 080155Z AUTO 05006KT 10SM CLR 32/M02 A3000 RMK AO1,2024-08-08T01:55:00Z,32,-2,10+,30.00
KDRP,35.1213,-90.8246,350,6,6.9,KDRP 080155Z AUTO 35006KT 10SM OVC036 18/14 A2984 RMK AO2,2024-08-08T01:55:00Z,18,14,10+,29.84
KDRM,46.009,-83.743,160,3,3.45,KDRM 080155Z AUTO 16003KT 10SM CLR 19/13 A3001 RMK AO2 T01850125,2024-08-08T01:55:00Z,18.5,12.5,10+,30.01
KDRI,30.8344,-93.3359,0,0,0.0,KDRI 080155Z AUTO 00000KT 10SM CLR 28/25 A2979 RMK AO2 T02840245,2024-08-08T01:55:00Z,28.4,24.5,10+,29.79
KDQH,31.4739,-82.8609,0,0,0.0,KDQH 080155Z AUTO 00000KT 10SM SCT060 SCT075 SCT090 28/23 A2967 RMK AO2 LTG DSNT SE T02840231,2024-08-08T01:55:00Z,28.4,23.1,10+,29.67
KDOV,39.13,-75.465,80,8,9.21,KDOV 080155Z AUTO 08008KT 10SM BKN007 OVC017 25/23 A2993 RMK AO2 CIG 007V013 BKN V SCT SLP139 T02450227,2024-08-08T01:55:00Z,24.5,22.7,10+,29.93
KDNV,40.2032,-87.5897,20,6,6.9,KDNV 080155Z AUTO 02006KT 10SM CLR 20/19 A2991 RMK AO2 T02000185,2024-08-08T01:55:00Z,20,18.5,10+,29.91
KDNS,41.9842,-95.38,0,0,0.0,KDNS 080155Z AUTO 00000KT 10SM CLR 22/18 A2993 RMK AO2,2024-08-08T01:55:00Z,22,18,10+,29.93
KDNN,34.727,-84.8733,0,0,0.0,KDNN 080155Z AUTO 00000KT 9SM CLR 26/24 A2972 RMK AO2 T02630237,2024-08-08T01:55:00Z,26.3,23.7,9,29.72
KDNA,31.875,-106.694,230,4,4.6,KDNA 080155Z AUTO 23004KT 10SM CLR 34/08 A2999 RMK AO2,2024-08-08T01:55:00Z,34,8,10+,29.99
KDMA,32.165,-110.887,290,9,10.36,KDMA 080155Z AUTO 29009KT 10SM CLR 32/17 A2995 RMK AO2 LTG DSNT NE AND S-W SLP096 T03200171 $,2024-08-08T01:55:00Z,32,17.1,10+,29.95
KDLZ,40.281,-83.114,50,4,4.6,KDLZ 080155Z AUTO 05004KT 10SM SCT026 BKN032 22/18 A2991 RMK AO2,2024-08-08T01:55:00Z,22,18,10+,29.91
KDLO,35.7449,-119.239,40,4,4.6,KDLO 080155Z AUTO 04004KT 10SM CLR 37/13 A2979 RMK AO2 T03710133,2024-08-08T01:55:00Z,37.1,13.3,10+,29.79
KDLL,43.5236,-89.7736,0,0,0.0,KDLL 080155Z AUTO 00000KT 10SM CLR 20/18 A2997 RMK AO2 T02000175,2024-08-08T01:55:00Z,20,17.5,10+,29.97
KDLH,46.8435,-92.1866,270,5,5.75,KDLH 080155Z 27005KT 10SM -RA BKN036 OVC045 15/13 A2993 RMK AO2 SLP136 P0003 T01500133,2024-08-08T01:55:00Z,15,13.3,10+,29.93
KDLF,29.3666,-100.785,80,4,4.6,KDLF 080155Z AUTO 08004KT 10SM CLR 37/13 A2973 RMK AO2 SLP051 T03690130,2024-08-08T01:55:00Z,36.9,13,10+,29.73
KDKX,35.9658,-83.8717,0,0,0.0,KDKX 080155Z AUTO 00000KT 10SM 27/23 A2975 RMK A01,2024-08-08T01:55:00Z,27,23,10+,29.75
KDKR,31.3097,-95.4039,0,0,0.0,KDKR 080155Z AUTO 00000KT 10SM CLR 28/27 A2979 RMK AO2,2024-08-08T01:55:00Z,28,27,10+,29.79
KDKB,41.9338,-88.7066,60,5,5.75,KDKB 080155Z AUTO 06005KT 10SM CLR 17/12 A2997 RMK AO2 T01650123,2024-08-08T01:55:00Z,16.5,12.3,10+,29.97
KDEH,43.2755,-91.7433,160,4,4.6,KDEH 080155Z AUTO 16004KT 10SM FEW095 SCT110 21/19 A2994 RMK AO2,2024-08-08T01:55:00Z,21,19,10+,29.94
KDCY,38.6953,-87.1314,360,6,6.9,KDCY 080155Z AUTO 36006KT 10SM CLR 23/19 A2986 RMK AO2 T02250190,2024-08-08T01:55:00Z,22.5,19,10+,29.86
KDCM,34.7908,-81.1987,30,10,11.51,KDCM 080155Z AUTO 03010G19KT 10SM SCT027 SCT035 25/23 A2971 RMK AO2 LTG DSNT E,2024-08-08T01:55:00Z,25,23,10+,29.71
KDAA,38.714,-77.178,110,4,4.6,KDAA 080155Z AUTO 11004KT 10SM SCT065 26/23 A2988 RMK AO2 SLP121 T02600231 $,2024-08-08T01:55:00Z,26,23.1,10+,29.88
KD95,43.0675,-83.2702,340,3,3.45,KD95 080155Z AUTO 34003KT 10SM CLR 18/18 A3000 RMK AO2 T01760175,2024-08-08T01:55:00Z,17.6,17.5,10+,30.00
KD73,33.7826,-83.6948,60,12,13.81,KD73 080155Z AUTO 06012G23KT 10SM SCT045 OVC055 28/24 A2974 RMK AO2 T02770237,2024-08-08T01:55:00Z,27.7,23.7,10+,29.74
KD60,48.3834,-102.898,360,9,10.36,KD60 080155Z AUTO 36009KT 10SM CLR 15/04 A3019 RMK AO2,2024-08-08T01:55:00Z,15,4,10+,30.19
KD57,46.814,-101.864,290,4,4.6,KD57 080155Z AUTO 29004KT 9SM BKN095 OVC110 16/11 A3013 RMK AO2,2024-08-08T01:55:00Z,16,11,9,30.13
KD50,48.9248,-103.296,360,7,8.06,KD50 080155Z AUTO 36007KT 10SM CLR 16/03 A3019 RMK AO2,2024-08-08T01:55:00Z,16,3,10+,30.19
KD39,45.7057,-94.9308,0,0,0.0,KD39 080155Z AUTO 00000KT 5SM +DZ OVC015 16/16 A2993 RMK AO2 P0003 T01630163,2024-08-08T01:55:00Z,16.3,16.3,5,29.93
KD09,48.83,-100.417,320,7,8.06,KD09 080155Z AUTO 32007KT 10SM CLR 13/08 A3011 RMK AO2,2024-08-08T01:55:00Z,13,8,10+,30.11
KCZL,34.45,-84.936,0,0,0.0,KCZL 080155Z AUTO 00000KT 10SM 28/23 A2972 RMK AO2,2024-08-08T01:55:00Z,28,23,10+,29.72
KCYD,28.1694,-89.2228,290,14,16.11,KCYD 080155Z AUTO 29014KT 7SM CLR 31/26 A2981 RMK A02 T03120257,2024-08-08T01:55:00Z,31.2,25.7,7,29.81
KCXU,31.2141,-84.2358,0,0,0.0,KCXU 080155Z AUTO 00000KT 10SM CLR 28/26 A2968 RMK AO1 T02760256,2024-08-08T01:55:00Z,27.6,25.6,10+,29.68
KCXP,39.1905,-119.732,280,6,6.9,KCXP 080155Z AUTO 28006G11KT 10SM CLR 32/03 A3012 RMK AO2,2024-08-08T01:55:00Z,32,3,10+,30.12
KCXE,36.7923,-78.5027,0,0,0.0,KCXE 080155Z AUTO 00000KT 10SM BKN010 BKN050 25/25 A2984 RMK AO1 T02450245,2024-08-08T01:55:00Z,24.5,24.5,10+,29.84
KCWV,32.193,-81.873,310,6,6.9,KCWV 080155Z AUTO 31006KT 10SM FEW080 SCT095 26/24 A2960 RMK AO2,2024-08-08T01:55:00Z,26,24,10+,29.60
KCWN,38.748,-104.847,310,7,8.06,KCWN 080155Z AUTO 31007KT 10SM BKN100 OVC170 24/11 A3024 RMK AO2 LTG DSNT NE AND W SLP041 T02380105 $,2024-08-08T01:55:00Z,23.8,10.5,10+,30.24
KCWC,33.8629,-98.4914,140,8,9.21,KCWC 080155Z AUTO 14008KT 10SM CLR 35/16 A2980 RMK AO2 T03500163,2024-08-08T01:55:00Z,35,16.3,10+,29.80
KCVX,45.304,-85.2689,10,6,6.9,KCVX 080155Z AUTO 01006KT 10SM CLR 21/15 A2999 RMK AO2 T02060147,2024-08-08T01:55:00Z,20.6,14.7,10+,29.99
KCVS,34.381,-103.322,150,10,11.51,KCVS 080155Z AUTO 15010KT 10SM CLR 32/03 A2997 RMK AO2 SLP063 T03180029 $,2024-08-08T01:55:00Z,31.8,2.9,10+,29.97
KCVH,36.8919,-121.41,290,5,5.75,KCVH 080155Z AUTO 29005G11KT 10SM CLR 23/12 A2994 RMK A01,2024-08-08T01:55:00Z,23,12,10+,29.94
KCVC,33.6312,-83.8482,0,0,0.0,KCVC 080155Z AUTO 00000KT 10SM BKN055 OVC065 29/24 A2971 RMK AO2,2024-08-08T01:55:00Z,29,24,10+,29.71
KCVB,29.343,-98.8497,120,11,12.66,KCVB 080155Z AUTO 12011G14KT 7SM BKN100 A2979 RMK AO2,2024-08-08T01:55:00Z,,,7,29.79
KCUH,35.949,-96.768,160,4,4.6,KCUH 080155Z AUTO 16004KT 10SM CLR 33/18 A2980 RMK AO2 T03250184,2024-08-08T01:55:00Z,32.5,18.4,10+,29.80
KCTJ,33.6313,-85.1538,0,0,0.0,KCTJ 080155Z AUTO 00000KT 10SM CLR 26/22 A2979 RMK AO2 T02620217,2024-08-08T01:55:00Z,26.2,21.7,10+,29.79
KCSQ,41.0188,-94.361,90,6,6.9,KCSQ 080155Z AUTO 09006KT 10SM CLR 22/18 A2993 RMK AO2,2024-08-08T01:55:00Z,22,18,10+,29.93
KCSB,40.307,-100.162,60,8,9.21,KCSB 080155Z AUTO 06008KT 9SM CLR 26/19 A2993 RMK AO2 LTG DSNT SW AND NW,2024-08-08T01:55:00Z,26,19,9,29.93
KCRX,34.9209,-88.6071,0,0,0.0,KCRX 080155Z AUTO 00000KT 10SM CLR 21/20 A2980 RMK AO2,2024-08-08T01:55:00Z,21,20,10+,29.80
KCQW,34.7128,-79.9622,60,13,14.96,KCQW 080155Z AUTO 06013KT 9SM -RA FEW029 BKN035 OVC055 25/24 A2964 RMK AO2 LTG DSNT E AND SE,2024-08-08T01:55:00Z,25,24,9,29.64
KCQM,47.8199,-92.6817,270,3,3.45,KCQM 080155Z AUTO 27003KT 10SM -RA SCT009 BKN014 OVC022 16/15 A2990 RMK AO2,2024-08-08T01:55:00Z,16,15,10+,29.90
KCQF,30.4618,-87.8749,0,0,0.0,KCQF 080155Z AUTO 00000KT 10SM CLR 27/23 A2974 RMK AO2,2024-08-08T01:55:00Z,27,23,10+,29.74
KCQB,35.7223,-96.8187,100,5,5.75,KCQB 080155Z AUTO 10005KT 10SM CLR 30/22 A2981 RMK AO2 T02950216,2024-08-08T01:55:00Z,29.5,21.6,10+,29.81
KCPU,38.1445,-120.645,300,9,10.36,KCPU 080155Z AUTO 30009KT 10SM CLR 36/04 A2990 RMK AO2 T03550040,2024-08-08T01:55:00Z,35.5,4,10+,29.90
KCPT,32.3526,-97.435,140,7,8.06,KCPT 080155Z AUTO 14007KT 10SM CLR 31/19 A2982 RMK A01,2024-08-08T01:55:00Z,31,19,10+,29.82
KCPP,33.5991,-83.1401,20,5,5.75,KCPP 080155Z AUTO 02005KT 10SM FEW075 29/23 A2969 RMK AO2,2024-08-08T01:55:00Z,29,23,10+,29.69
KCPK,36.6631,-76.3264,100,9,10.36,KCPK 080155Z AUTO 10009KT 10SM -RA CLR 24/23 A2985 RMK AO2 LTG DSNT S P0002 T02400230,2024-08-08T01:55:00Z,24,23,10+,29.85
KCPF,37.3869,-83.2593,0,0,0.0,KCPF 080155Z AUTO 00000KT 10SM SCT049 SCT065 25/21 A2983 RMK AO2,2024-08-08T01:55:00Z,25,21,10+,29.83
KCOQ,46.6986,-92.5034,0,0,0.0,KCOQ 080155Z AUTO 00000KT 10SM RA OVC044 15/14 A2992 RMK AO2 TSNO,2024-08-08T01:55:00Z,15,14,10+,29.92
KCOM,31.8415,-99.4058,90,8,9.21,KCOM 080155Z AUTO 09008KT 10SM CLR 34/12 A2984 RMK AO2 T03400120 PWINO,2024-08-08T01:55:00Z,34,12,10+,29.84
KCOF,28.242,-80.608,230,12,13.81,KCOF 080155Z AUTO 23012KT 10SM CLR 29/25 A2968 RMK AO2 SLP055 T02920247 $,2024-08-08T01:55:00Z,29.2,24.7,10+,29.68
KCNW,31.637,-97.071,80,4,4.6,KCNW 080155Z 08004KT 10SM SKC 31/14 A2980,2024-08-08T01:55:00Z,31,14,10+,29.80
KCNK,39.5513,-97.6508,90,5,5.75,KCNK 080155Z AUTO 09005KT 10SM CLR 26/16 A2988 RMK AO2 SLP104 T02610161,2024-08-08T01:55:00Z,26.1,16.1,10+,29.88
KCNI,34.31,-84.424,340,3,3.45,KCNI 080155Z AUTO 34003KT 10SM CLR 27/21 A2977 RMK AO2 T02730212,2024-08-08T01:55:00Z,27.3,21.2,10+,29.77
KCNC,41.0185,-93.3608,110,4,4.6,KCNC 080155Z AUTO 11004KT 10SM 21/18 A2993 RMK AO2,2024-08-08T01:55:00Z,21,18,10+,29.93
KCNB,44.7297,-96.2623,320,10,11.51,KCNB 080155Z AUTO 32010G16KT 280V360 10SM SCT015 BKN034 OVC040 20/18 A2997 RMK AO2 T01970175,2024-08-08T01:55:00Z,19.7,17.5,10+,29.97
KCMY,43.9581,-90.7398,0,0,0.0,KCMY 080155Z AUTO 00000KT 9SM OVC110 19/19 A2993 RMK AO2 LTG DSNT N RAB20E34 SLP137 P0000 T01900188,2024-08-08T01:55:00Z,19,18.8,9,29.93
KCMR,35.3016,-112.197,10,6,6.9,KCMR 080155Z AUTO 01006KT 9SM -RA FEW032 SCT039 BKN060 18/14 A3030 RMK AO2,2024-08-08T01:55:00Z,18,14,9,30.30
KCMD,34.2722,-86.8583,330,6,6.9,KCMD 080155Z AUTO 33006G12KT 10SM CLR 26/24 A2979 RMK AO2,2024-08-08T01:55:00Z,26,24,10+,29.79
KCMA,34.2114,-119.088,220,5,5.75,KCMA 080155Z 22005KT 8SM BKN009 23/18 A2993 RMK AO2 SLP143 T02280183,2024-08-08T01:55:00Z,22.8,18.3,8,29.93
KCLW,27.9741,-82.7563,0,0,0.0,KCLW 080155Z AUTO 00000KT 10SM CLR 29/25 A2973 RMK AO2,2024-08-08T01:55:00Z,29,25,10+,29.73
KCLS,46.6774,-122.986,20,5,5.75,KCLS 080155Z AUTO 02005G11KT 10SM CLR 27/14 A3001 RMK AO2,2024-08-08T01:55:00Z,27,14,10+,30.01
KCLK,35.5381,-98.9336,160,10,11.51,KCLK 080155Z AUTO 16010KT 10SM CLR 35/11 A2982 RMK AO2,2024-08-08T01:55:00Z,35,11,10+,29.82
KCLI,44.6152,-88.7313,0,0,0.0,KCLI 080155Z AUTO 00000KT 10SM CLR 20/17 A2998 RMK AO2 T01970165,2024-08-08T01:55:00Z,19.7,16.5,10+,29.98
KCKZ,40.3864,-75.2953,VRB,4,4.6,KCKZ 080155Z AUTO VRB04G10KT 2SM BR OVC003 18/18 A3004 RMK AO2,2024-08-08T01:55:00Z,18,18,2,30.04
KCKP,42.7304,-95.5538,150,5,5.75,KCKP 080155Z AUTO 15005KT 10SM CLR 22/19 A2990 RMK AO2,2024-08-08T01:55:00Z,22,19,10+,29.90
KCKN,47.8404,-96.6201,340,7,8.06,KCKN 080155Z AUTO 34007KT 10SM CLR 16/09 A2998 RMK AO2,2024-08-08T01:55:00Z,16,9,10+,29.98
KCKM,34.2945,-90.5146,320,4,4.6,KCKM 080155Z AUTO 32004KT 10SM 23/ A2983 RMK A01,2024-08-08T01:55:00Z,23,,10+,29.83
KCKI,33.7187,-79.8567,10,8,9.21,KCKI 080155Z AUTO 01008G16KT 320V030 5SM +RA OVC008 23/22 A2951 RMK AO2 LTG DSNT S P0019,2024-08-08T01:55:00Z,23,22,5,29.51
KCKF,31.9889,-83.7739,0,0,0.0,KCKF 080155Z AUTO 00000KT 10SM CLR 27/25 A2969 RMK AO2 T02730245,2024-08-08T01:55:00Z,27.3,24.5,10+,29.69
KCKC,47.8366,-90.3864,220,4,4.6,KCKC 080155Z AUTO 22004KT 4SM +RA SCT007 BKN014 OVC023 14/14 A2993 RMK AO2,2024-08-08T01:55:00Z,14,14,4,29.93
KCJR,38.5261,-77.8574,0,0,0.0,KCJR 080155Z AUTO 00000KT 10SM SCT015 BKN060 26/23 A2990 RMK AO2 T02570231 PWINO,2024-08-08T01:55:00Z,25.7,23.1,10+,29.90
KCIR,37.0639,-89.2232,30,4,4.6,KCIR 080155Z AUTO 03004KT 10SM CLR 22/20 A2987 RMK AO2 T02200200,2024-08-08T01:55:00Z,22,20,10+,29.87
KCIN,42.0444,-94.7888,0,0,0.0,KCIN 080155Z AUTO 00000KT 10SM CLR 21/19 A2992 RMK AO2,2024-08-08T01:55:00Z,21,19,10+,29.92
KCHK,35.0927,-97.9709,130,7,8.06,KCHK 080155Z AUTO 13007KT 10SM CLR 34/17 A2978 RMK AO2 T03380172,2024-08-08T01:55:00Z,33.8,17.2,10+,29.78
KCGC,28.866,-82.5741,250,4,4.6,KCGC 080155Z AUTO 25004KT 10SM CLR 29/26 A2971 RMK AO2,2024-08-08T01:55:00Z,29,26,10+,29.71
KCFS,43.4624,-83.4428,0,0,0.0,KCFS 080155Z AUTO 00000KT 10SM CLR 17/14 A3000 RMK AO2 T01730143,2024-08-08T01:55:00Z,17.3,14.3,10+,30.00
KCFJ,39.9767,-86.9148,40,4,4.6,KCFJ 080155Z AUTO 04004KT 10SM CLR 18/14 A2991 RMK AO2 T01830140,2024-08-08T01:55:00Z,18.3,14,10+,29.91
KCFE,45.1601,-93.846,0,0,0.0,KCFE 080155Z AUTO 00000KT 9SM -RA SCT034 BKN042 OVC048 18/18 A2992 RMK AO2,2024-08-08T01:55:00Z,18,18,9,29.92
KCFD,30.7171,-96.3347,,,,KCFD 080155Z AUTO 10SM CLR 29/24 A2981 RMK AO2 T02920235,2024-08-08T01:55:00Z,29.2,23.5,10+,29.81
KCEY,36.664,-88.372,330,8,9.21,KCEY 080155Z AUTO 33008KT 10SM OVC018 23/23 A2984 RMK A01,2024-08-08T01:55:00Z,23,23,10+,29.84
KCEF,42.201,-72.525,0,0,0.0,KCEF 080155Z 00000KT 10SM CLR 17/16 A3005 RMK AO2A SLP179 T01710161,2024-08-08T01:55:00Z,17.1,16.1,10+,30.05
KCDN,34.2815,-80.5636,10,12,13.81,KCDN 080155Z AUTO 01012G20KT 10SM BKN034 OVC060 25/24 A2963 RMK AO2 P0003,2024-08-08T01:55:00Z,25,24,10+,29.63
KCDI,39.976,-81.577,10,4,4.6,KCDI 080155Z AUTO 01004KT 10SM BKN022 24/20 A2988 RMK AO2 T02350204,2024-08-08T01:55:00Z,23.5,20.4,10+,29.88
KCDH,33.619,-92.765,0,0,0.0,KCDH 080155Z AUTO 00000KT 8SM CLR 29/24 A2979 RMK AO2,2024-08-08T01:55:00Z,29,24,8,29.79
KCDA,44.5677,-72.0191,0,0,0.0,KCDA 080155Z AUTO 00000KT 10SM CLR 17/11 A3011 RMK AO2 T01700105,2024-08-08T01:55:00Z,17,10.5,10+,30.11
KCCY,43.073,-92.6132,190,3,3.45,KCCY 080155Z AUTO 19003KT 10SM CLR 20/18 A2995 RMK AO2,2024-08-08T01:55:00Z,20,18,10+,29.95
KCCU,39.475,-106.152,300,6,6.9,KCCU 080155Z AUTO 30006KT 7SM +RA SCT022 BKN030 BKN037 11/06 A3074 RMK AO2 P0002,2024-08-08T01:55:00Z,11,6,7,30.74
KCCO,33.3107,-84.7713,330,3,3.45,KCCO 080155Z AUTO 33003KT 10SM CLR 29/20 A2976 RMK AO2 T02920198,2024-08-08T01:55:00Z,29.2,19.8,10+,29.76
KCCB,34.1118,-117.685,260,10,11.51,KCCB 080155Z AUTO 26010G17KT 10SM CLR 27/14 A2995 RMK AO2,2024-08-08T01:55:00Z,27,14,10+,29.95
KCCA,35.5946,-92.4455,0,0,0.0,KCCA 080155Z AUTO 00000KT 10SM CLR 23/19 A2987 RMK AO2,2024-08-08T01:55:00Z,23,19,10+,29.87
KCBM,33.6519,-88.4567,330,10,11.51,KCBM 080155Z AUTO 33010KT 10SM CLR 27/22 A2973 RMK AO2 SLP067 T02690218 $,2024-08-08T01:55:00Z,26.9,21.8,10+,29.73
KCBK,39.4301,-101.051,50,8,9.21,KCBK 080155Z AUTO 05008KT 10SM CLR 29/16 A2997 RMK AO2 T02900161,2024-08-08T01:55:00Z,29,16.1,10+,29.97
KCBG,45.557,-93.264,0,0,0.0,KCBG 080155Z AUTO 00000KT 10SM OVC065 16/14 A2993 RMK AO2 P0002,2024-08-08T01:55:00Z,16,14,10+,29.93
KCBF,41.2611,-95.7604,140,4,4.6,KCBF 080155Z AUTO 14004KT 10SM FEW120 23/19 A2990 RMK AO2,2024-08-08T01:55:00Z,23,19,10+,29.90
KCAV,42.743,-93.7592,150,5,5.75,KCAV 080155Z AUTO 15005KT 10SM CLR 20/17 A2994 RMK A01,2024-08-08T01:55:00Z,20,17,10+,29.94
KCAO,36.4483,-103.154,330,10,11.51,KCAO 080155Z AUTO 33010G26KT 10SM CLR 29/11 A3002 RMK AO2 PK WND 32036/0143 SLP083 T02890106 $,2024-08-08T01:55:00Z,28.9,10.6,10+,30.02
KCAD,44.2785,-85.4207,0,0,0.0,KCAD 080155Z AUTO 00000KT 10SM CLR 16/14 A3000 RMK AO2,2024-08-08T01:55:00Z,16,14,10+,30.00
KC83,37.8276,-121.624,240,17,19.56,KC83 080155Z AUTO 24017G25KT 10SM CLR 34/04 A2982 RMK AO2,2024-08-08T01:55:00Z,34,4,10+,29.82
KC75,41.0231,-89.3886,,,,KC75 080155Z AUTO 10SM CLR 19/16 A2993 RMK AO2 T01900156,2024-08-08T01:55:00Z,19,15.6,10+,29.93
KC65,41.3636,-86.2998,0,0,0.0,KC65 080155Z AUTO 00000KT 10SM OVC049 21/18 A2994 RMK A01,2024-08-08T01:55:00Z,21,18,10+,29.94
KC35,43.5261,-89.9809,0,0,0.0,KC35 080155Z AUTO 00000KT 10SM CLR 20/16 A2995 RMK AO2 T02000158 PWINO,2024-08-08T01:55:00Z,20,15.8,10+,29.95
KC29,43.1153,-89.5312,0,0,0.0,KC29 080155Z AUTO 00000KT 10SM CLR 20/18 A2997 RMK AO1 T01990175,2024-08-08T01:55:00Z,19.9,17.5,10+,29.97
KC09,41.4317,-88.4152,0,0,0.0,KC09 080155Z AUTO 00000KT 10SM -RA CLR 19/16 A2993 RMK AO2 T01890162,2024-08-08T01:55:00Z,18.9,16.2,10+,29.93
KC08,38.0138,-105.373,10,6,6.9,KC08 080155Z AUTO 01006KT 10SM -RA FEW036 SCT055 BKN080 16/13 A3041 RMK AO2 LTG DSNT NE AND SE AND NW P0001,2024-08-08T01:55:00Z,16,13,10+,30.41
KBYY,28.9717,-95.8584,170,4,4.6,KBYY 080155Z AUTO 17004KT 10SM CLR 28/25 A2980 RMK AO2 T02810251,2024-08-08T01:55:00Z,28.1,25.1,10+,29.80
KBYS,35.271,-116.634,170,17,19.56,KBYS 080155Z AUTO 17017G29KT 9SM CLR 40/06 A2980 RMK AO2 SLP054 T04040055 $,2024-08-08T01:55:00Z,40.4,5.5,9,29.80
KBYL,36.7954,-84.2013,0,0,0.0,KBYL 080155Z AUTO 00000KT 10SM CLR 24/22 A2981 RMK AO1,2024-08-08T01:55:00Z,24,22,10+,29.81
KBXK,33.4178,-112.688,150,7,8.06,KBXK 080155Z AUTO 15007KT 10SM CLR 37/17 A2983 RMK A01,2024-08-08T01:55:00Z,37,17,10+,29.83
KBXA,30.8104,-89.8627,0,0,0.0,KBXA 080155Z AUTO 00000KT 10SM CLR 28/M03 A2977 RMK AO2 T02821030,2024-08-08T01:55:00Z,28.2,-3,10+,29.77
KBWW,46.1656,-103.296,340,7,8.06,KBWW 080155Z AUTO 34007KT 10SM BKN060 OVC065 14/14 A3020 RMK AO2,2024-08-08T01:55:00Z,14,14,10+,30.20
KBVU,35.9489,-114.863,130,10,11.51,KBVU 080155Z AUTO 13010G17KT 10SM CLR 35/16 A2983 RMK AO2,2024-08-08T01:55:00Z,35,16,10+,29.83
KBVS,48.4696,-122.419,0,0,0.0,KBVS 080155Z AUTO 00000KT 10SM CLR 22/16 A3003 RMK A01,2024-08-08T01:55:00Z,22,16,10+,30.03
KBVN,41.7301,-98.0546,0,0,0.0,KBVN 080155Z AUTO 00000KT 10SM SCT065 OVC100 25/22 A2993 RMK AO2 T02460222,2024-08-08T01:55:00Z,24.6,22.2,10+,29.93
KBVI,40.7735,-80.3825,60,3,3.45,KBVI 080155Z AUTO 06003KT 10SM OVC017 23/19 A2994 RMK AO2 T02300187,2024-08-08T01:55:00Z,23,18.7,10+,29.94
KBUU,42.6908,-88.308,0,0,0.0,KBUU 080155Z AUTO 00000KT 10SM CLR 16/14 A2998 RMK AO2 T01550144 PWINO,2024-08-08T01:55:00Z,15.5,14.4,10+,29.98
KBTN,45.8186,-97.7457,350,5,5.75,KBTN 080155Z AUTO 35005KT 10SM OVC036 16/15 A3001 RMK AO2,2024-08-08T01:55:00Z,16,15,10+,30.01
KBTA,41.415,-96.109,70,3,3.45,KBTA 080155Z AUTO 07003KT 10SM CLR 23/19 A2992 RMK AO2 T02290190,2024-08-08T01:55:00Z,22.9,19,10+,29.92
KBRY,37.8079,-85.5011,340,5,5.75,KBRY 080155Z AUTO 34005KT 10SM OVC055 26/24 A2980 RMK AO2 T02640244 $,2024-08-08T01:55:00Z,26.4,24.4,10+,29.80
KBRG,34.6477,-106.833,170,5,5.75,KBRG 080155Z AUTO 17005KT 10SM CLR 32/00 A3003 RMK AO2 LTG DSNT NE AND W T03241001,2024-08-08T01:55:00Z,32.4,-0.1,10+,30.03
KBQP,32.7583,-91.8793,60,3,3.45,KBQP 080155Z AUTO 06003KT 10SM CLR 28/23 A2980 RMK AO2 T02840227,2024-08-08T01:55:00Z,28.4,22.7,10+,29.80
KBQK,31.2567,-81.4754,270,6,6.9,KBQK 080155Z AUTO 27006KT 10SM BKN110 25/23 A2962 RMK AO2 LTG DSNT S T02470234,2024-08-08T01:55:00Z,24.7,23.4,10+,29.62
KBPG,32.2097,-101.525,80,5,5.75,KBPG 080155Z AUTO 08005KT 10SM CLR 36/09 A2986 RMK AO2 T03560088,2024-08-08T01:55:00Z,35.6,8.8,10+,29.86
KBPC,35.8913,-101.027,,,,KBPC 080155Z AUTO 10SM CLR 33/08 A2985 RMK AO2,2024-08-08T01:55:00Z,33,8,10+,29.85
KBOW,27.9471,-81.7811,220,7,8.06,KBOW 080155Z AUTO 22007KT 10SM CLR 28/26 A2974 RMK AO2 PWINO,2024-08-08T01:55:00Z,28,26,10+,29.74
KBNW,42.0486,-93.8486,140,5,5.75,KBNW 080155Z AUTO 14005KT 10SM 20/18 A2992 RMK AO2,2024-08-08T01:55:00Z,20,18,10+,29.92
KBNL,33.2601,-81.387,10,12,13.81,KBNL 080155Z AUTO 01012KT 10SM FEW029 SCT035 BKN044 27/22 A2960 RMK AO2,2024-08-08T01:55:00Z,27,22,10+,29.60
KBLV,38.54,-89.845,340,3,3.45,KBLV 080155Z 34003KT 10SM BKN023 OVC041 24/20 A2988 RMK AO2A SLP118 T02360201 $,2024-08-08T01:55:00Z,23.6,20.1,10+,29.88
KBKV,28.4739,-82.4537,240,5,5.75,KBKV 080155Z 24005KT 10SM 28/26 A2972,2024-08-08T01:55:00Z,28,26,10+,29.72
KBKT,37.082,-77.953,70,6,6.9,KBKT 080155Z AUTO 07006KT 9SM OVC007 24/24 A2985 RMK AO2 SLP107 T02440235 $,2024-08-08T01:55:00Z,24.4,23.5,9,29.85
KBKS,27.2064,-98.1216,120,8,9.21,KBKS 080155Z AUTO 12008KT 10SM CLR 31/25 A2977 RMK AO2 SLP041 T03090253 $,2024-08-08T01:55:00Z,30.9,25.3,10+,29.77
KBKN,36.7431,-97.3479,90,8,9.21,KBKN 080155Z AUTO 09008KT 10SM CLR 31/19 A2979 RMK AO2,2024-08-08T01:55:00Z,31,19,10+,29.79
KBKD,32.7206,-98.8931,,,,KBKD 080155Z AUTO 7SM CLR 35/15 A2982 RMK AO2 T03470153,2024-08-08T01:55:00Z,34.7,15.3,7,29.82
KBJI,47.5076,-94.9279,270,5,5.75,KBJI 080155Z AUTO 27005KT 10SM SCT031 SCT037 BKN050 16/16 A2995 RMK AO2 T01640162,2024-08-08T01:55:00Z,16.4,16.2,10+,29.95
KBIX,30.415,-88.922,0,0,0.0,KBIX 080155Z AUTO 00000KT 10SM CLR 31/24 A2972 RMK AO2 SLP067 T03120240,2024-08-08T01:55:00Z,31.2,24,10+,29.72
KBIJ,31.4,-84.8939,0,0,0.0,KBIJ 080155Z AUTO 00000KT 10SM CLR 27/22 A2970 RMK AO2,2024-08-08T01:55:00Z,27,22,10+,29.70
KBIF,31.861,-106.369,240,7,8.06,KBIF 080155Z AUTO 24007KT 10SM CLR 34/11 A2995 RMK AO2 SLP066 T03410106 $,2024-08-08T01:55:00Z,34.1,10.6,10+,29.95
KBIE,40.3005,-96.7517,0,0,0.0,KBIE 080155Z AUTO 00000KT 10SM CLR 26/18 A2990 RMK AO2 LTG DSNT W T02620180,2024-08-08T01:55:00Z,26.2,18,10+,29.90
KBHC,31.712,-82.3902,0,0,0.0,KBHC 080155Z AUTO 00000KT 10SM CLR 25/23 A2964 RMK AO2 LTG DSNT S,2024-08-08T01:55:00Z,25,23,10+,29.64
KBGF,35.174,-86.0678,340,5,5.75,KBGF 080155Z AUTO 34005KT 10SM FEW028 SCT036 BKN043 26/24 A2978 RMK A01,2024-08-08T01:55:00Z,26,24,10+,29.78
KBGE,30.9709,-84.6344,270,5,5.75,KBGE 080155Z AUTO 27005KT 10SM CLR 28/24 A2969 RMK AO2 T02760236,2024-08-08T01:55:00Z,27.6,23.6,10+,29.69
KBFA,45.166,-84.924,0,0,0.0,KBFA 080155Z AUTO 00000KT 10SM CLR 19/16 A2998 RMK AO2,2024-08-08T01:55:00Z,19,16,10+,29.98
KBEC,37.694,-97.215,110,6,6.9,KBEC 080155Z AUTO 11006KT 10SM CLR 29/17 A2983 RMK AO2 LTG DSNT W T02930168,2024-08-08T01:55:00Z,29.3,16.8,10+,29.83
KBDU,40.0377,-105.227,150,6,6.9,KBDU 080155Z AUTO 15006KT 10SM CLR 27/06 A3007 RMK AO2 LTG DSNT E AND SW,2024-08-08T01:55:00Z,27,6,10+,30.07
KBDN,44.1006,-121.198,350,7,8.06,KBDN 080155Z AUTO 35007KT 10SM CLR 30/M03 A3005 RMK AO2,2024-08-08T01:55:00Z,30,-3,10+,30.05
KBDH,45.1111,-95.1258,170,3,3.45,KBDH 080155Z AUTO 17003KT 10SM OVC022 20/19 A2991 RMK AO2,2024-08-08T01:55:00Z,20,19,10+,29.91
KBDG,37.587,-109.481,270,6,6.9,KBDG 080155Z AUTO 27006KT 5SM HZ 27/14 A3010 RMK AO2 T02690139 PWINO PNO TSNO $,2024-08-08T01:55:00Z,26.9,13.9,5,30.10
KBCK,44.2499,-90.85,0,0,0.0,KBCK 080155Z AUTO 00000KT 10SM OVC110 20/19 A2994 RMK AO2 T01970190,2024-08-08T01:55:00Z,19.7,19,10+,29.94
KBCB,37.208,-80.4127,70,4,4.6,KBCB 080155Z AUTO 07004KT 10SM SCT008 SCT027 23/23 A2994 RMK AO2 T02270227,2024-08-08T01:55:00Z,22.7,22.7,10+,29.94
KBBP,34.6228,-79.7354,20,12,13.81,KBBP 080155Z AUTO 02012G16KT 4SM +RA OVC015 23/23 A2962 RMK AO2 P0017 LTG DSNT E,2024-08-08T01:55:00Z,23,23,4,29.62
KBBD,31.1766,-99.3229,120,7,8.06,KBBD 080155Z AUTO 12007KT 10SM CLR 34/13 A2982 RMK AO2,2024-08-08T01:55:00Z,34,13,10+,29.82
KBBB,45.331,-95.6469,320,12,13.81,KBBB 080155Z AUTO 32012G17KT 10SM SCT011 BKN021 OVC034 19/18 A2993 RMK AO2,2024-08-08T01:55:00Z,19,18,10+,29.93
KBAX,43.7774,-82.9828,0,0,0.0,KBAX 080155Z AUTO 00000KT 10SM CLR 17/14 A3001 RMK AO2 T01650136,2024-08-08T01:55:00Z,16.5,13.6,10+,30.01
KBAM,40.6048,-116.872,360,7,8.06,KBAM 080155Z AUTO 36007KT 10SM CLR 32/03 A3005 RMK AO1,2024-08-08T01:55:00Z,32,3,10+,30.05
KBAD,32.488,-93.658,130,4,4.6,KBAD 080155Z AUTO 13004KT 10SM CLR 31/24 A2975 RMK AO2 SLP076 T03080242,2024-08-08T01:55:00Z,30.8,24.2,10+,29.75
KBAC,46.9419,-98.0179,310,6,6.9,KBAC 080155Z AUTO 31006KT 7SM CLR 15/15 A3003 RMK AO2,2024-08-08T01:55:00Z,15,15,7,30.03
KBAB,39.145,-121.436,190,8,9.21,KBAB 080155Z AUTO 19008KT 10SM CLR 38/M01 A2979 RMK AO2 SLP090 T03751008 $,2024-08-08T01:55:00Z,37.5,-0.8,10+,29.79
KAZE,31.8792,-82.6454,0,0,0.0,KAZE 080155Z AUTO 00000KT 10SM CLR 25/25 A2965 RMK AO2 T02530246,2024-08-08T01:55:00Z,25.3,24.6,10+,29.65
KAZC,36.959,-113.013,270,11,12.66,KAZC 080155Z AUTO 27011KT 10SM CLR 36/12 A3011 RMK AO2,2024-08-08T01:55:00Z,36,12,10+,30.11
KAYS,31.2466,-82.4014,0,0,0.0,KAYS 080155Z AUTO 00000KT A2965 RMK AO2 LTG DSNT SE PWINO,2024-08-08T01:55:00Z,,,,29.65
KAXX,36.422,-105.29,130,5,5.75,KAXX 080155Z AUTO 13005KT 10SM CLR 16/09 A3037 RMK AO2 T01630094,2024-08-08T01:55:00Z,16.3,9.4,10+,30.37
KAXV,40.4959,-84.2929,20,4,4.6,KAXV 080155Z AUTO 02004KT 10SM OVC031 21/17 A2992 RMK AO2,2024-08-08T01:55:00Z,21,17,10+,29.92
KAXS,34.6963,-99.3402,130,9,10.36,KAXS 080155Z AUTO 13009KT 10SM CLR 35/13 A2980 RMK AO2,2024-08-08T01:55:00Z,35,13,10+,29.80
KAXA,43.0796,-94.2723,170,5,5.75,KAXA 080155Z AUTO 17005KT 10SM OVC041 22/19 A2993 RMK A01,2024-08-08T01:55:00Z,22,19,10+,29.93
KAWG,41.2749,-91.6746,0,0,0.0,KAWG 080155Z AUTO 00000KT 10SM CLR 20/17 A2993 RMK AO2,2024-08-08T01:55:00Z,20,17,10+,29.93
KAVQ,32.4112,-111.216,290,3,3.45,KAVQ 080155Z AUTO 29003KT 10SM CLR 33/18 A2993 RMK AO2 LTG DSNT E AND S,2024-08-08T01:55:00Z,33,18,10+,29.93
KAVK,36.7765,-98.6724,150,12,13.81,KAVK 080155Z AUTO 15012KT 10SM CLR 36/17 A2976 RMK AO2,2024-08-08T01:55:00Z,36,17,10+,29.76
KAVC,36.6854,-78.0523,0,0,0.0,KAVC 080155Z AUTO 00000KT 10SM BKN009 OVC016 25/25 A2989 RMK AO2 P0001 T02470245,2024-08-08T01:55:00Z,24.7,24.5,10+,29.89
KAUN,38.9553,-121.087,200,4,4.6,KAUN 080155Z AUTO 20004KT 9SM CLR 36/M04 A2992 RMK A01,2024-08-08T01:55:00Z,36,-4,9,29.92
KAUM,43.6688,-92.9321,0,0,0.0,KAUM 080155Z AUTO 00000KT 10SM OVC090 21/18 A2996 RMK AO2,2024-08-08T01:55:00Z,21,18,10+,29.96
KAUH,40.8966,-97.9974,120,4,4.6,KAUH 080155Z AUTO 12004KT 10SM CLR 22/20 A2992 RMK AO2 T02180200,2024-08-08T01:55:00Z,21.8,20,10+,29.92
KATS,32.8524,-104.464,140,8,9.21,KATS 080155Z AUTO 14008KT 10SM CLR 34/05 A2993 RMK AO2,2024-08-08T01:55:00Z,34,5,10+,29.93
KATA,33.1017,-94.1937,0,0,0.0,KATA 080155Z AUTO 00000KT 10SM CLR 28/26 A2974 RMK AO2 SLP970 T02760263 $,2024-08-08T01:55:00Z,27.6,26.3,10+,29.74
KASW,41.274,-85.842,110,3,3.45,KASW 080155Z AUTO 11003KT 10SM BKN048 20/16 A2995 RMK AO2 T02050160,2024-08-08T01:55:00Z,20.5,16,10+,29.95
KAST,46.157,-123.883,290,8,9.21,KAST 080155Z AUTO 29008KT 10SM CLR 19/14 A3003 RMK AO2 SLP169 T01890139,2024-08-08T01:55:00Z,18.9,13.9,10+,30.03
KASN,33.569,-86.0519,190,2,2.3,KASN 080155Z AUTO 19002KT 10SM CLR 28/26 A2971 RMK AO2,2024-08-08T01:55:00Z,28,26,10+,29.71
KARW,32.4104,-80.6335,310,13,14.96,KARW 080155Z AUTO 31013G19KT 10SM BKN011 OVC015 24/23 RMK AO2,2024-08-08T01:55:00Z,24,23,10+,
KARM,29.2515,-96.1508,180,6,6.9,KARM 080155Z AUTO 18006KT 10SM CLR 30/25 A2979 RMK AO2 T02970245 TSNO,2024-08-08T01:55:00Z,29.7,24.5,10+,29.79
KAQX,32.9941,-81.271,360,14,16.11,KAQX 080155Z AUTO 36014G24KT 3SM BR SCT020 BKN026 OVC036 25/24 A2958 RMK AO2 TSNO,2024-08-08T01:55:00Z,25,24,3,29.58
KAQO,30.7873,-98.6608,0,0,0.0,KAQO 080155Z AUTO 00000KT 10SM CLR 31/17 A2978 RMK AO2,2024-08-08T01:55:00Z,31,17,10+,29.78
KAPY,26.969,-99.249,,,,KAPY 080155Z AUTO 10SM CLR 34/17 A2977 RMK AO2 T03370169 TSNO,2024-08-08T01:55:00Z,33.7,16.9,10+,29.77
KANW,42.5748,-99.9984,20,13,14.96,KANW 080155Z AUTO 02013G23KT 10SM BKN085 24/17 A3002 RMK AO2 T02400172 PWINO,2024-08-08T01:55:00Z,24,17.2,10+,30.02
KANQ,41.6404,-85.0852,0,0,0.0,KANQ 080155Z AUTO 00000KT 10SM CLR 17/16 A2996 RMK AO2,2024-08-08T01:55:00Z,17,16,10+,29.96
KANK,38.538,-106.049,240,7,8.06,KANK 080155Z AUTO 24007KT 10SM TS FEW200 17/13 A3033 RMK AO2 T01660128 $,2024-08-08T01:55:00Z,16.6,12.8,10+,30.33
KANJ,46.48,-84.3581,160,3,3.45,KANJ 080155Z AUTO 16003KT 10SM CLR 19/13 A3001 RMK AO2 SLP158 T01890128,2024-08-08T01:55:00Z,18.9,12.8,10+,30.01
KAMN,43.3209,-84.6871,70,2,2.3,KAMN 080155Z AUTO 07002KT 10SM CLR 16/14 A2998 RMK AO2,2024-08-08T01:55:00Z,16,14,10+,29.98
KALX,32.916,-85.964,0,0,0.0,KALX 080155Z AUTO 00000KT 10SM CLR 27/22 A2973 RMK AO2 T02730223,2024-08-08T01:55:00Z,27.3,22.3,10+,29.73
KALM,32.8351,-105.994,270,6,6.9,KALM 080155Z AUTO 27006G11KT 10SM CLR 34/06 A2996 RMK AO2,2024-08-08T01:55:00Z,34,6,10+,29.96
KAJR,34.5006,-83.5519,10,3,3.45,KAJR 080155Z AUTO 01003KT 10SM RA SCT050 SCT060 OVC095 25/22 A2978 RMK AO2 T02460221,2024-08-08T01:55:00Z,24.6,22.1,10+,29.78
KAJG,38.6093,-87.7251,300,5,5.75,KAJG 080155Z AUTO 30005KT 10SM CLR 22/21 A2986 RMK AO2 T02180211,2024-08-08T01:55:00Z,21.8,21.1,10+,29.86
KAIT,46.5483,-93.6754,0,0,0.0,KAIT 080155Z AUTO 00000KT 7SM RA SCT010 SCT016 OVC026 16/16 A2993 RMK AO2,2024-08-08T01:55:00Z,16,16,7,29.93
KAIO,41.4059,-95.0465,0,0,0.0,KAIO 080155Z AUTO 00000KT 9SM CLR 21/20 A2991 RMK AO2,2024-08-08T01:55:00Z,21,20,9,29.91
KAIG,45.1566,-89.1115,150,4,4.6,KAIG 080155Z AUTO 15004KT 10SM SCT044 SCT050 18/15 A2998 RMK AO2 T01800145,2024-08-08T01:55:00Z,18,14.5,10+,29.98
KAHQ,41.241,-96.594,110,3,3.45,KAHQ 080155Z AUTO 11003KT 10SM BKN110 23/20 A2992 RMK AO2 T02310195,2024-08-08T01:55:00Z,23.1,19.5,10+,29.92
KAGO,33.2266,-93.2154,0,0,0.0,KAGO 080155Z AUTO 00000KT 9SM BKN055 28/25 A2976 RMK A01,2024-08-08T01:55:00Z,28,25,9,29.76
KAGI,27.5461,-92.4434,300,5,5.75,KAGI 080155Z AUTO 30005KT 10SM CLR 32/24 A2982 RMK AO2 T03150235,2024-08-08T01:55:00Z,31.5,23.5,10+,29.82
KAFO,42.7139,-110.944,10,5,5.75,KAFO 080155Z AUTO 01005KT 10SM CLR 20/05 A3019 RMK AO2,2024-08-08T01:55:00Z,20,5,10+,30.19
KAFK,40.6065,-95.8635,130,4,4.6,KAFK 080155Z AUTO 13004KT 10SM CLR 24/18 A2992 RMK AO2 T02350177,2024-08-08T01:55:00Z,23.5,17.7,10+,29.92
KAFF,38.971,-104.816,350,12,13.81,KAFF 080155Z 35012KT 10SM SCT120 BKN180 22/12 A3022 RMK AO2A SLP129 T02240120,2024-08-08T01:55:00Z,22.4,12,10+,30.22
KAEL,43.6823,-93.3722,360,4,4.6,KAEL 080155Z AUTO 36004KT 10SM OVC050 21/17 A2995 RMK AO2,2024-08-08T01:55:00Z,21,17,10+,29.95
KAEJ,38.8116,-106.121,,,,KAEJ 080155Z AUTO 10SM VCTS CLR 17/11 A3038 RMK AO2 LTG DSNT W THRU N T01680107,2024-08-08T01:55:00Z,16.8,10.7,10+,30.38
KADW,38.8215,-76.8654,90,5,5.75,KADW 080155Z AUTO 09005KT 10SM FEW012 SCT050 25/24 A2989 RMK AO2 SLP126 T02470235 $,2024-08-08T01:55:00Z,24.7,23.5,10+,29.89
KADU,41.6993,-94.9204,0,0,0.0,KADU 080155Z AUTO 00000KT 10SM SCT005 SCT055 BKN075 21/19 A2993 RMK AO2 PWINO,2024-08-08T01:55:00Z,21,19,10+,29.93
KADT,39.8401,-101.045,80,8,9.21,KADT 080155Z AUTO 08008KT 10SM CLR 29/14 A2999 RMK AO2 LTG DSNT W T02920144,2024-08-08T01:55:00Z,29.2,14.4,10+,29.99
KADH,34.8021,-96.6701,60,4,4.6,KADH 080155Z AUTO 06004KT 10SM CLR 33/20 A2982 RMK AO2,2024-08-08T01:55:00Z,33,20,10+,29.82
KADC,46.4502,-95.2135,340,6,6.9,KADC 080155Z AUTO 34006KT 10SM OVC027 17/16 A2994 RMK AO2,2024-08-08T01:55:00Z,17,16,10+,29.94
KACQ,44.0702,-93.5535,0,0,0.0,KACQ 080155Z AUTO 00000KT 10SM OVC046 20/18 A2995 RMK AO2,2024-08-08T01:55:00Z,20,18,10+,29.95
KACP,30.7469,-92.687,0,0,0.0,KACP 080155Z AUTO 00000KT 10SM CLR 29/16 A2978 RMK AO2,2024-08-08T01:55:00Z,29,16,10+,29.78
KACJ,32.1106,-84.1841,270,4,4.6,KACJ 080155Z AUTO 27004KT 9SM CLR 29/23 A2967 RMK AO2 T02890233 $,2024-08-08T01:55:00Z,28.9,23.3,9,29.67
KACB,44.9867,-85.2022,0,0,0.0,KACB 080155Z AUTO 00000KT 10SM CLR 18/14 A2998 RMK AO2 T01840138,2024-08-08T01:55:00Z,18.4,13.8,10+,29.98
KABH,38.7587,-104.299,50,16,18.41,KABH 080155Z AUTO 05016G21KT 10SM BKN110 21/12 A3021 RMK AO2 LTG DSNT NE AND W SLP149 T02120121,2024-08-08T01:55:00Z,21.2,12.1,10+,30.21
KAAT,41.4836,-120.561,250,13,14.96,KAAT 080155Z AUTO 25013G19KT 10SM CLR 32/M09 A3008 RMK AO2 SLP142 T03221094,2024-08-08T01:55:00Z,32.2,-9.4,10+,30.08
KAAS,37.3569,-85.3151,350,3,3.45,KAAS 080155Z AUTO 35003KT 10SM SCT060 25/22 A2981 RMK AO1,2024-08-08T01:55:00Z,25,22,10+,29.81
KAAA,40.1584,-89.339,0,0,0.0,KAAA 080155Z AUTO 00000KT 10SM OVC050 22/20 A2992 RMK AO2 T02180200,2024-08-08T01:55:00Z,21.8,20,10+,29.92
KA39,32.9875,-111.922,190,3,3.45,KA39 080155Z AUTO 19003KT 10SM OVC100 35/19 A2990 RMK AO2,2024-08-08T01:55:00Z,35,19,10+,29.90
K9Y1,47.3941,-102.773,330,4,4.6,K9Y1 080155Z AUTO 33004KT 10SM FEW110 17/08 A3016 RMK AO2,2024-08-08T01:55:00Z,17,8,10+,30.16
K9V9,43.7653,-99.3163,360,8,9.21,K9V9 080155Z AUTO 36008G14KT 10SM SCT031 BKN049 OVC110 23/17 A3003 RMK AO2 T02250166,2024-08-08T01:55:00Z,22.5,16.6,10+,30.03
K9S9,45.4551,-119.686,30,8,9.21,K9S9 080155Z AUTO 03008KT 10SM CLR 30/04 A3001 RMK AO2,2024-08-08T01:55:00Z,30,4,10+,30.01
K9MN,44.0198,-92.4829,110,5,5.75,K9MN 080155Z AUTO 11005KT 10SM BKN090 OVC100 21/15 A2995 RMK AO1 T02070145,2024-08-08T01:55:00Z,20.7,14.5,10+,29.95
K9L2,34.996,-117.857,210,17,19.56,K9L2 080155Z AUTO 21017G24KT 7SM CLR 36/05 A2987 RMK AO2 SLP086 T03630045 $,2024-08-08T01:55:00Z,36.3,4.5,7,29.87
K9A5,34.6846,-85.2899,0,0,0.0,K9A5 080155Z AUTO 00000KT 7SM OVC110 27/22 A2975 RMK AO2 T02680223,2024-08-08T01:55:00Z,26.8,22.3,7,29.75
K96D,48.9402,-97.9053,330,7,8.06,K96D 080155Z AUTO 33007KT 10SM CLR 15/07 A3002 RMK AO2,2024-08-08T01:55:00Z,15,7,10+,30.02
K8W2,38.6554,-78.7083,0,0,0.0,K8W2 080155Z AUTO 00000KT 10SM BKN032 BKN038 OVC065 26/21 A2989 RMK AO1 T02630212,2024-08-08T01:55:00Z,26.3,21.2,10+,29.89
K8V7,37.4547,-102.619,290,17,19.56,K8V7 080155Z AUTO 29017G25KT 9SM VCTS FEW003 SCT055 OVC070 27/13 A2999 RMK AO2 LTG DSNT ALQDS,2024-08-08T01:55:00Z,27,13,9,29.99
K8T6,28.3656,-98.1174,140,10,11.51,K8T6 080155Z AUTO 14010KT 10SM CLR 33/23 A2976 RMK AO2,2024-08-08T01:55:00Z,33,23,10+,29.76
K8B0,44.99,-70.6624,70,3,3.45,K8B0 080155Z AUTO 07003KT 10SM CLR 16/10 A3012 RMK AO2,2024-08-08T01:55:00Z,16,10,10+,30.12
K8A3,36.4164,-85.3061,340,5,5.75,K8A3 080155Z AUTO 34005KT 8SM FEW028 SCT065 OVC100 25/23 A2981 RMK A01,2024-08-08T01:55:00Z,25,23,8,29.81
K8A0,34.2316,-86.2481,340,6,6.9,K8A0 080155Z AUTO 34006KT 10SM CLR 29/23 A2977 RMK AO2,2024-08-08T01:55:00Z,29,23,10+,29.77
K82V,41.151,-104.129,0,0,0.0,K82V 080155Z AUTO 00000KT 10SM 20/13 A3012 RMK AO2 LTG DSNT SE,2024-08-08T01:55:00Z,20,13,10+,30.12
K82C,43.8385,-90.1345,0,0,0.0,K82C 080155Z AUTO 00000KT 10SM CLR 21/17 A2995 RMK AO2 T02080165,2024-08-08T01:55:00Z,20.8,16.5,10+,29.95
K81R,31.2321,-98.7154,100,8,9.21,K81R 080155Z AUTO 10008KT 10SM CLR 34/16 A2982 RMK AO2 T03390162,2024-08-08T01:55:00Z,33.9,16.2,10+,29.82
K7W4,37.9667,-77.7453,0,0,0.0,K7W4 080155Z AUTO 00000KT 10SM SCT012 SCT021 BKN110 25/23 A2989 RMK AO1 T02470232,2024-08-08T01:55:00Z,24.7,23.2,10+,29.89
K7L2,46.219,-100.245,350,9,10.36,K7L2 080155Z AUTO 35009G14KT 9SM FEW043 FEW049 OVC095 18/13 A3011 RMK AO2,2024-08-08T01:55:00Z,18,13,9,30.11
K7BM,38.799,-106.219,120,3,3.45,K7BM 080155Z AUTO 12003KT 10SM TS SCT120 15/07 A3052 RMK AO2 LTG DSNT ALQS,2024-08-08T01:55:00Z,15,7,10+,30.52
K79S,47.845,-110.636,120,5,5.75,K79S 080155Z AUTO 12005KT 10SM FEW050 17/13 A3026 RMK AO2 T01670134,2024-08-08T01:55:00Z,16.7,13.4,10+,30.26
K77S,43.9324,-123.006,330,11,12.66,K77S 080155Z AUTO 33011G16KT 9SM CLR 29/11 A2993 RMK A01,2024-08-08T01:55:00Z,29,11,9,29.93
K74V,40.2799,-110.05,150,4,4.6,K74V 080155Z AUTO 15004KT 7SM CLR 30/10 A3006 RMK AO2,2024-08-08T01:55:00Z,30,10,7,30.06
K6S2,43.9838,-124.11,340,9,10.36,K6S2 080155Z AUTO 34009G15KT 10SM CLR 16/15 A2997 RMK AO2,2024-08-08T01:55:00Z,16,15,10+,29.97
K6S0,45.8063,-109.974,120,7,8.06,K6S0 080155Z AUTO 12007KT 10SM FEW019 FEW042 BKN050 15/13 A3029 RMK A01,2024-08-08T01:55:00Z,15,13,10+,30.29
K6R3,30.358,-95.007,0,0,0.0,K6R3 080155Z AUTO 00000KT 10SM CLR 29/26 A2980 RMK AO2 T02850262,2024-08-08T01:55:00Z,28.5,26.2,10+,29.80
K6P9,32.4294,-98.5959,100,6,6.9,K6P9 080155Z AUTO 10006KT 10SM CLR A2985 RMK AO2,2024-08-08T01:55:00Z,,,10+,29.85
K6L4,37.8553,-81.915,70,7,8.06,K6L4 080155Z AUTO 07007KT 10SM SCT060 SCT075 25/21 A2984 RMK AO2,2024-08-08T01:55:00Z,25,21,10+,29.84
K6B9,42.9141,-76.4428,0,0,0.0,K6B9 080155Z AUTO 00000KT 10SM CLR 17/17 A3004 RMK AO2,2024-08-08T01:55:00Z,17,17,10+,30.04
K6B0,43.9888,-73.0952,0,0,0.0,K6B0 080155Z AUTO 00000KT 10SM CLR 15/14 A3007 RMK AO2 T01540138 TSNO,2024-08-08T01:55:00Z,15.4,13.8,10+,30.07
K6A2,33.227,-84.275,0,0,0.0,K6A2 080155Z AUTO 00000KT 10SM CLR 27/20 A2973 RMK AO2,2024-08-08T01:55:00Z,27,20,10+,29.73
K6A1,32.5733,-84.247,60,5,5.75,K6A1 080155Z AUTO 06005KT 10SM CLR 29/21 A2971 RMK AO2 T02910213,2024-08-08T01:55:00Z,29.1,21.3,10+,29.71
K66R,29.6382,-96.5137,0,0,0.0,K66R 080155Z AUTO 00000KT 10SM CLR 29/24 A2979 RMK AO2 T02910240,2024-08-08T01:55:00Z,29.1,24,10+,29.79
K65S,48.7255,-116.293,40,8,9.21,K65S 080155Z AUTO 04008G15KT 10SM CLR 26/08 A3009 RMK AO2,2024-08-08T01:55:00Z,26,8,10+,30.09
K63S,48.544,-117.884,0,0,0.0,K63S 080155Z 00000KT 10SM CLR 29/02 A3001 RMK A01 EAST/WEST TURF RUNWAY CLOSED FOR FIRE FIGHTING HELICOPTER USE,2024-08-08T01:55:00Z,29,2,10+,30.01
K60R,30.368,-96.113,120,3,3.45,K60R 080155Z AUTO 12003KT 10SM CLR 30/25 A2976 RMK AO2 SLP996 T03000245 $,2024-08-08T01:55:00Z,30,24.5,10+,29.76
K5T9,28.8568,-100.516,90,4,4.6,K5T9 080155Z AUTO 09004KT 10SM CLR 36/15 A2974 RMK A01,2024-08-08T01:55:00Z,36,15,10+,29.74
K5SM,39.426,-107.38,130,9,10.36,K5SM 080155Z AUTO 13009KT 10SM TS SCT085 OVC110 10/05 A3062 RMK AO2 LTG DSNT E THRU S,2024-08-08T01:55:00Z,10,5,10+,30.62
K5R8,30.4368,-93.4696,0,0,0.0,K5R8 080155Z AUTO 00000KT 10SM CLR 27/24 A2979 RMK AO2 T02710235,2024-08-08T01:55:00Z,27.1,23.5,10+,29.79
K5H4,47.7906,-99.9346,340,11,12.66,K5H4 080155Z AUTO 34011KT 10SM CLR 16/08 A3011 RMK AO2,2024-08-08T01:55:00Z,16,8,10+,30.11
K5C1,29.7267,-98.6964,140,8,9.21,K5C1 080155Z AUTO 14008KT 10SM CLR 31/19 A2982 RMK AO1,2024-08-08T01:55:00Z,31,19,10+,29.82
K57C,42.7971,-88.3655,0,0,0.0,K57C 080155Z AUTO 00000KT 10SM CLR 16/15 A2998 RMK AO2 T01620150,2024-08-08T01:55:00Z,16.2,15,10+,29.98
K54J,30.7312,-86.1542,310,5,5.75,K54J 080155Z AUTO 31005KT 10SM CLR 29/22 A2973 RMK AO2 T02900222,2024-08-08T01:55:00Z,29,22.2,10+,29.73
K54A,26.8601,-82.2468,250,5,5.75,K54A 080155Z AUTO 25005G11KT 10SM BKN019 OVC025 30/11 A2975 RMK AO2,2024-08-08T01:55:00Z,30,11,10+,29.75
K4V1,37.6941,-104.788,270,9,10.36,K4V1 080155Z AUTO 27009KT 10SM FEW120 25/11 A3018 RMK AO2,2024-08-08T01:55:00Z,25,11,10+,30.18
K4V0,40.0956,-108.762,190,11,12.66,K4V0 080155Z AUTO 19011KT 10SM CLR 26/09 A3007 RMK AO2 LTG DSNT SE T02620091,2024-08-08T01:55:00Z,26.2,9.1,10+,30.07
K4S2,45.6746,-121.535,0,0,0.0,K4S2 080155Z AUTO 00000KT 10SM CLR 28/15 A2993 RMK AO2,2024-08-08T01:55:00Z,28,15,10+,29.93
K4S1,42.4161,-124.426,0,0,0.0,K4S1 080155Z AUTO 00000KT 2SM BR CLR 13/11 A2991 RMK AO2,2024-08-08T01:55:00Z,13,11,2,29.91
K4R5,46.7887,-90.7559,270,4,4.6,K4R5 080155Z AUTO 27004KT 10SM RA BKN043 BKN085 OVC110 17/15 A2994 RMK AO2 T01660152,2024-08-08T01:55:00Z,16.6,15.2,10+,29.94
K4O4,33.9133,-94.8546,0,0,0.0,K4O4 080155Z AUTO 00000KT 10SM SCT060 32/22 A2977 RMK AO2,2024-08-08T01:55:00Z,32,22,10+,29.77
K4MR,34.29,-103.791,170,10,11.51,K4MR 080155Z AUTO 17010KT 10SM CLR 30/08 A2993 RMK AO2 LTG DSNT N SLP032 T03030075 $,2024-08-08T01:55:00Z,30.3,7.5,10+,29.93
K4M9,36.404,-90.647,330,4,4.6,K4M9 080155Z AUTO 33004KT 10SM CLR 22/22 A2986 RMK A01,2024-08-08T01:55:00Z,22,22,10+,29.86
K4I3,40.3268,-82.5201,20,4,4.6,K4I3 080155Z AUTO 02004KT 10SM BKN024 21/19 A2991 RMK AO2,2024-08-08T01:55:00Z,21,19,10+,29.91
K4F2,32.18,-94.2976,0,0,0.0,K4F2 080155Z AUTO 00000KT 10SM CLR 27/25 A2978 RMK AO2 T02730248,2024-08-08T01:55:00Z,27.3,24.8,10+,29.78
K4BM,39.05,-105.514,0,0,0.0,K4BM 080155Z AUTO 00000KT 10SM TS OVC070 13/05 A3065 RMK AO2 LTG DSNT N AND S,2024-08-08T01:55:00Z,13,5,10+,30.65
K4B8,41.69,-72.865,0,0,0.0,K4B8 080155Z AUTO 00000KT 10SM FEW120 SCT140 18/18 A3008 RMK AO2 T01790179,2024-08-08T01:55:00Z,17.9,17.9,10+,30.08
K4A9,34.4759,-85.717,0,0,0.0,K4A9 080155Z AUTO 00000KT 10SM CLR 26/23 A2975 RMK AO2 T02600234,2024-08-08T01:55:00Z,26,23.4,10+,29.75
K4A6,34.688,-86.006,VRB,4,4.6,K4A6 080155Z AUTO VRB04KT 10SM CLR 31/27 A2975 RMK AO2,2024-08-08T01:55:00Z,31,27,10+,29.75
K49B,44.4284,-103.38,340,7,8.06,K49B 080155Z AUTO 34007KT 10SM OVC036 20/14 A3016 RMK AO2,2024-08-08T01:55:00Z,20,14,10+,30.16
K49A,34.6301,-84.5271,360,3,3.45,K49A 080155Z AUTO 36003KT 10SM CLR 24/24 A2978 RMK AO2,2024-08-08T01:55:00Z,24,24,10+,29.78
K48I,38.684,-80.649,0,0,0.0,K48I 080155Z AUTO 00000KT 10SM OVC110 23/22 A2986 RMK AO2,2024-08-08T01:55:00Z,23,22,10+,29.86
K48A,32.3993,-83.2785,0,0,0.0,K48A 080155Z AUTO 00000KT 10SM SCT090 28/24 A2967 RMK AO2 T02790240,2024-08-08T01:55:00Z,27.9,24,10+,29.67
K46U,43.181,-111.037,0,0,0.0,K46U 080155Z AUTO 00000KT 6SM HZ CLR 24/04 A3015 RMK A01,2024-08-08T01:55:00Z,24,4,6,30.15
K46D,47.4509,-99.1479,310,9,10.36,K46D 080155Z AUTO 31009KT 10SM FEW016 OVC050 16/11 A3006 RMK A01,2024-08-08T01:55:00Z,16,11,10+,30.06
K42J,29.844,-82.05,240,6,6.9,K42J 080155Z AUTO 24006KT 10SM CLR 27/27 A2966 RMK A01,2024-08-08T01:55:00Z,27,27,10+,29.66
K42A,36.0713,-91.8287,0,0,0.0,K42A 080155Z AUTO 00000KT 10SM CLR 21/20 A2989 RMK AO2,2024-08-08T01:55:00Z,21,20,10+,29.89
K40U,40.986,-109.678,320,9,10.36,K40U 080155Z AUTO 32009KT 10SM CLR 27/01 A3017 RMK AO2 T02720006,2024-08-08T01:55:00Z,27.2,0.6,10+,30.17
K3W7,47.9219,-119.077,VRB,3,3.45,K3W7 080155Z AUTO VRB03KT 10SM CLR 32/06 A2997 RMK AO2,2024-08-08T01:55:00Z,32,6,10+,29.97
K3T5,29.9064,-96.9478,150,4,4.6,K3T5 080155Z AUTO 15004KT 10SM CLR 31/23 A2977 RMK AO2 T03070234 $,2024-08-08T01:55:00Z,30.7,23.4,10+,29.77
K3S8,42.51,-123.388,340,10,11.51,K3S8 080155Z AUTO 34010KT 3SM HZ CLR 31/06 A2994 RMK AO2,2024-08-08T01:55:00Z,31,6,3,29.94
K3R7,30.2426,-92.6759,0,0,0.0,K3R7 080155Z AUTO 00000KT 10SM CLR 30/24 A2979 RMK AO2 T02990237,2024-08-08T01:55:00Z,29.9,23.7,10+,29.79
K3N8,47.26,-95.928,310,4,4.6,K3N8 080155Z AUTO 31004KT 10SM SCT060 16/15 A2997 RMK AO2 T01580150,2024-08-08T01:55:00Z,15.8,15,10+,29.97
K3LF,39.1605,-89.6742,350,5,5.75,K3LF 080155Z AUTO 35005KT 10SM BKN024 BKN031 OVC044 22/19 A2992 RMK AO2 T02160186,2024-08-08T01:55:00Z,21.6,18.6,10+,29.92
K3L4,29.8,-92.804,260,8,9.21,K3L4 080155Z AUTO 26008KT 10SM CLR 31/30 A2978 RMK A01,2024-08-08T01:55:00Z,31,30,10+,29.78
K3K7,38.4566,-101.353,90,10,11.51,K3K7 080155Z AUTO 09010KT 10SM CLR 30/17 A2988 RMK AO2,2024-08-08T01:55:00Z,30,17,10+,29.88
K3K3,37.9988,-101.75,80,8,9.21,K3K3 080155Z AUTO 08008KT 10SM 32/07 A2986 RMK AO2,2024-08-08T01:55:00Z,32,7,10+,29.86
K3F3,32.0718,-93.7641,0,0,0.0,K3F3 080155Z AUTO 00000KT 10SM CLR 29/25 A2982 RMK AO2 T02910248,2024-08-08T01:55:00Z,29.1,24.8,10+,29.82
K3D2,45.1348,-87.1881,170,4,4.6,K3D2 080155Z AUTO 17004KT 10SM CLR 17/10 A2996 RMK AO2 T01740100,2024-08-08T01:55:00Z,17.4,10,10+,29.96
K36K,37.9707,-101.255,90,8,9.21,K36K 080155Z AUTO 09008KT 10SM CLR 30/18 A2988 RMK AO2 LTG DSNT W AND NW,2024-08-08T01:55:00Z,30,18,10+,29.88
K35A,34.6849,-81.6421,20,9,10.36,K35A 080155Z AUTO 02009KT 10SM CLR 26/22 A2974 RMK A02 T02640225,2024-08-08T01:55:00Z,26.4,22.5,10+,29.74
K33N,39.218,-75.597,60,8,9.21,K33N 080155Z AUTO 06008KT 3SM BR OVC005 23/23 A2995 RMK A01,2024-08-08T01:55:00Z,23,23,3,29.95
K2V5,40.1,-102.241,360,5,5.75,K2V5 080155Z AUTO 36005KT 10SM VCTS SCT055 SCT100 BKN120 27/17 A3004 RMK AO2 LTG DSNT S THRU W,2024-08-08T01:55:00Z,27,17,10+,30.04
K2R9,28.8267,-97.8676,120,8,9.21,K2R9 080155Z AUTO 12008KT 10SM CLR 32/22 A2979 RMK AO2 T03190218,2024-08-08T01:55:00Z,31.9,21.8,10+,29.79
K2R2,39.7511,-86.4732,50,6,6.9,K2R2 080155Z AUTO 05006KT 10SM CLR 22/19 A2990 RMK AO2 T02200193 $,2024-08-08T01:55:00Z,22,19.3,10+,29.90
K2P2,45.388,-86.924,0,0,0.0,K2P2 080155Z AUTO 00000KT 10SM CLR 15/15 A2996 RMK AO2 T01500150,2024-08-08T01:55:00Z,15,15,10+,29.96
K2M8,35.276,-89.931,320,4,4.6,K2M8 080155Z AUTO 32004KT 10SM CLR 22/20 A2982 RMK AO2 T02230198 $,2024-08-08T01:55:00Z,22.3,19.8,10+,29.82
K2M2,35.2372,-87.2611,,,,K2M2 080155Z AUTO 10SM FEW022 OVC034 24/21 A2980 RMK A01,2024-08-08T01:55:00Z,24,21,10+,29.80
K2J9,30.5987,-84.555,280,5,5.75,K2J9 080155Z AUTO 28005KT 10SM CLR 27/24 A2970 RMK AO2,2024-08-08T01:55:00Z,27,24,10+,29.70
K2J5,32.8913,-81.9664,280,9,10.36,K2J5 080155Z AUTO 28009KT 10SM CLR 26/23 A2963 RMK AO2 T02620233,2024-08-08T01:55:00Z,26.2,23.3,10+,29.63
K2IS,26.739,-81.0528,220,6,6.9,K2IS 080155Z AUTO 22006KT 10SM CLR 27/24 A2979 RMK AO2 T02700236,2024-08-08T01:55:00Z,27,23.6,10+,29.79
K2I0,37.3582,-87.3977,0,0,0.0,K2I0 080155Z AUTO 00000KT 10SM CLR 22/20 A2985 RMK AO2 T02220196,2024-08-08T01:55:00Z,22.2,19.6,10+,29.85
K2G9,40.0401,-79.0158,110,8,9.21,K2G9 080155Z AUTO 11008KT 10SM OVC005 20/18 A2999 RMK AO2,2024-08-08T01:55:00Z,20,18,10+,29.99
K2G2,40.359,-80.7,50,9,10.36,K2G2 080155Z AUTO 05009KT 10SM BKN015 BKN032 OVC047 22/20 A2990 RMK A01,2024-08-08T01:55:00Z,22,20,10+,29.90
K2D5,46.1739,-98.083,330,4,4.6,K2D5 080155Z AUTO 33004KT 4SM HZ OVC049 17/ A3003 RMK AO2,2024-08-08T01:55:00Z,17,,4,30.03
K2C8,48.7838,-97.6297,,,,K2C8 080155Z AUTO 8SM CLR 16/08 A3000 RMK AO2,2024-08-08T01:55:00Z,16,8,8,30.00
K2A0,35.4817,-84.9322,0,0,0.0,K2A0 080155Z AUTO 00000KT 9SM CLR 25/25 A2974 RMK A01,2024-08-08T01:55:00Z,25,25,9,29.74
K28J,29.6602,-81.6918,240,6,6.9,K28J 080155Z AUTO 24006KT 10SM CLR 28/25 A2966 RMK AO2 LTG DSNT N-E,2024-08-08T01:55:00Z,28,25,10+,29.66
K27K,38.239,-84.4336,20,5,5.75,K27K 080155Z AUTO 02005KT 10SM CLR 25/21 A2983 RMK AO1,2024-08-08T01:55:00Z,25,21,10+,29.83
K24J,30.299,-83.0226,0,0,0.0,K24J 080155Z AUTO 00000KT 10SM SCT055 29/26 A2966 RMK A01,2024-08-08T01:55:00Z,29,26,10+,29.66
K22N,40.8116,-75.7647,0,0,0.0,K22N 080155Z AUTO 00000KT 4SM BR OVC012 18/17 A3005 RMK AO2,2024-08-08T01:55:00Z,18,17,4,30.05
K21D,45.0002,-92.8549,0,0,0.0,K21D 080155Z AUTO 00000KT 7SM -RA SCT035 BKN049 OVC060 19/16 A2994 RMK AO2 P0001,2024-08-08T01:55:00Z,19,16,7,29.94
K20V,40.0563,-106.374,220,7,8.06,K20V 080155Z AUTO 22007KT 10SM SCT120 16/10 A3036 RMK AO2 LTG DSNT S,2024-08-08T01:55:00Z,16,10,10+,30.36
K20U,46.9251,-103.985,320,7,8.06,K20U 080155Z AUTO 32007KT 7SM 15/12 A3022 RMK AO2,2024-08-08T01:55:00Z,15,12,7,30.22
K1YT,46.668,-120.457,190,8,9.21,K1YT 080155Z AUTO 19008KT 10SM CLR 32/06 A2993 RMK AO2 SLP128 T03210055 $,2024-08-08T01:55:00Z,32.1,5.5,10+,29.93
K1V6,38.4256,-105.105,280,10,11.51,K1V6 080155Z AUTO 28010G18KT 10SM BKN110 27/12 A3013 RMK AO2 LTG DSNT NE AND W,2024-08-08T01:55:00Z,27,12,10+,30.13
K1U7,42.252,-111.337,310,5,5.75,K1U7 080155Z AUTO 31005KT 10SM CLR 23/07 A3016 RMK A01,2024-08-08T01:55:00Z,23,7,10+,30.16
K1S5,46.3288,-119.974,0,0,0.0,K1S5 080155Z AUTO 00000KT 10SM CLR 30/20 A2994 RMK AO2 T02970197,2024-08-08T01:55:00Z,29.7,19.7,10+,29.94
K1R8,30.8691,-87.8184,0,0,0.0,K1R8 080155Z AUTO 00000KT 10SM CLR 27/25 A2973 RMK AO2,2024-08-08T01:55:00Z,27,25,10+,29.73
K1R7,31.6057,-90.4072,0,0,0.0,K1R7 080155Z AUTO 00000KT 10SM CLR 29/22 A2980 RMK A01 TSNO,2024-08-08T01:55:00Z,29,22,10+,29.80
K1P1,43.7771,-71.756,0,0,0.0,K1P1 080155Z AUTO 00000KT 7SM CLR 16/15 A3008 RMK AO2 T01590150,2024-08-08T01:55:00Z,15.9,15,7,30.08
K1OW,40.885,-103.999,170,4,4.6,K1OW 080155Z AUTO 17004KT 10SM SCT150 OVC220 21/13 A3020 RMK AO2 LTG DSNT SE SLP165 T02090128 PNO $,2024-08-08T01:55:00Z,20.9,12.8,10+,30.20
K1NW,40.632,-103.836,200,4,4.6,K1NW 080155Z AUTO 20004KT 10SM CLR 21/15 A3002 RMK AO2 LTG DSNT SE PRESFR SLP107 T02110145 $,2024-08-08T01:55:00Z,21.1,14.5,10+,30.02
K1NN,48.76,-101.59,360,9,10.36,K1NN 080155Z AUTO 36009KT 10SM BKN180 14/08 M RMK AO2 SLPNO T01420075 $,2024-08-08T01:55:00Z,14.2,7.5,10+,
K1MN,48.67,-101.88,360,8,9.21,K1MN 080155Z AUTO 36008KT M M FEW150 13/08 A3014 RMK AO2 SLP215 T01320076 RVRNO PWINO TSNO $,2024-08-08T01:55:00Z,13.2,7.6,,30.14
K1MM,47.014,-109.63,70,6,6.9,K1MM 080155Z AUTO 07006KT 10SM OVC065 14/12 A3027 RMK AO2 SLP250 T01440117 $,2024-08-08T01:55:00Z,14.4,11.7,10+,30.27
K1M5,36.5956,-86.478,350,5,5.75,K1M5 080155Z AUTO 35005KT 7SM OVC045 24/23 A2981 RMK A01,2024-08-08T01:55:00Z,24,23,7,29.81
K1LN,48.79,-102.27,10,7,8.06,K1LN 080155Z AUTO 01007KT 10SM SCT230 14/08 A3016 RMK AO2 SLP221 T01370081 $,2024-08-08T01:55:00Z,13.7,8.1,10+,30.16
K1LM,46.694,-109.74,360,9,10.36,K1LM 080155Z AUTO 36009KT 10SM CLR 15/11 A3027 RMK AO2 SLP238 T01450113 $,2024-08-08T01:55:00Z,14.5,11.3,10+,30.27
K1KN,48.55,-102.12,360,6,6.9,K1KN 080155Z AUTO 36006KT 10SM FEW170 BKN230 13/08 A3016 RMK AO2 SLP221 T01320076 $,2024-08-08T01:55:00Z,13.2,7.6,10+,30.16
K1KM,46.444,-109.801,120,10,11.51,K1KM 080155Z AUTO 12010KT 10SM FEW014 FEW019 FEW024 BKN031 OVC065 15/12 A3026 RMK AO2 SLP234 T01460121,2024-08-08T01:55:00Z,14.6,12.1,10+,30.26
K1K8,36.543,-95.012,0,0,0.0,K1K8 080155Z AUTO 00000KT 10SM FEW065 27/20 A2982 RMK AO2,2024-08-08T01:55:00Z,27,20,10+,29.82
K1JW,40.961,-103.199,340,4,4.6,K1JW 080155Z AUTO 34004KT 10SM SCT100 23/16 A3003 RMK AO2 LTG DSNT NE AND SE RAE0056 SLP117 P0000 T02310164 $,2024-08-08T01:55:00Z,23.1,16.4,10+,30.03
K1JN,48.41,-101.89,360,6,6.9,K1JN 080155Z AUTO 36006KT 10SM FEW170 13/08 A3015 RMK AO2 SLP218 T01330077 $,2024-08-08T01:55:00Z,13.3,7.7,10+,30.15
K1IW,41.046,-102.865,30,12,13.81,K1IW 080155Z AUTO 03012KT 10SM OVC110 24/15 A3005 RMK AO2 LTG DSNT NE AND S RAE01 SLP128 P0000 T02390154 $,2024-08-08T01:55:00Z,23.9,15.4,10+,30.05
K1IN,48.34,-102.3,360,8,9.21,K1IN 080155Z AUTO 36008KT 10SM SCT220 14/08 A3014 RMK AO2 SLP213 T01400075 $,2024-08-08T01:55:00Z,14,7.5,10+,30.14
K1HN,47.97,-102.22,10,6,6.9,K1HN 080155Z AUTO 01006KT 10SM BKN160 BKN180 16/06 A3013 RMK AO2 SLPNO T01590063 $,2024-08-08T01:55:00Z,15.9,6.3,10+,30.13
K1HM,47.698,-111.943,140,5,5.75,K1HM 080155Z AUTO 14005KT 10SM OVC060 16/12 A3027 RMK AO2 SLP247 T01580116 $,2024-08-08T01:55:00Z,15.8,11.6,10+,30.27
K1H2,39.0712,-88.5293,290,3,3.45,K1H2 080155Z AUTO 29003KT 10SM BKN050 21/20 A2991 RMK AO2 T02070200,2024-08-08T01:55:00Z,20.7,20,10+,29.91
K1GW,41.208,-103.097,10,21,24.17,K1GW 080155Z AUTO 01021G26KT 10SM OVC100 22/18 A3009 RMK AO2 PK WND 01026/47 LTG DSNT NE AND S SLP145 T02210179 $,2024-08-08T01:55:00Z,22.1,17.9,10+,30.09
K1GN,48.12,-101.96,360,8,9.21,K1GN 080155Z AUTO 36008KT 10SM FEW150 OVC190 14/07 A3013 RMK AO2 SLP210 T01410072 $,2024-08-08T01:55:00Z,14.1,7.2,10+,30.13
K1GM,47.325,-112.093,40,7,8.06,K1GM 080155Z AUTO 04007KT 10SM OVC046 15/10 A3025 RMK AO2 SLP241 T01490103,2024-08-08T01:55:00Z,14.9,10.3,10+,30.25
K1FW,41.364,-103.489,30,13,14.96,K1FW 080155Z AUTO 03013G20KT 10SM SCT080 19/17 A3011 RMK AO2 LTG DSNT NE AND SE SLP146 T01910174 $,2024-08-08T01:55:00Z,19.1,17.4,10+,30.11
K1F0,34.1508,-97.1242,0,0,0.0,K1F0 080155Z AUTO 00000KT 10SM CLR 31/21 A2980 RMK AO2 T03120209,2024-08-08T01:55:00Z,31.2,20.9,10+,29.80
K1EW,41.103,-103.983,150,7,8.06,K1EW 080155Z AUTO 15007KT 10SM SCT170 21/15 A3008 RMK AO2 LTG DSNT SE SLP126 T02060147 $,2024-08-08T01:55:00Z,20.6,14.7,10+,30.08
K1EM,47.454,-109.416,90,4,4.6,K1EM 080155Z AUTO 09004KT 10SM SCT055 15/11 A3026 RMK AO2 SLP246 T01460110 $,2024-08-08T01:55:00Z,14.6,11,10+,30.26
K1DW,41.361,-103.794,50,20,23.02,K1DW 080155Z AUTO 05020G24KT 10SM BKN070 20/17 A3016 RMK AO2 LTG DSNT SE RAB0058E11 SLP160 P0000 T01980166 $,2024-08-08T01:55:00Z,19.8,16.6,10+,30.16
K1DN,47.8,-101.3,10,10,11.51,K1DN 080155Z AUTO 01010KT 10SM BKN150 BKN180 16/07 A3010 RMK AO2 SLP199 T01550065 $,2024-08-08T01:55:00Z,15.5,6.5,10+,30.10
K1D8,44.86,-98.529,10,9,10.36,K1D8 080155Z AUTO 01009G15KT 10SM FEW044 OVC050 19/19 A3002 RMK AO2,2024-08-08T01:55:00Z,19,19,10+,30.02
K1D1,45.231,-96.566,340,12,13.81,K1D1 080155Z AUTO 34012KT 9SM FEW010 SCT015 BKN021 18/18 A2997 RMK AO2,2024-08-08T01:55:00Z,18,18,9,29.97
K1CW,41.581,-103.573,60,14,16.11,K1CW 080155Z AUTO 06014KT 10SM BKN085 BKN100 19/17 A3013 RMK AO2 LTG DSNT E-SE AND SW SLP159 T01850173 $,2024-08-08T01:55:00Z,18.5,17.3,10+,30.13
K1BM,47.285,-110.359,90,6,6.9,K1BM 080155Z AUTO 09006KT 10SM BKN009 BKN015 OVC025 14/12 A3029 RMK AO2 CIG 007V009 SLP254 T01380124 $,2024-08-08T01:55:00Z,13.8,12.4,10+,30.29
K1B9,42,-71.197,0,0,0.0,K1B9 080155Z AUTO 00000KT 10SM FEW120 17/16 A3007 RMK AO2 T01690162 $,2024-08-08T01:55:00Z,16.9,16.2,10+,30.07
K1AW,41.329,-104.265,20,8,9.21,K1AW 080155Z AUTO 02008KT 10SM SCT075 21/17 A3014 RMK AO2 LTG DSNT SE SLP142 T02060166 $,2024-08-08T01:55:00Z,20.6,16.6,10+,30.14
K1AM,47.281,-110.801,270,5,5.75,K1AM 080155Z AUTO 27005KT 10SM BKN029 OVC046 15/12 A3028 RMK AO2 CIG 029V044 SLP251 T01510115 $,2024-08-08T01:55:00Z,15.1,11.5,10+,30.28
K1A9,32.4374,-86.5098,0,0,0.0,K1A9 080155Z AUTO 00000KT 10SM OVC090 29/25 A2971 RMK AO2 T02870251,2024-08-08T01:55:00Z,28.7,25.1,10+,29.71
K1A6,36.6087,-83.7369,0,0,0.0,K1A6 080155Z AUTO 00000KT 10SM CLR 26/22 A2981 RMK AO2 T02630217,2024-08-08T01:55:00Z,26.3,21.7,10+,29.81
K19S,37.496,-100.834,110,8,9.21,K19S 080155Z AUTO 11008KT 10SM CLR 29/18 A2984 RMK AO2 T02900185,2024-08-08T01:55:00Z,29,18.5,10+,29.84
K18H,26.1283,-92.0333,310,5,5.75,K18H 080155Z AUTO 31005KT 10SM FEW026 34/25 A2982 RMK A01,2024-08-08T01:55:00Z,34,25,10+,29.82
K18A,34.3418,-83.1316,0,0,0.0,K18A 080155Z AUTO 00000KT 10SM SCT120 26/23 A2974 RMK AO2 T02600229,2024-08-08T01:55:00Z,26,22.9,10+,29.74
K17J,31.0038,-84.8794,0,0,0.0,K17J 080155Z AUTO 00000KT 10SM CLR 28/21 A2971 RMK AO2,2024-08-08T01:55:00Z,28,21,10+,29.71
K15M,34.7745,-88.1676,0,0,0.0,K15M 080155Z AUTO 00000KT 10SM CLR 22/21 A2980 RMK AO2 T02220212 $,2024-08-08T01:55:00Z,22.2,21.2,10+,29.80
K13K,37.8519,-96.2929,80,8,9.21,K13K 080155Z AUTO 08008KT 10SM CLR 27/17 A2987 RMK AO2 T02720174,2024-08-08T01:55:00Z,27.2,17.4,10+,29.87
K11R,30.2232,-96.3734,0,0,0.0,K11R 080155Z AUTO 00000KT 10SM CLR 31/23 A2979 RMK AO2 T03090234,2024-08-08T01:55:00Z,30.9,23.4,10+,29.79
K10U,41.953,-116.182,50,9,10.36,K10U 080155Z AUTO 05009G14KT 10SM CLR 26/00 A3014 RMK AO2,2024-08-08T01:55:00Z,26,0,10+,30.14
K10G,40.5357,-81.9531,30,4,4.6,K10G 080155Z AUTO 03004KT 10SM OVC024 21/20 A2992 RMK AO2,2024-08-08T01:55:00Z,21,20,10+,29.92
K0VG,36.6576,-83.2147,0,0,0.0,K0VG 080155Z AUTO 00000KT 10SM BKN050 BKN055 OVC070 26/24 A2981 RMK AO2,2024-08-08T01:55:00Z,26,24,10+,29.81
K0V4,37.1399,-79.0171,70,9,10.36,K0V4 080155Z AUTO 07009KT 10SM OVC009 24/24 A2986 RMK AO1,2024-08-08T01:55:00Z,24,24,10+,29.86
K0S9,48.0554,-122.812,250,4,4.6,K0S9 080155Z AUTO 25004KT 10SM CLR 19/14 A3003 RMK AO2,2024-08-08T01:55:00Z,19,14,10+,30.03
K0R4,31.5637,-91.5098,230,3,3.45,K0R4 080155Z AUTO 23003KT 10SM CLR 28/25 A2980 RMK AO2 T02760250,2024-08-08T01:55:00Z,27.6,25,10+,29.80
K0E0,34.9837,-105.996,180,5,5.75,K0E0 080155Z AUTO 18005KT 10SM VCTS CLR 28/M01 A3014 RMK AO2 LTG DSNT N T02801008,2024-08-08T01:55:00Z,28,-0.8,10+,30.14
K0D8,44.989,-99.954,10,13,14.96,K0D8 080155Z AUTO 01013KT 10SM BKN039 OVC110 18/15 A3008 RMK A01,2024-08-08T01:55:00Z,18,15,10+,30.08
K0CO,39.794,-105.764,290,8,9.21,K0CO 080155Z AUTO 29008KT 211V081 BKN070 OVC090 05/02 A3071 RMK AO2 PWINO,2024-08-08T01:55:00Z,5,2,,30.71
K0A9,36.3711,-82.1768,0,0,0.0,K0A9 080155Z AUTO 00000KT 10SM CLR 25/20 A2980 RMK AO2,2024-08-08T01:55:00Z,25,20,10+,29.80
K0A0,32.99,-106.967,220,7,8.06,K0A0 080155Z AUTO 22007KT 10SM CLR 32/09 A3000 RMK AO2,2024-08-08T01:55:00Z,32,9,10+,30.00
K08D,48.3018,-102.404,10,10,11.51,K08D 080155Z AUTO 01010KT 10SM CLR 15/06 A3017 RMK AO2,2024-08-08T01:55:00Z,15,6,10+,30.17
K06D,48.8821,-99.6217,310,8,9.21,K06D 080155Z AUTO 31008KT 10SM CLR 12/08 A3009 RMK AO2,2024-08-08T01:55:00Z,12,8,10+,30.09
K06C,41.9924,-88.1091,50,3,3.45,K06C 080155Z AUTO 05003KT 10SM CLR 20/14 A2996 RMK AO2 T02010143,2024-08-08T01:55:00Z,20.1,14.3,10+,29.96
K05U,39.6015,-116.006,360,8,9.21,K05U 080155Z AUTO 36008KT 10SM CLR A3015 RMK A01,2024-08-08T01:55:00Z,,,10+,30.15
K04W,46.0244,-92.8991,0,0,0.0,K04W 080155Z AUTO 00000KT 10SM SCT085 BKN100 16/16 A2994 RMK AO2,2024-08-08T01:55:00Z,16,16,10+,29.94
K00U,45.7453,-107.661,10,12,13.81,K00U 080155Z AUTO 01012KT 10SM BKN046 SCT065 OVC075 18/12 A3024 RMK A01,2024-08-08T01:55:00Z,18,12,10+,30.24
FJDG,-7.313,72.411,170,9,10.36,FJDG 080155Z 17009KT 9999 FEW020 SCT050 BKN080 27/26 A2986 RMK SLP108 T02740261,2024-08-08T01:55:00Z,27.4,26.1,6+,29.86
ETOU,50.048,8.329,0,0,0.0,ETOU 080155Z AUTO 00000KT 9999 SCT190 16/13 A2998 RMK AO2 SLP154 T01560133 $,2024-08-08T01:55:00Z,15.6,13.3,6+,29.98
ETIK,49.472,10.39,240,4,4.6,ETIK 080155Z AUTO 24004KT 9999 SCT075 BKN100 18/16 A2997 RMK AO2 SLP145 T01760161 $,2024-08-08T01:55:00Z,17.6,16.1,6+,29.97
ETIH,49.216,11.839,270,3,3.45,ETIH 080155Z AUTO 27003KT 9999 BKN085 16/15 A2999 RMK AO2 SLP150 T01580145 $,2024-08-08T01:55:00Z,15.8,14.5,6+,29.99
ETIC,49.696,11.941,0,0,0.0,ETIC 080155Z AUTO 00000KT 6000 BR CLR 14/14 A2996 RMK AO2 SLP142 T01440136 $,2024-08-08T01:55:00Z,14.4,13.6,3.73,29.96
ETEB,49.308,10.639,270,4,4.6,ETEB 080155Z AUTO 27004KT 9999 CLR 17/15 A2997 RMK AO2 SLP155 T01660148 $,2024-08-08T01:55:00Z,16.6,14.8,6+,29.97
ETAR,49.437,7.6,0,0,0.0,ETAR 080155Z AUTO 00000KT 9999 CLR 17/14 A2998 RMK AO2 SLP152 T01670142 $,2024-08-08T01:55:00Z,16.7,14.2,6+,29.98
ETAD,49.979,6.698,270,5,5.75,ETAD 080155Z AUTO 27005KT 9999 CLR 15/13 A3000 RMK AO2 SLP146 T01510126 $,2024-08-08T01:55:00Z,15.1,12.6,6+,30.00
EHWO,51.448,4.342,220,7,8.06,EHWO 080155Z AUTO 22007KT 190V260 9999 SCT021 OVC060 17/14 Q1015 BLU,2024-08-08T01:55:00Z,17,14,6+,29.97
EHVL,53.297,5.086,270,14,16.11,EHVL 080155Z AUTO 27014KT 9999 OVC072 19/14 Q1012 BLU,2024-08-08T01:55:00Z,19,14,6+,29.88
EHVK,51.658,5.707,230,5,5.75,EHVK 080155Z AUTO 23005KT 9999 OVC110 16/14 Q1014 BLU,2024-08-08T01:55:00Z,16,14,6+,29.94
EHSC,51.926,3.67,250,18,20.71,EHSC 080155Z AUTO 25018KT 9999 ///////// 19/15 Q1014 W20/H9,2024-08-08T01:55:00Z,19,15,6+,29.94
EHSA,51.998,3.275,250,13,14.96,EHSA 080155Z AUTO 25013KT 9999 ///////// 19/14 Q1014 W19/H11,2024-08-08T01:55:00Z,19,14,6+,29.94
EHRD,51.954,4.444,220,7,8.06,EHRD 080155Z AUTO 22007KT 9999 SCT023/// 18/14 Q1014 NOSIG,2024-08-08T01:55:00Z,18,14,6+,29.94
EHPG,52.36,3.342,270,13,14.96,EHPG 080155Z AUTO 27013KT 210V330 9999 NSC 19/14 Q1014,2024-08-08T01:55:00Z,19,14,6+,29.94
EHMG,53.614,4.96,250,13,14.96,EHMG 080155Z AUTO 25013KT 9999 FEW044 19/14 Q1013,2024-08-08T01:55:00Z,19,14,6+,29.91
EHMA,53.492,5.942,210,15,17.26,EHMA 080155Z AUTO 21015KT 180V260 9999 FEW021 18/15 Q1012,2024-08-08T01:55:00Z,18,15,6+,29.88
EHLW,53.223,5.752,190,5,5.75,EHLW 080155Z AUTO 19005KT 160V220 9999 BKN064 OVC069 17/15 Q1012 BLU,2024-08-08T01:55:00Z,17,15,6+,29.88
EHLE,52.456,5.522,200,5,5.75,EHLE 080155Z AUTO 20005KT 9999 NSC 16/13 Q1013,2024-08-08T01:55:00Z,16,13,6+,29.91
EHKV,53.269,3.628,290,17,19.56,EHKV 080155Z AUTO 29017KT 270V340 9999 NSC 18/14 Q1013,2024-08-08T01:55:00Z,18,14,6+,29.91
EHKD,52.927,4.781,270,6,6.9,EHKD 080155Z AUTO 27006KT 240V300 9999 OVC072 19/14 Q1012 BLU,2024-08-08T01:55:00Z,19,14,6+,29.88
EHJR,53.218,3.22,270,16,18.41,EHJR 080155Z AUTO 27016KT //// // ///////// 18/14 Q1013 RE// W18/H8,2024-08-08T01:55:00Z,18,14,,29.91
EHJA,53.824,2.945,240,13,14.96,EHJA 080155Z AUTO 24013KT 9999 NCD 17/12 Q1012,2024-08-08T01:55:00Z,17,12,6+,29.88
EHHW,54.037,6.042,220,10,11.51,EHHW 080155Z AUTO 22010KT 190V260 9999 FEW042/// 19/15 Q1012,2024-08-08T01:55:00Z,19,15,6+,29.88
EHGR,51.565,4.935,200,5,5.75,EHGR 080155Z AUTO 20005KT 170V260 9999 BKN022 OVC029 16/12 Q1014 WHT,2024-08-08T01:55:00Z,16,12,6+,29.94
EHGG,53.12,6.579,200,4,4.6,EHGG 080155Z AUTO 20004KT 9999 NSC 14/12 Q1013,2024-08-08T01:55:00Z,14,12,6+,29.91
EHFS,51.441,3.596,210,14,16.11,EHFS 080155Z AUTO 21014KT 9999 FEW031/// 17/15 Q1014,2024-08-08T01:55:00Z,17,15,6+,29.94
EHFD,54.854,4.696,260,19,21.86,EHFD 080155Z AUTO 26019KT 9999 NSC 18/13 Q1010,2024-08-08T01:55:00Z,18,13,6+,29.82
EHEH,51.45,5.377,230,6,6.9,EHEH 080155Z AUTO 23006KT 9999 FEW087 OVC100 16/12 Q1015 BLU,2024-08-08T01:55:00Z,16,12,6+,29.97
EHDV,54.326,2.936,240,16,18.41,EHDV 080155Z AUTO 24016KT 210V280 9999 NSC 18/12 Q1011,2024-08-08T01:55:00Z,18,12,6+,29.85
EHDL,52.061,5.887,220,4,4.6,EHDL 080155Z AUTO 22004KT 150V220 9999 OVC120 16/13 Q1014 BLACKBLU,2024-08-08T01:55:00Z,16,13,6+,29.94
EHBK,50.905,5.762,220,5,5.75,EHBK 080155Z AUTO 22005KT 9999 NSC 16/13 Q1015,2024-08-08T01:55:00Z,16,13,6+,29.97
EHAM,52.315,4.79,210,6,6.9,EHAM 080155Z 21006KT 9999 FEW020 18/15 Q1013 NOSIG,2024-08-08T01:55:00Z,18,15,6+,29.91
EHAK,55.399,3.81,250,20,23.02,EHAK 080155Z AUTO 25020KT //// // NSC 17/13 Q1010 RE//,2024-08-08T01:55:00Z,17,13,,29.82
EGVA,51.682,-1.79,230,6,6.9,EGVA 080155Z AUTO 23006KT 9999 OVC060 14/11 A2993 RMK AO2 SLP138 T01370112 $,2024-08-08T01:55:00Z,13.7,11.2,6+,29.93
EGUN,52.362,0.486,230,7,8.06,EGUN 080155Z 23007KT 9999 SCT100 14/11 A2993 RMK AO2A SLP138 T01430114 $,2024-08-08T01:55:00Z,14.3,11.4,6+,29.93
EGUL,52.409,0.561,220,8,9.21,EGUL 080155Z AUTO 22008KT 9999 CLR 15/11 A2993 RMK AO2 SLP139 T01450111 FZRANO $,2024-08-08T01:55:00Z,14.5,11.1,6+,29.93
EBLB,50.482,6.181,VRB,1,1.15,EBLB 080155Z AUTO VRB01KT 9999 FEW053/// BKN120/// 13/10 Q1016 BLU,2024-08-08T01:55:00Z,13,10,6+,30.00
EBFS,50.243,4.646,250,3,3.45,EBFS 080155Z AUTO 25003KT 9999 BKN120/// 15/11 Q1016 BLU,2024-08-08T01:55:00Z,15,11,6+,30.00
EBFN,51.09,2.653,210,5,5.75,EBFN 080155Z AUTO 21005KT 9999 OVC100/// 16/15 Q1015 BLU,2024-08-08T01:55:00Z,16,15,6+,29.97
EBDT,51.005,5.067,240,5,5.75,EBDT 080155Z AUTO 24005KT 9999 OVC110/// 16/12 Q1015 BLU,2024-08-08T01:55:00Z,16,12,6+,29.97
EBCV,50.576,3.831,230,5,5.75,EBCV 080155Z AUTO 23005KT 9999 FEW095/// OVC110/// 16/13 Q1016 BLU,2024-08-08T01:55:00Z,16,13,6+,30.00
EBBL,51.168,5.47,240,5,5.75,EBBL 080155Z AUTO 24005KT 9999 OVC098/// 16/13 Q1015 BLU,2024-08-08T01:55:00Z,16,13,6+,29.97
EBBE,50.759,4.768,240,5,5.75,EBBE 080155Z AUTO 24005KT 9999 OVC120/// 16/12 Q1016 BLU,2024-08-08T01:55:00Z,16,12,6+,30.00
CYKL,54.803,-66.804,340,5,5.75,CYKL 080155Z AUTO 34005KT 9SM -RA BKN021 OVC029 09/07 A2985 RMK SLP126,2024-08-08T01:55:00Z,9,7,9,29.85
BGTL,76.527,-68.758,0,0,0.0,BGTL 080155Z AUTO 00000KT 9999 CLR 07/02 A2954 RMK AO2 SLP985 T00730024 TSNO $,2024-08-08T01:55:00Z,7.3,2.4,6+,29.54
PHOG,20.8887,-156.435,30,23,26.47,PHOG 080154Z 03023G33KT 10SM FEW030 28/21 A3000 RMK AO2 PK WND 03035/0131 SLP165 T02780211,2024-08-08T01:54:00Z,27.8,21.1,10+,30.00
PHMK,21.1545,-157.096,40,15,17.26,PHMK 080154Z 04015G28KT 10SM FEW038 28/20 A3003 RMK AO2 PK WND 08029/0100 SLP168 T02830200,2024-08-08T01:54:00Z,28.3,20,10+,30.03
PGUM,13.4796,144.796,110,5,5.75,PGUM 080154Z 11005KT 10SM FEW028 31/25 A2989 RMK AO2 SLP112 T03060250,2024-08-08T01:54:00Z,30.6,25,10+,29.89
PGSN,15.116,145.72,230,7,8.06,PGSN 080154Z 23007KT 10SM SCT020 32/26 A2987 RMK AO2 SLP137 T03170256,2024-08-08T01:54:00Z,31.7,25.6,10+,29.87
PAKN,58.683,-156.656,190,18,20.71,PAKN 080154Z 19018G23KT 10SM BKN070 15/11 A2981 RMK AO2 SLP095 T01500111,2024-08-08T01:54:00Z,15,11.1,10+,29.81
PAHN,59.243,-135.511,120,4,4.6,PAHN 080154Z AUTO 12004KT 10SM CLR 22/12 A3014 RMK AO2 SLP208 T02220122,2024-08-08T01:54:00Z,22.2,12.2,10+,30.14
KWLD,37.1649,-97.035,100,8,9.21,KWLD 080154Z AUTO 10008KT 10SM CLR 31/18 A2983 RMK AO2 SLP089 T03110178,2024-08-08T01:54:00Z,31.1,17.8,10+,29.83
KWAL,37.9372,-75.4662,130,7,8.06,KWAL 080154Z 13007KT 10SM FEW110 24/22 A2992 RMK AO2 RAB0058E42 SLP128 P0000 T02390217,2024-08-08T01:54:00Z,23.9,21.7,10+,29.92
KVTA,40.0263,-82.4635,VRB,4,4.6,KVTA 080154Z AUTO VRB04KT 10SM BKN024 23/19 A2988 RMK AO2 SLP112 T02330194,2024-08-08T01:54:00Z,23.3,19.4,10+,29.88
KVSF,43.3421,-72.5213,0,0,0.0,KVSF 080154Z AUTO 00000KT 10SM CLR 16/14 A3009 RMK AO2 SLP187 T01610144,2024-08-08T01:54:00Z,16.1,14.4,10+,30.09
KVAY,39.9408,-74.8407,VRB,3,3.45,KVAY 080154Z AUTO VRB03KT 8SM OVC005 19/19 A3001 RMK AO2 RAE42 SLP161 P0001 T01940189,2024-08-08T01:54:00Z,19.4,18.9,8,30.01
KUIN,39.9371,-91.1966,50,3,3.45,KUIN 080154Z AUTO 05003KT 10SM CLR 22/18 A2993 RMK AO2 SLP128 T02220183,2024-08-08T01:54:00Z,22.2,18.3,10+,29.93
KTQE,41.763,-96.1797,120,3,3.45,KTQE 080154Z AUTO 12003KT 10SM CLR 24/19 A2990 RMK AO2 SLP115 T02390189,2024-08-08T01:54:00Z,23.9,18.9,10+,29.90
KTAD,37.2618,-104.332,250,7,8.06,KTAD 080154Z AUTO 25007KT 10SM CLR 24/11 A3014 RMK AO2 SLP118 T02440106,2024-08-08T01:54:00Z,24.4,10.6,10+,30.14
KSYR,43.1111,-76.1038,120,5,5.75,KSYR 080154Z 12005KT 10SM FEW048 SCT150 21/15 A3003 RMK AO2 SLP163 T02110150,2024-08-08T01:54:00Z,21.1,15,10+,30.03
KSUS,38.6575,-90.6557,360,4,4.6,KSUS 080154Z 36004KT 10SM OVC041 23/18 A2990 RMK AO2 SLP119 T02330183,2024-08-08T01:54:00Z,23.3,18.3,10+,29.90
KSLC,40.7707,-111.965,10,6,6.9,KSLC 080154Z 01006KT 10SM FEW250 35/M02 A2997 RMK AO2 SLP080 T03501017,2024-08-08T01:54:00Z,35,-1.7,10+,29.97
KSET,38.9304,-90.4329,330,4,4.6,KSET 080154Z AUTO 33004KT 10SM OVC046 23/19 A2990 RMK AO2 SLP122 T02280189,2024-08-08T01:54:00Z,22.8,18.9,10+,29.90
KSBY,38.3409,-75.5132,40,4,4.6,KSBY 080154Z 04004KT 10SM BKN006 OVC110 23/23 A2994 RMK AO2 SLP140 T02330228,2024-08-08T01:54:00Z,23.3,22.8,10+,29.94
KSBN,41.7072,-86.3163,60,3,3.45,KSBN 080154Z 06003KT 10SM BKN049 22/15 A2995 RMK AO2 SLP139 T02220150,2024-08-08T01:54:00Z,22.2,15,10+,29.95
KRST,43.904,-92.4921,130,5,5.75,KRST 080154Z COR 13005KT 10SM BKN090 19/16 A2995 RMK AO2 SLP137 T01940161,2024-08-08T01:54:00Z,19.4,16.1,10+,29.95
KRSP,39.646,-77.468,,,,KRSP 080154Z AUTO 1/2SM FG BKN002 OVC006 20/20 A2998 RMK AO2 SLP147 T02000200 PWINO $,2024-08-08T01:54:00Z,20,20,0.5,29.98
KROC,43.1172,-77.6754,80,8,9.21,KROC 080154Z 08008KT 10SM SCT050 SCT180 22/14 A3002 RMK AO2 SLP165 T02170144,2024-08-08T01:54:00Z,21.7,14.4,10+,30.02
KROA,37.3172,-79.9737,120,6,6.9,KROA 080154Z 12006KT 10SM SCT033 BKN100 26/22 A2989 RMK AO2 SLP106 T02560217,2024-08-08T01:54:00Z,25.6,21.7,10+,29.89
KRKS,41.5947,-109.053,300,13,14.96,KRKS 080154Z AUTO 30013KT 5SM HZ CLR 27/M04 A3021 RMK AO2 SLP130 T02721044,2024-08-08T01:54:00Z,27.2,-4.4,5,30.21
KRIC,37.5115,-77.3234,110,6,6.9,KRIC 080154Z 11006KT 10SM BKN014 OVC300 25/23 A2987 RMK AO2 SLP117 T02500228,2024-08-08T01:54:00Z,25,22.8,10+,29.87
KRFD,42.1915,-89.0876,40,3,3.45,KRFD 080154Z 04003KT 10SM FEW190 18/13 A2998 RMK AO2 SLP150 T01830128,2024-08-08T01:54:00Z,18.3,12.8,10+,29.98
KRDG,40.3734,-75.9593,70,5,5.75,KRDG 080154Z 07005KT 4SM -RA BR OVC009 19/18 A3001 RMK AO2 RAB44 CIG 008V013 SLP165 P0000 T01940178,2024-08-08T01:54:00Z,19.4,17.8,4,30.01
KRBL,40.1519,-122.255,160,9,10.36,KRBL 080154Z AUTO 16009KT 10SM CLR 38/07 A2980 RMK AO2 SLP086 T03780072,2024-08-08T01:54:00Z,37.8,7.2,10+,29.80
KPTW,40.238,-75.5549,60,4,4.6,KPTW 080154Z AUTO 06004KT 2 1/2SM BR BKN006 OVC009 19/18 A3004 RMK AO2 RAB07E18 SLP167 P0000 T01890183,2024-08-08T01:54:00Z,18.9,18.3,2.5,30.04
KPSF,42.4268,-73.2891,0,0,0.0,KPSF 080154Z AUTO 00000KT 10SM CLR 15/14 A3008 RMK AO2 SLP171 T01500139,2024-08-08T01:54:00Z,15,13.9,10+,30.08
KPNE,40.0789,-75.0133,80,9,10.36,KPNE 080154Z 08009KT 6SM BR OVC009 20/18 A3003 RMK AO2 RAB11E51 CIG 006V014 SLP166 P0002 T02000183,2024-08-08T01:54:00Z,20,18.3,6,30.03
KPLN,45.5644,-84.7929,130,6,6.9,KPLN 080154Z AUTO 13006KT 10SM CLR 21/12 A3000 RMK AO2 SLP157 T02110122,2024-08-08T01:54:00Z,21.1,12.2,10+,30.00
KPIA,40.6675,-89.6842,0,0,0.0,KPIA 080154Z 00000KT 10SM CLR 22/18 A2993 RMK AO2 SLP131 T02170178,2024-08-08T01:54:00Z,21.7,17.8,10+,29.93
KPHL,39.8733,-75.2268,60,10,11.51,KPHL 080154Z 06010G16KT 7SM OVC009 21/19 A3000 RMK AO2 SLP160 RAE46 P0000 T02060189 $,2024-08-08T01:54:00Z,20.6,18.9,7,30.00
KPHF,37.1322,-76.494,90,9,10.36,KPHF 080154Z 09009KT 10SM -RA BKN009 OVC043 23/23 A2987 RMK AO2 RAB14 SLP114 P0002 T02330228,2024-08-08T01:54:00Z,23.3,22.8,10+,29.87
KORH,42.2706,-71.8731,140,3,3.45,KORH 080154Z AUTO 14003KT 10SM CLR 17/15 A3010 RMK AO2 SLP193 T01720150,2024-08-08T01:54:00Z,17.2,15,10+,30.10
KOLM,46.9737,-122.905,50,5,5.75,KOLM 080154Z 05005KT 10SM CLR 27/14 A3002 RMK AO2 SLP166 T02720144,2024-08-08T01:54:00Z,27.2,14.4,10+,30.02
KOFP,37.7093,-77.4349,110,5,5.75,KOFP 080154Z AUTO 11005KT 10SM OVC014 25/23 A2989 RMK AO2 SLP119 T02500233,2024-08-08T01:54:00Z,25,23.3,10+,29.89
KNFL,39.417,-118.705,290,10,11.51,KNFL 080154Z 29010KT 10SM FEW080 SCT100 SCT250 37/01 A2998 RMK AO2 SLP124 T03720011,2024-08-08T01:54:00Z,37.2,1.1,10+,29.98
KNAK,38.9913,-76.4891,90,11,12.66,KNAK 080154Z AUTO 09011KT 10SM -RA SCT013 OVC026 26/24 A2992 RMK AO2 RAB45 SLP132 P0000 T02560239,2024-08-08T01:54:00Z,25.6,23.9,10+,29.92
KN60,47.654,-101.436,330,7,8.06,KN60 080154Z AUTO 33007KT 16/07 A3013 RMK AO1 SLP203 T01560067,2024-08-08T01:54:00Z,15.6,6.7,,30.13
KMVL,44.5328,-72.6152,0,0,0.0,KMVL 080154Z AUTO 00000KT 10SM CLR 14/12 A3010 RMK AO2 SLP193 T01440122,2024-08-08T01:54:00Z,14.4,12.2,10+,30.10
KMTP,41.073,-71.9235,70,3,3.45,KMTP 080154Z AUTO 07003KT 21/17 A3007 RMK AO1 SLP184 T02060167,2024-08-08T01:54:00Z,20.6,16.7,,30.07
KMTN,39.3214,-76.4065,50,4,4.6,KMTN 080154Z 05004KT 10SM OVC009 25/23 A2995 RMK LAST,2024-08-08T01:54:00Z,25,23,10+,29.95
KMRY,36.5904,-121.849,360,6,6.9,KMRY 080154Z 36006KT 5SM BR SCT005 BKN009 14/12 A2996 RMK AO2 SLP157 T01440122,2024-08-08T01:54:00Z,14.4,12.2,5,29.96
KMOT,48.252,-101.269,330,8,9.21,KMOT 080154Z 33008KT 10SM CLR 14/07 A3013 RMK AO2 SLP206 T01440067,2024-08-08T01:54:00Z,14.4,6.7,10+,30.13
KMKC,39.1279,-94.5892,80,8,9.21,KMKC 080154Z 08008KT 10SM CLR 26/17 A2989 RMK AO2 SLP114 T02610172,2024-08-08T01:54:00Z,26.1,17.2,10+,29.89
KMIV,39.3662,-75.0778,60,11,12.66,KMIV 080154Z AUTO 06011KT 10SM OVC006 22/21 A2998 RMK AO2 CIG 004V010 SLP151 T02170206,2024-08-08T01:54:00Z,21.7,20.6,10+,29.98
KMGJ,41.509,-74.2645,0,0,0.0,KMGJ 080154Z AUTO 00000KT 10SM -RA FEW037 SCT045 OVC070 18/17 A3007 RMK AO2 RAB48 SLP180 P0000 T01830167,2024-08-08T01:54:00Z,18.3,16.7,10+,30.07
KMFI,44.6379,-90.1875,270,3,3.45,KMFI 080154Z AUTO 27003KT 10SM SCT048 OVC120 20/16 A2996 RMK AO2 SLP143 T02000161,2024-08-08T01:54:00Z,20,16.1,10+,29.96
KMEM,35.0564,-89.9864,340,8,9.21,KMEM 080154Z 34008KT 10SM FEW041 24/19 A2983 RMK AO2 SLP095 T02390189,2024-08-08T01:54:00Z,23.9,18.9,10+,29.83
KLYH,37.3213,-79.2065,VRB,5,5.75,KLYH 080154Z VRB05KT 10SM BKN010 BKN015 OVC090 24/23 A2988 RMK AO2 CIG 007V014 SLP107 T02440228,2024-08-08T01:54:00Z,24.4,22.8,10+,29.88
KLWT,47.0544,-109.457,360,4,4.6,KLWT 080154Z AUTO 36004KT 10SM SCT034 BKN044 OVC070 14/11 A3029 RMK AO2 SLP244 T01390106,2024-08-08T01:54:00Z,13.9,10.6,10+,30.29
KLWM,42.7125,-71.1256,0,0,0.0,KLWM 080154Z 00000KT 10SM CLR 17/15 A3010 RMK AO2 SLP193 T01720150,2024-08-08T01:54:00Z,17.2,15,10+,30.10
KLNK,40.8478,-96.7647,60,5,5.75,KLNK 080154Z 06005KT 9SM CLR 25/18 A2991 RMK AO2 SLP119 T02500183,2024-08-08T01:54:00Z,25,18.3,9,29.91
KLGA,40.7794,-73.8803,80,8,9.21,KLGA 080154Z 08008KT 10SM -RA SCT011 BKN026 BKN042 OVC130 20/16 A3004 RMK AO2 P0000 T02000156,2024-08-08T01:54:00Z,20,15.6,10+,30.04
KLEX,38.0339,-84.6114,30,9,10.36,KLEX 080154Z 03009KT 10SM FEW060 27/22 A2982 RMK AO2 SLP087 T02720217,2024-08-08T01:54:00Z,27.2,21.7,10+,29.82
KLAF,40.4124,-86.9474,50,5,5.75,KLAF 080154Z AUTO 05005KT 10SM SCT049 22/17 A2991 RMK AO2 SLP125 T02170172,2024-08-08T01:54:00Z,21.7,17.2,10+,29.91
KJST,40.3149,-78.8307,70,5,5.75,KJST 080154Z AUTO 07005KT 2 1/2SM BR OVC002 19/19 A2999 RMK AO2 SLP144 T01940189,2024-08-08T01:54:00Z,19.4,18.9,2.5,29.99
KJAN,32.3198,-90.0778,360,7,8.06,KJAN 080154Z 36007KT 10SM FEW065 31/23 A2977 RMK AO2 SLP076 T03060233,2024-08-08T01:54:00Z,30.6,23.3,10+,29.77
KIZG,43.9899,-70.9501,0,0,0.0,KIZG 080154Z AUTO 00000KT 10SM CLR 17/14 A3007 RMK AO2 SLP184 T01670144,2024-08-08T01:54:00Z,16.7,14.4,10+,30.07
KISW,44.3591,-89.837,170,4,4.6,KISW 080154Z AUTO 17004KT 10SM -RA FEW050 SCT090 BKN110 20/16 A2996 RMK AO2 RAB34 SLP143 P0001 T02000161,2024-08-08T01:54:00Z,20,16.1,10+,29.96
KIPT,41.243,-76.9217,110,5,5.75,KIPT 080154Z 11005KT 8SM OVC024 19/18 A3000 RMK AO2 SLP157 T01940183,2024-08-08T01:54:00Z,19.4,18.3,8,30.00
KINT,36.1335,-80.2244,40,8,9.21,KINT 080154Z AUTO 04008G17KT 10SM SCT009 BKN016 BKN034 24/23 A2982 RMK AO2 SLP088 T02440228 $,2024-08-08T01:54:00Z,24.4,22.8,10+,29.82
KINL,48.5594,-93.3955,250,4,4.6,KINL 080154Z AUTO 25004KT 10SM FEW030 SCT037 BKN065 17/15 A2988 RMK AO2 SLP118 T01720150,2024-08-08T01:54:00Z,17.2,15,10+,29.88
KIND,39.7252,-86.2816,40,11,12.66,KIND 080154Z 04011KT 10SM FEW048 23/19 A2989 RMK AO2 SLP117 T02280189 $,2024-08-08T01:54:00Z,22.8,18.9,10+,29.89
KIMT,45.8134,-88.1129,160,4,4.6,KIMT 080154Z AUTO 16004KT 10SM FEW120 20/13 A2995 RMK AO2 RAE0059 SLP140 P0000 T02000133,2024-08-08T01:54:00Z,20,13.3,10+,29.95
KILN,39.4308,-83.777,30,6,6.9,KILN 080154Z AUTO 03006KT 10SM CLR 22/19 A2988 RMK AO2 SLP109 T02220194,2024-08-08T01:54:00Z,22.2,19.4,10+,29.88
KHWD,37.6589,-122.121,320,10,11.51,KHWD 080154Z 32010KT 10SM CLR 20/12 A2991 RMK AO2 SLP136 T02000117,2024-08-08T01:54:00Z,20,11.7,10+,29.91
KGSO,36.0969,-79.9432,50,14,16.11,KGSO 080154Z 05014KT 10SM BKN010 BKN019 OVC045 24/23 A2980 RMK AO2 SLP080 T02440228,2024-08-08T01:54:00Z,24.4,22.8,10+,29.80
KGEU,33.528,-112.293,200,6,6.9,KGEU 080154Z 20006KT 10SM FEW110 SCT150 39/14 A2979,2024-08-08T01:54:00Z,39,14,10+,29.79
KGED,38.6898,-75.3625,70,7,8.06,KGED 080154Z AUTO 07007KT 10SM BKN006 BKN090 OVC110 23/23 A2995 RMK AO2 SLP139 T02330228 $,2024-08-08T01:54:00Z,23.3,22.8,10+,29.95
KGCN,35.9458,-112.155,VRB,4,4.6,KGCN 080154Z VRB04KT 10SM OVC110 28/09 A3023 RMK AO2 LTG DSNT N-E SLP120 T02830089,2024-08-08T01:54:00Z,28.3,8.9,10+,30.23
KGCK,37.9221,-100.723,70,6,6.9,KGCK 080154Z 07006KT 10SM CLR 31/18 A2984 RMK AO2 SLP066 T03060178,2024-08-08T01:54:00Z,30.6,17.8,10+,29.84
KFZY,43.3504,-76.3831,0,0,0.0,KFZY 080154Z AUTO 00000KT 10SM CLR 17/15 A3002 RMK AO2 SLP164 T01720150,2024-08-08T01:54:00Z,17.2,15,10+,30.02
KFWA,40.9725,-85.2064,50,5,5.75,KFWA 080154Z 05005KT 10SM OVC049 22/16 A2996 RMK AO2 SLP141 T02170161,2024-08-08T01:54:00Z,21.7,16.1,10+,29.96
KFIG,41.0465,-78.4112,70,8,9.21,KFIG 080154Z AUTO 07008KT 10SM SCT005 OVC011 19/19 A3001 RMK AO2 SLP155 T01890189,2024-08-08T01:54:00Z,18.9,18.9,10+,30.01
KFFZ,33.4659,-111.721,200,8,9.21,KFFZ 080154Z 20008KT 10SM CLR 37/17 A2985 RMK AO2 SLP080 T03670172,2024-08-08T01:54:00Z,36.7,17.2,10+,29.85
KEWN,35.0684,-77.0478,80,9,10.36,KEWN 080154Z AUTO 08009KT 10SM BKN019 OVC024 27/25 A2976 RMK AO2 RAE0058 SLP076 P0000 T02670250,2024-08-08T01:54:00Z,26.7,25,10+,29.76
KEVV,38.0502,-87.5147,320,4,4.6,KEVV 080154Z 32004KT 10SM FEW055 23/21 A2985 RMK AO2 SLP104 T02280206 $,2024-08-08T01:54:00Z,22.8,20.6,10+,29.85
KEUG,44.1331,-123.216,340,11,12.66,KEUG 080154Z 34011KT 10SM FEW150 BKN200 BKN250 30/12 A2994 RMK AO2 SLP137 HZ FEW150 T03000122,2024-08-08T01:54:00Z,30,12.2,10+,29.94
KEFD,29.606,-95.16,180,6,6.9,KEFD 080154Z 18006KT 10SM SCT050 30/25 A2978,2024-08-08T01:54:00Z,30,25,10+,29.78
KECG,36.2571,-76.1716,100,11,12.66,KECG 080154Z 10011G17KT 10SM -RA CLR 26/24 A2984 RMK AO2 RAB08 SLP105 P0000 T02560244,2024-08-08T01:54:00Z,25.6,24.4,10+,29.84
KDYL,40.3302,-75.1228,VRB,3,3.45,KDYL 080154Z AUTO VRB03KT 7SM OVC004 19/18 A3003 RMK AO2 RAB11E52 SLP163 P0002 T01890183,2024-08-08T01:54:00Z,18.9,18.3,7,30.03
KDSV,42.5699,-77.7142,110,3,3.45,KDSV 080154Z AUTO 11003KT 10SM BKN041 OVC050 21/16 A3002 RMK AO2 SLP172 T02060161,2024-08-08T01:54:00Z,20.6,16.1,10+,30.02
KDSM,41.534,-93.6531,90,6,6.9,KDSM 080154Z 09006KT 10SM CLR 24/17 A2994 RMK AO2 SLP130 T02440167,2024-08-08T01:54:00Z,24.4,16.7,10+,29.94
KDEC,39.8308,-88.8719,30,6,6.9,KDEC 080154Z 03006KT 10SM SCT041 OVC050 23/20 A2991 RMK AO2 SLP125 T02330200,2024-08-08T01:54:00Z,23.3,20,10+,29.91
KDDH,42.8935,-73.2488,150,3,3.45,KDDH 080154Z AUTO 15003KT 10SM CLR 17/14 A3008 RMK AO2 SLP182 T01670144,2024-08-08T01:54:00Z,16.7,14.4,10+,30.08
KCRW,38.3795,-81.5911,130,6,6.9,KCRW 080154Z 13006KT 8SM SCT060 BKN110 23/22 A2981 RMK AO2 RAE25 TSB11E33 SLP085 TS MOV NE CB DSNT NE P0003 T02330222 $,2024-08-08T01:54:00Z,23.3,22.2,8,29.81
KCOU,38.8171,-92.2148,50,3,3.45,KCOU 080154Z 05003KT 10SM CLR 21/18 A2992 RMK AO2 SLP125 T02110178,2024-08-08T01:54:00Z,21.1,17.8,10+,29.92
KCOS,38.8095,-104.689,30,12,13.81,KCOS 080154Z 03012KT 10SM SCT110 BKN150 BKN180 BKN220 23/12 A3020 RMK AO2 SLP129 T02280122,2024-08-08T01:54:00Z,22.8,12.2,10+,30.20
KCEU,34.6722,-82.8814,50,4,4.6,KCEU 080154Z AUTO 05004KT 10SM CLR 28/23 A2974 RMK AO2 SLP059 T02830228,2024-08-08T01:54:00Z,28.3,22.8,10+,29.74
KCAR,46.8705,-68.0172,0,0,0.0,KCAR 080154Z AUTO 00000KT 10SM CLR 12/07 A3006 RMK AO2 SLP183 T01220072,2024-08-08T01:54:00Z,12.2,7.2,10+,30.06
KBWI,39.1733,-76.684,110,9,10.36,KBWI 080154Z 11009KT 10SM SCT012 BKN020 BKN052 BKN150 25/24 A2992 RMK AO2 SLP131 T02500239,2024-08-08T01:54:00Z,25,23.9,10+,29.92
KBUY,36.0475,-79.4737,40,10,11.51,KBUY 080154Z AUTO 04010G16KT 10SM FEW016 25/22 A2978 RMK AO2 SLP078 T02500222,2024-08-08T01:54:00Z,25,22.2,10+,29.78
KBUF,42.94,-78.7361,70,9,10.36,KBUF 080154Z 07009KT 10SM FEW100 FEW250 20/13 A3000 RMK AO2 SLP157 T02000133,2024-08-08T01:54:00Z,20,13.3,10+,30.00
KBTV,44.4683,-73.1499,100,3,3.45,KBTV 080154Z 10003KT 10SM CLR 19/13 A3007 RMK AO2 SLP181 T01940128,2024-08-08T01:54:00Z,19.4,12.8,10+,30.07
KBOS,42.3606,-71.0097,150,4,4.6,KBOS 080154Z 15004KT 10SM FEW140 18/15 A3008 RMK AO2 SLP187 T01780150,2024-08-08T01:54:00Z,17.8,15,10+,30.08
KBFL,35.4342,-119.055,340,11,12.66,KBFL 080154Z 34011KT 10SM BKN120 41/08 A2979 RMK AO2 SLP079 T04110078,2024-08-08T01:54:00Z,41.1,7.8,10+,29.79
KAVP,41.3335,-75.7227,60,7,8.06,KAVP 080154Z 06007KT 6SM -RA BR SCT013 BKN036 OVC043 18/17 A3004 RMK AO2 RAB07 SLP167 P0002 T01830167,2024-08-08T01:54:00Z,18.3,16.7,6,30.04
KAVL,35.4318,-82.5379,330,6,6.9,KAVL 080154Z 33006KT 10SM CLR 24/22 A2985 RMK AO2 LTG DSNT W AND NW SLP075 T02440217,2024-08-08T01:54:00Z,24.4,21.7,10+,29.85
KAUW,44.9265,-89.6248,130,4,4.6,KAUW 080154Z AUTO 13004KT 10SM FEW110 21/16 A2994 RMK AO2 RAB0059E20 SLP139 P0000 T02110156,2024-08-08T01:54:00Z,21.1,15.6,10+,29.94
KAPN,45.0716,-83.5645,0,0,0.0,KAPN 080154Z AUTO 00000KT 10SM CLR 16/12 A3001 RMK AO2 SLP160 T01560122,2024-08-08T01:54:00Z,15.6,12.2,10+,30.01
KAPC,38.2075,-122.28,200,14,16.11,KAPC 080154Z 20014G22KT 10SM CLR 20/13 A2989 RMK AO2 SLP112 T02000133,2024-08-08T01:54:00Z,20,13.3,10+,29.89
KALO,42.5544,-92.4013,190,3,3.45,KALO 080154Z AUTO 19003KT 10SM CLR 23/16 A2994 RMK AO2 SLP133 T02280161,2024-08-08T01:54:00Z,22.8,16.1,10+,29.94
KAKR,41.0373,-81.4634,50,6,6.9,KAKR 080154Z AUTO 05006KT 10SM SCT025 BKN035 22/18 A2992 RMK AO2 SLP124 T02170183 PWINO $,2024-08-08T01:54:00Z,21.7,18.3,10+,29.92
KAKQ,36.9827,-77.0014,VRB,5,5.75,KAKQ 080154Z AUTO VRB05KT 9SM -RA SCT011 BKN019 BKN029 25/23 A2985 RMK AO2 RAB49 SLP106 P0000 T02500233,2024-08-08T01:54:00Z,25,23.3,9,29.85
KAKH,35.1968,-81.1555,30,12,13.81,KAKH 080154Z AUTO 03012G18KT 10SM SCT023 SCT030 BKN090 26/23 A2974 RMK AO2 SLP064 T02610228,2024-08-08T01:54:00Z,26.1,22.8,10+,29.74
KACY,39.452,-74.567,70,9,10.36,KACY 080154Z 07009KT 6SM BR OVC005 21/20 A2999 RMK AO2 RAB27E38 SLP154 P0000 T02110200 $,2024-08-08T01:54:00Z,21.1,20,6,29.99
KAAO,37.7496,-97.2191,100,6,6.9,KAAO 080154Z AUTO 10006KT 10SM CLR 29/17 A2983 RMK AO2 SLP089 T02940172,2024-08-08T01:54:00Z,29.4,17.2,10+,29.83
K1V4,44.42,-72.019,,,,K1V4 080154Z AUTO 17/13 A3007 RMK AO1 SLP175 T01670133,2024-08-08T01:54:00Z,16.7,13.3,,30.07
K12N,41.0093,-74.7363,VRB,5,5.75,K12N 080154Z AUTO VRB05KT 18/17 A3007 RMK AO1 SLP177 P0002 T01780167,2024-08-08T01:54:00Z,17.8,16.7,,30.07
UWUU,54.57,55.87,VRB,2,2.3,UWUU 080153Z VRB01MPS 3000 0550NW FG SCT004 14/14 Q1006 R32L/0///60 NOSIG RMK QBB120,2024-08-08T01:53:00Z,14,14,1.86,29.70
UWKE,55.566,52.1,20,2,2.3,UWKE 080153Z 02001MPS 0200 0150N R21/0150N FG VV001 16/16 Q1007 R21/090070 NOSIG RMK QBB030 OBST OBSC QFE739/0985,2024-08-08T01:53:00Z,16,16,0.12,29.73
UNTT,56.381,85.207,210,8,9.21,UNTT 080153Z 21004MPS 2900 BR OVC001 17/17 Q1003 R21/190055 NOSIG RMK QBB040 QFE737,2024-08-08T01:53:00Z,17,17,1.8,29.62
UNNT,55.013,82.651,170,4,4.6,UNNT 080153Z 17002MPS 9999 SCT007 18/17 Q1003 R16/090070 R25/090070 NOSIG RMK QFE742/0990,2024-08-08T01:53:00Z,18,17,6+,29.62
UMKK,54.885,20.583,0,0,0.0,UMKK 080153Z 00000MPS 0200 0150E R24/0500N PRFG SCT001 13/13 Q1013 R24/CLRD95 NOSIG RMK QBB050 OBST OBSC QFE758/1011,2024-08-08T01:53:00Z,13,13,0.12,29.91
TJNR,18.253,-65.638,100,6,6.9,TJNR 080153Z AUTO 10006KT 10SM FEW025 SCT036 29/24 A2997 RMK AO2 SLP147 T02890244,2024-08-08T01:53:00Z,28.9,24.4,10+,29.97
TISX,17.6997,-64.8126,60,5,5.75,TISX 080153Z 06005KT 10SM CLR 28/24 A2996 RMK AO2 SLP142 T02780239 $,2024-08-08T01:53:00Z,27.8,23.9,10+,29.96
RKTF,36.372,127.372,280,2,2.3,RKTF 080153Z 28002KT 9000 -RA BR SCT015 BKN200 28/25 A2973 RMK CIG200,2024-08-08T01:53:00Z,28,25,5.59,29.73
PTTP,6.96,158.21,70,4,4.6,PTTP 080153Z 07004KT 15SM FEW018 SCT300 32/25 A2985 RMK SLP109 T03200254,2024-08-08T01:53:00Z,32,25.4,15,29.85
PHTO,19.7191,-155.049,20,10,11.51,PHTO 080153Z 02010KT 10SM OVC043 28/22 A3003 RMK AO2 SLP166 T02780222,2024-08-08T01:53:00Z,27.8,22.2,10+,30.03
PHNL,21.3151,-157.924,30,14,16.11,PHNL 080153Z 03014G22KT 10SM FEW028 FEW045 30/19 A3002 RMK AO2 SLP166 T03000189 $,2024-08-08T01:53:00Z,30,18.9,10+,30.02
PHLI,21.9805,-159.339,50,13,14.96,PHLI 080153Z 05013KT 10SM FEW026 29/21 A3007 RMK AO2 SLP180 T02890211,2024-08-08T01:53:00Z,28.9,21.1,10+,30.07
PHKO,19.7378,-156.048,220,9,10.36,PHKO 080153Z 22009KT 10SM SCT050 30/21 A2999 RMK AO2 SLP154 T03000211 $,2024-08-08T01:53:00Z,30,21.1,10+,29.99
PHJR,21.312,-158.07,40,9,10.36,PHJR 080153Z 04009G18KT 10SM CLR 32/18 A3003 RMK AO2 SLP176 T03170183,2024-08-08T01:53:00Z,31.7,18.3,10+,30.03
PAYA,59.512,-139.671,210,5,5.75,PAYA 080153Z AUTO 21005KT 10SM OVC045 18/13 A3021 RMK AO2 SLP229 T01830133 TSNO $,2024-08-08T01:53:00Z,18.3,13.3,10+,30.21
PAWD,60.129,-149.418,160,11,12.66,PAWD 080153Z AUTO 16011KT 7SM -RA BKN050 OVC055 12/11 A2999 RMK AO2 SLP156 P0002 T01170111 TSNO,2024-08-08T01:53:00Z,11.7,11.1,7,29.99
PAVL,67.731,-164.548,310,9,10.36,PAVL 080153Z AUTO 31009KT 3SM RA BR BKN048 OVC060 09/09 A2964 RMK AO2 SLP036 T00940089 TSNO PNO $,2024-08-08T01:53:00Z,9.4,8.9,3,29.64
PATO,60.783,-148.843,100,12,13.81,PATO 080153Z AUTO 10012G39KT 3SM -RA FEW028 BKN037 OVC048 16/12 A3000 RMK AO2 PK WND 12039/0148 SLP158 P0009 T01560122 TSNO,2024-08-08T01:53:00Z,15.6,12.2,3,30.00
PATK,62.319,-150.097,20,3,3.45,PATK 080153Z 02003KT 9SM -RA SCT030 BKN040 OVC060 16/14 A2998 RMK AO2 SLP153 P0004 T01610139,2024-08-08T01:53:00Z,16.1,13.9,9,29.98
PASO,59.443,-151.702,0,0,0.0,PASO 080153Z AUTO 00000KT 10SM -RA FEW019 OVC085 16/13 A2991 RMK AO2 SLP128 P0003 T01610133 TSNO $,2024-08-08T01:53:00Z,16.1,13.3,10+,29.91
PASN,57.155,-170.223,310,9,10.36,PASN 080153Z AUTO 31009KT 10SM BKN022 BKN026 OVC046 10/05 A2980 RMK AO2 SLP091 T01000050 TSNO $,2024-08-08T01:53:00Z,10,5,10+,29.80
PASI,57.047,-135.364,210,3,3.45,PASI 080153Z 21003KT 10SM FEW001 17/14 A3020 RMK AO2 SLP225 T01720139,2024-08-08T01:53:00Z,17.2,13.9,10+,30.20
PASC,70.191,-148.48,250,7,8.06,PASC 080153Z 25007KT 10SM BKN100 OVC190 23/13 A2972 RMK AO2 SLP063 T02280133 PNO $,2024-08-08T01:53:00Z,22.8,13.3,10+,29.72
PAQT,70.213,-150.994,230,7,8.06,PAQT 080153Z AUTO 23007KT 10SM BKN095 23/14 A2973 RMK AO2 SLP068 T02280144 TSNO $,2024-08-08T01:53:00Z,22.8,14.4,10+,29.73
PAOT,66.886,-162.607,240,12,13.81,PAOT 080153Z 24012KT 10SM FEW004 SCT031 SCT042 12/12 A2963 RMK AO2 SLP035 T01220122,2024-08-08T01:53:00Z,12.2,12.2,10+,29.63
PAOM,64.5111,-165.44,190,5,5.75,PAOM 080153Z AUTO 19005KT 10SM OVC012 09/07 A2969 RMK AO2 RAB0056E13 SLP055 P0000 T00940072 TSNO,2024-08-08T01:53:00Z,9.4,7.2,10+,29.69
PANN,64.547,-149.087,0,0,0.0,PANN 080153Z AUTO 00000KT 10SM CLR 23/13 A2982 RMK AO2 SLP100 T02280128 TSNO $,2024-08-08T01:53:00Z,22.8,12.8,10+,29.82
PANC,61.1691,-150.028,20,4,4.6,PANC 080153Z 02004KT 9SM -RA FEW008 BKN029 OVC080 16/14 A2996 RMK AO2 SLP144 P0007 T01560144,2024-08-08T01:53:00Z,15.6,14.4,9,29.96
PAMR,61.215,-149.85,340,4,4.6,PAMR 080153Z 34004KT 5SM -RA BR SCT010 BKN015 OVC085 16/15 A2995 RMK AO2 SLP142 P0011 T01610150,2024-08-08T01:53:00Z,16.1,15,5,29.95
PAMC,62.957,-155.61,210,4,4.6,PAMC 080153Z AUTO 21004KT 10SM BKN025 OVC065 17/13 A2984 RMK AO2 RAB01E11 SLP107 P0000 T01670133,2024-08-08T01:53:00Z,16.7,13.3,10+,29.84
PAKW,55.582,-133.075,210,9,10.36,PAKW 080153Z AUTO 21009KT 10SM CLR 18/11 A3018 RMK AO2 SLP219 T01830111 TSNO,2024-08-08T01:53:00Z,18.3,11.1,10+,30.18
PAKV,64.321,-158.732,VRB,4,4.6,PAKV 080153Z AUTO VRB04KT 10SM FEW070 SCT095 17/07 A2980 RMK AO2 SLP092 T01720067 TSNO $,2024-08-08T01:53:00Z,17.2,6.7,10+,29.80
PAKT,55.3592,-131.722,290,5,5.75,PAKT 080153Z 29005KT 10SM CLR 23/12 A3015 RMK AO2 SLP208 HARBOR WND VRB04KT T02280117,2024-08-08T01:53:00Z,22.8,11.7,10+,30.15
PAJN,58.354,-134.556,240,5,5.75,PAJN 080153Z 24005KT 10SM CLR 26/13 A3015 RMK AO2 SLP211 T02610128,2024-08-08T01:53:00Z,26.1,12.8,10+,30.15
PAIL,59.7492,-154.909,140,6,6.9,PAIL 080153Z 14006KT 10SM BKN030 BKN040 BKN090 14/11 A2987 RMK AO2 SLP115 T01440111,2024-08-08T01:53:00Z,14.4,11.1,10+,29.87
PAHO,59.642,-151.491,10,4,4.6,PAHO 080153Z 01004KT 6SM RA FEW075 OVC090 15/12 A2991 RMK AO2 SLP129 P0009 T01500122,2024-08-08T01:53:00Z,15,12.2,6,29.91
PAGY,59.457,-135.322,250,14,16.11,PAGY 080153Z AUTO 25014KT 10SM CLR 20/11 A3011 RMK AO2 SLP196 T02000106 TSNO,2024-08-08T01:53:00Z,20,10.6,10+,30.11
PAGK,62.1592,-145.459,170,12,13.81,PAGK 080153Z AUTO 17012G22KT 10SM FEW060 SCT090 BKN110 21/09 A3000 RMK AO2 PK WND 17028/0101 SLP151 T02110089 TSNO,2024-08-08T01:53:00Z,21.1,8.9,10+,30.00
PAFA,64.8031,-147.876,30,3,3.45,PAFA 080153Z 03003KT 10SM FEW070 BKN130 BKN200 27/12 A2981 RMK AO2 SLP097 ACSL SE NW T02720117,2024-08-08T01:53:00Z,27.2,11.7,10+,29.81
PAEN,60.579,-151.242,30,6,6.9,PAEN 080153Z 03006KT 10SM -RA OVC100 14/14 A2995 RMK AO2 SLP144 P0000 T01390139,2024-08-08T01:53:00Z,13.9,13.9,10+,29.95
PAEG,64.7761,-141.164,120,10,11.51,PAEG 080153Z AUTO 12010G17KT 8SM CLR 31/07 A2983 RMK AO2 SLP100 T03060072 TSNO,2024-08-08T01:53:00Z,30.6,7.2,8,29.83
PADQ,57.7507,-152.488,330,4,4.6,PADQ 080153Z 33004KT 10SM FEW028 SCT034 16/12 A2989 RMK AO2 SLP122 T01610122,2024-08-08T01:53:00Z,16.1,12.2,10+,29.89
PADE,66.0695,-162.761,280,4,4.6,PADE 080153Z AUTO 28004KT 10SM BKN043 BKN049 BKN055 15/11 A2965 RMK AO2 SLP041 T01500111 TSNO $,2024-08-08T01:53:00Z,15,11.1,10+,29.65
PACV,60.486,-145.445,120,5,5.75,PACV 080153Z 12005KT 4SM -RA BR OVC025 19/14 A3011 RMK AO2 SLP196 P0000 T01890144,2024-08-08T01:53:00Z,18.9,14.4,4,30.11
PACD,55.2207,-162.732,270,10,11.51,PACD 080153Z AUTO 27010KT 10SM FEW017 BKN040 OVC060 12/08 A2985 RMK AO2 SLPNO T01220083 TSNO $,2024-08-08T01:53:00Z,12.2,8.3,10+,29.85
PABT,66.9176,-151.519,160,7,8.06,PABT 080153Z 16007KT 10SM FEW040 SCT095 BKN150 22/12 A2985 RMK AO2 SLP113 T02170122 $,2024-08-08T01:53:00Z,21.7,12.2,10+,29.85
PABR,71.2837,-156.784,90,11,12.66,PABR 080153Z 09011KT 10SM FEW070 14/11 A2968,2024-08-08T01:53:00Z,14,11,10+,29.68
PABI,63.9931,-145.721,190,28,32.22,PABI 080153Z 19028G48KT 10SM FEW070 SCT110 BKN140 BKN170 25/09 A2989 RMK AO2 PK WND 20048/0151 SLP114 VIRGA DSNT BLDU VC ALQDS ACSL ALQDS T02500094 $,2024-08-08T01:53:00Z,25,9.4,10+,29.89
PABE,60.785,-161.829,210,14,16.11,PABE 080153Z 21014G20KT 10SM FEW021 SCT100 BKN120 14/09 A2975 RMK AO2 SLP077 T01390094,2024-08-08T01:53:00Z,13.9,9.4,10+,29.75
PAAQ,61.5951,-149.092,0,0,0.0,PAAQ 080153Z 00000KT 10SM -RA FEW008 FEW075 OVC100 16/14 A2993 RMK AO2 SLP136 P0001 T01610144,2024-08-08T01:53:00Z,16.1,14.4,10+,29.93
MMCL,24.766,-107.476,240,10,11.51,MMCL 080153Z 24010KT 10SM FEW100 SCT230 31/25 A2985 RMK 8/063 DNST CB 1ST QUAD,2024-08-08T01:53:00Z,31,25,10+,29.85
KZZV,39.9461,-81.8932,10,6,6.9,KZZV 080153Z AUTO 01006KT 10SM BKN022 24/19 A2988 RMK AO2 SLP111 T02390194,2024-08-08T01:53:00Z,23.9,19.4,10+,29.88
KYKM,46.564,-120.535,160,5,5.75,KYKM 080153Z 16005KT 10SM CLR 31/08 A2996 RMK AO2 SLP139 T03110083,2024-08-08T01:53:00Z,31.1,8.3,10+,29.96
KYIP,42.242,-83.5214,40,4,4.6,KYIP 080153Z 04004KT 10SM CLR 19/13 A2997 RMK AO2 SLP142 T01940133 $,2024-08-08T01:53:00Z,19.4,13.3,10+,29.97
KXVG,46.9942,-94.206,0,0,0.0,KXVG 080153Z AUTO 00000KT 5SM DZ SCT006 BKN026 OVC035 16/16 A2993 RMK AO2,2024-08-08T01:53:00Z,16,16,5,29.93
KXNA,36.2897,-94.3115,80,5,5.75,KXNA 080153Z 08005KT 10SM CLR 28/16 A2987 RMK AO2 SLP098 T02830161,2024-08-08T01:53:00Z,28.3,16.1,10+,29.87
KWVI,36.9394,-121.79,210,7,8.06,KWVI 080153Z AUTO 21007KT 10SM CLR 21/13 A2995 RMK AO2 SLP141 T02110133,2024-08-08T01:53:00Z,21.1,13.3,10+,29.95
KWST,41.3509,-71.8055,0,0,0.0,KWST 080153Z AUTO 00000KT 10SM SCT042 18/16 A3008 RMK AO2 SLP184 T01780156,2024-08-08T01:53:00Z,17.8,15.6,10+,30.08
KWRL,43.9654,-107.95,330,19,21.86,KWRL 080153Z AUTO 33019G24KT 10SM SCT075 BKN095 19/11 A3016 RMK AO2 PK WND 33028/0101 SLP184 T01940106,2024-08-08T01:53:00Z,19.4,10.6,10+,30.16
KVUO,45.621,-122.654,310,9,10.36,KVUO 080153Z AUTO 31009G16KT 10SM CLR 30/14 A2995 RMK AO2 SLP142 T03000144,2024-08-08T01:53:00Z,30,14.4,10+,29.95
KVRB,27.6553,-80.4142,200,15,17.26,KVRB 080153Z AUTO 20015G23KT 10SM FEW038 FEW046 29/24 A2974 RMK AO2 SLP069 T02890244,2024-08-08T01:53:00Z,28.9,24.4,10+,29.74
KVLD,30.7763,-83.2739,0,0,0.0,KVLD 080153Z 00000KT 10SM CLR 27/25 A2966 RMK AO2 SLP051 T02720250 $,2024-08-08T01:53:00Z,27.2,25,10+,29.66
KVGT,36.2121,-115.194,110,17,19.56,KVGT 080153Z 11017G26KT 10SM CLR 38/17 A2980 RMK AO2 PK WND 12026/0153 SLP073 T03830172,2024-08-08T01:53:00Z,38.3,17.2,10+,29.80
KVEL,40.4429,-109.513,220,4,4.6,KVEL 080153Z AUTO 22004KT 10SM CLR 29/09 A3007 RMK AO2 SLP108 T02890089,2024-08-08T01:53:00Z,28.9,8.9,10+,30.07
KVCB,38.3775,-121.959,200,7,8.06,KVCB 080153Z AUTO 20007G17KT 10SM CLR 30/12 A2982 RMK AO2 SLP095 T03000117,2024-08-08T01:53:00Z,30,11.7,10+,29.82
KUUU,41.5299,-71.2833,70,3,3.45,KUUU 080153Z AUTO 07003KT 10SM OVC050 17/14 A3008 RMK AO2 SLP184 T01670144,2024-08-08T01:53:00Z,16.7,14.4,10+,30.08
KUTS,30.7443,-95.5866,0,0,0.0,KUTS 080153Z AUTO 00000KT 10SM CLR 32/22 A2980 RMK AO2 SLP085 T03170222,2024-08-08T01:53:00Z,31.7,22.2,10+,29.80
KUNV,40.8534,-77.8401,50,6,6.9,KUNV 080153Z 05006KT 2SM -DZ OVC002 19/19 A3000,2024-08-08T01:53:00Z,19,19,2,30.00
KUNO,36.8791,-91.9052,0,0,0.0,KUNO 080153Z AUTO 00000KT 10SM CLR 21/17 A2992 RMK AO2 SLP121 T02110172,2024-08-08T01:53:00Z,21.1,17.2,10+,29.92
KUIL,47.937,-124.558,290,7,8.06,KUIL 080153Z AUTO 29007KT 10SM CLR 18/13 A3006 RMK AO2 SLP179 T01830133,2024-08-08T01:53:00Z,18.3,13.3,10+,30.06
KUAO,45.2466,-122.771,20,10,11.51,KUAO 080153Z 02010KT 10SM CLR 31/14 A2995 RMK AO2 SLP138 T03060144 $,2024-08-08T01:53:00Z,30.6,14.4,10+,29.95
KTYS,35.818,-83.9857,360,8,9.21,KTYS 080153Z 36008KT 10SM SCT050 29/22 A2975 RMK AO2 SLP059 OCNL LTG DSNT E CB DSNT E T02890222,2024-08-08T01:53:00Z,28.9,22.2,10+,29.75
KTYR,32.3587,-95.404,170,6,6.9,KTYR 080153Z AUTO 17006KT 10SM CLR 31/22 A2979 RMK AO2 SLP079 T03060222,2024-08-08T01:53:00Z,30.6,22.2,10+,29.79
KTXK,33.4561,-93.9878,130,4,4.6,KTXK 080153Z 13004KT 10SM CLR 32/24 A2977 RMK AO2 SLP073 T03170239,2024-08-08T01:53:00Z,31.7,23.9,10+,29.77
KTWF,42.4785,-114.477,270,8,9.21,KTWF 080153Z 27008KT 10SM FU CLR 27/03 A3006 RMK AO2 SLP121 T02670033,2024-08-08T01:53:00Z,26.7,3.3,10+,30.06
KTVR,32.3481,-91.0299,20,10,11.51,KTVR 080153Z AUTO 02010KT 10SM CLR 31/24 A2977 RMK AO2 SLP088 T03060244,2024-08-08T01:53:00Z,30.6,24.4,10+,29.77
KTVL,38.8984,-119.996,VRB,3,3.45,KTVL 080153Z AUTO VRB03KT 10SM CLR 26/03 A3026 RMK AO2 SLP192 T02560033,2024-08-08T01:53:00Z,25.6,3.3,10+,30.26
KTVC,44.739,-85.5694,0,0,0.0,KTVC 080153Z 00000KT 10SM FEW060 BKN150 22/14 A2997 RMK AO2 SLP147 LAST T02170144,2024-08-08T01:53:00Z,21.7,14.4,10+,29.97
KTUS,32.1315,-110.956,320,9,10.36,KTUS 080153Z 32009KT 10SM CLR 32/18 A2999 RMK AO2 LTG DSNT ALQDS SLP104 T03220178,2024-08-08T01:53:00Z,32.2,17.8,10+,29.99
KTUP,34.2622,-88.7713,330,5,5.75,KTUP 080153Z 33005KT 10SM CLR 25/19 A2980 RMK AO2 SLP086 T02500194 $,2024-08-08T01:53:00Z,25,19.4,10+,29.80
KTUL,36.1985,-95.8783,100,5,5.75,KTUL 080153Z 10005KT 10SM FEW250 29/18 A2980 RMK AO2 SLP083 T02940178,2024-08-08T01:53:00Z,29.4,17.8,10+,29.80
KTTN,40.2768,-74.8159,70,9,10.36,KTTN 080153Z 07009KT 10SM BKN008 OVC013 19/18 A3002 RMK AO2 RAB16E25 CIG 006V011 SLP159 P0000 T01890178 $,2024-08-08T01:53:00Z,18.9,17.8,10+,30.02
KTTD,45.551,-122.41,VRB,3,3.45,KTTD 080153Z AUTO VRB03KT 10SM CLR 31/16 A2992 RMK AO2 SLP133 T03110161,2024-08-08T01:53:00Z,31.1,16.1,10+,29.92
KTRL,32.7131,-96.2688,160,5,5.75,KTRL 080153Z AUTO 16005KT 10SM CLR 32/21 A2979 RMK AO2 SLP079 T03170211,2024-08-08T01:53:00Z,31.7,21.1,10+,29.79
KTRI,36.4797,-82.3989,360,6,6.9,KTRI 080153Z 36006KT 10SM SCT065 26/22 A2981 RMK AO2 SLP065 OCNL LTG DSNT NE T02610217,2024-08-08T01:53:00Z,26.1,21.7,10+,29.81
KTPA,27.9633,-82.54,240,8,9.21,KTPA 080153Z 24008KT 10SM FEW110 BKN250 29/27 A2973 RMK AO2 SLP068 T02940267,2024-08-08T01:53:00Z,29.4,26.7,10+,29.73
KTOR,42.0613,-104.158,100,10,11.51,KTOR 080153Z AUTO 10010KT 10SM SCT085 19/17 A3011 RMK AO2 PK WND 12030/0111 RAE00 TSE02 SLP155 P0001 T01940167,2024-08-08T01:53:00Z,19.4,16.7,10+,30.11
KTOP,39.0724,-95.626,60,4,4.6,KTOP 080153Z AUTO 06004KT 10SM CLR 26/19 A2988 RMK AO2 SLP110 T02610194,2024-08-08T01:53:00Z,26.1,19.4,10+,29.88
KTOI,31.8574,-86.0103,0,0,0.0,KTOI 080153Z AUTO 00000KT 10SM CLR 27/24 A2973 RMK AO2 SLP059 T02720244,2024-08-08T01:53:00Z,27.2,24.4,10+,29.73
KTMB,25.6423,-80.4347,210,4,4.6,KTMB 080153Z 21004KT 10SM FEW120 29/24 A2981 RMK AO2 SLP093 T02890244 $,2024-08-08T01:53:00Z,28.9,24.4,10+,29.81
KTLH,30.3935,-84.3513,270,3,3.45,KTLH 080153Z 27003KT 10SM CLR 28/23 A2968 RMK AO2 SLP049 T02830233 $,2024-08-08T01:53:00Z,28.3,23.3,10+,29.68
KTKI,33.1828,-96.5899,170,6,6.9,KTKI 080153Z 17006KT 10SM CLR 33/19 A2978 RMK AO2 SLP077 T03330194,2024-08-08T01:53:00Z,33.3,19.4,10+,29.78
KTIW,47.2674,-122.576,30,8,9.21,KTIW 080153Z 03008KT 10SM CLR 24/14 A3003 RMK AO2 SLP168 T02390139,2024-08-08T01:53:00Z,23.9,13.9,10+,30.03
KTHV,39.9194,-76.8768,80,9,10.36,KTHV 080153Z AUTO 08009KT 6SM BR OVC008 21/19 A2998 RMK AO2 RAB33E42 CIG 005V012 SLP150 P0000 T02060194,2024-08-08T01:53:00Z,20.6,19.4,6,29.98
KTDZ,41.5633,-83.4767,70,4,4.6,KTDZ 080153Z AUTO 07004KT 10SM OVC043 23/16 A2994 RMK AO2 SLP135 T02280156,2024-08-08T01:53:00Z,22.8,15.6,10+,29.94
KTCS,33.2369,-107.268,210,7,8.06,KTCS 080153Z AUTO 21007KT 10SM CLR 33/09 A3002 RMK AO2 SLP063 T03280089,2024-08-08T01:53:00Z,32.8,8.9,10+,30.02
KTCL,33.2122,-87.6155,330,8,9.21,KTCL 080153Z 33008KT 9SM CLR 29/24 A2973 RMK AO2 SLP065 T02940239,2024-08-08T01:53:00Z,29.4,23.9,9,29.73
KSWO,36.1624,-97.0832,120,7,8.06,KSWO 080153Z 12007KT 10SM CLR 33/19 A2980 RMK AO2 SLP075 T03330194,2024-08-08T01:53:00Z,33.3,19.4,10+,29.80
KSTS,38.5037,-122.811,170,11,12.66,KSTS 080153Z 17011KT 10SM CLR 21/12 A2990 RMK AO2 SLP119 T02060117,2024-08-08T01:53:00Z,20.6,11.7,10+,29.90
KSTP,44.9324,-93.0559,140,3,3.45,KSTP 080153Z 14003KT 10SM FEW065 OVC100 21/16 A2993 RMK AO2 SLP129 T02060161,2024-08-08T01:53:00Z,20.6,16.1,10+,29.93
KSTJ,39.7683,-94.9095,110,5,5.75,KSTJ 080153Z 11005KT 10SM CLR 26/18 A2990 RMK AO2 SLP117 T02610183,2024-08-08T01:53:00Z,26.1,18.3,10+,29.90
KSTC,45.5442,-94.0517,0,0,0.0,KSTC 080153Z 00000KT 10SM OVC033 18/17 A2993 RMK AO2 SLP140 T01780167,2024-08-08T01:53:00Z,17.8,16.7,10+,29.93
KSSF,29.339,-98.472,140,11,12.66,KSSF 080153Z 14011KT 10SM FEW095 34/20 A2975 RMK AO2 SLP060 T03390200 $,2024-08-08T01:53:00Z,33.9,20,10+,29.75
KSRQ,27.4015,-82.5596,260,9,10.36,KSRQ 080153Z 26009KT 10SM SCT017 SCT022 29/27 A2975 RMK AO2 SLP073 T02940272,2024-08-08T01:53:00Z,29.4,27.2,10+,29.75
KSPW,43.1682,-95.2101,170,5,5.75,KSPW 080153Z AUTO 17005KT 10SM CLR 23/18 A2991 RMK AO2 SLP123 T02280178,2024-08-08T01:53:00Z,22.8,17.8,10+,29.91
KSPG,27.7685,-82.6257,260,7,8.06,KSPG 080153Z 26007KT 10SM CLR 31/26 A2972 RMK AO2 SLP063 T03110261 $,2024-08-08T01:53:00Z,31.1,26.1,10+,29.72
KSPB,45.7691,-122.864,340,8,9.21,KSPB 080153Z AUTO 34008KT 10SM CLR A2994 RMK AO2 SLPNO,2024-08-08T01:53:00Z,,,10+,29.94
KSNY,41.0993,-102.986,30,10,11.51,KSNY 080153Z AUTO 03010G20KT 10SM OVC100 22/14 A3008 RMK AO2 LTG DSNT NE RAE0059 SLP140 P0000 T02220144,2024-08-08T01:53:00Z,22.2,14.4,10+,30.08
KSNA,33.6798,-117.867,200,10,11.51,KSNA 080153Z 20010KT 10SM FEW009 FEW080 22/17 A2993 RMK AO2 SLP134 T02170167 $,2024-08-08T01:53:00Z,21.7,16.7,10+,29.93
KSMQ,40.6241,-74.669,VRB,3,3.45,KSMQ 080153Z AUTO VRB03KT 6SM -RA BR OVC012 19/18 A3002 RMK AO2 RAE19B37 SLP165 P0001 T01890183 $,2024-08-08T01:53:00Z,18.9,18.3,6,30.02
KSMF,38.7007,-121.595,180,11,12.66,KSMF 080153Z 18011KT 10SM CLR 33/12 A2980 RMK AO2 SLP089 T03330122,2024-08-08T01:53:00Z,33.3,12.2,10+,29.80
KSLN,38.78,-97.6446,90,9,10.36,KSLN 080153Z 09009KT 10SM CLR 30/17 A2985 RMK AO2 SLP094 T03000167,2024-08-08T01:53:00Z,30,16.7,10+,29.85
KSJC,37.3594,-121.924,320,8,9.21,KSJC 080153Z 32008KT 10SM FEW100 27/13 A2989 RMK AO2 SLP120 T02670133,2024-08-08T01:53:00Z,26.7,13.3,10+,29.89
KSIY,41.7737,-122.468,350,13,14.96,KSIY 080153Z AUTO 35013KT 10SM CLR 36/02 A2994 RMK AO2 SLP122 T03560017,2024-08-08T01:53:00Z,35.6,1.7,10+,29.94
KSHR,44.7603,-106.974,280,7,8.06,KSHR 080153Z AUTO 28007KT 10SM BKN025 OVC038 16/14 A3027 RMK AO2 LTG DSNT S RAE22B41E50 SLP230 P0002 T01560139,2024-08-08T01:53:00Z,15.6,13.9,10+,30.27
KSHN,47.2384,-123.142,120,5,5.75,KSHN 080153Z AUTO 12005KT 10SM CLR 27/14 A3000 RMK AO2 SLP157 T02670144,2024-08-08T01:53:00Z,26.7,14.4,10+,30.00
KSGR,29.6197,-95.6575,200,4,4.6,KSGR 080153Z 20004KT 10SM CLR 32/23 A2977 RMK AO2 SLP082 T03170233,2024-08-08T01:53:00Z,31.7,23.3,10+,29.77
KSFF,47.6857,-117.321,70,4,4.6,KSFF 080153Z 07004KT 10SM CLR 31/05 A3002 RMK AO2 SLP151 T03060050,2024-08-08T01:53:00Z,30.6,5,10+,30.02
KSFB,28.7795,-81.2436,250,8,9.21,KSFB 080153Z 25008KT 10SM CLR 29/23 A2969 RMK AO2 SLP054 T02940233,2024-08-08T01:53:00Z,29.4,23.3,10+,29.69
KSEG,40.8193,-76.8658,70,5,5.75,KSEG 080153Z AUTO 07005KT 10SM OVC017 20/18 A3001 RMK AO2 SLP160 T02000178,2024-08-08T01:53:00Z,20,17.8,10+,30.01
KSEA,47.4447,-122.314,310,5,5.75,KSEA 080153Z 31005KT 10SM CLR 25/13 A3004 RMK AO2 SLP177 T02500133,2024-08-08T01:53:00Z,25,13.3,10+,30.04
KSDM,32.5758,-116.994,300,8,9.21,KSDM 080153Z 30008KT 10SM CLR 23/18 A2994 RMK AO2 SLP132 T02280178,2024-08-08T01:53:00Z,22.8,17.8,10+,29.94
KSDL,33.6124,-111.923,180,5,5.75,KSDL 080153Z 18005KT 10SM FEW095 37/17 A2987 RMK AO2 SLP084 T03670172,2024-08-08T01:53:00Z,36.7,17.2,10+,29.87
KSBM,43.7748,-87.849,0,0,0.0,KSBM 080153Z AUTO 00000KT 10SM CLR 18/13 A2997 RMK AO2 SLP146 T01830128,2024-08-08T01:53:00Z,18.3,12.8,10+,29.97
KSBA,34.4241,-119.842,250,7,8.06,KSBA 080153Z 25007KT 7SM CLR 20/17 A2992 RMK AO2 SLP133 T02000172,2024-08-08T01:53:00Z,20,17.2,7,29.92
KSAV,32.1313,-81.2023,340,14,16.11,KSAV 080153Z 34014KT 6SM -RA BR FEW024 BKN035 OVC050 26/23 A2958 RMK AO2 RAB39 SLP014 P0000 T02560233 $,2024-08-08T01:53:00Z,25.6,23.3,6,29.58
KSAF,35.611,-106.096,20,19,21.86,KSAF 080153Z AUTO 02019KT 10SM BKN110 29/07 A3015 RMK AO2 PK WND 02027/0137 WSHFT 0125 LTG DSNT ALQDS SLP091 T02890067,2024-08-08T01:53:00Z,28.9,6.7,10+,30.15
KSAC,38.5066,-121.496,210,8,9.21,KSAC 080153Z 21008G16KT 10SM CLR 31/12 A2981 RMK AO2 SLP095 T03060117,2024-08-08T01:53:00Z,30.6,11.7,10+,29.81
KRXE,43.8321,-111.808,190,9,10.36,KRXE 080153Z AUTO 19009KT 10SM CLR 26/05 A3000 RMK AO2 SLP118 T02610050,2024-08-08T01:53:00Z,26.1,5,10+,30.00
KRWL,41.8065,-107.195,10,12,13.81,KRWL 080153Z AUTO 01012KT 10SM CLR 26/05 A3019 RMK AO2 SLP107 T02560050,2024-08-08T01:53:00Z,25.6,5,10+,30.19
KRWI,35.8502,-77.8951,60,7,8.06,KRWI 080153Z AUTO 06007KT 040V100 7SM -RA SCT010 SCT060 BKN110 24/23 A2979 RMK AO2 SLP086 P0004 T02390228,2024-08-08T01:53:00Z,23.9,22.8,7,29.79
KRWF,44.5483,-95.0804,0,0,0.0,KRWF 080153Z AUTO 00000KT 10SM FEW031 OVC041 20/18 A2991 RMK AO2 SLP125 T02000183,2024-08-08T01:53:00Z,20,18.3,10+,29.91
KRVS,36.0424,-95.9902,80,6,6.9,KRVS 080153Z 08006KT 10SM CLR 32/16 A2980 RMK AO2 SLP092 T03170156,2024-08-08T01:53:00Z,31.7,15.6,10+,29.80
KRUE,35.2573,-93.095,110,6,6.9,KRUE 080153Z AUTO 11006KT 10SM CLR 27/19 A2984 RMK AO2 SLP096 T02670189 $,2024-08-08T01:53:00Z,26.7,18.9,10+,29.84
KRTN,36.7418,-104.508,10,12,13.81,KRTN 080153Z AUTO 01012KT 10SM CLR 23/11 A3014 RMK AO2 PK WND 34030/0111 RAE13 SLP115 P0000 T02330106,2024-08-08T01:53:00Z,23.3,10.6,10+,30.14
KRSW,26.538,-81.7567,240,7,8.06,KRSW 080153Z 24007KT 10SM CLR 28/26 A2978 RMK AO2 SLP082 T02830256,2024-08-08T01:53:00Z,28.3,25.6,10+,29.78
KRQE,35.6571,-109.06,50,3,3.45,KRQE 080153Z AUTO 05003KT 10SM CLR 26/08 A3019 RMK AO2 SLP102 T02560083,2024-08-08T01:53:00Z,25.6,8.3,10+,30.19
KRNT,47.4951,-122.214,330,10,11.51,KRNT 080153Z 33010KT 10SM CLR 26/16 A3002 RMK AO2 SLP169 T02610156,2024-08-08T01:53:00Z,26.1,15.6,10+,30.02
KRNM,33.038,-116.916,310,7,8.06,KRNM 080153Z 31007KT 10SM CLR 28/16 A2997 RMK AO2 SLP130 T02830156,2024-08-08T01:53:00Z,28.3,15.6,10+,29.97
KRMG,34.3483,-85.1616,0,0,0.0,KRMG 080153Z AUTO 00000KT 10SM CLR 28/23 A2972 RMK AO2 SLP051 T02780233,2024-08-08T01:53:00Z,27.8,23.3,10+,29.72
KRME,43.2242,-75.3956,0,0,0.0,KRME 080153Z 00000KT 10SM CLR 18/14 A3005 RMK AO2 SLP173 T01830144,2024-08-08T01:53:00Z,18.3,14.4,10+,30.05
KRKP,28.0837,-97.0467,150,12,13.81,KRKP 080153Z AUTO 15012G17KT 9SM CLR 31/26 A2977 RMK AO2 SLP083 T03060256,2024-08-08T01:53:00Z,30.6,25.6,9,29.77
KRIW,43.0622,-108.447,10,24,27.62,KRIW 080153Z AUTO 01024G34KT 10SM CLR 21/11 A3016 RMK AO2 PK WND 01034/0145 SLP153 T02110106,2024-08-08T01:53:00Z,21.1,10.6,10+,30.16
KRIL,39.5279,-107.72,170,10,11.51,KRIL 080153Z AUTO 17010KT 10SM SCT110 27/08 A3013 RMK AO2 WSHFT 0054 SLP125 T02670083,2024-08-08T01:53:00Z,26.7,8.3,10+,30.13
KRHI,45.6315,-89.4822,0,0,0.0,KRHI 080153Z AUTO 00000KT 10SM BKN110 18/15 A2997 RMK AO2 SLP146 T01830150,2024-08-08T01:53:00Z,18.3,15,10+,29.97
KRDD,40.5146,-122.298,150,8,9.21,KRDD 080153Z 15008KT 10SM CLR 39/04 A2979 RMK AO2 SLP080 T03890039,2024-08-08T01:53:00Z,38.9,3.9,10+,29.79
KRBG,43.2337,-123.358,10,13,14.96,KRBG 080153Z AUTO 01013KT 10SM CLR 32/11 A2992 RMK AO2 SLP128 T03220106,2024-08-08T01:53:00Z,32.2,10.6,10+,29.92
KRBD,32.6782,-96.8677,160,5,5.75,KRBD 080153Z AUTO 16005KT 10SM CLR 33/19 A2979 RMK AO2 SLP076 T03330194,2024-08-08T01:53:00Z,33.3,19.4,10+,29.79
KRAL,33.9528,-117.435,270,12,13.81,KRAL 080153Z 27012KT 10SM CLR 28/16 A2992 RMK AO2 SLP116 T02780161,2024-08-08T01:53:00Z,27.8,16.1,10+,29.92
KRAC,42.7586,-87.8178,50,3,3.45,KRAC 080153Z AUTO 05003KT 10SM CLR 19/14 A2998 RMK AO2 SLP147 T01940144,2024-08-08T01:53:00Z,19.4,14.4,10+,29.98
KPWA,35.5411,-97.6472,140,9,10.36,KPWA 080153Z 14009KT 10SM CLR 35/20 A2980 RMK AO2 SLP071 T03500200,2024-08-08T01:53:00Z,35,20,10+,29.80
KPUW,46.7438,-117.116,0,0,0.0,KPUW 080153Z AUTO 00000KT 9SM CLR 28/03 A3006 RMK AO2 SLP164 T02830033,2024-08-08T01:53:00Z,28.3,3.3,9,30.06
KPUC,39.6089,-110.755,330,12,13.81,KPUC 080153Z AUTO 33012G19KT 10SM CLR 33/02 A3010 RMK AO2 SLP066 T03280022,2024-08-08T01:53:00Z,32.8,2.2,10+,30.10
KPUB,38.2887,-104.506,320,6,6.9,KPUB 080153Z 32006KT 10SM FEW100 26/15 A3005 RMK AO2 SLP109 T02610150,2024-08-08T01:53:00Z,26.1,15,10+,30.05
KPTK,42.6632,-83.41,40,5,5.75,KPTK 080153Z 04005KT 10SM FEW025 FEW250 19/13 A2998 RMK AO2 SLP148 T01940128,2024-08-08T01:53:00Z,19.4,12.8,10+,29.98
KPSX,28.7248,-96.2535,170,8,9.21,KPSX 080153Z AUTO 17008KT 10SM CLR 30/25 A2979 RMK AO2 SLP086 T03000250,2024-08-08T01:53:00Z,30,25,10+,29.79
KPSP,33.8222,-116.504,330,14,16.11,KPSP 080153Z 33014G19KT 10SM CLR 40/12 A2978 RMK AO2 WSHFT 0040 SLP079 T04000122 $,2024-08-08T01:53:00Z,40,12.2,10+,29.78
KPSC,46.2695,-119.118,10,7,8.06,KPSC 080153Z 01007KT 10SM CLR 34/10 A2992 RMK AO2 SLP128 T03440100,2024-08-08T01:53:00Z,34.4,10,10+,29.92
KPRC,34.6491,-112.422,200,11,12.66,KPRC 080153Z 20011KT 10SM CLR 23/15 A3014 RMK AO2 PK WND 19028/0058 LTG DSNT SW TSE09 SLP128 T02330150,2024-08-08T01:53:00Z,23.3,15,10+,30.14
KPRB,35.6693,-120.629,200,14,16.11,KPRB 080153Z AUTO 20014KT 10SM CLR 27/12 A2991 RMK AO2 SLP120 T02720117,2024-08-08T01:53:00Z,27.2,11.7,10+,29.91
KPQL,30.4631,-88.5316,0,0,0.0,KPQL 080153Z AUTO 00000KT 8SM CLR 27/25 A2974 RMK AO2 SLP071 T02720250,2024-08-08T01:53:00Z,27.2,25,8,29.74
KPOU,41.6257,-73.8816,0,0,0.0,KPOU 080153Z 00000KT 10SM OVC085 19/17 A3006 RMK AO2 RAB28E40 SLP175 P0000 T01940172,2024-08-08T01:53:00Z,19.4,17.2,10+,30.06
KPOF,36.7697,-90.3224,340,3,3.45,KPOF 080153Z AUTO 34003KT 10SM CLR 22/19 A2986 RMK AO2 SLP108 T02220189,2024-08-08T01:53:00Z,22.2,18.9,10+,29.86
KPNS,30.478,-87.1869,340,4,4.6,KPNS 080153Z AUTO 34004KT 10SM CLR 29/21 A2972 RMK AO2 SLP065 T02940211,2024-08-08T01:53:00Z,29.4,21.1,10+,29.72
KPNC,36.7369,-97.1024,120,9,10.36,KPNC 080153Z AUTO 12009KT 10SM CLR 32/18 A2979 RMK AO2 SLP074 T03170183,2024-08-08T01:53:00Z,31.7,18.3,10+,29.79
KPMP,26.2464,-80.111,200,3,3.45,KPMP 080153Z AUTO 20003KT 10SM FEW095 BKN110 28/25 A2979 RMK AO2 RAE0054 SLP089 P0000 T02780250,2024-08-08T01:53:00Z,27.8,25,10+,29.79
KPMD,34.6295,-118.083,220,19,21.86,KPMD 080153Z 22019KT 10SM CLR 33/04 A2994 RMK AO2 PK WND 22029/0121 SLP104 T03280039,2024-08-08T01:53:00Z,32.8,3.9,10+,29.94
KPKD,46.8971,-95.0695,320,6,6.9,KPKD 080153Z AUTO 32006KT 10SM SCT060 16/16 A2995 RMK AO2 RAB08E19 SLP142 P0000 T01610156,2024-08-08T01:53:00Z,16.1,15.6,10+,29.95
KPKB,39.3395,-81.4438,10,5,5.75,KPKB 080153Z 01005KT 10SM FEW025 BKN120 25/21 A2985 RMK AO2 SLP099 T02500206,2024-08-08T01:53:00Z,25,20.6,10+,29.85
KPIR,44.3819,-100.286,10,12,13.81,KPIR 080153Z AUTO 01012KT 10SM SCT110 19/14 A3006 RMK AO2 SLP170 T01940139,2024-08-08T01:53:00Z,19.4,13.9,10+,30.06
KPIL,26.1597,-97.3378,150,11,12.66,KPIL 080153Z AUTO 15011KT 10SM CLR 29/26 A2979 RMK AO2 SLP088 T02940256,2024-08-08T01:53:00Z,29.4,25.6,10+,29.79
KPIH,42.9197,-112.572,210,11,12.66,KPIH 080153Z 21011KT 9SM CLR 26/04 A3005 RMK AO2 SLP127 T02560044,2024-08-08T01:53:00Z,25.6,4.4,9,30.05
KPIE,27.9126,-82.6855,260,6,6.9,KPIE 080153Z 26006KT 10SM CLR 30/27 A2973 RMK AO2 SLP068 T03000267,2024-08-08T01:53:00Z,30,26.7,10+,29.73
KPHD,40.4703,-81.4218,0,0,0.0,KPHD 080153Z AUTO 00000KT 10SM OVC031 23/19 A2990 RMK AO2 SLP118 T02330194,2024-08-08T01:53:00Z,23.3,19.4,10+,29.90
KPGD,26.9185,-81.9939,250,7,8.06,KPGD 080153Z AUTO 25007KT 10SM CLR 30/26 A2977 RMK AO2 SLP081 T03000261,2024-08-08T01:53:00Z,30,26.1,10+,29.77
KPGA,36.9211,-111.449,230,7,8.06,KPGA 080153Z AUTO 23007KT 10SM CLR 33/09 A2998 RMK AO2 SLP076 T03330094,2024-08-08T01:53:00Z,33.3,9.4,10+,29.98
KPEO,42.6441,-77.0528,0,0,0.0,KPEO 080153Z AUTO 00000KT 10SM OVC049 21/17 A3004 RMK AO2 SLP166 T02110167,2024-08-08T01:53:00Z,21.1,16.7,10+,30.04
KPDX,45.5958,-122.609,320,10,11.51,KPDX 080153Z 32010G19KT 10SM BKN030 30/14 A2994 RMK AO2 SLP138 FU BKN030 T03000144,2024-08-08T01:53:00Z,30,14.4,10+,29.94
KPDT,45.6975,-118.834,20,9,10.36,KPDT 080153Z 02009KT 10SM CLR 32/08 A2998 RMK AO2 SLP134 T03170078,2024-08-08T01:53:00Z,31.7,7.8,10+,29.98
KPDK,33.8783,-84.298,330,8,9.21,KPDK 080153Z 33008KT 10SM CLR 29/21 A2973 RMK AO2 SLP045 T02940206,2024-08-08T01:53:00Z,29.4,20.6,10+,29.73
KPBI,26.6851,-80.0992,180,6,6.9,KPBI 080153Z 18006KT 10SM FEW030 FEW100 BKN250 28/25 A2979 RMK AO2 SLP085 OCNL LTGIC DSNT SE CB DSNT SE T02780250 $,2024-08-08T01:53:00Z,27.8,25,10+,29.79
KPBG,44.6392,-73.4631,0,0,0.0,KPBG 080153Z AUTO 00000KT 10SM CLR 17/13 A3006 RMK AO2 SLP180 T01670133,2024-08-08T01:53:00Z,16.7,13.3,10+,30.06
KPBF,34.1798,-91.9344,40,7,8.06,KPBF 080153Z AUTO 04007KT 10SM CLR 26/ A2983 RMK AO2 SLP098 T0256 $,2024-08-08T01:53:00Z,25.6,,10+,29.83
KPAH,37.0652,-88.7793,340,4,4.6,KPAH 080153Z 34004KT 10SM CLR 22/19 A2984 RMK AO2 SLP102 T02220194,2024-08-08T01:53:00Z,22.2,19.4,10+,29.84
KPAE,47.9232,-122.283,VRB,4,4.6,KPAE 080153Z VRB04KT 10SM CLR 24/14 A3006 RMK AO2 SLP176 T02440139,2024-08-08T01:53:00Z,24.4,13.9,10+,30.06
KP68,39.602,-116.006,360,9,10.36,KP68 080153Z AUTO 36009KT 30/03 A3012 RMK AO1 SLP109 T03000028,2024-08-08T01:53:00Z,30,2.8,,30.12
KOXB,38.3091,-75.1234,120,4,4.6,KOXB 080153Z AUTO 12004KT 10SM OVC110 22/21 A2994 RMK AO2 SLP137 T02170206 PWINO $,2024-08-08T01:53:00Z,21.7,20.6,10+,29.94
KOWD,42.1912,-71.1732,0,0,0.0,KOWD 080153Z 00000KT 10SM CLR 18/16 A3009 RMK AO2 SLP187 T01780156 $,2024-08-08T01:53:00Z,17.8,15.6,10+,30.09
KOWA,44.1191,-93.2569,130,5,5.75,KOWA 080153Z AUTO 13005KT 10SM OVC060 21/17 A2994 RMK AO2,2024-08-08T01:53:00Z,21,17,10+,29.94
KOVS,43.1561,-90.6775,0,0,0.0,KOVS 080153Z AUTO 00000KT 10SM CLR 21/18 A2995 RMK AO2 SLP141 T02060178,2024-08-08T01:53:00Z,20.6,17.8,10+,29.95
KOVE,39.4943,-121.622,190,7,8.06,KOVE 080153Z AUTO 19007KT 10SM CLR 38/09 A2981 RMK AO2 SLP093 T03780094,2024-08-08T01:53:00Z,37.8,9.4,10+,29.81
KOTM,41.1008,-92.4445,100,5,5.75,KOTM 080153Z AUTO 10005KT 10SM CLR 20/17 A2993 RMK AO2 SLP132 T02000167,2024-08-08T01:53:00Z,20,16.7,10+,29.93
KOSU,40.0784,-83.0782,40,6,6.9,KOSU 080153Z 04006KT 10SM CLR 23/19 A2989 RMK AO2 SLP113 T02330189,2024-08-08T01:53:00Z,23.3,18.9,10+,29.89
KOSH,43.9669,-88.5582,190,4,4.6,KOSH 080153Z 19004KT 10SM CLR 19/14 A2997 RMK AO2 SLP139 T01940139,2024-08-08T01:53:00Z,19.4,13.9,10+,29.97
KORL,28.5465,-81.3354,240,8,9.21,KORL 080153Z 24008KT 10SM CLR 30/23 A2971 RMK AO1 SLP062 T03000228,2024-08-08T01:53:00Z,30,22.8,10+,29.71
KORB,48.0171,-92.8538,0,0,0.0,KORB 080153Z AUTO 00000KT 10SM 16/16 A2989 RMK AO2,2024-08-08T01:53:00Z,16,16,10+,29.89
KOQT,36.023,-84.2336,0,0,0.0,KOQT 080153Z AUTO 00000KT 10SM CLR 28/22 A2978 RMK AO2 SLP064 T02780222,2024-08-08T01:53:00Z,27.8,22.2,10+,29.78
KOPF,25.9102,-80.2828,220,10,11.51,KOPF 080153Z 22010KT 10SM BKN110 31/24 A2980 RMK AO2 SLP092 T03060239,2024-08-08T01:53:00Z,30.6,23.9,10+,29.80
KONT,34.0531,-117.577,240,11,12.66,KONT 080153Z 24011KT 10SM FEW170 FEW220 28/16 A2993 RMK AO2 SLP118 T02780156,2024-08-08T01:53:00Z,27.8,15.6,10+,29.93
KONO,44.0143,-117.008,180,3,3.45,KONO 080153Z AUTO 18003KT 9SM CLR 33/08 A2994 RMK AO2 SLP121 T03280083,2024-08-08T01:53:00Z,32.8,8.3,9,29.94
KOMK,48.4611,-119.521,360,10,11.51,KOMK 080153Z AUTO 36010KT 10SM FEW110 33/04 A2998 RMK AO2 SLP141 T03330039,2024-08-08T01:53:00Z,33.3,3.9,10+,29.98
KOLF,48.0942,-105.578,30,6,6.9,KOLF 080153Z AUTO 03006KT 9SM FEW120 18/06 A3022 RMK AO2 SLP232 T01780061,2024-08-08T01:53:00Z,17.8,6.1,9,30.22
KOJC,38.85,-94.7395,90,5,5.75,KOJC 080153Z 09005KT 10SM CLR 25/17 A2990 RMK AO2 SLP114 T02500172 $,2024-08-08T01:53:00Z,25,17.2,10+,29.90
KOGD,41.1941,-112.017,0,0,0.0,KOGD 080153Z 00000KT 10SM CLR 35/M02 A2999 RMK AO2 SLP081 T03501022,2024-08-08T01:53:00Z,35,-2.2,10+,29.99
KODO,31.925,-102.387,140,5,5.75,KODO 080153Z AUTO 14005KT 10SM CLR 36/08 A2990 RMK AO2 SLP068 T03560083 $,2024-08-08T01:53:00Z,35.6,8.3,10+,29.90
KOAK,37.7178,-122.233,310,14,16.11,KOAK 080153Z 31014G31KT 10SM FEW009 SCT150 17/14 A2992 RMK AO2 PK WND 31032/0124 SLP133 T01670139,2024-08-08T01:53:00Z,16.7,13.9,10+,29.92
KNUI,38.152,-76.432,110,4,4.6,KNUI 080153Z AUTO 11004KT 10SM BKN014 OVC020 26/24 A2990 RMK AO2 SLP123 T02560239,2024-08-08T01:53:00Z,25.6,23.9,10+,29.90
KNQX,24.5801,-81.6829,240,6,6.9,KNQX 080153Z 24006KT 10SM SCT030 SCT250 31/27 A2982 RMK AO2 SLP097 T03060267 $,2024-08-08T01:53:00Z,30.6,26.7,10+,29.82
KNIP,30.2346,-81.6746,330,7,8.06,KNIP 080153Z 33007KT 300V010 10SM -TSRA FEW045CB BKN065 BKN080 BKN250 29/24 A2965 RMK AO2 RAB50 TSB53 SLP035 FRQ LTGICCG DSNT NE TS NE MOV S T1 SET P0000 T02890239 $,2024-08-08T01:53:00Z,28.9,23.9,10+,29.65
KNEW,30.0494,-90.029,280,12,13.81,KNEW 080153Z 28012KT 10SM CLR 34/24 A2976 RMK AO2 SLP071 T03440239,2024-08-08T01:53:00Z,34.4,23.9,10+,29.76
KMYV,39.102,-121.569,190,7,8.06,KMYV 080153Z AUTO 19007KT 10SM CLR 36/08 A2979 RMK AO2 SLP091 T03610078,2024-08-08T01:53:00Z,36.1,7.8,10+,29.79
KMYF,32.8145,-117.137,230,3,3.45,KMYF 080153Z 23003KT 10SM CLR 24/17 A2994 RMK AO2 SLP133 T02390167,2024-08-08T01:53:00Z,23.9,16.7,10+,29.94
KMWL,32.7816,-98.0602,150,4,4.6,KMWL 080153Z AUTO 15004KT 10SM CLR 31/17 A2980 RMK AO2 SLP075 T03110172,2024-08-08T01:53:00Z,31.1,17.2,10+,29.80
KMVY,41.393,-70.6159,80,7,8.06,KMVY 080153Z 08007KT 10SM FEW019 OVC050 18/16 A3007 RMK AO2 SLP182 T01830156,2024-08-08T01:53:00Z,18.3,15.6,10+,30.07
KMTO,39.4744,-88.2724,20,5,5.75,KMTO 080153Z AUTO 02005KT 10SM OVC048 22/21 A2989 RMK AO2 SLP118 T02220206,2024-08-08T01:53:00Z,22.2,20.6,10+,29.89
KMTJ,38.5054,-107.898,350,14,16.11,KMTJ 080153Z AUTO 35014G26KT 8SM VCTS -RA FEW065 SCT080 BKN110 26/09 A3017 RMK AO2 PK WND 36032/0105 LTG DSNT NE RAB36 SLP125 P0000 T02610094,2024-08-08T01:53:00Z,26.1,9.4,8,30.17
KMTH,24.7262,-81.0477,0,0,0.0,KMTH 080153Z AUTO 00000KT 10SM CLR 29/26 A2982 RMK AO2 SLP098 T02940261,2024-08-08T01:53:00Z,29.4,26.1,10+,29.82
KMSY,29.9974,-90.2777,250,4,4.6,KMSY 080153Z 25004KT 10SM CLR 29/23 A2976 RMK AO2 SLP081 T02940233,2024-08-08T01:53:00Z,29.4,23.3,10+,29.76
KMSS,44.9334,-74.8484,0,0,0.0,KMSS 080153Z AUTO 00000KT 10SM CLR 15/13 A3006 RMK AO2 SLP180 T01500133,2024-08-08T01:53:00Z,15,13.3,10+,30.06
KMSP,44.8852,-93.2313,90,4,4.6,KMSP 080153Z 09004KT 10SM FEW039 SCT060 OVC090 22/13 A2992 RMK AO2 SLP129 VIRGA T02170133,2024-08-08T01:53:00Z,21.7,13.3,10+,29.92
KMSO,46.9208,-114.094,360,7,8.06,KMSO 080153Z 36007KT 10SM SCT110 23/12 A3013 RMK AO2 SLP189 T02280122,2024-08-08T01:53:00Z,22.8,12.2,10+,30.13
KMSN,43.1407,-89.3452,70,3,3.45,KMSN 080153Z 07003KT 10SM BKN200 19/14 A2996 RMK AO2 SLP142 T01940144,2024-08-08T01:53:00Z,19.4,14.4,10+,29.96
KMSL,34.7439,-87.5997,310,4,4.6,KMSL 080153Z AUTO 31004KT 10SM BKN032 OVC043 26/20 A2979 RMK AO2 SLP078 T02610200,2024-08-08T01:53:00Z,26.1,20,10+,29.79
KMRB,39.4037,-77.975,50,10,11.51,KMRB 080153Z 05010KT 1 1/2SM +RA BR FEW007 OVC016 23/22 A2990 RMK AO2 RAE09B38 SLP122 P0017 T02280222,2024-08-08T01:53:00Z,22.8,22.2,1.5,29.90
KMPO,41.1368,-75.3771,80,6,6.9,KMPO 080153Z AUTO 08006KT 3SM BR OVC002 15/14 A3008 RMK AO2 RAE31 SLP182 P0003 T01500144,2024-08-08T01:53:00Z,15,14.4,3,30.08
KMOD,37.6254,-120.955,330,14,16.11,KMOD 080153Z 33014KT 10SM CLR 37/07 A2980 RMK AO2 SLP090 T03670072,2024-08-08T01:53:00Z,36.7,7.2,10+,29.80
KMNN,40.6158,-83.0673,20,5,5.75,KMNN 080153Z AUTO 02005KT 10SM FEW029 21/18 A2991 RMK AO2 SLP124 T02060178,2024-08-08T01:53:00Z,20.6,17.8,10+,29.91
KMMV,45.1957,-123.134,10,10,11.51,KMMV 080153Z AUTO 01010KT 10SM CLR 31/14 A2993 RMK AO2 SLP135 T03060139,2024-08-08T01:53:00Z,30.6,13.9,10+,29.93
KMLU,32.5155,-92.03,70,9,10.36,KMLU 080153Z 07009KT 10SM CLR 31/24 A2979 RMK AO2 SLP086 T03060239,2024-08-08T01:53:00Z,30.6,23.9,10+,29.79
KMLT,45.6478,-68.6925,120,3,3.45,KMLT 080153Z AUTO 12003KT 10SM CLR 14/12 A3007 RMK AO2 SLP188 T01440117,2024-08-08T01:53:00Z,14.4,11.7,10+,30.07
KMLS,46.4265,-105.883,60,6,6.9,KMLS 080153Z AUTO 06006KT 10SM OVC055 17/08 A3022 RMK AO2 SLP226 T01720083,2024-08-08T01:53:00Z,17.2,8.3,10+,30.22
KMLP,47.4548,-115.671,VRB,3,3.45,KMLP 080153Z AUTO VRB03KT 10SM CLR 17/06 A3026 RMK AO2 SLP156 T01720061 $,2024-08-08T01:53:00Z,17.2,6.1,10+,30.26
KMLC,34.8824,-95.7815,0,0,0.0,KMLC 080153Z AUTO 00000KT 10SM CLR 27/19 A2980 RMK AO2 SLP081 T02720194,2024-08-08T01:53:00Z,27.2,19.4,10+,29.80
KMLB,28.0997,-80.6356,210,9,10.36,KMLB 080153Z 21009KT 10SM CLR 28/25 A2971 RMK AO2 SLP061 T02830250,2024-08-08T01:53:00Z,28.3,25,10+,29.71
KMKO,35.6576,-95.3658,320,4,4.6,KMKO 080153Z AUTO 32004KT 10SM CLR 30/17 A2981 RMK AO2 SLP087 T03000172,2024-08-08T01:53:00Z,30,17.2,10+,29.81
KMKL,35.5933,-88.917,350,4,4.6,KMKL 080153Z AUTO 35004KT 10SM CLR 23/20 A2982 RMK AO2 SLP093 T02330200,2024-08-08T01:53:00Z,23.3,20,10+,29.82
KMIW,42.1106,-92.9163,140,5,5.75,KMIW 080153Z AUTO 14005KT 10SM FEW039 22/17 A2994 RMK AO2 SLP133 T02170167,2024-08-08T01:53:00Z,21.7,16.7,10+,29.94
KMIE,40.2345,-85.3936,40,7,8.06,KMIE 080153Z 04007KT 10SM BKN025 21/17 A2993 RMK AO2 SLP126 T02060172,2024-08-08T01:53:00Z,20.6,17.2,10+,29.93
KMIC,45.0623,-93.3511,20,8,9.21,KMIC 080153Z 02008KT 10SM SCT045 BKN050 OVC080 19/17 A2991 RMK AO2 RAB16E43 SLP127 P0003 T01890172,2024-08-08T01:53:00Z,18.9,17.2,10+,29.91
KMIA,25.7881,-80.3169,230,8,9.21,KMIA 080153Z 23008KT 10SM BKN110 BKN250 31/24 A2980 RMK AO2 SLP091 T03060239,2024-08-08T01:53:00Z,30.6,23.9,10+,29.80
KMHT,42.9245,-71.4377,140,3,3.45,KMHT 080153Z 14003KT 10SM CLR 17/14 A3007 RMK AO2 SLP193 T01720144,2024-08-08T01:53:00Z,17.2,14.4,10+,30.07
KMHE,43.7743,-98.0384,350,9,10.36,KMHE 080153Z AUTO 35009KT 10SM BKN120 22/18 A2998 RMK AO2 SLP146 T02220178,2024-08-08T01:53:00Z,22.2,17.8,10+,29.98
KMGY,39.5918,-84.2263,20,8,9.21,KMGY 080153Z AUTO 02008G17KT 10SM CLR 23/18 A2988 RMK AO2 SLP109 T02330183,2024-08-08T01:53:00Z,23.3,18.3,10+,29.88
KMGW,39.6498,-79.9206,0,0,0.0,KMGW 080153Z 00000KT 10SM FEW070 25/22 A2989 RMK AO2 SLP111 T02500217 $,2024-08-08T01:53:00Z,25,21.7,10+,29.89
KMGM,32.2997,-86.4074,230,4,4.6,KMGM 080153Z 23004KT 10SM BKN100 29/24 A2971 RMK AO2 SLP056 T02940244,2024-08-08T01:53:00Z,29.4,24.4,10+,29.71
KMFR,42.375,-122.877,300,9,10.36,KMFR 080153Z 30009KT 5SM HZ CLR 34/09 A2987 RMK AO2 SLP104 T03440089,2024-08-08T01:53:00Z,34.4,8.9,5,29.87
KMFE,26.1791,-98.2445,120,13,14.96,KMFE 080153Z 12013KT 10SM CLR 32/22 A2978 RMK AO2 SLP083 T03220222,2024-08-08T01:53:00Z,32.2,22.2,10+,29.78
KMDW,41.7841,-87.7551,70,8,9.21,KMDW 080153Z 07008KT 10SM FEW150 23/14 A2994 RMK AO2 SLP129 T02280144,2024-08-08T01:53:00Z,22.8,14.4,10+,29.94
KMCW,43.1543,-93.3262,170,3,3.45,KMCW 080153Z AUTO 17003KT 10SM CLR 19/17 A2996 RMK AO2 SLP135 T01940167,2024-08-08T01:53:00Z,19.4,16.7,10+,29.96
KMCO,28.4182,-81.3241,230,7,8.06,KMCO 080153Z 23007KT 10SM FEW050 FEW220 SCT300 29/23 A2972 RMK AO2 SLP061 T02940233,2024-08-08T01:53:00Z,29.4,23.3,10+,29.72
KMCN,32.6889,-83.6529,0,0,0.0,KMCN 080153Z AUTO 00000KT 10SM CLR 27/25 A2967 RMK AO2 SLP042 T02720250,2024-08-08T01:53:00Z,27.2,25,10+,29.67
KMCK,40.204,-100.59,80,7,8.06,KMCK 080153Z AUTO 08007KT 9SM CLR 27/18 A2995 RMK AO2 SLP119 T02670183,2024-08-08T01:53:00Z,26.7,18.3,9,29.95
KMCI,39.2975,-94.7309,100,6,6.9,KMCI 080153Z 10006KT 10SM CLR 25/17 A2990 RMK AO2 SLP116 T02500172,2024-08-08T01:53:00Z,25,17.2,10+,29.90
KMCE,37.286,-120.518,330,10,11.51,KMCE 080153Z AUTO 33010KT 10SM CLR 38/08 A2980 RMK AO2 SLP089 T03780078,2024-08-08T01:53:00Z,37.8,7.8,10+,29.80
KMCB,31.1823,-90.4721,0,0,0.0,KMCB 080153Z AUTO 00000KT 10SM CLR 28/22 A2978 RMK AO2 SLP078 T02780222,2024-08-08T01:53:00Z,27.8,22.2,10+,29.78
KMBS,43.5281,-84.0813,50,5,5.75,KMBS 080153Z 05005KT 10SM CLR 18/14 A3000 RMK AO2 SLP156 T01780144,2024-08-08T01:53:00Z,17.8,14.4,10+,30.00
KMAI,30.837,-85.1835,280,4,4.6,KMAI 080153Z AUTO 28004KT 10SM CLR 29/24 A2969 RMK AO2 SLP050 T02890239,2024-08-08T01:53:00Z,28.9,23.9,10+,29.69
KMAF,31.9475,-102.209,180,5,5.75,KMAF 080153Z 18005KT 10SM CLR 36/09 A2988 RMK AO2 SLP062 T03560094,2024-08-08T01:53:00Z,35.6,9.4,10+,29.88
KMAE,36.9851,-120.111,310,10,11.51,KMAE 080153Z AUTO 31010KT 10SM CLR 38/14 A2980 RMK AO2 SLP088 T03830139,2024-08-08T01:53:00Z,38.3,13.9,10+,29.80
KLWV,38.7604,-87.599,360,4,4.6,KLWV 080153Z AUTO 36004KT 10SM CLR 22/21 A2986 RMK AO2 SLP107 T02220206,2024-08-08T01:53:00Z,22.2,20.6,10+,29.86
KLWD,40.6306,-93.9005,90,3,3.45,KLWD 080153Z AUTO 09003KT 10SM CLR 23/17 A2993 RMK AO2 SLP127 T02280172,2024-08-08T01:53:00Z,22.8,17.2,10+,29.93
KLVS,35.6558,-105.139,330,8,9.21,KLVS 080153Z AUTO 33008KT 10SM FEW110 24/08 A3020 RMK AO2 LTG DSNT W SLP102 T02390083,2024-08-08T01:53:00Z,23.9,8.3,10+,30.20
KLVM,45.6984,-110.442,100,12,13.81,KLVM 080153Z AUTO 10012G24KT 10SM CLR 17/12 A3025 RMK AO2 PK WND 09027/0054 SLP216 T01670122,2024-08-08T01:53:00Z,16.7,12.2,10+,30.25
KLVK,37.6931,-121.815,290,12,13.81,KLVK 080153Z 29012KT 10SM CLR 30/10 A2987 RMK AO2 SLP108 T03000100,2024-08-08T01:53:00Z,30,10,10+,29.87
KLVJ,29.5192,-95.2423,160,4,4.6,KLVJ 080153Z AUTO 16004KT 10SM CLR 31/26 A2980 RMK AO2 SLP091 T03110256,2024-08-08T01:53:00Z,31.1,25.6,10+,29.80
KLUK,39.106,-84.4161,40,6,6.9,KLUK 080153Z 04006KT 10SM CLR 24/20 A2986 RMK AO2 SLP105 T02440200,2024-08-08T01:53:00Z,24.4,20,10+,29.86
KLSE,43.8792,-91.253,110,3,3.45,KLSE 080153Z 11003KT 10SM BKN100 22/17 A2993 RMK AO2 RAB05E27 SLP130 P0000 T02220167,2024-08-08T01:53:00Z,22.2,16.7,10+,29.93
KLPR,41.3463,-82.1788,70,6,6.9,KLPR 080153Z AUTO 07006KT 10SM OVC038 22/17 A2993 RMK AO2 SLP129 T02220172 $,2024-08-08T01:53:00Z,22.2,17.2,10+,29.93
KLOZ,37.0896,-84.0688,50,3,3.45,KLOZ 080153Z AUTO 05003KT 10SM SCT120 26/23 A2981 RMK AO2 SLP079 T02560228,2024-08-08T01:53:00Z,25.6,22.8,10+,29.81
KLOU,38.2302,-85.6629,360,8,9.21,KLOU 080153Z 36008KT 10SM FEW049 FEW075 26/22 A2982 RMK AO2 SLP091 T02610217,2024-08-08T01:53:00Z,26.1,21.7,10+,29.82
KLOL,40.0685,-118.57,260,9,10.36,KLOL 080153Z AUTO 26009KT 10SM CLR 36/02 A2998 RMK AO2 SLP106 T03610022,2024-08-08T01:53:00Z,36.1,2.2,10+,29.98
KLNS,40.1206,-76.2944,80,9,10.36,KLNS 080153Z 08009KT 9SM OVC010 19/18 A3000 RMK AO2 RAB16E33 CIG 006V012 SLP155 P0000 T01890183,2024-08-08T01:53:00Z,18.9,18.3,9,30.00
KLND,42.8154,-108.726,20,15,17.26,KLND 080153Z AUTO 02015KT 10SM CLR 22/10 A3019 RMK AO2 PK WND 36026/0127 SLP160 T02220100,2024-08-08T01:53:00Z,22.2,10,10+,30.19
KLMT,42.147,-121.726,350,4,4.6,KLMT 080153Z 35004KT 10SM CLR 32/04 A3005 RMK AO2 SLP131 T03170044,2024-08-08T01:53:00Z,31.7,4.4,10+,30.05
KLLQ,33.636,-91.7555,40,7,8.06,KLLQ 080153Z AUTO 04007KT 10SM CLR 26/21 A2982 RMK AO2 SLP093 T02610206,2024-08-08T01:53:00Z,26.1,20.6,10+,29.82
KLKV,42.1538,-120.403,290,6,6.9,KLKV 080153Z AUTO 29006KT 9SM CLR 31/M03 A3010 RMK AO2 SLP152 T03111028,2024-08-08T01:53:00Z,31.1,-2.8,9,30.10
KLIT,34.7273,-92.2358,80,8,9.21,KLIT 080153Z 08008KT 10SM CLR 27/19 A2985 RMK AO2 SLP106 T02670194,2024-08-08T01:53:00Z,26.7,19.4,10+,29.85
KLHX,38.0495,-103.513,360,15,17.26,KLHX 080153Z AUTO 36015KT 10SM CLR 30/10 A2995 RMK AO2 PK WND 34028/0104 SLP070 T03000100,2024-08-08T01:53:00Z,30,10,10+,29.95
KLHQ,39.7573,-82.6633,360,5,5.75,KLHQ 080153Z AUTO 36005KT 10SM CLR 21/20 A2988 RMK AO2 SLP112 T02060200,2024-08-08T01:53:00Z,20.6,20,10+,29.88
KLGB,33.8118,-118.147,190,6,6.9,KLGB 080153Z 19006KT 10SM SCT012 22/17 A2994 RMK AO2 SLP136 T02170172,2024-08-08T01:53:00Z,21.7,17.2,10+,29.94
KLFT,30.1986,-91.9896,0,0,0.0,KLFT 080153Z 00000KT 10SM CLR 29/25 A2978 RMK AO2 SLP084 T02940250,2024-08-08T01:53:00Z,29.4,25,10+,29.78
KLFK,31.2359,-94.7546,0,0,0.0,KLFK 080153Z AUTO 00000KT 10SM CLR 29/24 A2980 RMK AO2 SLP085 T02890244 $,2024-08-08T01:53:00Z,28.9,24.4,10+,29.80
KLEE,28.8214,-81.8006,220,3,3.45,KLEE 080153Z AUTO 22003KT 8SM CLR 28/26 A2971 RMK AO2 SLP060 T02830256,2024-08-08T01:53:00Z,28.3,25.6,8,29.71
KLEB,43.6271,-72.3054,0,0,0.0,KLEB 080153Z 00000KT 10SM CLR 16/14 A3007 RMK AO2 SLP178 T01560144,2024-08-08T01:53:00Z,15.6,14.4,10+,30.07
KLCH,30.1255,-93.2277,220,5,5.75,KLCH 080153Z AUTO 22005KT 10SM SCT070 31/26 A2978 RMK AO2 SLP093 T03060256,2024-08-08T01:53:00Z,30.6,25.6,10+,29.78
KLBX,29.1154,-95.4632,200,4,4.6,KLBX 080153Z AUTO 20004KT 10SM -RA CLR 27/26 A2979 RMK AO2 RAB37 SLP088 P0000 T02720261,2024-08-08T01:53:00Z,27.2,26.1,10+,29.79
KLBF,41.122,-100.669,160,5,5.75,KLBF 080153Z AUTO 16005KT 10SM TS SCT060 BKN080 26/19 A2995 RMK AO2 LTG DSNT W-NE TSB45 SLP116 T02610189,2024-08-08T01:53:00Z,26.1,18.9,10+,29.95
KLBB,33.6658,-101.823,190,6,6.9,KLBB 080153Z 19006KT 10SM FEW110 34/10 A2992 RMK AO2 SLP067 T03390100,2024-08-08T01:53:00Z,33.9,10,10+,29.92
KLAX,33.9382,-118.387,280,6,6.9,KLAX 080153Z 28006KT 10SM FEW008 SCT150 21/18 A2994 RMK AO2 SLP137 T02110178 $,2024-08-08T01:53:00Z,21.1,17.8,10+,29.94
KLAW,34.5577,-98.4172,120,7,8.06,KLAW 080153Z AUTO 12007KT 10SM CLR 36/16 A2980 RMK AO2 SLP073 T03560161,2024-08-08T01:53:00Z,35.6,16.1,10+,29.80
KLAR,41.3165,-105.673,100,10,11.51,KLAR 080153Z AUTO 10010KT 10SM CLR 22/12 A3022 RMK AO2 SLP103 T02220117,2024-08-08T01:53:00Z,22.2,11.7,10+,30.22
KLAN,42.7761,-84.5997,0,0,0.0,KLAN 080153Z 00000KT 10SM CLR 18/13 A2999 RMK AO2 SLP152 T01780128,2024-08-08T01:53:00Z,17.8,12.8,10+,29.99
KLAA,38.0718,-102.687,340,14,16.11,KLAA 080153Z AUTO 34014G20KT 10SM VCTS OVC110 34/13 A2987 RMK AO2 LTG DSNT E-S RAB02E20 SLP055 P0000 T03390133,2024-08-08T01:53:00Z,33.9,13.3,10+,29.87
KJLN,37.1522,-94.4952,70,5,5.75,KJLN 080153Z 07005KT 10SM CLR 27/18 A2987 RMK AO2 SLP104 T02670178,2024-08-08T01:53:00Z,26.7,17.8,10+,29.87
KJKL,37.5913,-83.3137,0,0,0.0,KJKL 080153Z AUTO 00000KT 10SM FEW050 26/22 A2983 RMK AO2 SLP082 T02610217,2024-08-08T01:53:00Z,26.1,21.7,10+,29.83
KJER,42.7274,-114.455,260,7,8.06,KJER 080153Z AUTO 26007KT 10SM CLR 27/00 A3004 RMK AO2 SLP133 T02670000,2024-08-08T01:53:00Z,26.7,0,10+,30.04
KJEF,38.5945,-92.1567,0,0,0.0,KJEF 080153Z 00000KT 10SM CLR 23/18 A2990 RMK AO2 SLP111 T02280178,2024-08-08T01:53:00Z,22.8,17.8,10+,29.90
KJBR,35.8357,-90.6442,350,4,4.6,KJBR 080153Z AUTO 35004KT 10SM CLR 23/19 A2986 RMK AO2 SLP107 T02280189 $,2024-08-08T01:53:00Z,22.8,18.9,10+,29.86
KIXD,38.8221,-94.8902,90,4,4.6,KIXD 080153Z 09004KT 10SM CLR 26/17 A2990 RMK AO2 SLP114 T02610172,2024-08-08T01:53:00Z,26.1,17.2,10+,29.90
KIWI,43.9639,-69.7114,0,0,0.0,KIWI 080153Z AUTO 00000KT 10SM CLR 17/15 A3009 RMK AO2 SLP188 T01670150,2024-08-08T01:53:00Z,16.7,15,10+,30.09
KIWA,33.3008,-111.644,220,7,8.06,KIWA 080153Z 22007KT 10SM BKN100 35/17 A2987 RMK TCU DSNT N-S,2024-08-08T01:53:00Z,35,17,10+,29.87
KITR,39.2415,-102.282,350,17,19.56,KITR 080153Z AUTO 35017G28KT 10SM -RA FEW060 SCT080 OVC110 22/ A3003 RMK AO2 PK WND 34028/0145 WSHFT 0124 LTG DSNT ALQDS RAB53 SLP119 P0000 T0222 $,2024-08-08T01:53:00Z,22.2,,10+,30.03
KIPL,32.8346,-115.577,,,,KIPL 080153Z AUTO 10SM FEW120 38/ A2974 RMK AO2 SLP070 T0378 PWINO $,2024-08-08T01:53:00Z,37.8,,10+,29.74
KINK,31.7801,-103.202,150,5,5.75,KINK 080153Z AUTO 15005KT CLR 36/06 A2987 RMK AO2 SLP059 T03610056 $,2024-08-08T01:53:00Z,36.1,5.6,,29.87
KIML,40.5106,-101.624,340,4,4.6,KIML 080153Z AUTO 34004KT 10SM CLR 27/19 A3000 RMK AO2 SLP129 T02670189,2024-08-08T01:53:00Z,26.7,18.9,10+,30.00
KILM,34.2668,-77.8999,100,17,19.56,KILM 080153Z 10017G28KT 8SM -RA SCT028 BKN033 OVC048 26/23 A2960 RMK AO2 PK WND 11030/0127 SLP023 P0009 T02610233,2024-08-08T01:53:00Z,26.1,23.3,8,29.60
KIDA,43.5204,-112.068,210,16,18.41,KIDA 080153Z AUTO 21016KT 6SM HZ CLR 28/03 A3003 RMK AO2 PK WND 21027/0125 SLP125 T02830028,2024-08-08T01:53:00Z,28.3,2.8,6,30.03
KICT,37.6475,-97.43,110,10,11.51,KICT 080153Z 11010KT 10SM FEW150 FEW190 FEW250 32/17 A2982 RMK AO2 SLP082 T03170172,2024-08-08T01:53:00Z,31.7,17.2,10+,29.82
KICR,43.391,-99.8462,10,8,9.21,KICR 080153Z AUTO 01008KT 10SM FEW043 FEW050 23/16 A3005 RMK AO2 SLP161 T02280161 $,2024-08-08T01:53:00Z,22.8,16.1,10+,30.05
KIAH,29.9844,-95.3607,180,5,5.75,KIAH 080153Z 18005KT 10SM FEW065 32/24 A2978 RMK AO2 SLP083 T03170244,2024-08-08T01:53:00Z,31.7,24.4,10+,29.78
KIAG,43.1083,-78.9382,70,5,5.75,KIAG 080153Z 07005KT 10SM CLR 18/12 A3000 RMK AO2 SLP156 T01830122,2024-08-08T01:53:00Z,18.3,12.2,10+,30.00
KHZY,41.7794,-80.6968,70,4,4.6,KHZY 080153Z AUTO 07004KT 10SM OVC033 21/16 A2995 RMK AO2 SLP136 T02110161,2024-08-08T01:53:00Z,21.1,16.1,10+,29.95
KHYR,46.0303,-91.4426,0,0,0.0,KHYR 080153Z AUTO 00000KT 10SM FEW055 BKN090 OVC110 17/17 A2994 RMK AO2 RAB27E37 SLP140 P0000 T01720167,2024-08-08T01:53:00Z,17.2,16.7,10+,29.94
KHWO,25.9996,-80.2412,220,9,10.36,KHWO 080153Z AUTO 22009KT 10SM SCT110 32/24 A2980 RMK AO2 SLP092 T03170239 $,2024-08-08T01:53:00Z,31.7,23.9,10+,29.80
KHVR,48.5425,-109.764,10,4,4.6,KHVR 080153Z AUTO 01004KT 8SM OVC070 17/12 A3027 RMK AO2 RAE08 SLP248 P0000 T01670122,2024-08-08T01:53:00Z,16.7,12.2,8,30.27
KHVN,41.259,-72.8891,0,0,0.0,KHVN 080153Z 00000KT 10SM SCT070 OVC090 19/18 A3007 RMK AO2 RAE39 SLP180 P0001 T01940178,2024-08-08T01:53:00Z,19.4,17.8,10+,30.07
KHUL,46.1185,-67.7929,0,0,0.0,KHUL 080153Z AUTO 00000KT 10SM CLR 13/11 A3005 RMK AO2 SLP176 T01280111,2024-08-08T01:53:00Z,12.8,11.1,10+,30.05
KHUF,39.4429,-87.3221,360,5,5.75,KHUF 080153Z 36005KT 10SM CLR 22/19 A2988 RMK AO2 SLP115 T02220194,2024-08-08T01:53:00Z,22.2,19.4,10+,29.88
KHSV,34.6441,-86.7861,310,8,9.21,KHSV 080153Z 31008KT 10SM FEW034 27/23 A2976 RMK AO2 SLP069 T02720233 $,2024-08-08T01:53:00Z,27.2,23.3,10+,29.76
KHSI,40.6002,-98.4264,70,3,3.45,KHSI 080153Z AUTO 07003KT 10SM CLR 24/19 A2994 RMK AO2 SLP124 T02440189,2024-08-08T01:53:00Z,24.4,18.9,10+,29.94
KHRO,36.2673,-93.1566,90,5,5.75,KHRO 080153Z AUTO 09005KT 10SM CLR 24/18 A2991 RMK AO2 SLP114 T02390178 $,2024-08-08T01:53:00Z,23.9,17.8,10+,29.91
KHRI,45.8259,-119.261,60,4,4.6,KHRI 080153Z AUTO 06004KT 10SM CLR 33/08 A2993 RMK AO2 SLP128 T03280083,2024-08-08T01:53:00Z,32.8,8.3,10+,29.93
KHQM,46.9729,-123.931,260,10,11.51,KHQM 080153Z AUTO 26010KT 10SM CLR 17/14 A3005 RMK AO2 SLP179 T01720144,2024-08-08T01:53:00Z,17.2,14.4,10+,30.05
KHOU,29.6458,-95.2821,150,9,10.36,KHOU 080153Z 15009KT 10SM BKN065 32/24 A2978 RMK AO2 SLP088 T03170244,2024-08-08T01:53:00Z,31.7,24.4,10+,29.78
KHOT,34.4755,-93.1041,80,8,9.21,KHOT 080153Z AUTO 08008KT 10SM CLR 29/20 A2983 RMK AO2 SLP092 T02940200,2024-08-08T01:53:00Z,29.4,20,10+,29.83
KHLN,46.6045,-111.989,330,10,11.51,KHLN 080153Z 33010KT 10SM OVC050 18/12 A3025 RMK AO2 SLP239 T01830117,2024-08-08T01:53:00Z,18.3,11.7,10+,30.25
KHLG,40.1699,-80.6441,60,8,9.21,KHLG 080153Z 06008KT 10SM CLR 23/19 A2989 RMK AO2 SLP117 T02280194,2024-08-08T01:53:00Z,22.8,19.4,10+,29.89
KHKY,35.742,-81.3822,40,10,11.51,KHKY 080153Z AUTO 04010G19KT 10SM BKN100 26/21 A2980 RMK AO2 SLP066 T02560211,2024-08-08T01:53:00Z,25.6,21.1,10+,29.80
KHKS,32.3376,-90.2214,10,7,8.06,KHKS 080153Z AUTO 01007KT 10SM FEW070 31/24 A2978 RMK AO2 SLP074 T03060244,2024-08-08T01:53:00Z,30.6,24.4,10+,29.78
KHKA,35.9378,-89.8332,340,3,3.45,KHKA 080153Z AUTO 34003KT 10SM CLR 22/19 A2984 RMK AO2 SLP101 T02220189 $,2024-08-08T01:53:00Z,22.2,18.9,10+,29.84
KHJO,36.3114,-119.623,330,10,11.51,KHJO 080153Z AUTO 33010KT 10SM SCT110 41/12 A2979 RMK AO2 SLP085 T04110117,2024-08-08T01:53:00Z,41.1,11.7,10+,29.79
KHIO,45.5476,-122.956,360,10,11.51,KHIO 080153Z 36010KT 10SM CLR 31/13 A2994 RMK AO2 SLP136 T03060133,2024-08-08T01:53:00Z,30.6,13.3,10+,29.94
KHIB,47.3804,-92.8325,220,3,3.45,KHIB 080153Z AUTO 22003KT 10SM -RA OVC007 15/15 A2992 RMK AO2 CIG 004V009 SLP133 P0002 T01500150,2024-08-08T01:53:00Z,15,15,10+,29.92
KHHR,33.9235,-118.333,270,5,5.75,KHHR 080153Z 27005KT 10SM CLR 22/17 A2994 RMK AO2 SLP136 T02220172,2024-08-08T01:53:00Z,22.2,17.2,10+,29.94
KHGR,39.7062,-77.7304,60,11,12.66,KHGR 080153Z 06011KT 10SM BKN031 OVC036 23/21 A2994 RMK AO2 SLP142 T02330206,2024-08-08T01:53:00Z,23.3,20.6,10+,29.94
KHFD,41.7352,-72.6512,0,0,0.0,KHFD 080153Z 00000KT 10SM CLR 18/17 A3007 RMK AO2 SLP183 T01830172,2024-08-08T01:53:00Z,18.3,17.2,10+,30.07
KHEI,46.0108,-102.652,330,8,9.21,KHEI 080153Z AUTO 33008KT 10SM OVC060 15/13 A3018 RMK AO2 SLP212 T01500128,2024-08-08T01:53:00Z,15,12.8,10+,30.18
KHBR,34.9891,-99.0528,170,8,9.21,KHBR 080153Z AUTO 17008KT 10SM CLR 34/13 A2982 RMK AO2 SLP073 T03390133,2024-08-08T01:53:00Z,33.9,13.3,10+,29.82
KHBG,31.2648,-89.2561,280,4,4.6,KHBG 080153Z AUTO 28004KT 10SM CLR 29/23 A2976 RMK AO2 SLP072 T02890228,2024-08-08T01:53:00Z,28.9,22.8,10+,29.76
KHAO,39.3612,-84.5206,360,5,5.75,KHAO 080153Z AUTO 36005KT 10SM CLR 24/19 A2988 RMK AO2 SLP114 T02390194,2024-08-08T01:53:00Z,23.9,19.4,10+,29.88
KGZH,31.4191,-87.0484,0,0,0.0,KGZH 080153Z AUTO 00000KT 10SM CLR 27/24 A2973 RMK AO2 SLP062 T02670244,2024-08-08T01:53:00Z,26.7,24.4,10+,29.73
KGWO,33.4961,-90.0894,350,5,5.75,KGWO 080153Z AUTO 35005KT 10SM CLR 26/21 A2980 RMK AO2 SLP088 T02610206,2024-08-08T01:53:00Z,26.1,20.6,10+,29.80
KGUY,36.6819,-101.505,170,4,4.6,KGUY 080153Z AUTO 17004KT 10SM CLR 29/14 A2984 RMK AO2 SLP055 T02890144,2024-08-08T01:53:00Z,28.9,14.4,10+,29.84
KGUP,35.5086,-108.793,280,6,6.9,KGUP 080153Z AUTO 28006KT 10SM CLR 28/07 A3017 RMK AO2 LTG DSNT E SLP040 T02830072,2024-08-08T01:53:00Z,28.3,7.2,10+,30.17
KGTF,47.4733,-111.383,30,5,5.75,KGTF 080153Z 03005KT 10SM FEW027 BKN055 16/12 A3029 RMK AO2 SLP249 T01560122,2024-08-08T01:53:00Z,15.6,12.2,10+,30.29
KGSP,34.8842,-82.2209,20,8,9.21,KGSP 080153Z 02008KT 10SM CLR 27/21 A2975 RMK AO2 SLP062 T02670211,2024-08-08T01:53:00Z,26.7,21.1,10+,29.75
KGSH,41.5265,-85.7872,80,5,5.75,KGSH 080153Z AUTO 08005KT 10SM CLR 17/16 A2995 RMK AO2 SLP138 T01720156,2024-08-08T01:53:00Z,17.2,15.6,10+,29.95
KGRR,42.8821,-85.523,50,4,4.6,KGRR 080153Z 05004KT 10SM SCT250 19/14 A2998 RMK AO2 SLP149 T01890144,2024-08-08T01:53:00Z,18.9,14.4,10+,29.98
KGRI,40.9615,-98.313,150,4,4.6,KGRI 080153Z AUTO 15004KT 10SM CLR 24/19 A2993 RMK AO2 SLP127 T02390194,2024-08-08T01:53:00Z,23.9,19.4,10+,29.93
KGRB,44.4796,-88.137,150,3,3.45,KGRB 080153Z 15003KT 10SM CLR 20/14 A2996 RMK AO2 SLP144 T02000144,2024-08-08T01:53:00Z,20,14.4,10+,29.96
KGPT,30.4121,-89.0809,270,4,4.6,KGPT 080153Z 27004KT 10SM CLR 31/23 A2974 RMK AO2 SLP069 T03060233,2024-08-08T01:53:00Z,30.6,23.3,10+,29.74
KGOK,35.8517,-97.4142,130,6,6.9,KGOK 080153Z AUTO 13006KT 10SM 33/19 A2979 RMK AO2 SLP075 T03330194 $,2024-08-08T01:53:00Z,33.3,19.4,10+,29.79
KGNV,29.6917,-82.276,250,5,5.75,KGNV 080153Z 25005KT 10SM CLR 27/24 A2970 RMK AO2 SLP053 T02720244,2024-08-08T01:53:00Z,27.2,24.4,10+,29.70
KGMU,34.8487,-82.3501,50,10,11.51,KGMU 080153Z 05010G15KT 10SM CLR 27/21 A2976 RMK AO2 SLP064 T02720211,2024-08-08T01:53:00Z,27.2,21.1,10+,29.76
KGLR,45.0166,-84.6894,130,5,5.75,KGLR 080153Z AUTO 13005KT 10SM CLR 19/11 A3001 RMK AO2 SLP159 T01940111 $,2024-08-08T01:53:00Z,19.4,11.1,10+,30.01
KGLH,33.4772,-90.9847,360,8,9.21,KGLH 080153Z AUTO 36008KT 10SM CLR 24/21 A2980 RMK AO2 SLP095 T02440211,2024-08-08T01:53:00Z,24.4,21.1,10+,29.80
KGLD,39.3673,-101.693,50,12,13.81,KGLD 080153Z AUTO 05012KT 10SM BKN110 28/18 A2996 RMK AO2 LTG DSNT S-NW RAB23E38 SLP097 P0000 T02780183,2024-08-08T01:53:00Z,27.8,18.3,10+,29.96
KGKY,32.6583,-97.0951,150,5,5.75,KGKY 080153Z AUTO 15005KT 10SM CLR 33/19 A2979 RMK AO2 SLP078 T03330189,2024-08-08T01:53:00Z,33.3,18.9,10+,29.79
KGKJ,41.6258,-80.2123,80,8,9.21,KGKJ 080153Z AUTO 08008KT 10SM OVC023 21/17 A2997 RMK AO2 SLP140 T02110167,2024-08-08T01:53:00Z,21.1,16.7,10+,29.97
KGJT,39.1344,-108.541,360,8,9.21,KGJT 080153Z 36008KT 340V040 10SM FEW055 SCT080 BKN110 33/04 A3002 RMK AO2 PK WND 16043/0138 WSHFT 0104 RAB36E52 SLP080 P0000 T03330039,2024-08-08T01:53:00Z,33.3,3.9,10+,30.02
KGIF,28.0614,-81.7568,210,6,6.9,KGIF 080153Z AUTO 21006KT 10SM CLR 28/26 A2974 RMK AO2 SLP068 T02830256,2024-08-08T01:53:00Z,28.3,25.6,10+,29.74
KGGW,48.2142,-106.621,270,3,3.45,KGGW 080153Z AUTO 27003KT 8SM OVC060 18/11 A3022 RMK AO2 SLP233 T01830111,2024-08-08T01:53:00Z,18.3,11.1,8,30.22
KGGG,32.3909,-94.714,170,4,4.6,KGGG 080153Z 17004KT 10SM CLR 28/23 A2977 RMK AO2 SLP073 T02830228 $,2024-08-08T01:53:00Z,28.3,22.8,10+,29.77
KGFL,43.3385,-73.6102,0,0,0.0,KGFL 080153Z AUTO 00000KT 10SM CLR 16/16 A3005 RMK AO2 SLP177 T01560156,2024-08-08T01:53:00Z,15.6,15.6,10+,30.05
KGFK,47.9428,-97.1829,350,9,10.36,KGFK 080153Z 35009KT 10SM BKN060 BKN240 18/09 A2998 RMK AO2 SLP153 T01830089,2024-08-08T01:53:00Z,18.3,8.9,10+,29.98
KGEZ,39.5854,-85.7998,40,9,10.36,KGEZ 080153Z AUTO 04009KT 10SM BKN046 23/19 A2988 RMK AO2 SLP113 T02330189 $,2024-08-08T01:53:00Z,23.3,18.9,10+,29.88
KGEY,44.5173,-108.075,330,20,23.02,KGEY 080153Z AUTO 33020G28KT 10SM FEW120 20/11 A3015 RMK AO2 PK WND 32031/0143 WSHFT 0052 LTG DSNT W RAE20 SLP183 P0000 T02000106,2024-08-08T01:53:00Z,20,10.6,10+,30.15
KGEG,47.6217,-117.528,40,9,10.36,KGEG 080153Z 04009KT 10SM FEW090 32/04 A3004 RMK AO2 SLP153 T03170039,2024-08-08T01:53:00Z,31.7,3.9,10+,30.04
KGCC,44.3398,-105.542,360,10,11.51,KGCC 080153Z AUTO 36010KT 10SM FEW022 OVC080 16/12 A3025 RMK AO2 SLP212 T01610122,2024-08-08T01:53:00Z,16.1,12.2,10+,30.25
KGAG,36.2966,-99.7686,160,11,12.66,KGAG 080153Z AUTO 16011KT 10SM CLR 35/13 A2981 RMK AO2 SLP058 T03500128,2024-08-08T01:53:00Z,35,12.8,10+,29.81
KFYV,36.0103,-94.1624,0,0,0.0,KFYV 080153Z 00000KT 10SM CLR 27/17 A2987 RMK AO2 SLP099 T02720172,2024-08-08T01:53:00Z,27.2,17.2,10+,29.87
KFXE,26.199,-80.1776,0,0,0.0,KFXE 080153Z 00000KT 10SM TSRA SCT110 28/27 A2979 RMK AO2 SLP089 P0000 T02830267,2024-08-08T01:53:00Z,28.3,26.7,10+,29.79
KFWN,41.1993,-74.6259,30,3,3.45,KFWN 080153Z AUTO 03003KT 10SM SCT013 OVC021 19/17 A3007 RMK AO2 SLP181 T01890172,2024-08-08T01:53:00Z,18.9,17.2,10+,30.07
KFVE,47.2852,-68.3072,280,8,9.21,KFVE 080153Z AUTO 28008KT 10SM CLR 13/05 A3007 RMK AO2 SLP180 T01280050 $,2024-08-08T01:53:00Z,12.8,5,10+,30.07
KFUL,33.8715,-117.986,200,5,5.75,KFUL 080153Z 20005KT 10SM CLR 23/17 A2993 RMK AO2 SLP133 T02280167,2024-08-08T01:53:00Z,22.8,16.7,10+,29.93
KFTY,33.7776,-84.5247,30,3,3.45,KFTY 080153Z 03003KT 10SM CLR 28/21 A2972 RMK AO2 SLP053 T02780206,2024-08-08T01:53:00Z,27.8,20.6,10+,29.72
KFTW,32.8248,-97.364,150,9,10.36,KFTW 080153Z 15009KT 10SM CLR 34/18 A2978 RMK AO2 SLP073 T03440178,2024-08-08T01:53:00Z,34.4,17.8,10+,29.78
KFST,30.9119,-102.917,160,7,8.06,KFST 080153Z AUTO 16007KT 10SM CLR 35/08 A2989 RMK AO2 SLP065 T03500083 $,2024-08-08T01:53:00Z,35,8.3,10+,29.89
KFSM,35.3335,-94.3653,60,5,5.75,KFSM 080153Z 06005KT 10SM CLR 33/18 A2978 RMK AO2 SLP077 T03280178,2024-08-08T01:53:00Z,32.8,17.8,10+,29.78
KFRG,40.7344,-73.4164,60,5,5.75,KFRG 080153Z 06005KT 10SM OVC019 18/17 A3005 RMK AO2 SLP175 T01830172,2024-08-08T01:53:00Z,18.3,17.2,10+,30.05
KFPR,27.4981,-80.3763,220,8,9.21,KFPR 080153Z AUTO 22008KT 10SM BKN044 BKN100 29/24 A2975 RMK AO2 SLP073 T02890244,2024-08-08T01:53:00Z,28.9,24.4,10+,29.75
KFOZ,47.7832,-93.6533,0,0,0.0,KFOZ 080153Z AUTO 00000KT 10SM 18/17 A2996 RMK AO2,2024-08-08T01:53:00Z,18,17,10+,29.96
KFOK,40.8506,-72.6193,70,5,5.75,KFOK 080153Z 07005KT 10SM OVC018 19/17 A3008 RMK AO2 SLP185 T01940167,2024-08-08T01:53:00Z,19.4,16.7,10+,30.08
KFOE,38.9414,-95.6513,60,3,3.45,KFOE 080153Z 06003KT 10SM CLR 26/18 A2988 RMK AO2 SLP110 T02560183,2024-08-08T01:53:00Z,25.6,18.3,10+,29.88
KFNT,42.9669,-83.75,80,4,4.6,KFNT 080153Z 08004KT 10SM CLR 19/13 A2999 RMK AO2 SLP153 T01890133,2024-08-08T01:53:00Z,18.9,13.3,10+,29.99
KFNB,40.0791,-95.5893,0,0,0.0,KFNB 080153Z AUTO 00000KT 10SM CLR 24/19 A2990 RMK AO2 SLP116 T02390189,2024-08-08T01:53:00Z,23.9,18.9,10+,29.90
KFMY,26.584,-81.8615,240,8,9.21,KFMY 080153Z 24008KT 10SM CLR 29/26 A2977 RMK AO2 SLP082 T02890256,2024-08-08T01:53:00Z,28.9,25.6,10+,29.77
KFMN,36.7435,-108.229,360,20,23.02,KFMN 080153Z AUTO 36020G29KT 10SM -TSRA SCT110 26/12 A3009 RMK AO2 PK WND 06029/0137 LTG DSNT ALQDS RAB05 TSB30E45B47 SLP124 P0003 T02560117,2024-08-08T01:53:00Z,25.6,11.7,10+,30.09
KFLO,34.1877,-79.7308,40,14,16.11,KFLO 080153Z 04014G22KT 10SM -RA FEW010 BKN013 25/23 A2957 RMK AO2 PK WND 06026/0108 LTG DSNT NE SLP010 P0003 T02500233,2024-08-08T01:53:00Z,25,23.3,10+,29.57
KFLL,26.0787,-80.1622,230,8,9.21,KFLL 080153Z 23008KT 10SM FEW040 BKN100 BKN250 31/24 A2979 RMK AO2 SLP084 T03060239 $,2024-08-08T01:53:00Z,30.6,23.9,10+,29.79
KFLD,43.7695,-88.4907,190,3,3.45,KFLD 080153Z AUTO 19003KT 10SM CLR 18/13 A2998 RMK AO2 SLP149 T01780128,2024-08-08T01:53:00Z,17.8,12.8,10+,29.98
KFHR,48.52,-123.026,230,4,4.6,KFHR 080153Z AUTO 23004KT 10SM CLR 22/13 A3005 RMK AO2 SLP175 T02170128,2024-08-08T01:53:00Z,21.7,12.8,10+,30.05
KFFT,38.1846,-84.9039,10,7,8.06,KFFT 080153Z AUTO 01007KT 10SM FEW048 FEW065 28/21 A2982 RMK AO2 SLP087 T02780211,2024-08-08T01:53:00Z,27.8,21.1,10+,29.82
KFFC,33.3543,-84.5689,260,3,3.45,KFFC 080153Z AUTO 26003KT 10SM CLR 25/23 A2973 RMK AO2 SLP059 T02500228 $,2024-08-08T01:53:00Z,25,22.8,10+,29.73
KFDY,41.0137,-83.6681,40,8,9.21,KFDY 080153Z AUTO 04008KT 10SM OVC041 23/16 A2991 RMK AO2 SLP121 T02280156,2024-08-08T01:53:00Z,22.8,15.6,10+,29.91
KFDR,34.3531,-98.9876,120,7,8.06,KFDR 080153Z AUTO 12007KT 10SM CLR 34/14 A2977 RMK AO2 SLP059 T03390139,2024-08-08T01:53:00Z,33.9,13.9,10+,29.77
KFCM,44.8321,-93.4705,VRB,4,4.6,KFCM 080153Z VRB04KT 10SM FEW049 OVC065 21/16 A2991 RMK AO2 RAB30E42 SLP126 P0000 T02110156,2024-08-08T01:53:00Z,21.1,15.6,10+,29.91
KFAY,34.9895,-78.8801,50,10,11.51,KFAY 080153Z 05010KT 3SM RA BR SCT010 BKN015 OVC025 25/24 A2965 RMK AO2 PK WND 03027/0114 LTG DSNT SE-SW SLP033 P0023 T02500239,2024-08-08T01:53:00Z,25,23.9,3,29.65
KFAT,36.78,-119.72,310,13,14.96,KFAT 080153Z 31013KT 10SM FEW050 FEW130 SCT200 41/08 A2979 RMK AO2 SLP082 TCU DSNT SE T04060078,2024-08-08T01:53:00Z,40.6,7.8,10+,29.79
KFAR,46.9242,-96.8119,290,6,6.9,KFAR 080153Z 29006KT 10SM BKN060 18/16 A2998 RMK AO2 SLP150 T01830156,2024-08-08T01:53:00Z,18.3,15.6,10+,29.98
KEYW,24.5571,-81.7554,240,6,6.9,KEYW 080153Z AUTO 24006KT 10SM CLR 29/25 A2983 RMK AO2 SLP106 T02940250 $,2024-08-08T01:53:00Z,29.4,25,10+,29.83
KEYE,39.8248,-86.2958,50,6,6.9,KEYE 080153Z AUTO 05006KT 10SM CLR 23/18 A2990 RMK AO2 SLP118 T02330178,2024-08-08T01:53:00Z,23.3,17.8,10+,29.90
KEWB,41.6791,-70.9591,0,0,0.0,KEWB 080153Z 00000KT 10SM OVC060 18/16 A3007 RMK AO2 SLP183 T01780161,2024-08-08T01:53:00Z,17.8,16.1,10+,30.07
KEVW,41.2727,-111.031,280,7,8.06,KEVW 080153Z AUTO 28007KT 10SM CLR 27/M02 A3025 RMK AO2 SLP131 T02671017,2024-08-08T01:53:00Z,26.7,-1.7,10+,30.25
KETH,45.7828,-96.5461,350,9,10.36,KETH 080153Z AUTO 35009KT 10SM OVC050 18/16 A2999 RMK AO2,2024-08-08T01:53:00Z,18,16,10+,29.99
KESF,31.3963,-92.2828,0,0,0.0,KESF 080153Z AUTO 00000KT 9SM CLR 28/24 A2977 RMK AO2 SLP079 T02780244,2024-08-08T01:53:00Z,27.8,24.4,9,29.77
KEQY,35.0147,-80.6242,30,14,16.11,KEQY 080153Z AUTO 03014G23KT 10SM SCT024 26/22 A2971 RMK AO2 PK WND 02031/0138 SLP056 T02610222,2024-08-08T01:53:00Z,26.1,22.2,10+,29.71
KEPH,47.3078,-119.516,20,4,4.6,KEPH 080153Z AUTO 02004KT 10SM CLR 34/02 A2996 RMK AO2 SLP133 T03390017,2024-08-08T01:53:00Z,33.9,1.7,10+,29.96
KENW,42.5953,-87.9383,60,3,3.45,KENW 080153Z 06003KT 10SM CLR 18/14 A2996 RMK AO2 SLP143 T01830144,2024-08-08T01:53:00Z,18.3,14.4,10+,29.96
KEMP,38.3291,-96.1945,80,5,5.75,KEMP 080153Z AUTO 08005KT 10SM CLR 26/17 A2987 RMK AO2 SLP105 T02560172,2024-08-08T01:53:00Z,25.6,17.2,10+,29.87
KELY,39.2954,-114.847,30,7,8.06,KELY 080153Z AUTO 03007KT 10SM CLR 31/M02 A3013 RMK AO2 SLP093 T03111022,2024-08-08T01:53:00Z,31.1,-2.2,10+,30.13
KELN,47.0338,-120.531,100,7,8.06,KELN 080153Z AUTO 10007KT 10SM CLR 32/09 A2998 RMK AO2 SLP141 T03220089,2024-08-08T01:53:00Z,32.2,8.9,10+,29.98
KELM,42.1601,-76.89,110,8,9.21,KELM 080153Z 11008KT 10SM BKN015 OVC021 21/18 A3003 RMK AO2 SLP164 T02110178,2024-08-08T01:53:00Z,21.1,17.8,10+,30.03
KELD,33.2207,-92.814,50,7,8.06,KELD 080153Z AUTO 05007KT 10SM CLR 30/24 A2979 RMK AO2 SLP085 T03000244 $,2024-08-08T01:53:00Z,30,24.4,10+,29.79
KEET,33.1783,-86.7818,0,0,0.0,KEET 080153Z AUTO 00000KT 6SM BR CLR 27/27 A2974 RMK AO2 SLP061 T02720267,2024-08-08T01:53:00Z,27.2,26.7,6,29.74
KEEO,40.0444,-107.888,80,7,8.06,KEEO 080153Z AUTO 08007KT 10SM CLR 19/12 A3022 RMK AO2 SLP151 T01890122 $,2024-08-08T01:53:00Z,18.9,12.2,10+,30.22
KECP,30.3487,-85.7884,300,3,3.45,KECP 080153Z 30003KT 10SM CLR 29/23 A2969 RMK AO1 SLP065 T02940233,2024-08-08T01:53:00Z,29.4,23.3,10+,29.69
KDXR,41.3722,-73.4834,0,0,0.0,KDXR 080153Z 00000KT 10SM BKN075 OVC120 19/17 A3009 RMK AO2 RAE26 SLP187 P0000 T01890172 $,2024-08-08T01:53:00Z,18.9,17.2,10+,30.09
KDWH,30.068,-95.5563,100,4,4.6,KDWH 080153Z 10004KT 10SM CLR 29/23 A2978 RMK AO2 SLP082 T02940233,2024-08-08T01:53:00Z,29.4,23.3,10+,29.78
KDVT,33.6902,-112.066,210,7,8.06,KDVT 080153Z 21007KT 10SM CLR 36/17 A2985 RMK AO2 SLP081 T03610167,2024-08-08T01:53:00Z,36.1,16.7,10+,29.85
KDVP,43.9906,-95.781,340,6,6.9,KDVP 080153Z AUTO 34006KT 10SM SCT028 OVC034 21/17 A2995 RMK AO2 T02120173,2024-08-08T01:53:00Z,21.2,17.3,10+,29.95
KDUJ,41.1795,-78.8933,90,7,8.06,KDUJ 080153Z AUTO 09007KT 10SM OVC010 19/17 A2999 RMK AO2 SLP147 T01940167,2024-08-08T01:53:00Z,19.4,16.7,10+,29.99
KDTW,42.2311,-83.3312,50,7,8.06,KDTW 080153Z 05007KT 10SM FEW045 FEW250 22/13 A2996 RMK AO2 SLP142 T02220133,2024-08-08T01:53:00Z,22.2,13.3,10+,29.96
KDTS,30.3933,-86.4674,330,5,5.75,KDTS 080153Z 33005KT 10SM CLR 32/23 A2971 RMK AO2 SLP059 T03170228,2024-08-08T01:53:00Z,31.7,22.8,10+,29.71
KDTO,33.2088,-97.1992,180,4,4.6,KDTO 080153Z 18004KT 10SM CLR 33/18 A2979 RMK AO2 SLP076 T03330183,2024-08-08T01:53:00Z,33.3,18.3,10+,29.79
KDTN,32.5429,-93.745,0,0,0.0,KDTN 080153Z 00000KT 10SM CLR 31/23 A2977 RMK AO2 SLP077 T03060228,2024-08-08T01:53:00Z,30.6,22.8,10+,29.77
KDRT,29.3784,-100.927,70,4,4.6,KDRT 080153Z AUTO 07004KT 10SM CLR 39/14 A2975 RMK AO2 SLP062 T03890139,2024-08-08T01:53:00Z,38.9,13.9,10+,29.75
KDRO,37.1431,-107.76,0,0,0.0,KDRO 080153Z AUTO 00000KT 10SM CLR 23/11 A3021 RMK AO2 LTG DSNT SW SLP138 T02330106,2024-08-08T01:53:00Z,23.3,10.6,10+,30.21
KDRA,36.621,-116.029,220,12,13.81,KDRA 080153Z AUTO 22012KT 10SM CLR 38/04 A2990 RMK AO2 SLP065 T03830039,2024-08-08T01:53:00Z,38.3,3.9,10+,29.90
KDNL,33.4668,-82.0385,340,8,9.21,KDNL 080153Z AUTO 34008G16KT 10SM CLR 27/22 A2966 RMK AO2 SLP037 T02720222,2024-08-08T01:53:00Z,27.2,22.2,10+,29.66
KDMO,38.712,-93.1747,70,4,4.6,KDMO 080153Z AUTO 07004KT 10SM CLR 23/17 A2992 RMK AO2 SLP125 T02280172,2024-08-08T01:53:00Z,22.8,17.2,10+,29.92
KDMN,32.2592,-107.721,280,8,9.21,KDMN 080153Z AUTO 28008KT 10SM FEW095 29/13 A3004 RMK AO2 SLP089 T02940133,2024-08-08T01:53:00Z,29.4,13.3,10+,30.04
KDMH,39.281,-76.611,,,,KDMH 080153Z AUTO 25/23 RMK AO1 SLPNO T02500228,2024-08-08T01:53:00Z,25,22.8,,
KDLS,45.619,-121.166,330,7,8.06,KDLS 080153Z AUTO 33007KT 10SM CLR 33/12 A2989 RMK AO2 SLP118 T03280117 $,2024-08-08T01:53:00Z,32.8,11.7,10+,29.89
KDLN,45.2584,-112.555,40,16,18.41,KDLN 080153Z AUTO 04016KT 10SM CLR 20/08 A3016 RMK AO2 PK WND 04028/0126 SLP167 T02000078,2024-08-08T01:53:00Z,20,7.8,10+,30.16
KDKK,42.4932,-79.2762,50,6,6.9,KDKK 080153Z AUTO 05006KT 10SM CLR 20/14 A2998 RMK AO2 SLP149 T02000144,2024-08-08T01:53:00Z,20,14.4,10+,29.98
KDHT,36.0252,-102.549,160,11,12.66,KDHT 080153Z AUTO 16011KT 10SM CLR 32/06 A2993 RMK AO2 SLP064 T03220056,2024-08-08T01:53:00Z,32.2,5.6,10+,29.93
KDHN,31.3177,-85.4432,300,4,4.6,KDHN 080153Z AUTO 30004KT 10SM CLR 29/22 A2974 RMK AO2 SLP062 T02940222,2024-08-08T01:53:00Z,29.4,22.2,10+,29.74
KDGW,42.796,-105.38,30,15,17.26,KDGW 080153Z AUTO 03015G25KT 10SM BKN070 23/11 A3016 RMK AO2 SLP155 T02280106,2024-08-08T01:53:00Z,22.8,10.6,10+,30.16
KDFW,32.8974,-97.0219,160,6,6.9,KDFW 080153Z 16006KT 10SM CLR 34/18 A2977 RMK AO2 SLP070 T03390178,2024-08-08T01:53:00Z,33.9,17.8,10+,29.77
KDFI,41.3357,-84.4285,20,3,3.45,KDFI 080153Z AUTO 02003KT 10SM CLR 19/16 A2994 RMK AO2 SLP136 T01940161,2024-08-08T01:53:00Z,19.4,16.1,10+,29.94
KDEW,47.9742,-117.429,20,6,6.9,KDEW 080153Z AUTO 02006KT 10SM OVC100 30/08 A3005 RMK AO2 SLP161 T03000078,2024-08-08T01:53:00Z,30,7.8,10+,30.05
KDET,42.4072,-83.009,30,7,8.06,KDET 080153Z 03007KT 10SM CLR 22/15 A2997 RMK AO2 SLP143 T02220150,2024-08-08T01:53:00Z,22.2,15,10+,29.97
KDEQ,34.048,-94.4016,0,0,0.0,KDEQ 080153Z AUTO 00000KT 10SM CLR 31/19 A2974 RMK AO2 SLP063 T03060189,2024-08-08T01:53:00Z,30.6,18.9,10+,29.74
KDEN,39.8466,-104.656,160,10,11.51,KDEN 080153Z 16010KT 10SM FEW120 BKN160 BKN200 21/12 A3011 RMK AO2 SLP118 T02060122,2024-08-08T01:53:00Z,20.6,12.2,10+,30.11
KDCU,34.658,-86.9434,310,7,8.06,KDCU 080153Z AUTO 31007KT 10SM CLR 26/22 A2977 RMK AO2 SLP074 T02610222 $,2024-08-08T01:53:00Z,26.1,22.2,10+,29.77
KDBQ,42.3984,-90.7092,0,0,0.0,KDBQ 080153Z 00000KT 10SM CLR 19/17 A2997 RMK AO2 SLP146 T01940167,2024-08-08T01:53:00Z,19.4,16.7,10+,29.97
KDAN,36.5729,-79.335,50,7,8.06,KDAN 080153Z AUTO 05007KT 10SM FEW010 SCT031 BKN060 24/23 A2982 RMK AO2 SLP087 T02440233,2024-08-08T01:53:00Z,24.4,23.3,10+,29.82
KDAL,32.8384,-96.8358,160,7,8.06,KDAL 080153Z 16007KT 10SM CLR 35/19 A2978 RMK AO2 SLP075 T03500189,2024-08-08T01:53:00Z,35,18.9,10+,29.78
KDAB,29.1735,-81.0719,220,7,8.06,KDAB 080153Z 22007KT 10SM FEW110 BKN200 29/23 A2968 RMK AO2 SLP050 T02940233,2024-08-08T01:53:00Z,29.4,23.3,10+,29.68
KCYS,41.1579,-104.808,120,5,5.75,KCYS 080153Z 12005KT 10SM CLR 21/13 A3017 RMK AO2 SLP134 T02060133,2024-08-08T01:53:00Z,20.6,13.3,10+,30.17
KCXO,30.3611,-95.4176,0,0,0.0,KCXO 080153Z 00000KT 10SM CLR 27/24 A2979 RMK AO2 SLP085 T02720244,2024-08-08T01:53:00Z,27.2,24.4,10+,29.79
KCUT,43.7331,-103.615,40,10,11.51,KCUT 080153Z AUTO 04010G19KT 10SM OVC016 16/11 A3024 RMK AO2 SLP178 T01560111,2024-08-08T01:53:00Z,15.6,11.1,10+,30.24
KCUB,33.972,-80.9939,VRB,6,6.9,KCUB 080153Z AUTO VRB06KT 10SM BKN029 OVC036 27/22 A2962 RMK AO2 SLPNO T02720217,2024-08-08T01:53:00Z,27.2,21.7,10+,29.62
KCSM,35.3568,-99.2041,160,9,10.36,KCSM 080153Z 16009KT 10SM CLR 35/13 A2983 RMK AO2 SLP071 T03500133,2024-08-08T01:53:00Z,35,13.3,10+,29.83
KCRS,32.0316,-96.3994,160,6,6.9,KCRS 080153Z AUTO 16006KT 10SM CLR 30/21 A2980 RMK AO2 SLP086 T03000206,2024-08-08T01:53:00Z,30,20.6,10+,29.80
KCRQ,33.1299,-117.277,260,6,6.9,KCRQ 080153Z 26006KT 10SM CLR 21/17 A2994 RMK AO2 SLP134 T02060172,2024-08-08T01:53:00Z,20.6,17.2,10+,29.94
KCRE,33.8162,-78.7204,110,18,20.71,KCRE 080153Z AUTO 11018G30KT 7SM -RA BKN010 OVC015 27/26 A2949 RMK AO1 PK WND 11031/0120 RAE0059B13 CIG 007V011 SLP986 P0002 T02670261,2024-08-08T01:53:00Z,26.7,26.1,7,29.49
KCQC,35.003,-105.663,210,9,10.36,KCQC 080153Z AUTO 21009KT 10SM CLR 24/03 A3022 RMK AO2 SLP120 T02390028 $,2024-08-08T01:53:00Z,23.9,2.8,10+,30.22
KCPR,42.8978,-106.474,10,25,28.77,KCPR 080153Z 01025G38KT 10SM CLR 18/12 A3019 RMK AO2 PK WND 02038/0119 SLP171 T01780117,2024-08-08T01:53:00Z,17.8,11.7,10+,30.19
KCNY,38.7501,-109.763,50,13,14.96,KCNY 080153Z AUTO 05013G26KT 10SM FEW080 SCT110 32/06 A2997 RMK AO2 PK WND 02034/0130 WSHFT 0040 SLP074 T03220061,2024-08-08T01:53:00Z,32.2,6.1,10+,29.97
KCNO,33.9756,-117.625,250,9,10.36,KCNO 080153Z 25009KT 10SM FEW200 26/16 A2993 RMK AO2 SLP131 T02610161,2024-08-08T01:53:00Z,26.1,16.1,10+,29.93
KCNM,32.3335,-104.258,130,8,9.21,KCNM 080153Z AUTO 13008KT 10SM SCT110 34/02 A2991 RMK AO2 SLP061 T03440022,2024-08-08T01:53:00Z,34.4,2.2,10+,29.91
KCMX,47.1705,-88.4854,230,3,3.45,KCMX 080153Z AUTO 23003KT 10SM BKN046 OVC100 21/13 A2993 RMK AO2 SLP134 T02060133,2024-08-08T01:53:00Z,20.6,13.3,10+,29.93
KCMI,40.0324,-88.2755,40,7,8.06,KCMI 080153Z 04007KT 10SM OVC041 23/18 A2991 RMK AO2 SLP125 T02330183,2024-08-08T01:53:00Z,23.3,18.3,10+,29.91
KCLM,48.1219,-123.507,290,7,8.06,KCLM 080153Z AUTO 29007KT 10SM CLR 17/12 A3007 RMK AO2 SLP182 T01720122,2024-08-08T01:53:00Z,17.2,12.2,10+,30.07
KCLL,30.5912,-96.3631,140,4,4.6,KCLL 080153Z AUTO 14004KT 10SM CLR 32/23 A2979 RMK AO2 SLP081 T03170228,2024-08-08T01:53:00Z,31.7,22.8,10+,29.79
KCKB,39.3022,-80.2239,40,6,6.9,KCKB 080153Z AUTO 04006KT 10SM FEW070 OVC110 25/21 A2987 RMK AO2 SLP096 T02500206,2024-08-08T01:53:00Z,25,20.6,10+,29.87
KCHA,35.0336,-85.2004,350,5,5.75,KCHA 080153Z 35005KT 10SM FEW110 SCT250 29/22 A2974 RMK AO2 SLP061 T02940217,2024-08-08T01:53:00Z,29.4,21.7,10+,29.74
KCEZ,37.3071,-108.626,10,6,6.9,KCEZ 080153Z AUTO 01006KT 10SM VCTS FEW080 OVC110 24/14 A3014 RMK AO2 LTG DSNT SE AND S RAB12E41 SLP126 P0000 T02390139,2024-08-08T01:53:00Z,23.9,13.9,10+,30.14
KCEW,30.7771,-86.5194,0,0,0.0,KCEW 080153Z AUTO 00000KT 9SM CLR 28/23 A2973 RMK AO2 SLP064 T02830233,2024-08-08T01:53:00Z,28.3,23.3,9,29.73
KCDW,40.8764,-74.2829,60,5,5.75,KCDW 080153Z 06005KT 6SM -RA BR OVC010 19/17 A3006 RMK AO2 CIG 008V013 SLP184 P0005 T01890167,2024-08-08T01:53:00Z,18.9,16.7,6,30.06
KCDS,34.4275,-100.284,150,7,8.06,KCDS 080153Z AUTO 15007KT 10SM CLR 36/12 A2981 RMK AO2 SLP061 T03560122,2024-08-08T01:53:00Z,35.6,12.2,10+,29.81
KCDR,42.8374,-103.098,,,,KCDR 080153Z AUTO 10SM SCT055 BKN080 OVC095 24/13 A3010 RMK AO2 SLP171 T02390133 $,2024-08-08T01:53:00Z,23.9,13.3,10+,30.10
KCDD,48.2601,-92.4748,0,0,0.0,KCDD 080153Z AUTO 00000KT 10SM BKN045 OVC100 17/16 A2991 RMK AO2,2024-08-08T01:53:00Z,17,16,10+,29.91
KCDC,37.7067,-113.097,210,16,18.41,KCDC 080153Z AUTO 21016KT 10SM VCTS -RA FEW050 FEW070 OVC110 22/14 A3019 RMK AO2 WSHFT 0118 RAE03B19 TSB00E15B24E39 SLP145 P0004 T02220139,2024-08-08T01:53:00Z,22.2,13.9,10+,30.19
KCCR,37.9916,-122.053,250,8,9.21,KCCR 080153Z 25008KT 10SM CLR 32/02 A2986 RMK AO2 SLP097 T03170022,2024-08-08T01:53:00Z,31.7,2.2,10+,29.86
KCAG,40.493,-107.524,,,,KCAG 080153Z AUTO A3018 RMK AO2 TSB07E22 SLPNO PWINO $,2024-08-08T01:53:00Z,,,,30.18
KBYI,42.5452,-113.769,210,8,9.21,KBYI 080153Z AUTO 21008KT 10SM CLR 24/09 A3004 RMK AO2 SLP133 T02390089,2024-08-08T01:53:00Z,23.9,8.9,10+,30.04
KBYG,44.3812,-106.719,330,10,11.51,KBYG 080153Z AUTO 33010KT 2SM -TSRA BR BKN003 OVC013 13/13 A3030 RMK AO2 LTG DSNT W RAB02 TSB44 PRESRR SLP228 P0002 T01280128,2024-08-08T01:53:00Z,12.8,12.8,2,30.30
KBWG,36.9647,-86.4238,VRB,4,4.6,KBWG 080153Z AUTO VRB04KT 10SM BKN046 OVC055 26/22 A2982 RMK AO2 SLP091 T02610222,2024-08-08T01:53:00Z,26.1,22.2,10+,29.82
KBVY,42.5841,-70.9153,0,0,0.0,KBVY 080153Z AUTO 00000KT 10SM CLR 16/14 A3008 RMK AO2 SLP180 T01560139,2024-08-08T01:53:00Z,15.6,13.9,10+,30.08
KBVO,36.7664,-96.0129,0,0,0.0,KBVO 080153Z AUTO 00000KT 10SM CLR 27/17 A2983 RMK AO2 SLP089 T02670172,2024-08-08T01:53:00Z,26.7,17.2,10+,29.83
KBUR,34.1996,-118.365,120,9,10.36,KBUR 080153Z 12009KT 10SM CLR 26/17 A2993 RMK AO2 SLP122 T02560167,2024-08-08T01:53:00Z,25.6,16.7,10+,29.93
KBTR,30.5378,-91.1468,0,0,0.0,KBTR 080153Z AUTO 00000KT 10SM CLR 30/22 A2977 RMK AO2 SLP080 T03000222,2024-08-08T01:53:00Z,30,22.2,10+,29.77
KBTM,45.9644,-112.501,10,8,9.21,KBTM 080153Z AUTO 01008KT 10SM SCT060 BKN070 OVC100 20/09 A3023 RMK AO2 SLP195 T02000089,2024-08-08T01:53:00Z,20,8.9,10+,30.23
KBTL,42.3119,-85.2415,70,4,4.6,KBTL 080153Z 07004KT 10SM CLR 21/13 A2998 RMK AO2 SLP146 T02110128,2024-08-08T01:53:00Z,21.1,12.8,10+,29.98
KBRO,25.9146,-97.4231,140,7,8.06,KBRO 080153Z 14007KT 10SM CLR 29/26 A2979 RMK AO2 SLP087 T02890261,2024-08-08T01:53:00Z,28.9,26.1,10+,29.79
KBRL,40.7729,-91.1255,60,3,3.45,KBRL 080153Z AUTO 06003KT 10SM FEW042 22/17 A2993 RMK AO2 SLP132 T02220172,2024-08-08T01:53:00Z,22.2,17.2,10+,29.93
KBRD,46.4021,-94.1273,0,0,0.0,KBRD 080153Z AUTO 00000KT 4SM -RA BR BKN012 OVC030 17/16 A2992 RMK AO2 SLP133 P0005 T01720161,2024-08-08T01:53:00Z,17.2,16.1,4,29.92
KBPT,29.9521,-94.0262,200,3,3.45,KBPT 080153Z 20003KT 10SM BKN060 30/25 A2978 RMK AO2 SLP085 T03000250,2024-08-08T01:53:00Z,30,25,10+,29.78
KBPK,36.3705,-92.4719,80,3,3.45,KBPK 080153Z AUTO 08003KT 10SM CLR 23/18 A2989 RMK AO2 SLP113 T02280178,2024-08-08T01:53:00Z,22.8,17.8,10+,29.89
KBPI,42.578,-110.11,300,3,3.45,KBPI 080153Z AUTO 30003KT 9SM CLR 24/M02 A3025 RMK AO2 SLP145 T02391022,2024-08-08T01:53:00Z,23.9,-2.2,9,30.25
KBOI,43.567,-116.241,VRB,4,4.6,KBOI 080153Z VRB04KT 10SM CLR 31/M03 A2998 RMK AO2 SLP121 T03111033,2024-08-08T01:53:00Z,31.1,-3.3,10+,29.98
KBNO,43.5949,-118.958,320,7,8.06,KBNO 080153Z AUTO 32007KT 5SM HZ FEW015 30/M03 A3007 RMK AO2 SLP145 T03001028,2024-08-08T01:53:00Z,30,-2.8,5,30.07
KBNA,36.1105,-86.6881,340,4,4.6,KBNA 080153Z 34004KT 10SM BKN037 26/21 A2982 RMK AO2 SLP089 T02610211,2024-08-08T01:53:00Z,26.1,21.1,10+,29.82
KBMQ,30.7407,-98.2354,90,6,6.9,KBMQ 080153Z AUTO 09006KT 10SM CLR 33/20 A2983 RMK AO2 SLP079 T03330200,2024-08-08T01:53:00Z,33.3,20,10+,29.83
KBMG,39.1432,-86.6168,10,5,5.75,KBMG 080153Z AUTO 01005KT 10SM CLR 23/19 A2988 RMK AO2 SLP111 T02280194,2024-08-08T01:53:00Z,22.8,19.4,10+,29.88
KBLI,48.7991,-122.541,0,0,0.0,KBLI 080153Z 00000KT 10SM CLR 23/16 A3003 RMK AO2 SLP173 T02280161,2024-08-08T01:53:00Z,22.8,16.1,10+,30.03
KBKL,41.5173,-81.6832,,,,KBKL 080153Z A2991 RMK AO2 SLPNO $,2024-08-08T01:53:00Z,,,,29.91
KBKE,44.843,-117.81,330,9,10.36,KBKE 080153Z AUTO 33009KT 10SM CLR 28/08 A3004 RMK AO2 SLP152 T02830078,2024-08-08T01:53:00Z,28.3,7.8,10+,30.04
KBIV,42.7463,-86.0968,90,3,3.45,KBIV 080153Z AUTO 09003KT 10SM CLR 19/14 A2997 RMK AO2 SLP146 T01940144 $,2024-08-08T01:53:00Z,19.4,14.4,10+,29.97
KBIL,45.8072,-108.546,40,11,12.66,KBIL 080153Z 04011KT 10SM FEW022 SCT029 SCT033 16/12 A3027 RMK AO2 RAE02 SLP235 P0000 T01610122,2024-08-08T01:53:00Z,16.1,12.2,10+,30.27
KBHM,33.5655,-86.7449,0,0,0.0,KBHM 080153Z 00000KT 7SM FEW100 28/26 A2976 RMK AO2 SLP069 T02830261,2024-08-08T01:53:00Z,28.3,26.1,7,29.76
KBGR,44.7979,-68.8195,200,5,5.75,KBGR 080153Z 20005KT 10SM FEW100 18/15 A3006 RMK AO2 SLP175 T01830150 $,2024-08-08T01:53:00Z,18.3,15,10+,30.06
KBGM,42.2068,-75.9799,130,5,5.75,KBGM 080153Z 13005KT 1SM OVC002 17/17 A3007 RMK AO2 SFC VIS 10 SLP178 T01720167,2024-08-08T01:53:00Z,17.2,16.7,1,30.07
KBFM,30.6147,-88.063,270,3,3.45,KBFM 080153Z 27003KT 10SM CLR 30/22 A2974 RMK AO2 SLP071 T03000217,2024-08-08T01:53:00Z,30,21.7,10+,29.74
KBFI,47.5455,-122.315,310,6,6.9,KBFI 080153Z 31006KT 10SM CLR 26/14 A3002 RMK AO2 SLP166 T02560144,2024-08-08T01:53:00Z,25.6,14.4,10+,30.02
KBFF,41.8747,-103.601,80,15,17.26,KBFF 080153Z AUTO 08015KT 10SM -RA SCT013 BKN075 OVC100 19/ A3011 RMK AO2 PK WND 03038/0127 WSHFT 0124 LTG DSNT E AND SE TSE36 SLP158 P0104 T0194 $,2024-08-08T01:53:00Z,19.4,,10+,30.11
KBFD,41.7984,-78.6354,110,6,6.9,KBFD 080153Z AUTO 11006KT 10SM BKN014 OVC019 20/18 A3003 RMK AO2 SLP154 T02000178,2024-08-08T01:53:00Z,20,17.8,10+,30.03
KBEH,42.129,-86.4152,0,0,0.0,KBEH 080153Z AUTO 00000KT 10SM CLR 19/15 A2994 RMK AO2 SLP137 T01890150 $,2024-08-08T01:53:00Z,18.9,15,10+,29.94
KBDE,48.7261,-94.6122,320,10,11.51,KBDE 080153Z AUTO 32010KT 10SM SCT035 BKN046 OVC060 20/13 A2991 RMK AO2 SLP126 T02000128,2024-08-08T01:53:00Z,20,12.8,10+,29.91
KBCT,26.379,-80.106,140,10,11.51,KBCT 080153Z 14010KT 10SM SCT035 27/25 A2975,2024-08-08T01:53:00Z,27,25,10+,29.75
KBCE,37.7013,-112.149,270,4,4.6,KBCE 080153Z AUTO 27004KT 10SM CLR 23/07 A3033 RMK AO2 SLP143 T02280067,2024-08-08T01:53:00Z,22.8,6.7,10+,30.33
KBBW,41.4365,-99.6385,,,,KBBW 080153Z AUTO 9SM VCTS FEW090 26/21 A2994 RMK AO2 LTG DSNT W AND NW SLP117 T02560211 $,2024-08-08T01:53:00Z,25.6,21.1,9,29.94
KBAF,42.16,-72.7124,0,0,0.0,KBAF 080153Z 00000KT 10SM CLR 17/17 A3008 RMK AO2 SLP184 T01720167,2024-08-08T01:53:00Z,17.2,16.7,10+,30.08
KAZO,42.2283,-85.546,80,3,3.45,KAZO 080153Z 08003KT 10SM CLR 21/13 A2998 RMK AO2 RAB18E25 SLP148 P0000 T02060133 $,2024-08-08T01:53:00Z,20.6,13.3,10+,29.98
KAXN,45.868,-95.394,340,16,18.41,KAXN 080153Z AUTO 34016G22KT 10SM SCT008 BKN018 OVC027 18/17 A2995 RMK AO2 RAE25 SLP140 P0006 T01830172,2024-08-08T01:53:00Z,18.3,17.2,10+,29.95
KAWM,35.1401,-90.2359,360,4,4.6,KAWM 080153Z AUTO 36004KT 10SM SCT041 22/19 A2982 RMK AO2 SLP094 T02220194,2024-08-08T01:53:00Z,22.2,19.4,10+,29.82
KAUS,30.2099,-97.6806,130,6,6.9,KAUS 080153Z 13006KT 10SM FEW080 33/22 A2978 RMK AO2 SLP069 T03280222 $,2024-08-08T01:53:00Z,32.8,22.2,10+,29.78
KAUG,44.3161,-69.797,VRB,3,3.45,KAUG 080153Z AUTO VRB03KT 10SM CLR 18/14 A3008 RMK AO2 SLP184 T01780139,2024-08-08T01:53:00Z,17.8,13.9,10+,30.08
KATY,44.9045,-97.1496,360,15,17.26,KATY 080153Z AUTO 36015G24KT 10SM BKN020 BKN025 OVC031 18/16 A2998 RMK AO2 RAB31E51 SLP150 P0000 T01780161,2024-08-08T01:53:00Z,17.8,16.1,10+,29.98
KASX,46.5468,-90.9184,320,4,4.6,KASX 080153Z AUTO 32004KT 8SM -RA SCT043 OVC050 17/16 A2995 RMK AO2 SLP141 P0002 T01720161,2024-08-08T01:53:00Z,17.2,16.1,8,29.95
KASE,39.2299,-106.871,350,6,6.9,KASE 080153Z AUTO 35006G17KT 10SM -RA FEW055 OVC070 17/09 A3044 RMK AO2 WSHFT 0040 LTG DSNT E-S RAE22B48 SLP192 P0000 T01670094,2024-08-08T01:53:00Z,16.7,9.4,10+,30.44
KASD,30.3436,-89.8224,0,0,0.0,KASD 080153Z AUTO 00000KT 10SM CLR 29/25 A2975 RMK AO2 SLP075 T02940250,2024-08-08T01:53:00Z,29.4,25,10+,29.75
KARB,42.2239,-83.7398,30,4,4.6,KARB 080153Z AUTO 03004KT 10SM CLR 17/13 A2996 RMK AO2 SLP142 T01670133,2024-08-08T01:53:00Z,16.7,13.3,10+,29.96
KARA,30.0292,-91.8845,0,0,0.0,KARA 080153Z AUTO 00000KT 10SM FEW060 29/24 A2978 RMK AO2 SLP083 T02940244,2024-08-08T01:53:00Z,29.4,24.4,10+,29.78
KAQP,45.2249,-96.0041,330,14,16.11,KAQP 080153Z AUTO 33014G18KT 10SM SCT012 SCT017 OVC031 21/18 A2994 RMK AO2 TSNO,2024-08-08T01:53:00Z,21,18,10+,29.94
KAPF,26.155,-81.7751,240,6,6.9,KAPF 080153Z AUTO 24006KT 10SM FEW040 29/ A2978 RMK AO2 SLP083 T0294,2024-08-08T01:53:00Z,29.4,,10+,29.78
KAPA,39.5599,-104.848,170,5,5.75,KAPA 080153Z 17005KT 10SM SCT100 BKN140 21/12 A3018 RMK AO2 SLP147 T02110122,2024-08-08T01:53:00Z,21.1,12.2,10+,30.18
KAOO,40.2999,-78.3168,60,4,4.6,KAOO 080153Z AUTO 06004KT 2 1/2SM BR OVC003 21/19 A2998 RMK AO2 RAB32E38 SLP144 P0001 T02060194,2024-08-08T01:53:00Z,20.6,19.4,2.5,29.98
KAOH,40.7081,-84.0214,40,9,10.36,KAOH 080153Z AUTO 04009KT 10SM OVC034 22/17 A2992 RMK AO2 SLP125 T02170172,2024-08-08T01:53:00Z,21.7,17.2,10+,29.92
KANE,45.1426,-93.2127,20,4,4.6,KANE 080153Z 02004KT 10SM -RA SCT041 SCT080 OVC110 19/18 A2993,2024-08-08T01:53:00Z,19,18,10+,29.93
KANB,33.5904,-85.8479,0,0,0.0,KANB 080153Z AUTO 00000KT 10SM CLR 27/24 A2973 RMK AO2 SLP056 T02670239,2024-08-08T01:53:00Z,26.7,23.9,10+,29.73
KAMW,41.9905,-93.6185,150,3,3.45,KAMW 080153Z AUTO 15003KT 10SM CLR 20/17 A2993 RMK AO2 SLP130 T02000172,2024-08-08T01:53:00Z,20,17.2,10+,29.93
KAMG,31.5401,-82.5074,0,0,0.0,KAMG 080153Z AUTO 00000KT 9SM CLR 26/24 A2965 RMK AO2 SLP036 T02610244,2024-08-08T01:53:00Z,26.1,24.4,9,29.65
KAMA,35.2203,-101.717,170,14,16.11,KAMA 080153Z 17014KT 10SM CLR 36/08 A2993 RMK AO2 SLP064 T03560078,2024-08-08T01:53:00Z,35.6,7.8,10+,29.93
KALW,46.0946,-118.286,230,5,5.75,KALW 080153Z AUTO 23005KT 10SM CLR 32/09 A2995 RMK AO2 SLP133 T03170089,2024-08-08T01:53:00Z,31.7,8.9,10+,29.95
KALI,27.7413,-98.0251,130,10,11.51,KALI 080153Z AUTO 13010KT 10SM CLR 31/23 A2977 RMK AO2 SLP079 T03060233,2024-08-08T01:53:00Z,30.6,23.3,10+,29.77
KAKO,40.1743,-103.215,210,4,4.6,KAKO 080153Z AUTO 21004KT 10SM CLR 22/12 A3005 RMK AO2 PK WND 32026/0054 PRESFR SLP118 T02220122,2024-08-08T01:53:00Z,22.2,12.2,10+,30.05
KAIA,42.0573,-102.802,50,13,14.96,KAIA 080153Z AUTO 05013KT 10SM SCT100 SCT110 20/17 A3011 RMK AO2 PK WND 03026/0135 LTG DSNT SE-SW RAE44 TSB0058E21 SLP158 T02000172 PNO $,2024-08-08T01:53:00Z,20,17.2,10+,30.11
KAGS,33.3652,-81.9635,340,10,11.51,KAGS 080153Z 34010KT 10SM CLR 27/23 A2962 RMK AO2 SLP029 T02720228,2024-08-08T01:53:00Z,27.2,22.8,10+,29.62
KAGC,40.3551,-79.9215,60,5,5.75,KAGC 080153Z 06005KT 10SM CLR 22/19 A2991 RMK AO2 SLP125 T02220189,2024-08-08T01:53:00Z,22.2,18.9,10+,29.91
KAFW,32.99,-97.32,160,7,8.06,KAFW 080153Z 16007KT 10SM CLR 34/17 A2978 RMK AO2 SLP066 T03440172,2024-08-08T01:53:00Z,34.4,17.2,10+,29.78
KAEX,31.3346,-92.5585,0,0,0.0,KAEX 080153Z 00000KT 10SM CLR 29/24 A2977 RMK AO2 RAB35E53 SLP084 P0000 T02890244,2024-08-08T01:53:00Z,28.9,24.4,10+,29.77
KACV,40.9784,-124.105,230,4,4.6,KACV 080153Z AUTO 23004KT 7SM CLR 14/11 A2994 RMK AO2 SLP144 T01390111,2024-08-08T01:53:00Z,13.9,11.1,7,29.94
KACK,41.2541,-70.0589,50,5,5.75,KACK 080153Z 05005KT 10SM CLR 16/14 A3007 RMK AO2 SLP181 T01610144,2024-08-08T01:53:00Z,16.1,14.4,10+,30.07
KABY,31.5364,-84.1958,0,0,0.0,KABY 080153Z AUTO 00000KT 10SM CLR 29/23 A2969 RMK AO2 SLP051 T02890228 $,2024-08-08T01:53:00Z,28.9,22.8,10+,29.69
KABR,45.4436,-98.4138,360,9,10.36,KABR 080153Z AUTO 36009KT 10SM BKN055 19/14 A3003 RMK AO2 SLP165 T01890139,2024-08-08T01:53:00Z,18.9,13.9,10+,30.03
KAAF,29.7268,-85.0248,290,3,3.45,KAAF 080153Z AUTO 29003KT 10SM CLR 29/26 A2970 RMK AO2 SLP055 T02940256,2024-08-08T01:53:00Z,29.4,25.6,10+,29.70
CYPL,51.449,-90.218,80,12,13.81,CYPL 080153Z AUTO 08012G19KT 9SM OVC006 14/13 A2978 RMK PCPN 0.8MM PAST HR SLP095 DENSITY ALT 1600FT,2024-08-08T01:53:00Z,14,13,9,29.78
RJTX,35.295,139.679,10,5,5.75,RJTX 080152Z AUTO 01005KT SCT050 BKN100 28/24 A2968 RMK AO2 SLP094 T02830244 $ ,2024-08-08T01:52:00Z,28.3,24.4,,29.68
PTPN,6.986,158.21,60,8,9.21,PTPN 080152Z 06008KT 15SM SCT018 BKN300 31/27 A2983 ,2024-08-08T01:52:00Z,31,27,15,29.83
PATA,65.173,-152.107,0,0,0.0,PATA 080152Z 00000KT 10SM SCT070 BKN100 OVC140 21/16 A2983 RMK AO2 RAB23E32 SLP101 P0000 T02060156 $,2024-08-08T01:52:00Z,20.6,15.6,10+,29.83
PABA,70.135,-143.585,60,11,12.66,PABA 080152Z AUTO 06011KT 10SM SCT120 14/11 A2971 RMK AO2 SLP067 T01390111,2024-08-08T01:52:00Z,13.9,11.1,10+,29.71
MMEP,21.418,-104.842,340,6,6.9,MMEP 080152Z 34006KT 8SM SCT020 OVC250 21/20 A3005 RMK 60385 8/407 CB DSNT N LTGCC OCNL -RAE44,2024-08-08T01:52:00Z,21,20,8,30.05
KVTN,42.8585,-100.551,10,20,23.02,KVTN 080152Z AUTO 01020G28KT 10SM BKN065 OVC080 24/14 A3005 RMK AO2 PK WND 01028/0151 SLP156 T02390139,2024-08-08T01:52:00Z,23.9,13.9,10+,30.05
KTRM,33.6317,-116.164,130,10,11.51,KTRM 080152Z AUTO 13010KT 10SM CLR 37/24 A2973 RMK AO2 SLP069 T03670244,2024-08-08T01:52:00Z,36.7,24.4,10+,29.73
KTAN,41.8756,-71.0208,0,0,0.0,KTAN 080152Z AUTO 00000KT 10SM BKN060 BKN120 17/15 A3008 RMK AO2 SLP186 T01720150,2024-08-08T01:52:00Z,17.2,15,10+,30.08
KSUX,42.3917,-96.3795,130,6,6.9,KSUX 080152Z 13006KT 10SM FEW120 23/19 A2990 RMK AO2 SLP119 T02280194,2024-08-08T01:52:00Z,22.8,19.4,10+,29.90
KSPS,33.9785,-98.493,110,8,9.21,KSPS 080152Z 11008KT 10SM CLR 34/17 A2978 RMK AO2 SLP068 T03440167,2024-08-08T01:52:00Z,34.4,16.7,10+,29.78
KSPI,39.8453,-89.684,330,4,4.6,KSPI 080152Z 33004KT 10SM CLR 21/19 A2992 RMK AO2 SLP126 T02060194,2024-08-08T01:52:00Z,20.6,19.4,10+,29.92
KSGF,37.2398,-93.39,50,7,8.06,KSGF 080152Z 05007KT 10SM CLR 25/18 A2990 RMK AO2 SLP113 T02500178,2024-08-08T01:52:00Z,25,17.8,10+,29.90
KREO,42.5902,-117.865,50,11,12.66,KREO 080152Z AUTO 05011KT 32/M02 A3003 RMK AO1 SLP129 T03171017,2024-08-08T01:52:00Z,31.7,-1.7,,30.03
KRAP,44.0458,-103.054,30,8,9.21,KRAP 080152Z 03008KT 10SM OVC038 21/13 A3016 RMK AO2 RAB34E45 SLP187 P0000 T02060128,2024-08-08T01:52:00Z,20.6,12.8,10+,30.16
KPYM,41.9085,-70.7278,60,4,4.6,KPYM 080152Z AUTO 06004KT 10SM SCT120 17/14 A3008 RMK AO2 SLP186 T01720144,2024-08-08T01:52:00Z,17.2,14.4,10+,30.08
KPWK,42.1208,-87.9048,0,0,0.0,KPWK 080152Z 00000KT 10SM CLR 20/16 A2996 RMK AO2 SLP143 T02000156 $,2024-08-08T01:52:00Z,20,15.6,10+,29.96
KPPF,37.3281,-95.5044,0,0,0.0,KPPF 080152Z AUTO 00000KT 10SM CLR 27/18 A2985 RMK AO2 SLP100 T02720178,2024-08-08T01:52:00Z,27.2,17.8,10+,29.85
KP69,46.144,-115.597,0,0,0.0,KP69 080152Z AUTO 00000KT 24/13 A2997 RMK AO1 SLP132 T02440133,2024-08-08T01:52:00Z,24.4,13.3,,29.97
KORE,42.57,-72.287,0,0,0.0,KORE 080152Z AUTO 00000KT 10SM CLR 16/15 A3010 RMK AO2 SLP193 T01610150,2024-08-08T01:52:00Z,16.1,15,10+,30.10
KOMA,41.3119,-95.9018,130,7,8.06,KOMA 080152Z 13007KT 10SM SCT120 SCT180 26/18 A2990 RMK AO2 SLP118 T02560183,2024-08-08T01:52:00Z,25.6,18.3,10+,29.90
KOKC,35.3843,-97.6003,130,8,9.21,KOKC 080152Z 13008KT 10SM FEW250 33/18 A2981 RMK AO2 SLP076 T03330183,2024-08-08T01:52:00Z,33.3,18.3,10+,29.81
KOKB,33.2195,-117.35,270,6,6.9,KOKB 080152Z AUTO 27006KT 6SM HZ SCT012 22/18 A2993 RMK AO2 SLP134 T02170178,2024-08-08T01:52:00Z,21.7,17.8,6,29.93
KNZY,32.6922,-117.21,210,5,5.75,KNZY 080152Z 21005KT 8SM FEW009 BKN180 BKN220 23/18 A2993 RMK AO2 SLP133 T02280183 $,2024-08-08T01:52:00Z,22.8,18.3,8,29.93
KNRB,30.396,-81.423,340,8,9.21,KNRB 080152Z 34008G18KT 2SM TSRA BR SCT008 BKN025CB OVC050 27/24 A2965 RMK AO2 SLP041 FRQ LTGICCG SE-S TS S MOV SE T1 SET P0047 T02670244,2024-08-08T01:52:00Z,26.7,24.4,2,29.65
KNHK,38.284,-76.408,110,10,11.51,KNHK 080152Z 11010KT 10SM BKN015 BKN020 OVC120 27/23 A2990 RMK AO2 RAE0058 SLP127 P0000 T02720233 $,2024-08-08T01:52:00Z,27.2,23.3,10+,29.90
KNFW,32.781,-97.436,160,6,6.9,KNFW 080152Z 16006KT 10SM CLR 35/17 A2979 RMK AO2 SLP072 T03500167 $,2024-08-08T01:52:00Z,35,16.7,10+,29.79
KMWH,47.193,-119.315,250,6,6.9,KMWH 080152Z 25006KT 10SM CLR 32/07 A2997 RMK AO2 SLP139 T03220072,2024-08-08T01:52:00Z,32.2,7.2,10+,29.97
KMLI,41.4482,-90.5237,0,0,0.0,KMLI 080152Z AUTO 00000KT 10SM CLR 20/17 A2994 RMK AO2 SLP134 T02000167,2024-08-08T01:52:00Z,20,16.7,10+,29.94
KMLF,38.4225,-113.011,220,12,13.81,KMLF 080152Z AUTO 22012KT 10SM CLR 31/11 A3004 RMK AO2 SLP094 T03060111,2024-08-08T01:52:00Z,30.6,11.1,10+,30.04
KMKE,42.9549,-87.9045,10,3,3.45,KMKE 080152Z 01003KT 10SM FEW200 20/14 A2996 RMK AO2 SLP142 T02000139,2024-08-08T01:52:00Z,20,13.9,10+,29.96
KMHK,39.1346,-96.6789,70,7,8.06,KMHK 080152Z 07007KT 10SM CLR 27/18 A2987 RMK AO2 SLP106 T02670183,2024-08-08T01:52:00Z,26.7,18.3,10+,29.87
KMFD,40.8204,-82.5177,30,8,9.21,KMFD 080152Z 03008KT 10SM OVC033 22/17 A2993 RMK AO2 SLP127 T02170172,2024-08-08T01:52:00Z,21.7,17.2,10+,29.93
KMEB,34.7913,-79.3683,50,16,18.41,KMEB 080152Z AUTO 05016G25KT 5SM RA BR BKN012 BKN018 OVC036 24/24 A2964 RMK AO2 PK WND 06030/0102 LTG DSNT E-S SLP033 P0018 T02440244,2024-08-08T01:52:00Z,24.4,24.4,5,29.64
KMDH,37.7833,-89.2453,350,7,8.06,KMDH 080152Z 35007KT 10SM OVC031 23/19 A2988 RMK AO2 SLP115 T02280194,2024-08-08T01:52:00Z,22.8,19.4,10+,29.88
KMBG,45.543,-100.404,350,4,4.6,KMBG 080152Z AUTO 35004KT 10SM CLR 18/13 A3007 RMK AO2 SLP176 T01780128,2024-08-08T01:52:00Z,17.8,12.8,10+,30.07
KLWC,39.0078,-95.2115,60,7,8.06,KLWC 080152Z AUTO 06007KT 10SM CLR 24/19 A2988 RMK AO1 SLP110 T02440189,2024-08-08T01:52:00Z,24.4,18.9,10+,29.88
KIOW,41.6394,-91.5445,0,0,0.0,KIOW 080152Z AUTO 00000KT 10SM CLR 22/15 A2995 RMK AO2 SLP140 T02170150,2024-08-08T01:52:00Z,21.7,15,10+,29.95
KIJD,41.7425,-72.1825,0,0,0.0,KIJD 080152Z AUTO 00000KT 10SM CLR 17/16 A3009 RMK AO2 SLP187 T01670161,2024-08-08T01:52:00Z,16.7,16.1,10+,30.09
KIEN,43.0261,-102.52,40,13,14.96,KIEN 080152Z AUTO 04013KT 10SM OVC055 23/13 A3012 RMK AO2 SLP168 T02280133,2024-08-08T01:52:00Z,22.8,13.3,10+,30.12
KIAD,38.9348,-77.4473,140,6,6.9,KIAD 080152Z 14006KT 10SM TS SCT018 BKN030 OVC041 27/23 A2990 RMK AO2 LTG DSNT NE SLP122 T02670228,2024-08-08T01:52:00Z,26.7,22.8,10+,29.90
KHUT,38.0682,-97.8607,100,7,8.06,KHUT 080152Z 10007KT 10SM CLR 30/18 A2983 RMK AO2 SLP077 T03000178,2024-08-08T01:52:00Z,30,17.8,10+,29.83
KHRL,26.2303,-97.6556,140,10,11.51,KHRL 080152Z 14010KT 10SM CLR 29/24 A2978 RMK AO2 SLP084 T02890239,2024-08-08T01:52:00Z,28.9,23.9,10+,29.78
KHIE,44.3659,-71.5522,0,0,0.0,KHIE 080152Z AUTO 00000KT 10SM CLR 13/13 A3009 RMK AO2 SLP190 T01330128,2024-08-08T01:52:00Z,13.3,12.8,10+,30.09
KGLS,29.2704,-94.8642,190,7,8.06,KGLS 080152Z AUTO 19007KT 10SM CLR 31/26 A2980 RMK AO2 SLP091 T03060261 $,2024-08-08T01:52:00Z,30.6,26.1,10+,29.80
KFIT,42.5549,-71.757,0,0,0.0,KFIT 080152Z AUTO 00000KT 10SM CLR 17/16 A3009 RMK AO2 SLP190 T01720161,2024-08-08T01:52:00Z,17.2,16.1,10+,30.09
KEST,43.4008,-94.7476,170,5,5.75,KEST 080152Z AUTO 17005KT 10SM CLR 22/18 A2992 RMK AO2 SLP125 T02170178,2024-08-08T01:52:00Z,21.7,17.8,10+,29.92
KDVN,41.6133,-90.5948,50,5,5.75,KDVN 080152Z AUTO 05005KT 10SM CLR 19/16 A2996 RMK AO2 SLP140 T01940161,2024-08-08T01:52:00Z,19.4,16.1,10+,29.96
KDPA,41.8964,-88.2512,40,5,5.75,KDPA 080152Z 04005KT 10SM CLR 19/14 A2995 RMK AO2 SLP137 T01890139,2024-08-08T01:52:00Z,18.9,13.9,10+,29.95
KDDC,37.7711,-99.9692,80,5,5.75,KDDC 080152Z AUTO 08005KT 8SM CLR 32/19 A2985 RMK AO2 SLP073 T03170194,2024-08-08T01:52:00Z,31.7,19.4,8,29.85
KCVG,39.0444,-84.6724,360,7,8.06,KCVG 080152Z 36007KT 10SM FEW030 24/19 A2986 RMK AO2 SLP103 T02440194,2024-08-08T01:52:00Z,24.4,19.4,10+,29.86
KCQX,41.6878,-69.9932,,,,KCQX 080152Z AUTO A3008 RMK AO2 SLPNO PWINO $,2024-08-08T01:52:00Z,,,,30.08
KCNU,37.6705,-95.4846,70,5,5.75,KCNU 080152Z AUTO 07005KT 10SM CLR 29/17 A2986 RMK AO2 SLP099 T02890172,2024-08-08T01:52:00Z,28.9,17.2,10+,29.86
KCLT,35.2225,-80.9543,30,11,12.66,KCLT 080152Z 03011G20KT 10SM FEW027 SCT120 BKN250 26/22 A2974 RMK AO2 SLP076 T02610217 $,2024-08-08T01:52:00Z,26.1,21.7,10+,29.74
KCKV,36.6169,-87.4118,350,8,9.21,KCKV 080152Z AUTO 35008KT 10SM FEW049 23/21 A2982 RMK AO2 SLP092 T02330206,2024-08-08T01:52:00Z,23.3,20.6,10+,29.82
KCID,41.8829,-91.7246,0,0,0.0,KCID 080152Z 00000KT 10SM CLR 19/16 A2995 RMK AO2 SLP136 T01940156,2024-08-08T01:52:00Z,19.4,15.6,10+,29.95
KCFV,37.0912,-95.5726,80,5,5.75,KCFV 080152Z AUTO 08005KT 10SM CLR 28/17 A2982 RMK AO2 SLP091 T02830172,2024-08-08T01:52:00Z,28.3,17.2,10+,29.82
KBML,44.576,-71.1782,0,0,0.0,KBML 080152Z AUTO 00000KT 10SM CLR 13/12 A3010 RMK AO2 SLP191 T01330117 $,2024-08-08T01:52:00Z,13.3,11.7,10+,30.10
KBLU,39.2762,-120.709,VRB,3,3.45,KBLU 080152Z AUTO VRB03KT 10SM CLR 28/03 A3023 RMK AO2 SLP114 T02780028 TSNO,2024-08-08T01:52:00Z,27.8,2.8,10+,30.23
KBLH,33.6188,-114.715,210,11,12.66,KBLH 080152Z AUTO 21011KT 10SM FEW110 39/16 A2976 RMK AO2 SLP071 T03940161,2024-08-08T01:52:00Z,39.4,16.1,10+,29.76
KBLF,37.2978,-81.2036,VRB,4,4.6,KBLF 080152Z AUTO VRB04KT 10SM FEW022 23/19 A2993 RMK AO2 SLP095 T02280189 $,2024-08-08T01:52:00Z,22.8,18.9,10+,29.93
KBIS,46.7823,-100.757,350,8,9.21,KBIS 080152Z AUTO 35008KT 10SM BKN110 18/09 A3011 RMK AO2 SLP192 T01830094,2024-08-08T01:52:00Z,18.3,9.4,10+,30.11
KBDR,41.1642,-73.1266,50,7,8.06,KBDR 080152Z 05007KT 10SM FEW027 OVC075 19/17 A3006 RMK AO2 RAE11 SLP180 P0000 T01940172,2024-08-08T01:52:00Z,19.4,17.2,10+,30.06
KATL,33.6297,-84.4422,330,6,6.9,KATL 080152Z 33006KT 10SM FEW060 FEW250 30/20 A2973 RMK AO2 SLP053 T03000200,2024-08-08T01:52:00Z,30,20,10+,29.73
KARR,41.7713,-88.4815,40,5,5.75,KARR 080152Z 04005KT 10SM CLR 18/14 A2994 RMK AO2 SLP136 T01780139,2024-08-08T01:52:00Z,17.8,13.9,10+,29.94
KAQW,42.6973,-73.1696,0,0,0.0,KAQW 080152Z AUTO 00000KT 10SM CLR 14/14 A3008 RMK AO2 SLP187 T01440139 $,2024-08-08T01:52:00Z,14.4,13.9,10+,30.08
KALS,37.4393,-105.862,130,7,8.06,KALS 080152Z AUTO 13007KT 10SM CLR 19/11 A3029 RMK AO2 SLP165 T01890111,2024-08-08T01:52:00Z,18.9,11.1,10+,30.29
KAFN,42.8067,-72.0013,,,,KAFN 080152Z AUTO 10SM A3011 RMK AO2 SLPNO $,2024-08-08T01:52:00Z,,,10+,30.11
KABQ,35.0419,-106.615,190,7,8.06,KABQ 080152Z 19007KT 10SM FEW120 SCT160 SCT250 34/02 A3004 RMK AO2 LTG DSNT N AND NW SLP073 CB DSNT NW-N SHRA DSNT NW T03390022,2024-08-08T01:52:00Z,33.9,2.2,10+,30.04
PHBK,22.034,-159.783,210,10,11.51,PHBK 080151Z AUTO 21010KT 10SM CLR 32/22 A3002 RMK AO2 SLP167 T03220217 $,2024-08-08T01:51:00Z,32.2,21.7,10+,30.02
MUGM,19.909,-75.206,250,5,5.75,MUGM 080151Z 25005KT 10SM FEW030 SCT250 31/25 A2991 RMK AO2 SLP126 T03060250 $,2024-08-08T01:51:00Z,30.6,25,10+,29.91
KYNG,41.2548,-80.6736,90,7,8.06,KYNG 080151Z 09007KT 10SM OVC029 22/18 A2994 RMK AO2 SLP131 T02220183,2024-08-08T01:51:00Z,22.2,18.3,10+,29.94
KXWA,48.2542,-103.747,10,8,9.21,KXWA 080151Z AUTO 01008KT 10SM CLR 16/03 A3019 RMK AO2 SLP231 T01610033,2024-08-08T01:51:00Z,16.1,3.3,10+,30.19
KVNY,34.2121,-118.491,120,6,6.9,KVNY 080151Z 12006KT 10SM CLR 27/16 A2992 RMK AO2 SLP123 T02720156,2024-08-08T01:51:00Z,27.2,15.6,10+,29.92
KVCT,28.8624,-96.9301,160,8,9.21,KVCT 080151Z 16008KT 10SM 29/25 A2978 RMK AO2 SLP083 T02940250 $,2024-08-08T01:51:00Z,29.4,25,10+,29.78
KUGN,42.4255,-87.8634,0,0,0.0,KUGN 080151Z AUTO 00000KT 10SM CLR 18/15 A2995 RMK AO2 SLP133 T01780150,2024-08-08T01:51:00Z,17.8,15,10+,29.95
KTPL,31.157,-97.4094,120,6,6.9,KTPL 080151Z AUTO 12006KT 10SM CLR 32/22 A2981 RMK AO2 SLP078 T03220217,2024-08-08T01:51:00Z,32.2,21.7,10+,29.81
KSTL,38.7524,-90.3734,340,5,5.75,KSTL 080151Z 34005KT 10SM FEW023 OVC043 24/18 A2991 RMK AO2 SLP120 T02390183,2024-08-08T01:51:00Z,23.9,18.3,10+,29.91
KSNT,44.1708,-114.927,VRB,3,3.45,KSNT 080151Z AUTO VRB03KT 23/03 A3022 RMK AO1 SLP146 T02330028,2024-08-08T01:51:00Z,23.3,2.8,,30.22
KSMX,34.894,-120.452,320,7,8.06,KSMX 080151Z 32007KT 8SM CLR 21/15 A2996 RMK AO2 SLP146 T02060150,2024-08-08T01:51:00Z,20.6,15,8,29.96
KSMO,34.021,-118.447,240,5,5.75,KSMO 080151Z 24005KT 10SM BKN010 21/18 A2994 RMK AO2 SLP137 T02110183,2024-08-08T01:51:00Z,21.1,18.3,10+,29.94
KSLK,44.3928,-74.2029,0,0,0.0,KSLK 080151Z AUTO 00000KT 10SM CLR 13/11 A3009 RMK AO2 SLP188 T01280111,2024-08-08T01:51:00Z,12.8,11.1,10+,30.09
KSBD,34.09,-117.247,270,8,9.21,KSBD 080151Z 27008KT 7SM CLR 31/11 A2994,2024-08-08T01:51:00Z,31,11,7,29.94
KSAT,29.5443,-98.4839,130,10,11.51,KSAT 080151Z 13010KT 10SM FEW090 34/21 A2978 RMK AO2 SLP064 T03440206 $,2024-08-08T01:51:00Z,34.4,20.6,10+,29.78
KSAN,32.7365,-117.197,180,3,3.45,KSAN 080151Z 18003KT 10SM FEW010 BKN180 23/18 A2995 RMK AO2 SLP140 T02280183,2024-08-08T01:51:00Z,22.8,18.3,10+,29.95
KSAD,32.8565,-109.636,280,15,17.26,KSAD 080151Z AUTO 28015KT 10SM CLR 27/19 A2997 RMK AO2 PK WND 32030/0106 SLP095 T02720189,2024-08-08T01:51:00Z,27.2,18.9,10+,29.97
KROW,33.3074,-104.508,160,8,9.21,KROW 080151Z 16008KT 10SM CLR 36/06 A2992 RMK AO2 SLP054 T03560061 $,2024-08-08T01:51:00Z,35.6,6.1,10+,29.92
KRDU,35.8923,-78.782,50,9,10.36,KRDU 080151Z 05009KT 10SM -RA SCT015 BKN025 BKN050 OVC210 26/23 A2978 RMK AO2 RAB01 SLP078 P0002 T02560233,2024-08-08T01:51:00Z,25.6,23.3,10+,29.78
KPWM,43.6424,-70.3044,230,3,3.45,KPWM 080151Z 23003KT 10SM CLR 17/15 A3008 RMK AO2 SLP185 T01720150,2024-08-08T01:51:00Z,17.2,15,10+,30.08
KPVD,41.7225,-71.4325,80,5,5.75,KPVD 080151Z 08005KT 10SM FEW030 SCT050 SCT150 17/16 A3009 RMK AO2 SLP189 T01720156,2024-08-08T01:51:00Z,17.2,15.6,10+,30.09
KPIT,40.4814,-80.2083,40,7,8.06,KPIT 080151Z 04007KT 10SM SCT017 BKN075 23/19 A2992 RMK AO2 SLP130 T02280189,2024-08-08T01:51:00Z,22.8,18.9,10+,29.92
KPHX,33.4278,-112.004,190,9,10.36,KPHX 080151Z 19009KT 10SM FEW090 SCT180 SCT210 BKN250 38/17 A2982 RMK AO2 SLP075 CB DSNT SE-S T03780167,2024-08-08T01:51:00Z,37.8,16.7,10+,29.82
KP59,47.467,-87.875,250,4,4.6,KP59 080151Z AUTO 25004KT 20/14 A2991 RMK AO1 SLP123 T02000139,2024-08-08T01:51:00Z,20,13.9,,29.91
KOXR,34.2001,-119.204,190,5,5.75,KOXR 080151Z AUTO 19005KT 9SM OVC008 20/17 A2993 RMK AO2 SLP134 T02000172 $,2024-08-08T01:51:00Z,20,17.2,9,29.93
KORF,36.9037,-76.1927,50,6,6.9,KORF 080151Z AUTO 05006KT 6SM -RA BR OVC005 23/22 A2986 RMK AO2 SLP110 P0005 T02330222,2024-08-08T01:51:00Z,23.3,22.2,6,29.86
KORD,41.9602,-87.9316,60,7,8.06,KORD 080151Z 06007KT 10SM FEW160 22/15 A2994 RMK AO2 SLP136 T02170150,2024-08-08T01:51:00Z,21.7,15,10+,29.94
KOCF,29.1636,-82.221,220,6,6.9,KOCF 080151Z AUTO 22006KT 10SM CLR 28/26 A2970 RMK AO2 SLP056 T02780256,2024-08-08T01:51:00Z,27.8,25.6,10+,29.70
KNYC,40.779,-73.9692,100,7,8.06,KNYC 080151Z AUTO 10007KT 10SM FEW022 SCT050 OVC060 19/16 A3007 RMK AO2 SLP175 T01940161 $,2024-08-08T01:51:00Z,19.4,16.1,10+,30.07
KNBT,35.022,-76.463,110,13,14.96,KNBT 080151Z AUTO 11013KT 10SM FEW022 SCT070 OVC100 31/27 A2976 RMK AO2 SLP082 T03110272 PNO $,2024-08-08T01:51:00Z,31.1,27.2,10+,29.76
KMYL,44.8943,-116.1,330,7,8.06,KMYL 080151Z AUTO 33007KT 10SM CLR 26/02 A3013 RMK AO2 SLP163 T02560017,2024-08-08T01:51:00Z,25.6,1.7,10+,30.13
KMPV,44.205,-72.5655,0,0,0.0,KMPV 080151Z AUTO 00000KT 10SM CLR 16/13 A3013 RMK AO2 SLP203 T01560128,2024-08-08T01:51:00Z,15.6,12.8,10+,30.13
KLAL,27.9866,-82.0193,220,5,5.75,KLAL 080151Z 22005KT 10SM SKC 28/27 A2974,2024-08-08T01:51:00Z,28,27,10+,29.74
KJFK,40.6392,-73.7639,70,9,10.36,KJFK 080151Z 07009G18KT 10SM FEW009 OVC018 20/17 A3005 RMK AO2 SLP175 T02000167,2024-08-08T01:51:00Z,20,16.7,10+,30.05
KILG,39.6744,-75.6057,60,13,14.96,KILG 080151Z AUTO 06013KT 10SM OVC007 21/20 A2999 RMK AO2 RAE0054 SLP155 P0000 T02060200,2024-08-08T01:51:00Z,20.6,20,10+,29.99
KIGM,35.2575,-113.934,250,15,17.26,KIGM 080151Z AUTO 25015KT 10SM CLR 32/16 A3000 RMK AO2 SLP083 T03170156,2024-08-08T01:51:00Z,31.7,15.6,10+,30.00
KHTS,38.3653,-82.5548,20,5,5.75,KHTS 080151Z 02005KT 10SM CLR 29/21 A2980 RMK AO2 SLP079 T02890211,2024-08-08T01:51:00Z,28.9,21.1,10+,29.80
KHDO,29.3601,-99.1742,0,0,0.0,KHDO 080151Z AUTO 00000KT 10SM CLR 36/18 A2977 RMK AO2 SLP062 T03560183,2024-08-08T01:51:00Z,35.6,18.3,10+,29.77
KEWR,40.6828,-74.1692,60,7,8.06,KEWR 080151Z 06007KT 7SM -RA FEW008 BKN012 OVC019 20/18 A3005 RMK AO2 SLP173 P0001 T02000178,2024-08-08T01:51:00Z,20,17.8,7,30.05
KERI,42.0803,-80.1824,90,4,4.6,KERI 080151Z 09004KT 10SM CLR 22/16 A2995 RMK AO2 SLP138 T02170156,2024-08-08T01:51:00Z,21.7,15.6,10+,29.95
KELP,31.8123,-106.377,210,6,6.9,KELP 080151Z 21006KT 10SM FEW100 FEW180 FEW220 SCT250 34/10 A2996 RMK AO2 SLP059 CB DSNT SW-W T03440100,2024-08-08T01:51:00Z,34.4,10,10+,29.96
KEKN,38.8899,-79.8554,0,0,0.0,KEKN 080151Z AUTO 00000KT 10SM CLR 25/21 A2991 RMK AO2 SLP113 T02500206,2024-08-08T01:51:00Z,25,20.6,10+,29.91
KDAW,43.2794,-70.9243,0,0,0.0,KDAW 080151Z AUTO 00000KT 10SM CLR 18/14 A3008 RMK AO2 SLP181 T01780144 $,2024-08-08T01:51:00Z,17.8,14.4,10+,30.08
KCSG,32.5163,-84.9422,320,5,5.75,KCSG 080151Z AUTO 32005KT 10SM CLR 31/21 A2970 RMK AO2 SLP050 T03110211,2024-08-08T01:51:00Z,31.1,21.1,10+,29.70
KCRP,27.7733,-97.513,150,9,10.36,KCRP 080151Z 15009KT 10SM FEW030 FEW050 29/26 A2977 RMK AO2 SLP081 T02890261,2024-08-08T01:51:00Z,28.9,26.1,10+,29.77
KCON,43.2049,-71.5026,0,0,0.0,KCON 080151Z AUTO 00000KT 10SM CLR 17/14 A3008 RMK AO2 SLP186 T01670144,2024-08-08T01:51:00Z,16.7,14.4,10+,30.08
KCMH,39.9907,-82.8771,70,6,6.9,KCMH 080151Z 07006KT 10SM FEW025 FEW060 FEW250 23/19 A2988 RMK AO2 SLP110 T02280194,2024-08-08T01:51:00Z,22.8,19.4,10+,29.88
KCLE,41.4057,-81.8519,70,7,8.06,KCLE 080151Z 07007KT 10SM OVC035 23/16 A2991 RMK AO2 SLP138 T02330161,2024-08-08T01:51:00Z,23.3,16.1,10+,29.91
KCDJ,39.8198,-93.577,0,0,0.0,KCDJ 080151Z AUTO 00000KT 22/19 A2992 RMK AO1 SLP123 T02220189,2024-08-08T01:51:00Z,22.2,18.9,,29.92
KCAK,40.9181,-81.4434,50,7,8.06,KCAK 080151Z 05007KT 10SM FEW025 OVC034 23/19 A2992 RMK AO2 SLP123 T02280189,2024-08-08T01:51:00Z,22.8,18.9,10+,29.92
KBKW,37.7836,-81.1228,120,6,6.9,KBKW 080151Z AUTO 12006KT 10SM CLR 24/18 A2990 RMK AO2 SLP084 T02440183,2024-08-08T01:51:00Z,24.4,18.3,10+,29.90
KBHK,46.3521,-104.261,20,5,5.75,KBHK 080151Z AUTO 02005KT 8SM OVC060 16/08 A3022 RMK AO2 SLP224 T01610078,2024-08-08T01:51:00Z,16.1,7.8,8,30.22
KBGD,35.695,-101.396,160,7,8.06,KBGD 080151Z AUTO 16007KT 10SM CLR 37/09 A2988 RMK AO2 SLP062 T03670094,2024-08-08T01:51:00Z,36.7,9.4,10+,29.88
KBED,42.4681,-71.2946,0,0,0.0,KBED 080151Z 00000KT 10SM SCT100 15/14 A3007 RMK AO2 SLP197 T01500139 $,2024-08-08T01:51:00Z,15,13.9,10+,30.07
KBDL,41.9374,-72.682,0,0,0.0,KBDL 080151Z 00000KT 10SM FEW110 19/17 A3008 RMK AO2 SLP184 T01940167,2024-08-08T01:51:00Z,19.4,16.7,10+,30.08
KBAZ,29.7089,-98.0459,150,8,9.21,KBAZ 080151Z AUTO 15008KT 10SM CLR 33/22 A2977 RMK AO2 SLP068 T03280222,2024-08-08T01:51:00Z,32.8,22.2,10+,29.77
KAVX,33.4042,-118.415,0,0,0.0,KAVX 080151Z AUTO 00000KT 10SM CLR 22/16 A2998 RMK AO2 SLP126 T02170161,2024-08-08T01:51:00Z,21.7,16.1,10+,29.98
KATT,30.3208,-97.7604,130,7,8.06,KATT 080151Z AUTO 13007KT 10SM CLR 33/21 A2980 RMK AO2 SLP073 T03330206,2024-08-08T01:51:00Z,33.3,20.6,10+,29.80
KALB,42.7473,-73.7991,0,0,0.0,KALB 080151Z 00000KT 10SM FEW055 FEW070 20/16 A3005 RMK AO2 SLP176 T02000156,2024-08-08T01:51:00Z,20,15.6,10+,30.05
KAHN,33.9477,-83.3274,0,0,0.0,KAHN 080151Z AUTO 00000KT 10SM BKN080 BKN110 25/23 A2973 RMK AO2 RAB0054E27 SLP057 P0007 T02500233,2024-08-08T01:51:00Z,25,23.3,10+,29.73
KACT,31.618,-97.2283,VRB,5,5.75,KACT 080151Z VRB05KT 10SM CLR 31/14 A2979 RMK AO2 SLP080 T03110144,2024-08-08T01:51:00Z,31.1,14.4,10+,29.79
KABE,40.658,-75.4347,50,8,9.21,KABE 080151Z 05008KT 10SM OVC010 18/17 A3004 RMK AO2 RAE0052 SLP169 P0000 T01830167,2024-08-08T01:51:00Z,18.3,16.7,10+,30.04
K6R6,30.0482,-102.213,140,5,5.75,K6R6 080151Z AUTO 14005KT 33/10 A2986 RMK AO1 SLP070 T03280100,2024-08-08T01:51:00Z,32.8,10,,29.86
RJOT,34.214,134.016,30,5,5.75,RJOT 080150Z 03005KT 350V070 9999 FEW025 33/23 Q1005 RMK 1CU025 A2970,2024-08-08T01:50:00Z,33,23,6+,29.68
PTRO,7.367,134.544,80,4,4.6,PTRO 080150Z 08004KT 13SM SCT015CB BKN110 OVC290 28/27 A2988 RMK CB SW-NW,2024-08-08T01:50:00Z,28,27,13,29.88
PGWT,14.997,145.624,250,9,10.36,PGWT 080150Z 25009KT 7SM FEW020 SCT100 31/25 A2989,2024-08-08T01:50:00Z,31,25,7,29.89
PGRO,14.172,145.24,340,6,6.9,PGRO 080150Z 34006KT 7SM BKN014 BKN100 29/24 A2985,2024-08-08T01:50:00Z,29,24,7,29.85
OOSA,17.044,54.102,150,7,8.06,OOSA 080150Z 15007KT 4000 -DZ BR BKN002 OVC006 24/24 Q1004 NOSIG,2024-08-08T01:50:00Z,24,24,2.49,29.65
OOMS,23.595,58.298,70,5,5.75,OOMS 080150Z 07005KT 9000 NSC 28/25 Q1000 NOSIG,2024-08-08T01:50:00Z,28,25,5.59,29.53
OOKB,26.168,56.239,150,8,9.21,OOKB 080150Z AUTO 15008KT 100V170 CAVOK 33/26 Q0998 NOSIG,2024-08-08T01:50:00Z,33,26,6+,29.47
OODQ,19.511,57.657,210,28,32.22,OODQ 080150Z AUTO 21028KT //// R22///// OVC004 23/23 Q0999 NOSIG,2024-08-08T01:50:00Z,23,23,,29.50
OOAD,22.5,57.37,80,8,9.21,OOAD 080150Z AUTO 08008KT //// R31///// // ///////// 28/21 Q1003 NOSIG,2024-08-08T01:50:00Z,28,21,,29.62
NSTU,-14.337,-170.721,150,15,17.26,NSTU 080150Z 15015G20KT 12SM SCT019TCU BKN100 OVC200 27/21 A2991 RMK TCU ALQDS SLP129 T02690209,2024-08-08T01:50:00Z,26.9,20.9,12,29.91
MUVR,23.033,-81.435,150,5,5.75,MUVR 080150Z 15005KT 9000 FEW020 25/25 Q1012,2024-08-08T01:50:00Z,25,25,5.59,29.88
MUSC,22.494,-79.931,VRB,3,3.45,MUSC 080150Z VRB03KT 8000 BKN030 24/22 Q1012,2024-08-08T01:50:00Z,24,22,4.97,29.88
MUHG,20.786,-76.316,360,4,4.6,MUHG 080150Z 36004KT 9000 TS FEW030CB BKN210 26/23 Q1013,2024-08-08T01:50:00Z,26,23,5.59,29.91
MUHA,22.991,-82.41,VRB,3,3.45,MUHA 080150Z VRB03KT 9000 FEW025 27/26 Q1012,2024-08-08T01:50:00Z,27,26,5.59,29.88
MUCU,19.971,-75.837,270,4,4.6,MUCU 080150Z 27004KT 230V310 9000 SCT020 30/26 Q1013,2024-08-08T01:50:00Z,30,26,5.59,29.91
MUCM,21.42,-77.85,VRB,2,2.3,MUCM 080150Z VRB02KT 9000 SCT020 BKN080 24/23 Q1013,2024-08-08T01:50:00Z,24,23,5.59,29.91
MUCC,22.456,-78.339,140,4,4.6,MUCC 080150Z 14004KT 9000 SCT020CB 26/24 Q1012,2024-08-08T01:50:00Z,26,24,5.59,29.88
LXGB,36.151,-5.35,290,2,2.3,LXGB 080150Z AUTO 29002KT 9999 NCD 22/18 Q1012,2024-08-08T01:50:00Z,22,18,6+,29.88
LWSK,41.952,21.627,VRB,2,2.3,LWSK 080150Z VRB02KT CAVOK 16/09 Q1014 NOSIG,2024-08-08T01:50:00Z,16,9,6+,29.94
LWOH,41.181,20.744,330,5,5.75,LWOH 080150Z 33005KT CAVOK 15/11 Q1016,2024-08-08T01:50:00Z,15,11,6+,30.00
LTFO,41.179,40.845,150,3,3.45,LTFO 080150Z 15003KT 080V180 9999 SCT016 BKN028 24/21 Q1012,2024-08-08T01:50:00Z,24,21,6+,29.88
LTFM,41.262,28.74,30,7,8.06,LTFM 080150Z 03007KT 9999 SCT026 23/17 Q1013 NOSIG RMK RWY17L 03008KT RWY34L 02007KT RWY16R 03007KT RWY36 02007KT RWY18 03006KT,2024-08-08T01:50:00Z,23,17,6+,29.91
LTFJ,40.899,29.309,40,5,5.75,LTFJ 080150Z 04005KT CAVOK 20/17 Q1012 NOSIG RMK RWY24R 01003KT RWY06R 02004KT RWY24L 04005KT,2024-08-08T01:50:00Z,20,17,6+,29.88
LTFH,41.255,36.567,VRB,2,2.3,LTFH 080150Z VRB02KT 9999 SCT032 BKN100 22/19 Q1012 NOSIG,2024-08-08T01:50:00Z,22,19,6+,29.88
LTFG,36.299,32.3,70,4,4.6,LTFG 080150Z 07004KT CAVOK 25/22 Q1006,2024-08-08T01:50:00Z,25,22,6+,29.70
LTFE,37.245,27.673,VRB,1,1.15,LTFE 080150Z VRB01KT CAVOK 22/16 Q1005 NOSIG RMK RWY10 00000KT,2024-08-08T01:50:00Z,22,16,6+,29.68
LTFD,39.559,27.025,80,16,18.41,LTFD 080150Z 08016KT CAVOK 24/14 Q1010,2024-08-08T01:50:00Z,24,14,6+,29.82
LTFC,37.855,30.368,350,12,13.81,LTFC 080150Z 35012KT CAVOK 22/13 Q1012 RMK RWY23 01005KT 340V060,2024-08-08T01:50:00Z,22,13,6+,29.88
LTDA,36.361,36.283,250,13,14.96,LTDA 080150Z 25013KT 220V290 9999 SCT040 28/23 Q1005 NOSIG,2024-08-08T01:50:00Z,28,23,6+,29.68
LTCW,37.55,44.238,170,2,2.3,LTCW 080150Z 17002KT 9999 FEW040 10/05 Q1017,2024-08-08T01:50:00Z,10,5,6+,30.03
LTCV,37.365,42.06,240,11,12.66,LTCV 080150Z 24011KT CAVOK 28/06 Q1004,2024-08-08T01:50:00Z,28,6,6+,29.65
LTCT,39.977,43.878,300,14,16.11,LTCT 080150Z 30014KT CAVOK 23/10 Q1013,2024-08-08T01:50:00Z,23,10,6+,29.91
LTCS,37.445,38.904,30,6,6.9,LTCS 080150Z 03006KT CAVOK 26/11 Q1008 RMK RWY22 35004KT SKC,2024-08-08T01:50:00Z,26,11,6+,29.76
LTCR,37.232,40.638,VRB,4,4.6,LTCR 080150Z VRB04KT CAVOK 29/10 Q1003,2024-08-08T01:50:00Z,29,10,6+,29.62
LTCN,37.539,36.953,50,6,6.9,LTCN 080150Z 05006KT CAVOK 25/21 Q1007,2024-08-08T01:50:00Z,25,21,6+,29.73
LTCK,38.748,41.661,60,3,3.45,LTCK 080150Z 06003KT 320V110 CAVOK 15/08 Q1013,2024-08-08T01:50:00Z,15,8,6+,29.91
LTCJ,37.93,41.117,30,3,3.45,LTCJ 080150Z 03003KT CAVOK 20/13 Q1005 NOSIG RMK RWY20 36002KT SKC,2024-08-08T01:50:00Z,20,13,6+,29.68
LTCI,38.469,43.337,80,3,3.45,LTCI 080150Z 08003KT 9999 FEW040 17/12 Q1016 NOSIG,2024-08-08T01:50:00Z,17,12,6+,30.00
LTCG,40.995,39.782,220,5,5.75,LTCG 080150Z 22005KT 9999 BKN035 23/21 Q1012 NOSIG RMK RWY29 22005KT,2024-08-08T01:50:00Z,23,21,6+,29.88
LTCF,40.562,43.115,300,6,6.9,LTCF 080150Z 30006KT CAVOK 10/09 Q1020 NOSIG,2024-08-08T01:50:00Z,10,9,6+,30.12
LTCE,39.956,41.17,VRB,2,2.3,LTCE 080150Z VRB02KT CAVOK 11/09 Q1019 NOSIG RMK RWY08R 00000KT RWY26R 33001KT RWY08L 00000KT SKC,2024-08-08T01:50:00Z,11,9,6+,30.09
LTCD,39.71,39.527,VRB,1,1.15,LTCD 080150Z VRB01KT CAVOK 16/12 Q1015 NOSIG,2024-08-08T01:50:00Z,16,12,6+,29.97
LTCC,37.894,40.201,VRB,2,2.3,LTCC 080150Z VRB02KT CAVOK 27/08 Q1006 NOSIG RMK RWY16 31010KT 270V350 SKC,2024-08-08T01:50:00Z,27,8,6+,29.70
LTCB,40.967,38.081,150,3,3.45,LTCB 080150Z 15003KT 360V170 9999 -SHRA FEW012 FEW020CB BKN028 24/22 Q1012 TEMPO -TSRA,2024-08-08T01:50:00Z,24,22,6+,29.88
LTCA,38.607,39.291,230,3,3.45,LTCA 080150Z 23003KT 190V250 CAVOK 22/09 Q1010 NOSIG,2024-08-08T01:50:00Z,22,9,6+,29.82
LTBY,39.81,30.519,270,5,5.75,LTBY 080150Z 27005KT CAVOK 12/11 Q1015,2024-08-08T01:50:00Z,12,11,6+,29.97
LTBU,41.139,27.919,340,7,8.06,LTBU 080150Z 34007KT CAVOK 18/16 Q1013 RMK RWY22 36008KT,2024-08-08T01:50:00Z,18,16,6+,29.91
LTBS,36.713,28.793,40,3,3.45,LTBS 080150Z 04003KT 360V100 CAVOK 24/18 Q1004 NOSIG RMK RWY19 36004KT SKC,2024-08-08T01:50:00Z,24,18,6+,29.65
LTBR,40.255,29.562,VRB,2,2.3,LTBR 080150Z VRB02KT CAVOK 15/15 Q1013 NOSIG RMK RWY07 VRB01KT,2024-08-08T01:50:00Z,15,15,6+,29.91
LTBQ,40.735,30.083,VRB,1,1.15,LTBQ 080150Z VRB01KT 9999 FEW025 14/14 Q1013 NOSIG,2024-08-08T01:50:00Z,14,14,6+,29.91
LTBJ,38.285,27.155,350,14,16.11,LTBJ 080150Z 35014KT CAVOK 25/11 Q1007 NOSIG RMK RWY16 35013KT,2024-08-08T01:50:00Z,25,11,6+,29.73
LTBH,40.14,26.425,20,5,5.75,LTBH 080150Z 02005KT CAVOK 20/16 Q1012,2024-08-08T01:50:00Z,20,16,6+,29.88
LTBF,39.619,27.926,230,2,2.3,LTBF 080150Z 23002KT CAVOK 17/14 Q1011 NOSIG,2024-08-08T01:50:00Z,17,14,6+,29.85
LTBD,37.816,27.886,VRB,1,1.15,LTBD 080150Z VRB01KT CAVOK 22/15 Q1006,2024-08-08T01:50:00Z,22,15,6+,29.70
LTBA,40.982,28.821,60,4,4.6,LTBA 080150Z 06004KT 9999 FEW026 22/17 Q1012 RMK RWY23 07004KT,2024-08-08T01:50:00Z,22,17,6+,29.88
LTAZ,38.771,34.521,VRB,2,2.3,LTAZ 080150Z VRB02KT CAVOK 17/08 Q1014 RMK RWY29 12002KT,2024-08-08T01:50:00Z,17,8,6+,29.94
LTAY,37.785,29.701,VRB,1,1.15,LTAY 080150Z VRB01KT CAVOK 18/11 Q1013 NOSIG,2024-08-08T01:50:00Z,18,11,6+,29.91
LTAU,38.77,35.495,100,6,6.9,LTAU 080150Z 10006KT CAVOK 19/13 Q1014 NOSIG RMK RWY07 09007KT,2024-08-08T01:50:00Z,19,13,6+,29.94
LTAT,38.435,38.092,210,3,3.45,LTAT 080150Z 21003KT 160V240 CAVOK 21/11 Q1011 NOSIG RMK RWY03 20002KT,2024-08-08T01:50:00Z,21,11,6+,29.85
LTAR,39.798,36.894,0,0,0.0,LTAR 080150Z 00000KT CAVOK 09/09 Q1019,2024-08-08T01:50:00Z,9,9,6+,30.09
LTAP,40.826,35.52,0,0,0.0,LTAP 080150Z 00000KT 9999 SCT040 17/14 Q1013 NOSIG RMK RWY23 VRB01KT,2024-08-08T01:50:00Z,17,14,6+,29.91
LTAN,37.979,32.562,340,5,5.75,LTAN 080150Z 34005KT CAVOK 21/11 Q1014 NOSIG,2024-08-08T01:50:00Z,21,11,6+,29.94
LTAJ,36.947,37.479,20,4,4.6,LTAJ 080150Z 02004KT CAVOK 25/18 Q1007 NOSIG RMK RWY10 VRB02KT SKC,2024-08-08T01:50:00Z,25,18,6+,29.73
LTAI,36.9,30.798,260,3,3.45,LTAI 080150Z 26003KT CAVOK 27/24 Q1005 NOSIG RMK RWY18C VRB02KT RWY36R 24002KT RWY18L 24003KT,2024-08-08T01:50:00Z,27,24,6+,29.68
LTAG,37.002,35.426,40,2,2.3,LTAG 080150Z 04002KT 9999 FEW035 25/22 Q1005 NOSIG RMK 2CU035,2024-08-08T01:50:00Z,25,22,6+,29.68
LTAF,36.989,35.293,0,0,0.0,LTAF 080150Z 00000KT 9999 FEW035 26/25 Q1006 NOSIG RMK RWY23 00000KT 2CU035,2024-08-08T01:50:00Z,26,25,6+,29.70
LTAC,40.128,32.995,40,9,10.36,LTAC 080150Z 04009KT CAVOK 17/12 Q1015 NOSIG RMK RWY21L 02008KT RWY03L 03010KT RWY21R 02008KT,2024-08-08T01:50:00Z,17,12,6+,29.97
LSZS,46.526,9.879,VRB,1,1.15,LSZS 080150Z AUTO VRB01KT 9999 BKN065 07/07 Q1023,2024-08-08T01:50:00Z,7,7,6+,30.21
LSZR,47.485,9.561,110,2,2.3,LSZR 080150Z AUTO 11002KT CAVOK 17/17 Q1016,2024-08-08T01:50:00Z,17,17,6+,30.00
LSZL,46.164,8.878,VRB,1,1.15,LSZL 080150Z AUTO VRB01KT 9999NDV NCD 16/16 Q1015 RMK,2024-08-08T01:50:00Z,16,16,,29.97
LSZH,47.48,8.536,20,2,2.3,LSZH 080150Z AUTO 02002KT 9999 FEW041 SCT060 18/17 Q1017 NOSIG,2024-08-08T01:50:00Z,18,17,6+,30.03
LSZG,47.179,7.415,90,2,2.3,LSZG 080150Z AUTO 09002KT 5000 NCD 16/16 Q1016,2024-08-08T01:50:00Z,16,16,3.11,30.00
LSZC,46.972,8.392,260,3,3.45,LSZC 080150Z AUTO 26003KT 220V300 9999 BKN050 18/16 Q1017,2024-08-08T01:50:00Z,18,16,6+,30.03
LSZB,46.914,7.497,90,4,4.6,LSZB 080150Z AUTO 09004KT 9999 FEW045 17/17 Q1017,2024-08-08T01:50:00Z,17,17,6+,30.03
LSZA,46.004,8.91,VRB,2,2.3,LSZA 080150Z AUTO VRB02KT CAVOK 16/15 Q1015,2024-08-08T01:50:00Z,16,15,6+,29.97
LSMP,46.844,6.916,210,3,3.45,LSMP 080150Z AUTO 21003KT 9000NDV FEW047 SCT070 18/17 Q1017 RMK,2024-08-08T01:50:00Z,18,17,,30.03
LSMM,46.743,8.11,0,0,0.0,LSMM 080150Z AUTO 00000KT 9999NDV FEW048 15/15 Q1018 RMK,2024-08-08T01:50:00Z,15,15,,30.06
LSME,47.092,8.305,0,0,0.0,LSME 080150Z AUTO 00000KT 9999NDV FEW032 19/18 Q1016 RMK,2024-08-08T01:50:00Z,19,18,,30.00
LSMD,47.399,8.648,0,0,0.0,LSMD 080150Z AUTO 00000KT 9999NDV SCT045 18/17 Q1017 RMK,2024-08-08T01:50:00Z,18,17,,30.03
LSMA,46.943,8.286,200,3,3.45,LSMA 080150Z AUTO 20003KT 160V220 9999NDV NCD 17/17 Q1017 RMK,2024-08-08T01:50:00Z,17,17,,30.03
LSGS,46.219,7.33,VRB,2,2.3,LSGS 080150Z AUTO VRB02KT CAVOK 17/14 Q1017,2024-08-08T01:50:00Z,17,14,6+,30.03
LSGG,46.248,6.128,VRB,2,2.3,LSGG 080150Z AUTO VRB02KT 9999 FEW085 SCT089 20/17 Q1016 NOSIG,2024-08-08T01:50:00Z,20,17,6+,30.00
LSGC,47.083,6.792,240,1,1.15,LSGC 080150Z AUTO 24001KT 9999 FEW009 BKN017 16/16 Q1019,2024-08-08T01:50:00Z,16,16,6+,30.09
LOWW,48.117,16.582,210,6,6.9,LOWW 080150Z 21006KT CAVOK 22/16 Q1013 NOSIG,2024-08-08T01:50:00Z,22,16,6+,29.91
LOWS,47.789,13.009,160,8,9.21,LOWS 080150Z AUTO 16008KT 9999 FEW050 17/16 Q1016,2024-08-08T01:50:00Z,17,16,6+,30.00
LOWL,48.233,14.188,240,2,2.3,LOWL 080150Z AUTO 24002KT 9999 FEW050 18/16 Q1015,2024-08-08T01:50:00Z,18,16,6+,29.97
LOWK,46.648,14.318,VRB,2,2.3,LOWK 080150Z AUTO VRB02KT 9999 -RA FEW003 17/17 Q1017,2024-08-08T01:50:00Z,17,17,6+,30.03
LOWI,47.26,11.344,VRB,2,2.3,LOWI 080150Z AUTO VRB02KT 9999 SCT020 16/15 Q1018,2024-08-08T01:50:00Z,16,15,6+,30.06
LOWG,46.997,15.447,270,3,3.45,LOWG 080150Z AUTO 27003KT 230V310 9999 -RA FEW070 18/17 Q1015,2024-08-08T01:50:00Z,18,17,6+,29.97
LLHA,32.809,35.043,VRB,2,2.3,LLHA 080150Z AUTO VRB02KT 9999 SCT027 27/23 Q1006,2024-08-08T01:50:00Z,27,23,6+,29.70
LLBG,32.011,34.887,160,5,5.75,LLBG 080150Z 16005KT 9999 SCT025 26/23 Q1007 NOSIG,2024-08-08T01:50:00Z,26,23,6+,29.73
LIRZ,43.097,12.51,VRB,2,2.3,LIRZ 080150Z AUTO VRB02KT 9999 // NCD 22/18 Q1013,2024-08-08T01:50:00Z,22,18,6+,29.91
LIRQ,43.81,11.205,VRB,2,2.3,LIRQ 080150Z VRB02KT CAVOK 22/16 Q1013,2024-08-08T01:50:00Z,22,16,6+,29.91
LIRN,40.885,14.292,VRB,2,2.3,LIRN 080150Z AUTO VRB02KT 9999 FEW017/// 26/20 Q1013,2024-08-08T01:50:00Z,26,20,6+,29.91
LIRF,41.8,12.239,VRB,1,1.15,LIRF 080150Z VRB01KT CAVOK 24/22 Q1012 NOSIG,2024-08-08T01:50:00Z,24,22,6+,29.88
LIRA,41.808,12.585,VRB,1,1.15,LIRA 080150Z VRB01KT CAVOK 25/23 Q1013,2024-08-08T01:50:00Z,25,23,6+,29.91
LIPZ,45.505,12.352,VRB,1,1.15,LIPZ 080150Z VRB01KT CAVOK 20/19 Q1012 NOSIG,2024-08-08T01:50:00Z,20,19,6+,29.88
LIPY,43.617,13.36,VRB,1,1.15,LIPY 080150Z AUTO VRB01KT 9999 FEW120/// 22/18 Q1013,2024-08-08T01:50:00Z,22,18,6+,29.91
LIPX,45.387,10.872,250,6,6.9,LIPX 080150Z 25006KT CAVOK 21/19 Q1012,2024-08-08T01:50:00Z,21,19,6+,29.88
LIPR,44.02,12.612,290,7,8.06,LIPR 080150Z AUTO 29007KT 9999 FEW047/// SCT130/// BKN170/// 24/18 Q1013,2024-08-08T01:50:00Z,24,18,6+,29.91
LIPQ,45.828,13.472,20,5,5.75,LIPQ 080150Z AUTO 02005KT 9999 SCT220/// 22/20 Q1012,2024-08-08T01:50:00Z,22,20,6+,29.88
LIPO,45.429,10.331,250,2,2.3,LIPO 080150Z AUTO 25002KT 1800 BR SCT002/// 20/20 Q1013,2024-08-08T01:50:00Z,20,20,1.12,29.91
LIPH,45.648,12.194,40,4,4.6,LIPH 080150Z AUTO 04004KT 9999 NCD 21/18 Q1012,2024-08-08T01:50:00Z,21,18,6+,29.88
LIPE,44.531,11.297,250,7,8.06,LIPE 080150Z AUTO 25007KT 9999 NCD 21/17 Q1013,2024-08-08T01:50:00Z,21,17,6+,29.91
LIMZ,44.547,7.623,VRB,1,1.15,LIMZ 080150Z AUTO VRB01KT 8000 NCD 17/17 Q1015,2024-08-08T01:50:00Z,17,17,4.97,29.97
LIML,45.461,9.263,260,3,3.45,LIML 080150Z AUTO 26003KT 230V300 9999 NCD 20/19 Q1013,2024-08-08T01:50:00Z,20,19,6+,29.91
LIMJ,44.413,8.838,50,4,4.6,LIMJ 080150Z 05004KT CAVOK 25/14 Q1012,2024-08-08T01:50:00Z,25,14,6+,29.88
LIMF,45.203,7.649,270,3,3.45,LIMF 080150Z 27003KT 240V310 CAVOK 19/17 Q1014,2024-08-08T01:50:00Z,19,17,6+,29.94
LIME,45.674,9.704,10,3,3.45,LIME 080150Z 01003KT CAVOK 20/18 Q1014 NOSIG,2024-08-08T01:50:00Z,20,18,6+,29.94
LIMC,45.631,8.728,VRB,1,1.15,LIMC 080150Z VRB01KT 9999 MIFG NSC 17/17 Q1014 NOSIG,2024-08-08T01:50:00Z,17,17,6+,29.94
LIEO,40.899,9.518,VRB,2,2.3,LIEO 080150Z VRB02KT CAVOK 26/18 Q1013,2024-08-08T01:50:00Z,26,18,6+,29.91
LIEE,39.243,9.06,350,7,8.06,LIEE 080150Z 35007KT CAVOK 23/22 Q1013,2024-08-08T01:50:00Z,23,22,6+,29.91
LIEA,40.631,8.289,VRB,1,1.15,LIEA 080150Z VRB01KT CAVOK 20/19 Q1013,2024-08-08T01:50:00Z,20,19,6+,29.91
LICR,38.072,15.654,360,10,11.51,LICR 080150Z AUTO 36010KT 9999 NCD 28/23 Q1012,2024-08-08T01:50:00Z,28,23,6+,29.88
LICJ,38.176,13.091,60,6,6.9,LICJ 080150Z 06006KT CAVOK 27/23 Q1012,2024-08-08T01:50:00Z,27,23,6+,29.88
LICD,35.498,12.618,290,4,4.6,LICD 080150Z 29004KT CAVOK 25/25 Q1013,2024-08-08T01:50:00Z,25,25,6+,29.91
LICC,37.467,15.064,20,3,3.45,LICC 080150Z 02003KT CAVOK 28/22 Q1012,2024-08-08T01:50:00Z,28,22,6+,29.88
LICB,36.994,14.606,60,4,4.6,LICB 080150Z AUTO 06004KT 9999 NCD 24/17 Q1013,2024-08-08T01:50:00Z,24,17,6+,29.91
LICA,38.908,16.242,240,4,4.6,LICA 080150Z AUTO 24004KT 190V270 9999 BKN018/// 27/24 Q1012,2024-08-08T01:50:00Z,27,24,6+,29.88
LIBR,40.658,17.951,280,2,2.3,LIBR 080150Z 28002KT CAVOK 25/20 Q1011,2024-08-08T01:50:00Z,25,20,6+,29.85
LIBP,42.432,14.181,330,4,4.6,LIBP 080150Z AUTO 33004KT 300V020 9999 SCT026/// 27/23 Q1013,2024-08-08T01:50:00Z,27,23,6+,29.91
LIBD,41.138,16.765,200,3,3.45,LIBD 080150Z 20003KT CAVOK 24/16 Q1011,2024-08-08T01:50:00Z,24,16,6+,29.85
LGZA,37.751,20.884,VRB,3,3.45,LGZA 080150Z VRB03KT 9999 FEW025 25/22 Q1010,2024-08-08T01:50:00Z,25,22,6+,29.82
LGTS,40.52,22.971,100,4,4.6,LGTS 080150Z 10004KT 9999 FEW030 24/16 Q1012 NOSIG,2024-08-08T01:50:00Z,24,16,6+,29.88
LGSR,36.399,25.479,300,10,11.51,LGSR 080150Z 30010KT CAVOK 26/16 Q1008,2024-08-08T01:50:00Z,26,16,6+,29.76
LGSO,37.422,24.95,350,8,9.21,LGSO 080150Z AUTO 35008KT //// // ////// 26/16 Q1010 RE//,2024-08-08T01:50:00Z,26,16,,29.82
LGSA,35.54,24.141,260,4,4.6,LGSA 080150Z 26004KT CAVOK 25/20 Q1010,2024-08-08T01:50:00Z,25,20,6+,29.82
LGRX,38.151,21.426,0,0,0.0,LGRX 080150Z 00000KT CAVOK 23/21 Q1011,2024-08-08T01:50:00Z,23,21,6+,29.85
LGRP,36.405,28.086,240,5,5.75,LGRP 080150Z 24005KT CAVOK 27/19 Q1004 NOSIG,2024-08-08T01:50:00Z,27,19,6+,29.65
LGPA,37.022,25.114,360,9,10.36,LGPA 080150Z AUTO 36009KT //// // ////// 25/19 Q1009 RE//,2024-08-08T01:50:00Z,25,19,,29.79
LGMK,37.435,25.348,350,10,11.51,LGMK 080150Z 35010KT CAVOK 24/17 Q1009,2024-08-08T01:50:00Z,24,17,6+,29.79
LGLM,39.917,25.236,50,6,6.9,LGLM 080150Z 05006KT CAVOK 25/15 Q1011,2024-08-08T01:50:00Z,25,15,6+,29.85
LGKZ,40.288,21.842,VRB,3,3.45,LGKZ 080150Z AUTO VRB03KT //// // ////// 19/10 Q1015 RE//,2024-08-08T01:50:00Z,19,10,,29.97
LGKO,36.801,27.091,350,10,11.51,LGKO 080150Z 35010KT CAVOK 25/17 Q1006,2024-08-08T01:50:00Z,25,17,6+,29.70
LGKL,37.068,22.026,VRB,2,2.3,LGKL 080150Z AUTO VRB02KT //// // ////// 22/18 Q1010 RE//,2024-08-08T01:50:00Z,22,18,,29.82
LGIR,35.337,25.173,0,0,0.0,LGIR 080150Z 00000KT CAVOK 25/20 Q1010 NOSIG,2024-08-08T01:50:00Z,25,20,6+,29.82
LGIO,39.696,20.823,VRB,1,1.15,LGIO 080150Z AUTO VRB01KT //// // ////// 18/16 Q1014 RE//,2024-08-08T01:50:00Z,18,16,,29.94
LGEL,38.064,23.556,VRB,1,1.15,LGEL 080150Z AUTO VRB01KT //// // ////// 26/14 Q1011 RE//,2024-08-08T01:50:00Z,26,14,,29.85
LGBL,39.22,22.794,250,5,5.75,LGBL 080150Z 25005KT 9999 FEW080 22/17 Q1012,2024-08-08T01:50:00Z,22,17,6+,29.88
LGAV,37.936,23.945,VRB,3,3.45,LGAV 080150Z VRB03KT CAVOK 26/11 Q1012 NOSIG,2024-08-08T01:50:00Z,26,11,6+,29.88
LGAL,40.856,25.945,0,0,0.0,LGAL 080150Z 00000KT CAVOK 21/15 Q1012,2024-08-08T01:50:00Z,21,15,6+,29.88
LGAD,37.923,21.287,0,0,0.0,LGAD 080150Z 00000KT CAVOK 22/21 Q1011,2024-08-08T01:50:00Z,22,21,6+,29.85
LCRA,34.59,32.988,260,3,3.45,LCRA 080150Z 26003KT CAVOK 24/23 Q1005,2024-08-08T01:50:00Z,24,23,6+,29.68
LCEN,35.155,33.496,0,0,0.0,LCEN 080150Z 00000KT 9999 FEW020 23/21 Q1006 NOSIG RMK RWY11R 28003KT RWY29R 00000KT RWY11L 00000KT,2024-08-08T01:50:00Z,23,21,6+,29.70
LATI,41.419,19.716,VRB,1,1.15,LATI 080150Z VRB01KT CAVOK 20/16 Q1011 NOSIG,2024-08-08T01:50:00Z,20,16,6+,29.85
KVQQ,30.2035,-81.8725,250,10,11.51,KVQQ 080150Z 25010G16KT 10SM BKN065 29/24 A2964,2024-08-08T01:50:00Z,29,24,10+,29.64
KUCY,36.3778,-88.9878,350,5,5.75,KUCY 080150Z AUTO 35005KT 10SM CLR 22/22 A2982 RMK A01,2024-08-08T01:50:00Z,22,22,10+,29.82
KSUT,33.9292,-78.0722,130,15,17.26,KSUT 080150Z AUTO 13015G22KT 7SM SCT012 BKN018 OVC024 26/25 A2956 RMK AO2 P0001 T02630245,2024-08-08T01:50:00Z,26.3,24.5,7,29.56
KSUA,27.1815,-80.2252,180,9,10.36,KSUA 080150Z 18009KT 5SM HZ SCT024 28/25 A2975,2024-08-08T01:50:00Z,28,25,5,29.75
KSNH,35.1731,-88.2146,0,0,0.0,KSNH 080150Z AUTO 00000KT 10SM 22/22 A2978 RMK A01,2024-08-08T01:50:00Z,22,22,10+,29.78
KRKW,35.922,-84.689,350,5,5.75,KRKW 080150Z AUTO 35005KT 10SM CLR 26/23 A2981 RMK A01,2024-08-08T01:50:00Z,26,23,10+,29.81
KRCZ,34.8955,-79.7576,30,9,10.36,KRCZ 080150Z AUTO 03009G16KT 10SM SCT004 SCT029 SCT037 25/23 A2967 RMK AO2 T02450229,2024-08-08T01:50:00Z,24.5,22.9,10+,29.67
KQFW,-99.99,-99.99,210,4,4.6,KQFW 080150Z AUTO 21004KT 9999 FEW038 SCT045 BKN220 29/25 A2956 RMK A02 TSNO,2024-08-08T01:50:00Z,29,25,6+,29.56
KQEY,-99.99,-99.99,290,2,2.3,KQEY 080150Z AUTO 29002KT 9999 FEW150 30/24 A2944 RMK A02 TSNO,2024-08-08T01:50:00Z,30,24,6+,29.44
KQER,-99.99,-99.99,230,1,1.15,KQER 080150Z AUTO 23001KT 9999 FEW018 BKN031 BKN050 28/25 A2968 RMK A02 TSNO,2024-08-08T01:50:00Z,28,25,6+,29.68
KQEL,-99.99,-99.99,230,1,1.15,KQEL 080150Z AUTO 23001KT 9999 BKN210 29/25 A2970 RMK A02 TSNO,2024-08-08T01:50:00Z,29,25,6+,29.70
KPGV,35.6374,-77.3851,60,7,8.06,KPGV 080150Z AUTO 06007KT 10SM -RA SCT012 BKN024 OVC070 25/25 A2978 RMK AO2 P0015 TSNO,2024-08-08T01:50:00Z,25,25,10+,29.78
KNQA,35.3619,-89.8612,0,0,0.0,KNQA 080150Z 00000KT 10SM CLR 26/20 A2982,2024-08-08T01:50:00Z,26,20,10+,29.82
KMWK,36.4568,-80.5548,60,7,8.06,KMWK 080150Z AUTO 06007KT 10SM SCT120 24/22 A2987 RMK AO2 T02380223,2024-08-08T01:50:00Z,23.8,22.3,10+,29.87
KMRC,35.5579,-87.1778,VRB,3,3.45,KMRC 080150Z AUTO VRB03KT 10SM CLR 25/22 A2979 RMK A01,2024-08-08T01:50:00Z,25,22,10+,29.79
KMMU,40.7989,-74.4164,40,5,5.75,KMMU 080150Z 04005KT 8SM -RA OVC008 19/19 A3006,2024-08-08T01:50:00Z,19,19,8,30.06
KMCC,38.678,-121.403,190,11,12.66,KMCC 080150Z AUTO 19011KT 10SM CLR 35/09 A2980 RMK AO2 PWINO,2024-08-08T01:50:00Z,35,9,10+,29.80
KM54,36.1932,-86.3139,330,4,4.6,KM54 080150Z AUTO 33004KT 7SM FEW029 SCT038 BKN060 25/23 A2978 RMK A01,2024-08-08T01:50:00Z,25,23,7,29.78
KM04,35.5819,-89.5858,340,6,6.9,KM04 080150Z AUTO 34006KT 10SM FEW049 21/21 A2982 RMK A01,2024-08-08T01:50:00Z,21,21,10+,29.82
KJAU,36.3351,-84.1635,0,0,0.0,KJAU 080150Z AUTO 00000KT 10SM CLR 27/23 A2982 RMK A01,2024-08-08T01:50:00Z,27,23,10+,29.82
KHSA,30.3765,-89.4554,0,0,0.0,KHSA 080150Z 00000KT 7SM CLR 27/24 A2975,2024-08-08T01:50:00Z,27,24,7,29.75
KHRJ,35.3794,-78.7356,70,10,11.51,KHRJ 080150Z AUTO 07010G20KT 7SM RA SCT018 SCT045 OVC110 25/24 A2973 RMK AO2 P0003 T02480241,2024-08-08T01:50:00Z,24.8,24.1,7,29.73
KGWW,35.4637,-77.9604,70,9,10.36,KGWW 080150Z AUTO 07009G14KT 3SM BKN007 BKN012 OVC040 24/24 A2976 RMK AO2 P0013 T02440244,2024-08-08T01:50:00Z,24.4,24.4,3,29.76
KGRY,27.6247,-90.4411,310,10,11.51,KGRY 080150Z AUTO 31010G16KT 10SM SCT055 30/24 A2981 RMK A01,2024-08-08T01:50:00Z,30,24,10+,29.81
KGPM,32.6928,-97.0485,160,6,6.9,KGPM 080150Z 16006KT 10SM SKC 34/17 A2980,2024-08-08T01:50:00Z,34,17,10+,29.80
KGLX,28.2347,-88.9843,260,7,8.06,KGLX 080150Z AUTO 26007G15KT 10SM CLR A2979 RMK A01,2024-08-08T01:50:00Z,,,10+,29.79
KFOT,40.5529,-124.134,310,8,9.21,KFOT 080150Z AUTO 31008KT 5SM CLR 13/13 A2996 RMK AO1,2024-08-08T01:50:00Z,13,13,5,29.96
KFFA,36.0165,-75.6739,90,6,6.9,KFFA 080150Z AUTO 09006KT 5SM SCT033 SCT040 SCT048 24/24 A2983 RMK AO2 T02350235,2024-08-08T01:50:00Z,23.5,23.5,5,29.83
KF45,26.8419,-80.224,200,3,3.45,KF45 080150Z AUTO 20003KT 10SM SCT023 BKN032 BKN038 27/25 A2977 RMK AO2,2024-08-08T01:50:00Z,27,25,10+,29.77
KEYF,34.6042,-78.579,70,7,8.06,KEYF 080150Z AUTO 07007G17KT 3/4SM +TSRA BR OVC005 25/24 A2960 RMK AO2 LTG DSNT ALQDS P0198 T02460241,2024-08-08T01:50:00Z,24.6,24.1,0.75,29.60
KEVB,29.0568,-80.9491,250,8,9.21,KEVB 080150Z 25008KT 10SM SCT080 29/23 A2968 RMK LAST,2024-08-08T01:50:00Z,29,23,10+,29.68
KEDE,36.0286,-76.5668,110,12,13.81,KEDE 080150Z AUTO 11012G16KT 070V130 7SM DZ SCT011 BKN016 OVC038 27/27 A2983 RMK AO2 P0002 T02700270,2024-08-08T01:50:00Z,27,27,7,29.83
KDAG,34.8537,-116.787,260,19,21.86,KDAG 080150Z AUTO 26019G26KT 10SM CLR 41/05 A2983 RMK AO2 PK WND 26026/0138 SLP065 T04110050,2024-08-08T01:50:00Z,41.1,5,10+,29.83
KCGS,38.9806,-76.9251,140,5,5.75,KCGS 080150Z AUTO 14005KT 2SM +RA BR BKN007 OVC019 24/24 A2993 RMK AO2 VIS 1 1/4V5 P0018 T02440236,2024-08-08T01:50:00Z,24.4,23.6,2,29.93
KALN,38.8897,-90.0316,350,4,4.6,KALN 080150Z 35004KT 10SM SCT023 OVC041 23/19 A2991,2024-08-08T01:50:00Z,23,19,10+,29.91
KAFP,35.0194,-80.0784,20,8,9.21,KAFP 080150Z AUTO 02008KT 10SM SCT046 26/23 A2970 RMK AO2 T02600231,2024-08-08T01:50:00Z,26,23.1,10+,29.70
K24A,35.3156,-83.2071,0,0,0.0,K24A 080150Z AUTO 00000KT 10SM SCT100 23/20 A2988 RMK AO2 LTG DSNT SE T02300197,2024-08-08T01:50:00Z,23,19.7,10+,29.88
FHAW,-7.97,-14.394,150,10,11.51,FHAW 080150Z 15010KT 9999 FEW029 23/18 Q1015 NOSIG RMK BLU BLU,2024-08-08T01:50:00Z,23,18,6+,29.97
EYVI,54.634,25.286,200,3,3.45,EYVI 080150Z 20003KT 0200 R19/0800N FG NSC 13/13 Q1014 NOSIG,2024-08-08T01:50:00Z,13,13,0.12,29.94
EYSA,55.894,23.395,VRB,2,2.3,EYSA 080150Z VRB02KT CAVOK 13/12 Q1014 NOSIG,2024-08-08T01:50:00Z,13,12,6+,29.94
EYPA,55.973,21.092,110,5,5.75,EYPA 080150Z 11005KT CAVOK 16/13 Q1013,2024-08-08T01:50:00Z,16,13,6+,29.91
EYKA,54.962,24.069,0,0,0.0,EYKA 080150Z 00000KT 2900 BR SCT002 13/12 Q1014,2024-08-08T01:50:00Z,13,12,1.8,29.94
EVVA,57.361,21.545,0,0,0.0,EVVA 080150Z AUTO 00000KT 0400 FG NSC 12/12 Q1013,2024-08-08T01:50:00Z,12,12,0.25,29.91
EVRA,56.924,23.968,0,0,0.0,EVRA 080150Z 00000KT 0600 0350 R36/0400U PRFG BKN001 12/12 Q1013 NOSIG,2024-08-08T01:50:00Z,12,12,0.37,29.91
EVLA,56.517,21.097,80,4,4.6,EVLA 080150Z AUTO 08004KT CAVOK 14/13 Q1013,2024-08-08T01:50:00Z,14,13,6+,29.91
EVGA,56.778,24.854,0,0,0.0,EVGA 080150Z 00000KT 9999 PRFG NSC 12/12 Q1013 NOSIG,2024-08-08T01:50:00Z,12,12,6+,29.91
ETNG,50.964,6.032,220,3,3.45,ETNG 080150Z 22003KT CAVOK 17/12 Q1015,2024-08-08T01:50:00Z,17,12,6+,29.97
ESUT,65.806,15.083,130,11,12.66,ESUT 080150Z AUTO 13011KT 100V160 9999 SCT018/// OVC027/// 16/13 Q1009,2024-08-08T01:50:00Z,16,13,6+,29.79
ESUP,67.246,23.069,VRB,2,2.3,ESUP 080150Z AUTO VRB02KT 9999 NCD 05/05 Q1015,2024-08-08T01:50:00Z,5,5,6+,29.97
ESTL,56.083,13.213,120,3,3.45,ESTL 080150Z AUTO 12003KT 9999 -RA FEW070/// SCT090/// 17/17 Q1010,2024-08-08T01:50:00Z,17,17,6+,29.82
ESTA,56.294,12.848,130,5,5.75,ESTA 080150Z AUTO 13005KT 9999 FEW013/// BKN082/// OVC100/// 17/16 Q1010,2024-08-08T01:50:00Z,17,16,6+,29.82
ESSV,57.662,18.348,150,4,4.6,ESSV 080150Z AUTO 15004KT 4400 BR NCD 15/15 Q1013,2024-08-08T01:50:00Z,15,15,2.73,29.91
ESST,60.158,12.992,140,5,5.75,ESST 080150Z AUTO 14005KT 9999 -RA OVC049/// 18/16 Q1009,2024-08-08T01:50:00Z,18,16,6+,29.79
ESSP,58.584,16.255,160,5,5.75,ESSP 080150Z 16005KT CAVOK 17/16 Q1011,2024-08-08T01:50:00Z,17,16,6+,29.85
ESSL,58.406,15.681,140,5,5.75,ESSL 080150Z AUTO 14005KT 9999 SCT100/// BKN190/// 16/15 Q1011,2024-08-08T01:50:00Z,16,15,6+,29.85
ESSD,60.422,15.515,VRB,3,3.45,ESSD 080150Z AUTO VRB03KT 9999 OVC150/// 16/15 Q1010,2024-08-08T01:50:00Z,16,15,6+,29.82
ESSB,59.356,17.933,130,4,4.6,ESSB 080150Z AUTO 13004KT 9999 BKN130/// BKN150/// 18/17 Q1012,2024-08-08T01:50:00Z,18,17,6+,29.88
ESSA,59.664,17.92,130,5,5.75,ESSA 080150Z 13005KT CAVOK 16/16 Q1012 NOSIG,2024-08-08T01:50:00Z,16,16,6+,29.88
ESPA,65.541,22.126,330,2,2.3,ESPA 080150Z AUTO 33002KT 9999 NCD 12/12 Q1014,2024-08-08T01:50:00Z,12,12,6+,29.94
ESOW,59.595,16.638,VRB,3,3.45,ESOW 080150Z AUTO VRB03KT 9999 FEW160/// 18/16 Q1011,2024-08-08T01:50:00Z,18,16,6+,29.85
ESOK,59.442,13.342,170,5,5.75,ESOK 080150Z AUTO 17005KT 9999 SCT056/// BKN076/// 19/17 Q1009,2024-08-08T01:50:00Z,19,17,6+,29.79
ESOH,60.02,13.579,180,3,3.45,ESOH 080150Z AUTO 18003KT 150V230 9999 BKN049/// OVC068/// 17/17 Q1009,2024-08-08T01:50:00Z,17,17,6+,29.79
ESOE,59.229,15.046,VRB,2,2.3,ESOE 080150Z AUTO VRB02KT 9000 FEW053/// 15/15 Q1010,2024-08-08T01:50:00Z,15,15,5.59,29.82
ESNZ,63.199,14.489,130,10,11.51,ESNZ 080150Z AUTO 13010KT 9999 FEW013/// OVC160/// 16/15 Q1009,2024-08-08T01:50:00Z,16,15,6+,29.79
ESNX,65.592,19.283,100,3,3.45,ESNX 080150Z AUTO 10003KT 9999 BKN090/// 12/12 Q1013,2024-08-08T01:50:00Z,12,12,6+,29.91
ESNV,64.579,16.839,110,5,5.75,ESNV 080150Z AUTO 11005KT 9999 SCT062/// OVC076/// ///// Q1011,2024-08-08T01:50:00Z,,,6+,29.85
ESNU,63.789,20.285,290,3,3.45,ESNU 080150Z 29003KT 9999 BCFG NSC 09/08 Q1013,2024-08-08T01:50:00Z,9,8,6+,29.91
ESNS,64.625,21.077,270,2,2.3,ESNS 080150Z AUTO 27002KT 0150 R10/0300N R28/P2000N BCFG NCD 10/10 Q1013,2024-08-08T01:50:00Z,10,10,0.09,29.91
ESNQ,67.823,20.34,180,3,3.45,ESNQ 080150Z AUTO 18003KT 9999 NCD 11/09 Q1013,2024-08-08T01:50:00Z,11,9,6+,29.91
ESNO,63.412,18.98,VRB,2,2.3,ESNO 080150Z AUTO VRB02KT 0100 R12///// R30/0350N FG NCD 14/14 Q1013,2024-08-08T01:50:00Z,14,14,0.06,29.91
ESNN,62.532,17.436,90,5,5.75,ESNN 080150Z AUTO 09005KT 9999 BKN012/// BKN015/// 18/16 Q1011,2024-08-08T01:50:00Z,18,16,6+,29.85
ESNL,64.552,18.711,120,7,8.06,ESNL 080150Z AUTO 12007KT 9999 NCD 14/14 Q1013,2024-08-08T01:50:00Z,14,14,6+,29.91
ESNK,63.047,17.766,0,0,0.0,ESNK 080150Z AUTO 00000KT 9999 R17///// R35///// BKN013/// BKN082/// OVC110/// 16/15 Q1012,2024-08-08T01:50:00Z,16,15,6+,29.88
ESNG,67.133,20.81,0,0,0.0,ESNG 080150Z AUTO 00000KT 9999 BR NCD 07/06 Q1014,2024-08-08T01:50:00Z,7,6,6+,29.94
ESND,62.047,14.416,120,5,5.75,ESND 080150Z AUTO 12005KT 090V150 9999 FEW010/// BKN060/// 16/15 Q1009,2024-08-08T01:50:00Z,16,15,6+,29.79
ESMX,56.927,14.73,150,4,4.6,ESMX 080150Z AUTO 15004KT 100V190 9999 BKN004/// 17/17 Q1011,2024-08-08T01:50:00Z,17,17,6+,29.85
ESMV,57.29,14.134,VRB,2,2.3,ESMV 080150Z AUTO VRB02KT 9999 NCD 14/13 Q1011,2024-08-08T01:50:00Z,14,13,6+,29.85
ESMT,56.691,12.82,130,4,4.6,ESMT 080150Z AUTO 13004KT 9999 BKN014/// OVC088/// 19/16 Q1010,2024-08-08T01:50:00Z,19,16,6+,29.82
ESMS,55.539,13.373,0,0,0.0,ESMS 080150Z 00000KT 9999 -DZ FEW008 18/17 Q1010,2024-08-08T01:50:00Z,18,17,6+,29.82
ESMQ,56.685,16.284,130,3,3.45,ESMQ 080150Z AUTO 13003KT 9999 SCT056/// 14/14 Q1012,2024-08-08T01:50:00Z,14,14,6+,29.88
ESMK,55.922,14.085,0,0,0.0,ESMK 080150Z AUTO 00000KT 0300 R01/1400D R19/1000N BKN001/// OVC080/// 15/15 Q1010,2024-08-08T01:50:00Z,15,15,0.19,29.82
ESKS,61.165,12.834,130,10,11.51,ESKS 080150Z AUTO 13010KT 9999 FEW009/// BKN014/// OVC025/// 15/14 Q1008,2024-08-08T01:50:00Z,15,14,6+,29.76
ESKN,58.786,16.918,150,5,5.75,ESKN 080150Z 15005KT CAVOK 18/17 Q1011,2024-08-08T01:50:00Z,18,17,6+,29.85
ESKM,60.96,14.507,130,6,6.9,ESKM 080150Z AUTO 13006KT 9999 SCT041/// OVC100/// 17/17 Q1009,2024-08-08T01:50:00Z,17,17,6+,29.79
ESIB,58.431,12.71,180,6,6.9,ESIB 080150Z AUTO 18006KT 9999 -RA OVC066/// 18/16 Q1009,2024-08-08T01:50:00Z,18,16,6+,29.79
ESIA,58.514,14.507,210,8,9.21,ESIA 080150Z AUTO 21008KT 9999 FEW035/// 18/16 Q1010,2024-08-08T01:50:00Z,18,16,6+,29.82
ESGT,58.314,12.347,230,6,6.9,ESGT 080150Z AUTO 23006KT 9999 RA FEW011/// BKN014/// OVC018/// 18/16 Q1009 RERA,2024-08-08T01:50:00Z,18,16,6+,29.79
ESGP,57.781,11.869,VRB,3,3.45,ESGP 080150Z AUTO VRB03KT 9999 FEW014/// BKN037/// OVC049/// 15/13 Q1009,2024-08-08T01:50:00Z,15,13,6+,29.79
ESGJ,57.752,14.069,160,5,5.75,ESGJ 080150Z AUTO 16005KT 9999 NCD 15/15 Q1010,2024-08-08T01:50:00Z,15,15,6+,29.82
ESGG,57.667,12.285,260,5,5.75,ESGG 080150Z 26005KT 6000 -RA SCT002 BKN004 OVC007 16/16 Q1009,2024-08-08T01:50:00Z,16,16,3.73,29.79
ESDF,56.266,15.267,110,4,4.6,ESDF 080150Z AUTO 11004KT 9999 FEW092/// 17/17 Q1011,2024-08-08T01:50:00Z,17,17,6+,29.85
ESCM,59.899,17.589,,,,ESCM 080150Z AUTO /////KT 9999 FEW130/// SCT180/// 16/16 Q1012,2024-08-08T01:50:00Z,16,16,6+,29.88
ESCF,58.398,15.526,180,2,2.3,ESCF 080150Z AUTO 18002KT 9999 FEW110/// 15/15 Q1011,2024-08-08T01:50:00Z,15,15,6+,29.85
ENZV,58.884,5.637,180,9,10.36,ENZV 080150Z AUTO 18009KT 9999 FEW023/// BKN053/// BKN086/// 15/13 Q1006,2024-08-08T01:50:00Z,15,13,6+,29.70
ENWV,56.278,3.395,240,22,25.32,ENWV 080150Z AUTO 24022KT 9999NDV FEW020/// BKN073/// 16/13 Q1008 W///S4,2024-08-08T01:50:00Z,16,13,,29.76
ENVD,70.065,29.835,360,4,4.6,ENVD 080150Z AUTO 36004KT 9999 NCD 12/07 Q1015,2024-08-08T01:50:00Z,12,7,6+,29.97
ENVA,63.46,10.931,90,8,9.21,ENVA 080150Z AUTO 09008KT 050V120 9999 -RA FEW085/// BKN100/// 19/15 Q1003 RMK WIND 670FT 13011KT,2024-08-08T01:50:00Z,19,15,6+,29.62
ENUN,-99.99,-99.99,260,13,14.96,ENUN 080150Z AUTO 26013KT 9999 SCT046/// OVC079/// 15/14 Q1001 W15/S3,2024-08-08T01:50:00Z,15,14,6+,29.56
ENUG,71.305,22.253,160,22,25.32,ENUG 080150Z AUTO 16022KT 9999NDV NCD 20/08 Q1009 W///S4,2024-08-08T01:50:00Z,20,8,,29.79
ENTO,59.184,10.255,220,4,4.6,ENTO 080150Z AUTO 22004KT 9999 NCD 13/13 Q1008,2024-08-08T01:50:00Z,13,13,6+,29.76
ENTC,69.675,18.916,VRB,2,2.3,ENTC 080150Z AUTO VRB02KT 9999 NCD 16/09 Q1009 RMK WIND 2600FT 18025KT,2024-08-08T01:50:00Z,16,9,6+,29.79
ENSS,70.355,31.044,220,9,10.36,ENSS 080150Z AUTO 22009KT 9999 NCD 16/08 Q1015 RMK WIND 0500FT 23015KT,2024-08-08T01:50:00Z,16,8,6+,29.97
ENSR,69.789,20.955,VRB,2,2.3,ENSR 080150Z AUTO VRB02KT 9999 NCD 17/09 Q1010 RMK WIND RWY 32 VRB02KT WIND 1119FT 14010KT,2024-08-08T01:50:00Z,17,9,6+,29.82
ENSL,58.367,1.907,220,25,28.77,ENSL 080150Z AUTO 22025KT CAVOK 15/12 Q1003 W14/S4,2024-08-08T01:50:00Z,15,12,6+,29.62
ENSK,68.58,15.029,140,10,11.51,ENSK 080150Z AUTO 14010KT 9999 FEW066/// 20/12 Q1007,2024-08-08T01:50:00Z,20,12,6+,29.73
ENSH,68.245,14.669,120,10,11.51,ENSH 080150Z AUTO 12010KT 9999 SCT061/// 21/12 Q1006 RMK WIND 0150FT /////KT,2024-08-08T01:50:00Z,21,12,6+,29.70
ENSG,61.158,7.141,0,0,0.0,ENSG 080150Z AUTO 00000KT 9999 SCT053/// BKN070/// 11/08 Q1005 RMK WIND 3806FT 18015KT,2024-08-08T01:50:00Z,11,8,6+,29.68
ENSF,61.25,1.85,210,29,33.37,ENSF 080150Z AUTO 21029KT 9999 FEW015/// BKN075/// 15/12 Q0998 W///S4,2024-08-08T01:50:00Z,15,12,6+,29.47
ENSE,61.45,2.15,170,23,26.47,ENSE 080150Z AUTO 17023KT 9999 FEW048/// BKN073/// 15/12 Q0998 W///S4,2024-08-08T01:50:00Z,15,12,6+,29.47
ENSD,61.829,6.104,200,2,2.3,ENSD 080150Z AUTO 20002KT 9999 OVC051/// 16/09 Q1003 RMK WIND RWY 26 VRB02KT WIND 1140FT 18003KT,2024-08-08T01:50:00Z,16,9,6+,29.62
ENSB,78.246,15.466,0,0,0.0,ENSB 080150Z 00000KT 9999 FEW035 BKN091 11/10 Q1007 RMK WIND 1400FT 22008KT,2024-08-08T01:50:00Z,11,10,6+,29.73
ENRY,59.381,10.783,180,4,4.6,ENRY 080150Z AUTO 18004KT 9999 NCD 15/13 Q1008,2024-08-08T01:50:00Z,15,13,6+,29.76
ENRS,67.527,12.104,140,10,11.51,ENRS 080150Z AUTO 14010KT 9999 SCT053/// OVC108/// 18/14 Q1005,2024-08-08T01:50:00Z,18,14,6+,29.68
ENRO,62.578,11.342,140,11,12.66,ENRO 080150Z AUTO 14011KT 6000 RA FEW039/// SCT055/// OVC074/// 15/13 Q1006,2024-08-08T01:50:00Z,15,13,3.73,29.70
ENRM,64.835,11.141,VRB,2,2.3,ENRM 080150Z AUTO VRB02KT 9999 SCT086/// 16/15 Q1004,2024-08-08T01:50:00Z,16,15,6+,29.65
ENRA,66.364,14.302,110,5,5.75,ENRA 080150Z AUTO 11005KT 070V200 9999 OVC063/// 19/14 Q1007,2024-08-08T01:50:00Z,19,14,6+,29.73
ENQR,61.53,2.22,170,26,29.92,ENQR 080150Z AUTO 17026KT CAVOK 15/13 Q0998 W25/S5,2024-08-08T01:50:00Z,15,13,6+,29.47
ENQC,60.886,3.61,170,23,26.47,ENQC 080150Z AUTO 17023KT 9999 SCT012/// SCT047/// BKN091/// 15/13 Q1000 W///S4,2024-08-08T01:50:00Z,15,13,6+,29.53
ENQA,60.645,3.725,170,27,31.07,ENQA 080150Z AUTO 17027KT 9999 BKN012/// 15/13 Q1001 W///S4,2024-08-08T01:50:00Z,15,13,6+,29.56
ENOV,62.18,6.078,VRB,2,2.3,ENOV 080150Z AUTO VRB02KT 9999 FEW064/// 17/07 Q1002 RMK WIND RWY 24 07008KT WIND 2090FT 17024KT,2024-08-08T01:50:00Z,17,7,6+,29.59
ENOL,63.703,9.609,340,7,8.06,ENOL 080150Z 34007KT 9999 -SHRA BKN010 16/15 Q1003,2024-08-08T01:50:00Z,16,15,6+,29.62
ENOA,60.492,2.827,200,25,28.77,ENOA 080150Z 20025KT 9999 FEW020 BKN070 15/13 Q1001 W///S4,2024-08-08T01:50:00Z,15,13,6+,29.56
ENNM,64.471,11.57,80,13,14.96,ENNM 080150Z AUTO 08013KT 9999 OVC092/// 19/14 Q1004,2024-08-08T01:50:00Z,19,14,6+,29.65
ENNE,66.03,8.08,40,1,1.15,ENNE 080150Z AUTO 04001KT 9999 FEW031/// SCT060/// BKN110/// 16/14 Q1001 W///S3,2024-08-08T01:50:00Z,16,14,6+,29.56
ENNA,70.059,24.971,180,13,14.96,ENNA 080150Z AUTO 18013KT 9999 NCD 14/06 Q1013 RMK WIND 1800FT 23015KT,2024-08-08T01:50:00Z,14,6,6+,29.91
ENMS,65.784,13.218,0,0,0.0,ENMS 080150Z AUTO 00000KT 9999 OVC051/// 17/14 Q1006 RMK WIND 412FT VRB03KT,2024-08-08T01:50:00Z,17,14,6+,29.70
ENML,62.744,7.262,360,7,8.06,ENML 080150Z AUTO 36007KT 9999NDV NCD 14/13 Q1003,2024-08-08T01:50:00Z,14,13,,29.62
ENMH,71.029,27.829,160,10,11.51,ENMH 080150Z AUTO 16010KT 9999 NCD 16/08 Q1013,2024-08-08T01:50:00Z,16,8,6+,29.91
ENLE,56.535,3.205,240,23,26.47,ENLE 080150Z 24023KT 9999 SCT020 16/12 Q1007 W17/S4,2024-08-08T01:50:00Z,16,12,6+,29.73
ENLA,57.111,2.846,220,22,25.32,ENLA 080150Z AUTO 22022KT 9999NDV FEW016/// SCT050/// 16/13 Q1006 W///S4,2024-08-08T01:50:00Z,16,13,,29.70
ENKR,69.725,29.898,170,5,5.75,ENKR 080150Z AUTO 17005KT 9999 NCD 12/08 Q1016 RMK WIND 731FT 22006KT,2024-08-08T01:50:00Z,12,8,6+,30.00
ENKB,63.109,7.816,90,8,9.21,ENKB 080150Z AUTO 09008KT 9999 FEW018/// BKN053/// BKN066/// 14/12 Q1003 RMK WIND 745FT 09016KT,2024-08-08T01:50:00Z,14,12,6+,29.62
ENJS,58.835,2.545,220,23,26.47,ENJS 080150Z 22023KT CAVOK 15/12 Q1003 W15/S5,2024-08-08T01:50:00Z,15,12,6+,29.62
ENHV,71.009,25.982,200,9,10.36,ENHV 080150Z AUTO 20009KT 160V230 9999 NCD 17/09 Q1013,2024-08-08T01:50:00Z,17,9,6+,29.91
ENHK,70.487,22.14,120,6,6.9,ENHK 080150Z AUTO 12006KT 080V140 9999 NCD 17/10 Q1010,2024-08-08T01:50:00Z,17,10,6+,29.82
ENHF,70.681,23.677,240,5,5.75,ENHF 080150Z AUTO 24005KT 200V260 9999 NCD 19/08 Q1011 RMK WIND 1254FT 19017KT,2024-08-08T01:50:00Z,19,8,6+,29.85
ENHE,65.325,2.327,200,11,12.66,ENHE 080150Z 20011KT 9999 -RA BKN045 14/13 Q1003 W///S3,2024-08-08T01:50:00Z,14,13,6+,29.62
ENHD,59.341,5.22,190,14,16.11,ENHD 080150Z AUTO 19014KT 9999 SCT015/// BKN051/// BKN080/// 16/13 Q1005,2024-08-08T01:50:00Z,16,13,6+,29.68
ENGM,60.201,11.08,170,8,9.21,ENGM 080150Z 17008KT 9999 SCT005 16/15 Q1007,2024-08-08T01:50:00Z,16,15,6+,29.73
ENGC,61.033,2.033,190,25,28.77,ENGC 080150Z 19025KT 9999 FEW016 BKN075 15/12 Q0999 W13/S5,2024-08-08T01:50:00Z,15,12,6+,29.50
ENFL,61.582,5.02,180,17,19.56,ENFL 080150Z AUTO 18017KT 6000NDV +SHRA VV/// 14/12 Q1003,2024-08-08T01:50:00Z,14,12,,29.62
ENFB,61.206,1.829,200,25,28.77,ENFB 080150Z AUTO 20025KT 9999 FEW017/// BKN075/// 15/12 Q0997 W///S4,2024-08-08T01:50:00Z,15,12,6+,29.44
ENDU,69.058,18.544,VRB,2,2.3,ENDU 080150Z VRB02KT CAVOK 10/09 Q1010 RMK WIND 1100FT 09003KT WIND 2200FT 15018KT,2024-08-08T01:50:00Z,10,9,6+,29.82
ENCN,58.2,8.077,50,6,6.9,ENCN 080150Z AUTO 05006KT 0250 R03/0700N R21/1000N FG VV000 12/11 Q1008,2024-08-08T01:50:00Z,12,11,0.16,29.76
ENBV,70.871,29.032,250,8,9.21,ENBV 080150Z AUTO 25008KT 9999 NCD 17/05 Q1014,2024-08-08T01:50:00Z,17,5,6+,29.94
ENBS,70.601,29.698,210,10,11.51,ENBS 080150Z AUTO 21010KT 9999 NCD 17/05 Q1015,2024-08-08T01:50:00Z,17,5,6+,29.97
ENBR,60.29,5.222,160,18,20.71,ENBR 080150Z 16018KT 9999 SHRA FEW017CB SCT027 BKN042 15/15 Q1004 RMK WIND 1200FT 18020KT,2024-08-08T01:50:00Z,15,15,6+,29.65
ENBO,67.267,14.359,120,12,13.81,ENBO 080150Z AUTO 12012G23KT 090V150 9999 BKN064/// 20/13 Q1006,2024-08-08T01:50:00Z,20,13,6+,29.70
ENBN,65.458,12.216,130,13,14.96,ENBN 080150Z 13013KT 090V170 CAVOK 19/14 Q1004,2024-08-08T01:50:00Z,19,14,6+,29.65
ENBL,61.391,5.76,VRB,2,2.3,ENBL 080150Z AUTO VRB02KT 9999 -DZ NCD 13/09 Q1004,2024-08-08T01:50:00Z,13,9,6+,29.65
ENAT,69.978,23.358,140,5,5.75,ENAT 080150Z AUTO 14005KT 9999 NCD 15/08 Q1012 RMK WIND 700FT 18009KT,2024-08-08T01:50:00Z,15,8,6+,29.88
ENAN,69.307,16.131,160,12,13.81,ENAN 080150Z AUTO 16012KT 9999 NCD 18/10 Q1008,2024-08-08T01:50:00Z,18,10,6+,29.76
ENAL,62.562,6.115,120,4,4.6,ENAL 080150Z AUTO 12004KT 050V210 9999 -RA FEW036/// SCT064/// BKN078/// 16/11 Q1002,2024-08-08T01:50:00Z,16,11,6+,29.59
ELLX,49.626,6.204,300,5,5.75,ELLX 080150Z AUTO 30005KT 270V360 9999 NCD 17/10 Q1016 NOSIG,2024-08-08T01:50:00Z,17,10,6+,30.00
EKYT,57.093,9.879,180,3,3.45,EKYT 080150Z AUTO 18003KT 9999 NCD 15/14 Q1010,2024-08-08T01:50:00Z,15,14,6+,29.82
EKVJ,55.991,8.354,230,6,6.9,EKVJ 080150Z AUTO 23006KT 190V260 9999 SCT021/// SCT043/// OVC051/// 16/13 Q1010,2024-08-08T01:50:00Z,16,13,6+,29.82
EKVG,62.065,-7.282,300,3,3.45,EKVG 080150Z AUTO 30003KT 9999 FEW026/// BKN065/// 09/08 Q0992 RMK FEW021/// FEW067/// SCT140/// WIND SKEID 29011KT,2024-08-08T01:50:00Z,9,8,6+,29.29
EKVD,55.436,9.329,200,4,4.6,EKVD 080150Z AUTO 20004KT //// ///////// 12/12 Q1012,2024-08-08T01:50:00Z,12,12,,29.88
EKSP,55.225,9.263,180,4,4.6,EKSP 080150Z 18004KT 9999 MIFG NSC 12/12 Q1012 RMK FEW058,2024-08-08T01:50:00Z,12,12,6+,29.88
EKSB,54.962,9.787,210,3,3.45,EKSB 080150Z AUTO 21003KT 9999 NCD 14/13 Q1012,2024-08-08T01:50:00Z,14,13,6+,29.88
EKRS,55.426,11.807,280,4,4.6,EKRS 080150Z AUTO 28004KT 210V330 9999 NCD 17/17 Q1011,2024-08-08T01:50:00Z,17,17,6+,29.85
EKRN,55.068,14.749,90,4,4.6,EKRN 080150Z AUTO 09004KT 9999 FEW064/// BKN087/// 19/18 Q1010,2024-08-08T01:50:00Z,19,18,6+,29.82
EKRK,55.587,12.136,270,5,5.75,EKRK 080150Z AUTO 27005KT 9999 FEW010/// FEW031/// OVC056/// 17/16 Q1011,2024-08-08T01:50:00Z,17,16,6+,29.85
EKKA,56.293,9.114,190,5,5.75,EKKA 080150Z AUTO 19005KT 9999 FEW066/// 12/11 Q1011,2024-08-08T01:50:00Z,12,11,6+,29.85
EKEB,55.528,8.563,180,5,5.75,EKEB 080150Z 18005KT 9999 FEW035 16/13 Q1011,2024-08-08T01:50:00Z,16,13,6+,29.85
EKCH,55.618,12.656,200,3,3.45,EKCH 080150Z 20003KT 9999 -RA BKN015 18/17 Q1011 TEMPO SHRA BKN009 SCT030CB,2024-08-08T01:50:00Z,18,17,6+,29.85
EKBI,55.74,9.152,130,1,1.15,EKBI 080150Z AUTO 13001KT 9999 BCFG FEW003/// 09/09 Q1011,2024-08-08T01:50:00Z,9,9,6+,29.85
EKAH,56.3,10.619,230,3,3.45,EKAH 080150Z AUTO 23003KT 9999 FEW096/// SCT300/// 14/13 Q1011,2024-08-08T01:50:00Z,14,13,6+,29.85
EGYP,-51.82,-58.448,270,15,17.26,EGYP 080150Z 27015KT 9999 FEW009 SCT017 01/00 Q1016,2024-08-08T01:50:00Z,1,0,6+,30.00
EGYM,52.648,0.567,240,7,8.06,EGYM 080150Z AUTO 24007KT 9999 BKN080/// OVC100/// 14/11 Q1013,2024-08-08T01:50:00Z,14,11,6+,29.91
EGYH,52.873,0.139,250,9,10.36,EGYH 080150Z AUTO 25009KT 9999 BKN049/// SCT100/// 15/12 Q1013,2024-08-08T01:50:00Z,15,12,6+,29.91
EGYE,52.962,-0.562,230,9,10.36,EGYE 080150Z AUTO 23009KT //// BKN028/// BKN065/// 15/11 Q1013,2024-08-08T01:50:00Z,15,11,,29.91
EGYD,53.031,-0.503,220,6,6.9,EGYD 080150Z AUTO 22006KT 9999 OVC066/// 16/12 Q1012,2024-08-08T01:50:00Z,16,12,6+,29.88
EGXZ,54.205,-1.39,220,10,11.51,EGXZ 080150Z AUTO 22010KT 9999 FEW018/// 15/12 Q1010,2024-08-08T01:50:00Z,15,12,6+,29.82
EGXW,53.175,-0.523,220,6,6.9,EGXW 080150Z AUTO 22006KT 9999 OVC059/// 16/11 Q1012,2024-08-08T01:50:00Z,16,11,6+,29.88
EGXV,53.876,-0.435,170,3,3.45,EGXV 080150Z AUTO 17003KT 9999 NCD 13/11 Q1011,2024-08-08T01:50:00Z,13,11,6+,29.85
EGXT,52.611,-0.461,230,9,10.36,EGXT 080150Z AUTO 23009KT 9999 OVC077/// 15/12 Q1013,2024-08-08T01:50:00Z,15,12,6+,29.91
EGXS,53.475,0.152,200,6,6.9,EGXS 080150Z AUTO 20006KT 9999 OVC067/// 14/11 Q1012,2024-08-08T01:50:00Z,14,11,6+,29.88
EGXE,54.297,-1.533,190,8,9.21,EGXE 080150Z AUTO 19008KT 9999 BKN020/// 15/12 Q1010,2024-08-08T01:50:00Z,15,12,6+,29.82
EGXC,53.094,-0.173,220,7,8.06,EGXC 080150Z 22007KT CAVOK 16/12 Q1012 RMK BLU,2024-08-08T01:50:00Z,16,12,6+,29.88
EGWU,51.549,-0.417,240,4,4.6,EGWU 080150Z AUTO 24004KT 9999 NCD 13/11 Q1015,2024-08-08T01:50:00Z,13,11,6+,29.97
EGWC,52.64,-2.311,210,6,6.9,EGWC 080150Z AUTO 21006KT //// ///////// ///// Q////,2024-08-08T01:50:00Z,,,,
EGVP,51.139,-1.569,230,3,3.45,EGVP 080150Z AUTO 23003KT 9999 OVC066/// 13/11 Q1015,2024-08-08T01:50:00Z,13,11,6+,29.97
EGVO,51.239,-0.945,210,6,6.9,EGVO 080150Z AUTO 21006KT 9999 FEW054/// 12/10 Q1015,2024-08-08T01:50:00Z,12,10,6+,29.97
EGVN,51.758,-1.578,220,4,4.6,EGVN 080150Z 22004KT CAVOK 14/12 Q1014 NOSIG RMK BLU BLU,2024-08-08T01:50:00Z,14,12,6+,29.94
EGUW,52.124,0.957,240,5,5.75,EGUW 080150Z AUTO 24005KT 9999 FEW110/// 13/11 Q1014,2024-08-08T01:50:00Z,13,11,6+,29.94
EGUB,51.62,-1.099,200,5,5.75,EGUB 080150Z AUTO 20005KT 9999 BKN054/// 13/11 Q1015,2024-08-08T01:50:00Z,13,11,6+,29.97
EGTE,50.737,-3.406,150,5,5.75,EGTE 080150Z 15005KT 140V200 9999 FEW030 14/12 Q1015,2024-08-08T01:50:00Z,14,12,6+,29.97
EGSY,51.406,-3.434,230,7,8.06,EGSY 080150Z AUTO 23007KT 190V260 9999 NCD 16/11 Q1014,2024-08-08T01:50:00Z,16,11,6+,29.94
EGSS,51.881,0.223,250,6,6.9,EGSS 080150Z AUTO 25006KT 9999 NCD 13/11 Q1015,2024-08-08T01:50:00Z,13,11,6+,29.97
EGSH,52.676,1.283,250,7,8.06,EGSH 080150Z AUTO 25007KT 9999 NCD 16/12 Q1014,2024-08-08T01:50:00Z,16,12,6+,29.94
EGQS,57.711,-3.324,220,11,12.66,EGQS 080150Z 22011KT CAVOK 13/09 Q1002 RMK BLU,2024-08-08T01:50:00Z,13,9,6+,29.59
EGQM,55.421,-1.601,250,12,13.81,EGQM 080150Z AUTO 25012KT 9999 NCD 14/10 Q1008,2024-08-08T01:50:00Z,14,10,6+,29.76
EGQL,56.377,-2.862,240,15,17.26,EGQL 080150Z 24015KT 9999 SCT048 13/10 Q1006 RMK BLU,2024-08-08T01:50:00Z,13,10,6+,29.70
EGQK,57.646,-3.563,220,10,11.51,EGQK 080150Z AUTO 22010KT 9999 OVC046/// 14/09 Q1002,2024-08-08T01:50:00Z,14,9,6+,29.59
EGQA,57.825,-3.955,190,9,10.36,EGQA 080150Z AUTO 19009KT 9999 OVC052/// 13/09 Q1001,2024-08-08T01:50:00Z,13,9,6+,29.56
EGPO,58.215,-6.329,250,8,9.21,EGPO 080150Z AUTO 25008KT 9999 SCT025/// 12/09 Q1001,2024-08-08T01:50:00Z,12,9,6+,29.56
EGPL,57.475,-7.364,270,18,20.71,EGPL 080150Z AUTO 27018KT 9999 SCT003/// SCT009/// BKN015/// 13/11 Q1003,2024-08-08T01:50:00Z,13,11,6+,29.62
EGPK,55.509,-4.587,210,8,9.21,EGPK 080150Z AUTO 21008KT 9999 FEW024/// SCT031/// 14/10 Q1008,2024-08-08T01:50:00Z,14,10,6+,29.76
EGPI,55.681,-6.25,250,8,9.21,EGPI 080150Z AUTO 25008KT 9999 FEW017/// BKN036/// 13/12 Q1007,2024-08-08T01:50:00Z,13,12,6+,29.73
EGPH,55.952,-3.36,220,5,5.75,EGPH 080150Z 22005KT 9999 -RA FEW020 OVC037 13/12 Q1007,2024-08-08T01:50:00Z,13,12,6+,29.73
EGPF,55.867,-4.433,190,6,6.9,EGPF 080150Z AUTO 19006G16KT 150V270 9999 BKN019 BKN031 OVC047 14/11 Q1007,2024-08-08T01:50:00Z,14,11,6+,29.73
EGPE,57.538,-4.053,220,13,14.96,EGPE 080150Z 22013KT 9999 -RA BKN035 13/10 Q1002,2024-08-08T01:50:00Z,13,10,6+,29.59
EGPD,57.205,-2.205,210,10,11.51,EGPD 080150Z AUTO 21010KT 9999 NCD 12/08 Q1004 NOSIG,2024-08-08T01:50:00Z,12,8,6+,29.65
EGPC,58.459,-3.093,220,10,11.51,EGPC 080150Z AUTO 22010KT 9999 NCD 13/09 Q1001,2024-08-08T01:50:00Z,13,9,6+,29.56
EGPB,59.88,-1.296,220,22,25.32,EGPB 080150Z AUTO 22022KT 9999 BKN021/// OVC039/// 13/10 Q0997,2024-08-08T01:50:00Z,13,10,6+,29.44
EGPA,58.958,-2.905,220,13,14.96,EGPA 080150Z AUTO 22013KT 9999 -RA SCT025/// BKN037/// 13/10 Q0999,2024-08-08T01:50:00Z,13,10,6+,29.50
EGOV,53.252,-4.536,200,16,18.41,EGOV 080150Z AUTO 20016KT 9999 OVC035/// 16/14 Q1011,2024-08-08T01:50:00Z,16,14,6+,29.85
EGOS,52.795,-2.665,200,5,5.75,EGOS 080150Z AUTO 20005KT 9999 FEW053/// 14/12 Q1012,2024-08-08T01:50:00Z,14,12,6+,29.88
EGOP,51.714,-4.367,200,18,20.71,EGOP 080150Z AUTO 20018KT 9999 OVC015/// 17/14 Q1012,2024-08-08T01:50:00Z,17,14,6+,29.88
EGOM,55.05,-2.554,240,10,11.51,EGOM 080150Z AUTO 24010KT 9999 BKN018/// OVC050/// 12/11 Q1008,2024-08-08T01:50:00Z,12,11,6+,29.76
EGNX,52.833,-1.333,220,8,9.21,EGNX 080150Z 22008KT 9999 FEW025 15/11 Q1013,2024-08-08T01:50:00Z,15,11,6+,29.91
EGNT,55.037,-1.702,250,7,8.06,EGNT 080150Z 25007KT 210V280 CAVOK 14/10 Q1009,2024-08-08T01:50:00Z,14,10,6+,29.79
EGNS,54.085,-4.632,240,10,11.51,EGNS 080150Z 24010KT 9999 FEW012 SCT037 BKN045 15/14 Q1009,2024-08-08T01:50:00Z,15,14,6+,29.79
EGNM,53.862,-1.665,220,9,10.36,EGNM 080150Z 22009KT 9999 SCT020 14/12 Q1011,2024-08-08T01:50:00Z,14,12,6+,29.85
EGNJ,53.58,-0.341,200,6,6.9,EGNJ 080150Z AUTO 20006KT 9999 NCD 13/11 Q1012,2024-08-08T01:50:00Z,13,11,6+,29.88
EGMD,50.956,0.939,270,3,3.45,EGMD 080150Z AUTO 27003KT 9999 NCD 16/14 Q1016,2024-08-08T01:50:00Z,16,14,6+,30.00
EGLL,51.477,-0.461,220,5,5.75,EGLL 080150Z AUTO 22005KT 9999 NCD 14/11 Q1015 NOSIG,2024-08-08T01:50:00Z,14,11,6+,29.97
EGLF,51.28,-0.773,250,6,6.9,EGLF 080150Z AUTO 25006KT 9999 NCD 13/11 Q1015,2024-08-08T01:50:00Z,13,11,6+,29.97
EGLC,51.505,0.055,230,8,9.21,EGLC 080150Z AUTO 23008KT 9999 NCD 16/11 Q1015,2024-08-08T01:50:00Z,16,11,6+,29.97
EGKK,51.148,-0.19,210,3,3.45,EGKK 080150Z 21003KT CAVOK 13/13 Q1015,2024-08-08T01:50:00Z,13,13,6+,29.97
EGJJ,49.21,-2.194,240,7,8.06,EGJJ 080150Z AUTO 24007KT 9999 NCD 17/14 Q1017,2024-08-08T01:50:00Z,17,14,6+,30.03
EGJB,49.433,-2.598,220,8,9.21,EGJB 080150Z 22008KT CAVOK 16/15 Q1017,2024-08-08T01:50:00Z,16,15,6+,30.03
EGHQ,50.438,-4.998,190,10,11.51,EGHQ 080150Z AUTO 19010KT 9999 BKN041/// 16/15 Q1014,2024-08-08T01:50:00Z,16,15,6+,29.94
EGGW,51.875,-0.368,240,6,6.9,EGGW 080150Z AUTO 24006KT 9999 NCD 13/12 Q1015,2024-08-08T01:50:00Z,13,12,6+,29.97
EGGP,53.334,-2.85,230,10,11.51,EGGP 080150Z 23010KT 200V260 9999 FEW022 BKN028 16/12 Q1012,2024-08-08T01:50:00Z,16,12,6+,29.88
EGGD,51.383,-2.719,200,5,5.75,EGGD 080150Z AUTO 20005KT 9999 NCD 14/13 Q1015,2024-08-08T01:50:00Z,14,13,6+,29.97
EGFF,51.397,-3.343,230,6,6.9,EGFF 080150Z AUTO 23006KT 9999 NCD 15/11 Q1014,2024-08-08T01:50:00Z,15,11,6+,29.94
EGDY,51.006,-2.643,160,5,5.75,EGDY 080150Z AUTO 16005KT 9999 OVC073/// 15/13 Q1015,2024-08-08T01:50:00Z,15,13,6+,29.97
EGDR,50.084,-5.257,200,10,11.51,EGDR 080150Z AUTO 20010KT 9999 // BKN011/// BKN034/// 17/15 Q1014,2024-08-08T01:50:00Z,17,15,6+,29.94
EGDM,51.153,-1.75,210,4,4.6,EGDM 080150Z AUTO 21004KT 9999 OVC064/// 13/12 Q1015,2024-08-08T01:50:00Z,13,12,6+,29.97
EGCK,53.104,-4.34,200,11,12.66,EGCK 080150Z AUTO 20011KT 9999 SCT017/// 16/13 Q1011,2024-08-08T01:50:00Z,16,13,6+,29.85
EGCC,53.354,-2.275,200,6,6.9,EGCC 080150Z AUTO 20006KT 150V240 7000 -RA BKN019 OVC032 14/13 Q1012 NOSIG,2024-08-08T01:50:00Z,14,13,4.35,29.88
EGBB,52.46,-1.758,240,5,5.75,EGBB 080150Z 24005KT 200V270 9999 BKN049 15/11 Q1014,2024-08-08T01:50:00Z,15,11,6+,29.94
EGAC,54.614,-5.873,230,9,10.36,EGAC 080150Z AUTO 23009KT 9999 SCT038 14/10 Q1008,2024-08-08T01:50:00Z,14,10,6+,29.76
EGAA,54.654,-6.225,200,5,5.75,EGAA 080150Z AUTO 20005KT 9999 FEW031 OVC038 13/10 Q1009,2024-08-08T01:50:00Z,13,10,6+,29.79
EFVA,63.051,21.762,130,3,3.45,EFVA 080150Z AUTO 13003KT 9999 4200 NCD 13/12 Q1013,2024-08-08T01:50:00Z,13,12,6+,29.91
EFUT,60.896,26.938,100,4,4.6,EFUT 080150Z AUTO 10004KT CAVOK 15/13 Q1014,2024-08-08T01:50:00Z,15,13,6+,29.94
EFTU,60.514,22.263,90,2,2.3,EFTU 080150Z AUTO 09002KT 0550 0250 R26/0350 FG VV002 14/14 Q1014,2024-08-08T01:50:00Z,14,14,0.34,29.94
EFTP,61.419,23.616,80,1,1.15,EFTP 080150Z AUTO 08001KT CAVOK 10/10 Q1014,2024-08-08T01:50:00Z,10,10,6+,29.94
EFSI,62.693,22.83,130,5,5.75,EFSI 080150Z AUTO 13005KT CAVOK 10/09 Q1014,2024-08-08T01:50:00Z,10,9,6+,29.94
EFSA,61.943,28.945,VRB,1,1.15,EFSA 080150Z AUTO VRB01KT 0900 0500 R12/1200 BCFG NSC 10/10 Q1015,2024-08-08T01:50:00Z,10,10,0.56,29.97
EFRO,66.562,25.829,120,9,10.36,EFRO 080150Z AUTO 12009KT CAVOK 11/07 Q1016,2024-08-08T01:50:00Z,11,7,6+,30.00
EFPO,61.462,21.8,100,2,2.3,EFPO 080150Z AUTO 10002KT CAVOK 13/12 Q1013,2024-08-08T01:50:00Z,13,12,6+,29.91
EFOU,64.93,25.355,140,4,4.6,EFOU 080150Z AUTO 14004KT CAVOK 09/08 Q1015,2024-08-08T01:50:00Z,9,8,6+,29.97
EFMI,61.687,27.201,250,1,1.15,EFMI 080150Z AUTO 25001KT 9999 SCT042 09/09 Q1015,2024-08-08T01:50:00Z,9,9,6+,29.97
EFMA,60.125,19.903,VRB,1,1.15,EFMA 080150Z AUTO VRB01KT 9999 0600 R03/P2000U NCD 12/11 Q1013,2024-08-08T01:50:00Z,12,11,6+,29.91
EFLP,61.044,28.151,30,2,2.3,EFLP 080150Z AUTO 03002KT CAVOK 12/11 Q1015,2024-08-08T01:50:00Z,12,11,6+,29.97
EFKU,63.008,27.799,VRB,1,1.15,EFKU 080150Z AUTO VRB01KT CAVOK 12/11 Q1015,2024-08-08T01:50:00Z,12,11,6+,29.97
EFKT,67.701,24.847,VRB,1,1.15,EFKT 080150Z AUTO VRB01KT CAVOK 06/03 Q1015,2024-08-08T01:50:00Z,6,3,6+,29.97
EFKS,65.992,29.236,70,2,2.3,EFKS 080150Z AUTO 07002KT 9999 VV001 09/08 Q1017,2024-08-08T01:50:00Z,9,8,6+,30.03
EFKK,63.721,23.143,120,2,2.3,EFKK 080150Z AUTO 12002KT CAVOK 10/09 Q1014,2024-08-08T01:50:00Z,10,9,6+,29.94
EFKI,64.283,27.673,VRB,1,1.15,EFKI 080150Z AUTO VRB01KT 9999 0900 R07/P2000U NCD 06/06 Q1015,2024-08-08T01:50:00Z,6,6,6+,29.97
EFKE,65.784,24.579,VRB,2,2.3,EFKE 080150Z AUTO VRB02KT CAVOK 09/07 Q1015,2024-08-08T01:50:00Z,9,7,6+,29.97
EFJY,62.404,25.675,VRB,1,1.15,EFJY 080150Z AUTO VRB01KT 9999 0350 R30/1600 NCD 08/08 Q1015,2024-08-08T01:50:00Z,8,8,6+,29.97
EFJO,62.66,29.611,VRB,1,1.15,EFJO 080150Z AUTO VRB01KT 9999 0650 R28/1200D NSC 10/09 Q1016,2024-08-08T01:50:00Z,10,9,6+,30.00
EFIV,68.607,27.405,250,3,3.45,EFIV 080150Z AUTO 25003KT CAVOK 07/05 Q1016,2024-08-08T01:50:00Z,7,5,6+,30.00
EFHK,60.327,24.957,350,3,3.45,EFHK 080150Z 35003KT CAVOK 12/12 Q1014 NOSIG,2024-08-08T01:50:00Z,12,12,6+,29.94
EFHA,61.855,24.805,150,3,3.45,EFHA 080150Z AUTO 15003KT 3400 BCFG NCD 11/11 Q1014,2024-08-08T01:50:00Z,11,11,2.11,29.94
EFET,68.363,23.424,120,1,1.15,EFET 080150Z AUTO 12001KT CAVOK 09/06 Q1014,2024-08-08T01:50:00Z,9,6,6+,29.94
EETU,58.307,26.691,VRB,2,2.3,EETU 080150Z AUTO VRB02KT 9999 NCD 12/11 Q1013,2024-08-08T01:50:00Z,12,11,6+,29.91
EETN,59.413,24.801,0,0,0.0,EETN 080150Z 00000KT 9999 BCFG NSC 13/12 Q1014,2024-08-08T01:50:00Z,13,12,6+,29.94
EEPU,58.419,24.473,10,2,2.3,EEPU 080150Z AUTO 01002KT 9999 NCD 12/11 Q1014,2024-08-08T01:50:00Z,12,11,6+,29.94
EEKE,58.23,22.509,360,4,4.6,EEKE 080150Z AUTO 36004KT 9999 NCD 12/11 Q1014,2024-08-08T01:50:00Z,12,11,6+,29.94
EEEI,59.26,24.209,0,0,0.0,EEEI 080150Z AUTO 00000KT 9999 BKN050/// 12/11 Q1014,2024-08-08T01:50:00Z,12,11,6+,29.94
EDXW,54.913,8.341,240,9,10.36,EDXW 080150Z AUTO 24009KT 9999 // FEW026/// OVC066/// 18/14 Q1011,2024-08-08T01:50:00Z,18,14,6+,29.85
EDWE,53.388,7.229,200,4,4.6,EDWE 080150Z AUTO 20004KT 9999 BKN230/// 16/12 Q1013,2024-08-08T01:50:00Z,16,12,6+,29.91
EDVK,51.421,9.388,220,3,3.45,EDVK 080150Z AUTO 22003KT 9999 // NCD 15/14 Q1015,2024-08-08T01:50:00Z,15,14,6+,29.97
EDVE,52.319,10.558,0,0,0.0,EDVE 080150Z AUTO 00000KT 9999 SCT079/// 15/14 Q1014,2024-08-08T01:50:00Z,15,14,6+,29.94
EDTY,49.118,9.784,200,3,3.45,EDTY 080150Z AUTO 20003KT 9999 // BKN018/// BKN064/// 17/17 Q1016,2024-08-08T01:50:00Z,17,17,6+,30.00
EDTL,48.369,7.828,VRB,2,2.3,EDTL 080150Z AUTO VRB02KT 9999 // OVC039/// 20/19 Q1016,2024-08-08T01:50:00Z,20,19,6+,30.00
EDSB,48.779,8.081,VRB,2,2.3,EDSB 080150Z AUTO VRB02KT 9999 // OVC041/// 20/18 Q1016,2024-08-08T01:50:00Z,20,18,6+,30.00
EDQM,50.289,11.86,350,4,4.6,EDQM 080150Z AUTO 35004KT 320V020 9999 // BKN020/// BKN083/// 17/16 Q1016,2024-08-08T01:50:00Z,17,16,6+,30.00
EDNY,47.671,9.511,VRB,1,1.15,EDNY 080150Z AUTO VRB01KT 9999 // SCT058/// SCT080/// BKN095/// 17/17 Q1016,2024-08-08T01:50:00Z,17,17,6+,30.00
EDMO,48.081,11.283,220,3,3.45,EDMO 080150Z AUTO 22003KT 9999 // FEW041/// SCT056/// 16/15 Q1017,2024-08-08T01:50:00Z,16,15,6+,30.03
EDMA,48.425,10.932,120,2,2.3,EDMA 080150Z AUTO 12002KT 9999 // FEW036/// SCT049/// 16/15 Q1016,2024-08-08T01:50:00Z,16,15,6+,30.00
EDLW,51.518,7.612,230,6,6.9,EDLW 080150Z AUTO 23006KT 9999 // BKN046/// BKN058/// 17/15 Q1014,2024-08-08T01:50:00Z,17,15,6+,29.94
EDLV,51.602,6.142,210,3,3.45,EDLV 080150Z AUTO 21003KT 9999 // SCT110/// BKN140/// OVC160/// 16/14 Q1014,2024-08-08T01:50:00Z,16,14,6+,29.94
EDLP,51.614,8.616,170,6,6.9,EDLP 080150Z 17006KT CAVOK 16/15 Q1014,2024-08-08T01:50:00Z,16,15,6+,29.94
EDLN,51.23,6.504,250,3,3.45,EDLN 080150Z AUTO 25003KT 220V300 9999 // OVC150/// 17/14 Q////,2024-08-08T01:50:00Z,17,14,6+,
EDJA,47.989,10.239,330,4,4.6,EDJA 080150Z AUTO 33004KT 9999 // FEW051/// SCT220/// 16/15 Q1017,2024-08-08T01:50:00Z,16,15,6+,30.03
EDHL,53.805,10.719,VRB,2,2.3,EDHL 080150Z AUTO VRB02KT 9999 0400 R25/0500D // NCD 15/14 Q1013,2024-08-08T01:50:00Z,15,14,6+,29.91
EDHK,54.376,10.143,260,3,3.45,EDHK 080150Z AUTO 26003KT //// R26///// // NCD 14/13 Q1013,2024-08-08T01:50:00Z,14,13,,29.91
EDHI,53.536,9.837,250,2,2.3,EDHI 080150Z AUTO 25002KT 9999 1600 // FEW004/// 15/14 Q1014,2024-08-08T01:50:00Z,15,14,6+,29.94
EDGS,50.708,8.083,250,6,6.9,EDGS 080150Z AUTO 25006KT 9999 // OVC180/// 15/12 Q1016,2024-08-08T01:50:00Z,15,12,6+,30.00
EDFM,49.474,8.515,VRB,2,2.3,EDFM 080150Z AUTO VRB02KT 9999 // BKN058/// BKN220/// 20/17 Q1015,2024-08-08T01:50:00Z,20,17,6+,29.97
EDFH,49.946,7.265,270,5,5.75,EDFH 080150Z 27005KT CAVOK 15/13 Q1016,2024-08-08T01:50:00Z,15,13,6+,30.00
EDDW,53.047,8.787,160,2,2.3,EDDW 080150Z AUTO 16002KT 0400 0050 R27/0550D FG NSC 13/13 Q1013,2024-08-08T01:50:00Z,13,13,0.25,29.91
EDDV,52.466,9.68,VRB,2,2.3,EDDV 080150Z AUTO VRB02KT CAVOK 16/15 Q1014,2024-08-08T01:50:00Z,16,15,6+,29.94
EDDS,48.69,9.222,260,3,3.45,EDDS 080150Z AUTO 26003KT 9999 FEW016 BKN038 BKN047 20/17 Q1016,2024-08-08T01:50:00Z,20,17,6+,30.00
EDDR,49.213,7.108,300,3,3.45,EDDR 080150Z AUTO 30003KT CAVOK 16/14 Q1016,2024-08-08T01:50:00Z,16,14,6+,30.00
EDDP,51.435,12.24,270,7,8.06,EDDP 080150Z AUTO 27007KT 9999 FEW026 BKN036 BKN044 19/17 Q1014 TEMPO BKN012,2024-08-08T01:50:00Z,19,17,6+,29.94
EDDN,49.503,11.055,VRB,1,1.15,EDDN 080150Z AUTO VRB01KT 6000 FEW012 16/16 Q1015,2024-08-08T01:50:00Z,16,16,3.73,29.97
EDDM,48.348,11.813,220,4,4.6,EDDM 080150Z AUTO 22004KT CAVOK 15/15 Q1016 NOSIG,2024-08-08T01:50:00Z,15,15,6+,30.00
EDDL,51.296,6.769,270,2,2.3,EDDL 080150Z AUTO 27002KT CAVOK 17/13 Q1015 NOSIG,2024-08-08T01:50:00Z,17,13,6+,29.97
EDDK,50.865,7.157,VRB,2,2.3,EDDK 080150Z AUTO VRB02KT CAVOK 16/15 Q1015 NOSIG,2024-08-08T01:50:00Z,16,15,6+,29.97
EDDH,53.633,9.988,260,4,4.6,EDDH 080150Z AUTO 26004KT CAVOK 15/14 Q1013 TEMPO 1200 BCFG,2024-08-08T01:50:00Z,15,14,6+,29.91
EDDG,52.135,7.697,VRB,1,1.15,EDDG 080150Z AUTO VRB01KT CAVOK 16/15 Q1014 NOSIG,2024-08-08T01:50:00Z,16,15,6+,29.94
EDDF,50.045,8.598,190,3,3.45,EDDF 080150Z AUTO 19003KT CAVOK 16/15 Q1015 NOSIG,2024-08-08T01:50:00Z,16,15,6+,29.97
EDDE,50.983,10.961,260,6,6.9,EDDE 080150Z AUTO 26006KT 9999 BKN031 BKN040 17/16 Q1015,2024-08-08T01:50:00Z,17,16,6+,29.97
EDDC,51.128,13.7543,270,5,5.75,EDDC 080150Z AUTO 27005KT CAVOK 20/17 Q1013,2024-08-08T01:50:00Z,20,17,6+,29.91
EDDB,52.3807,13.5306,290,7,8.06,EDDB 080150Z AUTO 29007KT 9999 BKN008 19/17 Q1012 TEMPO BKN010,2024-08-08T01:50:00Z,19,17,6+,29.88
EDBC,51.856,11.42,290,5,5.75,EDBC 080150Z AUTO 29005KT 9999 // SCT056/// SCT065/// 16/14 Q1015,2024-08-08T01:50:00Z,16,14,6+,29.97
EDAH,53.879,14.152,270,4,4.6,EDAH 080150Z AUTO 27004KT 9999 // OVC110/// 19/18 Q1011,2024-08-08T01:50:00Z,19,18,6+,29.85
EDAC,50.982,12.506,280,3,3.45,EDAC 080150Z AUTO 28003KT 9999 // FEW026/// SCT037/// BKN042/// 20/17 Q1014,2024-08-08T01:50:00Z,20,17,6+,29.94
EBOS,51.199,2.862,220,7,8.06,EBOS 080150Z 22007KT 9999 FEW013 SCT027 16/14 Q1015 TEMPO BKN012,2024-08-08T01:50:00Z,16,14,6+,29.97
EBLG,50.637,5.443,250,6,6.9,EBLG 080150Z 25006KT CAVOK 16/11 Q1016 NOSIG,2024-08-08T01:50:00Z,16,11,6+,30.00
EBCI,50.459,4.454,250,5,5.75,EBCI 080150Z 25005KT CAVOK 16/11 Q1016 NOSIG,2024-08-08T01:50:00Z,16,11,6+,30.00
EBBR,50.896,4.526,240,9,10.36,EBBR 080150Z 24009KT CAVOK 17/12 Q1016 NOSIG,2024-08-08T01:50:00Z,17,12,6+,30.00
EBAW,51.189,4.46,230,6,6.9,EBAW 080150Z AUTO 23006KT CAVOK 17/12 Q1015,2024-08-08T01:50:00Z,17,12,6+,29.97
CYRL,51.067,-93.799,30,7,8.06,CYRL 080150Z 03007KT 010V100 12SM -SHRA BKN005 OVC013 15/15 A2984 RMK SF6SC2 BR CIG RAG CVCTV CLD EMBD SLP112 DENSITY ALT 1700FT,2024-08-08T01:50:00Z,15,15,12,29.84
CYEG,53.308,-113.592,120,8,9.21,CYEG 080150Z 12008KT 15SM -SHRA BKN056CB 17/10 A3028 RMK CB7 CB N MOV S SLP268 DENSITY ALT 2800FT,2024-08-08T01:50:00Z,17,10,15,30.28
BGSF,67.013,-50.718,60,8,9.21,BGSF 080150Z AUTO 06008KT 360V090 9999NDV SCT150/// 08/04 Q0998,2024-08-08T01:50:00Z,8,4,,29.47
BGKK,65.575,-37.133,160,1,1.15,BGKK 080150Z AUTO 16001KT 9999NDV OVC100/// 04/03 Q1000,2024-08-08T01:50:00Z,4,3,,29.53
BGJN,69.24,-51.064,0,0,0.0,BGJN 080150Z AUTO 00000KT 9999NDV OVC003/// 04/04 Q0999,2024-08-08T01:50:00Z,4,4,,29.50
BGGH,64.191,-51.677,240,5,5.75,BGGH 080150Z AUTO 24005KT 1900 BR VV002 04/04 Q0998,2024-08-08T01:50:00Z,4,4,1.18,29.47
BGBW,61.164,-45.42,230,2,2.3,BGBW 080150Z AUTO 23002KT 9999NDV SCT070/// BKN090/// 10/07 Q0996,2024-08-08T01:50:00Z,10,7,,29.41
RJAA,35.765,140.386,60,6,6.9,RJAA 080149Z 06006KT 360V100 9999 SHRA FEW020 BKN030 32/26 Q1004 RMK 2CU020 7CU030 A2965,2024-08-08T01:49:00Z,32,26,6+,29.65
MMQT,20.617,-100.194,60,9,10.36,MMQT 080149Z 06009KT 7SM SCT020 BKN250 22/11 A3024 RMK 8/504,2024-08-08T01:49:00Z,22,11,7,30.24
MMLO,20.997,-101.481,300,3,3.45,MMLO 080149Z E30003KT 8SM SCT030CB SCT090 OVC220 23/11 A3011 RMK 8/367 CB E,2024-08-08T01:49:00Z,23,11,8,30.11
MMIO,25.544,-100.928,20,12,13.81,MMIO 080149Z 02012KT 10SM SCT200 26/12 A3017 RMK 8/008,2024-08-08T01:49:00Z,26,12,10+,30.17
KTRK,39.3154,-120.137,220,6,6.9,KTRK 080149Z 22006KT 10SM FEW150 28/03 A3025,2024-08-08T01:49:00Z,28,3,10+,30.25
KFME,39.086,-76.757,100,6,6.9,KFME 080149Z AUTO 10006KT 5SM SCT008 BKN035 OVC065 23/23 A2995 RMK AO1,2024-08-08T01:49:00Z,23,23,5,29.95
KCIC,39.7988,-121.858,140,10,11.51,KCIC 080149Z 14010KT 10SM CLR 38/06 A2980,2024-08-08T01:49:00Z,38,6,10+,29.80
KBKB,31.022,-92.911,0,0,0.0,KBKB 080149Z AUTO 00000KT 10SM CLR 28/23 A2977 RMK AO2 SLP103 T02780228 $,2024-08-08T01:49:00Z,27.8,22.8,10+,29.77
MMVR,19.144,-96.189,20,2,2.3,MMVR 080148Z 02002KT 7SM FEW015 SCT250 28/26 A2986 RMK 8/101 DSNT CB 3TH 4TH QUAD,2024-08-08T01:48:00Z,28,26,7,29.86
KRHP,35.1939,-83.8618,0,0,0.0,KRHP 080148Z AUTO 00000KT 10SM CLR 24/20 A2981 RMK AO2 T02350200,2024-08-08T01:48:00Z,23.5,20,10+,29.81
KJDN,47.3259,-106.949,350,6,6.9,KJDN 080148Z AUTO 35006KT 18/11 A3025 RMK AO1 SLP242 T01780106,2024-08-08T01:48:00Z,17.8,10.6,,30.25
KASG,36.1802,-94.1176,90,4,4.6,KASG 080148Z 09004KT 10SM CLR 28/21 A2988,2024-08-08T01:48:00Z,28,21,10+,29.88
RJAW,24.784,141.322,290,9,10.36,RJAW 080147Z 29009KT 9999 VCSH SCT008 SCT012 BKN150 28/25 Q1002 RMK 3ST008 4CU012 7AC150 A2960,2024-08-08T01:47:00Z,28,25,6+,29.59
MMTG,16.571,-93.03,300,8,9.21,MMTG 080147Z 30008KT 7SM SCT300 28/22 A2987 RMK 8/003 CB LTGIC SE,2024-08-08T01:47:00Z,28,22,7,29.87
MMIA,19.276,-103.576,0,0,0.0,MMIA 080147Z 00000KT 4SM BKN015 OVC100 25/22 A2997 RMK 8/52/ PCPN N,2024-08-08T01:47:00Z,25,22,4,29.97
MMCN,27.395,-109.837,280,9,10.36,MMCN 080147Z 28009KT 10SM BKN100 BKN200 31/21 A2983 RMK 8/038 HZY,2024-08-08T01:47:00Z,31,21,10+,29.83
KTOA,33.803,-118.336,270,8,9.21,KTOA 080147Z 27008KT 10SM FEW007 SCT150 21/18 A2994,2024-08-08T01:47:00Z,21,18,10+,29.94
KSUN,43.4969,-114.292,220,10,11.51,KSUN 080147Z 22010KT 10SM CLR 26/M03 A3010,2024-08-08T01:47:00Z,26,-3,10+,30.10
KSEE,32.8273,-116.974,0,0,0.0,KSEE 080147Z 00000KT 10SM SKC 27/16 A2994,2024-08-08T01:47:00Z,27,16,10+,29.94
KPOC,34.0928,-117.779,240,11,12.66,KPOC 080147Z 24011KT 10SM CLR 27/14 A2996,2024-08-08T01:47:00Z,27,14,10+,29.96
KPAO,37.458,-122.112,330,8,9.21,KPAO 080147Z 33008KT 10SM SKC 19/15 A2991,2024-08-08T01:47:00Z,19,15,10+,29.91
KLBE,40.2767,-79.4039,50,8,9.21,KLBE 080147Z 05008KT 10SM CLR 23/20 A2992,2024-08-08T01:47:00Z,23,20,10+,29.92
KGYR,33.428,-112.368,240,8,9.21,KGYR 080147Z 24008KT 10SM FEW080 SCT150 SCT200 38/17 A2982,2024-08-08T01:47:00Z,38,17,10+,29.82
KCWA,44.7795,-89.671,140,3,3.45,KCWA 080147Z 14003KT 10SM SCT120 20/15 A2995,2024-08-08T01:47:00Z,20,15,10+,29.95
KCHD,33.2669,-111.809,170,10,11.51,KCHD 080147Z 17010G15KT 10SM CLR 36/16 A2985,2024-08-08T01:47:00Z,36,16,10+,29.85
KCFO,39.7948,-104.54,130,7,8.06,KCFO 080147Z 13007KT 10SM CLR 22/12 A3013,2024-08-08T01:47:00Z,22,12,10+,30.13
KAQV,31.396,-93.297,0,0,0.0,KAQV 080147Z AUTO 00000KT 7SM CLR 27/24 A2980 RMK AO2 SLP086 T02670244,2024-08-08T01:47:00Z,26.7,24.4,7,29.80
KAEG,35.15,-106.793,340,6,6.9,KAEG 080147Z 34006KT 10SM SCT085 SCT120 31/02 A3010,2024-08-08T01:47:00Z,31,2,10+,30.10
KADS,32.9634,-96.8354,180,7,8.06,KADS 080147Z 18007KT 10SM SKC 36/17 A2981,2024-08-08T01:47:00Z,36,17,10+,29.81
MMMZ,23.161,-106.271,330,9,10.36,MMMZ 080146Z 33009KT 12SM SCT025 BKN090 BKN240 30/25 A2986 RMK 8/852 DSNT CB 1ST QUAD,2024-08-08T01:46:00Z,30,25,12,29.86
EQYS,37.4,14.92,,,,EQYS 080146Z AUTO 10SM CLR 25/16 A2988 RMK AO2 TSB41E42 SLP118 T02500161 $ ,2024-08-08T01:46:00Z,25,16.1,10+,29.88
CYHU,45.516,-73.415,90,2,2.3,CYHU 080146Z AUTO 09002KT 6SM HZ CLR 17/12 A3005 RMK SLP179,2024-08-08T01:46:00Z,17,12,6,30.05
ROAH,26.196,127.646,80,10,11.51,ROAH 080145Z 08010KT 9999 SHRA SCT025 FEW030TCU 33/27 Q1005 RMK 3CU025 1TCU030 A2968 TCU 7KM S MOV W,2024-08-08T01:45:00Z,33,27,6+,29.68
PALP,70.348,-150.928,230,6,6.9,PALP 080145Z 23006KT 10SM BKN095 OVC150 20/15 A2972,2024-08-08T01:45:00Z,20,15,10+,29.72
MMZH,17.605,-101.464,280,8,9.21,MMZH 080145Z 28008KT 7SM BKN250 31/23 A2981 RMK 8/008 HZY,2024-08-08T01:45:00Z,31,23,7,29.81
MMZC,22.904,-102.68,0,0,0.0,MMZC 080145Z E00000KT 8SM SCT050 23/15 A3021 RMK 8/300 HZY,2024-08-08T01:45:00Z,23,15,8,30.21
MMVA,17.998,-92.817,50,5,5.75,MMVA 080145Z 05005KT 7SM SCT060 30/26 A2981 RMK 8/100,2024-08-08T01:45:00Z,30,26,7,29.81
MMTO,19.343,-99.568,250,3,3.45,MMTO 080145Z 25003KT 4SM SCT015 BKN070 15/13 A3037 RMK 60075 8/430 -TSRAE42,2024-08-08T01:45:00Z,15,13,4,30.37
MMTC,25.564,-103.408,60,4,4.6,MMTC 080145Z 06004KT 10SM FEW030 BKN200 34/12 A2996 RMK 8/502,2024-08-08T01:45:00Z,34,12,10+,29.96
MMSD,23.157,-109.72,80,6,6.9,MMSD 080145Z 08006KT 10SM FEW040 30/20 A2992 RMK 8/500 AC,2024-08-08T01:45:00Z,30,20,10+,29.92
MMML,32.631,-115.238,170,8,9.21,MMML 080145Z 17008KT 10SM FEW120 37/18 A2977 RMK 8/080 ISOL CI,2024-08-08T01:45:00Z,37,18,10+,29.77
MMLP,24.077,-110.364,340,5,5.75,MMLP 080145Z 34005KT 10SM FEW030 31/21 A2992 RMK 8/400 ISOL AC CI,2024-08-08T01:45:00Z,31,21,10+,29.92
MMCZ,20.516,-86.932,0,0,0.0,MMCZ 080145Z 00000KT 7SM FEW015 SCT100 24/24 A2986 RMK 8/470,2024-08-08T01:45:00Z,24,24,7,29.86
LMML,35.858,14.477,240,4,4.6,LMML 080145Z 24004KT CAVOK 25/23 Q1013 NOSIG,2024-08-08T01:45:00Z,25,23,6+,29.91
LHSN,47.123,20.235,0,0,0.0,LHSN 080145Z 00000KT CAVOK 18/13 Q1013 NOSIG RMK BLU,2024-08-08T01:45:00Z,18,13,6+,29.91
LHSM,46.689,17.161,VRB,2,2.3,LHSM 080145Z AUTO VRB02KT CAVOK 21/17 Q1013,2024-08-08T01:45:00Z,21,17,6+,29.91
LHPR,47.627,17.808,260,4,4.6,LHPR 080145Z AUTO 26004KT CAVOK 18/16 Q1013,2024-08-08T01:45:00Z,18,16,6+,29.91
LHPP,45.991,18.241,40,3,3.45,LHPP 080145Z AUTO 04003KT CAVOK 20/12 Q1014,2024-08-08T01:45:00Z,20,12,6+,29.94
LHPA,47.362,17.494,170,2,2.3,LHPA 080145Z 17002KT 9999 FEW050TCU SCT066 BKN200 20/17 Q1013 TEMPO -SHRA RMK BLU,2024-08-08T01:45:00Z,20,17,6+,29.91
LHNY,47.985,21.692,VRB,1,1.15,LHNY 080145Z AUTO VRB01KT CAVOK 14/14 Q1014,2024-08-08T01:45:00Z,14,14,6+,29.94
LHKE,46.917,19.749,0,0,0.0,LHKE 080145Z 00000KT CAVOK 17/13 Q1013 NOSIG RMK BLU,2024-08-08T01:45:00Z,17,13,6+,29.91
LHDC,47.489,21.615,60,2,2.3,LHDC 080145Z AUTO 06002KT CAVOK 16/14 Q1013 NOSIG,2024-08-08T01:45:00Z,16,14,6+,29.91
KWDG,36.3781,-97.7888,120,10,11.51,KWDG 080145Z 12010KT 10SM SKC 33/19 A2978 RMK LAST,2024-08-08T01:45:00Z,33,19,10+,29.78
KW40,35.2211,-78.0404,60,10,11.51,KW40 080145Z AUTO 06010G19KT 030V090 5SM RA BR BKN009 BKN024 OVC095 25/24 A2972 RMK AO2 P0015 T02510245,2024-08-08T01:45:00Z,25.1,24.5,5,29.72
KW29,38.9777,-76.3276,80,7,8.06,KW29 080145Z AUTO 08007KT 10SM SCT023 SCT036 BKN055 24/ A2993 RMK AO2 T0243////,2024-08-08T01:45:00Z,24.3,,10+,29.93
KVUJ,35.4173,-80.1508,30,13,14.96,KVUJ 080145Z AUTO 03013G18KT 10SM SCT025 SCT034 BKN055 25/23 A2978 RMK AO2 LTG DSNT E T02530226,2024-08-08T01:45:00Z,25.3,22.6,10+,29.78
KUKF,36.2188,-81.1002,40,6,6.9,KUKF 080145Z AUTO 04006KT 10SM SCT100 SCT120 23/21 A2989 RMK AO2,2024-08-08T01:45:00Z,23,21,10+,29.89
KTTA,35.5762,-79.1035,40,6,6.9,KTTA 080145Z AUTO 04006KT 10SM SCT026 SCT030 SCT070 24/24 A2975 RMK AO2 T02420242,2024-08-08T01:45:00Z,24.2,24.2,10+,29.75
KTDF,36.284,-78.9884,50,8,9.21,KTDF 080145Z AUTO 05008KT 10SM OVC011 23/22 A2983 RMK AO2 LTG DSNT S,2024-08-08T01:45:00Z,23,22,10+,29.83
KSWF,41.5045,-74.0999,110,5,5.75,KSWF 080145Z 11005KT 10SM SCT032 OVC070 19/17 A3007,2024-08-08T01:45:00Z,19,17,10+,30.07
KSVH,35.7635,-80.9473,40,6,6.9,KSVH 080145Z AUTO 04006KT 10SM BKN011 BKN110 24/23 A2980 RMK AO2 T02430228,2024-08-08T01:45:00Z,24.3,22.8,10+,29.80
KSIF,36.4408,-79.8544,30,4,4.6,KSIF 080145Z AUTO 03004KT 7SM BKN010 OVC015 24/24 A2983 RMK AO2 T02420235,2024-08-08T01:45:00Z,24.2,23.5,7,29.83
KSCR,35.7058,-79.5051,30,9,10.36,KSCR 080145Z AUTO 03009KT 10SM BKN016 OVC022 24/24 A2977 RMK AO2 T02410241,2024-08-08T01:45:00Z,24.1,24.1,10+,29.77
KSCH,42.8499,-73.9301,0,0,0.0,KSCH 080145Z 00000KT 10SM CLR 19/16 A3006 RMK LAST,2024-08-08T01:45:00Z,19,16,10+,30.06
KSAW,46.341,-87.395,170,7,8.06,KSAW 080145Z 17007KT 10SM OVC110 19/13 A2996,2024-08-08T01:45:00Z,19,13,10+,29.96
KRUQ,35.6441,-80.5236,40,8,9.21,KRUQ 080145Z AUTO 04008KT 10SM SCT023 SCT027 25/22 A2977 RMK AO2 T02500220,2024-08-08T01:45:00Z,25,22,10+,29.77
KOUN,35.2436,-97.4713,120,8,9.21,KOUN 080145Z 12008KT 7SM HZ CLR 35/18 A2979,2024-08-08T01:45:00Z,35,18,7,29.79
KMWC,43.1095,-88.0343,0,0,0.0,KMWC 080145Z 00000KT 10SM CLR 20/13 A2999,2024-08-08T01:45:00Z,20,13,10+,29.99
KMRN,35.8192,-81.6097,20,3,3.45,KMRN 080145Z AUTO 02003KT 10SM BKN090 BKN120 27/23 A2982 RMK AO2 T02650225,2024-08-08T01:45:00Z,26.5,22.5,10+,29.82
KMQI,35.9188,-75.6989,120,8,9.21,KMQI 080145Z AUTO 12008KT 7SM RA SCT046 BKN085 OVC095 26/24 A2985 RMK AO2 P0001 T02550241,2024-08-08T01:45:00Z,25.5,24.1,7,29.85
KMNV,35.5429,-84.3808,340,5,5.75,KMNV 080145Z AUTO 34005KT 10SM SCT050 BKN055 28/23 A2976 RMK A01,2024-08-08T01:45:00Z,28,23,10+,29.76
KMCZ,35.862,-77.178,0,0,0.0,KMCZ 080145Z AUTO 00000KT 7SM -RA OVC007 24/24 A2981 RMK AO2 P0009 T02440240,2024-08-08T01:45:00Z,24.4,24,7,29.81
KLHZ,36.0229,-78.3341,60,7,8.06,KLHZ 080145Z AUTO 06007KT 10SM -RA OVC007 23/23 A2981 RMK AO2 P0003,2024-08-08T01:45:00Z,23,23,10+,29.81
KJVL,42.6213,-89.0419,90,4,4.6,KJVL 080145Z 09004KT 10SM CLR 21/14 A2997,2024-08-08T01:45:00Z,21,14,10+,29.97
KJNX,35.5369,-78.3934,80,5,5.75,KJNX 080145Z AUTO 08005KT 7SM RA BKN008 BKN039 OVC085 25/25 A2974 RMK AO2 LTG DSNT SE P0005,2024-08-08T01:45:00Z,25,25,7,29.74
KIPJ,35.4861,-81.1564,40,9,10.36,KIPJ 080145Z AUTO 04009KT 10SM SCT120 25/23 A2977 RMK AO2 T02510227,2024-08-08T01:45:00Z,25.1,22.7,10+,29.77
KHBI,35.6527,-79.8942,20,6,6.9,KHBI 080145Z AUTO 02006KT 10SM BKN017 BKN035 OVC043 25/22 A2978 RMK AO2 T02480221,2024-08-08T01:45:00Z,24.8,22.1,10+,29.78
KGYY,41.6121,-87.4091,50,6,6.9,KGYY 080145Z 05006KT 10SM CLR 22/21 A2993,2024-08-08T01:45:00Z,22,21,10+,29.93
KGEV,36.4312,-81.4206,90,3,3.45,KGEV 080145Z AUTO 09003KT 10SM BKN030 BKN034 OVC041 21/19 A2996 RMK AO2 T02060187,2024-08-08T01:45:00Z,20.6,18.7,10+,29.96
KFQD,35.43,-81.936,30,5,5.75,KFQD 080145Z AUTO 03005KT 10SM BKN090 BKN110 26/21 A2979 RMK AO2,2024-08-08T01:45:00Z,26,21,10+,29.79
KEXX,35.7804,-80.3084,30,5,5.75,KEXX 080145Z AUTO 03005KT 10SM SCT038 SCT075 25/25 A2978 RMK AO2 T02490249,2024-08-08T01:45:00Z,24.9,24.9,10+,29.78
KESN,38.804,-76.069,70,4,4.6,KESN 080145Z 07004KT 10SM BKN085 24/23 A2993,2024-08-08T01:45:00Z,24,23,10+,29.93
KEMT,34.0882,-118.034,220,6,6.9,KEMT 080145Z 22006KT 10SM CLR 26/16 A2994,2024-08-08T01:45:00Z,26,16,10+,29.94
KDPL,34.9994,-77.9799,60,10,11.51,KDPL 080145Z AUTO 06010G16KT 4SM RA BR BKN013 BKN038 OVC110 25/25 A2970 RMK AO2,2024-08-08T01:45:00Z,25,25,4,29.70
KDMW,39.61,-77.007,90,4,4.6,KDMW 080145Z AUTO 09004KT 10SM DZ OVC008 23/22 A2996 RMK AO2,2024-08-08T01:45:00Z,23,22,10+,29.96
KCTZ,34.9752,-78.3627,50,6,6.9,KCTZ 080145Z AUTO 05006KT 3SM BKN009 BKN029 OVC041 26/26 A2968 RMK AO2 P0014 T02550255,2024-08-08T01:45:00Z,25.5,25.5,3,29.68
KCPC,34.2753,-78.7146,120,7,8.06,KCPC 080145Z AUTO 12007KT 4SM BR BKN006 OVC010 25/24 A2957 RMK AO2 P0010 T02510240,2024-08-08T01:45:00Z,25.1,24,4,29.57
KCGE,38.5372,-76.0309,110,6,6.9,KCGE 080145Z AUTO 11006KT 10SM FEW038 BKN120 24/23 A2992 RMK A01,2024-08-08T01:45:00Z,24,23,10+,29.92
KCBE,39.6182,-78.7598,40,7,8.06,KCBE 080145Z AUTO 04007KT 10SM OVC018 24/20 A2996 RMK AO2 T02420204,2024-08-08T01:45:00Z,24.2,20.4,10+,29.96
KBJC,39.9008,-105.104,180,15,17.26,KBJC 080145Z 18015G18KT 10SM SCT100 BKN150 24/12 A3015,2024-08-08T01:45:00Z,24,12,10+,30.15
KBBG,36.5259,-93.1969,0,0,0.0,KBBG 080145Z 00000KT 10SM CLR 23/19 A2991,2024-08-08T01:45:00Z,23,19,10+,29.91
KBAK,39.2664,-85.8926,0,0,0.0,KBAK 080145Z 00000KT 10SM BKN045 22/19 A2989 RMK LAST,2024-08-08T01:45:00Z,22,19,10+,29.89
KATW,44.2519,-88.526,VRB,5,5.75,KATW 080145Z VRB05KT 10SM BKN050 22/13 A2998,2024-08-08T01:45:00Z,22,13,10+,29.98
KASJ,36.2941,-77.1724,130,4,4.6,KASJ 080145Z AUTO 13004KT 10SM RA SCT010 SCT035 BKN120 23/23 A2982 RMK AO2 P0006 T02320232,2024-08-08T01:45:00Z,23.2,23.2,10+,29.82
KACZ,34.718,-78.005,70,19,21.86,KACZ 080145Z AUTO 07019G29KT 2 1/2SM +RA BR SCT008 BKN011 OVC039 26/25 A2964 RMK AO2 P0028 T02570250,2024-08-08T01:45:00Z,25.7,25,2.5,29.64
K7W6,35.5594,-75.955,100,12,13.81,K7W6 080145Z AUTO 10012G18KT 7SM -RA SCT027 BKN048 OVC070 27/25 A2981 RMK AO2 P0006 T02650251,2024-08-08T01:45:00Z,26.5,25.1,7,29.81
K2G4,39.5827,-79.3418,110,12,13.81,K2G4 080145Z AUTO 11012G20KT 10SM BKN004 OVC007 21/20 A2999 RMK AO2,2024-08-08T01:45:00Z,21,20,10+,29.99
K1A5,35.2228,-83.415,0,0,0.0,K1A5 080145Z AUTO 00000KT 10SM CLR 22/21 A2984 RMK AO2 T02220211,2024-08-08T01:45:00Z,22.2,21.1,10+,29.84
K0W3,39.566,-76.202,80,10,11.51,K0W3 080145Z AUTO 08010KT 5SM -RA BR OVC004 20/20 A2997 RMK AO2 CIG 003V006 P0006 T02050205 $,2024-08-08T01:45:00Z,20.5,20.5,5,29.97
CWPF,48.432,-123.439,160,4,4.6,CWPF 080145Z AUTO 16004KT 17/11 RMK AO1 SLP175 T01660114 56025,2024-08-08T01:45:00Z,16.6,11.4,,
MMSM,19.763,-99.002,50,3,3.45,MMSM 080144Z 05003KT 8SM BKN020CB BKN080 17/12 A3028 RMK 8/960 HZY DSBT PCPN SE,2024-08-08T01:44:00Z,17,12,8,30.28
MMSL,22.948,-109.936,250,16,18.41,MMSL 080144Z 25016KT 10SM SKC 29/22 A2991 RMK SC ISOL CI,2024-08-08T01:44:00Z,29,22,10+,29.91
MMLM,25.688,-109.085,270,13,14.96,MMLM 080144Z 27013KT 10SM FEW220 31/23 A2988 RMK 8/001 DSNT CB NE,2024-08-08T01:44:00Z,31,23,10+,29.88
MMCP,19.817,-90.502,50,6,6.9,MMCP 080144Z 05006KT 7SM FEW020 SCT250 29/25 A2985 RMK 8/101,2024-08-08T01:44:00Z,29,25,7,29.85
MMBT,15.775,-96.26,0,0,0.0,MMBT 080144Z 00000KT 8SM SCT200 29/24 A2979 RMK 8/001,2024-08-08T01:44:00Z,29,24,8,29.79
CYVL,67.021,-126.129,150,8,9.21,CYVL 080144Z AUTO 15008KT 120V190 5SM HZ CLR 30/11 A2994 RMK SLP143 DENSITY ALT 2800FT,2024-08-08T01:44:00Z,30,11,5,29.94
RKTE,36.568,127.5,180,3,3.45,RKTE 0143Z 18003KT 9000 BR SCT020 BKN030 BKN150 30/25 A2970 RMK CIG030,2024-08-08T01:43:00Z,30,25,5.59,29.70
RKSV,37.779,126.372,230,4,4.6,RKSV 080143Z 23004KT 3200 BR OVC003 26/25 A2976 RMK CIG003,2024-08-08T01:43:00Z,26,25,1.99,29.76
RJSA,40.733,140.689,270,7,8.06,RJSA 080143Z 27007KT 240V300 9999 -SHRA FEW003 BKN007 BKN030 24/22 Q1005 RMK 1ST003 6ST007 7CU030 A2968,2024-08-08T01:43:00Z,24,22,6+,29.68
MMTM,22.29,-97.863,160,8,9.21,MMTM 080143Z 16008KT 6SM BKN200 29/26 A2982 RMK 8/008 CU HZ,2024-08-08T01:43:00Z,29,26,6,29.82
MMPB,19.17,-98.371,260,3,3.45,MMPB 080143Z 26003KT 8SM SCT020 BKN090 BKN230 17/13 A3029 RMK 8/463 HZY,2024-08-08T01:43:00Z,17,13,8,30.29
MMMD,20.936,-89.659,0,0,0.0,MMMD 080143Z 00000KT 7SM BKN300 27/25 A2986 RMK 8/008 HZY,2024-08-08T01:43:00Z,27,25,7,29.86
KSFY,42.0454,-90.1101,30,3,3.45,KSFY 080143Z AUTO 03003KT 10SM CLR 20/16 A2994 RMK AO2,2024-08-08T01:43:00Z,20,16,10+,29.94
KDUB,43.5485,-109.684,250,7,8.06,KDUB 080143Z AUTO 25007G16KT 10SM CLR 23/M08 A3023 RMK AO2,2024-08-08T01:43:00Z,23,-8,10+,30.23
MMGL,20.523,-103.312,250,7,8.06,MMGL 080142Z 25007KT 8SM SCT025TCU BKN300 25/18 A3010 RMK 8/203,2024-08-08T01:42:00Z,25,18,8,30.10
KNSI,33.2337,-119.456,80,4,4.6,KNSI 080142Z AUTO 08004KT 5SM HZ BKN007 17/ A2994 RMK AO2 T0172 $,2024-08-08T01:42:00Z,17.2,,5,29.94
ROIG,24.395,124.245,VRB,2,2.3,ROIG 080141Z VRB02KT 9999 -SHRA FEW019 BKN025 BKN/// 30/27 Q1005 RMK 2CU019 5CU025 A2970,2024-08-08T01:41:00Z,30,27,6+,29.68
MMSP,22.256,-100.93,110,7,8.06,MMSP 080141Z 11007KT 8SM SCT250 24/15 A3017 RMK 8/001 SC,2024-08-08T01:41:00Z,24,15,8,30.17
MMMM,19.844,-101.037,0,0,0.0,MMMM 080141Z 00000KT 7SM SCT100 BKN300 20/17 A3015 RMK 8/038 CB N/NE/S SC,2024-08-08T01:41:00Z,20,17,7,30.15
MMZO,19.147,-104.565,0,0,0.0,MMZO 080140Z 00000KT 8SM BKN020 OVC210 28/23 A2980 RMK 8/106 HZY,2024-08-08T01:40:00Z,28,23,8,29.80
MMUN,21.038,-86.855,0,0,0.0,MMUN 080140Z 00000KT 7SM SCT250 26/26 A2986 RMK 8/008 SC,2024-08-08T01:40:00Z,26,26,7,29.86
MMTP,14.795,-92.371,70,5,5.75,MMTP 080140Z 07005KT 7SM FEW020CB SCT080 27/24 A2981 RMK 8/360 HZY,2024-08-08T01:40:00Z,27,24,7,29.81
MMTL,20.1725,-87.6622,0,0,0.0,MMTL 080140Z 00000KT 7SM SCT020 SCT200 25/24 A2990 RMK 8/403,2024-08-08T01:40:00Z,25,24,7,29.90
MMTJ,32.544,-116.982,290,8,9.21,MMTJ 080140Z 29008KT 10SM BKN150 24/18 A2996 RMK 8/080,2024-08-08T01:40:00Z,24,18,10+,29.96
MMPR,20.68,-105.25,320,5,5.75,MMPR 080140Z 32005KT 13SM BKN030CB BKN250 30/24 A2987 RMK 8/903 LWR CLDS OCNL DROPS,2024-08-08T01:40:00Z,30,24,13,29.87
MMOX,17.002,-96.724,100,2,2.3,MMOX 080140Z 10002KT 7SM SCT030 BKN210 21/17 A3015 RMK 8/502,2024-08-08T01:40:00Z,21,17,7,30.15
MMMY,25.774,-100.104,150,5,5.75,MMMY 080140Z 15005KT 12SM FEW200 31/20 A2984 RMK 8/008 ISOL SC AC,2024-08-08T01:40:00Z,31,20,12,29.84
MMMT,18.098,-94.583,20,5,5.75,MMMT 080140Z 02005KT 7SM SCT020 29/26 A2983 RMK 8/100 VC HZ,2024-08-08T01:40:00Z,29,26,7,29.83
MMLT,25.993,-111.35,0,0,0.0,MMLT 080140Z 00000KT 8SM BKN030 BKN120 BKN240 32/23 A2984 RMK 8/463 HZY,2024-08-08T01:40:00Z,32,23,8,29.84
MMHO,29.097,-111.051,240,9,10.36,MMHO 080140Z 24009KT 10SM SCT100 SCT200 36/18 A2988 RMK 8/061 ISOL CU HZY,2024-08-08T01:40:00Z,36,18,10+,29.88
MMGM,27.964,-110.928,270,10,11.51,MMGM 080140Z 27010KT 10SM BKN080 33/27 A2981 RMK 8/06/,2024-08-08T01:40:00Z,33,27,10+,29.81
MMDO,24.124,-104.532,280,4,4.6,MMDO 080140Z 28004KT 8SM SCT020 SCT070 BKN220 24/08 A3018 RMK 8/463 HZY,2024-08-08T01:40:00Z,24,8,8,30.18
MMCV,23.706,-98.959,70,8,9.21,MMCV 080140Z 07008KT 10SM FEW020 SCT200 32/23 A2982 RMK 8/408,2024-08-08T01:40:00Z,32,23,10+,29.82
MMCU,28.701,-105.965,110,3,3.45,MMCU 080140Z 11003KT 10SM FEW030 SCT070 BKN200 28/13 A3010 RMK 8/472 VCCB,2024-08-08T01:40:00Z,28,13,10+,30.10
MMCS,31.636,-106.427,150,4,4.6,MMCS 080140Z 15004KT 10SM SCT030 SCT100 BKN200 33/10 A2998 RMK 8/572 CB VC,2024-08-08T01:40:00Z,33,10,10+,29.98
MMCE,18.651,-91.8,0,0,0.0,MMCE 080140Z 00000KT 7SM SKC 31/25 A2983 RMK HZY,2024-08-08T01:40:00Z,31,25,7,29.83
MMAS,21.702,-102.318,260,6,6.9,MMAS 080140Z 26006KT 8SM SCT100 SCT200 23/15 A3018 RMK 8/082 LTGICCG SW,2024-08-08T01:40:00Z,23,15,8,30.18
MMAN,25.865,-100.239,120,5,5.75,MMAN 080140Z 12005KT 12SM SKC 32/18 A2984 RMK ISOL SC CI,2024-08-08T01:40:00Z,32,18,12,29.84
MMAA,16.758,-99.754,260,11,12.66,MMAA 080140Z 26011KT 6SM BKN300 30/25 A2975 RMK 8/008 HZY DSNT CB NE,2024-08-08T01:40:00Z,30,25,6,29.75
KOCW,35.5703,-77.05,70,7,8.06,KOCW 080140Z AUTO 07007KT 10SM -RA SCT009 BKN021 OVC037 25/24 A2979 RMK AO2 P0002 T02510242,2024-08-08T01:40:00Z,25.1,24.2,10+,29.79
KMHV,35.0626,-118.157,300,23,26.47,KMHV 080140Z AUTO 30023G34KT 10SM CLR 36/02 A2991 RMK AO2,2024-08-08T01:40:00Z,36,2,10+,29.91
KGZN,32.3682,-99.026,110,6,6.9,KGZN 080140Z AUTO 11006KT 10SM 33/14 A2983 RMK AO2,2024-08-08T01:40:00Z,33,14,10+,29.83
KETC,35.9363,-77.5416,80,13,14.96,KETC 080140Z AUTO 08013G18KT 3 1/2SM +RA BR SCT007 BKN025 OVC090 24/23 A2982 RMK AO2 P0007,2024-08-08T01:40:00Z,24,23,3.5,29.82
KEHO,35.2556,-81.5986,30,9,10.36,KEHO 080140Z AUTO 03009KT 10SM SCT110 25/22 A2976 RMK AO2 T02450223,2024-08-08T01:40:00Z,24.5,22.3,10+,29.76
CYIV,53.857,-94.655,20,6,6.9,CYIV 080140Z AUTO 02006KT 9SM OVC066 12/11 A3000 RMK SLP169,2024-08-08T01:40:00Z,12,11,9,30.00
K2V6,40.1047,-102.713,300,3,3.45,K2V6 080139Z AUTO 30003KT 10SM VCTS SCT120 24/10 A3006 RMK AO2 LTG DSNT SE THRU SW,2024-08-08T01:39:00Z,24,10,10+,30.06
CYCA,53.683,-57.042,60,6,6.9,CYCA 080139Z AUTO 06006KT 9SM FEW007 BKN010 OVC029 09/09 A2972 RMK SLP068,2024-08-08T01:39:00Z,9,9,9,29.72
UATT,50.248,57.203,VRB,2,2.3,UATT 080138Z VRB01MPS 2900 BR NSC 16/16 Q1004 TEMPO 0300 FG VV002 RMK QFE733/0978,2024-08-08T01:38:00Z,16,16,1.8,29.65
RCSS,25.069,121.552,310,9,10.36,RCSS 080138Z 31009KT 280V350 9999 VCSH FEW018 FEW025TCU SCT028 33/27 Q1006 NOSIG RMK 31011KT/R10 TCU W-NW A2973,2024-08-08T01:38:00Z,33,27,6+,29.70
KCPS,38.57,-90.156,340,4,4.6,KCPS 080138Z 34004KT 10SM BKN027 OVC042 24/19 A2990 RMK AO2 T02390189,2024-08-08T01:38:00Z,23.9,18.9,10+,29.90
CZUM,53.562,-64.107,330,9,10.36,CZUM 080138Z AUTO 33009KT 8SM -RA FEW013 SCT024 BKN038 OVC045 10/08 A2980 RMK SLP107,2024-08-08T01:38:00Z,10,8,8,29.80
FABL,-29.093,26.302,160,2,2.3,FABL 080137Z AUTO 16002KT //// R02///// // ///////// 04/M03 Q1020,2024-08-08T01:37:00Z,4,-3,,30.12
KWWR,36.4374,-99.5234,150,8,9.21,KWWR 080135Z AUTO 15008KT 10SM CLR 34/12 A2984 RMK AO2,2024-08-08T01:35:00Z,34,12,10+,29.84
KW43,44.6607,-104.568,30,5,5.75,KW43 080135Z AUTO 03005KT 10SM -RA SCT027 SCT050 BKN070 16/11 A3024 RMK AO2,2024-08-08T01:35:00Z,16,11,10+,30.24
KTZR,39.8988,-83.1357,50,5,5.75,KTZR 080135Z AUTO 05005KT 10SM CLR 22/19 A2989 RMK AO2 T02230190,2024-08-08T01:35:00Z,22.3,19,10+,29.89
KTMT,39.4643,-117.197,340,11,12.66,KTMT 080135Z AUTO 34011KT 10SM CLR 32/02 A3015 RMK AO2 T03180020,2024-08-08T01:35:00Z,31.8,2,10+,30.15
KSZT,48.2945,-116.567,20,3,3.45,KSZT 080135Z AUTO 02003KT 10SM CLR 26/07 A3006 RMK AO2,2024-08-08T01:35:00Z,26,7,10+,30.06
KSBS,40.5153,-106.868,260,9,10.36,KSBS 080135Z AUTO 26009KT 10SM CLR 20/10 A3027 RMK AO1 T01950097,2024-08-08T01:35:00Z,19.5,9.7,10+,30.27
KRCE,35.4971,-97.8255,140,7,8.06,KRCE 080135Z AUTO 14007KT 10SM CLR 33/18 A2981 RMK AO2 TSNO,2024-08-08T01:35:00Z,33,18,10+,29.81
KPVW,34.169,-101.723,200,5,5.75,KPVW 080135Z AUTO 20005KT 10SM CLR 33/08 A2993 RMK AO2 T03270078,2024-08-08T01:35:00Z,32.7,7.8,10+,29.93
KPVF,38.7222,-120.757,0,0,0.0,KPVF 080135Z AUTO 00000KT 10SM CLR 34/M05 A3002 RMK AO1,2024-08-08T01:35:00Z,34,-5,10+,30.02
KPPQ,39.6391,-90.7818,0,0,0.0,KPPQ 080135Z AUTO 00000KT 10SM SCT037 22/20 A2994 RMK AO2 T02180196,2024-08-08T01:35:00Z,21.8,19.6,10+,29.94
KPPA,35.6139,-100.997,150,11,12.66,KPPA 080135Z AUTO 15011KT 10SM CLR 35/12 A2991 RMK AO2 T03470117,2024-08-08T01:35:00Z,34.7,11.7,10+,29.91
KOWX,41.0341,-83.9862,20,4,4.6,KOWX 080135Z AUTO 02004KT 10SM BKN038 OVC049 20/16 A3073 RMK AO1,2024-08-08T01:35:00Z,20,16,10+,30.73
KOLY,38.7213,-88.1799,0,0,0.0,KOLY 080135Z AUTO 00000KT 10SM BKN032 OVC055 22/21 A2988 RMK AO2 T02170207,2024-08-08T01:35:00Z,21.7,20.7,10+,29.88
KOEL,39.1139,-100.819,80,9,10.36,KOEL 080135Z AUTO 08009KT 10SM CLR 30/15 A2991 RMK AO1 T02960152,2024-08-08T01:35:00Z,29.6,15.2,10+,29.91
KNOW,48.1394,-123.403,290,13,14.96,KNOW 080135Z AUTO 29013KT 10SM CLR 13/12 A3006 RMK AO2 T01310117,2024-08-08T01:35:00Z,13.1,11.7,10+,30.06
KMZZ,40.4863,-85.6859,50,4,4.6,KMZZ 080135Z AUTO 05004KT 7SM CLR 19/18 A2994 RMK AO2 T01920177,2024-08-08T01:35:00Z,19.2,17.7,7,29.94
KMYZ,39.8544,-96.6279,110,3,3.45,KMYZ 080135Z AUTO 11003KT 10SM CLR 25/16 A2990 RMK AO2,2024-08-08T01:35:00Z,25,16,10+,29.90
KMPZ,40.9453,-91.5122,0,0,0.0,KMPZ 080135Z AUTO 00000KT 10SM CLR 21/17 A2995 RMK AO2,2024-08-08T01:35:00Z,21,17,10+,29.95
KMHP,32.374,-82.079,310,8,9.21,KMHP 080135Z AUTO 31008KT 10SM CLR 26/24 A2962 RMK AO2 T02580238,2024-08-08T01:35:00Z,25.8,23.8,10+,29.62
KMHL,39.093,-93.2024,0,0,0.0,KMHL 080135Z AUTO 00000KT 10SM CLR 22/18 A2992 RMK AO2,2024-08-08T01:35:00Z,22,18,10+,29.92
KM25,36.764,-88.5829,30,6,6.9,KM25 080135Z AUTO 03006KT 10SM SCT019 23/20 A2984 RMK AO2,2024-08-08T01:35:00Z,23,20,10+,29.84
KLRO,32.8982,-79.7796,0,0,0.0,KLRO 080135Z AUTO 00000KT 1 1/2SM -DZ 25/25 A2943 RMK AO2 LTG DSNT NE,2024-08-08T01:35:00Z,25,25,1.5,29.43
KLOM,40.1376,-75.2684,80,8,9.21,KLOM 080135Z AUTO 08008KT 7SM -DZ BR OVC006 19/19 A3003 RMK AO2 T01880187,2024-08-08T01:35:00Z,18.8,18.7,7,30.03
KK62,38.7018,-84.3964,30,5,5.75,KK62 080135Z AUTO 03005KT 10SM CLR 23/20 A2985 RMK AO2,2024-08-08T01:35:00Z,23,20,10+,29.85
KJZP,34.4542,-84.4597,320,6,6.9,KJZP 080135Z AUTO 32006KT 10SM CLR 27/22 A2978 RMK AO2 T02690215,2024-08-08T01:35:00Z,26.9,21.5,10+,29.78
KJVW,32.3069,-90.412,0,0,0.0,KJVW 080135Z AUTO 00000KT 10SM SCT070 30/25 A2978 RMK AO2,2024-08-08T01:35:00Z,30,25,10+,29.78
KJES,31.5521,-81.8896,280,3,3.45,KJES 080135Z AUTO 28003KT 10SM SCT075 BKN085 25/23 A2965 RMK AO2 LTG DSNT S,2024-08-08T01:35:00Z,25,23,10+,29.65
KJDD,32.7403,-95.4945,0,0,0.0,KJDD 080135Z AUTO 00000KT 10SM CLR 30/24 A2978 RMK AO2,2024-08-08T01:35:00Z,30,24,10+,29.78
KHUM,29.5634,-90.6629,0,0,0.0,KHUM 080135Z AUTO 00000KT 7SM CLR 29/26 A2978 RMK AO2 T02940257 PWINO,2024-08-08T01:35:00Z,29.4,25.7,7,29.78
KHSG,43.7178,-108.385,340,16,18.41,KHSG 080135Z AUTO 34016G23KT 10SM OVC060 19/10 A3021 RMK AO2 LTG DSNT NE AND NW T01920102,2024-08-08T01:35:00Z,19.2,10.2,10+,30.21
KHNZ,36.3635,-78.5289,80,7,8.06,KHNZ 080135Z AUTO 08007KT 10SM SCT013 23/23 A2981 RMK AO2 T02280227,2024-08-08T01:35:00Z,22.8,22.7,10+,29.81
KHMZ,40.0863,-78.5167,100,4,4.6,KHMZ 080135Z AUTO 10004KT 10SM OVC014 22/20 A2995 RMK AO2 T02190196,2024-08-08T01:35:00Z,21.9,19.6,10+,29.95
KHJH,40.1493,-97.5872,70,5,5.75,KHJH 080135Z AUTO 07005KT 10SM CLR 26/17 A2991 RMK AO2 T02600170,2024-08-08T01:35:00Z,26,17,10+,29.91
KGNC,32.678,-102.65,140,4,4.6,KGNC 080135Z AUTO 14004KT 10SM CLR 36/07 A2996 RMK AO2 T03550065,2024-08-08T01:35:00Z,35.5,6.5,10+,29.96
KGNB,40.0904,-105.911,210,11,12.66,KGNB 080135Z AUTO 21011G15KT 10SM SCT065 SCT100 SCT120 15/M11 A3041 RMK AO2 T01471108,2024-08-08T01:35:00Z,14.7,-10.8,10+,30.41
KGGP,40.7127,-86.3673,50,3,3.45,KGGP 080135Z AUTO 05003KT 10SM OVC050 22/17 A2994 RMK AO2,2024-08-08T01:35:00Z,22,17,10+,29.94
KGCD,44.4029,-118.967,310,6,6.9,KGCD 080135Z AUTO 31006KT 7SM CLR 29/00 A3006 RMK AO2 T02931001,2024-08-08T01:35:00Z,29.3,-0.1,7,30.06
KFOM,38.9618,-112.36,,,,KFOM 080135Z AUTO 10SM CLR 36/M06 A3005 RMK AO1,2024-08-08T01:35:00Z,36,-6,10+,30.05
KFGX,38.5383,-83.7467,40,11,12.66,KFGX 080135Z AUTO 04011G16KT 10SM SCT043 26/20 A2985 RMK AO2 T02560200,2024-08-08T01:35:00Z,25.6,20,10+,29.85
KFEP,42.2475,-89.581,80,3,3.45,KFEP 080135Z AUTO 08003KT 10SM CLR 20/15 A2998 RMK AO2 T01990154,2024-08-08T01:35:00Z,19.9,15.4,10+,29.98
KF00,33.6158,-96.1809,0,0,0.0,KF00 080135Z AUTO 00000KT 10SM CLR 31/21 A2979 RMK AO2 T03090211,2024-08-08T01:35:00Z,30.9,21.1,10+,29.79
KEOE,34.3062,-81.6413,340,11,12.66,KEOE 080135Z AUTO 34011G14KT 10SM CLR 26/25 A2970 RMK AO2 LTG DSNT E,2024-08-08T01:35:00Z,26,25,10+,29.70
KEAN,42.0563,-104.939,120,13,14.96,KEAN 080135Z AUTO 12013G22KT 10SM OVC085 24/15 A3012 RMK AO2 T02380152,2024-08-08T01:35:00Z,23.8,15.2,10+,30.12
KCPW,37.464,-106.804,360,9,10.36,KCPW 080135Z AUTO 36009G15KT 10SM BKN060 OVC070 12/03 A3071 RMK AO2 LTG DSNT N,2024-08-08T01:35:00Z,12,3,10+,30.71
KBWP,46.2444,-96.6046,340,8,9.21,KBWP 080135Z AUTO 34008KT 10SM OVC060 18/18 A2996 RMK AO2,2024-08-08T01:35:00Z,18,18,10+,29.96
KBMT,30.0686,-94.2155,220,4,4.6,KBMT 080135Z AUTO 22004KT 10SM CLR 30/24 A2979 RMK AO2 T02950240,2024-08-08T01:35:00Z,29.5,24,10+,29.79
KBMC,41.5463,-112.06,110,4,4.6,KBMC 080135Z AUTO 11004KT 10SM CLR 34/M06 A3000 RMK AO1 T03361059,2024-08-08T01:35:00Z,33.6,-5.9,10+,30.00
KASL,32.5207,-94.3066,0,0,0.0,KASL 080135Z AUTO 00000KT 8SM CLR 28/27 A2976 RMK AO2 T02840268 $,2024-08-08T01:35:00Z,28.4,26.8,8,29.76
KAIK,33.651,-81.6821,350,9,10.36,KAIK 080135Z AUTO 35009G15KT 10SM CLR 26/23 A2966 RMK AO2 T02610231,2024-08-08T01:35:00Z,26.1,23.1,10+,29.66
K41U,39.3323,-111.614,10,9,10.36,K41U 080135Z AUTO 01009KT 10SM CLR 30/08 A3008 RMK AO1 T02990079,2024-08-08T01:35:00Z,29.9,7.9,10+,30.08
K04V,38.099,-106.17,260,5,5.75,K04V 080135Z AUTO 26005KT 10SM BKN095 OVC120 16/12 A3041 RMK AO2 LTG DSNT SW PWINO,2024-08-08T01:35:00Z,16,12,10+,30.41
RJOC,35.414,132.89,30,4,4.6,RJOC 080134Z 03004KT 9999 FEW025 32/23 Q1005 RMK 1CU025 A2968,2024-08-08T01:34:00Z,32,23,6+,29.68
KC99,39.869,-105.553,300,21,24.17,KC99 080134Z AUTO 30021G31KT 10SM SCT070 OVC090 10/04 A3058 RMK AO2 LTG DSNT E AND SW,2024-08-08T01:34:00Z,10,4,10+,30.58
CYXL,50.114,-91.905,290,5,5.75,CYXL 080133Z 29005KT 15SM -SHRA SCT023TCU BKN250 19/15 A2980 RMK TCU4CI2 VIS 3 NW SLP097 DENSITY ALT 2200FT,2024-08-08T01:33:00Z,19,15,15,29.80
VIJP,26.824,75.812,250,6,6.9,VIJP 080132Z 25006KT 2500 DZ BR SCT015 BKN025 OVC100 26/25 Q1004 NOSIG,2024-08-08T01:32:00Z,26,25,1.55,29.65
RKTP,36.704,126.486,220,6,6.9,RKTP 080131Z 22006KT 9999 FEW010 BKN020 BKN200 29/24 A2971 RMK CIG020,2024-08-08T01:31:00Z,29,24,6+,29.71
ZYTX,41.639,123.485,240,6,6.9,ZYTX 080130Z 24003MPS 210V270 9999 SCT020 29/24 Q1006 NOSIG,2024-08-08T01:30:00Z,29,24,6+,29.70
ZYTL,38.961,121.556,350,4,4.6,ZYTL 080130Z 35002MPS 310V050 9999 FEW026 30/24 Q1005 NOSIG,2024-08-08T01:30:00Z,30,24,6+,29.68
ZWWW,43.907,87.474,160,6,6.9,ZWWW 080130Z 16003MPS 130V200 CAVOK 27/08 Q1010 NOSIG,2024-08-08T01:30:00Z,27,8,6+,29.82
ZSSS,31.209,121.337,VRB,4,4.6,ZSSS 080130Z VRB02MPS CAVOK 34/26 Q1005 NOSIG,2024-08-08T01:30:00Z,34,26,6+,29.68
ZSPD,31.146,121.8,VRB,4,4.6,ZSPD 080130Z VRB02MPS CAVOK 33/27 Q1005 NOSIG,2024-08-08T01:30:00Z,33,27,6+,29.68
ZSHC,30.229,120.434,220,4,4.6,ZSHC 080130Z 22002MPS 170V260 CAVOK 34/25 Q1005 NOSIG,2024-08-08T01:30:00Z,34,25,6+,29.68
ZGGG,23.392,113.307,200,6,6.9,ZGGG 080130Z 20003MPS 160V260 9999 FEW023 33/27 Q1007 NOSIG,2024-08-08T01:30:00Z,33,27,6+,29.73
ZBYN,37.747,112.628,340,4,4.6,ZBYN 080130Z 34002MPS 310V010 9999 BKN040 24/19 Q1010 NOSIG,2024-08-08T01:30:00Z,24,19,6+,29.82
ZBTJ,39.124,117.346,VRB,2,2.3,ZBTJ 080130Z VRB01MPS 8000 NSC 30/24 Q1005 NOSIG,2024-08-08T01:30:00Z,30,24,4.97,29.68
ZBAD,39.501,116.412,VRB,2,2.3,ZBAD 080130Z VRB01MPS 6000 FEW010 29/24 Q1006 NOSIG,2024-08-08T01:30:00Z,29,24,3.73,29.70
ZBAA,40.082,116.603,VRB,2,2.3,ZBAA 080130Z VRB01MPS CAVOK 29/23 Q1006 NOSIG,2024-08-08T01:30:00Z,29,23,6+,29.70
YWLM,-32.794,151.836,360,6,6.9,YWLM 080130Z 36006KT 9999 FEW032 18/11 Q1027,2024-08-08T01:30:00Z,18,11,6+,30.32
YSTW,-31.084,150.847,0,0,0.0,YSTW 080130Z AUTO 00000KT 9999 // NCD 17/07 Q1027 RF00.0/000.0,2024-08-08T01:30:00Z,17,7,6+,30.32
YSSY,-33.946,151.173,270,5,5.75,YSSY 080130Z 27005KT 230V320 9999 FEW040 17/08 Q1027 RF00.0/000.0 HZ,2024-08-08T01:30:00Z,17,8,6+,30.32
YSRI,-33.601,150.777,80,4,4.6,YSRI 080130Z AUTO 08004KT 9999 // NCD 16/12 Q1027 RF00.0/000.0,2024-08-08T01:30:00Z,16,12,6+,30.32
YSNF,-29.039,167.941,290,3,3.45,YSNF 080130Z 29003KT 9999 FEW022 SCT029 BKN130 19/12 Q1024 RF00.0/000.0,2024-08-08T01:30:00Z,19,12,6+,30.24
YSDU,-32.221,148.575,360,11,12.66,YSDU 080130Z AUTO 36011KT 9999 // SCT028 17/10 Q1026 RF00.0/000.0,2024-08-08T01:30:00Z,17,10,6+,30.30
YSCB,-35.309,149.2,290,5,5.75,YSCB 080130Z AUTO 29005KT 260V330 9999 // NCD 13/03 Q1026 RF00.0/000.0,2024-08-08T01:30:00Z,13,3,6+,30.30
YPWR,-31.156,136.805,360,19,21.86,YPWR 080130Z AUTO 36019KT 9999 // NCD 18/05 Q1021 RF00.0/000.0,2024-08-08T01:30:00Z,18,5,6+,30.15
YPTN,-14.523,132.383,100,15,17.26,YPTN 080130Z AUTO 10015KT 9999 // NCD 28/07 Q1019 RF00.0/000.0,2024-08-08T01:30:00Z,28,7,6+,30.09
YPPH,-31.927,115.976,360,8,9.21,YPPH 080130Z 36008KT 9999 FEW028 BKN055 14/11 Q1022 RF00.0/000.0,2024-08-08T01:30:00Z,14,11,6+,30.18
YPPD,-20.372,118.632,120,10,11.51,YPPD 080130Z AUTO 12010KT 9999 // ////// 27/04 Q1020 RF00.0/000.0,2024-08-08T01:30:00Z,27,4,6+,30.12
YPLM,-22.241,114.097,140,8,9.21,YPLM 080130Z AUTO 14008KT 9999 // NCD 22/16 Q1022 RF00.0/000.0,2024-08-08T01:30:00Z,22,16,6+,30.18
YPKU,-15.781,128.71,120,9,10.36,YPKU 080130Z AUTO 12009KT 9999 // NCD 30/10 Q1018 RF00.0/000.0,2024-08-08T01:30:00Z,30,10,6+,30.06
YPKG,-30.785,121.453,250,4,4.6,YPKG 080130Z AUTO 25004KT 200V290 9999 // NCD 14/10 Q1023 RF00.0/000.0,2024-08-08T01:30:00Z,14,10,6+,30.21
YPJT,-32.101,115.879,10,10,11.51,YPJT 080130Z AUTO 01010KT 9999 // BKN060 15/11 Q1022 RF00.0/000.0,2024-08-08T01:30:00Z,15,11,6+,30.18
YPEA,-31.667,116.019,350,9,10.36,YPEA 080130Z 35009KT 9999 SCT045 BKN055 14/12 Q1022 RF00.0/000.0,2024-08-08T01:30:00Z,14,12,6+,30.18
YPDN,-12.424,130.893,110,13,14.96,YPDN 080130Z 11013KT CAVOK 30/14 Q1017,2024-08-08T01:30:00Z,30,14,6+,30.03
YPCC,-12.189,96.834,90,15,17.26,YPCC 080130Z AUTO 09015KT 9999 // FEW027 SCT032 27/22 Q1015,2024-08-08T01:30:00Z,27,22,6+,29.97
YPAD,-34.952,138.52,350,12,13.81,YPAD 080130Z 35012KT 9999 VCSH NSC 14/07 Q1020 RF00.0/000.0 BKN050 OVC070,2024-08-08T01:30:00Z,14,7,6+,30.12
YMML,-37.666,144.832,10,12,13.81,YMML 080130Z 01012KT 9999 FEW043 BKN260 10/05 Q1023 RF00.0/000.0,2024-08-08T01:30:00Z,10,5,6+,30.21
YMLT,-41.544,147.213,350,13,14.96,YMLT 080130Z AUTO 35013KT 9999 // BKN023 OVC030 12/08 Q1020,2024-08-08T01:30:00Z,12,8,6+,30.12
YMHB,-42.834,147.503,360,10,11.51,YMHB 080130Z 36010KT 9999 FEW050 BKN190 OVC210 14/06 Q1017 RF00.0/000.0,2024-08-08T01:30:00Z,14,6,6+,30.03
YMAV,-38.029,144.478,10,15,17.26,YMAV 080130Z AUTO 01015KT 9999 // NCD 14/05 Q1021 RF00.0/000.0,2024-08-08T01:30:00Z,14,5,6+,30.15
YLHI,-31.538,159.077,90,13,14.96,YLHI 080130Z 09013KT 9999 SCT033 BKN054 19/12 Q1027 RF00.0/000.0,2024-08-08T01:30:00Z,19,12,6+,30.32
YHID,-10.584,142.29,110,16,18.41,YHID 080130Z AUTO 11016KT 9999 // FEW020 28/21 Q1015 RF00.0/000.0,2024-08-08T01:30:00Z,28,21,6+,29.97
YGLA,-23.87,151.221,100,13,14.96,YGLA 080130Z AUTO 10013KT 9999 // BKN034 BKN044 23/13 Q1023,2024-08-08T01:30:00Z,23,13,6+,30.21
YGEL,-28.805,114.699,90,4,4.6,YGEL 080130Z AUTO 09004KT 9999 // OVC054 15/13 Q1023 RF00.0/000.0,2024-08-08T01:30:00Z,15,13,6+,30.21
YFRT,-30.848,128.114,190,8,9.21,YFRT 080130Z AUTO 19008KT 9999 // NCD 18/10 Q1022 RF00.0/000.0,2024-08-08T01:30:00Z,18,10,6+,30.18
YCIN,-17.574,123.831,180,3,3.45,YCIN 080130Z AUTO 18003KT 9999 // NCD 29/06 Q1017 RF00.0/000.0,2024-08-08T01:30:00Z,29,6,6+,30.03
YCFS,-30.317,153.119,170,7,8.06,YCFS 080130Z AUTO 17007KT 9999 // OVC064 18/11 Q1028 RF00.0/000.0,2024-08-08T01:30:00Z,18,11,6+,30.35
YBWW,-27.558,151.793,90,12,13.81,YBWW 080130Z AUTO 09012KT 9999 // NCD 19/06 Q1025 RF00.0/000.0,2024-08-08T01:30:00Z,19,6,6+,30.27
YBTL,-19.248,146.766,90,11,12.66,YBTL 080130Z AUTO 09011KT 9999 // SCT030 26/16 Q1020 RF00.0/000.0,2024-08-08T01:30:00Z,26,16,6+,30.12
YBSU,-26.603,153.091,160,16,18.41,YBSU 080130Z AUTO 16016KT 9999 // NCD 21/14 Q1025 RF00.0/000.0,2024-08-08T01:30:00Z,21,14,6+,30.27
YBRM,-17.948,122.235,140,6,6.9,YBRM 080130Z AUTO 14006KT 9999 // NCD 27/06 Q1019 RF00.0/000.0,2024-08-08T01:30:00Z,27,6,6+,30.09
YBRK,-23.375,150.477,110,11,12.66,YBRK 080130Z AUTO 11011KT 9999 // FEW038 23/14 Q1023 RF00.0/000.0,2024-08-08T01:30:00Z,23,14,6+,30.21
YBMA,-20.678,139.488,120,7,8.06,YBMA 080130Z AUTO 12007KT 090V160 9999 // NCD 25/04 Q1021 RF00.0/000.0,2024-08-08T01:30:00Z,25,4,6+,30.15
YBLN,-33.688,115.402,70,5,5.75,YBLN 080130Z AUTO 07005KT 9999 // FEW048 OVC059 12/12 Q1020,2024-08-08T01:30:00Z,12,12,6+,30.12
YBHM,-20.357,148.949,150,18,20.71,YBHM 080130Z AUTO 15018KT 9999 // BKN021 OVC028 21/18 Q1021,2024-08-08T01:30:00Z,21,18,6+,30.15
YBCS,-16.874,145.745,,,,YBCS 080130Z AUTO /////KT 9999 // FEW024 BKN064 26/19 Q1019,2024-08-08T01:30:00Z,26,19,6+,30.09
YBCG,-28.168,153.505,180,8,9.21,YBCG 080130Z AUTO 18008KT 9999 // SCT038 BKN052 OVC067 19/12 Q1026,2024-08-08T01:30:00Z,19,12,6+,30.30
YBBN,-27.391,153.13,180,6,6.9,YBBN 080130Z 18006KT 9999 SCT037 SCT046 OVC053 17/13 Q1026 RF00/0/000/0 DIST/ SHOWERS IN AREA,2024-08-08T01:30:00Z,17,13,6+,30.30
YBAS,-23.795,133.889,60,4,4.6,YBAS 080130Z AUTO 06004KT 9999 // NCD 23/04 Q1023 RF00.0/000.0,2024-08-08T01:30:00Z,23,4,6+,30.21
YAMB,-27.63,152.711,90,1,1.15,YAMB 080130Z AUTO 09001KT 9999 // BKN040 BKN045 OVC056 18/12 Q1026,2024-08-08T01:30:00Z,18,12,6+,30.30
WMKP,5.297,100.277,180,5,5.75,WMKP 080130Z 18005KT 130V210 6000 FEW020 29/23 Q1011 NOSIG,2024-08-08T01:30:00Z,29,23,3.73,29.85
WMKK,2.747,101.714,0,0,0.0,WMKK 080130Z 00000KT 9000 FEW018 27/25 Q1012 NOSIG,2024-08-08T01:30:00Z,27,25,5.59,29.88
WIPP,-2.898,104.7,180,3,3.45,WIPP 080130Z 18003KT 140V220 9999 SCT012 28/24 Q1013 NOSIG,2024-08-08T01:30:00Z,28,24,6+,29.91
WIOO,-0.151,109.404,60,4,4.6,WIOO 080130Z 06004KT 9000 SCT009 25/25 Q1012 NOSIG,2024-08-08T01:30:00Z,25,25,5.59,29.88
WIMM,3.636,98.874,120,6,6.9,WIMM 080130Z 12006KT 080V140 8000 SCT017 27/26 Q1011 NOSIG,2024-08-08T01:30:00Z,27,26,4.97,29.85
WILL,-5.242,105.179,230,3,3.45,WILL 080130Z 23003KT 5000 SCT020 27/25 Q1013 NOSIG,2024-08-08T01:30:00Z,27,25,3.11,29.91
WIHH,-6.267,106.891,230,3,3.45,WIHH 080130Z 23003KT 5000 HZ SCT018 28/22 Q1013 NOSIG METAR ,2024-08-08T01:30:00Z,28,22,3.11,29.91
WIEE,-0.783,100.283,VRB,1,1.15,WIEE 080130Z VRB01KT 9999 SCT025 29/24 Q1010 NOSIG,2024-08-08T01:30:00Z,29,24,6+,29.82
WIDN,0.923,104.532,120,4,4.6,WIDN 080130Z 12004KT 9999 FEW017 29/26 Q1012 NOSIG,2024-08-08T01:30:00Z,29,26,6+,29.88
WIDD,1.121,104.119,180,4,4.6,WIDD 080130Z 18004KT 9000 SCT014 28/26 Q1014 NOSIG,2024-08-08T01:30:00Z,28,26,5.59,29.94
WIBB,0.461,101.445,180,5,5.75,WIBB 080130Z 18005KT 6000 NSC 26/24 Q1011 NOSIG,2024-08-08T01:30:00Z,26,24,3.73,29.85
WBSB,4.944,114.928,190,6,6.9,WBSB 080130Z 19006KT 9999 FEW015 FEW016CB BKN300 30/23 Q1013 NOSIG,2024-08-08T01:30:00Z,30,23,6+,29.91
WBKK,5.937,116.051,220,5,5.75,WBKK 080130Z 22005KT 160V300 9999 FEW014 29/25 Q1012 NOSIG,2024-08-08T01:30:00Z,29,25,6+,29.88
WBGG,1.484,110.34,VRB,1,1.15,WBGG 080130Z VRB01KT 9999 FEW012 SCT020 26/24 Q1013 NOSIG,2024-08-08T01:30:00Z,26,24,6+,29.91
WAYY,-4.528,136.887,0,0,0.0,WAYY 080130Z 00000KT 4000 -RA BKN013 24/23 Q1016 NOSIG,2024-08-08T01:30:00Z,24,23,2.49,30.00
WATT,-10.172,123.671,100,13,14.96,WATT 080130Z 10013KT 9999 FEW020 31/21 Q1017 NOSIG,2024-08-08T01:30:00Z,31,21,6+,30.03
WARR,-7.38,112.787,90,6,6.9,WARR 080130Z 09006KT 9999 FEW020 30/23 Q1014 NOSIG METAR ,2024-08-08T01:30:00Z,30,23,6+,29.94
WAQQ,3.327,117.568,280,4,4.6,WAQQ 080130Z 28004KT 8000 -RA BKN015 25/25 Q1013 NOSIG,2024-08-08T01:30:00Z,25,25,4.97,29.91
WAPP,-3.71,128.089,160,7,8.06,WAPP 080130Z 16007KT 100V220 8000 SCT016 28/24 Q1014 RERA NOSIG,2024-08-08T01:30:00Z,28,24,4.97,29.94
WAOO,-3.44,114.759,200,4,4.6,WAOO 080130Z 20004KT 9999 FEW020 29/25 Q1013 NOSIG,2024-08-08T01:30:00Z,29,25,6+,29.91
WALL,-1.268,116.894,250,6,6.9,WALL 080130Z 25006KT 9999 FEW020 28/23 Q1013 NOSIG,2024-08-08T01:30:00Z,28,23,6+,29.91
WAKK,-8.52,140.417,120,7,8.06,WAKK 080130Z 12007KT 9999 SCT016 27/23 Q1014 NOSIG,2024-08-08T01:30:00Z,27,23,6+,29.94
WAHS,-6.973,110.375,100,11,12.66,WAHS 080130Z 10011KT 6000 FEW014 30/22 Q1013 NOSIG,2024-08-08T01:30:00Z,30,22,3.73,29.91
WADD,-8.748,115.167,120,11,12.66,WADD 080130Z 12011KT 9999 SCT017 28/25 Q1015 NOSIG,2024-08-08T01:30:00Z,28,25,6+,29.97
WABB,-1.19,136.108,170,4,4.6,WABB 080130Z 17004KT 040V170 9999 SCT015 30/25 Q1012 NOSIG,2024-08-08T01:30:00Z,30,25,6+,29.88
WAAA,-5.062,119.554,VRB,3,3.45,WAAA 080130Z VRB03KT 9999 FEW019 30/17 Q1013 NOSIG,2024-08-08T01:30:00Z,30,17,6+,29.91
VYYY,16.906,96.137,220,2,2.3,VYYY 080130Z 22002KT 6000 BKN020 FEW025CB BKN110 26/25 Q1010,2024-08-08T01:30:00Z,26,25,3.73,29.82
VVVD,21.118,107.414,200,8,9.21,VVVD 080130Z 20008KT 9999 FEW027 32/28 Q1008 NOSIG,2024-08-08T01:30:00Z,32,28,6+,29.76
VVTS,10.817,106.667,250,9,10.36,VVTS 080130Z 25009KT 9999 BKN015 30/26 Q1011 NOSIG,2024-08-08T01:30:00Z,30,26,6+,29.85
VVPQ,10.169,103.995,240,6,6.9,VVPQ 080130Z 24006KT 9999 FEW015 30/27 Q1011 NOSIG,2024-08-08T01:30:00Z,30,27,6+,29.85
VVPB,16.399,107.699,190,3,3.45,VVPB 080130Z 19003KT 9999 FEW017 SCT070 33/23 Q1009 NOSIG,2024-08-08T01:30:00Z,33,23,6+,29.79
VVNB,21.218,105.805,150,7,8.06,VVNB 080130Z 15007KT 120V190 9999 BKN013 31/28 Q1007 NOSIG,2024-08-08T01:30:00Z,31,28,6+,29.73
VVDN,16.044,108.199,VRB,2,2.3,VVDN 080130Z VRB02KT 9999 FEW017 32/24 Q1009 NOSIG,2024-08-08T01:30:00Z,32,24,6+,29.79
VVCT,10.085,105.712,220,5,5.75,VVCT 080130Z 22005KT 9999 FEW015 30/28 Q1011 NOSIG,2024-08-08T01:30:00Z,30,28,6+,29.85
VVCR,11.998,109.219,70,4,4.6,VVCR 080130Z 07004KT CAVOK 32/24 Q1010 NOSIG,2024-08-08T01:30:00Z,32,24,6+,29.82
VVCI,20.823,106.727,160,7,8.06,VVCI 080130Z 16007KT 9999 BKN016 BKN025 31/28 Q1007 NOSIG,2024-08-08T01:30:00Z,31,28,6+,29.73
VTSS,6.933,100.393,200,3,3.45,VTSS 080130Z 20003KT 150V250 9999 FEW020 SCT100 28/25 Q1010 NOSIG,2024-08-08T01:30:00Z,28,25,6+,29.82
VTSP,8.105,98.308,0,0,0.0,VTSP 080130Z 00000KT 9999 FEW020 29/26 Q1011 NOSIG,2024-08-08T01:30:00Z,29,26,6+,29.85
VTCC,18.771,98.963,VRB,2,2.3,VTCC 080130Z VRB02KT 9999 FEW015 SCT030 27/24 Q1011 NOSIG,2024-08-08T01:30:00Z,27,24,6+,29.85
VTBU,12.68,101.001,270,2,2.3,VTBU 080130Z 27002KT 9999 FEW020 30/28 Q1010 NOSIG,2024-08-08T01:30:00Z,30,28,6+,29.82
VTBS,13.686,100.767,VRB,3,3.45,VTBS 080130Z VRB03KT 9999 FEW020 28/25 Q1011 NOSIG,2024-08-08T01:30:00Z,28,25,6+,29.85
VTBD,13.913,100.607,VRB,1,1.15,VTBD 080130Z VRB01KT 9999 FEW020 28/25 Q1011 NOSIG,2024-08-08T01:30:00Z,28,25,6+,29.85
VQPR,27.403,89.425,VRB,2,2.3,VQPR 080130Z VRB02KT 6000 FEW010 SCT040 BKN070 18/16 Q1021,2024-08-08T01:30:00Z,18,16,3.73,30.15
VOVZ,17.722,83.228,260,9,10.36,VOVZ 080130Z 26009KT 4500 -DZ BR FEW012 SCT016 BKN090 27/26 Q1005 TEMPO -RA,2024-08-08T01:30:00Z,27,26,2.8,29.68
VOTV,8.484,76.919,350,8,9.21,VOTV 080130Z 35008KT 4000 BR SCT015 BKN080 26/24 Q1010 NOSIG,2024-08-08T01:30:00Z,26,24,2.49,29.82
VOTK,8.722,78.028,0,0,0.0,VOTK 080130Z 00000KT 6000 FEW018 28/23 Q1009 NOSIG,2024-08-08T01:30:00Z,28,23,3.73,29.79
VORY,17.11,81.818,260,8,9.21,VORY 080130Z 26008KT 3000 -RA SCT010 SCT015 FEW030CB OVC080 24/23 Q1005 BECMG 4000 -RA,2024-08-08T01:30:00Z,24,23,1.86,29.68
VOPB,11.641,92.73,VRB,1,1.15,VOPB 080130Z VRB01KT 6000 FEW012 BKN080 28/26 Q1010 NOSIG,2024-08-08T01:30:00Z,28,26,3.73,29.82
VOMD,9.835,78.093,VRB,2,2.3,VOMD 080130Z VRB02KT 3000 BR FEW018 26/24 Q1010 BECMG 5000 BR,2024-08-08T01:30:00Z,26,24,1.86,29.82
VOKN,11.917,75.547,170,5,5.75,VOKN 080130Z 17005KT 1000 R25/2000 R07/2000 BR FEW002 SCT012 FEW025CB OVC080 24/23 Q1010 BECMG 1500 BR,2024-08-08T01:30:00Z,24,23,0.62,29.82
VOHY,17.453,78.468,260,6,6.9,VOHY 080130Z 26006KT 5000 -DZ SCT010 SCT015 BKN080 23/22 Q1011 NO SIG,2024-08-08T01:30:00Z,23,22,3.11,29.85
VOGO,15.378,73.828,20,4,4.6,VOGO 080130Z 02004KT 1500 +RA FEW006 SCT012 OVC070 25/25 Q1008 BECMG 3000 RA,2024-08-08T01:30:00Z,25,25,0.93,29.76
VOGA,15.7426,73.8631,340,3,3.45,VOGA 080130Z 34003KT 2500 BR VCFG FEW007 SCT015 FEW020TCU BKN080 23/23 Q1009 NOSIG,2024-08-08T01:30:00Z,23,23,1.55,29.79
VOCI,10.152,76.402,0,0,0.0,VOCI 080130Z 00000KT 4000 BR SCT012 BKN080 24/23 Q1010 NOSIG,2024-08-08T01:30:00Z,24,23,2.49,29.82
VOCB,11.03,77.043,210,4,4.6,VOCB 080130Z 21004KT 5000 BR FEW008 SCT012 BKN080 24/22 Q1012 NOSIG,2024-08-08T01:30:00Z,24,22,3.11,29.88
VOBZ,16.53,80.797,0,0,0.0,VOBZ 080130Z 00000KT 6000 SCT018 OVC080 26/25 Q1006 NOSIG,2024-08-08T01:30:00Z,26,25,3.73,29.70
VOBL,13.205,77.704,270,6,6.9,VOBL 080130Z 27006KT 6000 SCT008 SCT012 21/19 Q1014 NOSIG,2024-08-08T01:30:00Z,21,19,3.73,29.94
VMMC,22.141,113.596,230,7,8.06,VMMC 080130Z 23007KT 200V270 9999 FEW015 32/27 Q1008 NOSIG,2024-08-08T01:30:00Z,32,27,6+,29.76
VLVT,17.987,102.564,0,0,0.0,VLVT 080130Z 00000KT 8000 SCT020 29/25 Q1010 NOSIG,2024-08-08T01:30:00Z,29,25,4.97,29.82
VILK,26.761,80.889,120,6,6.9,VILK 080130Z 12006KT 4000 BR SCT020 BKN100 28/26 Q1003 NOSIG,2024-08-08T01:30:00Z,28,26,2.49,29.62
VIGG,32.165,76.263,0,0,0.0,VIGG 080130Z 00000KT 6000 SCT035 BKN080 24/23 Q1007,2024-08-08T01:30:00Z,24,23,3.73,29.73
VIDP,28.567,77.117,90,4,4.6,VIDP 080130Z 09004KT 2200 BR SCT030 FEW035CB BKN080 27/26 Q1003 NOSIG,2024-08-08T01:30:00Z,27,26,1.37,29.62
VIDN,30.19,78.18,280,3,3.45,VIDN 080130Z 28003KT 3000 BR FEW010 BKN020 OVC060 25/25 Q1006 NOSIG,2024-08-08T01:30:00Z,25,25,1.86,29.70
VIBR,31.876,77.154,0,0,0.0,VIBR 080130Z 00000KT 6000 FEW010 SCT030 23/21 Q1008,2024-08-08T01:30:00Z,23,21,3.73,29.76
VGHS,23.846,90.4,140,10,11.51,VGHS 080130Z 14010KT 4000 HZ SCT012 BKN100 28/26 Q1005 NOSIG,2024-08-08T01:30:00Z,28,26,2.49,29.68
VERC,23.314,85.322,200,3,3.45,VERC 080130Z 20003KT 2500 BR SCT018 BKN090 25/24 Q1007 NOSIG,2024-08-08T01:30:00Z,25,24,1.55,29.73
VEPT,25.591,85.088,100,8,9.21,VEPT 080130Z 10008KT 2800 BR FEW010 SCT018 BKN100 29/29 Q1002 NOSIG,2024-08-08T01:30:00Z,29,29,1.74,29.59
VEGT,26.107,91.587,350,3,3.45,VEGT 080130Z 35003KT 3000 BR FEW010 SCT016 FEW025CB BKN090 28/26 Q1005 NOSIG,2024-08-08T01:30:00Z,28,26,1.86,29.68
VEDG,23.623,87.243,140,7,8.06,VEDG 080130Z 14007KT 3600 HZ FEW012 SCT018 FEW025CB BKN090 28/26 Q1003 NOSIG,2024-08-08T01:30:00Z,28,26,2.24,29.62
VEBS,20.244,85.818,280,4,4.6,VEBS 080130Z 28004KT 3000 HZ SCT018 BKN100 26/25 Q1004 NOSIG,2024-08-08T01:30:00Z,26,25,1.86,29.65
VEBN,25.452,82.859,20,3,3.45,VEBN 080130Z 02003KT 2000 BR FEW100 28/28 Q1002 NOSIG,2024-08-08T01:30:00Z,28,28,1.24,29.59
VEAT,23.887,91.24,160,10,11.51,VEAT 080130Z 16010KT 3500 -RA SCT018 FEW030CB BKN100 27/25 Q1006 TEMPO 3000 -RA,2024-08-08T01:30:00Z,27,25,2.17,29.70
VDSV,10.582,103.637,210,3,3.45,VDSV 080130Z 21003KT 9999 SCT015 FEW017CB SCT040 30/27 Q1011 RMK CB:NW,2024-08-08T01:30:00Z,30,27,6+,29.85
VDSA,13.371,104.225,270,2,2.3,VDSA 080130Z 27002KT 190V320 9999 SCT015 29/25 Q1010,2024-08-08T01:30:00Z,29,25,6+,29.82
VDPP,11.547,104.844,190,4,4.6,VDPP 080130Z 19004KT 150V210 9999 FEW015 SCT040 30/27 Q1010,2024-08-08T01:30:00Z,30,27,6+,29.82
VABV,21.752,72.185,230,4,4.6,VABV 080130Z 23004KT 6000 FEW020 BKN080 26/24 Q1005 NOSIG,2024-08-08T01:30:00Z,26,24,3.73,29.68
VABO,22.333,73.225,230,5,5.75,VABO 080130Z 23005KT 3500 BR SCT020 BKN080 26/25 Q1005 NOSIG,2024-08-08T01:30:00Z,26,25,2.17,29.68
VAAH,23.077,72.635,190,6,6.9,VAAH 080130Z 19006KT 4000 HZ SCT020 BKN080 26/23 Q1004 TEMPO 3000 BR,2024-08-08T01:30:00Z,26,23,2.49,29.65
UWWW,53.509,50.163,250,4,4.6,UWWW 080130Z 25002MPS 220V290 CAVOK 15/14 Q1007 R33/CLRD63 NOSIG RMK QFE745/0993,2024-08-08T01:30:00Z,15,14,6+,29.73
UWSG,51.713,46.171,280,4,4.6,UWSG 080130Z 28002MPS CAVOK 16/15 Q1007 R26/CLRD70 NOSIG RMK QFE752/1003,2024-08-08T01:30:00Z,16,15,6+,29.73
UWPS,54.116,45.203,0,0,0.0,UWPS 080130Z 00000MPS CAVOK 15/14 Q1008 R20/CLRD60 TEMPO 0300 FG VV001 RMK QFE738,2024-08-08T01:30:00Z,15,14,6+,29.76
UWOO,51.795,55.457,360,8,9.21,UWOO 080130Z 36004MPS CAVOK 17/17 Q1004 R26/CLRD60 NOSIG RMK QFE743/0990,2024-08-08T01:30:00Z,17,17,6+,29.65
UWLL,54.274,48.236,0,0,0.0,UWLL 080130Z 00000MPS CAVOK 13/12 Q1008 R02/090065 NOSIG RMK QFE744/0992,2024-08-08T01:30:00Z,13,12,6+,29.76
UWKS,56.09,47.347,60,2,2.3,UWKS 080130Z 06001MPS 0150 R06/0350N FG VV002 16/16 Q1008 R06/090060 NOSIG RMK QBB060 QFE741,2024-08-08T01:30:00Z,16,16,0.09,29.76
UWKD,55.61,49.275,360,4,4.6,UWKD 080130Z 36002MPS CAVOK 16/15 Q1007 R29/70D TEMPO 0500 FG RMK QFE744/0993,2024-08-08T01:30:00Z,16,15,6+,29.73
UUYY,61.647,50.845,40,6,6.9,UUYY 080130Z 04003MPS CAVOK 12/11 Q1014 R36/61D NOSIG RMK QFE751/1002,2024-08-08T01:30:00Z,12,11,6+,29.94
UUWW,55.592,37.261,340,6,6.9,UUWW 080130Z 34003MPS 9999 FEW043 17/15 Q1009 R01/190055 NOSIG,2024-08-08T01:30:00Z,17,15,6+,29.79
UUOO,51.814,39.228,270,6,6.9,UUOO 080130Z 27003MPS 9999 SCT///CB 18/16 Q1008 R30/010070 NOSIG RMK QFE743,2024-08-08T01:30:00Z,18,16,6+,29.76
UUOL,52.702,39.534,170,4,4.6,UUOL 080130Z AUTO 17002MPS 9999 NCD 16/16 Q1008,2024-08-08T01:30:00Z,16,16,6+,29.76
UUOK,51.751,36.297,280,6,6.9,UUOK 080130Z AUTO 28003MPS 9999 BCFG NCD 15/14 Q1010 RMK QFE738/0985,2024-08-08T01:30:00Z,15,14,6+,29.82
UUOB,50.644,36.59,270,4,4.6,UUOB 080130Z 27002MPS CAVOK 16/15 Q1011 R29/010070 NOSIG,2024-08-08T01:30:00Z,16,15,6+,29.85
UUEE,55.973,37.415,10,4,4.6,UUEE 080130Z 01002MPS CAVOK 15/14 Q1009 R24C/CLRD62 NOSIG,2024-08-08T01:30:00Z,15,14,6+,29.79
UUDL,57.561,40.157,60,2,2.3,UUDL 080130Z 06001MPS 0300 0200NE R23/0350D FG VV002 14/14 Q1010 R23/010060 NOSIG RMK QBB060 QFE749,2024-08-08T01:30:00Z,14,14,0.19,29.82
UUDD,55.409,37.906,340,4,4.6,UUDD 080130Z 34002MPS 310V010 9999 -RA FEW046 17/16 Q1009 R32L/290042 NOSIG,2024-08-08T01:30:00Z,17,16,6+,29.79
UUBW,55.553,38.15,330,4,4.6,UUBW 080130Z 33002MPS CAVOK 17/17 Q1008 R30/010060 TEMPO -TSRA BKN016CB RMK QFE746,2024-08-08T01:30:00Z,17,17,6+,29.76
UUBC,54.552,36.37,350,4,4.6,UUBC 080130Z 35002MPS CAVOK 15/15 Q1008 R31/190055 NOSIG RMK QFE739/0986,2024-08-08T01:30:00Z,15,15,6+,29.76
UTTT,41.258,69.281,60,6,6.9,UTTT 080130Z 06006KT CAVOK 27/11 Q1005 R08R/CLRD70 NOSIG,2024-08-08T01:30:00Z,27,11,6+,29.68
UTST,37.287,67.318,50,4,4.6,UTST 080130Z 05004KT CAVOK 23/15 Q1002 R25/CLRD70 NOSIG,2024-08-08T01:30:00Z,23,15,6+,29.59
UTSS,39.7,66.974,150,10,11.51,UTSS 080130Z 15010KT 9999 NSC 23/11 Q1006 R09/CLRD70 NOSIG,2024-08-08T01:30:00Z,23,11,6+,29.70
UTSK,38.804,65.773,40,2,2.3,UTSK 080130Z 04002KT CAVOK 25/11 Q1002 R16/CLRD70,2024-08-08T01:30:00Z,25,11,6+,29.59
UTSB,39.775,64.483,350,8,9.21,UTSB 080130Z 35008KT CAVOK 23/08 Q1003 R01/CLRD70 NOSIG,2024-08-08T01:30:00Z,23,8,6+,29.62
UTSA,40.116,65.167,90,6,6.9,UTSA 080130Z 09006KT 9999 NSC 22/08 Q1004 R07/CLRD70 NOSIG,2024-08-08T01:30:00Z,22,8,6+,29.65
UTNU,41.584,60.642,80,2,2.3,UTNU 080130Z 08002KT CAVOK 23/16 Q1004 R31/CLRD70 NOSIG,2024-08-08T01:30:00Z,23,16,6+,29.65
UTNN,42.488,59.623,100,4,4.6,UTNN 080130Z 10004KT CAVOK 27/08 Q1003 R33/CLRD60 NOSIG,2024-08-08T01:30:00Z,27,8,6+,29.62
UTFN,40.983,71.573,340,4,4.6,UTFN 080130Z 34004KT 9999 NSC 26/15 Q1006 R28/CLRD70 NOSIG,2024-08-08T01:30:00Z,26,15,6+,29.70
UTFF,40.356,71.745,170,8,9.21,UTFF 080130Z 17008KT 9999 NSC 27/09 Q1007 R18/CLRD70,2024-08-08T01:30:00Z,27,9,6+,29.73
UTDT,37.866,68.865,0,0,0.0,UTDT 080130Z 00000MPS 9999 FEW130 22/17 Q1003 R35/CLRD70 RMK QFE713/0951,2024-08-08T01:30:00Z,22,17,6+,29.62
UTDL,40.215,69.695,0,0,0.0,UTDL 080130Z 00000MPS 9999 NSC 24/12 Q1006 R26/CLRD70 NOSIG RMK QFE717/0956,2024-08-08T01:30:00Z,24,12,6+,29.70
UTDK,37.988,69.805,20,12,13.81,UTDK 080130Z 02006MPS 9999 NSC 26/08 Q1006 R01/09//70 RMK QFE697/0930,2024-08-08T01:30:00Z,26,8,6+,29.70
UTDD,38.543,68.825,110,4,4.6,UTDD 080130Z 11002MPS 9999 NSC 22/11 Q1007 R09/D NOSIG RMK QFE688/0917,2024-08-08T01:30:00Z,22,11,6+,29.73
USTR,57.19,65.324,20,6,6.9,USTR 080130Z 02003MPS 9999 FEW006 BKN033 11/11 Q1011 R30/090065 R21/090065 TEMPO SCT005 RMK QBB200,2024-08-08T01:30:00Z,11,11,6+,29.85
USSS,56.745,60.792,20,8,9.21,USSS 080130Z 02004MPS 9999 BKN030 13/12 Q1012 R08R/010060 NOSIG RMK QFE739/0985,2024-08-08T01:30:00Z,13,12,6+,29.88
USRR,61.342,73.422,20,4,4.6,USRR 080130Z 02002MPS 350V060 9999 BKN043 11/08 Q1011 R07/CLRD60 NOSIG RMK QFE754,2024-08-08T01:30:00Z,11,8,6+,29.85
USPP,57.914,56.021,100,10,11.51,USPP 080130Z 10005MPS 9999 BKN014CB 15/13 Q1010 R03/290250 TEMPO 2000 SHRA BKN011CB RMK QFE747,2024-08-08T01:30:00Z,15,13,6+,29.82
USNN,60.959,76.497,10,8,9.21,USNN 080130Z 01004MPS CAVOK 11/09 Q1009 R03/0///65 NOSIG RMK QFE753,2024-08-08T01:30:00Z,11,9,6+,29.79
USHH,61.029,69.086,40,4,4.6,USHH 080130Z 04002MPS 360V080 9999 FEW042 13/05 Q1013 R06/010060 NOSIG,2024-08-08T01:30:00Z,13,5,6+,29.91
USDA,71.216,72.05,20,2,2.3,USDA 080130Z 02001MPS 9999 BKN005 04/04 Q1018 R04/CLRD60 NOSIG RMK QBB150 QFE762/1016,2024-08-08T01:30:00Z,4,4,6+,30.06
USCM,53.393,58.756,20,8,9.21,USCM 080130Z 02004MPS 6000 -SHRA BKN004 OVC016CB 16/16 Q1006 R36/290352 TEMPO 1000 TSRA RMK QBB120 QFE716,2024-08-08T01:30:00Z,16,16,3.73,29.70
USCC,55.306,61.503,40,8,9.21,USCC 080130Z 04004MPS 9999 BKN022 15/15 Q1009 R09/290055 NOSIG RMK QFE736,2024-08-08T01:30:00Z,15,15,6+,29.79
URWW,48.788,44.336,VRB,2,2.3,URWW 080130Z VRB01MPS CAVOK 18/17 Q1008 R05/010070 TEMPO 0300 FG OVC002,2024-08-08T01:30:00Z,18,17,6+,29.76
URWI,46.374,44.331,280,12,13.81,URWI 080130Z AUTO 28006MPS 9999 // NSC 19/15 Q1009,2024-08-08T01:30:00Z,19,15,6+,29.79
URWA,46.286,47.995,250,8,9.21,URWA 080130Z 25004MPS CAVOK 22/18 Q1007 R27/010070 NOSIG RMK QFE757/1009,2024-08-08T01:30:00Z,22,18,6+,29.73
URSS,43.438,39.926,50,6,6.9,URSS 080130Z 05003MPS 9999 NSC 20/15 Q1011 R02/010070 R06/010070 NOSIG RMK R06/09005MPS QFE757,2024-08-08T01:30:00Z,20,15,6+,29.85
URRP,47.494,39.925,310,4,4.6,URRP 080130Z 31002MPS CAVOK 18/17 Q1009 R23/CLRD70 NOSIG RMK QFE749/0999,2024-08-08T01:30:00Z,18,17,6+,29.79
URMT,45.108,42.1,300,12,13.81,URMT 080130Z 30006MPS CAVOK 18/15 Q1013 R25/010070 NOSIG RMK QFE721,2024-08-08T01:30:00Z,18,15,6+,29.91
URMO,43.204,44.608,200,2,2.3,URMO 080130Z 20001MPS 9999 BKN/// 18/16 Q1014 R09/190060 TEMPO 0300 FG BKN002 RMK QFE717/0956,2024-08-08T01:30:00Z,18,16,6+,29.94
URMM,44.225,43.082,VRB,2,2.3,URMM 080130Z VRB01MPS 9999 NSC 17/15 Q1013 R29/090070 TEMPO 0300 FG BKN002 RMK QFE731/0975,2024-08-08T01:30:00Z,17,15,6+,29.91
URML,42.817,47.652,VRB,2,2.3,URML 080130Z VRB01MPS 9999 SCT///CB 23/18 Q1010 R32/01//70 NOSIG RMK QFE757/1009,2024-08-08T01:30:00Z,23,18,6+,29.82
URMG,43.387,45.702,300,4,4.6,URMG 080130Z 30002MPS 260V330 CAVOK 21/18 Q1012 R26/090070 TEMPO 0300 FG BKN002 RMK QFE744/0992,2024-08-08T01:30:00Z,21,18,6+,29.88
URKK,45.033,39.15,240,4,4.6,URKK 080130Z 24002MPS CAVOK 17/16 Q1011 R23L/CLRD70 NOSIG RMK QFE755,2024-08-08T01:30:00Z,17,16,6+,29.85
URKA,44.995,37.341,150,6,6.9,URKA 080130Z 15003MPS CAVOK 19/18 Q1011 R03/010070 TEMPO 0500 FG SCT003 RMK QFE754/1006,2024-08-08T01:30:00Z,19,18,6+,29.85
UOOO,69.308,87.322,20,21,24.17,UOOO 080130Z 02011MPS CAVOK 10/06 Q1007 R01/CLRD60 NOSIG RMK QFE741/0988,2024-08-08T01:30:00Z,10,6,6+,29.73
UNWW,53.811,86.878,170,4,4.6,UNWW 080130Z 17002MPS 9999 SCT040CB 18/17 Q1006 R19/210255 NOSIG RMK QFE728,2024-08-08T01:30:00Z,18,17,6+,29.70
UNOO,54.964,73.32,350,8,9.21,UNOO 080130Z 35004MPS 9999 BKN007 BKN020CB 16/14 Q1006 R07/CLRD60 NOSIG RMK QFE746,2024-08-08T01:30:00Z,16,14,6+,29.70
UNKL,56.173,92.493,VRB,2,2.3,UNKL 080130Z VRB01MPS CAVOK 19/16 Q1006 R29/CLRD65 NOSIG RMK QFE729,2024-08-08T01:30:00Z,19,16,6+,29.70
UNEE,55.27,86.107,210,6,6.9,UNEE 080130Z 21003MPS 9999 BKN017 18/18 Q1004 R23/CLRD60 NOSIG RMK QFE730,2024-08-08T01:30:00Z,18,18,6+,29.65
UNBB,53.362,83.54,200,6,6.9,UNBB 080130Z 20003MPS 9999 -SHRA BKN030CB 18/16 Q1005 R24/290150 NOSIG RMK QFE732,2024-08-08T01:30:00Z,18,16,6+,29.68
UNAA,53.74,91.385,150,4,4.6,UNAA 080130Z 15002MPS 9999 -SHRA SCT038CB 18/16 Q1007 R02/290149 NOSIG RMK QFE733,2024-08-08T01:30:00Z,18,16,6+,29.73
UMIO,54.44,30.297,350,4,4.6,UMIO 080130Z 35002MPS 310V010 9999 SCT004 15/15 Q1012 NOSIG RMK QBB120 QFE741/0988,2024-08-08T01:30:00Z,15,15,6+,29.88
ULMM,68.781,32.749,0,0,0.0,ULMM 080130Z 00000MPS CAVOK 05/05 Q1017 R13/090070 NOSIG RMK QFE756,2024-08-08T01:30:00Z,5,5,6+,30.03
ULAA,64.599,40.712,90,4,4.6,ULAA 080130Z 09002MPS CAVOK 09/09 Q1016 R08/CLRD70 NOSIG RMK QFE761/1015,2024-08-08T01:30:00Z,9,9,6+,30.00
UIUU,51.808,107.443,90,4,4.6,UIUU 080130Z 09002MPS 050V140 9999 FEW006 19/15 Q1009 R08/CLRD60 NOSIG RMK QBB200 MT OBSC QFE712/0949,2024-08-08T01:30:00Z,19,15,6+,29.79
UIII,52.273,104.38,VRB,2,2.3,UIII 080130Z VRB01MPS CAVOK 18/16 Q1009 R12/60D NOSIG RMK QFE715/0953,2024-08-08T01:30:00Z,18,16,6+,29.79
UIBB,56.365,101.716,240,6,6.9,UIBB 080130Z 24003MPS 200V290 9999 FEW006 BKN016CB 17/15 Q1006 R30/210160 NOSIG RMK QBB200 MT OBSC QFE712/0949,2024-08-08T01:30:00Z,17,15,6+,29.70
UIAA,52.026,113.31,350,4,4.6,UIAA 080130Z 35002MPS 310V030 9999 FEW050CB 19/14 Q1009 R29/290158 NOSIG RMK QFE699/0932,2024-08-08T01:30:00Z,19,14,6+,29.79
UHWW,43.399,132.146,VRB,2,2.3,UHWW 080130Z VRB01MPS 9999 NSC 29/24 Q1004 R25L/0///70 NOSIG RMK QFE751,2024-08-08T01:30:00Z,29,24,6+,29.65
UHSS,46.887,142.719,360,8,9.21,UHSS 080130Z 36004MPS 9000 BKN009 OVC013CB 19/18 Q1003 R01/290060 NOSIG RMK MT OBSC QFE751/1001,2024-08-08T01:30:00Z,19,18,5.59,29.62
UHPP,53.175,158.444,340,16,18.41,UHPP 080130Z 34008MPS 9999 BKN050 27/14 Q1003 R34L/CLRD60 NOSIG RMK QFE749/0999,2024-08-08T01:30:00Z,27,14,6+,29.62
UHMM,59.911,150.725,220,6,6.9,UHMM 080130Z 22003MPS 170V250 9999 BKN028CB 18/12 Q1004 R10/70D NOSIG RMK QFE738 R28/24003MPS,2024-08-08T01:30:00Z,18,12,6+,29.65
UHMD,64.378,-173.243,360,2,2.3,UHMD 080130Z 36001MPS 9999 SCT010 BKN023 OVC070 06/05 Q1005 RMK QBB300 MT OBSC QFE753/1004,2024-08-08T01:30:00Z,6,5,6+,29.68
UHMA,64.733,177.739,200,8,9.21,UHMA 080130Z 20004MPS 170V230 9999 FEW021CB SCT036 10/05 Q1007 R20/60D NOSIG RMK MID 19004MPS END R20/18004MPS QFE750/1000,2024-08-08T01:30:00Z,10,5,6+,29.73
UHHH,48.527,135.184,VRB,2,2.3,UHHH 080130Z VRB01MPS 9999 SCT017CB 25/20 Q1002 R23R/090060 NOSIG RMK QFE746/0994,2024-08-08T01:30:00Z,25,20,6+,29.59
UHBB,50.425,127.412,180,4,4.6,UHBB 080130Z 18002MPS 140V230 9999 SCT020CB 21/18 Q1001 R36/090052 NOSIG RMK QFE733/0978,2024-08-08T01:30:00Z,21,18,6+,29.56
UGSB,41.61,41.6,130,8,9.21,UGSB 080130Z 13008KT 9999 SCT072 21/20 Q1012 NOSIG,2024-08-08T01:30:00Z,21,20,6+,29.88
UGMS,43.055,42.75,VRB,2,2.3,UGMS 080130Z AUTO VRB02KT //// ////// 11/11 Q1020,2024-08-08T01:30:00Z,11,11,,30.12
UGKO,42.177,42.483,VRB,2,2.3,UGKO 080130Z VRB02KT 9999 SCT021 20/20 Q1011 NOSIG,2024-08-08T01:30:00Z,20,20,6+,29.85
UGAM,42.527,43.135,VRB,2,2.3,UGAM 080130Z AUTO VRB02KT //// ////// 18/17 Q1014,2024-08-08T01:30:00Z,18,17,,29.94
UERR,62.538,114.056,VRB,2,2.3,UERR 080130Z VRB01MPS CAVOK 21/07 Q1007 R07/CLRD60 NOSIG RMK QFE725/0967,2024-08-08T01:30:00Z,21,7,6+,29.73
UERP,66.4,112.03,170,6,6.9,UERP 080130Z 17003MPS 9999 SCT020CB OVC100 15/10 Q1003 R36/090060 NOSIG RMK QFE708,2024-08-08T01:30:00Z,15,10,6+,29.62
UEEE,62.093,129.774,350,2,2.3,UEEE 080130Z 35001MPS CAVOK 19/09 Q1009 R23/09//60 NOSIG RMK QFE748,2024-08-08T01:30:00Z,19,9,6+,29.79
UDYZ,40.147,44.396,120,2,2.3,UDYZ 080130Z 12002KT 9999 NSC 21/12 Q1011 NOSIG,2024-08-08T01:30:00Z,21,12,6+,29.85
UDSG,40.75,43.859,40,5,5.75,UDSG 080130Z 04005KT 9999 NSC 13/11 Q1018 NOSIG,2024-08-08T01:30:00Z,13,11,6+,30.06
UCFO,40.61,72.791,170,8,9.21,UCFO 080130Z 17004MPS CAVOK 26/11 Q1009 NOSIG,2024-08-08T01:30:00Z,26,11,6+,29.79
UCFM,43.061,74.478,120,8,9.21,UCFM 080130Z 12004MPS 9000 NSC 23/10 Q1009 NOSIG,2024-08-08T01:30:00Z,23,10,5.59,29.79
UCFL,42.585,76.702,350,4,4.6,UCFL 080130Z 35002MPS 320V030 9999 FEW030CB 20/10 Q1019,2024-08-08T01:30:00Z,20,10,6+,30.09
UAUU,53.215,63.553,40,10,11.51,UAUU 080130Z 04005MPS 9999 SCT053CB 17/16 Q1005 NOSIG RMK QFE738/0984,2024-08-08T01:30:00Z,17,16,6+,29.68
UATG,47.122,51.829,180,6,6.9,UATG 080130Z 18003MPS 9999 SCT050CB 24/15 Q1004 NOSIG RMK QFE755/1006,2024-08-08T01:30:00Z,24,15,6+,29.65
UATE,43.86,51.092,10,10,11.51,UATE 080130Z 01005MPS 9999 FEW060CB 25/18 Q1006 NOSIG RMK QFE753/1004,2024-08-08T01:30:00Z,25,18,6+,29.70
UASS,50.352,80.228,10,8,9.21,UASS 080130Z 01004MPS CAVOK 23/14 Q1003 NOSIG RMK QFE734/0979,2024-08-08T01:30:00Z,23,14,6+,29.62
UASP,52.202,77.078,250,4,4.6,UASP 080130Z 25002MPS CAVOK 19/18 Q1004 NOSIG RMK QFE742/0990,2024-08-08T01:30:00Z,19,18,6+,29.65
UASK,50.027,82.5,120,6,6.9,UASK 080130Z 12003MPS 9999 BKN110 19/17 Q1005 NOSIG RMK QFE729/0972,2024-08-08T01:30:00Z,19,17,6+,29.68
UARR,51.151,51.541,340,6,6.9,UARR 080130Z 34003MPS CAVOK 16/14 Q1005 TEMPO 1000 BR RMK QFE750/1000,2024-08-08T01:30:00Z,16,14,6+,29.68
UAOO,44.707,65.593,230,4,4.6,UAOO 080130Z 23002MPS CAVOK 24/10 Q1004 NOSIG RMK QFE741/0989,2024-08-08T01:30:00Z,24,10,6+,29.65
UAKK,49.672,73.333,0,0,0.0,UAKK 080130Z 00000MPS 9999 VCSH BKN050CB 16/13 Q1007 TEMPO 5000 -TSRA RMK QFE709/0945,2024-08-08T01:30:00Z,16,13,6+,29.73
UAKD,47.711,67.739,220,6,6.9,UAKD 080130Z 22003MPS 9999 SCT049 25/14 Q1005 NOSIG RMK QFE720/0960,2024-08-08T01:30:00Z,25,14,6+,29.68
UAIT,43.311,68.55,60,8,9.21,UAIT 080130Z 06004MPS CAVOK 28/03 Q1006 NOSIG RMK QFE730/0973,2024-08-08T01:30:00Z,28,3,6+,29.70
UAII,42.366,69.476,280,2,2.3,UAII 080130Z 28001MPS CAVOK 21/11 Q1006 NOSIG RMK QFE717/0956,2024-08-08T01:30:00Z,21,11,6+,29.70
UADD,42.854,71.304,30,4,4.6,UADD 080130Z 03002MPS 9999 NSC 22/11 Q1009 NOSIG RMK QFE700/0933,2024-08-08T01:30:00Z,22,11,6+,29.79
UACP,54.775,69.183,40,6,6.9,UACP 080130Z 04003MPS 9999 OVC011 15/14 Q1007 NOSIG RMK QFE743/0991,2024-08-08T01:30:00Z,15,14,6+,29.73
UACK,53.332,69.594,80,8,9.21,UACK 080130Z 08004MPS 9999 OVC002 16/15 Q1006 NOSIG RMK QBB060 QFE731/0974,2024-08-08T01:30:00Z,16,15,6+,29.70
UACC,51.024,71.468,90,4,4.6,UACC 080130Z 09002MPS 040V170 6000 -SHRA BKN036CB 18/17 Q1006 NOSIG RMK QFE723/0965,2024-08-08T01:30:00Z,18,17,3.73,29.70
UAAA,43.35,77.027,120,4,4.6,UAAA 080130Z 12002MPS 070V150 9999 SCT100 21/11 Q1010 NOSIG,2024-08-08T01:30:00Z,21,11,6+,29.82
RKSI,37.469,126.451,180,6,6.9,RKSI 080130Z 18006KT 9999 FEW010 BKN200 29/24 Q1005 NOSIG,2024-08-08T01:30:00Z,29,24,6+,29.68
RJTT,35.553,139.781,50,3,3.45,RJTT 080130Z 05003KT 020V090 9999 FEW020 30/26 Q1004 BECMG TL0200 10006KT RMK 1CU020 A2965,2024-08-08T01:30:00Z,30,26,6+,29.65
RJOB,34.757,133.855,270,4,4.6,RJOB 080130Z 27004KT 210V320 9999 FEW025 32/22 Q1006 RMK 1CU025 A2971,2024-08-08T01:30:00Z,32,22,6+,29.70
RJGG,34.858,136.805,240,6,6.9,RJGG 080130Z 24006KT 9999 FEW030 31/24 Q1003 NOSIG,2024-08-08T01:30:00Z,31,24,6+,29.62
RJFF,33.584,130.452,VRB,4,4.6,RJFF 080130Z VRB04KT 9999 FEW025 33/24 Q1004 BECMG 31011KT,2024-08-08T01:30:00Z,33,24,6+,29.65
RJCC,42.774,141.693,180,7,8.06,RJCC 080130Z 18007KT 150V210 9999 FEW006 SCT008 BKN010 26/23 Q1003 RMK 1ST006 4ST008 6ST010 A2962,2024-08-08T01:30:00Z,26,23,6+,29.62
RJBB,34.434,135.233,10,6,6.9,RJBB 080130Z 01006KT 9999 FEW025 30/23 Q1005 NOSIG,2024-08-08T01:30:00Z,30,23,6+,29.68
RCTP,25.078,121.233,320,10,11.51,RCTP 080130Z 32010KT 9999 VCSH SCT008 FEW015TCU BKN020 30/27 Q1007 NOSIG RMK TCU W A2975,2024-08-08T01:30:00Z,30,27,6+,29.73
RCNN,22.95,120.206,0,0,0.0,RCNN 080130Z 00000KT 9999 FEW012 SCT025 BKN100 32/26 Q1007 NOSIG RMK A2974,2024-08-08T01:30:00Z,32,26,6+,29.73
RCMQ,24.265,120.621,180,8,9.21,RCMQ 080130Z 18008KT 7000 VCSH FEW010 SCT025 BKN060 29/26 Q1009 NOSIG RMK A2980 VCSH SE-S,2024-08-08T01:30:00Z,29,26,4.35,29.79
RCKH,22.577,120.35,50,5,5.75,RCKH 080130Z 05005KT 9999 FEW022 SCT070 32/25 Q1006 NOSIG RMK A2973,2024-08-08T01:30:00Z,32,25,6+,29.70
RCFN,22.755,121.102,VRB,3,3.45,RCFN 080130Z VRB03KT 9999 FEW020 32/27 Q1007 NOSIG RMK A2974,2024-08-08T01:30:00Z,32,27,6+,29.73
PAMO,62.095,-163.686,200,11,12.66,PAMO 080130Z AUTO 20011KT 8SM FEW010 SCT065 BKN080 13/11 A2972 RMK AO2 RAE0058 P0000,2024-08-08T01:30:00Z,13,11,8,29.72
OTBD,25.261,51.565,VRB,2,2.3,OTBD 080130Z AUTO VRB02KT CAVOK 35/20 Q0997 NOSIG,2024-08-08T01:30:00Z,35,20,6+,29.44
OBBI,26.271,50.634,VRB,2,2.3,OBBI 080130Z VRB02KT CAVOK 34/25 Q0997 NOSIG,2024-08-08T01:30:00Z,34,25,6+,29.44
NZWN,-41.331,174.806,10,20,23.02,NZWN 080130Z AUTO 01020G30KT 9999 BKN021/// BKN028/// 11/08 Q1019,2024-08-08T01:30:00Z,11,8,6+,30.09
NZQN,-45.021,168.739,70,8,9.21,NZQN 080130Z AUTO 07008KT 030V100 9999 FEW010/// BKN020/// OVC075/// 07/05 Q1019,2024-08-08T01:30:00Z,7,5,6+,30.09
NZCH,-43.489,172.528,230,12,13.81,NZCH 080130Z AUTO 23012KT 9999 -RA FEW010/// OVC049/// 09/08 Q1017,2024-08-08T01:30:00Z,9,8,6+,30.03
NZAA,-37.008,174.792,360,13,14.96,NZAA 080130Z AUTO 36013KT 9999 OVC065/// 14/09 Q1022,2024-08-08T01:30:00Z,14,9,6+,30.18
NIUE,-19.079,-169.926,130,15,17.26,NIUE 080130Z AUTO 13015KT 9999 SCT030/// SCT035/// 25/17 Q1016,2024-08-08T01:30:00Z,25,17,6+,30.00
NCRG,-21.203,-159.806,230,10,11.51,NCRG 080130Z AUTO 23010KT 170V310 9999 FEW031/// SCT045/// 24/17 Q1014,2024-08-08T01:30:00Z,24,17,6+,29.94
LYBT,44.935,20.258,0,0,0.0,LYBT 080130Z 00000KT CAVOK 17/14 Q1013 NOSIG,2024-08-08T01:30:00Z,17,14,6+,29.91
LRTR,45.811,21.333,80,4,4.6,LRTR 080130Z 08004KT CAVOK 16/10 Q1013,2024-08-08T01:30:00Z,16,10,6+,29.91
LRTM,46.468,24.421,90,5,5.75,LRTM 080130Z AUTO 09005KT 9999 NCD 15/14 Q1015,2024-08-08T01:30:00Z,15,14,6+,29.97
LRTC,45.065,28.716,0,0,0.0,LRTC 080130Z AUTO 00000KT 9999 NCD 17/17 Q1013,2024-08-08T01:30:00Z,17,17,6+,29.91
LRSV,47.686,26.354,0,0,0.0,LRSV 080130Z 00000KT CAVOK 17/14 Q1015,2024-08-08T01:30:00Z,17,14,6+,29.97
LRSM,47.703,22.886,0,0,0.0,LRSM 080130Z AUTO 00000KT 9999 NCD 15/13 Q1014,2024-08-08T01:30:00Z,15,13,6+,29.94
LRSB,45.789,24.091,0,0,0.0,LRSB 080130Z 00000KT CAVOK 13/13 Q1015 NOSIG,2024-08-08T01:30:00Z,13,13,6+,29.97
LROP,44.572,26.102,300,3,3.45,LROP 080130Z 30003KT 270V350 CAVOK 18/15 Q1014 NOSIG,2024-08-08T01:30:00Z,18,15,6+,29.94
LROD,47.036,21.896,100,7,8.06,LROD 080130Z AUTO 10007KT 9999 NCD 18/14 Q1013,2024-08-08T01:30:00Z,18,14,6+,29.91
LRIA,47.164,27.627,280,1,1.15,LRIA 080130Z 28001KT CAVOK 18/16 Q1014,2024-08-08T01:30:00Z,18,16,6+,29.94
LRCV,44.31,23.867,50,4,4.6,LRCV 080130Z 05004KT CAVOK 18/10 Q1014,2024-08-08T01:30:00Z,18,10,6+,29.94
LRCL,46.783,23.676,90,2,2.3,LRCL 080130Z AUTO 09002KT 9999 BKN220/// 14/13 Q1015,2024-08-08T01:30:00Z,14,13,6+,29.97
LRCK,44.362,28.488,300,5,5.75,LRCK 080130Z 30005KT 8000 NSC 18/17 Q1013 NOSIG,2024-08-08T01:30:00Z,18,17,4.97,29.91
LRBV,45.706,25.524,60,2,2.3,LRBV 080130Z AUTO 06002KT 9999 NCD 13/11 Q1017,2024-08-08T01:30:00Z,13,11,6+,30.03
LRBS,44.511,26.078,VRB,1,1.15,LRBS 080130Z VRB01KT CAVOK 18/16 Q1014 NOSIG,2024-08-08T01:30:00Z,18,16,6+,29.94
LRBM,47.658,23.47,VRB,1,1.15,LRBM 080130Z AUTO VRB01KT 9999 NCD 17/14 Q1014,2024-08-08T01:30:00Z,17,14,6+,29.94
LRBC,46.522,26.91,340,2,2.3,LRBC 080130Z 34002KT CAVOK 16/15 Q1014,2024-08-08T01:30:00Z,16,15,6+,29.94
LRAR,46.176,21.264,0,0,0.0,LRAR 080130Z AUTO 00000KT 9999 NCD 17/12 Q1013,2024-08-08T01:30:00Z,17,12,6+,29.91
LPPT,38.781,-9.136,320,16,18.41,LPPT 080130Z 32016KT 9999 FEW010 18/16 Q1014,2024-08-08T01:30:00Z,18,16,6+,29.94
LPPS,33.073,-16.35,40,9,10.36,LPPS 080130Z 04009KT 360V060 9999 FEW014 22/17 Q1019,2024-08-08T01:30:00Z,22,17,6+,30.09
LPPR,41.235,-8.684,170,6,6.9,LPPR 080130Z 17006KT CAVOK 16/15 Q1013,2024-08-08T01:30:00Z,16,15,6+,29.91
LPPD,37.741,-25.698,350,5,5.75,LPPD 080130Z 35005KT 8000 -SHRA FEW006 BKN030 23/21 Q1022,2024-08-08T01:30:00Z,23,21,4.97,30.18
LPMA,32.698,-16.774,20,12,13.81,LPMA 080130Z 02012KT 340V050 9999 SCT015 23/18 Q1018,2024-08-08T01:30:00Z,23,18,6+,30.06
LPFR,37.014,-7.966,10,3,3.45,LPFR 080130Z 01003KT CAVOK 26/13 Q1011,2024-08-08T01:30:00Z,26,13,6+,29.85
LPAZ,36.971,-25.171,VRB,2,2.3,LPAZ 080130Z VRB02KT 9999 FEW016 23/21 Q1022,2024-08-08T01:30:00Z,23,21,6+,30.18
LKPD,50.016,15.74,VRB,1,1.15,LKPD 080130Z VRB01KT CAVOK 19/18 Q1013 RMK BLU,2024-08-08T01:30:00Z,19,18,6+,29.91
LKNA,49.166,16.125,VRB,1,1.15,LKNA 080130Z VRB01KT CAVOK 20/14 Q1014 RMK BLACK,2024-08-08T01:30:00Z,20,14,6+,29.94
LKCV,49.94,15.382,290,3,3.45,LKCV 080130Z 29003KT CAVOK 19/18 Q1013 NOSIG RMK BLU BLU,2024-08-08T01:30:00Z,19,18,6+,29.91
LJPZ,45.473,13.615,70,2,2.3,LJPZ 080130Z AUTO 07002KT 9999 NSC 23/19 Q1012,2024-08-08T01:30:00Z,23,19,6+,29.88
LJMB,46.48,15.682,VRB,1,1.15,LJMB 080130Z AUTO VRB01KT 9999 NSC 18/17 Q1015,2024-08-08T01:30:00Z,18,17,6+,29.97
LJLJ,46.218,14.477,VRB,2,2.3,LJLJ 080130Z VRB02KT 9999 FEW050 BKN110 19/18 Q1015 NOSIG,2024-08-08T01:30:00Z,19,18,6+,29.97
LJCE,45.899,15.523,260,3,3.45,LJCE 080130Z AUTO 26003KT 9999 FEW014/// BKN098/// 19/19 Q1015 RESHRA,2024-08-08T01:30:00Z,19,19,6+,29.97
LFRV,47.722,-2.727,290,3,3.45,LFRV 080130Z AUTO 29003KT CAVOK 14/13 Q1018,2024-08-08T01:30:00Z,14,13,6+,30.06
LFRT,48.536,-2.853,180,4,4.6,LFRT 080130Z AUTO 18004KT CAVOK 15/12 Q1017,2024-08-08T01:30:00Z,15,12,6+,30.03
LFRQ,47.975,-4.168,0,0,0.0,LFRQ 080130Z AUTO 00000KT 9999 FEW017 BKN120 13/13 Q1018,2024-08-08T01:30:00Z,13,13,6+,30.06
LFRM,47.949,0.202,0,0,0.0,LFRM 080130Z AUTO 00000KT CAVOK 15/13 Q1017,2024-08-08T01:30:00Z,15,13,6+,30.03
LFRK,49.18,-0.456,260,4,4.6,LFRK 080130Z AUTO 26004KT CAVOK 16/13 Q1017,2024-08-08T01:30:00Z,16,13,6+,30.03
LFRI,46.702,-1.379,0,0,0.0,LFRI 080130Z AUTO 00000KT CAVOK 13/12 Q1018,2024-08-08T01:30:00Z,13,12,6+,30.06
LFRH,47.761,-3.44,240,2,2.3,LFRH 080130Z AUTO 24002KT CAVOK 14/13 Q1018 TEMPO 0500 FG,2024-08-08T01:30:00Z,14,13,6+,30.06
LFRC,49.65,-1.47,220,5,5.75,LFRC 080130Z AUTO 22005KT CAVOK 15/14 Q1017,2024-08-08T01:30:00Z,15,14,6+,30.03
LFPT,49.097,2.041,0,0,0.0,LFPT 080130Z AUTO 00000KT CAVOK 15/14 Q1017,2024-08-08T01:30:00Z,15,14,6+,30.03
LFOZ,47.897,2.163,0,0,0.0,LFOZ 080130Z AUTO 00000KT CAVOK 13/12 Q1017,2024-08-08T01:30:00Z,13,12,6+,30.03
LFOV,48.031,-0.746,0,0,0.0,LFOV 080130Z AUTO 00000KT CAVOK 14/12 Q1017,2024-08-08T01:30:00Z,14,12,6+,30.03
LFOJ,47.985,1.754,0,0,0.0,LFOJ 080130Z AUTO 00000KT CAVOK 15/12 Q1017 NOSIG,2024-08-08T01:30:00Z,15,12,6+,30.03
LFOA,47.052,2.642,240,2,2.3,LFOA 080130Z AUTO 24002KT CAVOK 14/12 Q1018,2024-08-08T01:30:00Z,14,12,6+,30.06
LFMY,43.604,5.108,0,0,0.0,LFMY 080130Z AUTO 00000KT CAVOK 22/16 Q1013,2024-08-08T01:30:00Z,22,16,6+,29.91
LFMV,43.911,4.903,350,4,4.6,LFMV 080130Z AUTO 35004KT CAVOK 22/18 Q1013,2024-08-08T01:30:00Z,22,18,6+,29.91
LFMC,43.383,6.386,0,0,0.0,LFMC 080130Z AUTO 00000KT 9999 ////// 23/21 Q1013,2024-08-08T01:30:00Z,23,21,6+,29.91
LFKS,41.924,9.406,270,5,5.75,LFKS 080130Z AUTO 27005KT 240V300 9999 // NSC 26/21 Q1012,2024-08-08T01:30:00Z,26,21,6+,29.88
LFGJ,47.044,5.427,330,4,4.6,LFGJ 080130Z AUTO 33004KT 300V360 9999 BKN037 OVC060 20/17 Q1017,2024-08-08T01:30:00Z,20,17,6+,30.03
LFBU,45.728,0.22,300,4,4.6,LFBU 080130Z AUTO 30004KT CAVOK 15/13 Q1018,2024-08-08T01:30:00Z,15,13,6+,30.06
LEZL,37.418,-5.893,200,5,5.75,LEZL 080130Z AUTO 20005KT 170V250 CAVOK 24/19 Q1011,2024-08-08T01:30:00Z,24,19,6+,29.85
LEZG,41.661,-1.004,290,14,16.11,LEZG 080130Z 29014KT 250V320 CAVOK 23/18 Q1015 NOSIG,2024-08-08T01:30:00Z,23,18,6+,29.97
LEXJ,43.429,-3.831,0,0,0.0,LEXJ 080130Z AUTO 00000KT 8000 OVC022 20/18 Q1018,2024-08-08T01:30:00Z,20,18,4.97,30.06
LEVX,42.239,-8.624,VRB,2,2.3,LEVX 080130Z AUTO VRB02KT CAVOK 17/15 Q1014,2024-08-08T01:30:00Z,17,15,6+,29.94
LEVT,42.872,-2.733,10,6,6.9,LEVT 080130Z 01006KT 340V040 9999 BKN013 BKN021 19/17 Q1019,2024-08-08T01:30:00Z,19,17,6+,30.09
LEVS,40.371,-3.785,100,4,4.6,LEVS 080130Z AUTO 10004KT 020V140 CAVOK 26/13 Q1015,2024-08-08T01:30:00Z,26,13,6+,29.97
LEVD,41.706,-4.852,50,5,5.75,LEVD 080130Z AUTO 05005KT CAVOK 17/15 Q1017,2024-08-08T01:30:00Z,17,15,6+,30.03
LEVC,39.489,-0.482,300,3,3.45,LEVC 080130Z 30003KT CAVOK 24/17 Q1014 NOSIG,2024-08-08T01:30:00Z,24,17,6+,29.94
LETU,-99.99,-99.99,300,9,10.36,LETU 080130Z AUTO 30009KT 280V340 CAVOK 22/17 Q1017,2024-08-08T01:30:00Z,22,17,6+,30.03
LETO,40.489,-3.451,360,3,3.45,LETO 080130Z 36003KT 310V040 CAVOK 24/12 Q1015 NOSIG,2024-08-08T01:30:00Z,24,12,6+,29.97
LETL,40.404,-1.218,110,3,3.45,LETL 080130Z AUTO 11003KT CAVOK 19/12 Q1020,2024-08-08T01:30:00Z,19,12,6+,30.12
LEST,42.888,-8.411,20,7,8.06,LEST 080130Z 02007KT 330V050 9999 BKN013 16/15 Q1017 NOSIG,2024-08-08T01:30:00Z,16,15,6+,30.03
LESO,43.361,-1.787,0,0,0.0,LESO 080130Z AUTO 00000KT 9999 OVC021 21/20 Q1018,2024-08-08T01:30:00Z,21,20,6+,30.06
LESB,39.599,2.703,10,4,4.6,LESB 080130Z AUTO 01004KT CAVOK 25/15 Q1013,2024-08-08T01:30:00Z,25,15,6+,29.91
LESA,40.96,-5.498,VRB,1,1.15,LESA 080130Z AUTO VRB01KT CAVOK 17/15 Q1016,2024-08-08T01:30:00Z,17,15,6+,30.00
LERT,36.645,-6.349,170,6,6.9,LERT 080130Z 17006KT 140V200 CAVOK 23/23 Q1011 NOSIG,2024-08-08T01:30:00Z,23,23,6+,29.85
LERS,41.15,1.179,30,4,4.6,LERS 080130Z AUTO 03004KT CAVOK 23/18 Q1014,2024-08-08T01:30:00Z,23,18,6+,29.94
LEPP,42.777,-1.65,320,9,10.36,LEPP 080130Z AUTO 32009KT 9999 OVC017 19/17 Q1018,2024-08-08T01:30:00Z,19,17,6+,30.06
LEPA,39.561,2.737,10,3,3.45,LEPA 080130Z 01003KT 320V060 CAVOK 24/17 Q1013 NOSIG,2024-08-08T01:30:00Z,24,17,6+,29.91
LEMO,37.175,-5.616,190,6,6.9,LEMO 080130Z 19006KT CAVOK 26/13 Q1011 NOSIG,2024-08-08T01:30:00Z,26,13,6+,29.85
LEMI,37.803,-1.125,340,5,5.75,LEMI 080130Z AUTO 34005KT CAVOK 24/17 Q1013,2024-08-08T01:30:00Z,24,17,6+,29.91
LEMH,39.855,4.216,40,7,8.06,LEMH 080130Z AUTO 04007KT CAVOK 25/24 Q1014,2024-08-08T01:30:00Z,25,24,6+,29.94
LEMG,36.666,-4.482,280,3,3.45,LEMG 080130Z 28003KT CAVOK 22/15 Q1012 NOSIG,2024-08-08T01:30:00Z,22,15,6+,29.88
LEMD,40.466,-3.555,50,3,3.45,LEMD 080130Z 05003KT 010V110 CAVOK 26/13 Q1015 WS R32R WS R36L NOSIG,2024-08-08T01:30:00Z,26,13,6+,29.97
LELO,42.452,-2.331,270,7,8.06,LELO 080130Z AUTO 27007KT 9999 OVC025 21/17 Q1017,2024-08-08T01:30:00Z,21,17,6+,30.03
LELN,42.588,-5.651,310,2,2.3,LELN 080130Z AUTO 31002KT CAVOK 13/11 Q1018,2024-08-08T01:30:00Z,13,11,6+,30.06
LELL,41.521,2.105,280,4,4.6,LELL 080130Z AUTO 28004KT CAVOK 22/18 Q1015,2024-08-08T01:30:00Z,22,18,6+,29.97
LELC,37.775,-0.812,50,9,10.36,LELC 080130Z AUTO 05009KT 020V080 9000 FEW013 27/24 Q1012,2024-08-08T01:30:00Z,27,24,5.59,29.88
LEJR,36.751,-6.056,150,2,2.3,LEJR 080130Z AUTO 15002KT CAVOK 21/19 Q1011,2024-08-08T01:30:00Z,21,19,6+,29.85
LEIB,38.876,1.384,30,6,6.9,LEIB 080130Z 03006KT CAVOK 26/24 Q1012 NOSIG,2024-08-08T01:30:00Z,26,24,6+,29.88
LEHC,42.082,-0.324,VRB,2,2.3,LEHC 080130Z AUTO VRB02KT CAVOK 22/13 Q1016,2024-08-08T01:30:00Z,22,13,6+,30.00
LEGT,40.299,-3.723,140,5,5.75,LEGT 080130Z AUTO 14005KT 090V190 CAVOK 27/13 Q1014,2024-08-08T01:30:00Z,27,13,6+,29.94
LEGR,37.19,-3.789,VRB,1,1.15,LEGR 080130Z AUTO VRB01KT CAVOK 22/08 Q1015,2024-08-08T01:30:00Z,22,8,6+,29.97
LEGE,41.911,2.763,VRB,2,2.3,LEGE 080130Z VRB02KT CAVOK 23/19 Q1014 NOSIG,2024-08-08T01:30:00Z,23,19,6+,29.94
LEDA,41.734,0.538,70,11,12.66,LEDA 080130Z AUTO 07011KT CAVOK 25/14 Q1015,2024-08-08T01:30:00Z,25,14,6+,29.97
LECO,43.307,-8.372,320,3,3.45,LECO 080130Z AUTO 32003KT 280V350 CAVOK 17/15 Q1017,2024-08-08T01:30:00Z,17,15,6+,30.03
LECH,40.211,0.067,VRB,2,2.3,LECH 080130Z AUTO VRB02KT CAVOK 21/18 Q1015,2024-08-08T01:30:00Z,21,18,6+,29.97
LEBT,39.58,-0.45,360,3,3.45,LEBT 080130Z AUTO 36003KT 330V030 CAVOK 21/14 Q1014,2024-08-08T01:30:00Z,21,14,6+,29.94
LEBR,42.2,-1.43,300,10,11.51,LEBR 080130Z AUTO 30010KT CAVOK 21/17 Q1016,2024-08-08T01:30:00Z,21,17,6+,30.00
LEBL,41.293,2.07,330,6,6.9,LEBL 080130Z 33006KT CAVOK 24/18 Q1014 NOSIG,2024-08-08T01:30:00Z,24,18,6+,29.94
LEBG,42.356,-3.622,60,10,11.51,LEBG 080130Z AUTO 06010G20KT 030V100 9999 OVC004 16/15 Q1019,2024-08-08T01:30:00Z,16,15,6+,30.09
LEBB,43.298,-2.906,0,0,0.0,LEBB 080130Z AUTO 00000KT 9999 BKN024 OVC035 21/19 Q1018,2024-08-08T01:30:00Z,21,19,6+,30.06
LEBA,37.842,-4.849,260,2,2.3,LEBA 080130Z AUTO 26002KT CAVOK 24/13 Q1011,2024-08-08T01:30:00Z,24,13,6+,29.85
LEAS,43.567,-6.044,120,3,3.45,LEAS 080130Z AUTO 12003KT 070V170 9999 OVC030 19/17 Q1018,2024-08-08T01:30:00Z,19,17,6+,30.06
LEAM,36.846,-2.357,VRB,1,1.15,LEAM 080130Z AUTO VRB01KT CAVOK 27/24 Q1011,2024-08-08T01:30:00Z,27,24,6+,29.85
LEAL,38.282,-0.558,290,3,3.45,LEAL 080130Z 29003KT CAVOK 24/14 Q1012 NOSIG,2024-08-08T01:30:00Z,24,14,6+,29.88
LEAG,36.129,-5.441,VRB,2,2.3,LEAG 080130Z AUTO VRB02KT CAVOK 23/17 Q1012,2024-08-08T01:30:00Z,23,17,6+,29.88
LEAB,38.952,-1.863,100,6,6.9,LEAB 080130Z 10006KT CAVOK 20/14 Q1017 NOSIG,2024-08-08T01:30:00Z,20,14,6+,30.03
KTQK,38.4782,-100.882,110,7,8.06,KTQK 080130Z AUTO 11007KT 10SM CLR 31/18 A2988 RMK AO2 T03060178,2024-08-08T01:30:00Z,30.6,17.8,10+,29.88
KRNH,45.1476,-92.5335,0,0,0.0,KRNH 080130Z AUTO 00000KT 10SM RA OVC080 20/17 A2995 RMK AO2 T01960165,2024-08-08T01:30:00Z,19.6,16.5,10+,29.95
KOPL,30.5643,-92.1021,0,0,0.0,KOPL 080130Z AUTO 00000KT 10SM CLR 27/24 A2979 RMK AO2 T02670236,2024-08-08T01:30:00Z,26.7,23.6,10+,29.79
KHBV,27.3516,-98.7415,160,4,4.6,KHBV 080130Z AUTO 16004KT 5SM HZ SCT060 SCT075 32/19 A2980 RMK AO2 T03180185,2024-08-08T01:30:00Z,31.8,18.5,5,29.80
KFOA,38.6673,-88.4527,330,5,5.75,KFOA 080130Z AUTO 33005KT 10SM SCT050 21/20 A2988 RMK AO2,2024-08-08T01:30:00Z,21,20,10+,29.88
KDVK,37.5764,-84.7641,0,0,0.0,KDVK 080130Z AUTO 00000KT 10SM SCT080 BKN100 25/22 A2983 RMK AO2,2024-08-08T01:30:00Z,25,22,10+,29.83
KDED,29.075,-81.286,210,7,8.06,KDED 080130Z AUTO 21007KT 10SM CLR 29/23 A2969 RMK AO2 LTG DSNT N T02910230,2024-08-08T01:30:00Z,29.1,23,10+,29.69
KCZT,28.5204,-99.8192,120,3,3.45,KCZT 080130Z AUTO 12003KT 10SM SCT110 37/15 A2974 RMK AO2,2024-08-08T01:30:00Z,37,15,10+,29.74
GQNO,18.31,-15.97,320,4,4.6,GQNO 080130Z 32004KT 8000 NSC 26/23 Q1011 NOSIG,2024-08-08T01:30:00Z,26,23,4.97,29.85
GOBD,14.671,-17.067,250,3,3.45,GOBD 080130Z 25003KT 9999 SCT015 27/27 Q1011 NOSIG,2024-08-08T01:30:00Z,27,27,6+,29.85
GMTT,35.727,-5.917,190,4,4.6,GMTT 080130Z 19004KT 130V220 6000 SCT003 23/23 Q1012 NOSIG,2024-08-08T01:30:00Z,23,23,3.73,29.88
GMFO,34.787,-1.924,350,12,13.81,GMFO 080130Z 35012KT 9999 FEW030 SCT100 24/21 Q1013 NOSIG,2024-08-08T01:30:00Z,24,21,6+,29.91
GEML,35.278,-2.956,VRB,2,2.3,GEML 080130Z AUTO VRB02KT 9999 SCT013 BKN018 27/23 Q1012,2024-08-08T01:30:00Z,27,23,6+,29.88
GECE,35.893,-5.306,10,3,3.45,GECE 080130Z AUTO 01003KT 330V050 9999 SCT002 21/21 Q1012,2024-08-08T01:30:00Z,21,21,6+,29.88
GCXO,28.483,-16.342,310,13,14.96,GCXO 080130Z AUTO 31013KT 280V340 9999 SCT012 18/16 Q1018,2024-08-08T01:30:00Z,18,16,6+,30.06
GCTS,28.047,-16.561,40,9,10.36,GCTS 080130Z 04009KT 9999 FEW030 23/18 Q1015 NOSIG,2024-08-08T01:30:00Z,23,18,6+,29.97
GCRR,28.952,-13.6,10,16,18.41,GCRR 080130Z AUTO 01016KT 9999 OVC025 23/18 Q1015,2024-08-08T01:30:00Z,23,18,6+,29.97
GCLP,27.923,-15.389,10,21,24.17,GCLP 080130Z 01021KT 9999 BKN030 24/18 Q1015 NOSIG,2024-08-08T01:30:00Z,24,18,6+,29.97
GCLA,28.633,-17.755,10,11,12.66,GCLA 080130Z AUTO 01011KT 340V060 9000 OVC036 24/17 Q1017,2024-08-08T01:30:00Z,24,17,5.59,30.03
GCHI,27.819,-17.889,340,14,16.11,GCHI 080130Z AUTO 34014KT 9999 SCT018 SCT025 BKN030 23/20 Q1016,2024-08-08T01:30:00Z,23,20,6+,30.00
GCGM,28.032,-17.211,250,6,6.9,GCGM 080130Z AUTO 25006KT CAVOK 21/18 Q1016 RMK R09/26006KT ARP/27006KT,2024-08-08T01:30:00Z,21,18,6+,30.00
GCFV,28.445,-13.863,20,12,13.81,GCFV 080130Z AUTO 02012KT CAVOK 23/19 Q1015,2024-08-08T01:30:00Z,23,19,6+,29.97
GABS,12.534,-7.95,230,3,3.45,GABS 080130Z 23003KT 9999 FEW015 24/24 Q1013 NOSIG,2024-08-08T01:30:00Z,24,24,6+,29.91
FOOL,0.459,9.412,170,6,6.9,FOOL 080130Z 17006KT 9000 SCT010 24/23 Q1012 NOSIG,2024-08-08T01:30:00Z,24,23,5.59,29.88
FMEP,-21.32,55.425,50,5,5.75,FMEP 080130Z AUTO 05005KT 020V080 CAVOK 18/12 Q1020,2024-08-08T01:30:00Z,18,12,6+,30.12
FMEE,-20.887,55.51,0,0,0.0,FMEE 080130Z AUTO 00000KT CAVOK 17/13 Q1020 NOSIG,2024-08-08T01:30:00Z,17,13,6+,30.12
FKYS,3.833,11.521,240,4,4.6,FKYS 080130Z 24004KT 8000 BKN006 21/20 Q1016 NOSIG,2024-08-08T01:30:00Z,21,20,4.97,30.00
FKKD,4.006,9.72,110,3,3.45,FKKD 080130Z 11003KT 8000 FEW005 BKN012 FEW015CB 24/24 Q1012 TEMPO 3500 RADZ,2024-08-08T01:30:00Z,24,24,4.97,29.88
FGSL,3.756,8.71,250,7,8.06,FGSL 080130Z 25007KT 220V280 9999 SCT010 25/24 Q1012 NOSIG,2024-08-08T01:30:00Z,25,24,6+,29.88
FCPP,-4.816,11.887,190,7,8.06,FCPP 080130Z 19007KT 7000 FEW010 BKN022 23/21 Q1013 NOSIG,2024-08-08T01:30:00Z,23,21,4.35,29.91
DTTJ,33.875,10.775,0,0,0.0,DTTJ 080130Z 00000KT 8000 FEW023 26/23 Q1013,2024-08-08T01:30:00Z,26,23,4.97,29.91
DTTA,36.851,10.227,0,0,0.0,DTTA 080130Z 00000KT 9999 FEW033 25/24 Q1013,2024-08-08T01:30:00Z,25,24,6+,29.91
DTNH,36.074,10.436,340,4,4.6,DTNH 080130Z 34004KT 8000 SCT020 23/22 Q1013,2024-08-08T01:30:00Z,23,22,4.97,29.91
DTMB,35.758,10.755,190,2,2.3,DTMB 080130Z 19002KT 8000 NSC 25/23 Q1013,2024-08-08T01:30:00Z,25,23,4.97,29.91
DAOO,35.623,-0.624,0,0,0.0,DAOO 080130Z 00000KT 9000 BKN012 SCT100 26/24 Q1011,2024-08-08T01:30:00Z,26,24,5.59,29.85
DAON,35.013,-1.457,330,4,4.6,DAON 080130Z 33004KT CAVOK 25/23 Q1012,2024-08-08T01:30:00Z,25,23,6+,29.88
DAAT,22.824,5.452,110,4,4.6,DAAT 080130Z 11004KT CAVOK 25/M02 Q1017,2024-08-08T01:30:00Z,25,-2,6+,30.03
DAAG,36.691,3.215,250,4,4.6,DAAG 080130Z 25004KT CAVOK 26/23 Q1010,2024-08-08T01:30:00Z,26,23,6+,29.82
RJCK,43.041,144.193,170,5,5.75,RJCK 080126Z 17005KT 2400 -SHRA BR SCT002 BKN003 BKN004 24/24 Q1002 RMK 3ST002 5ST003 6ST004 A2961,2024-08-08T01:26:00Z,24,24,1.49,29.59
RKNW,37.337,127.947,260,3,3.45,RKNW 080125Z 26003KT 9000 BR SCT020 BKN030 BKN160 27/24 A2970 RMK CIG030,2024-08-08T01:25:00Z,27,24,5.59,29.70
FAPE,-33.985,25.617,220,10,11.51,FAPE 080125Z 22010KT 9999 FEW004 14/12 Q1011 TEMPO 2000 BR BKN004,2024-08-08T01:25:00Z,14,12,6+,29.85
RJOO,34.784,135.439,340,10,11.51,RJOO 080120Z 34010KT 310V020 9999 FEW020 SCT040 33/23 Q1004 RMK 1CU020 3CU040 A2967,2024-08-08T01:20:00Z,33,23,6+,29.65
LGKR,39.61,19.913,VRB,2,2.3,LGKR 080120Z VRB02KT CAVOK 25/23 Q1009 NOSIG,2024-08-08T01:20:00Z,25,23,6+,29.79
ETWM,52.725,7.33,VRB,1,1.15,ETWM 080120Z AUTO VRB01KT //// // ////// 12/11 Q1014 ///,2024-08-08T01:20:00Z,12,11,,29.94
ETSN,48.71,11.21,300,3,3.45,ETSN 080120Z 30003KT 9999 FEW040 SCT320 17/16 Q1015 BLU+,2024-08-08T01:20:00Z,17,16,6+,29.97
ETSL,48.185,10.861,220,1,1.15,ETSL 080120Z 22001KT 9999 SCT100 16/15 Q1016 BLU+,2024-08-08T01:20:00Z,16,15,6+,30.00
ETSI,48.716,11.534,320,3,3.45,ETSI 080120Z AUTO 32003KT //// // ////// 18/17 Q1015 ///,2024-08-08T01:20:00Z,18,17,,29.97
ETSH,51.768,13.168,300,5,5.75,ETSH 080120Z 30005KT 9999 FEW060 BKN120 19/16 Q1012 BLU,2024-08-08T01:20:00Z,19,16,6+,29.88
ETSB,50.175,7.06,330,4,4.6,ETSB 080120Z AUTO 33004KT //// // ////// 15/12 Q1016 ///,2024-08-08T01:20:00Z,15,12,,30.00
ETNW,52.457,9.427,200,2,2.3,ETNW 080120Z 20002KT 9999 BKN070 17/15 Q1014 BLU,2024-08-08T01:20:00Z,17,15,6+,29.94
ETNT,53.548,7.667,VRB,2,2.3,ETNT 080120Z AUTO VRB02KT //// // ////// 12/11 Q1013 ///,2024-08-08T01:20:00Z,12,11,,29.91
ETNS,54.457,9.52,210,4,4.6,ETNS 080120Z AUTO 21004KT //// // ////// 12/11 Q1012 ///,2024-08-08T01:20:00Z,12,11,,29.88
ETNN,50.829,6.66,250,4,4.6,ETNN 080120Z 25004KT 9999 FEW070 BKN140 17/13 Q1015 BLU,2024-08-08T01:20:00Z,17,13,6+,29.97
ETNL,53.916,12.279,290,8,9.21,ETNL 080120Z 29008KT 9999 SCT013 BKN030 18/18 Q1012 BLU,2024-08-08T01:20:00Z,18,18,6+,29.88
ETNH,54.312,9.538,190,2,2.3,ETNH 080120Z AUTO 19002KT //// // ////// 12/11 Q1012 ///,2024-08-08T01:20:00Z,12,11,,29.88
ETMN,53.765,8.658,200,5,5.75,ETMN 080120Z 20005KT 9999 BKN270 14/12 Q1013 BLU+,2024-08-08T01:20:00Z,14,12,6+,29.91
ETHS,52.918,10.184,190,2,2.3,ETHS 080120Z 19002KT 9999 BKN070 14/12 Q1014 BLU,2024-08-08T01:20:00Z,14,12,6+,29.94
ETHN,49.398,9.958,310,4,4.6,ETHN 080120Z 31004KT 9999 FEW070 SCT320 17/16 Q1016 BLU+,2024-08-08T01:20:00Z,17,16,6+,30.00
ETHL,48.218,9.91,VRB,1,1.15,ETHL 080120Z VRB01KT 9999 FEW025 FEW040CB SCT100 18/16 Q1016 BLU+,2024-08-08T01:20:00Z,18,16,6+,30.00
ETHF,51.114,9.286,VRB,2,2.3,ETHF 080120Z VRB02KT 9999 BKN058 16/15 Q1015 BLU,2024-08-08T01:20:00Z,16,15,6+,29.97
ETHC,52.591,10.022,230,2,2.3,ETHC 080120Z 23002KT 9999 FEW013 BKN070 16/15 Q1014 BLU,2024-08-08T01:20:00Z,16,15,6+,29.94
ETHB,52.279,9.082,180,4,4.6,ETHB 080120Z 18004KT 9999 FEW050 BKN060 16/14 Q1014 BLU,2024-08-08T01:20:00Z,16,14,6+,29.94
ETHA,47.834,10.867,VRB,1,1.15,ETHA 080120Z AUTO VRB01KT 9999 // ////// 16/14 Q1017 ///,2024-08-08T01:20:00Z,16,14,6+,30.03
ETGG,54.827,9.506,230,6,6.9,ETGG 080120Z AUTO 23006KT 9999 // ////// 14/13 Q1012 ///,2024-08-08T01:20:00Z,14,13,6+,29.88
ENEV,68.491,16.683,170,4,4.6,ENEV 080120Z 17004KT 130V230 CAVOK 19/10 Q1008 RMK WIND 1400FT 13013KT,2024-08-08T01:20:00Z,19,10,6+,29.76
ROKJ,26.337,126.803,50,6,6.9,ROKJ 080116Z AUTO 05006KT 020V090 9999 FEW015 SCT031 BKN050 //////TCU 32/29 Q1005 RMK A2969 TCU 35KM W MOV UNKNOWN,2024-08-08T01:16:00Z,32,29,6+,29.68
K40B,46.616,-69.533,0,0,0.0,K40B 080116Z AUTO 00000KT 13/10 A3009 RMK AO1 SLP181 T01330100 53020,2024-08-08T01:16:00Z,13.3,10,,30.09
CYPQ,44.232,-78.36,0,0,0.0,CYPQ 080116Z AUTO 00000KT 8SM CLR 15/14 A3002 RMK SLP170,2024-08-08T01:16:00Z,15,14,8,30.02
LIRP,43.684,10.393,160,3,3.45,LIRP 080115Z 16003KT 110V190 CAVOK 23/23 Q1012 NOSIG,2024-08-08T01:15:00Z,23,23,6+,29.88
K9D7,48.4816,-99.2346,,,,K9D7 080115Z AUTO 10SM CLR 15/09 A3008 RMK AO2,2024-08-08T01:15:00Z,15,9,10+,30.08
RJKA,28.431,129.713,310,4,4.6,RJKA 080114Z 31004KT 260V060 9999 FEW020 SCT025 33/28 Q1005 RMK 1CU020 4CU025 A2968,2024-08-08T01:14:00Z,33,28,6+,29.68
VCRI,6.287,81.125,VRB,2,2.3,VCRI 080110Z VRB02KT CAVOK 25/24 Q1009 NOSIG,2024-08-08T01:10:00Z,25,24,6+,29.79
VCBI,7.181,79.884,VRB,2,2.3,VCBI 080110Z VRB02KT 9999 FEW014 BKN016 28/26 Q1009 NOSIG,2024-08-08T01:10:00Z,28,26,6+,29.79
CYBU,53.333,-104.005,40,2,2.3,CYBU 080107Z AUTO 04002KT 9SM SCT050 BKN081 12/11 A3026 RMK SLP262,2024-08-08T01:07:00Z,12,11,9,30.26
RJOY,34.597,135.601,300,5,5.75,RJOY 080106Z 30005KT 260V030 9999 FEW025 32/22 Q1004 RMK 1CU025 A2967,2024-08-08T01:06:00Z,32,22,6+,29.65
UWOR,51.07,58.597,300,4,4.6,UWOR 080105Z 30002MPS 4400 BR BKN004 16/16 Q1004 R25/CLRD65 NOSIG RMK QBB130 QFE730/0973,2024-08-08T01:05:00Z,16,16,2.73,29.65
RKTI,37.03,127.885,210,2,2.3,RKTI 080105Z 21002KT 8000 BR SCT015 BKN030 BKN040 28/25 A2970 RMK CIG030,2024-08-08T01:05:00Z,28,25,4.97,29.70
CYYW,50.296,-88.912,170,4,4.6,CYYW 080105Z AUTO 17004KT 140V200 9SM OVC024 17/16 A2982 RMK SLP094 DENSITY ALT 1700FT,2024-08-08T01:05:00Z,17,16,9,29.82
CYMO,51.292,-80.607,360,5,5.75,CYMO 080105Z AUTO 36005KT 340V040 9SM BKN100 OVC120 12/10 A3001 RMK SLP165,2024-08-08T01:05:00Z,12,10,9,30.01
CWKM,69.595,-140.174,VRB,13,14.96,CWKM 080104Z AUTO VRB13KT ////SM ////// 17/10 A2971,2024-08-08T01:04:00Z,17,10,,29.71
SVVL,9.34,-70.585,,,,SVVL 080103Z AUTO ///01KT NCD ///// Q////,2024-08-08T01:03:00Z,,,,
SVSR,7.881,-67.443,,,,SVSR 080103Z AUTO NIL,2024-08-08T01:03:00Z,,,,
SVSA,7.841,-72.441,260,2,2.3,SVSA 080103Z AUTO 26002KT NCD 28/21 Q1009,2024-08-08T01:03:00Z,28,21,,29.79
SVPR,8.288,-62.76,50,5,5.75,SVPR 080103Z AUTO 05005KT NCD 25/22 Q1012,2024-08-08T01:03:00Z,25,22,,29.88
SVPA,5.622,-67.605,,,,SVPA 080103Z AUTO NIL,2024-08-08T01:03:00Z,,,,
SVMT,9.748,-63.156,80,4,4.6,SVMT 080103Z AUTO 08004KT NCD 27/27 Q1010,2024-08-08T01:03:00Z,27,27,,29.82
SVMG,10.913,-63.968,60,8,9.21,SVMG 080103Z AUTO 06008KT NCD 29/24 Q1010,2024-08-08T01:03:00Z,29,24,,29.82
SVMC,10.558,-71.728,60,4,4.6,SVMC 080103Z AUTO 06004KT NCD 29/23 Q1009,2024-08-08T01:03:00Z,29,23,,29.79
SVLO,11.805,-66.192,,,,SVLO 080103Z AUTO NIL,2024-08-08T01:03:00Z,,,,
SVJM,9.909,-67.377,10,1,1.15,SVJM 080103Z AUTO 01001KT NCD 24/24 Q1011,2024-08-08T01:03:00Z,24,24,,29.85
SVGU,9.027,-69.755,,,,SVGU 080103Z AUTO ///01KT NCD ///// Q1012,2024-08-08T01:03:00Z,,,,29.88
SVGD,7.212,-70.755,110,3,3.45,SVGD 080103Z AUTO 11003KT NCD 28/26 Q1010,2024-08-08T01:03:00Z,28,26,,29.82
SVFM,10.487,-66.846,,,,SVFM 080103Z AUTO NIL,2024-08-08T01:03:00Z,,,,
SVCS,10.287,-66.816,,,,SVCS 080103Z AUTO NIL,2024-08-08T01:03:00Z,,,,
SVCB,8.121,-63.533,,,,SVCB 080103Z AUTO NIL,2024-08-08T01:03:00Z,,,,
SVBS,10.25,-67.649,300,3,3.45,SVBS 080103Z AUTO 30003KT NCD 26/21 Q1013,2024-08-08T01:03:00Z,26,21,,29.91
SVBM,10.043,-69.358,110,14,16.11,SVBM 080103Z AUTO 11014KT NCD 26/21 Q1012,2024-08-08T01:03:00Z,26,21,,29.88
SVBI,8.62,-70.22,,,,SVBI 080103Z AUTO NIL,2024-08-08T01:03:00Z,,,,
SVBC,10.107,-64.689,190,3,3.45,SVBC 080103Z AUTO 19003KT NCD 26/26 Q1010,2024-08-08T01:03:00Z,26,26,,29.82
SARI,-25.737,-54.473,130,3,3.45,SARI 080102Z 13003KT 4000 BR FEW002 BKN020 OVC030 17/17 Q1013 PP000,2024-08-08T01:02:00Z,17,17,2.49,29.91
PAHX,62.688,-159.566,190,4,4.6,PAHX 080102Z AUTO 19004KT 10SM SCT060 BKN095 17/11 A2976 RMK AO2 SLP076 T01720106,2024-08-08T01:02:00Z,17.2,10.6,10+,29.76
TNCC,12.189,-68.96,90,10,11.51,TNCC 080101Z 09010KT 9999 FEW018 29/26 Q1011 NOSIG,2024-08-08T01:01:00Z,29,26,6+,29.85
PAFS,63.015,-154.367,250,3,3.45,PAFS 080101Z AUTO 25003KT 10SM CLR 17/13 A2983 RMK AO2 SLP106 T01670133 $,2024-08-08T01:01:00Z,16.7,13.3,10+,29.83
ZYHB,45.628,126.259,250,6,6.9,ZYHB 080100Z 25003MPS 220V280 CAVOK 27/20 Q1004 NOSIG,2024-08-08T01:00:00Z,27,20,6+,29.65
ZYCC,43.993,125.682,230,10,11.51,ZYCC 080100Z 23005MPS CAVOK 27/22 Q1005 NOSIG,2024-08-08T01:00:00Z,27,22,6+,29.68
ZWSH,39.542,76.019,VRB,6,6.9,ZWSH 080100Z VRB03MPS 6000 NSC 23/14 Q1014 NOSIG,2024-08-08T01:00:00Z,23,14,3.73,29.94
ZUUU,30.576,103.95,50,4,4.6,ZUUU 080100Z 05002MPS 350V110 CAVOK 31/24 Q1001 NOSIG,2024-08-08T01:00:00Z,31,24,6+,29.56
ZUTF,30.304,104.436,10,6,6.9,ZUTF 080100Z 01003MPS 330V040 CAVOK 31/25 Q1000 NOSIG,2024-08-08T01:00:00Z,31,25,6+,29.53
ZUGY,26.538,106.801,210,14,16.11,ZUGY 080100Z 21007MPS 9999 SCT036 26/21 Q1011 NOSIG,2024-08-08T01:00:00Z,26,21,6+,29.85
ZUCK,29.718,106.639,130,8,9.21,ZUCK 080100Z 13004MPS 100V160 CAVOK 33/22 Q1001 NOSIG,2024-08-08T01:00:00Z,33,22,6+,29.56
ZSQD,36.362,120.087,30,4,4.6,ZSQD 080100Z 03002MPS 360V070 9999 BKN053 27/25 Q1005 NOSIG,2024-08-08T01:00:00Z,27,25,6+,29.68
ZSOF,31.99,116.965,120,4,4.6,ZSOF 080100Z 12002MPS 090V150 CAVOK 33/27 Q1004 NOSIG,2024-08-08T01:00:00Z,33,27,6+,29.65
ZSNJ,31.739,118.863,VRB,2,2.3,ZSNJ 080100Z VRB01MPS CAVOK 34/25 Q1004 NOSIG,2024-08-08T01:00:00Z,34,25,6+,29.65
ZSNB,29.827,121.462,150,6,6.9,ZSNB 080100Z 15003MPS 100V250 CAVOK 33/26 Q1005 NOSIG,2024-08-08T01:00:00Z,33,26,6+,29.68
ZSFZ,25.936,119.666,180,6,6.9,ZSFZ 080100Z 18003MPS 140V220 9999 FEW013 31/27 Q1006 NOSIG,2024-08-08T01:00:00Z,31,27,6+,29.70
ZSAM,24.546,118.131,VRB,2,2.3,ZSAM 080100Z VRB01MPS CAVOK 32/26 Q1007 NOSIG,2024-08-08T01:00:00Z,32,26,6+,29.73
ZPPP,25.107,102.934,200,14,16.11,ZPPP 080100Z 20007MPS 9999 SCT020 BKN040 20/17 Q1020 NOSIG,2024-08-08T01:00:00Z,20,17,6+,30.12
ZLXY,34.449,108.752,80,10,11.51,ZLXY 080100Z 08005MPS 8000 SCT030 27/24 Q1003 NOSIG,2024-08-08T01:00:00Z,27,24,4.97,29.62
ZLLL,36.513,103.623,20,6,6.9,ZLLL 080100Z 02003MPS 9999 FEW026 SCT040 21/18 Q1010 NOSIG,2024-08-08T01:00:00Z,21,18,6+,29.82
ZJSY,18.303,109.412,130,4,4.6,ZJSY 080100Z 13002MPS 060V180 9999 FEW020 31/26 Q1009 NOSIG,2024-08-08T01:00:00Z,31,26,6+,29.79
ZJHK,19.934,110.445,210,4,4.6,ZJHK 080100Z 21002MPS 170V250 CAVOK 31/27 Q1008 NOSIG,2024-08-08T01:00:00Z,31,27,6+,29.76
ZHHH,30.783,114.205,190,8,9.21,ZHHH 080100Z 19004MPS 160V220 CAVOK 36/24 Q1003 NOSIG,2024-08-08T01:00:00Z,36,24,6+,29.62
ZHCC,34.52,113.834,60,8,9.21,ZHCC 080100Z 06004MPS 3500 BR SCT006 BKN030 26/25 Q1005 NOSIG,2024-08-08T01:00:00Z,26,25,2.17,29.68
ZGSZ,22.639,113.803,210,6,6.9,ZGSZ 080100Z 21003MPS CAVOK 31/27 Q1008 NOSIG,2024-08-08T01:00:00Z,31,27,6+,29.76
ZGOW,23.55,116.505,VRB,2,2.3,ZGOW 080100Z VRB01MPS 6000 NSC 32/27 Q1007 NOSIG,2024-08-08T01:00:00Z,32,27,3.73,29.73
ZGNN,22.609,108.173,VRB,2,2.3,ZGNN 080100Z VRB01MPS CAVOK 31/26 Q1008 NOSIG,2024-08-08T01:00:00Z,31,26,6+,29.76
ZGKL,25.22,110.04,180,10,11.51,ZGKL 080100Z 18005MPS 9999 SCT036 31/26 Q1008 NOSIG,2024-08-08T01:00:00Z,31,26,6+,29.76
ZGHA,28.18,113.219,180,10,11.51,ZGHA 080100Z 18005MPS CAVOK 33/25 Q1005 NOSIG,2024-08-08T01:00:00Z,33,25,6+,29.68
ZBSJ,38.281,114.697,300,4,4.6,ZBSJ 080100Z 30002MPS 270V340 CAVOK 29/25 Q1006 NOSIG,2024-08-08T01:00:00Z,29,25,6+,29.70
ZBHH,40.854,111.827,80,6,6.9,ZBHH 080100Z 08003MPS 040V120 CAVOK 26/16 Q1010 NOSIG,2024-08-08T01:00:00Z,26,16,6+,29.82
WMSA,3.13,101.552,0,0,0.0,WMSA 080100Z 00000KT 9999 FEW026 26/24 Q1012,2024-08-08T01:00:00Z,26,24,6+,29.88
WMKN,5.383,103.103,190,4,4.6,WMKN 080100Z 19004KT 140V260 9999 FEW020 28/25 Q1011,2024-08-08T01:00:00Z,28,25,6+,29.85
WMKM,2.263,102.252,0,0,0.0,WMKM 080100Z 00000KT 8000 -RA FEW010 SCT028 26/25 Q1012,2024-08-08T01:00:00Z,26,25,4.97,29.88
WMKL,6.33,99.729,VRB,2,2.3,WMKL 080100Z VRB02KT 9999 FEW020 28/26 Q1011,2024-08-08T01:00:00Z,28,26,6+,29.85
WMKJ,1.641,103.67,160,3,3.45,WMKJ 080100Z 16003KT 100V240 9999 FEW018 28/26 Q1012,2024-08-08T01:00:00Z,28,26,6+,29.88
WMKI,4.568,101.092,VRB,3,3.45,WMKI 080100Z VRB03KT 7000 FEW003 25/24 Q1012,2024-08-08T01:00:00Z,25,24,4.35,29.88
WMKE,4.537,103.427,VRB,3,3.45,WMKE 080100Z VRB03KT 9999 FEW020 26/24 Q1011,2024-08-08T01:00:00Z,26,24,6+,29.85
WMKD,3.775,103.209,VRB,1,1.15,WMKD 080100Z VRB01KT 9999 FEW019 26/24 Q1012 NOSIG,2024-08-08T01:00:00Z,26,24,6+,29.88
WMKC,6.167,102.293,VRB,3,3.45,WMKC 080100Z VRB03KT 9999 FEW018 26/24 Q1011,2024-08-08T01:00:00Z,26,24,6+,29.85
WMKB,5.466,100.391,80,3,3.45,WMKB 080100Z 08003KT 050V110 6000 FEW020 26/21 Q1010 NOSIG,2024-08-08T01:00:00Z,26,21,3.73,29.82
WMKA,6.19,100.398,170,4,4.6,WMKA 080100Z 17004KT 140V220 9999 FEW030 27/25 Q1010,2024-08-08T01:00:00Z,27,25,6+,29.82
WMBA,4.221,100.701,VRB,3,3.45,WMBA 080100Z VRB03KT 9000 FEW031 26/25 Q1011,2024-08-08T01:00:00Z,26,25,5.59,29.85
WMAU,2.387,103.876,230,3,3.45,WMAU 080100Z 23003KT 200V310 9999 FEW020 26/24 Q1012,2024-08-08T01:00:00Z,26,24,6+,29.88
WBKW,4.316,118.119,290,3,3.45,WBKW 080100Z 29003KT 250V330 8000 -RA FEW008 FEW015CB SCT025 26/25 Q1013 RETS,2024-08-08T01:00:00Z,26,25,4.97,29.91
WBKT,6.922,116.837,230,5,5.75,WBKT 080100Z 23005KT 190V260 9999 FEW014 28/25 Q1012,2024-08-08T01:00:00Z,28,25,6+,29.88
WBKS,5.901,118.059,210,5,5.75,WBKS 080100Z 21005KT 140V240 9999 FEW016 29/25 Q1012,2024-08-08T01:00:00Z,29,25,6+,29.88
WBKL,5.301,115.25,VRB,3,3.45,WBKL 080100Z VRB03KT 9999 FEW014 28/26 Q1013,2024-08-08T01:00:00Z,28,26,6+,29.91
WBGY,1.222,111.466,110,5,5.75,WBGY 080100Z 11005KT 050V170 9999 FEW002 26/25 Q1013,2024-08-08T01:00:00Z,26,25,6+,29.91
WBGS,2.264,111.983,130,6,6.9,WBGS 080100Z 13006KT 100V170 9999 FEW016 26/24 Q1012,2024-08-08T01:00:00Z,26,24,6+,29.88
WBGR,4.322,113.987,VRB,1,1.15,WBGR 080100Z VRB01KT 9999 FEW016 28/26 Q1012,2024-08-08T01:00:00Z,28,26,6+,29.88
WBGB,3.12,113.025,140,4,4.6,WBGB 080100Z 14004KT 080V210 9999 FEW016 26/24 Q1013,2024-08-08T01:00:00Z,26,24,6+,29.91
VYNT,19.623,96.201,160,8,9.21,VYNT 080100Z 16008KT 6000 BKN018 FEW022CB BKN110 27/26 Q1010 NOSIG,2024-08-08T01:00:00Z,27,26,3.73,29.82
VTUW,17.384,104.643,110,3,3.45,VTUW 080100Z 11003KT 9999 FEW020 28/26 Q1010 NOSIG,2024-08-08T01:00:00Z,28,26,6+,29.82
VTUV,16.117,103.772,220,5,5.75,VTUV 080100Z 22005KT 190V250 9999 FEW020 29/24 Q1010 NOSIG,2024-08-08T01:00:00Z,29,24,6+,29.82
VTUU,15.251,104.87,180,4,4.6,VTUU 080100Z 18004KT 120V220 CAVOK 28/26 Q1011 NOSIG,2024-08-08T01:00:00Z,28,26,6+,29.85
VTUQ,14.95,102.313,220,2,2.3,VTUQ 080100Z 22002KT CAVOK 28/25 Q1011 NOSIG,2024-08-08T01:00:00Z,28,25,6+,29.85
VTUO,15.227,103.244,VRB,2,2.3,VTUO 080100Z VRB02KT 5000 BR SCT015 27/26 Q1011 NOSIG,2024-08-08T01:00:00Z,27,26,3.11,29.85
VTUL,17.445,101.725,VRB,1,1.15,VTUL 080100Z VRB01KT 6000 FEW005 BKN030 25/25 Q1011 NOSIG,2024-08-08T01:00:00Z,25,25,3.73,29.85
VTUK,16.462,102.786,220,7,8.06,VTUK 080100Z 22007KT 200V260 9999 BKN010 26/24 Q1011 NOSIG,2024-08-08T01:00:00Z,26,24,6+,29.85
VTUI,17.195,104.119,130,4,4.6,VTUI 080100Z 13004KT 100V170 CAVOK 29/26 Q1010 NOSIG,2024-08-08T01:00:00Z,29,26,6+,29.82
VTUD,17.382,102.799,VRB,2,2.3,VTUD 080100Z VRB02KT 9999 BKN007 27/25 Q1010 NOSIG,2024-08-08T01:00:00Z,27,25,6+,29.82
VTSY,5.788,101.147,VRB,2,2.3,VTSY 080100Z VRB02KT 6000 OVC005 24/23 Q1013 NOSIG,2024-08-08T01:00:00Z,24,23,3.73,29.91
VTST,7.512,99.621,VRB,2,2.3,VTST 080100Z VRB02KT 9999 FEW030 26/25 Q1010 NOSIG,2024-08-08T01:00:00Z,26,25,6+,29.82
VTSR,9.773,98.587,VRB,1,1.15,VTSR 080100Z VRB01KT 9999 FEW025 SCT100 26/24 Q1011 NOSIG,2024-08-08T01:00:00Z,26,24,6+,29.85
VTSM,9.548,100.062,VRB,2,2.3,VTSM 080100Z VRB02KT 9999 FEW020 31/26 Q1011 NOSIG,2024-08-08T01:00:00Z,31,26,6+,29.85
VTSG,8.099,98.986,VRB,2,2.3,VTSG 080100Z VRB02KT 9999 FEW030 28/25 Q1011 NOSIG,2024-08-08T01:00:00Z,28,25,6+,29.85
VTSF,8.546,99.94,0,0,0.0,VTSF 080100Z 00000KT 9999 FEW020 28/25 Q1010 NOSIG,2024-08-08T01:00:00Z,28,25,6+,29.82
VTSE,10.711,99.362,290,3,3.45,VTSE 080100Z 29003KT 210V310 9999 FEW020 27/25 Q1010 NOSIG,2024-08-08T01:00:00Z,27,25,6+,29.82
VTSC,6.52,101.743,190,4,4.6,VTSC 080100Z 19004KT 160V220 9999 FEW005 25/24 Q1011 NOSIG,2024-08-08T01:00:00Z,25,24,6+,29.85
VTSB,9.133,99.152,230,3,3.45,VTSB 080100Z 23003KT 6000 FEW010 27/26 Q1010 NOSIG,2024-08-08T01:00:00Z,27,26,3.73,29.82
VTPT,16.897,99.254,,,,VTPT 080100Z /////KT 9999 FEW020 SCT040 29/23 Q1010 NOSIG,2024-08-08T01:00:00Z,29,23,6+,29.82
VTPP,16.792,100.274,130,3,3.45,VTPP 080100Z 13003KT 090V170 9999 BKN010 27/27 Q1010 NOSIG,2024-08-08T01:00:00Z,27,27,6+,29.82
VTPO,17.238,99.818,VRB,2,2.3,VTPO 080100Z VRB02KT 9999 SCT010 26/26 Q1010 NOSIG,2024-08-08T01:00:00Z,26,26,6+,29.82
VTPM,16.703,98.542,160,2,2.3,VTPM 080100Z 16002KT 9999 FEW015 SCT025 BKN080 25/24 Q1012 NOSIG,2024-08-08T01:00:00Z,25,24,6+,29.88
VTPH,12.633,99.951,0,0,0.0,VTPH 080100Z 00000KT 9999 FEW030 28/25 Q1010 NOSIG,2024-08-08T01:00:00Z,28,25,6+,29.82
VTPB,16.676,101.195,210,5,5.75,VTPB 080100Z 21005KT 160V240 9999 FEW012 SCT025 27/25 Q1011 NOSIG,2024-08-08T01:00:00Z,27,25,6+,29.85
VTCT,19.961,99.881,VRB,2,2.3,VTCT 080100Z VRB02KT 9999 BKN015 26/24 Q1011 NOSIG,2024-08-08T01:00:00Z,26,24,6+,29.85
VTCP,18.129,100.162,210,4,4.6,VTCP 080100Z 21004KT 170V250 9999 FEW008 26/25 Q1010 NOSIG,2024-08-08T01:00:00Z,26,25,6+,29.82
VTCN,18.807,100.787,230,4,4.6,VTCN 080100Z 23004KT 200V280 9999 FEW020 26/24 Q1010 NOSIG,2024-08-08T01:00:00Z,26,24,6+,29.82
VTCL,18.277,99.502,VRB,2,2.3,VTCL 080100Z VRB02KT 9999 SCT005 26/24 Q1010 NOSIG,2024-08-08T01:00:00Z,26,24,6+,29.82
VTCH,19.302,97.972,VRB,2,2.3,VTCH 080100Z VRB02KT 3000 BR FEW012 BKN025 25/24 Q1011 BECMG 6000 NSW,2024-08-08T01:00:00Z,25,24,1.86,29.85
VTBO,12.275,102.319,VRB,2,2.3,VTBO 080100Z VRB02KT 9999 FEW020 29/26 Q1010,2024-08-08T01:00:00Z,29,26,6+,29.82
VLSK,16.557,104.76,140,2,2.3,VLSK 080100Z 14002KT 5000 BR SCT040 FEW100 26/25 Q1010 NOSIG,2024-08-08T01:00:00Z,26,25,3.11,29.82
VLPS,15.132,105.781,140,4,4.6,VLPS 080100Z 14004KT 8000 SCT010 BKN050 26/25 Q1010 NOSIG,2024-08-08T01:00:00Z,26,25,4.97,29.82
VLLN,20.963,101.403,220,2,2.3,VLLN 080100Z 22002KT 9999 SCT020 BKN100 25/23 Q1012 NOSIG,2024-08-08T01:00:00Z,25,23,6+,29.88
VLLB,19.897,102.161,0,0,0.0,VLLB 080100Z 00000KT 4000 BR BKN006 25/24 Q1009 NOSIG,2024-08-08T01:00:00Z,25,24,2.49,29.79
VGEG,22.249,91.814,130,7,8.06,VGEG 080100Z 13007KT 3500 RA SCT012 FEW025CB OVC090 26/25 Q1006 TEMPO P/VIS,2024-08-08T01:00:00Z,26,25,2.17,29.70
VELP,23.841,92.62,230,4,4.6,VELP 080100Z 23004KT 4000 BR SCT015 BKN100 26/24 Q1008 NOSIG,2024-08-08T01:00:00Z,26,24,2.49,29.76
VEIM,24.76,93.897,0,0,0.0,VEIM 080100Z 00000KT 3000 BR FEW008 SCT018 FEW025CB OVC090 24/24 Q1010 BECMG 4000 BR,2024-08-08T01:00:00Z,24,24,1.86,29.82
VEGY,24.744,84.951,50,6,6.9,VEGY 080100Z 05006KT 3000 BR FEW018 SCT100 27/26 Q1002,2024-08-08T01:00:00Z,27,26,1.86,29.59
VCCC,6.822,79.886,270,4,4.6,VCCC 080100Z 27004KT 9999 SCT016 28/25 Q1009 A2981,2024-08-08T01:00:00Z,28,25,6+,29.79
VAHS,22.3772,71.0374,220,7,8.06,VAHS 080100Z 22007KT 5000 BR SCT020 BKN080 26/25 Q1005 NOSIG,2024-08-08T01:00:00Z,26,25,3.11,29.68
UWLW,54.402,48.8,290,6,6.9,UWLW 080100Z 29003MPS 7000 NSC 15/15 Q1007 R02/CLRD60 NOSIG RMK QFE748/0998,2024-08-08T01:00:00Z,15,15,4.35,29.73
URMN,43.514,43.646,200,8,9.21,URMN 080100Z 20004MPS 9999 BKN092 20/15 Q1012 R24/////// NOSIG RMK QFE722,2024-08-08T01:00:00Z,20,15,6+,29.88
ULPB,61.885,34.155,220,2,2.3,ULPB 080100Z AUTO 22001MPS 9999 // NCD 09/09 Q1015 RMK QFE757/1010,2024-08-08T01:00:00Z,9,9,6+,29.97
UGTB,41.669,44.955,300,22,25.32,UGTB 080100Z 30022KT CAVOK 22/16 Q1011 NOSIG,2024-08-08T01:00:00Z,22,16,6+,29.85
TVSA,13.156,-61.15,20,5,5.75,TVSA 080100Z 02005KT 9999 SCT016 28/25 Q1012 ,2024-08-08T01:00:00Z,28,25,6+,29.88
TTPP,10.593,-61.348,0,0,0.0,TTPP 080100Z 00000KT 9999 FEW018 27/23 Q1011 NOSIG,2024-08-08T01:00:00Z,27,23,6+,29.85
TTCP,11.149,-60.836,70,4,4.6,TTCP 080100Z 07004KT 9999 FEW018 28/24 Q1011 NOSIG,2024-08-08T01:00:00Z,28,24,6+,29.85
TNCM,18.041,-63.109,50,6,6.9,TNCM 080100Z 05006KT 9999 SCT018 29/26 Q1015 ,2024-08-08T01:00:00Z,29,26,6+,29.97
TLPC,14.021,-60.993,140,3,3.45,TLPC 080100Z 14003KT 9999 BKN022 28/25 Q1012 NOSIG,2024-08-08T01:00:00Z,28,25,6+,29.88
TKPK,17.312,-62.72,50,11,12.66,TKPK 080100Z 05011KT 9999 SCT018 28/24 Q1013,2024-08-08T01:00:00Z,28,24,6+,29.91
TGPY,12.006,-61.797,0,0,0.0,TGPY 080100Z 00000KT 9999 FEW018 28/24 Q1011 NOSIG,2024-08-08T01:00:00Z,28,24,6+,29.85
TDPD,15.547,-61.299,270,2,2.3,TDPD 080100Z 27002KT 9999 SCT020 26/26 Q1013,2024-08-08T01:00:00Z,26,26,6+,29.91
TAPA,17.135,-61.797,70,6,6.9,TAPA 080100Z 07006KT 050V120 9999 VCSH FEW019 28/23 Q1013 NOSIG,2024-08-08T01:00:00Z,28,23,6+,29.91
SPYL,-4.577,-81.254,170,14,16.11,SPYL 080100Z 17014KT 9999 SCT050 19/16 Q1013 RMK BIRD HAZARD RWY 17/35 PP000,2024-08-08T01:00:00Z,19,16,6+,29.91
SLVR,-17.645,-63.135,VRB,2,2.3,SLVR 080100Z VRB02KT 9000 FEW020 FEW030CB SCT070 BKN200 23/22 Q1011,2024-08-08T01:00:00Z,23,22,5.59,29.85
SLTJ,-21.556,-64.701,130,8,9.21,SLTJ 080100Z 13008KT 9999 NSC 12/07 Q1018,2024-08-08T01:00:00Z,12,7,6+,30.06
SLOR,-17.962,-67.077,190,13,14.96,SLOR 080100Z 19013KT 9999 NSC 05/M11 Q1033,2024-08-08T01:00:00Z,5,-11,6+,30.50
SLLP,-16.511,-68.182,230,5,5.75,SLLP 080100Z 23005KT 9999 FEW013 FEW017CB 06/M22 Q1035,2024-08-08T01:00:00Z,6,-22,6+,30.56
SLCB,-17.421,-66.179,240,8,9.21,SLCB 080100Z 24008KT 190V330 9999 NSC 17/02 Q1021,2024-08-08T01:00:00Z,17,2,6+,30.15
SLAL,-19.247,-65.15,330,10,11.51,SLAL 080100Z 33010KT 9999 FEW013 10/M02 Q1026,2024-08-08T01:00:00Z,10,-2,6+,30.30
SKVP,10.436,-73.248,50,10,11.51,SKVP 080100Z 05010KT 030V090 9999 FEW015 BKN025 27/23 Q1011,2024-08-08T01:00:00Z,27,23,6+,29.85
SKUC,7.066,-70.735,VRB,2,2.3,SKUC 080100Z VRB02KT 9999 SCT017 27/25 Q1010,2024-08-08T01:00:00Z,27,25,6+,29.82
SKSM,11.12,-74.231,VRB,2,2.3,SKSM 080100Z VRB02KT 9999 SCT018 26/23 Q1010,2024-08-08T01:00:00Z,26,23,6+,29.82
SKNV,2.949,-75.294,260,4,4.6,SKNV 080100Z 26004KT 9000 FEW045 31/16 Q1009,2024-08-08T01:00:00Z,31,16,5.59,29.79
SKMR,8.826,-75.825,0,0,0.0,SKMR 080100Z 00000KT 9999 FEW015 27/25 Q1009,2024-08-08T01:00:00Z,27,25,6+,29.79
SKLC,7.817,-76.718,0,0,0.0,SKLC 080100Z 00000KT 9999 FEW015 26/25 Q1009,2024-08-08T01:00:00Z,26,25,6+,29.79
SKIB,4.418,-75.13,290,5,5.75,SKIB 080100Z 29005KT 9999 FEW030 SCT100 25/19 Q1016,2024-08-08T01:00:00Z,25,19,6+,30.00
SKAR,4.455,-75.766,0,0,0.0,SKAR 080100Z 00000KT 9999 SCT023 23/18 Q1015,2024-08-08T01:00:00Z,23,18,6+,29.97
SCBA,-45.913,-71.694,260,8,9.21,SCBA 080100Z AUTO 26008KT 9999 NCD 00/M01 Q1024,2024-08-08T01:00:00Z,0,-1,6+,30.24
SBYS,-21.982,-47.34,VRB,1,1.15,SBYS 080100Z VRB01KT CAVOK 17/09 Q1016,2024-08-08T01:00:00Z,17,9,6+,30.00
SBUR,-19.765,-47.965,30,10,11.51,SBUR 080100Z 03010KT CAVOK 21/09 Q1019,2024-08-08T01:00:00Z,21,9,6+,30.09
SBUL,-18.883,-48.226,60,11,12.66,SBUL 080100Z 06011KT CAVOK 21/08 Q1020,2024-08-08T01:00:00Z,21,8,6+,30.12
SBUF,-9.4,-38.25,130,7,8.06,SBUF 080100Z AUTO 13007KT CAVOK 22/17 Q1017,2024-08-08T01:00:00Z,22,17,6+,30.03
SBTU,-3.786,-49.72,,,,SBTU 080100Z AUTO /////KT ///V/// //// // ///////// ///// Q////,2024-08-08T01:00:00Z,,,,
SBTA,-23.04,-45.516,270,3,3.45,SBTA 080100Z 27003KT 250V310 CAVOK 16/12 Q1016,2024-08-08T01:00:00Z,16,12,6+,30.00
SBSR,-20.817,-49.407,60,2,2.3,SBSR 080100Z 06002KT CAVOK 24/07 Q1015,2024-08-08T01:00:00Z,24,7,6+,29.97
SBSM,-29.711,-53.688,240,3,3.45,SBSM 080100Z 24003KT 130V300 3000 -RA BR BKN004 BKN015 OVC025 15/15 Q1013,2024-08-08T01:00:00Z,15,15,1.86,29.91
SBSC,-22.932,-43.719,320,3,3.45,SBSC 080100Z 32003KT CAVOK 21/15 Q1012,2024-08-08T01:00:00Z,21,15,6+,29.88
SBNT,-5.911,-35.248,170,5,5.75,SBNT 080100Z 17005KT 9999 FEW016 23/20 Q1015,2024-08-08T01:00:00Z,23,20,6+,29.97
SBMT,-23.509,-46.638,0,0,0.0,SBMT 080100Z 00000KT CAVOK 19/09 Q1016,2024-08-08T01:00:00Z,19,9,6+,30.00
SBMS,-5.202,-37.364,110,9,10.36,SBMS 080100Z AUTO 11009KT 070V130 CAVOK 26/21 Q1014,2024-08-08T01:00:00Z,26,21,6+,29.94
SBMK,-16.705,-43.819,70,3,3.45,SBMK 080100Z 07003KT CAVOK 20/14 Q1019,2024-08-08T01:00:00Z,20,14,6+,30.09
SBMG,-23.476,-52.017,30,11,12.66,SBMG 080100Z 03011KT CAVOK 24/10 Q1012,2024-08-08T01:00:00Z,24,10,6+,29.88
SBME,-22.343,-41.766,50,9,10.36,SBME 080100Z 05009KT CAVOK 23/19 Q1015,2024-08-08T01:00:00Z,23,19,6+,29.97
SBLS,-19.662,-43.896,VRB,4,4.6,SBLS 080100Z VRB04KT CAVOK 20/12 Q1019,2024-08-08T01:00:00Z,20,12,6+,30.09
SBLE,-12.482,-41.277,VRB,1,1.15,SBLE 080100Z AUTO VRB01KT 9999 BKN030 BKN038 19/18 Q1019,2024-08-08T01:00:00Z,19,18,6+,30.09
SBLB,-22.109,-39.917,20,28,32.22,SBLB 080100Z AUTO 02028KT //// NCD 25/// Q//// W///S4,2024-08-08T01:00:00Z,,,,
SBKG,-7.27,-35.895,110,6,6.9,SBKG 080100Z 11006KT CAVOK 20/18 Q1018,2024-08-08T01:00:00Z,20,18,6+,30.06
SBJV,-26.224,-48.797,180,3,3.45,SBJV 080100Z 18003KT 9000 FEW010 SCT050 17/17 Q1012,2024-08-08T01:00:00Z,17,17,5.59,29.88
SBJU,-7.219,-39.27,180,7,8.06,SBJU 080100Z 18007KT 9999 FEW020 25/15 Q1016,2024-08-08T01:00:00Z,25,15,6+,30.00
SBIP,-19.471,-42.488,VRB,1,1.15,SBIP 080100Z AUTO VRB01KT CAVOK 18/13 Q1018,2024-08-08T01:00:00Z,18,13,6+,30.06
SBIL,-14.816,-39.033,120,7,8.06,SBIL 080100Z 12007KT 9999 SCT025 25/20 Q1018,2024-08-08T01:00:00Z,25,20,6+,30.06
SBDN,-22.175,-51.427,40,6,6.9,SBDN 080100Z 04006KT CAVOK 25/09 Q1013,2024-08-08T01:00:00Z,25,9,6+,29.91
SBCZ,-7.597,-72.774,0,0,0.0,SBCZ 080100Z 00000KT 6000 FEW008 BKN100 24/24 Q1010,2024-08-08T01:00:00Z,24,24,3.73,29.82
SBCO,-29.945,-51.144,VRB,2,2.3,SBCO 080100Z VRB02KT 5000 BR FEW004 16/16 Q1012,2024-08-08T01:00:00Z,16,16,3.11,29.88
SBCH,-27.132,-52.662,350,4,4.6,SBCH 080100Z 35004KT 5000 1000E -RA BCFG BKN010 BKN015 FEW030TCU OVC080 16/16 Q1015,2024-08-08T01:00:00Z,16,16,3.11,29.97
SBCA,-25,-53.501,350,20,23.02,SBCA 080100Z 35020G30KT 4000 -RA BR FEW006 SCT020 BKN080 17/15 Q1014,2024-08-08T01:00:00Z,17,15,2.49,29.94
SBBU,-22.345,-49.054,60,3,3.45,SBBU 080100Z 06003KT CAVOK 26/09 Q1015,2024-08-08T01:00:00Z,26,9,6+,29.97
SBBI,-25.404,-49.232,340,5,5.75,SBBI 080100Z 34005KT CAVOK 20/12 Q1016,2024-08-08T01:00:00Z,20,12,6+,30.00
SBBH,-19.851,-43.951,0,0,0.0,SBBH 080100Z 00000KT CAVOK 17/13 Q1019,2024-08-08T01:00:00Z,17,13,6+,30.09
SBAN,-16.229,-48.964,110,4,4.6,SBAN 080100Z 11004KT CAVOK 17/06 Q1021,2024-08-08T01:00:00Z,17,6,6+,30.15
SAZS,-41.151,-71.157,170,5,5.75,SAZS 080100Z 17005KT 9999 FEW045 M01/M04 Q1027,2024-08-08T01:00:00Z,-1,-4,6+,30.32
SAZM,-37.932,-57.581,160,16,18.41,SAZM 080100Z 16016KT 4000 DZ OVC003 08/08 Q1012,2024-08-08T01:00:00Z,8,8,2.49,29.88
SAWH,-54.844,-68.308,330,4,4.6,SAWH 080100Z 33004KT 270V020 9999 SCT045 01/M02 Q1013,2024-08-08T01:00:00Z,1,-2,6+,29.91
SAWG,-51.609,-69.306,VRB,4,4.6,SAWG 080100Z VRB04KT CAVOK 02/M05 Q1018,2024-08-08T01:00:00Z,2,-5,6+,30.06
SAVC,-45.79,-67.471,280,3,3.45,SAVC 080100Z 28003KT CAVOK 01/M00 Q1027,2024-08-08T01:00:00Z,1,0,6+,30.32
SASJ,-24.387,-65.098,200,4,4.6,SASJ 080100Z 20004KT 160V240 9999 FEW010 OVC040 10/03 Q1021,2024-08-08T01:00:00Z,10,3,6+,30.15
SASA,-24.856,-65.486,20,7,8.06,SASA 080100Z 02007KT 9999 OVC023 08/03 Q1020,2024-08-08T01:00:00Z,8,3,6+,30.12
SARE,-27.45,-59.056,210,7,8.06,SARE 080100Z 21007KT CAVOK 12/09 Q1016,2024-08-08T01:00:00Z,12,9,6+,30.00
SAME,-32.832,-68.793,0,0,0.0,SAME 080100Z 00000KT 9999 FEW040 06/M02 Q1026,2024-08-08T01:00:00Z,6,-2,6+,30.30
SAEZ,-34.822,-58.536,290,7,8.06,SAEZ 080100Z 29007KT CAVOK 07/04 Q1013 NOSIG,2024-08-08T01:00:00Z,7,4,6+,29.91
SADF,-34.457,-58.593,290,6,6.9,SADF 080100Z 29006KT CAVOK 09/04 Q1014,2024-08-08T01:00:00Z,9,4,6+,29.94
SACO,-31.324,-64.208,180,12,13.81,SACO 080100Z 18012KT CAVOK 07/M02 Q1022 NOSIG,2024-08-08T01:00:00Z,7,-2,6+,30.18
SABE,-34.559,-58.416,280,5,5.75,SABE 080100Z 28005KT 220V320 CAVOK 10/04 Q1014 NOSIG,2024-08-08T01:00:00Z,10,4,6+,29.94
SAAR,-32.918,-60.782,240,10,11.51,SAAR 080100Z 24010KT CAVOK 09/02 Q1017,2024-08-08T01:00:00Z,9,2,6+,30.03
ROYN,24.467,122.978,320,11,12.66,ROYN 080100Z AUTO 32011KT 9999 FEW014 //////TCU 31/27 Q1006,2024-08-08T01:00:00Z,31,27,6+,29.70
RORY,27.044,128.4,50,6,6.9,RORY 080100Z AUTO 05006KT 350V080 9999 SCT020 32/28 Q1005,2024-08-08T01:00:00Z,32,28,6+,29.68
RORT,24.653,124.674,320,6,6.9,RORT 080100Z AUTO 32006KT 280V340 9999 FEW011 31/27 Q1005,2024-08-08T01:00:00Z,31,27,6+,29.68
RORS,24.827,125.145,330,3,3.45,RORS 080100Z 33003KT 300V010 9999 -SHRA SCT014 FEW025TCU BKN/// 30/27 Q1005,2024-08-08T01:00:00Z,30,27,6+,29.68
RORK,25.944,131.326,50,6,6.9,RORK 080100Z AUTO 05006KT 010V070 9999 NCD 32/26 Q1005,2024-08-08T01:00:00Z,32,26,6+,29.68
ROMY,24.782,125.295,360,4,4.6,ROMY 080100Z 36004KT 300V040 9999 -SHRA SCT011 FEW020TCU BKN/// 30/28 Q1005,2024-08-08T01:00:00Z,30,28,6+,29.68
ROMD,25.847,131.264,70,6,6.9,ROMD 080100Z AUTO 07006KT 020V120 9999 FEW016 32/27 Q1005,2024-08-08T01:00:00Z,32,27,6+,29.68
RKTU,36.717,127.499,50,2,2.3,RKTU 080100Z 05002KT 9000 FEW015 BKN020 BKN200 29/25 Q1005,2024-08-08T01:00:00Z,29,25,5.59,29.68
RKTN,35.894,128.659,310,3,3.45,RKTN 080100Z 31003KT 9999 FEW020 BKN200 30/25 Q1005,2024-08-08T01:00:00Z,30,25,6+,29.68
RKSS,37.558,126.791,320,2,2.3,RKSS 080100Z 32002KT 9999 SCT035 BKN200 30/25 Q1005 NOSIG,2024-08-08T01:00:00Z,30,25,6+,29.68
RKPK,35.179,128.938,270,3,3.45,RKPK 080100Z 27003KT 9000 NSC 32/26 Q1005,2024-08-08T01:00:00Z,32,26,5.59,29.68
RKPC,33.511,126.493,350,4,4.6,RKPC 080100Z 35004KT 9999 FEW030 SCT200 32/25 Q1006 NOSIG,2024-08-08T01:00:00Z,32,25,6+,29.70
RKNY,38.061,128.669,280,5,5.75,RKNY 080100Z 28005KT 240V330 CAVOK 30/23 Q1004 NOSIG,2024-08-08T01:00:00Z,30,23,6+,29.65
RKJB,34.991,126.383,240,1,1.15,RKJB 080100Z 24001KT 9999 FEW020 SCT200 31/26 Q1006 NOSIG,2024-08-08T01:00:00Z,31,26,6+,29.70
RJTO,34.782,139.36,50,10,11.51,RJTO 080100Z 05010KT 9999 FEW009 29/26 Q1004,2024-08-08T01:00:00Z,29,26,6+,29.65
RJTI,35.637,139.839,140,5,5.75,RJTI 080100Z 14005KT 9999 SCT030 31/25 Q1004,2024-08-08T01:00:00Z,31,25,6+,29.65
RJTF,35.672,139.528,VRB,1,1.15,RJTF 080100Z VRB01KT 9999 FEW020 BKN030 30/24 Q1004,2024-08-08T01:00:00Z,30,24,6+,29.65
RJSY,38.812,139.787,290,7,8.06,RJSY 080100Z 29007KT 260V330 9999 FEW015 27/23 Q1005,2024-08-08T01:00:00Z,27,23,6+,29.68
RJSS,38.14,140.917,140,9,10.36,RJSS 080100Z 14009KT 100V180 9999 FEW020 SCT050 30/24 Q1004,2024-08-08T01:00:00Z,30,24,6+,29.65
RJSR,40.192,140.372,240,7,8.06,RJSR 080100Z 24007KT 200V260 9999 FEW015 SCT030 BKN050 27/22 Q1005,2024-08-08T01:00:00Z,27,22,6+,29.68
RJSN,37.956,139.121,10,7,8.06,RJSN 080100Z 01007KT 9999 FEW015 28/24 Q1005,2024-08-08T01:00:00Z,28,24,6+,29.68
RJSM,40.705,141.372,320,8,9.21,RJSM 080100Z 32008KT 9999 FEW015 SCT035 BKN050 27/22 Q1004,2024-08-08T01:00:00Z,27,22,6+,29.65
RJSK,39.616,140.219,260,9,10.36,RJSK 080100Z 26009KT 230V300 9999 SCT025 27/21 Q1005,2024-08-08T01:00:00Z,27,21,6+,29.68
RJSI,39.429,141.135,VRB,3,3.45,RJSI 080100Z VRB03KT 9999 FEW015 SCT030 BKN050 28/23 Q1004,2024-08-08T01:00:00Z,28,23,6+,29.65
RJSF,37.227,140.428,320,5,5.75,RJSF 080100Z 32005KT 270V010 9999 FEW020 SCT110 27/22 Q1006,2024-08-08T01:00:00Z,27,22,6+,29.70
RJSC,38.412,140.371,VRB,2,2.3,RJSC 080100Z VRB02KT 9999 FEW025 SCT030 28/24 Q1005,2024-08-08T01:00:00Z,28,24,6+,29.68
RJOW,34.676,131.79,340,5,5.75,RJOW 080100Z 34005KT 300V020 9999 FEW025 30/24 Q1005,2024-08-08T01:00:00Z,30,24,6+,29.68
RJOS,34.132,134.609,10,8,9.21,RJOS 080100Z 01008KT 340V040 9999 FEW025 31/23 Q1005,2024-08-08T01:00:00Z,31,23,6+,29.68
RJOR,35.53,134.165,40,7,8.06,RJOR 080100Z 04007KT 9999 FEW025 30/23 Q1005,2024-08-08T01:00:00Z,30,23,6+,29.68
RJOM,33.83,132.698,350,6,6.9,RJOM 080100Z 35006KT 9999 FEW025 30/24 Q1004,2024-08-08T01:00:00Z,30,24,6+,29.65
RJOK,33.546,133.669,160,7,8.06,RJOK 080100Z 16007KT 130V200 9999 FEW020 31/26 Q1003,2024-08-08T01:00:00Z,31,26,6+,29.62
RJOH,35.493,133.239,50,6,6.9,RJOH 080100Z 05006KT 020V100 9999 FEW050 29/23 Q1005,2024-08-08T01:00:00Z,29,23,6+,29.68
RJOA,34.436,132.919,120,5,5.75,RJOA 080100Z 12005KT 100V190 9999 FEW025 30/23 Q1007,2024-08-08T01:00:00Z,30,23,6+,29.73
RJNW,37.293,136.962,VRB,2,2.3,RJNW 080100Z VRB02KT 9999 FEW015 SCT025 28/22 Q1006,2024-08-08T01:00:00Z,28,22,6+,29.70
RJNT,36.641,137.187,10,7,8.06,RJNT 080100Z 01007KT 9999 VCSH FEW003 SCT015 BKN020 27/24 Q1005,2024-08-08T01:00:00Z,27,24,6+,29.68
RJNS,34.796,138.189,110,5,5.75,RJNS 080100Z 11005KT 070V150 9999 FEW020 SCT030 31/25 Q1004,2024-08-08T01:00:00Z,31,25,6+,29.65
RJNK,36.394,136.407,10,8,9.21,RJNK 080100Z 01008KT 9999 FEW010 BKN020 BKN050 28/24 Q1005,2024-08-08T01:00:00Z,28,24,6+,29.68
RJKI,28.321,129.928,360,4,4.6,RJKI 080100Z AUTO 36004KT 310V040 9999 FEW012 31/27 Q1005,2024-08-08T01:00:00Z,31,27,6+,29.68
RJKB,27.432,128.706,40,5,5.75,RJKB 080100Z AUTO 04005KT 360V070 9999 FEW014 32/27 Q1005,2024-08-08T01:00:00Z,32,27,6+,29.68
RJFU,32.917,129.914,280,4,4.6,RJFU 080100Z 28004KT 9999 FEW030 33/25 Q1004,2024-08-08T01:00:00Z,33,25,6+,29.65
RJFT,32.837,130.855,VRB,3,3.45,RJFT 080100Z VRB03KT 9999 FEW020 32/26 Q1006,2024-08-08T01:00:00Z,32,26,6+,29.70
RJFS,33.15,130.302,220,6,6.9,RJFS 080100Z 22006KT 9999 FEW030 31/26 Q1005,2024-08-08T01:00:00Z,31,26,6+,29.68
RJFR,33.846,131.035,60,4,4.6,RJFR 080100Z 06004KT 020V080 9999 FEW025 32/24 Q1004,2024-08-08T01:00:00Z,32,24,6+,29.65
RJFO,33.479,131.737,80,5,5.75,RJFO 080100Z 08005KT 9999 FEW025 30/26 Q1004,2024-08-08T01:00:00Z,30,26,6+,29.65
RJFM,31.877,131.449,70,6,6.9,RJFM 080100Z 07006KT 9999 FEW030 32/27 Q1004,2024-08-08T01:00:00Z,32,27,6+,29.65
RJFK,31.803,130.719,120,5,5.75,RJFK 080100Z 12005KT 050V180 9999 FEW015 31/26 Q1006 RMK 1CU015 A2972,2024-08-08T01:00:00Z,31,26,6+,29.70
RJFG,30.605,130.992,290,10,11.51,RJFG 080100Z 29010KT 270V330 9999 FEW010 BKN/// 30/26 Q1006,2024-08-08T01:00:00Z,30,26,6+,29.70
RJFE,32.666,128.833,30,9,10.36,RJFE 080100Z 03009KT 340V070 9999 FEW020 32/26 Q1005,2024-08-08T01:00:00Z,32,26,6+,29.68
RJEC,43.671,142.447,350,3,3.45,RJEC 080100Z 35003KT 310V040 9999 FEW004 SCT018 BKN040 25/22 Q1003,2024-08-08T01:00:00Z,25,22,6+,29.62
RJEB,44.304,143.404,130,3,3.45,RJEB 080100Z 13003KT 100V170 9999 -SHRA FEW010 BKN050 26/23 Q1002,2024-08-08T01:00:00Z,26,23,6+,29.59
RJDT,34.288,129.325,VRB,4,4.6,RJDT 080100Z VRB04KT 9999 FEW020 SCT/// 32/26 Q1005,2024-08-08T01:00:00Z,32,26,6+,29.68
RJDC,33.93,131.279,230,7,8.06,RJDC 080100Z 23007KT 9999 FEW020 31/25 Q1004,2024-08-08T01:00:00Z,31,25,6+,29.65
RJDB,33.749,129.785,140,4,4.6,RJDB 080100Z AUTO 14004KT 9999 NCD 30/27 Q1005,2024-08-08T01:00:00Z,30,27,6+,29.68
RJCW,45.404,141.802,340,3,3.45,RJCW 080100Z 34003KT 8000 -SHRA FEW002 SCT007 BKN020 23/22 Q1002,2024-08-08T01:00:00Z,23,22,4.97,29.59
RJCO,43.117,141.381,VRB,3,3.45,RJCO 080100Z VRB03KT 9999 FEW015 BKN025 BKN070 27/24 Q1004,2024-08-08T01:00:00Z,27,24,6+,29.65
RJCN,43.578,144.96,70,6,6.9,RJCN 080100Z 07006KT 020V100 9999 FEW004 BKN006 BKN012 23/22 Q1002,2024-08-08T01:00:00Z,23,22,6+,29.59
RJCM,43.881,144.164,10,6,6.9,RJCM 080100Z 01006KT 9999 -SHRA FEW004 SCT009 BKN015 24/23 Q1002,2024-08-08T01:00:00Z,24,23,6+,29.59
RJCH,41.77,140.822,190,7,8.06,RJCH 080100Z 19007KT 9999 FEW018 SCT040 BKN070 27/24 Q1003,2024-08-08T01:00:00Z,27,24,6+,29.62
RJCB,42.733,143.217,340,5,5.75,RJCB 080100Z 34005KT 320V030 9999 -SHRA FEW004 SCT006 BKN050 24/23 Q1003,2024-08-08T01:00:00Z,24,23,6+,29.62
RJBT,35.513,134.787,70,3,3.45,RJBT 080100Z 07003KT 040V120 9999 FEW020 SCT030 28/21 Q1007,2024-08-08T01:00:00Z,28,21,6+,29.73
RJBE,34.633,135.224,200,6,6.9,RJBE 080100Z 20006KT 9999 FEW020 30/22 Q1004,2024-08-08T01:00:00Z,30,22,6+,29.65
RJBD,33.662,135.364,290,10,11.51,RJBD 080100Z 29010KT 260V330 9999 FEW025 31/23 Q1004,2024-08-08T01:00:00Z,31,23,6+,29.65
RJAH,36.182,140.415,80,5,5.75,RJAH 080100Z 08005KT 020V140 9999 FEW015 SCT040 30/24 Q1004,2024-08-08T01:00:00Z,30,24,6+,29.65
RJAF,36.167,137.923,360,3,3.45,RJAF 080100Z 36003KT 270V050 9999 FEW020 27/21 Q1008,2024-08-08T01:00:00Z,27,21,6+,29.76
OTHH,25.273,51.609,250,3,3.45,OTHH 080100Z AUTO 25003KT 210V290 CAVOK 32/21 Q0997 NOSIG,2024-08-08T01:00:00Z,32,21,6+,29.44
OKKK,29.227,47.969,360,11,12.66,OKKK 080100Z 36011KT CAVOK 38/12 Q0997 NOSIG,2024-08-08T01:00:00Z,38,12,6+,29.44
OIZC,25.445,60.383,0,0,0.0,OIZC 080100Z 00000KT 7000 SCT035 28/25 Q0999,2024-08-08T01:00:00Z,28,25,4.35,29.50
OIZB,31.094,61.546,350,25,28.77,OIZB 080100Z 35025G35KT 8000 NSC 32/04 Q0999,2024-08-08T01:00:00Z,32,4,4.97,29.50
OIYY,31.905,54.276,130,4,4.6,OIYY 080100Z 13004KT CAVOK 32/04 Q1008,2024-08-08T01:00:00Z,32,4,6+,29.76
OITR,37.665,45.066,310,4,4.6,OITR 080100Z 31004KT CAVOK 23/13 Q1011 A2986,2024-08-08T01:00:00Z,23,13,6+,29.85
OINZ,36.636,53.194,210,4,4.6,OINZ 080100Z 21004KT 9999 FEW030 OVC080 26/23 Q1007,2024-08-08T01:00:00Z,26,23,6+,29.73
OING,36.908,54.404,260,6,6.9,OING 080100Z 26006KT 9999 SCT025 OVC080 28/24 Q1007,2024-08-08T01:00:00Z,28,24,6+,29.73
OIMT,33.659,56.898,110,6,6.9,OIMT 080100Z AUTO 11006KT //// // ////// 32/M02 Q1002,2024-08-08T01:00:00Z,32,-2,,29.59
OIMN,37.488,57.303,200,4,4.6,OIMN 080100Z 20004KT CAVOK 24/18 Q1012,2024-08-08T01:00:00Z,24,18,6+,29.88
OIMB,32.894,59.29,80,6,6.9,OIMB 080100Z 08006KT CAVOK 20/M10 Q1010 A2984,2024-08-08T01:00:00Z,20,-10,6+,29.82
OIIP,35.776,50.827,300,16,18.41,OIIP 080100Z 30016KT 7000 NSC 23/14 Q1008 A2978,2024-08-08T01:00:00Z,23,14,4.35,29.76
OIIE,35.416,51.152,340,14,16.11,OIIE 080100Z 34014KT 9999 SCT100 28/12 Q1005,2024-08-08T01:00:00Z,28,12,6+,29.68
OIFS,32.297,50.842,300,4,4.6,OIFS 080100Z 30004KT CAVOK 18/04 Q1017,2024-08-08T01:00:00Z,18,4,6+,30.03
OIBV,26.81,53.356,120,4,4.6,OIBV 080100Z 12004KT 3000 BR NSC 32/29 Q0997,2024-08-08T01:00:00Z,32,29,1.86,29.44
OIBK,26.526,53.98,90,4,4.6,OIBK 080100Z 09004KT 7000 NSC 32/25 Q0997,2024-08-08T01:00:00Z,32,25,4.35,29.44
OIBB,28.947,50.834,0,0,0.0,OIBB 080100Z 00000KT 7000 SCT040 32/25 Q0995 A2940,2024-08-08T01:00:00Z,32,25,4.35,29.38
OIAA,30.366,48.23,310,10,11.51,OIAA 080100Z 31010KT CAVOK 34/12 Q0997,2024-08-08T01:00:00Z,34,12,6+,29.44
NSFA,-13.829,-171.993,130,12,13.81,NSFA 080100Z 13012KT 100V170 9999 FEW022 BKN120 28/23 Q1012,2024-08-08T01:00:00Z,28,23,6+,29.88
MYSM,24.064,-74.529,140,6,6.9,MYSM 080100Z AUTO 14006KT 9999 FEW018/// SCT220/// OVC250/// 29/26 A2989,2024-08-08T01:00:00Z,29,26,6+,29.89
MYNN,25.04,-77.467,190,5,5.75,MYNN 080100Z 19005KT 9999 FEW018 SCT040 BKN200 27/24 A2987,2024-08-08T01:00:00Z,27,24,6+,29.87
MYCB,24.315,-75.452,80,3,3.45,MYCB 080100Z AUTO 08003KT 9999 // //////TCU 27/26 A2989,2024-08-08T01:00:00Z,27,26,6+,29.89
MYAF,24.689,-77.796,170,5,5.75,MYAF 080100Z AUTO 17005KT 140V200 CAVOK 27/25 A2986,2024-08-08T01:00:00Z,27,25,6+,29.86
MNMG,12.141,-86.177,150,10,11.51,MNMG 080100Z 15010KT 9999 FEW020CB BKN070 25/23 Q1009 A2981 CB E/NE/S FL NOSIG,2024-08-08T01:00:00Z,25,23,6+,29.79
MKJS,18.502,-77.915,VRB,1,1.15,MKJS 080100Z VRB01KT 9999 FEW022CB 26/23 Q1011,2024-08-08T01:00:00Z,26,23,6+,29.85
MKJP,17.942,-76.798,160,9,10.36,MKJP 080100Z 16009KT 9999 FEW022CB 30/25 Q1011,2024-08-08T01:00:00Z,30,25,6+,29.85
MHCA,14.875,-85.775,100,4,4.6,MHCA 080100Z 10004KT 9999 FEW030TCU FEW032CB 27/22 Q1012 RMK CB SE,2024-08-08T01:00:00Z,27,22,6+,29.88
LPLA,38.762,-27.091,,,,LPLA 080100Z /////KT 9999 SCT024 23/19 Q1024,2024-08-08T01:00:00Z,23,19,6+,30.24
LPBJ,38.073,-7.931,280,6,6.9,LPBJ 080100Z 28006KT CAVOK 19/16 Q1013,2024-08-08T01:00:00Z,19,16,6+,29.91
LKLN,49.675,13.275,220,3,3.45,LKLN 080100Z AUTO 22003KT 190V270 9999 SCT077 BKN110 18/16 Q1015,2024-08-08T01:00:00Z,18,16,6+,29.97
LKKB,50.123,14.538,VRB,2,2.3,LKKB 080100Z AUTO VRB02KT 9999 BKN100/// 18/17 Q1013,2024-08-08T01:00:00Z,18,17,6+,29.91
LBPL,43.453,24.504,260,2,2.3,LBPL 080100Z 26002KT 9999 SKC 21/12 Q1013,2024-08-08T01:00:00Z,21,12,6+,29.91
LBPG,42.289,24.714,180,2,2.3,LBPG 080100Z 18002KT 9999 SKC 19/13 Q1014,2024-08-08T01:00:00Z,19,13,6+,29.94
KRYN,32.1418,-111.177,340,8,9.21,KRYN 080100Z 34008KT 10SM CLR 31/17 A2995,2024-08-08T01:00:00Z,31,17,10+,29.95
KQEI,-99.99,-99.99,200,3,3.45,KQEI 080100Z AUTO 20003KT 9999 FEW036 BKN200 28/23 A2972 RMK A02 TSNO,2024-08-08T01:00:00Z,28,23,6+,29.72
KNEL,40.037,-74.326,80,10,11.51,KNEL 080100Z AUTO 08010KT OVC010 21/19 A2999 RMK AO2 CIG 007V012 SLP154 T02060194 $,2024-08-08T01:00:00Z,20.6,19.4,,29.99
HKNK,-0.298,36.159,0,0,0.0,HKNK 080100Z 00000KT CAVOK 14/12,2024-08-08T01:00:00Z,14,12,6+,
HKMO,-4.015,39.606,140,8,9.21,HKMO 080100Z 14008KT 9999 BKN020 25/22 Q1014 NOSIG,2024-08-08T01:00:00Z,25,22,6+,29.94
HKJK,-1.319,36.928,180,5,5.75,HKJK 0100Z 18005KT 9999 BKN016 16/15 Q1022,2024-08-08T01:00:00Z,16,15,6+,30.18
HKGO,-99.999,-99.999,110,5,5.75,HKGO 080100Z AUTO 11005KT 13/12 Q1029 A30.37,2024-08-08T01:00:00Z,13,12,,30.38
HETR,28.209,33.646,110,5,5.75,HETR 080100Z 11005KT CAVOK 27/23 Q1004,2024-08-08T01:00:00Z,27,23,6+,29.65
HESX,30.108,30.896,30,2,2.3,HESX 080100Z 03002KT CAVOK 24/21 Q1008 NOSIG,2024-08-08T01:00:00Z,24,21,6+,29.76
HESW,29.346,25.507,30,7,8.06,HESW 080100Z 03007KT CAVOK 27/17 Q1009,2024-08-08T01:00:00Z,27,17,6+,29.79
HESN,23.964,32.82,230,8,9.21,HESN 080100Z 23008KT 4000 DU NSC 29/23 Q1006 NOSIG,2024-08-08T01:00:00Z,29,23,2.49,29.70
HESH,27.977,34.395,350,7,8.06,HESH 080100Z 35007KT CAVOK 29/19 Q1005 NOSIG,2024-08-08T01:00:00Z,29,19,6+,29.68
HESG,26.343,31.743,240,5,5.75,HESG 080100Z 24005KT CAVOK 29/08 Q1004 NOSIG,2024-08-08T01:00:00Z,29,8,6+,29.65
HEPS,31.279,32.238,280,4,4.6,HEPS 080100Z 28004KT CAVOK 28/24 Q1007 NOSIG,2024-08-08T01:00:00Z,28,24,6+,29.73
HEMM,31.325,27.222,250,6,6.9,HEMM 080100Z 25006KT CAVOK 25/23 Q1009 NOSIG,2024-08-08T01:00:00Z,25,23,6+,29.79
HEMA,25.557,34.584,280,2,2.3,HEMA 080100Z 28002KT CAVOK 30/25 Q1004 NOSIG,2024-08-08T01:00:00Z,30,25,6+,29.65
HELX,25.671,32.706,0,0,0.0,HELX 080100Z 00000KT CAVOK 32/11 Q1005 NOSIG,2024-08-08T01:00:00Z,32,11,6+,29.68
HEGN,27.179,33.801,300,5,5.75,HEGN 080100Z 30005KT CAVOK 30/10 Q1005 NOSIG,2024-08-08T01:00:00Z,30,10,6+,29.68
HEBA,30.918,29.696,320,5,5.75,HEBA 080100Z 32005KT CAVOK 25/22 Q1007 NOSIG,2024-08-08T01:00:00Z,25,22,6+,29.73
HEAT,27.049,31.014,0,0,0.0,HEAT 080100Z 00000KT CAVOK 28/10 Q1009 NOSIG,2024-08-08T01:00:00Z,28,10,6+,29.79
HAAB,8.978,38.799,300,4,4.6,HAAB 080100Z 30004KT 8000 RA BKN023 OVC070 15/15 Q1025,2024-08-08T01:00:00Z,15,15,4.97,30.27
GUCY,9.577,-13.612,220,6,6.9,GUCY 080100Z 22006KT 8000 -RA BKN013 BKN100 26/23 Q1013 NOSIG,2024-08-08T01:00:00Z,26,23,4.97,29.91
GOTT,13.733,-13.657,230,6,6.9,GOTT 080100Z 23006KT CAVOK 27/25 Q1012,2024-08-08T01:00:00Z,27,25,6+,29.88
GOSS,16.051,-16.461,280,4,4.6,GOSS 080100Z 28004KT CAVOK 28/25 Q1012,2024-08-08T01:00:00Z,28,25,6+,29.88
GOOY,14.741,-17.49,200,4,4.6,GOOY 080100Z 20004KT 160V240 9999 SCT013 FEW015TCU 28/26 Q1011,2024-08-08T01:00:00Z,28,26,6+,29.85
GOGG,12.556,-16.282,220,4,4.6,GOGG 080100Z 22004KT 9999 FEW015 25/25 Q1012,2024-08-08T01:00:00Z,25,25,6+,29.88
GMML,27.141,-13.23,40,18,20.71,GMML 080100Z 04018KT 8000 NSC 21/21 Q1014 NOSIG,2024-08-08T01:00:00Z,21,21,4.97,29.94
GMMB,33.655,-7.221,190,3,3.45,GMMB 080100Z AUTO 19003KT 9999 NSC 21/21 Q1014 NOSIG,2024-08-08T01:00:00Z,21,21,6+,29.94
GMFB,32.514,-1.978,30,10,11.51,GMFB 080100Z AUTO 03010KT 9999 NSC 31/10 Q1018 NOSIG,2024-08-08T01:00:00Z,31,10,6+,30.06
GFLL,8.616,-13.195,190,13,14.96,GFLL 080100Z 19013KT 9999 BKN010 FEW027CB 26/23 Q1012 RMK CB-NE/SW,2024-08-08T01:00:00Z,26,23,6+,29.88
FZAA,-4.387,15.448,0,0,0.0,FZAA 080100Z 00000KT 7000 NSC 23/18 Q1013 NOSIG,2024-08-08T01:00:00Z,23,18,4.35,29.91
FYRU,-17.956,19.724,0,0,0.0,FYRU 080100Z AUTO 00000KT //// // ////// 13/M02 Q1021,2024-08-08T01:00:00Z,13,-2,,30.15
FVRG,-17.921,31.1,VRB,2,2.3,FVRG 080100Z VRB02KT 6000 12/09 Q1024,2024-08-08T01:00:00Z,12,9,3.73,30.24
FTTJ,12.134,15.034,220,4,4.6,FTTJ 080100Z 22004KT 6000 FEW020 SCT026 25/25 Q1010 NOSIG,2024-08-08T01:00:00Z,25,25,3.73,29.82
FQTT,-16.108,33.64,0,0,0.0,FQTT 080100Z 00000KT CAVOK 15/11 Q1018,2024-08-08T01:00:00Z,15,11,6+,30.06
FQPB,-12.989,40.525,240,5,5.75,FQPB 080100Z 24005KT 9999 FEW020 21/20 Q1016,2024-08-08T01:00:00Z,21,20,6+,30.00
FQNP,-15.106,39.282,210,3,3.45,FQNP 080100Z 21003KT 9999 FEW010 18/17 Q1019,2024-08-08T01:00:00Z,18,17,6+,30.09
FNUE,-11.768,19.898,170,4,4.6,FNUE 080100Z AUTO 17004KT 9999 ////// ///// Q////,2024-08-08T01:00:00Z,,,6+,
FNUB,-14.925,13.575,190,6,6.9,FNUB 080100Z AUTO 19006KT 9999 // ////// 16/02 Q1024,2024-08-08T01:00:00Z,16,2,6+,30.24
FNHU,-12.809,15.761,230,5,5.75,FNHU 080100Z AUTO 23005KT //// // NCD 16/02 Q1022,2024-08-08T01:00:00Z,16,2,,30.18
FNGI,-17.044,15.684,150,3,3.45,FNGI 080100Z AUTO 15003KT 9999 // NCD 16/M07 Q1018,2024-08-08T01:00:00Z,16,-7,6+,30.06
FNCT,-12.479,13.487,130,4,4.6,FNCT 080100Z AUTO 13004KT 9999 OVC031 21/17 Q1015,2024-08-08T01:00:00Z,21,17,6+,29.97
FNCA,-5.59,12.188,190,4,4.6,FNCA 080100Z AUTO 19004KT 9999 FEW013 BKN044 22/20 Q1013,2024-08-08T01:00:00Z,22,20,6+,29.91
FMSD,-25.038,46.956,60,10,11.51,FMSD 080100Z 06010KT 9999 VCSH SCT016 BKN033 21/19 Q1020,2024-08-08T01:00:00Z,21,19,6+,30.12
FMNM,-15.667,46.352,170,4,4.6,FMNM 080100Z 17004KT CAVOK 18/13 Q1018,2024-08-08T01:00:00Z,18,13,6+,30.06
FEFF,4.399,18.519,310,2,2.3,FEFF 080100Z 31002KT 9999 FEW010 24/23 Q1012 NOSIG,2024-08-08T01:00:00Z,24,23,6+,29.88
FDOT,-26.704,31.425,0,0,0.0,FDOT 080100Z AUTO 00000KT //// // ////// 12/10 Q1019,2024-08-08T01:00:00Z,12,10,,30.09
FDBB,-26.815,31.934,0,0,0.0,FDBB 080100Z AUTO 00000KT //// // ////// 11/10 Q1017,2024-08-08T01:00:00Z,11,10,,30.03
FCOD,-1.226,15.91,340,4,4.6,FCOD 080100Z 34004KT 6000 SCT026 24/20 Q1012,2024-08-08T01:00:00Z,24,20,3.73,29.88
FBMN,-19.973,23.431,90,10,11.51,FBMN 080100Z 09010KT CAVOK 18/07 Q1018,2024-08-08T01:00:00Z,18,7,6+,30.06
FAWK,-25.83,28.223,0,0,0.0,FAWK 080100Z AUTO 00000KT //// // ////// 06/00 Q1024,2024-08-08T01:00:00Z,6,0,,30.24
FAWB,-25.654,28.224,0,0,0.0,FAWB 080100Z AUTO 00000KT //// // ////// 05/01 Q1022,2024-08-08T01:00:00Z,5,1,,30.18
FAUT,-31.546,28.673,130,1,1.15,FAUT 080100Z AUTO 13001KT //// // ////// 05/01 Q1014,2024-08-08T01:00:00Z,5,1,,29.94
FAUP,-28.399,21.26,250,5,5.75,FAUP 080100Z 25005KT CAVOK 10/M05 Q1014 NOSIG,2024-08-08T01:00:00Z,10,-5,6+,29.94
FASI,-26.248,28.398,70,1,1.15,FASI 080100Z AUTO 07001KT //// // ////// 06/01 Q1027,2024-08-08T01:00:00Z,6,1,,30.32
FAPP,-23.845,29.459,200,6,6.9,FAPP 080100Z AUTO 20006KT //// // ////// 07/05 Q1025,2024-08-08T01:00:00Z,7,5,,30.27
FAPN,-25.334,27.173,0,0,0.0,FAPN 080100Z AUTO 00000KT //// // ////// 08/02 Q1021,2024-08-08T01:00:00Z,8,2,,30.15
FAMM,-25.798,25.548,40,9,10.36,FAMM 080100Z AUTO 04009KT //// // ////// 10/02 Q1021,2024-08-08T01:00:00Z,10,2,,30.15
FALE,-29.602,31.13,180,4,4.6,FALE 080100Z 18004KT 140V200 8000 NSC 12/10 Q1012 NOSIG,2024-08-08T01:00:00Z,12,10,4.97,29.88
FALA,-25.939,27.926,60,2,2.3,FALA 080100Z AUTO 06002KT //// ///////// 07/01 Q1024,2024-08-08T01:00:00Z,7,1,,30.24
FAKN,-25.383,31.106,260,4,4.6,FAKN 080100Z AUTO 26004KT //// // ////// 14/09 Q1021,2024-08-08T01:00:00Z,14,9,,30.15
FAKM,-28.803,24.765,10,11,12.66,FAKM 080100Z AUTO 01011KT //// // ////// 13/09 Q1017,2024-08-08T01:00:00Z,13,9,,30.03
FAHS,-24.381,31.044,320,3,3.45,FAHS 080100Z AUTO 32003KT //// // ////// 16/10 Q1020,2024-08-08T01:00:00Z,16,10,,30.12
FAGG,-34.006,22.379,310,4,4.6,FAGG 080100Z AUTO 31004KT CAVOK 07/06 Q1012,2024-08-08T01:00:00Z,7,6,6+,29.88
FACT,-33.965,18.602,360,10,11.51,FACT 080100Z 36010KT 9999 BKN032 13/09 Q1013 NOSIG,2024-08-08T01:00:00Z,13,9,6+,29.91
EIME,53.306,-6.442,220,6,6.9,EIME 080100Z 22006KT 190V260 9999 FEW018 SCT039 14/12 Q1009,2024-08-08T01:00:00Z,14,12,6+,29.79
DXXX,6.166,1.254,240,13,14.96,DXXX 080100Z 24013KT 9999 SCT013 25/22 Q1012 NOSIG,2024-08-08T01:00:00Z,25,22,6+,29.88
DTTZ,33.94,8.111,100,14,16.11,DTTZ 080100Z 10014KT CAVOK 29/21 Q1012,2024-08-08T01:00:00Z,29,21,6+,29.88
DTTX,34.718,10.691,310,3,3.45,DTTX 080100Z 31003KT 9999 FEW030 27/24 Q1013,2024-08-08T01:00:00Z,27,24,6+,29.91
DTTN,36.483,8.8,220,3,3.45,DTTN 080100Z AUTO 22003KT NCD 23/13 Q1014,2024-08-08T01:00:00Z,23,13,,29.94
DTTL,36.85,11.083,260,3,3.45,DTTL 080100Z AUTO 26003KT 220V300 NCD 25/24 Q1013,2024-08-08T01:00:00Z,25,24,,29.91
DTTK,35.667,10.1,VRB,2,2.3,DTTK 080100Z VRB02KT CAVOK 26/22 Q1013,2024-08-08T01:00:00Z,26,22,6+,29.91
DTTG,33.733,9.918,70,6,6.9,DTTG 080100Z 07006KT 8000 NSC 24/22 Q1013,2024-08-08T01:00:00Z,24,22,4.97,29.91
DTTD,32.312,10.386,70,4,4.6,DTTD 080100Z AUTO 07004KT 040V110 NCD 24/21 Q1014,2024-08-08T01:00:00Z,24,21,,29.94
DTTB,37.245,9.791,0,0,0.0,DTTB 080100Z 00000KT 6000 NSC 24/23 Q1013,2024-08-08T01:00:00Z,24,23,3.73,29.91
DTKA,36.98,8.877,100,4,4.6,DTKA 080100Z 10004KT CAVOK 22/18 Q1013,2024-08-08T01:00:00Z,22,18,6+,29.91
DRRN,13.483,2.17,200,8,9.21,DRRN 080100Z 20008KT 9000 NSC 24/23 Q1009 NOSIG,2024-08-08T01:00:00Z,24,23,5.59,29.79
DNZA,11.13,7.686,230,5,5.75,DNZA 080100Z 23005KT 9999 DZ BKN010 23/22 Q401,2024-08-08T01:00:00Z,23,22,6+,
DNPO,4.848,7.022,210,3,3.45,DNPO 080100Z 21003KT 7000 BKN008 25/24 Q1012 NOSIG,2024-08-08T01:00:00Z,25,24,4.35,29.88
DNMM,6.577,3.321,230,5,5.75,DNMM 080100Z 23005KT 9999 SCT009 25/23 Q1013 NOSIG,2024-08-08T01:00:00Z,25,23,6+,29.91
DNKN,12.048,8.525,220,6,6.9,DNKN 080100Z 22006KT CAVOK 24/22 Q1014 NOSIG,2024-08-08T01:00:00Z,24,22,6+,29.94
DNEN,6.474,7.562,240,5,5.75,DNEN 080100Z 24005KT 8000 SCT010 25/23 Q102 NOSIG,2024-08-08T01:00:00Z,25,23,4.97,
DNAA,9.007,7.263,210,5,5.75,DNAA 080100Z 21005KT 9999 SCT008 25/22 Q1013 NOSIG,2024-08-08T01:00:00Z,25,22,6+,29.91
DIYO,6.903,-5.366,200,4,4.6,DIYO 080100Z 20004KT 9999 BKN010 24/21 Q1013 NOSIG,2024-08-08T01:00:00Z,24,21,6+,29.91
DIBK,7.739,-5.074,180,8,9.21,DIBK 080100Z 18008KT 8000 FEW010 23/23 Q1013 NOSIG,2024-08-08T01:00:00Z,23,23,4.97,29.91
DFOO,11.163,-4.322,280,8,9.21,DFOO 080100Z 28008KT 250V310 9999 FEW016 22/20 Q1012 RETS,2024-08-08T01:00:00Z,22,20,6+,29.88
DFFD,12.356,-1.512,230,6,6.9,DFFD 080100Z 23006KT 200V270 9999 FEW016 23/23 Q1010 TEMPO BKN010,2024-08-08T01:00:00Z,23,23,6+,29.82
DBBB,6.357,2.384,220,13,14.96,DBBB 080100Z 22013KT 9999 SCT012 26/23 Q1012 NOSIG,2024-08-08T01:00:00Z,26,23,6+,29.88
DAUZ,28.052,9.643,290,13,14.96,DAUZ 080100Z 29013KT CAVOK 31/14 Q1012,2024-08-08T01:00:00Z,31,14,6+,29.88
DAUU,31.917,5.413,130,5,5.75,DAUU 080100Z 13005KT CAVOK 32/11 Q1011,2024-08-08T01:00:00Z,32,11,6+,29.85
DAUT,29.237,0.276,110,14,16.11,DAUT 080100Z 11014KT CAVOK 34/03 Q1011,2024-08-08T01:00:00Z,34,3,6+,29.85
DAUO,33.513,6.782,140,6,6.9,DAUO 080100Z 14006KT 110V180 CAVOK 33/13 Q1011,2024-08-08T01:00:00Z,33,13,6+,29.85
DAUL,33.764,2.928,230,6,6.9,DAUL 080100Z 23006KT 9999 FEW033 33/06 Q1016,2024-08-08T01:00:00Z,33,6,6+,30.00
DAUK,33.068,6.089,130,5,5.75,DAUK 080100Z 13005KT CAVOK 32/12 Q1011,2024-08-08T01:00:00Z,32,12,6+,29.85
DAUI,27.251,2.512,40,15,17.26,DAUI 080100Z 04015KT CAVOK 35/M00 Q1009,2024-08-08T01:00:00Z,35,0,6+,29.79
DAUH,31.673,6.14,VRB,1,1.15,DAUH 080100Z VRB01KT CAVOK 29/09 Q1011,2024-08-08T01:00:00Z,29,9,6+,29.85
DAUG,32.384,3.794,0,0,0.0,DAUG 080100Z 00000KT CAVOK 33/10 Q1014,2024-08-08T01:00:00Z,33,10,6+,29.94
DAUE,30.571,2.86,VRB,2,2.3,DAUE 080100Z VRB02KT CAVOK 29/08 Q1014,2024-08-08T01:00:00Z,29,8,6+,29.94
DAUB,34.793,5.738,80,4,4.6,DAUB 080100Z 08004KT CAVOK 33/09 Q1011,2024-08-08T01:00:00Z,33,9,6+,29.85
DAUA,27.839,-0.186,120,7,8.06,DAUA 080100Z 12007KT CAVOK 33/M01 Q1009,2024-08-08T01:00:00Z,33,-1,6+,29.79
DAOY,33.721,1.091,170,8,9.21,DAOY 080100Z 17008KT 9999 SCT026 29/04 Q1020,2024-08-08T01:00:00Z,29,4,6+,30.12
DAOV,35.208,0.147,120,4,4.6,DAOV 080100Z 12004KT CAVOK 28/16 Q1013,2024-08-08T01:00:00Z,28,16,6+,29.91
DAOR,31.65,-2.261,130,5,5.75,DAOR 080100Z 13005KT CAVOK 35/M01 Q1015,2024-08-08T01:00:00Z,35,-1,6+,29.97
DAOI,36.213,1.332,240,3,3.45,DAOI 080100Z 24003KT 8000 NSC 28/18 Q1012,2024-08-08T01:00:00Z,28,18,4.97,29.88
DAOF,27.7,-8.167,310,13,14.96,DAOF 080100Z 31013KT CAVOK 34/04 Q1010,2024-08-08T01:00:00Z,34,4,6+,29.82
DAOB,35.345,1.476,200,4,4.6,DAOB 080100Z 20004KT 9999 FEW030 27/07 Q1018,2024-08-08T01:00:00Z,27,7,6+,30.06
DABT,35.752,6.309,0,0,0.0,DABT 080100Z 00000KT CAVOK 22/00 Q1018,2024-08-08T01:00:00Z,22,0,6+,30.06
DABS,35.432,8.121,180,2,2.3,DABS 080100Z 18002KT CAVOK 23/07 Q1018,2024-08-08T01:00:00Z,23,7,6+,30.06
DABC,36.278,6.629,VRB,2,2.3,DABC 080100Z VRB02KT CAVOK 22/09 Q1017,2024-08-08T01:00:00Z,22,9,6+,30.03
DABB,36.822,7.809,280,1,1.15,DABB 080100Z 28001KT CAVOK 21/20 Q1012,2024-08-08T01:00:00Z,21,20,6+,29.88
DAAY,33.532,-0.248,200,20,23.02,DAAY 080100Z 20020KT 7000 SCT030 SCT100 29/02 Q1020,2024-08-08T01:00:00Z,29,2,4.35,30.12
DAAV,36.795,5.877,130,3,3.45,DAAV 080100Z 13003KT CAVOK 25/15 Q1010,2024-08-08T01:00:00Z,25,15,6+,29.82
DAAS,36.18,5.33,90,6,6.9,DAAS 080100Z 09006KT CAVOK 25/04 Q1019,2024-08-08T01:00:00Z,25,4,6+,30.09
DAAP,26.724,8.622,90,4,4.6,DAAP 080100Z 09004KT CAVOK 30/05 Q1011,2024-08-08T01:00:00Z,30,5,6+,29.85
DAAJ,24.286,9.464,140,5,5.75,DAAJ 080100Z 14005KT CAVOK 27/M03 Q1014,2024-08-08T01:00:00Z,27,-3,6+,29.94
DAAE,36.712,5.07,260,9,10.36,DAAE 080100Z 26009KT CAVOK 26/15 Q1010,2024-08-08T01:00:00Z,26,15,6+,29.82
CZZJ,53.583,-116.462,70,8,9.21,CZZJ 080100Z AUTO 07008KT 19/09 RMK AO1 SLP267 T01880088 56007,2024-08-08T01:00:00Z,18.8,8.8,,
CZVL,53.67,-113.863,250,4,4.6,CZVL 080100Z AUTO 25004KT 9SM FEW047 SCT071 18/10 A3027 RMK PCPN 1.2MM PAST HR SLP259 DENSITY ALT 2700FT,2024-08-08T01:00:00Z,18,10,9,30.27
CZTB,48.369,-89.327,230,5,5.75,CZTB 080100Z AUTO 23005KT 21/14 RMK AO1 SLP115 T02050137 55004,2024-08-08T01:00:00Z,20.5,13.7,,
CZST,55.935,-129.984,220,4,4.6,CZST 080100Z 22004KT 160V260 15SM SKC 23/12 A3009 RMK HZ IN ATMOS LAST STFD OBS / NEXT 08 1300Z SLP190 DENSITY ALT 800FT,2024-08-08T01:00:00Z,23,12,15,30.09
CZSP,46.45,-62.576,230,6,6.9,CZSP 080100Z AUTO 23006KT 17/14 RMK AO1 SLP157 T01710140 53016,2024-08-08T01:00:00Z,17.1,14,,
CZSM,60.026,-111.929,90,3,3.45,CZSM 080100Z AUTO 09003KT 23/06 RMK AO1 SLP258 T02320062 56010,2024-08-08T01:00:00Z,23.2,6.2,,
CZSJ,53.063,-93.344,30,7,8.06,CZSJ 080100Z AUTO 03007KT 9SM OVC060 12/10 A2994 RMK SLP149,2024-08-08T01:00:00Z,12,10,9,29.94
CZRP,75.377,-105.715,260,16,18.41,CZRP 080100Z AUTO 26016KT 17/12 RMK AO1 PK WND 24025/0041 SLP011 T01700119 56020,2024-08-08T01:00:00Z,17,11.9,,
CZPC,49.522,-114.005,0,0,0.0,CZPC 080100Z AUTO 00000KT 9SM CLR 16/09 A3032 RMK SLP267 DENSITY ALT 4500FT,2024-08-08T01:00:00Z,16,9,9,30.32
CZOL,53.642,-113.364,90,2,2.3,CZOL 080100Z AUTO 09002KT 19/12 RMK AO1 T01850115,2024-08-08T01:00:00Z,18.5,11.5,,
CZMU,53.563,-112.296,360,4,4.6,CZMU 080100Z AUTO 36004KT 16/11 RMK AO1 T01600112,2024-08-08T01:00:00Z,16,11.2,,
CZMJ,50.332,-105.538,30,11,12.66,CZMJ 080100Z AUTO 03011KT 17/02 RMK AO1 PK WND 05017/0045 SLP255 T01690015 53005,2024-08-08T01:00:00Z,16.9,1.5,,
CZMD,53.439,-91.766,30,13,14.96,CZMD 080100Z AUTO 03013G18KT 9SM FEW055 OVC070 13/08 A2996 RMK SLP155,2024-08-08T01:00:00Z,13,8,9,29.96
CZKD,56.037,-96.51,20,9,10.36,CZKD 080100Z AUTO 02009G15KT 18/06 RMK AO1 SLP212 T01770061 53002,2024-08-08T01:00:00Z,17.7,6.1,,
CZHY,60.839,-115.781,90,3,3.45,CZHY 080100Z AUTO 09003KT 25/12 RMK AO1 SLP226 T02510117 57011,2024-08-08T01:00:00Z,25.1,11.7,,
CZFS,61.76,-121.23,120,10,11.51,CZFS 080100Z AUTO 12010G15KT 30/11 RMK AO1 PK WND 12018/0008 SLP183 T02960107 56013,2024-08-08T01:00:00Z,29.6,10.7,,
CZFA,62.211,-133.385,0,0,0.0,CZFA 080100Z 00000KT 30SM SKC 29/08 A3004 RMK FU LAST STFD OBS/NXT 081300Z SLP180 DENSITY ALT 4400FT,2024-08-08T01:00:00Z,29,8,30,30.04
CZEV,68.313,-133.496,180,5,5.75,CZEV 080100Z AUTO 18005KT 35/10 RMK AO1 SLP102 T03460095 57009,2024-08-08T01:00:00Z,34.6,9.5,,
CZEL,43.642,-80.412,100,4,4.6,CZEL 080100Z AUTO 10004KT 17/12 RMK AO1 SLP164 T01710124 52002,2024-08-08T01:00:00Z,17.1,12.4,,
CZDB,45.422,-63.466,280,5,5.75,CZDB 080100Z AUTO 28005KT 16/12 RMK AO1 SLP167 T01610117 53015,2024-08-08T01:00:00Z,16.1,11.7,,
CZCR,47.99,-66.334,230,4,4.6,CZCR 080100Z AUTO 23004KT 14/07 RMK AO1 T01370073,2024-08-08T01:00:00Z,13.7,7.3,,
CZBF,47.628,-65.746,280,4,4.6,CZBF 080100Z AUTO 28004KT 9SM CLR 16/07 A3003 RMK SLP172,2024-08-08T01:00:00Z,16,7,9,30.03
CYZY,55.303,-123.135,80,4,4.6,CYZY 080100Z AUTO 08004KT 040V110 9SM OVC120 27/09 A3014 RMK SLP213 DENSITY ALT 4000FT,2024-08-08T01:00:00Z,27,9,9,30.14
CYZX,44.985,-64.912,230,6,6.9,CYZX 080100Z 23006KT 15SM FEW035 17/13 A3005 RMK SC1 DENSITY ALT 355FT SLP176,2024-08-08T01:00:00Z,17,13,15,30.05
CYZW,60.175,-132.734,170,5,5.75,CYZW 080100Z 17005KT 30SM FEW055 27/09 A3011 RMK SC1 FU/LAST STFD OBS/NXT 081300Z SLP206 DENSITY ALT 4000FT,2024-08-08T01:00:00Z,27,9,30,30.11
CYZV,50.217,-66.26,250,5,5.75,CYZV 080100Z 25005KT 15SM FEW050 BKN120 13/08 A2994 RMK CU1AC5 CU TR SLP143,2024-08-08T01:00:00Z,13,8,15,29.94
CYZU,54.142,-115.785,240,3,3.45,CYZU 080100Z 24003KT 15SM FEW044TCU SCT110 SCT240 19/12 A3028 RMK TCU1AC2CI1 SLP263 DENSITY ALT 3200FT,2024-08-08T01:00:00Z,19,12,15,30.28
CYZT,50.685,-127.369,340,7,8.06,CYZT 080100Z 34007KT 15SM FEW010 SCT240 17/13 A3016 RMK SC2CI2 HZ FG BANK OFSHR DIST N SLP215,2024-08-08T01:00:00Z,17,13,15,30.16
CYZS,64.188,-83.351,330,7,8.06,CYZS 080100Z 33007KT 15SM BKN210 15/06 A2999 RMK CI5 SLP162,2024-08-08T01:00:00Z,15,6,15,29.99
CYZR,42.995,-82.307,50,5,5.75,CYZR 080100Z AUTO 05005KT 9SM CLR 19/17 A2996 RMK SLP146 DENSITY ALT 1200FT,2024-08-08T01:00:00Z,19,17,9,29.96
CYZP,53.254,-131.814,100,5,5.75,CYZP 080100Z AUTO 10005KT 9SM CLR 20/15 A3018 RMK SLP223 DENSITY ALT 400FT,2024-08-08T01:00:00Z,20,15,9,30.18
CYZH,55.293,-114.773,VRB,5,5.75,CYZH 080100Z AUTO VRB05KT 9SM CLR 22/10 A3026 RMK SLP257 DENSITY ALT 2800FT,2024-08-08T01:00:00Z,22,10,9,30.26
CYZF,62.475,-114.448,140,11,12.66,CYZF 080100Z 14011KT 15SM FEW240 21/06 A3025 RMK CI1 CI TR SLP252 DENSITY ALT 1300FT,2024-08-08T01:00:00Z,21,6,15,30.25
CYZE,45.885,-82.57,170,2,2.3,CYZE 080100Z AUTO 17002KT 9SM CLR 18/10 A3001 RMK SLP166 DENSITY ALT 1000FT,2024-08-08T01:00:00Z,18,10,9,30.01
CYYZ,43.679,-79.629,100,4,4.6,CYYZ 080100Z 10004KT 15SM FEW180 BKN250 21/14 A3000 RMK AC2CI3 SLP160 DENSITY ALT 1400FT,2024-08-08T01:00:00Z,21,14,15,30.00
CYYY,48.609,-68.208,200,7,8.06,CYYY 080100Z 20007KT 30SM FEW075 16/07 A3001 RMK AC1 SLP164,2024-08-08T01:00:00Z,16,7,30,30.01
CYYU,49.416,-82.47,90,3,3.45,CYYU 080100Z 09003KT 15SM SCT077 BKN110 BKN130 19/12 A2998 RMK AC3AC3AC1 SLP157 DENSITY ALT 1400FT,2024-08-08T01:00:00Z,19,12,15,29.98
CYYT,47.627,-52.748,250,15,17.26,CYYT 080100Z 25015KT 15SM BKN200 17/15 A2990 RMK CI5 SLP128 DENSITY ALT 800FT,2024-08-08T01:00:00Z,17,15,15,29.90
CYYR,53.32,-60.417,240,8,9.21,CYYR 080100Z 24008KT 15SM FEW025 SCT035 BKN045 BKN250 13/11 A2972 RMK SC1SC2SC2CI2 DENSITY ALT 329FT SLP066,2024-08-08T01:00:00Z,13,11,15,29.72
CYYQ,58.745,-94.074,40,8,9.21,CYYQ 080100Z 04008KT 15SM BKN085 11/08 A3019 RMK AC7 SLP226,2024-08-08T01:00:00Z,11,8,15,30.19
CYYN,50.292,-107.691,60,4,4.6,CYYN 080100Z AUTO 06004KT 7SM BKN055 BKN079 16/08 A3026 RMK SLP253 DENSITY ALT 3100FT,2024-08-08T01:00:00Z,16,8,7,30.26
CYYL,56.863,-101.073,10,6,6.9,CYYL 080100Z AUTO 01006KT 9SM OVC066 16/06 A3024 RMK SLP254,2024-08-08T01:00:00Z,16,6,9,30.24
CYYJ,48.642,-123.433,130,5,5.75,CYYJ 080100Z 13005KT 30SM FEW035 FEW250 24/14 A3004 RMK CU1CI1 CU TR SLP173 DENSITY ALT 1000FT,2024-08-08T01:00:00Z,24,14,30,30.04
CYYH,69.543,-93.568,210,8,9.21,CYYH 080100Z 21008KT 15SM FEW170 FEW240 11/07 A3006 RMK AC1CI1 AC TR CI TR SLP182,2024-08-08T01:00:00Z,11,7,15,30.06
CYYG,46.289,-63.128,290,7,8.06,CYYG 080100Z 29007KT 240V300 15SM FEW050 17/13 A3000 RMK SC2 SLP160 DENSITY ALT 400FT,2024-08-08T01:00:00Z,17,13,15,30.00
CYYF,49.46,-119.606,360,9,10.36,CYYF 080100Z 36009KT 15SM FEW080 31/12 A3000 RMK CU1 CU TR SLP154 DENSITY ALT 3100FT,2024-08-08T01:00:00Z,31,12,15,30.00
CYYE,58.839,-122.59,160,3,3.45,CYYE 080100Z 16003KT 130V210 30SM SKC 29/09 A3011 RMK SLP203 DENSITY ALT 3000FT,2024-08-08T01:00:00Z,29,9,30,30.11
CYYD,54.823,-127.185,270,7,8.06,CYYD 080100Z 27007KT 25SM FEW080 30/07 A3010 RMK CU1 CU TR SLP192 DENSITY ALT 3700FT,2024-08-08T01:00:00Z,30,7,25,30.10
CYYC,51.116,-114.011,160,3,3.45,CYYC 080100Z 16003KT 120V200 6SM FU BKN077 BKN120 17/06 A3031 RMK AC5AC2 SLP275 DENSITY ALT 4300FT,2024-08-08T01:00:00Z,17,6,6,30.31
CYYB,46.365,-79.423,60,4,4.6,CYYB 080100Z 06004KT 20SM FEW200 SCT280 18/10 A3003 RMK CI2CI2 SLP174 DENSITY ALT 1800FT,2024-08-08T01:00:00Z,18,10,20,30.03
CYXY,60.71,-135.059,140,10,11.51,CYXY 080100Z 14010G17KT 40SM SKC 28/08 A3007 RMK SLP190 DENSITY ALT 4200FT,2024-08-08T01:00:00Z,28,8,40,30.07
CYXX,49.027,-122.377,230,5,5.75,CYXX 080100Z 23005KT 190V260 30SM SCT230 26/16 A3003 RMK CI3 SLP170 DENSITY ALT 1400FT,2024-08-08T01:00:00Z,26,16,30,30.03
CYXU,43.039,-81.162,60,6,6.9,CYXU 080100Z 06006KT 15SM FEW180 FEW240 18/10 A2998 RMK AC1CI1 AC TR CI TR SLP155 DENSITY ALT 1400FT,2024-08-08T01:00:00Z,18,10,15,29.98
CYXT,54.471,-128.577,270,5,5.75,CYXT 080100Z 27005KT 20SM FEW080 31/09 A3007 RMK AC1 AC TR SLP186 DENSITY ALT 2600FT,2024-08-08T01:00:00Z,31,9,20,30.07
CYXS,53.884,-122.677,VRB,3,3.45,CYXS 080100Z AUTO VRB03KT 9SM CLR 26/09 A3014 RMK SLP216 DENSITY ALT 3800FT,2024-08-08T01:00:00Z,26,9,9,30.14
CYXR,47.698,-79.852,150,5,5.75,CYXR 080100Z AUTO 15005KT 9SM SCT130 BKN150 OVC190 18/12 A3001 RMK SLP169 DENSITY ALT 1300FT,2024-08-08T01:00:00Z,18,12,9,30.01
CYXJ,56.247,-120.737,100,10,11.51,CYXJ 080100Z 10010KT 15SM FEW060 25/09 A3020 RMK FU1CU1 SLP236 DENSITY ALT 3700FT,2024-08-08T01:00:00Z,25,9,15,30.20
CYXH,50.018,-110.717,350,12,13.81,CYXH 080100Z 35012G18KT 10SM FEW065 SCT150 BKN270 18/09 A3025 RMK CU2AC1CI3 SLP250 DENSITY ALT 2900FT,2024-08-08T01:00:00Z,18,9,10+,30.25
CYXE,52.172,-106.695,30,5,5.75,CYXE 080100Z 03005KT 12SM SCT060 16/05 A3027 RMK CU3 FU SLP263,2024-08-08T01:00:00Z,16,5,12,30.27
CYXC,49.614,-115.784,90,4,4.6,CYXC 080100Z 09004KT 060V120 25SM FEW070 FEW120 SCT160 22/08 A3019 RMK CU1AC1AC1 SLP217 DENSITY ALT 4300FT,2024-08-08T01:00:00Z,22,8,25,30.19
CYWL,52.186,-122.066,290,6,6.9,CYWL 080100Z 29006KT 260V340 15SM FEW090 25/02 A3017 RMK CU1 CU TR SLP215 DENSITY ALT 4700FT,2024-08-08T01:00:00Z,25,2,15,30.17
CYWK,52.927,-66.874,280,4,4.6,CYWK 080100Z 28004KT 15SM FEW025 BKN045 09/08 A2987 RMK SC1CU5 SLP133,2024-08-08T01:00:00Z,9,8,15,29.87
CYWH,48.423,-123.387,220,6,6.9,CYWH 080100Z 22006KT 15SM FEW050 FEW240 18/12 A3005 RMK CU1CI2 CU TR SLP179,2024-08-08T01:00:00Z,18,12,15,30.05
CYWG,49.916,-97.249,320,16,18.41,CYWG 080100Z 32016G23KT 15SM FEW065 SCT250 17/09 A2998 RMK SC1CI3 SC TR SLP156 DENSITY ALT 1100FT,2024-08-08T01:00:00Z,17,9,15,29.98
CYWE,64.192,-114.078,210,9,10.36,CYWE 080100Z AUTO 21009G16KT 9SM FEW047 23/06 A3021 RMK SLP243 DENSITY ALT 2200FT,2024-08-08T01:00:00Z,23,6,9,30.21
CYWA,45.948,-77.311,140,6,6.9,CYWA 080100Z 14006KT 15SM FEW210 20/10 A3005 RMK CI2 DENSITY ALT 1146FT SLP177,2024-08-08T01:00:00Z,20,10,15,30.05
CYVT,55.842,-108.418,VRB,2,2.3,CYVT 080100Z AUTO VRB02KT 9SM CLR 19/05 A3029 RMK SLP270 DENSITY ALT 1800FT,2024-08-08T01:00:00Z,19,5,9,30.29
CYVR,49.183,-123.168,280,8,9.21,CYVR 080100Z 28008KT 30SM FEW240 23/18 A3003 RMK CI1 SLP172 DENSITY ALT 800FT,2024-08-08T01:00:00Z,23,18,30,30.03
CYVQ,65.278,-126.796,130,11,12.66,CYVQ 080100Z 13011KT 25SM SKC 33/12 A2989 RMK SLP127 DENSITY ALT 2400FT,2024-08-08T01:00:00Z,33,12,25,29.89
CYVP,58.1,-68.415,260,3,3.45,CYVP 080100Z 26003KT 15SM FEW018 BKN027 OVC042 08/08 A2987 RMK SC2SC5SC1 SLP118,2024-08-08T01:00:00Z,8,8,15,29.87
CYVO,48.056,-77.779,230,3,3.45,CYVO 080100Z 23003KT 15SM FEW050 BKN150 BKN250 18/10 A3005 RMK SC1AC5CI1 SC TR SLP184 DENSITY ALT 1600FT,2024-08-08T01:00:00Z,18,10,15,30.05
CYVM,67.552,-64.026,80,2,2.3,CYVM 080100Z AUTO 08002KT 9SM SCT180 BKN200 BKN220 BKN240 07/03 A2973 RMK SLP069,2024-08-08T01:00:00Z,7,3,9,29.73
CYVC,55.15,-105.264,330,4,4.6,CYVC 080100Z 33004KT 5SM FU BKN077 15/07 A3030 RMK FU2AC3 SLP274,2024-08-08T01:00:00Z,15,7,5,30.30
CYUY,48.209,-78.83,VRB,2,2.3,CYUY 080100Z VRB02KT 15SM BKN130 BKN220 18/11 A3003 RMK AC7CI1 CI TR SLP176 DENSITY ALT 1500FT,2024-08-08T01:00:00Z,18,11,15,30.03
CYUX,68.772,-81.233,310,15,17.26,CYUX 080100Z AUTO 31015KT 9SM SCT096 OVC140 13/09 A2990 RMK SLP129,2024-08-08T01:00:00Z,13,9,9,29.90
CYUL,45.468,-73.742,150,5,5.75,CYUL 080100Z 15005KT 15SM FEW250 23/11 A3004 RMK CI2 CONTRAILS SLP174 DENSITY ALT 900FT,2024-08-08T01:00:00Z,23,11,15,30.04
CYUB,69.434,-133.026,160,8,9.21,CYUB 080100Z 16008KT 15SM SCT250 30/15 A2978 RMK CI3 SLP086 DENSITY ALT 1900FT,2024-08-08T01:00:00Z,30,15,15,29.78
CYTZ,43.627,-79.397,90,8,9.21,CYTZ 080100Z AUTO 09008KT 050V120 9SM CLR 22/15 A2999 RMK SLP157 DENSITY ALT 1100FT,2024-08-08T01:00:00Z,22,15,9,29.99
CYTS,48.568,-81.378,130,2,2.3,CYTS 080100Z 13002KT 15SM BKN120 BKN150 18/11 A3001 RMK AC5AC2 SLP167 DENSITY ALT 1400FT,2024-08-08T01:00:00Z,18,11,15,30.01
CYTR,44.115,-77.531,50,5,5.75,CYTR 080100Z 05005KT 030V090 15SM FEW250 18/12 A3001 RMK CI1 DENSITY ALT 830FT SLP164,2024-08-08T01:00:00Z,18,12,15,30.01
CYTL,53.816,-89.892,60,8,9.21,CYTL 080100Z AUTO 06008KT 9SM OVC066 13/08 A2998 RMK SLP162,2024-08-08T01:00:00Z,13,8,9,29.98
CYTH,55.803,-97.846,360,6,6.9,CYTH 080100Z 36006KT 15SM FEW054 BKN081 16/08 A3014 RMK SC1AC7 SC TR SLP217,2024-08-08T01:00:00Z,16,8,15,30.14
CYTE,64.23,-76.528,350,8,9.21,CYTE 080100Z AUTO 35008KT 9SM CLR 13/04 A2986 RMK SLP116,2024-08-08T01:00:00Z,13,4,9,29.86
CYSN,43.192,-79.176,90,5,5.75,CYSN 080100Z 09005KT 15SM SCT250 18/11 A2998 RMK CI3 LAST STFD OBS/NEXT 081100Z SLP153 DENSITY ALT 700FT,2024-08-08T01:00:00Z,18,11,15,29.98
CYSM,60.026,-111.929,90,5,5.75,CYSM 080100Z 09005KT 060V160 15SM FEW030 23/06 A3027 RMK FU1 FU TR LAST STFD OBS / NXT 08 1300Z SLP258 DENSITY ALT 1400FT,2024-08-08T01:00:00Z,23,6,15,30.27
CYSJ,45.309,-65.886,200,5,5.75,CYSJ 080100Z 20005KT 15SM SKC 14/12 A3003 RMK SLP174,2024-08-08T01:00:00Z,14,12,15,30.03
CYSF,59.252,-105.837,,,,CYSF 080100Z AUTO /////KT 9SM OVC071 21/07 A3029 RMK WIND MISG SLP267 DENSITY ALT 1300FT,2024-08-08T01:00:00Z,21,7,9,30.29
CYSC,45.44,-71.692,VRB,2,2.3,CYSC 080100Z AUTO VRB02KT 9SM CLR 15/11 A3008 RMK SLP189,2024-08-08T01:00:00Z,15,11,9,30.08
CYSB,46.622,-80.799,150,6,6.9,CYSB 080100Z 15006KT 20SM FEW170 BKN250 19/07 A3004 RMK AC2CI3 SLP174 DENSITY ALT 1800FT,2024-08-08T01:00:00Z,19,7,20,30.04
CYRV,50.958,-118.176,350,5,5.75,CYRV 080100Z AUTO 35005KT 290V010 9SM SCT150 29/10 A3003 RMK SLP166 DENSITY ALT 3300FT,2024-08-08T01:00:00Z,29,10,9,30.03
CYRT,62.811,-92.1,350,11,12.66,CYRT 080100Z 35011G16KT 15SM FEW053 SCT250 18/09 A3014 RMK SC2CI1 SLP210,2024-08-08T01:00:00Z,18,9,15,30.14
CYRQ,46.358,-72.68,0,0,0.0,CYRQ 080100Z AUTO 00000KT 9SM CLR 16/13 A3006 RMK SLP183,2024-08-08T01:00:00Z,16,13,9,30.06
CYRJ,48.523,-72.266,240,3,3.45,CYRJ 080100Z 24003KT 25SM FEW040 SCT062 BKN100 13/11 A3003 RMK SC1SC4AC1 SC TR SLP176,2024-08-08T01:00:00Z,13,11,25,30.03
CYRB,74.713,-94.982,110,8,9.21,CYRB 080100Z 11008KT 30SM SCT220 06/04 A2971 RMK CI4 SLP068,2024-08-08T01:00:00Z,6,4,30,29.71
CYQZ,53.027,-122.506,20,4,4.6,CYQZ 080100Z AUTO 02004KT 320V040 9SM CLR 28/07 A3011 RMK SLP202 DENSITY ALT 3500FT,2024-08-08T01:00:00Z,28,7,9,30.11
CYQY,46.166,-60.049,230,6,6.9,CYQY 080100Z 23006KT 15SM SCT085 SCT220 17/13 A2998 RMK AC3CI1 SLP154 DENSITY ALT 500FT,2024-08-08T01:00:00Z,17,13,15,29.98
CYQX,48.946,-54.576,250,8,9.21,CYQX 080100Z 25008KT 15SM SCT080 BKN110 17/09 A2985 RMK AC3AC3 SLP111 DENSITY ALT 1000FT,2024-08-08T01:00:00Z,17,9,15,29.85
CYQW,52.769,-108.251,100,7,8.06,CYQW 080100Z AUTO 10007KT 030V120 9SM CLR 18/05 A3030 RMK SLP271 DENSITY ALT 2200FT,2024-08-08T01:00:00Z,18,5,9,30.30
CYQV,51.26,-102.461,20,22,25.32,CYQV 080100Z AUTO 02022G30KT 9SM FEW031 BKN081 13/08 A3019 RMK SLP240,2024-08-08T01:00:00Z,13,8,9,30.19
CYQU,55.182,-118.882,100,10,11.51,CYQU 080100Z 10010KT 080V150 15SM FEW060 24/09 A3023 RMK CU1 CU TR SLP245 DENSITY ALT 3400FT,2024-08-08T01:00:00Z,24,9,15,30.23
CYQT,48.374,-89.33,220,7,8.06,CYQT 080100Z 22007KT 20SM BKN070 OVC220 20/14 A2986 RMK AC7CI1 SLP115 DENSITY ALT 1600FT,2024-08-08T01:00:00Z,20,14,20,29.86
CYQR,50.427,-104.67,360,16,18.41,CYQR 080100Z 36016G21KT 15SM FEW048 FEW160 FEW280 16/04 A3024 RMK CU1AC1CI1 AC TR CI TR SLP253 DENSITY ALT 2100FT,2024-08-08T01:00:00Z,16,4,15,30.24
CYQQ,49.712,-124.895,40,4,4.6,CYQQ 080100Z 04004KT 20SM FEW050 SCT250 26/14 A3006 RMK CU1CI4 DENSITY ALT 1421FT FU SLP178,2024-08-08T01:00:00Z,26,14,20,30.06
CYQM,46.107,-64.682,230,7,8.06,CYQM 080100Z 23007KT 15SM BKN030 20/12 A3000 RMK CU7 SLP162 DENSITY ALT 800FT,2024-08-08T01:00:00Z,20,12,15,30.00
CYQL,49.627,-112.792,0,0,0.0,CYQL 080100Z 00000KT 8SM SCT037 BKN075 BKN100 18/10 A3029 RMK FU1SC2AC3AC1 SLP260 DENSITY ALT 3700FT,2024-08-08T01:00:00Z,18,10,8,30.29
CYQK,49.791,-94.361,320,7,8.06,CYQK 080100Z 32007KT 20SM BKN022TCU BKN200 16/12 A2988 RMK TCU6CI1 SLP124 DENSITY ALT 1900FT,2024-08-08T01:00:00Z,16,12,20,29.88
CYQI,43.831,-66.088,250,6,6.9,CYQI 080100Z 25006KT 15SM SKC 13/13 A3006 RMK SLP182,2024-08-08T01:00:00Z,13,13,15,30.06
CYQH,60.116,-128.832,VRB,2,2.3,CYQH 080100Z VRB02KT 30SM SKC 29/06 A3011 RMK FU SLP201 DENSITY ALT 4200FT,2024-08-08T01:00:00Z,29,6,30,30.11
CYQG,42.269,-82.963,40,9,10.36,CYQG 080100Z AUTO 04009KT 9SM CLR 21/16 A2995 RMK SLP141 DENSITY ALT 1500FT,2024-08-08T01:00:00Z,21,16,9,29.95
CYQF,52.179,-113.903,70,3,3.45,CYQF 080100Z AUTO 07003KT 9SM BKN100 OVC120 15/12 A3030 RMK SLP277 DENSITY ALT 3300FT,2024-08-08T01:00:00Z,15,12,9,30.30
CYQD,53.975,-101.089,320,10,11.51,CYQD 080100Z AUTO 32010G18KT 9SM SCT086 BKN170 16/08 A3018 RMK SLP228,2024-08-08T01:00:00Z,16,8,9,30.18
CYQB,46.791,-71.396,VRB,2,2.3,CYQB 080100Z VRB02KT 15SM FEW070 SCT240 15/11 A3006 RMK AC1CI3 AC TR SLP182,2024-08-08T01:00:00Z,15,11,15,30.06
CYQA,44.971,-79.303,VRB,2,2.3,CYQA 080100Z AUTO VRB02KT 9SM CLR 16/12 A3002 RMK SLP168 DENSITY ALT 1200FT,2024-08-08T01:00:00Z,16,12,9,30.02
CYPY,58.766,-111.117,100,6,6.9,CYPY 080100Z AUTO 10006KT 060V140 9SM CLR 21/08 A3029 RMK SLP266 DENSITY ALT 1200FT,2024-08-08T01:00:00Z,21,8,9,30.29
CYPX,60.045,-77.281,300,12,13.81,CYPX 080100Z AUTO 30012KT 9SM BKN180 09/08 A2987 RMK SLP120,2024-08-08T01:00:00Z,9,8,9,29.87
CYPW,49.835,-124.499,280,6,6.9,CYPW 080100Z 28006KT 20SM BKN250 24/17 A3007 RMK CI5 FU ALF DIST W SLP183 DENSITY ALT 1500FT,2024-08-08T01:00:00Z,24,17,20,30.07
CYPR,54.291,-130.451,270,3,3.45,CYPR 080100Z AUTO 27003KT 220V300 3/8SM FG VV002 13/13 A3018 RMK SLP223,2024-08-08T01:00:00Z,13,13,0.38,30.18
CYPO,54.988,-85.439,20,6,6.9,CYPO 080100Z AUTO 02006KT 9SM CLR 11/05 A3003 RMK SLP171,2024-08-08T01:00:00Z,11,5,9,30.03
CYPH,58.47,-78.08,350,10,11.51,CYPH 080100Z AUTO 35010KT 9SM CLR 10/08 A2992 RMK SLP134,2024-08-08T01:00:00Z,10,8,9,29.92
CYPG,49.903,-98.284,310,15,17.26,CYPG 080100Z 31015G23KT 15SM FEW040 BKN075 BKN250 16/09 A3003 RMK SC1AC5CI1 DENSITY ALT 1201FT TCU ASOCTD SLP170,2024-08-08T01:00:00Z,16,9,15,30.03
CYPE,56.228,-117.453,200,3,3.45,CYPE 080100Z AUTO 20003KT 160V220 9SM OVC100 23/11 A3024 RMK SLP250 DENSITY ALT 2900FT,2024-08-08T01:00:00Z,23,11,9,30.24
CYPD,45.657,-61.374,220,4,4.6,CYPD 080100Z AUTO 22004KT 180V250 9SM SCT071 SCT081 18/14 A3000 RMK SLP162 DENSITY ALT 700FT,2024-08-08T01:00:00Z,18,14,9,30.00
CYPA,53.217,-105.679,350,7,8.06,CYPA 080100Z 35007KT 15SM BKN075 17/06 A3027 RMK AC6 SLP264,2024-08-08T01:00:00Z,17,6,15,30.27
CYOW,45.307,-75.66,110,4,4.6,CYOW 080100Z 11004KT 15SM FEW240 19/11 A3004 RMK CI1 SLP176 DENSITY ALT 800FT,2024-08-08T01:00:00Z,19,11,15,30.04
CYOO,43.921,-78.899,60,3,3.45,CYOO 080100Z AUTO 06003KT 9SM CLR 19/14 A3001 RMK SLP163 DENSITY ALT 1000FT,2024-08-08T01:00:00Z,19,14,9,30.01
CYOJ,58.628,-117.174,120,8,9.21,CYOJ 080100Z 12008KT 080V140 15SM FEW052 25/10 A3020 RMK CF1 CF TR LAST STFD OBS/NXT 081400Z SLP235 DENSITY ALT 2300FT,2024-08-08T01:00:00Z,25,10,15,30.20
CYOD,54.41,-110.287,50,7,8.06,CYOD 080100Z 05007KT 15SM SKC 20/05 A3030 RMK DENSITY ALT 2438FT SLP269,2024-08-08T01:00:00Z,20,5,15,30.30
CYNM,49.759,-77.793,10,6,6.9,CYNM 080100Z AUTO 01006KT 230V020 9SM FEW100 OVC130 18/10 A3001 RMK SLP169 DENSITY ALT 1400FT,2024-08-08T01:00:00Z,18,10,9,30.01
CYNE,53.958,-97.845,360,6,6.9,CYNE 080100Z AUTO 36006KT 320V030 9SM SCT071 BKN100 OVC120 13/ A3005 RMK DP MISG SLP187,2024-08-08T01:00:00Z,13,,9,30.05
CYND,45.52,-75.563,30,4,4.6,CYND 080100Z 03004KT 15SM FEW240 17/13 A3004 RMK CI1 LAST STFD OBS/NXT 081100Z SLP176,2024-08-08T01:00:00Z,17,13,15,30.04
CYNA,50.19,-61.789,280,13,14.96,CYNA 080100Z AUTO 28013G20KT 9SM FEW170 OVC190 09/06 A2985 RMK SLP109,2024-08-08T01:00:00Z,9,6,9,29.85
CYMX,45.68,-74.038,VRB,3,3.45,CYMX 080100Z VRB03KT 25SM SKC 15/12 A3005 RMK SLP177,2024-08-08T01:00:00Z,15,12,25,30.05
CYMT,49.779,-74.527,VRB,2,2.3,CYMT 080100Z AUTO VRB02KT 9SM FEW076 14/11 A3002 RMK SLP177,2024-08-08T01:00:00Z,14,11,9,30.02
CYMM,56.65,-111.221,160,4,4.6,CYMM 080100Z AUTO 16004KT 120V180 9SM CLR 22/06 A3028 RMK SLP263 DENSITY ALT 1900FT,2024-08-08T01:00:00Z,22,6,9,30.28
CYMH,52.304,-55.833,260,4,4.6,CYMH 080100Z AUTO 26004KT 9SM BKN076 14/12 A2969 RMK SLP056,2024-08-08T01:00:00Z,14,12,9,29.69
CYMA,63.616,-135.88,240,6,6.9,CYMA 080100Z 24006KT 160V290 20SM SKC 31/08 A2997 RMK SLP154 DENSITY ALT 3800FT,2024-08-08T01:00:00Z,31,8,20,29.97
CYLW,49.953,-119.375,320,9,10.36,CYLW 080100Z AUTO 32009G18KT 9SM CLR 30/07 A3003 RMK SLP165 DENSITY ALT 3400FT,2024-08-08T01:00:00Z,30,7,9,30.03
CYLL,53.312,-110.074,60,7,8.06,CYLL 080100Z 06007KT 15SM SKC 18/06 A3029 RMK SLP268 DENSITY ALT 2700FT,2024-08-08T01:00:00Z,18,6,15,30.29
CYLD,47.818,-83.358,300,2,2.3,CYLD 080100Z 30002KT 15SM SCT064 BKN130 18/10 A2999 RMK SC4AC2 LAST STFD OBS NEXT 08 1000 UTC SLP164 DENSITY ALT 2100FT,2024-08-08T01:00:00Z,18,10,15,29.99
CYKY,51.517,-109.175,90,3,3.45,CYKY 080100Z 09003KT 050V120 6SM FU FEW110 SCT240 16/09 A3027 RMK AC1CI3 SLP261 DENSITY ALT 2500FT,2024-08-08T01:00:00Z,16,9,6,30.27
CYKJ,57.256,-105.618,330,4,4.6,CYKJ 080100Z AUTO 33004KT 9SM CLR 18/03 A3029 RMK SLP275 DENSITY ALT 2100FT,2024-08-08T01:00:00Z,18,3,9,30.29
CYKF,43.462,-80.386,110,5,5.75,CYKF 080100Z AUTO 11005KT 9SM CLR 17/13 A3001 RMK SLP164 DENSITY ALT 1500FT,2024-08-08T01:00:00Z,17,13,9,30.01
CYKA,50.704,-120.444,330,4,4.6,CYKA 080100Z 33004KT 310V040 40SM FEW120 32/04 A3001 RMK CU2 SLP162 DENSITY ALT 3200FT,2024-08-08T01:00:00Z,32,4,40,30.01
CYJT,48.545,-58.564,300,5,5.75,CYJT 080100Z 30005KT 15SM SCT075 16/11 A2989 RMK AC4 SLP125 DENSITY ALT 300FT,2024-08-08T01:00:00Z,16,11,15,29.89
CYIO,72.694,-77.957,230,12,13.81,CYIO 080100Z AUTO 23012G19KT 9SM CLR 14/08 A2973 RMK SLP073,2024-08-08T01:00:00Z,14,8,9,29.73
CYIN,51.265,-121.681,360,9,10.36,CYIN 080100Z AUTO 36009KT 310V020 9SM FEW096 25/03 A3018 RMK SLP216 DENSITY ALT 5400FT,2024-08-08T01:00:00Z,25,3,9,30.18
CYHZ,44.8781,-63.5136,210,8,9.21,CYHZ 080100Z 21008KT 15SM SKC 16/14 A3004 RMK SLP175,2024-08-08T01:00:00Z,16,14,15,30.04
CYHY,60.839,-115.781,70,6,6.9,CYHY 080100Z CCA 07006KT 14SM SKC 25/12 A3018 RMK FU SLP228 DENSITY ALT 1600FT,2024-08-08T01:00:00Z,25,12,14,30.18
CYHM,43.173,-79.936,60,9,10.36,CYHM 080100Z 06009KT 15SM FEW150 FEW250 17/12 A3000 RMK AC1CI2 AC TR SLP159 DENSITY ALT 1200FT,2024-08-08T01:00:00Z,17,12,15,30.00
CYHK,68.633,-95.851,220,11,12.66,CYHK 080100Z AUTO 22011KT 9SM CLR 13/08 A3009 RMK SLP196,2024-08-08T01:00:00Z,13,8,9,30.09
CYHE,49.37,-121.493,290,10,11.51,CYHE 080100Z AUTO 29010G19KT 260V320 9SM CLR 27/18 A2999 RMK SLP157 DENSITY ALT 1500FT,2024-08-08T01:00:00Z,27,18,9,29.99
CYHD,49.83,-92.74,290,8,9.21,CYHD 080100Z AUTO 29008KT 9SM SCT041 19/14 A2982 RMK SLP105 DENSITY ALT 2300FT,2024-08-08T01:00:00Z,19,14,9,29.82
CYGX,56.359,-94.704,50,8,9.21,CYGX 080100Z 05008G15KT 15SM FEW071 BKN240 17/08 A3012 RMK AC1CC5 SLP207 DENSITY ALT 700FT,2024-08-08T01:00:00Z,17,8,15,30.12
CYGW,55.283,-77.76,230,7,8.06,CYGW 080100Z AUTO 23007KT 9SM BKN014 OVC021 08/06 A3001 RMK SLP164,2024-08-08T01:00:00Z,8,6,9,30.01
CYGV,50.286,-63.606,270,12,13.81,CYGV 080100Z AUTO 27012G21KT 9SM SCT076 SCT140 BKN170 OVC200 12/09 A2988 RMK SLP122,2024-08-08T01:00:00Z,12,9,9,29.88
CYGR,47.425,-61.775,340,13,14.96,CYGR 080100Z 34013KT 15SM FEW270 18/14 A2995 RMK CI1 CI TR SLP146 DENSITY ALT 400FT,2024-08-08T01:00:00Z,18,14,15,29.95
CYGP,48.777,-64.478,280,5,5.75,CYGP 080100Z 28005KT 200V330 15SM FEW062 13/07 A2996 RMK SC1 SC TR SLP148,2024-08-08T01:00:00Z,13,7,15,29.96
CYGL,53.625,-77.7,300,3,3.45,CYGL 080100Z 30003KT 15SM BKN023 11/07 A3001 RMK SC7 SLP173,2024-08-08T01:00:00Z,11,7,15,30.01
CYGK,44.223,-76.599,40,5,5.75,CYGK 080100Z 04005KT 15SM FEW250 21/11 A3003 RMK CI2 SLP170 DENSITY ALT 1000FT,2024-08-08T01:00:00Z,21,11,15,30.03
CYFS,61.76,-121.23,150,9,10.36,CYFS 080100Z 15009KT 090V170 15SM FEW250 30/11 A3006 RMK FU1CI1 CI TR LAST STFD OBS/NXT 1330Z SLP183 DENSITY ALT 2300FT,2024-08-08T01:00:00Z,30,11,15,30.06
CYFC,45.873,-66.539,330,4,4.6,CYFC 080100Z AUTO 33004KT 190V350 9SM CLR 16/13 A3001 RMK SLP164,2024-08-08T01:00:00Z,16,13,9,30.01
CYFB,63.75,-68.544,0,0,0.0,CYFB 080100Z 00000KT 30SM FEW035 SCT079 11/03 A2976 RMK SC1AC2 SLP080,2024-08-08T01:00:00Z,11,3,30,29.76
CYEV,68.309,-133.5,190,9,10.36,CYEV 080100Z 19009KT 150V220 15SM FEW270 34/10 A2980 RMK CI2 SLP096 DENSITY ALT 2600FT,2024-08-08T01:00:00Z,34,10,15,29.80
CYET,53.58,-116.455,70,8,9.21,CYET 080100Z AUTO 07008KT 010V100 9SM CLR 19/09 A3028 RMK SLP268 DENSITY ALT 3800FT,2024-08-08T01:00:00Z,19,9,9,30.28
CYEN,49.207,-102.963,360,13,14.96,CYEN 080100Z AUTO 36013G18KT 9SM SCT210 BKN230 17/05 A3017 RMK SLP225 DENSITY ALT 2300FT,2024-08-08T01:00:00Z,17,5,9,30.17
CYEK,61.098,-94.072,170,3,3.45,CYEK 080100Z AUTO 17003KT 090V180 9SM FEW060 14/10 A3018 RMK SLP223,2024-08-08T01:00:00Z,14,10,9,30.18
CYDQ,55.741,-120.188,150,9,10.36,CYDQ 080100Z AUTO 15009KT 9SM CLR 25/07 A3019 RMK SLP234 DENSITY ALT 3600FT,2024-08-08T01:00:00Z,25,7,9,30.19
CYDN,51.1,-100.057,330,9,10.36,CYDN 080100Z AUTO 33009KT 9SM FEW024 BKN055 BKN069 13/09 A3011 RMK SLP204,2024-08-08T01:00:00Z,13,9,9,30.11
CYDL,58.426,-130.025,230,9,10.36,CYDL 080100Z AUTO 23009KT 210V290 9SM CLR 27/08 A3016 RMK SLP207 DENSITY ALT 4400FT,2024-08-08T01:00:00Z,27,8,9,30.16
CYDF,49.212,-57.394,240,8,9.21,CYDF 080100Z 24008KT 15SM FEW045 FEW075 15/11 A2986 RMK SC1AC1 SLP113 DENSITY ALT 300FT,2024-08-08T01:00:00Z,15,11,15,29.86
CYDC,49.468,-120.514,360,7,8.06,CYDC 080100Z 36007KT 350V080 25SM FEW055 FEW085 30/04 A3006 RMK FU1AC1 FU TR FU SW/ LAST STFD OBS/ NEXT 08 1300Z SLP169 DENSITY ALT 4500FT,2024-08-08T01:00:00Z,30,4,25,30.06
CYDB,61.37,-139.032,120,14,16.11,CYDB 080100Z 12014G23KT 15SM FEW110 27/07 A3000 RMK AC1 LAST STFD OBS/NEXT 08 1300Z SLP175 DENSITY ALT 4500FT,2024-08-08T01:00:00Z,27,7,15,30.00
CYDA,64.044,-139.127,100,6,6.9,CYDA 080100Z 10006KT 050V140 20SM FEW230 31/07 A2991 RMK CI1 FU SLP135 DENSITY ALT 3300FT,2024-08-08T01:00:00Z,31,7,20,29.91
CYCY,70.484,-68.515,310,13,14.96,CYCY 080100Z AUTO 31013G18KT 9SM OVC046 09/06 A2970 RMK SLP061,2024-08-08T01:00:00Z,9,6,9,29.70
CYCX,45.839,-66.45,0,0,0.0,CYCX 080100Z 00000KT 15SM FEW070 16/15 A3001 RMK AC1 DENSITY ALT 452FT SLP161,2024-08-08T01:00:00Z,16,15,15,30.01
CYCQ,55.689,-121.62,30,4,4.6,CYCQ 080100Z 03004KT 360V060 35SM FEW060 FEW140 FEW240 27/07 A3014 RMK CU1AC1CI1 CU TR FU DIST S-W LAST STFD OBS/NXT 081300Z SLP217 DENSITY ALT 3600FT,2024-08-08T01:00:00Z,27,7,35,30.14
CYCP,52.129,-119.29,VRB,2,2.3,CYCP 080100Z VRB02KT 15SM FEW085 SCT100 27/06 A3010 RMK CU2AC1 LAST STFD OBS/NXT 081300Z SLP198 DENSITY ALT 4000FT,2024-08-08T01:00:00Z,27,6,15,30.10
CYCO,67.817,-115.135,240,8,9.21,CYCO 080100Z 24008KT 8SM SKC 23/10 A2999 RMK FU7 FU SLP160 DENSITY ALT 1000FT,2024-08-08T01:00:00Z,23,10,8,29.99
CYCK,42.307,-82.085,60,6,6.9,CYCK 080100Z AUTO 06006KT 9SM CLR 19/14 A2994 RMK SLP140 DENSITY ALT 1300FT,2024-08-08T01:00:00Z,19,14,9,29.94
CYCG,49.295,-117.634,340,4,4.6,CYCG 080100Z 34004KT 15SM FEW100 31/05 A2999 RMK CU1 FU SLP152 DENSITY ALT 3800FT,2024-08-08T01:00:00Z,31,5,15,29.99
CYCD,49.052,-123.874,30,6,6.9,CYCD 080100Z 03006KT 30SM FEW048 FEW250 27/15 A3004 RMK CU1CI2 CU TR SLP174 DENSITY ALT 1400FT,2024-08-08T01:00:00Z,27,15,30,30.04
CYCB,69.106,-105.116,230,7,8.06,CYCB 080100Z 23007KT 10SM FEW230 14/07 A3003 RMK CI1 FU ALF SLP172,2024-08-08T01:00:00Z,14,7,10+,30.03
CYBX,51.442,-57.188,300,5,5.75,CYBX 080100Z 30005KT 15SM FEW059 13/12 A2974 RMK SC2 SLP073,2024-08-08T01:00:00Z,13,12,15,29.74
CYBW,51.108,-114.382,40,3,3.45,CYBW 080100Z AUTO 04003KT 9SM OVC081 16/10 A3033 RMK SLP279 DENSITY ALT 4500FT,2024-08-08T01:00:00Z,16,10,9,30.33
CYBR,49.91,-99.945,360,11,12.66,CYBR 080100Z 36011G18KT 15SM SCT060 BKN250 15/07 A3008 RMK SC3CI3 SLP195,2024-08-08T01:00:00Z,15,7,15,30.08
CYBL,49.951,-125.269,110,3,3.45,CYBL 080100Z 11003KT 060V230 30SM FEW060 SCT260 27/17 A3006 RMK CU1CI4 CU TR SLP180 DENSITY ALT 1700FT,2024-08-08T01:00:00Z,27,17,30,30.06
CYBK,64.306,-96.078,360,10,11.51,CYBK 080100Z 36010KT 20SM FEW040 SCT230 20/09 A3019 RMK SC1CI3 SC TR SLP226 DENSITY ALT 400FT,2024-08-08T01:00:00Z,20,9,20,30.19
CYBG,48.331,-70.989,200,5,5.75,CYBG 080100Z 20005KT 25SM SCT080 13/09 A3004 RMK AC4 DENSITY ALT 405FT SLP176,2024-08-08T01:00:00Z,13,9,25,30.04
CYBD,52.388,-126.589,280,15,17.26,CYBD 080100Z 28015KT 15SM FEW090 24/16 A3005 RMK ACC1 ACC TR HZ LAST STFD OBS/NXT 081300Z/ SLP178 DENSITY ALT 1100FT,2024-08-08T01:00:00Z,24,16,15,30.05
CYAZ,49.08,-125.767,290,8,9.21,CYAZ 080100Z 29008KT 15SM FEW230 18/15 A3009 RMK CI2 FG OFSHR LAST STFD OBS/NXT 081300Z SLP192 DENSITY ALT 300FT,2024-08-08T01:00:00Z,18,15,15,30.09
CYAY,51.39,-56.081,240,12,13.81,CYAY 080100Z AUTO 24012KT 9SM CLR 14/11 A2971 RMK SLP065,2024-08-08T01:00:00Z,14,11,9,29.71
CYAM,46.484,-84.504,170,4,4.6,CYAM 080100Z 17004KT 130V200 20SM FEW030 FEW150 BKN230 BKN240 BKN260 21/13 A2999 RMK CU1AC2CC3CI1CI1 CU TR SLP158 DENSITY ALT 1400FT,2024-08-08T01:00:00Z,21,13,20,29.99
CYAH,53.757,-73.676,250,6,6.9,CYAH 080100Z AUTO 25006KT 9SM OVC041 11/08 A2997 RMK SLP164,2024-08-08T01:00:00Z,11,8,9,29.97
CXZV,50.217,-66.26,260,4,4.6,CXZV 080100Z AUTO 26004KT 14/08 RMK AO1 SLP140 T01430081 53016,2024-08-08T01:00:00Z,14.3,8.1,,
CXZC,51.292,-80.618,360,3,3.45,CXZC 080100Z AUTO 36003KT 13/10 RMK AO1 SLP169 T01300100 55000,2024-08-08T01:00:00Z,13,10,,
CXYH,61.242,-123.742,210,5,5.75,CXYH 080100Z AUTO 21005KT 29/14 RMK AO1 SLP158 T02930139,2024-08-08T01:00:00Z,29.3,13.9,,
CXWN,49.889,-97.13,320,5,5.75,CXWN 080100Z AUTO 32005KT 17/08 RMK AO1 SLP152 T01740083 53005,2024-08-08T01:00:00Z,17.4,8.3,,
CXVN,43.183,-79.4,80,3,3.45,CXVN 080100Z AUTO 08003KT 20/14 RMK AO1 SLP156 T01980141 55001,2024-08-08T01:00:00Z,19.8,14.1,,
CXVM,53.344,-110.882,70,5,5.75,CXVM 080100Z AUTO 07005KT 20/09 RMK AO1 T01980087,2024-08-08T01:00:00Z,19.8,8.7,,
CXTV,68.746,-133.502,200,9,10.36,CXTV 080100Z AUTO 20009KT 33/11 RMK AO1 SLP094 T03260106 58009,2024-08-08T01:00:00Z,32.6,10.6,,
CXTO,43.667,-79.4,,,,CXTO 080100Z AUTO 22/14 RMK AO1 SLP159 T02170139 55001,2024-08-08T01:00:00Z,21.7,13.9,,
CXTN,69.199,-122.359,260,15,17.26,CXTN 080100Z AUTO 26015KT 26/11 RMK AO1 PK WND 25023/0013 SLP165 T02620114 50000,2024-08-08T01:00:00Z,26.2,11.4,,
CXTH,53.625,-111.678,60,6,6.9,CXTH 080100Z AUTO 06006KT 18/10 RMK AO1 T01840100,2024-08-08T01:00:00Z,18.4,10,,
CXTD,45.608,-61.68,200,11,12.66,CXTD 080100Z AUTO 20011KT 18/14 RMK AO1 SLP160 T01770144 52016,2024-08-08T01:00:00Z,17.7,14.4,,
CXSH,46.564,-72.733,330,2,2.3,CXSH 080100Z AUTO 33002KT 16/12 RMK AO1 SLP184 T01630115 53008,2024-08-08T01:00:00Z,16.3,11.5,,
CXSE,73.766,-105.296,260,16,18.41,CXSE 080100Z AUTO 26016KT 20/13 RMK AO1 PK WND 26020/0055 SLP051 T01970130 56017,2024-08-08T01:00:00Z,19.7,13,,
CXRL,54.503,-111.691,120,5,5.75,CXRL 080100Z AUTO 12005KT 20/10 RMK AO1 T01950099,2024-08-08T01:00:00Z,19.5,9.9,,
CXRH,49.57,-57.878,270,9,10.36,CXRH 080100Z AUTO 27009G16KT 15/11 RMK AO1 PK WND 26018/0042 SLP113 T01530114 53012,2024-08-08T01:00:00Z,15.3,11.4,,
CXRB,74.716,-94.983,130,6,6.9,CXRB 080100Z AUTO 13006KT 06/04 RMK AO1 SLP063 T00550036 56022,2024-08-08T01:00:00Z,5.5,3.6,,
CXPC,45.344,-80.044,,,,CXPC 080100Z AUTO 20/11 RMK AO1 SLP167 T01970114 55003,2024-08-08T01:00:00Z,19.7,11.4,,
CXOX,55.146,-105.27,350,3,3.45,CXOX 080100Z AUTO 35003KT 16/06 RMK AO1 SLP268 T01580057 57003,2024-08-08T01:00:00Z,15.8,5.7,,
CXNP,45.76,-64.241,200,7,8.06,CXNP 080100Z AUTO 20007KT 16/12 RMK AO1 SLP167 T01620117 53018,2024-08-08T01:00:00Z,16.2,11.7,,
CXNM,46.818,-60.673,250,9,10.36,CXNM 080100Z AUTO 25009KT 15/11 RMK AO1 T01480111,2024-08-08T01:00:00Z,14.8,11.1,,
CXMY,44.984,-62.484,,,,CXMY 080100Z AUTO 14/14 RMK AO1 T01370137,2024-08-08T01:00:00Z,13.7,13.7,,
CXMM,56.649,-111.221,150,4,4.6,CXMM 080100Z AUTO 15004KT 22/05 RMK AO1 SLP265 T02180054 56006,2024-08-08T01:00:00Z,21.8,5.4,,
CXMI,44.602,-63.534,260,12,13.81,CXMI 080100Z AUTO 26012KT 16/12 RMK AO1 SLP167 T01600123 52013,2024-08-08T01:00:00Z,16,12.3,,
CXMG,56.974,-117.451,220,4,4.6,CXMG 080100Z AUTO 22004KT 24/14 RMK AO1 T02440136,2024-08-08T01:00:00Z,24.4,13.6,,
CXMD,49.188,-98.084,340,7,8.06,CXMD 080100Z AUTO 34007KT 17/06 RMK AO1 PK WND 35019/0000 SLP168 T01680057 53006,2024-08-08T01:00:00Z,16.8,5.7,,
CXLL,61.125,-122.851,220,1,1.15,CXLL 080100Z AUTO 22001KT 31/14 RMK AO1 SLP182 T03120135 57012,2024-08-08T01:00:00Z,31.2,13.5,,
CXLC,63.601,-113.866,200,14,16.11,CXLC 080100Z AUTO 20014KT 23/04 RMK AO1 PK WND 20017/0059 SLP247 T02270044 56008,2024-08-08T01:00:00Z,22.7,4.4,,
CXLB,44.36,-64.296,240,4,4.6,CXLB 080100Z AUTO 24004KT 15/14 RMK AO1 SLP167 T01450135 53015,2024-08-08T01:00:00Z,14.5,13.5,,
CXKT,45.067,-64.478,210,2,2.3,CXKT 080100Z AUTO 21002KT 17/14 RMK AO1 SLP172 T01710138 53019,2024-08-08T01:00:00Z,17.1,13.8,,
CXKM,52.849,-111.873,60,3,3.45,CXKM 080100Z AUTO 06003KT 19/12 RMK AO1 T01880117,2024-08-08T01:00:00Z,18.8,11.7,,
CXKI,48.15,-80,10,1,1.15,CXKI 080100Z AUTO 01001KT 15/12 RMK AO1 SLP160 T01510116 55001,2024-08-08T01:00:00Z,15.1,11.6,,
CXKE,45.005,-75.637,0,0,0.0,CXKE 080100Z AUTO 00000KT 16/13 RMK AO1 SLP176 T01560128 53001,2024-08-08T01:00:00Z,15.6,12.8,,
CXKA,49.405,-82.443,100,1,1.15,CXKA 080100Z AUTO 10001KT 19/12 RMK AO1 SLP157 T01860115 56006,2024-08-08T01:00:00Z,18.6,11.5,,
CXIB,46.663,-60.406,230,3,3.45,CXIB 080100Z AUTO 23003KT 15/12 RMK AO1 SLP146 T01460115 52014,2024-08-08T01:00:00Z,14.6,11.5,,
CXHP,55.396,-116.48,170,9,10.36,CXHP 080100Z AUTO 17009KT 20/12 RMK AO1 T02010123,2024-08-08T01:00:00Z,20.1,12.3,,
CXHM,43.286,-79.905,60,4,4.6,CXHM 080100Z AUTO 06004KT 21/14 RMK AO1 SLP157 T02070136 56005,2024-08-08T01:00:00Z,20.7,13.6,,
CXHD,53.185,-112.246,60,4,4.6,CXHD 080100Z AUTO 06004KT 20/10 RMK AO1 T01980097,2024-08-08T01:00:00Z,19.8,9.7,,
CXHA,42.033,-82.896,60,2,2.3,CXHA 080100Z AUTO 06002KT 20/16 RMK AO1 SLP135 T01950158 55001,2024-08-08T01:00:00Z,19.5,15.8,,
CXGH,50.631,-96.984,310,10,11.51,CXGH 080100Z AUTO 31010KT 16/08 RMK AO1 PK WND 31021/0021 SLP147 T01570081 51004,2024-08-08T01:00:00Z,15.7,8.1,,
CXFR,56.081,-118.44,120,8,9.21,CXFR 080100Z AUTO 12008KT 22/10 RMK AO1 T02150104,2024-08-08T01:00:00Z,21.5,10.4,,
CXET,44.234,-79.779,140,4,4.6,CXET 080100Z AUTO 14004KT 18/13 RMK AO1 SLP166 T01750128 55000,2024-08-08T01:00:00Z,17.5,12.8,,
CXEG,53.307,-113.606,200,2,2.3,CXEG 080100Z AUTO 20002KT 20/10 RMK AO1 SLP262 T02020101 56005,2024-08-08T01:00:00Z,20.2,10.1,,
CXEC,53.573,-113.517,130,6,6.9,CXEC 080100Z AUTO 13006KT 20/10 RMK AO1 SLP253 T01950097 56003,2024-08-08T01:00:00Z,19.5,9.7,,
CXEA,50.631,-93.221,320,4,4.6,CXEA 080100Z AUTO 32004KT 17/15 RMK AO1 SLP106 T01720148 53005,2024-08-08T01:00:00Z,17.2,14.8,,
CXDW,49.4,-98.319,330,12,13.81,CXDW 080100Z AUTO 33012G17KT 16/07 RMK AO1 PK WND 33017/0050 SLP172 T01550072 53004,2024-08-08T01:00:00Z,15.5,7.2,,
CXDK,61.257,-124.468,130,5,5.75,CXDK 080100Z AUTO 13005KT 31/13 RMK AO1 SLP166 T03130133 56012,2024-08-08T01:00:00Z,31.3,13.3,,
CXDI,42.864,-80.545,60,1,1.15,CXDI 080100Z AUTO 06001KT 18/10 RMK AO1 SLP150 T01830098 57003,2024-08-08T01:00:00Z,18.3,9.8,,
CXDE,65.209,-123.434,100,7,8.06,CXDE 080100Z AUTO 10007KT 29/11 RMK AO1 SLP157 T02860109 56011,2024-08-08T01:00:00Z,28.6,10.9,,
CXDB,49.048,-112.808,120,5,5.75,CXDB 080100Z AUTO 12005KT 15/08 RMK AO1 T01470079,2024-08-08T01:00:00Z,14.7,7.9,,
CXCP,50.281,-113.35,50,5,5.75,CXCP 080100Z AUTO 05005KT 16/09 RMK AO1 T01620087,2024-08-08T01:00:00Z,16.2,8.7,,
CXCK,62.115,-136.192,150,10,11.51,CXCK 080100Z AUTO 15010G16KT 31/08 RMK AO1 PK WND 15019/0002 SLP157 T03130080 56019,2024-08-08T01:00:00Z,31.3,8,,
CXCA,49.154,-88.344,160,6,6.9,CXCA 080100Z AUTO 16006KT 19/15 RMK AO1 PK WND 16017/0007 SLP112 T01940154 56007,2024-08-08T01:00:00Z,19.4,15.4,,
CXBO,46.837,-71.197,40,4,4.6,CXBO 080100Z AUTO 04004KT 21/12 RMK AO1 T02050121,2024-08-08T01:00:00Z,20.5,12.1,,
CXBK,50.201,-104.71,360,10,11.51,CXBK 080100Z AUTO 36010G15KT 16/04 RMK AO1 PK WND 35017/0003 SLP246 T01590039 53005,2024-08-08T01:00:00Z,15.9,3.9,,
CXBI,44.484,-79.546,0,0,0.0,CXBI 080100Z AUTO 00000KT 17/12 RMK AO1 SLP172 T01690123 56003,2024-08-08T01:00:00Z,16.9,12.3,,
CXAT,73.006,-85.033,330,6,6.9,CXAT 080100Z AUTO 33006KT 14/09 RMK AO1 SLP096 T01420091 56020,2024-08-08T01:00:00Z,14.2,9.1,,
CXAG,53.917,-112.279,200,3,3.45,CXAG 080100Z AUTO 20003KT 19/13 RMK AO1 T01920130,2024-08-08T01:00:00Z,19.2,13,,
CWZW,60.167,-132.733,180,5,5.75,CWZW 080100Z AUTO 18005KT 27/08 RMK AO1 SLP207 T02730082 56018,2024-08-08T01:00:00Z,27.3,8.2,,
CWZV,51.936,-131.016,,,,CWZV 080100Z AUTO 13/12 RMK AO1 24 0057Z 6013 SLP225 T01260119,2024-08-08T01:00:00Z,12.6,11.9,,
CWZQ,46.547,-61.049,130,8,9.21,CWZQ 080100Z AUTO 13008KT 17/14 RMK AO1 SLP151 T01700135 52009,2024-08-08T01:00:00Z,17,13.5,,
CWZO,48.568,-123.265,170,9,10.36,CWZO 080100Z AUTO 17009KT RMK AO1,2024-08-08T01:00:00Z,,,,
CWZN,47.368,-55.795,270,20,23.02,CWZN 080100Z AUTO 27020KT 17/13 RMK AO1 PK WND 26026/0022 SLP108 T01650134 53015,2024-08-08T01:00:00Z,16.5,13.4,,
CWZL,53.03,-131.602,120,2,2.3,CWZL 080100Z AUTO 12002KT 14/13 RMK AO1 SLP231 T01390133 56013,2024-08-08T01:00:00Z,13.9,13.3,,
CWZG,51.194,-115.552,50,3,3.45,CWZG 080100Z AUTO 05003KT 15/09 RMK AO1 SLP265 T01500087 56006,2024-08-08T01:00:00Z,15,8.7,,
CWZA,49.244,-121.759,220,4,4.6,CWZA 080100Z AUTO 22004KT 27/18 RMK AO1 SLP166 T02690177 57020,2024-08-08T01:00:00Z,26.9,17.7,,
CWYY,49.028,-119.441,320,7,8.06,CWYY 080100Z AUTO 32007KT 32/09 RMK AO1 SLP141 T03160092 56019,2024-08-08T01:00:00Z,31.6,9.2,,
CWYL,51.443,-116.345,80,8,9.21,CWYL 080100Z AUTO 08008KT 15/06 RMK AO1 SLP263 T01500057 58006,2024-08-08T01:00:00Z,15,5.7,,
CWYJ,48.457,-123.305,210,3,3.45,CWYJ 080100Z AUTO 21003KT 25/14 RMK AO1 SLP177 T02460135 56024,2024-08-08T01:00:00Z,24.6,13.5,,
CWXL,49.734,-111.45,320,8,9.21,CWXL 080100Z AUTO 32008KT 15/12 RMK AO1 SLP261 T01530120 53003,2024-08-08T01:00:00Z,15.3,12,,
CWXI,51.022,-57.096,250,13,14.96,CWXI 080100Z AUTO 25013KT 15/12 RMK AO1 PK WND 25023/0009 SLP076 T01520120 53011,2024-08-08T01:00:00Z,15.2,12,,
CWXC,48.894,-71.032,210,2,2.3,CWXC 080100Z AUTO 21002KT 12/10 RMK AO1 SLP176 T01150095 53009,2024-08-08T01:00:00Z,11.5,9.5,,
CWXA,51.083,-115.066,250,1,1.15,CWXA 080100Z AUTO 25001KT 15/10 RMK AO1 SLP295 T01540096 56008,2024-08-08T01:00:00Z,15.4,9.6,,
CWWZ,43.244,-79.218,70,8,9.21,CWWZ 080100Z AUTO 07008KT 19/15 RMK AO1 SLP155 T01900153 56004,2024-08-08T01:00:00Z,19,15.3,,
CWWS,52.819,-97.616,30,36,41.43,CWWS 080100Z AUTO 03036G43KT 13/12 RMK AO1 0PAST HR 3003 PK WND 03050/0038 SLP166 P0008 T01290117 50020,2024-08-08T01:00:00Z,12.9,11.7,,
CWWL,53.493,-130.638,10,13,14.96,CWWL 080100Z AUTO 01013KT 12/12 RMK AO1 SLP222 T01230118 56015,2024-08-08T01:00:00Z,12.3,11.8,,
CWWK,49.018,-122.784,260,3,3.45,CWWK 080100Z AUTO 26003KT 20/15 RMK AO1 SLP178 T02010147 57026,2024-08-08T01:00:00Z,20.1,14.7,,
CWWF,49.695,-103.801,20,14,16.11,CWWF 080100Z AUTO 02014KT 17/03 RMK AO1 PK WND 02020/0020 SLP231 T01680032 53005,2024-08-08T01:00:00Z,16.8,3.2,,
CWWE,43.989,-64.662,220,5,5.75,CWWE 080100Z AUTO 22005KT 11/10 RMK AO1 SLP178 T01090098 53007,2024-08-08T01:00:00Z,10.9,9.8,,
CWWB,43.302,-79.791,80,15,17.26,CWWB 080100Z AUTO 08015KT 22/13 RMK AO1 PK WND 08019/0059 SLP157 T02240131 56005,2024-08-08T01:00:00Z,22.4,13.1,,
CWWA,49.347,-123.193,210,1,1.15,CWWA 080100Z AUTO 21001KT 24/18 RMK AO1 SLP176 T02440175 58024,2024-08-08T01:00:00Z,24.4,17.5,,
CWVU,44.287,-66.342,180,5,5.75,CWVU 080100Z AUTO 18005KT 14/13 RMK AO1 SLP175 T01370127 52011,2024-08-08T01:00:00Z,13.7,12.7,,
CWVT,55.841,-108.421,350,3,3.45,CWVT 080100Z AUTO 35003KT 19/05 RMK AO1 SLP287 T01850053 57006,2024-08-08T01:00:00Z,18.5,5.3,,
CWVQ,45.427,-73.929,160,1,1.15,CWVQ 080100Z AUTO 16001KT 17/12 RMK AO1 SLP174 T01660115 53002,2024-08-08T01:00:00Z,16.6,11.5,,
CWVP,49.64,-109.514,50,3,3.45,CWVP 080100Z AUTO 05003KT 13/08 RMK AO1 SLP256 T01320081 53001,2024-08-08T01:00:00Z,13.2,8.1,,
CWVN,49.058,-107.586,360,3,3.45,CWVN 080100Z AUTO 36003KT 15/12 RMK AO1 SLP247 T01450115 51003,2024-08-08T01:00:00Z,14.5,11.5,,
CWVI,53.505,-112.098,10,5,5.75,CWVI 080100Z AUTO 01005KT 18/12 RMK AO1 SLP259 T01800119 56001,2024-08-08T01:00:00Z,18,11.9,,
CWVH,68.894,-133.943,190,13,14.96,CWVH 080100Z AUTO 19013G19KT ////SM ////// ///// A////,2024-08-08T01:00:00Z,,,,
CWVF,49.106,-123.303,300,5,5.75,CWVF 080100Z AUTO 30005KT 21/18 RMK AO1 T02100177,2024-08-08T01:00:00Z,21,17.7,,
CWUX,48.298,-70.92,210,4,4.6,CWUX 080100Z AUTO 21004KT 12/09 RMK AO1 SLP176 T01240094 50001,2024-08-08T01:00:00Z,12.4,9.4,,
CWUS,49.563,-119.649,330,4,4.6,CWUS 080100Z AUTO 33004KT 30/07 RMK AO1 SLP157 T03000070 56018,2024-08-08T01:00:00Z,30,7,,
CWTY,46.354,-72.516,50,3,3.45,CWTY 080100Z AUTO 05003KT 21/11 RMK AO1 SLP180 T02140109 53009,2024-08-08T01:00:00Z,21.4,10.9,,
CWTT,45.27,-72.17,360,3,3.45,CWTT 080100Z AUTO 36003KT 18/13 RMK AO1 T01770127,2024-08-08T01:00:00Z,17.7,12.7,,
CWTN,47.079,-70.781,330,2,2.3,CWTN 080100Z AUTO 33002KT 14/14 RMK AO1 SLP179 T01420136 53017,2024-08-08T01:00:00Z,14.2,13.6,,
CWTG,49.317,-67.381,260,6,6.9,CWTG 080100Z AUTO 26006KT 11/09 RMK AO1 SLP155 T01090087 51014,2024-08-08T01:00:00Z,10.9,8.7,,
CWTA,45.506,-73.579,180,1,1.15,CWTA 080100Z AUTO 18001KT 21/11 RMK AO1 SLP176 T02070108 53005,2024-08-08T01:00:00Z,20.7,10.8,,
CWSW,49.834,-114.881,310,3,3.45,CWSW 080100Z 31003KT 280V350 20SM FEW035 SCT060 SCT120 18/10 A3028 RMK SC1CU2AC1 AC TR LAST STFD OBS/NXT 081300Z SLP253 DENSITY ALT 4600FT,2024-08-08T01:00:00Z,18,10,20,30.28
CWST,47.354,-70.03,110,5,5.75,CWST 080100Z AUTO 11005KT 15/08 RMK AO1 SLP174 T01510075 51007,2024-08-08T01:00:00Z,15.1,7.5,,
CWSS,45.21,-67.253,0,0,0.0,CWSS 080100Z AUTO 00000KT 17/15 RMK AO1 SLP166 T01670148 53014,2024-08-08T01:00:00Z,16.7,14.8,,
CWSR,53.368,-107.553,50,7,8.06,CWSR 080100Z AUTO 05007KT 15/03 RMK AO1 SLP273 T01540028 53001,2024-08-08T01:00:00Z,15.4,2.8,,
CWSP,48.377,-123.921,290,15,17.26,CWSP 080100Z AUTO 29015KT 12/11 RMK AO1 PK WND 29018/0056 SLP191 T01170112 57021,2024-08-08T01:00:00Z,11.7,11.2,,
CWSL,50.703,-119.291,30,1,1.15,CWSL 080100Z AUTO 03001KT 30/08 RMK AO1 SLP166 T03020080 56017,2024-08-08T01:00:00Z,30.2,8,,
CWSK,49.783,-123.161,190,5,5.75,CWSK 080100Z AUTO 19005KT 28/15 RMK AO1 SLP163 T02770146 56021,2024-08-08T01:00:00Z,27.7,14.6,,
CWSG,49.109,-66.655,250,12,13.81,CWSG 080100Z AUTO 25012KT 15/10 RMK AO1 PK WND 23020/0002 SLP157 T01460102 53016,2024-08-08T01:00:00Z,14.6,10.2,,
CWSF,49.251,-65.325,270,11,12.66,CWSF 080100Z AUTO 27011G19KT 17/07 RMK AO1 PK WND 25020/0042 SLP145 T01660068 53016,2024-08-08T01:00:00Z,16.6,6.8,,
CWSD,46.441,-63.837,20,5,5.75,CWSD 080100Z AUTO 02005KT 17/14 RMK AO1 SLP160 T01680137 53022,2024-08-08T01:00:00Z,16.8,13.7,,
CWSA,43.933,-60.002,,,,CWSA 080100Z AUTO /////KT 8SM CLR 17/15 A3005 RMK WIND MISG SLP179,2024-08-08T01:00:00Z,17,15,8,30.05
CWRZ,48.419,-64.317,280,6,6.9,CWRZ 080100Z AUTO 28006KT 14/08 RMK AO1 SLP147 T01430075 53021,2024-08-08T01:00:00Z,14.3,7.5,,
CWRY,49.133,-112.051,70,2,2.3,CWRY 080100Z AUTO 07002KT 15/09 RMK AO1 SLP266 T01510094 58002,2024-08-08T01:00:00Z,15.1,9.4,,
CWRU,50.112,-127.941,10,18,20.71,CWRU 080100Z AUTO 01018KT 14/13 RMK AO1 PK WND 35020/0049 SLP213 T01390130 57012,2024-08-08T01:00:00Z,13.9,13,,
CWRT,49.628,-114.482,130,4,4.6,CWRT 080100Z AUTO 13004KT 15/08 RMK AO1 SLP264 T01480075 56009,2024-08-08T01:00:00Z,14.8,7.5,,
CWRO,54.161,-131.66,260,13,14.96,CWRO 080100Z AUTO 26013KT 15/13 RMK AO1 PK WND 27017/0005 SLP224 T01450126 58016,2024-08-08T01:00:00Z,14.5,12.6,,
CWRN,45.347,-60.98,230,14,16.11,CWRN 080100Z AUTO 23014KT 17/14 RMK AO1 PK WND 23019/0020 SLP161 T01710136 53015,2024-08-08T01:00:00Z,17.1,13.6,,
CWRM,52.431,-114.907,110,5,5.75,CWRM 080100Z AUTO 11005KT 18/08 RMK AO1 SLP246 T01800077 56006,2024-08-08T01:00:00Z,18,7.7,,
CWRK,45.072,-77.879,0,0,0.0,CWRK 080100Z AUTO 00000KT 15/12 RMK AO1 SLP179 T01480116 55001,2024-08-08T01:00:00Z,14.8,11.6,,
CWRJ,51.565,-107.924,60,7,8.06,CWRJ 080100Z AUTO 06007KT 17/05 RMK AO1 SLP257 T01710052 53002,2024-08-08T01:00:00Z,17.1,5.2,,
CWRA,46.659,-53.073,220,11,12.66,CWRA 080100Z AUTO 22011KT 15/15 RMK AO1 SLP148 T01470146 51010,2024-08-08T01:00:00Z,14.7,14.6,,
CWQV,48.26,-70.116,0,0,0.0,CWQV 080100Z AUTO 00000KT 16/08 RMK AO1 T01630081,2024-08-08T01:00:00Z,16.3,8.1,,
CWQR,50.221,-64.207,300,14,16.11,CWQR 080100Z AUTO 30014KT 09/08 RMK AO1 PK WND 28018/0059 T00890075,2024-08-08T01:00:00Z,8.9,7.5,,
CWQP,43.84,-77.153,50,7,8.06,CWQP 080100Z AUTO 05007KT 18/13 RMK AO1 SLP166 T01820132 53002,2024-08-08T01:00:00Z,18.2,13.2,,
CWQO,48.416,-68.893,220,13,14.96,CWQO 080100Z AUTO 22013KT 10/06 RMK AO1 PK WND 22017/0002 T01010063,2024-08-08T01:00:00Z,10.1,6.3,,
CWQK,48.298,-123.531,260,18,20.71,CWQK 080100Z AUTO 26018KT 11/11 RMK AO1 PK WND 26020/0059 SLP179 T01100110 57025,2024-08-08T01:00:00Z,11,11,,
CWQH,45.369,-71.824,50,5,5.75,CWQH 080100Z AUTO 05005KT 16/10 RMK AO1 SLP186 T01640103 53010,2024-08-08T01:00:00Z,16.4,10.3,,
CWPZ,54.383,-125.959,70,1,1.15,CWPZ 080100Z AUTO 07001KT 30/05 RMK AO1 SLP205 T02980051 58013,2024-08-08T01:00:00Z,29.8,5.1,,
CWPR,49.468,-120.514,30,5,5.75,CWPR 080100Z AUTO 03005KT 30/04 RMK AO1 SLP168 T02980037 56015,2024-08-08T01:00:00Z,29.8,3.7,,
CWPO,49.191,-98.905,320,7,8.06,CWPO 080100Z AUTO 32007KT 14/06 RMK AO1 SLP188 T01430055 53007,2024-08-08T01:00:00Z,14.3,5.5,,
CWPK,47.922,-74.624,110,1,1.15,CWPK 080100Z AUTO 11001KT 13/10 RMK AO1 SLP194 T01300099 53002,2024-08-08T01:00:00Z,13,9.9,,
CWPE,45.058,-66.459,260,4,4.6,CWPE 080100Z AUTO 26004KT 14/12 RMK AO1 SLP168 T01440116 53012,2024-08-08T01:00:00Z,14.4,11.6,,
CWPD,47.562,-71.229,220,4,4.6,CWPD 080100Z AUTO 22004KT 09/06 RMK AO1 SLP178 T00940057 53009,2024-08-08T01:00:00Z,9.4,5.7,,
CWPC,42.868,-79.253,50,9,10.36,CWPC 080100Z AUTO 05009G20KT 21/11 RMK AO1 PK WND 05028/0004 SLP167 T02060111 53005,2024-08-08T01:00:00Z,20.6,11.1,,
CWOY,51.767,-104.2,10,6,6.9,CWOY 080100Z AUTO 01006KT 14/06 RMK AO1 SLP256 T01420063 53001,2024-08-08T01:00:00Z,14.2,6.3,,
CWOE,49.123,-110.469,300,7,8.06,CWOE 080100Z AUTO 30007KT 14/11 RMK AO1 2PAST HR 6005 SLP256 P0001 T01390114 50002,2024-08-08T01:00:00Z,13.9,11.4,,
CWOD,48.842,-72.546,230,5,5.75,CWOD 080100Z AUTO 23005KT 15/12 RMK AO1 SLP174 T01530119 53003,2024-08-08T01:00:00Z,15.3,11.9,,
CWOC,48.012,-65.332,310,6,6.9,CWOC 080100Z AUTO 31006KT 15/07 RMK AO1 SLP157 T01540066 53015,2024-08-08T01:00:00Z,15.4,6.6,,
CWNZ,49.747,-84.164,50,2,2.3,CWNZ 080100Z AUTO 05002KT 16/11 RMK AO1 SLP150 T01610113 57007,2024-08-08T01:00:00Z,16.1,11.3,,
CWNQ,46.226,-72.657,70,2,2.3,CWNQ 080100Z AUTO 07002KT 17/14 RMK AO1 SLP181 T01680138 53008,2024-08-08T01:00:00Z,16.8,13.8,,
CWNP,50.269,-117.817,320,2,2.3,CWNP 080100Z AUTO 32002KT 27/08 RMK AO1 SLP169 T02720083 56014,2024-08-08T01:00:00Z,27.2,8.3,,
CWNM,49.491,-117.305,70,6,6.9,CWNM 080100Z AUTO 07006KT 28/09 RMK AO1 SLP167 T02840090 56008,2024-08-08T01:00:00Z,28.4,9,,
CWNK,49.498,-98.03,340,10,11.51,CWNK 080100Z AUTO 34010G16KT 16/09 RMK AO1 PK WND 33019/0029 SLP168 T01600090 53005,2024-08-08T01:00:00Z,16,9,,
CWNH,47.806,-69.548,190,2,2.3,CWNH 080100Z AUTO 19002KT 13/07 RMK AO1 SLP180 T01310067 52005,2024-08-08T01:00:00Z,13.1,6.7,,
CWNE,47.058,-63.997,330,20,23.02,CWNE 080100Z AUTO 33020KT 20/11 RMK AO1 PK WND 32025/0046 SLP156 T01970112 53022,2024-08-08T01:00:00Z,19.7,11.2,,
CWND,69.632,-135.445,120,7,8.06,CWND 080100Z AUTO 12007KT 22/18 RMK AO1 SLP065 T02240179 57012,2024-08-08T01:00:00Z,22.4,17.9,,
CWNC,43.951,-78.165,30,4,4.6,CWNC 080100Z AUTO 03004KT 20/14 RMK AO1 SLP159 T01960135 55003,2024-08-08T01:00:00Z,19.6,13.5,,
CWMZ,45.033,-80.367,20,9,10.36,CWMZ 080100Z AUTO 02009KT 22/14 RMK AO1 SLP159 T02160138 56009,2024-08-08T01:00:00Z,21.6,13.8,,
CWMT,63.134,-117.245,160,9,10.36,CWMT 080100Z AUTO 16009G15KT 26/07 RMK AO1 SLP221 T02640070 57009,2024-08-08T01:00:00Z,26.4,7,,
CWMQ,49.903,-109.466,120,1,1.15,CWMQ 080100Z AUTO 12001KT 16/12 RMK AO1 6PAST HR 0001 SLP251 P0002 T01580117 50006,2024-08-08T01:00:00Z,15.8,11.7,,
CWMM,49.208,-122.69,260,6,6.9,CWMM 080100Z AUTO 26006KT 27/17 RMK AO1 SLP168 T02650171,2024-08-08T01:00:00Z,26.5,17.1,,
CWMJ,46.275,-75.992,350,2,2.3,CWMJ 080100Z AUTO 35002KT 15/13 RMK AO1 SLP185 T01500126 53006,2024-08-08T01:00:00Z,15,12.6,,
CWME,52.187,-127.471,240,18,20.71,CWME 080100Z AUTO 24018KT 19/15 RMK AO1 PK WND 24023/0023 SLP200 T01910153 56015,2024-08-08T01:00:00Z,19.1,15.3,,
CWLS,43.983,-80.74,110,2,2.3,CWLS 080100Z AUTO 11002KT 19/12 RMK AO1 SLP164 T01910122 55000,2024-08-08T01:00:00Z,19.1,12.2,,
CWLP,50.94,-127.632,280,13,14.96,CWLP 080100Z AUTO 28013KT 12/11 RMK AO1 SLP220 T01220108 58013,2024-08-08T01:00:00Z,12.2,10.8,,
CWLM,48.413,-123.325,220,5,5.75,CWLM 080100Z AUTO 22005KT 17/12 RMK AO1 SLP175 T01740118 56024,2024-08-08T01:00:00Z,17.4,11.8,,
CWLE,50.951,-107.143,20,8,9.21,CWLE 080100Z AUTO 02008KT 17/05 RMK AO1 PK WND 01017/0007 SLP257 T01650047 53001,2024-08-08T01:00:00Z,16.5,4.7,,
CWLC,54.296,-130.609,270,12,13.81,CWLC 080100Z AUTO 27012KT 13/13 RMK AO1 T01290129,2024-08-08T01:00:00Z,12.9,12.9,,
CWLB,54.769,-112.024,60,5,5.75,CWLB 080100Z AUTO 06005KT 21/08 RMK AO1 SLP263 T02110075 56004,2024-08-08T01:00:00Z,21.1,7.5,,
CWKX,58.429,-130.011,240,6,6.9,CWKX 080100Z AUTO 24006KT 27/08 RMK AO1 SLP223 T02700078 56014,2024-08-08T01:00:00Z,27,7.8,,
CWKO,49.168,-105.979,360,8,9.21,CWKO 080100Z AUTO 36008KT 15/05 RMK AO1 SLP252 T01500050 51005,2024-08-08T01:00:00Z,15,5,,
CWKK,49.713,-88.332,160,4,4.6,CWKK 080100Z AUTO 16004KT 19/16 RMK AO1 2PAST HR 6014 SLP103 P0001 T01880160 50002,2024-08-08T01:00:00Z,18.8,16,,
CWKH,48.568,-123.542,,,,CWKH 080100Z AUTO 23/14 RMK AO1 SLP177 T02260140 57020,2024-08-08T01:00:00Z,22.6,14,,
CWKG,44.432,-65.203,300,2,2.3,CWKG 080100Z AUTO 30002KT 15/13 RMK AO1 SLP182 T01460130 53011,2024-08-08T01:00:00Z,14.6,13,,
CWKD,50.729,-71.013,,,,CWKD 080100Z AUTO 11/08 RMK AO1 SLP176 T01120079 53012,2024-08-08T01:00:00Z,11.2,7.9,,
CWJX,50.876,-109.501,100,5,5.75,CWJX 080100Z AUTO 10005KT 17/08 RMK AO1 SLP254 T01700077 51010,2024-08-08T01:00:00Z,17,7.7,,
CWJV,50.223,-119.194,300,1,1.15,CWJV 080100Z AUTO 30001KT 29/06 RMK AO1 SLP167 T02910064 56015,2024-08-08T01:00:00Z,29.1,6.4,,
CWJU,54.255,-133.058,240,9,10.36,CWJU 080100Z AUTO 24009KT 14/12 RMK AO1 SLP237 T01350122 56014,2024-08-08T01:00:00Z,13.5,12.2,,
CWJT,46.08,-74.556,50,1,1.15,CWJT 080100Z AUTO 05001KT 15/12 RMK AO1 SLP190 T01540124 53006,2024-08-08T01:00:00Z,15.4,12.4,,
CWJR,49.04,-116.483,50,9,10.36,CWJR 080100Z AUTO 05009G17KT 26/08 RMK AO1 PK WND 06017/0057 SLP177 T02590079 56007,2024-08-08T01:00:00Z,25.9,7.9,,
CWJO,48.425,-71.143,220,5,5.75,CWJO 080100Z AUTO 22005KT 17/09 RMK AO1 SLP172 T01690089 53003,2024-08-08T01:00:00Z,16.9,8.9,,
CWJI,49.729,-105.946,350,7,8.06,CWJI 080100Z AUTO 35007KT 17/05 RMK AO1 SLP244 T01650052 51001,2024-08-08T01:00:00Z,16.5,5.2,,
CWJH,56.333,-103.283,60,3,3.45,CWJH 080100Z AUTO 06003KT 16/06 RMK AO1 SLP262 T01620059 56004,2024-08-08T01:00:00Z,16.2,5.9,,
CWJD,53.187,-99.268,330,7,8.06,CWJD 080100Z AUTO 33007KT 10/10 RMK AO1 7PAST HR 8001 PK WND 32017/0026 SLP199 P0007 T01030099 50017,2024-08-08T01:00:00Z,10.3,9.9,,
CWJC,61.132,-100.884,60,13,14.96,CWJC 080100Z AUTO 06013KT RMK AO1 PK WND 06017/0046 55000,2024-08-08T01:00:00Z,,,,
CWJB,46.781,-71.288,200,1,1.15,CWJB 080100Z AUTO 20001KT 18/08 RMK AO1 T01820083,2024-08-08T01:00:00Z,18.2,8.3,,
CWIZ,45.294,-73.35,0,0,0.0,CWIZ 080100Z AUTO 00000KT 18/14 RMK AO1 T01780135,2024-08-08T01:00:00Z,17.8,13.5,,
CWIW,51.667,-105.4,20,9,10.36,CWIW 080100Z AUTO 02009KT 16/04 RMK AO1 SLP259 T01570043 53002,2024-08-08T01:00:00Z,15.7,4.3,,
CWIT,45.167,-73.678,0,0,0.0,CWIT 080100Z AUTO 00000KT 15/13 RMK AO1 SLP179 T01490127 53004,2024-08-08T01:00:00Z,14.9,12.7,,
CWIS,47.284,-70.637,180,1,1.15,CWIS 080100Z AUTO 18001KT RMK AO1 53012,2024-08-08T01:00:00Z,,,,
CWIP,50.162,-66.434,250,9,10.36,CWIP 080100Z AUTO 25009KT 15/09 RMK AO1 T01480094,2024-08-08T01:00:00Z,14.8,9.4,,
CWIK,50.366,-102.567,340,11,12.66,CWIK 080100Z AUTO 34011G16KT 14/05 RMK AO1 PK WND 34018/0008 SLP234 T01420048 57001,2024-08-08T01:00:00Z,14.2,4.8,,
CWIJ,65.756,-111.246,210,16,18.41,CWIJ 080100Z AUTO 21016KT 22/04 RMK AO1 PK WND 20021/0019 SLP243 T02200038 57016,2024-08-08T01:00:00Z,22,3.8,,
CWII,50.695,-96.562,310,25,28.77,CWII 080100Z AUTO 31025G30KT 17/11 RMK AO1 PK WND 31031/0046 SLP140 T01660114 52002,2024-08-08T01:00:00Z,16.6,11.4,,
CWIG,47.074,-70.533,20,5,5.75,CWIG 080100Z AUTO 02005KT RMK AO1,2024-08-08T01:00:00Z,,,,
CWID,61.317,-117.605,120,7,8.06,CWID 080100Z AUTO 12007KT 28/11 RMK AO1 SLP213 T02770113 56009,2024-08-08T01:00:00Z,27.7,11.3,,
CWHV,46.205,-70.785,240,4,4.6,CWHV 080100Z AUTO 24004KT 16/10 RMK AO1 SLP186 T01600101 53011,2024-08-08T01:00:00Z,16,10.1,,
CWHT,60.773,-137.581,260,11,12.66,CWHT 080100Z AUTO 26011G20KT 24/10 RMK AO1 PK WND 25023/0044 SLP196 T02440095 58011,2024-08-08T01:00:00Z,24.4,9.5,,
CWHQ,46.691,-71.972,0,0,0.0,CWHQ 080100Z AUTO 00000KT 12/11 RMK AO1 T01240109,2024-08-08T01:00:00Z,12.4,10.9,,
CWHO,55.448,-60.23,VRB,35,40.28,CWHO 080100Z AUTO 00035KT 09/07 RMK AO1 SLP077 T00850068 53014,2024-08-08T01:00:00Z,8.5,6.8,,
CWHL,54.172,-130.361,310,6,6.9,CWHL 080100Z AUTO 31006KT 13/12 RMK AO1 SLP223 T01270115 58011,2024-08-08T01:00:00Z,12.7,11.5,,
CWGY,51.67,-110.206,90,7,8.06,CWGY 080100Z AUTO 09007KT 18/10 RMK AO1 SLP256 T01750101 51007,2024-08-08T01:00:00Z,17.5,10.1,,
CWGW,49.745,-114.884,320,3,3.45,CWGW 080100Z AUTO 32003KT 18/10 RMK AO1 SLP251 T01770095 58009,2024-08-08T01:00:00Z,17.7,9.5,,
CWGT,49.487,-124.435,320,3,3.45,CWGT 080100Z AUTO 32003KT 22/ RMK AO1 SLP180 T0223 57023,2024-08-08T01:00:00Z,22.3,,,
CWGR,47.425,-61.775,340,11,12.66,CWGR 080100Z AUTO 34011KT 18/14 RMK AO1 SLP143 T01840141 53016,2024-08-08T01:00:00Z,18.4,14.1,,
CWGM,49.133,-113.806,80,2,2.3,CWGM 080100Z AUTO 08002KT 15/08 RMK AO1 SLP260 T01520077 58006,2024-08-08T01:00:00Z,15.2,7.7,,
CWGL,44.55,-79.218,100,4,4.6,CWGL 080100Z AUTO 10004KT 22/13 RMK AO1 SLP151 T02150128 56003,2024-08-08T01:00:00Z,21.5,12.8,,
CWGD,43.765,-81.712,110,6,6.9,CWGD 080100Z AUTO 11006KT 21/13 RMK AO1 SLP150 T02050126 56005,2024-08-08T01:00:00Z,20.5,12.6,,
CWGB,49.336,-124.149,270,11,12.66,CWGB 080100Z AUTO 27011KT 21/16 RMK AO1 SLP175 T02140155 57024,2024-08-08T01:00:00Z,21.4,15.5,,
CWFQ,45.05,-72.861,20,1,1.15,CWFQ 080100Z AUTO 02001KT 18/10 RMK AO1 SLP183 T01750102 53007,2024-08-08T01:00:00Z,17.5,10.2,,
CWFJ,49.2,-113.278,10,3,3.45,CWFJ 080100Z AUTO 01003KT 16/11 RMK AO1 SLP255 T01560106 58003,2024-08-08T01:00:00Z,15.6,10.6,,
CWFF,52.817,-104.601,50,4,4.6,CWFF 080100Z AUTO 05004KT 14/06 RMK AO1 SLP262 T01420063 51004,2024-08-08T01:00:00Z,14.2,6.3,,
CWEZ,48.783,-123.046,170,4,4.6,CWEZ 080100Z AUTO 17004KT 18/13 RMK AO1 SLP175 T01820130 57024,2024-08-08T01:00:00Z,18.2,13,,
CWEW,45.809,-73.435,140,2,2.3,CWEW 080100Z AUTO 14002KT 19/15 RMK AO1 SLP180 T01920146 53006,2024-08-08T01:00:00Z,19.2,14.6,,
CWEU,79.989,-85.934,360,7,8.06,CWEU 080100Z 36007KT 320V030 15SM FEW040 FEW080 SCT110 BKN150 05/01 A2963 RMK SC1AC1AC4AC3 SC TR AC TR SLP043,2024-08-08T01:00:00Z,5,1,15,29.63
CWER,46.997,-70.808,50,11,12.66,CWER 080100Z AUTO 05011KT RMK AO1 PK WND 05017/0003,2024-08-08T01:00:00Z,,,,
CWEQ,52.115,-101.233,360,10,11.51,CWEQ 080100Z AUTO 36010G15KT 11/06 RMK AO1 SLP230 T01130055 53005,2024-08-08T01:00:00Z,11.3,5.5,,
CWEP,46.46,-61.988,210,6,6.9,CWEP 080100Z AUTO 21006KT 18/15 RMK AO1 SLP148 T01770146 53010,2024-08-08T01:00:00Z,17.7,14.6,,
CWEL,49.209,-123.808,320,14,16.11,CWEL 080100Z AUTO 32014KT 21/16 RMK AO1 PK WND 32017/0051 SLP171 T02090160 58027,2024-08-08T01:00:00Z,20.9,16,,
CWEK,54.58,-130.698,170,1,1.15,CWEK 080100Z AUTO 17001KT 15/14 RMK AO1 SLP222 T01500140 57012,2024-08-08T01:00:00Z,15,14,,
CWEH,49.438,-108.989,50,9,10.36,CWEH 080100Z AUTO 05009KT 16/08 RMK AO1 PK WND 06017/0040 SLP252 T01560075 53003,2024-08-08T01:00:00Z,15.6,7.5,,
CWEF,47.226,-60.141,280,15,17.26,CWEF 080100Z AUTO 28015KT 20/13 RMK AO1 SLP132 T02000131 53011,2024-08-08T01:00:00Z,20,13.1,,
CWEE,49.279,-73.356,,,,CWEE 080100Z AUTO 13/11 RMK AO1 SLP168 T01320113 53004,2024-08-08T01:00:00Z,13.2,11.3,,
CWEB,49.383,-126.543,310,9,10.36,CWEB 080100Z AUTO 31009KT 14/13 RMK AO1 SLP199 T01390129 56018,2024-08-08T01:00:00Z,13.9,12.9,,
CWDZ,51.445,-112.677,20,8,9.21,CWDZ 080100Z AUTO 02008KT 17/11 RMK AO1 PK WND 01018/0043 SLP254 T01670113 53001,2024-08-08T01:00:00Z,16.7,11.3,,
CWDV,49.033,-90.467,,,,CWDV 080100Z AUTO 16/16 RMK AO1 4PAST HR 2001 SLP119 P0002 T01610156 50004,2024-08-08T01:00:00Z,16.1,15.6,,
CWDQ,47.415,-72.788,100,2,2.3,CWDQ 080100Z AUTO 10002KT 16/11 RMK AO1 SLP183 T01640108 53003,2024-08-08T01:00:00Z,16.4,10.8,,
CWDO,49.688,-54.8,260,17,19.56,CWDO 080100Z AUTO 26017G23KT 16/11 RMK AO1 PK WND 26023/0054 SLP076 T01630107 53013,2024-08-08T01:00:00Z,16.3,10.7,,
CWDM,50.465,-59.64,230,6,6.9,CWDM 080100Z AUTO 23006KT 14/08 RMK AO1 SLP086 T01360084 52014,2024-08-08T01:00:00Z,13.6,8.4,,
CWDK,50.006,-113.631,20,4,4.6,CWDK 080100Z AUTO 02004KT 19/07 RMK AO1 SLP263 T01880066 56005,2024-08-08T01:00:00Z,18.8,6.6,,
CWDJ,50.408,-104.58,10,14,16.11,CWDJ 080100Z AUTO 01014G20KT 16/02 RMK AO1 PK WND 01022/0030 SLP245 T01610019 53008,2024-08-08T01:00:00Z,16.1,1.9,,
CWDC,59.56,-108.487,240,4,4.6,CWDC 080100Z AUTO 24004KT 19/05 RMK AO1 SLP280 T01870050 58009,2024-08-08T01:00:00Z,18.7,5,,
CWDA,50.721,-56.113,270,29,33.37,CWDA 080100Z AUTO 27029G37KT 15/08 RMK AO1 PK WND 26040/0017 SLP064 T01500080 56005,2024-08-08T01:00:00Z,15,8,,
CWCT,52.074,-111.448,30,9,10.36,CWCT 080100Z AUTO 03009KT 19/08 RMK AO1 SLP268 T01860080 51005,2024-08-08T01:00:00Z,18.6,8,,
CWCJ,48.588,-86.295,180,4,4.6,CWCJ 080100Z AUTO 18004KT 18/09 RMK AO1 SLP139 T01750090 56013,2024-08-08T01:00:00Z,17.5,9,,
CWCI,47.341,-85.807,150,7,8.06,CWCI 080100Z AUTO 15007KT 18/16 RMK AO1 SLP155 T01840157 56010,2024-08-08T01:00:00Z,18.4,15.7,,
CWCF,52.36,-97.022,360,4,4.6,CWCF 080100Z AUTO 36004KT 11/10 RMK AO1 5PAST HR 2002 SLP147 P0002 T01100104 50005,2024-08-08T01:00:00Z,11,10.4,,
CWBZ,45.121,-74.289,0,0,0.0,CWBZ 080100Z AUTO 00000KT 15/14 RMK AO1 SLP172 T01490141 53003,2024-08-08T01:00:00Z,14.9,14.1,,
CWBY,49.839,-64.293,270,9,10.36,CWBY 080100Z AUTO 27009KT 14/10 RMK AO1 PK WND 28021/0003 SLP132 T01410098 51013,2024-08-08T01:00:00Z,14.1,9.8,,
CWBV,44.825,-62.338,260,10,11.51,CWBV 080100Z AUTO 26010KT 15/14 RMK AO1 SLP160 T01470137 53011,2024-08-08T01:00:00Z,14.7,13.7,,
CWBU,53.333,-104.005,70,3,3.45,CWBU 080100Z AUTO 07003KT 12/09 RMK AO1 SLP259 T01240091 53001,2024-08-08T01:00:00Z,12.4,9.1,,
CWBT,50.271,-64.226,280,4,4.6,CWBT 080100Z AUTO 28004KT 10/08 RMK AO1 PK WND 26017/0028 SLP126 T00950081 51015,2024-08-08T01:00:00Z,9.5,8.1,,
CWBS,46.189,-72.916,30,6,6.9,CWBS 080100Z AUTO 03006KT 23/11 RMK AO1 T02340112,2024-08-08T01:00:00Z,23.4,11.2,,
CWBO,50.55,-111.849,30,3,3.45,CWBO 080100Z AUTO 03003KT 18/10 RMK AO1 SLP255 T01750100 50000,2024-08-08T01:00:00Z,17.5,10,,
CWBK,45.764,-62.681,260,5,5.75,CWBK 080100Z AUTO 26005KT 19/11 RMK AO1 SLP159 T01910114 53019,2024-08-08T01:00:00Z,19.1,11.4,,
CWBA,46.71,-79.101,0,0,0.0,CWBA 080100Z AUTO 00000KT 18/12 RMK AO1 T01760115,2024-08-08T01:00:00Z,17.6,11.5,,
CWAV,51.777,-114.681,190,3,3.45,CWAV 080100Z AUTO 19003KT 17/09 RMK AO1 SLP266 T01650092 55003,2024-08-08T01:00:00Z,16.5,9.2,,
CWAR,47.294,-53.993,240,16,18.41,CWAR 080100Z AUTO 24016KT 17/17 RMK AO1 PK WND 24020/0042 SLP129 T01710166 52011,2024-08-08T01:00:00Z,17.1,16.6,,
CWAQ,49.05,-105.483,340,8,9.21,CWAQ 080100Z AUTO 34008KT 17/05 RMK AO1 SLP241 T01700048 51003,2024-08-08T01:00:00Z,17,4.8,,
CWAF,48.069,-69.556,200,13,14.96,CWAF 080100Z AUTO 20013KT 13/07 RMK AO1 T01280068,2024-08-08T01:00:00Z,12.8,6.8,,
CWAE,50.129,-122.955,VRB,3,3.45,CWAE 080100Z VRB03KT 15SM FEW065 27/10 A3007 RMK CU1 CU TR LAST OBS/NEXT 081300UTC SLP174 DENSITY ALT 3900FT,2024-08-08T01:00:00Z,27,10,15,30.07
CTRA,49.664,-93.733,290,6,6.9,CTRA 080100Z AUTO 29006G16KT 18/13 RMK AO1 SLP113 T01760131 53004,2024-08-08T01:00:00Z,17.6,13.1,,
CTNK,45.533,-78.266,0,0,0.0,CTNK 080100Z AUTO 00000KT 15/11 RMK AO1 SLP182 T01450113 50001,2024-08-08T01:00:00Z,14.5,11.3,,
CTCK,45.251,-74.963,250,1,1.15,CTCK 080100Z AUTO 25001KT 15/13 RMK AO1 SLP172 T01470131 53003,2024-08-08T01:00:00Z,14.7,13.1,,
CPSV,49.92,-110.915,350,12,13.81,CPSV 080100Z AUTO 35012KT 18/08 RMK AO1 PK WND 35018/0025 T01780079,2024-08-08T01:00:00Z,17.8,7.9,,
CPST,51.02,-113.27,170,6,6.9,CPST 080100Z AUTO 17006KT 15/11 RMK AO1 T01460110,2024-08-08T01:00:00Z,14.6,11,,
CPRY,49.488,-112.674,10,4,4.6,CPRY 080100Z AUTO 01004KT 17/11 RMK AO1 T01670109,2024-08-08T01:00:00Z,16.7,10.9,,
CPRO,50.826,-112.06,0,0,0.0,CPRO 080100Z AUTO 00000KT 17/11 RMK AO1 T01710112,2024-08-08T01:00:00Z,17.1,11.2,,
CPFI,49.805,-112.037,220,4,4.6,CPFI 080100Z AUTO 22004KT 18/11 RMK AO1 T01760114,2024-08-08T01:00:00Z,17.6,11.4,,
CMGB,45.373,-72.774,0,0,0.0,CMGB 080100Z AUTO 00000KT 16/12 RMK AO1 SLP186 T01590118 53005,2024-08-08T01:00:00Z,15.9,11.8,,
CMFM,47.323,-71.148,230,1,1.15,CMFM 080100Z AUTO 23001KT 09/06 RMK AO1 SLP202 T00920064 53012,2024-08-08T01:00:00Z,9.2,6.4,,
CERM,47.417,-68.325,340,1,1.15,CERM 080100Z AUTO 34001KT 09/07 RMK AO1 SLP184 T00900072 51015,2024-08-08T01:00:00Z,9,7.2,,
CBBC,52.181,-128.154,VRB,2,2.3,CBBC 080100Z AUTO VRB02KT 9SM 18/15 A3015 RMK CLD MISG SLP214,2024-08-08T01:00:00Z,18,15,9,30.15
CAHR,46.344,-63.17,270,3,3.45,CAHR 080100Z AUTO 27003KT 16/13 RMK AO1 SLP159 T01630128 53019,2024-08-08T01:00:00Z,16.3,12.8,,
AYPY,-9.443,147.216,140,15,17.26,AYPY 080100Z 14015KT 9999 FEW025 SCT050 29/22 Q1013,2024-08-08T01:00:00Z,29,22,6+,29.91
AYMH,-5.831,144.3,VRB,3,3.45,AYMH 080100Z VRB03KT 9999 SCT015 SCT040 22/17 Q1024,2024-08-08T01:00:00Z,22,17,6+,30.24
MUCF,22.159,-80.41,230,3,3.45,MUCF 080059Z AUTO 23003KT 29/25 Q1011,2024-08-08T00:59:00Z,29,25,,29.85
KOXD,39.5047,-84.7838,10,6,6.9,KOXD 080059Z AUTO 01006KT 10SM CLR 24/19 A2989 RMK AO2,2024-08-08T00:59:00Z,24,19,10+,29.89
KPRN,31.8467,-86.6141,300,6,6.9,KPRN 080058Z AUTO 30006KT 10SM FEW095 31/23 A2972 RMK AO2 SLP008 T03060228,2024-08-08T00:58:00Z,30.6,22.8,10+,29.72
KBCR,30.8432,-85.6043,0,0,0.0,KBCR 080058Z AUTO 00000KT 10SM CLR 28/26 A2970 RMK AO2 SLP015 T02780256,2024-08-08T00:58:00Z,27.8,25.6,10+,29.70
PAMK,63.484,-162.115,200,9,10.36,PAMK 080056Z AUTO 20009KT 10SM BKN038 OVC050 17/10 A2972 RMK AO2 SLP063 T01720100,2024-08-08T00:56:00Z,17.2,10,10+,29.72
PAEL,58.196,-136.347,0,0,0.0,PAEL 080056Z 00000KT 20SM SKC 14/11 A3020 RMK NOSPECI,2024-08-08T00:56:00Z,14,11,20,30.20
MMPS,15.876,-97.093,310,5,5.75,MMPS 080056Z 31005KT 8SM BKN200 29/27 A2978 NOSIG RMK 8/002 HZY MSGTX MMMX,2024-08-08T00:56:00Z,29,27,8,29.78
KNXP,34.294,-116.147,220,15,17.26,KNXP 080056Z AUTO 22015G21KT 10SM CLR 41/09 A2991 RMK AO2 SLP085 T04110094,2024-08-08T00:56:00Z,41.1,9.4,10+,29.91
KNUC,33.022,-118.583,230,6,6.9,KNUC 080056Z COR 23006KT 10SM OVC008 20/15 A2996 RMK SLP144 LAST T02000150,2024-08-08T00:56:00Z,20,15,10+,29.96
KKLS,46.118,-122.898,360,8,9.21,KKLS 080056Z AUTO 36008G15KT 10SM CLR 30/14 A2999 RMK AO2 SLP159 T03000144,2024-08-08T00:56:00Z,30,14.4,10+,29.99
KISO,35.324,-77.6187,50,10,11.51,KISO 080056Z 05010KT 7SM RA OVC005 25/25 A2975,2024-08-08T00:56:00Z,25,25,7,29.75
KCEC,41.7836,-124.238,190,5,5.75,KCEC 080056Z AUTO 19005KT 10SM CLR 15/12 A2993 RMK AO2 SLP135 T01500122,2024-08-08T00:56:00Z,15,12.2,10+,29.93
RKSG,36.962,127.031,220,3,3.45,RKSG 080055Z 22003KT 10SM BKN043 28/24 A2969 RMK AO2A RAE07DZB07E11 SLP057 P0000 T02770241 $,2024-08-08T00:55:00Z,27.7,24.1,10+,29.69
PALJ,60.204,-154.316,0,0,0.0,PALJ 080055Z 00000KT 30SM BKN060 OVC100 17/11 A2983 RMK EST PASS OPEN NO SPECI,2024-08-08T00:55:00Z,17,11,30,29.83
OEPS,24.063,47.581,0,0,0.0,OEPS 080055Z 00000KT 9999 CLR 30/M01 A2968 RMK AO2A SLP026 WND DATA ESTMD T03041010,2024-08-08T00:55:00Z,30.4,-1,6+,29.68
LIVT,45.677,13.754,60,8,9.21,LIVT 080055Z AUTO 06008KT 350V110 //// 26/17 Q1011,2024-08-08T00:55:00Z,26,17,,29.85
LIVP,46.143,11.038,350,8,9.21,LIVP 080055Z 35008KT CAVOK 11/06 Q1024,2024-08-08T00:55:00Z,11,6,6+,30.24
LIVM,44.441,12.296,,,,LIVM 080055Z AUTO /////KT //// ///// Q////,2024-08-08T00:55:00Z,,,,
LIVF,43.517,12.728,0,0,0.0,LIVF 080055Z 00000KT CAVOK 22/19 Q1014,2024-08-08T00:55:00Z,22,19,6+,29.94
LIVD,46.729,12.228,VRB,2,2.3,LIVD 080055Z AUTO VRB02KT //// 13/13 Q1022,2024-08-08T00:55:00Z,13,13,,30.18
LIVC,44.194,10.7,160,17,19.56,LIVC 080055Z AUTO 16017KT //// 15/06 Q1026,2024-08-08T00:55:00Z,15,6,,30.30
LIRY,-99.99,-99.99,VRB,1,1.15,LIRY 080055Z AUTO VRB01KT //// 23/19 Q1014,2024-08-08T00:55:00Z,23,19,,29.94
LIRX,42.731,10.396,330,4,4.6,LIRX 080055Z AUTO 33004KT //// 22/20 Q1014,2024-08-08T00:55:00Z,22,20,,29.94
LIRT,41.047,15.233,260,11,12.66,LIRT 080055Z AUTO 26011KT //// 22/10 Q1018,2024-08-08T00:55:00Z,22,10,,30.06
LIRS,42.76,11.072,VRB,3,3.45,LIRS 080055Z VRB03KT CAVOK 22/19 Q1012 RMK FEW FEW200 VIS MIN 9999 WIND THR03 VRB02KT WIND THR21 34003KT BLU,2024-08-08T00:55:00Z,22,19,6+,29.88
LIRM,41.061,14.082,360,4,4.6,LIRM 080055Z 36004KT CAVOK 23/22 Q1012 RMK SKC VIS MIN 9999 WIND THR06 04003KT BLU,2024-08-08T00:55:00Z,23,22,6+,29.88
LIRK,42.466,12.979,320,7,8.06,LIRK 080055Z AUTO 32007KT //// 17/09 Q1023,2024-08-08T00:55:00Z,17,9,,30.21
LIRE,41.656,12.449,360,4,4.6,LIRE 080055Z 36004KT CAVOK 23/// Q1012,2024-08-08T00:55:00Z,,,6+,29.88
LIQO,42.387,11.17,340,9,10.36,LIQO 080055Z AUTO 34009KT //// 23/19 Q1016,2024-08-08T00:55:00Z,23,19,,30.00
LIQC,40.558,14.201,0,0,0.0,LIQC 080055Z 00000KT CAVOK 26/24 Q1014 RMK SKC QUK / QUL / VIS MAR 15 KM VIS MIN 9999,2024-08-08T00:55:00Z,26,24,6+,29.94
LIPS,45.689,12.101,350,2,2.3,LIPS 080055Z 35002KT CAVOK 20/18 Q1012 RMK BKN BKN200 VIS MIN 9999 WIND THR26 00000KT WIND THR08 00000KT BLU,2024-08-08T00:55:00Z,20,18,6+,29.88
LIPL,45.432,10.268,290,3,3.45,LIPL 080055Z 29003KT CAVOK 21/21 Q1013 RMK SKC VIS MIN 9999 WIND THR31 28003KT WIND THR13 27003KT BLU,2024-08-08T00:55:00Z,21,21,6+,29.91
LIPI,45.979,13.049,80,6,6.9,LIPI 080055Z 08006KT CAVOK 22/20 Q1012 RMK SCT SCT180 VIS MIN 9999 WIND THR06 07003KT WIND THR24 11006KT BLU,2024-08-08T00:55:00Z,22,20,6+,29.88
LIPC,44.224,12.307,290,5,5.75,LIPC 080055Z 29005KT CAVOK 21/19 Q1013 RMK SKC VIS MIN 9999 WIND THR11 29005KT WIND THR29 30006KT BLU,2024-08-08T00:55:00Z,21,19,6+,29.91
LIMY,44.258,7.794,350,3,3.45,LIMY 080055Z AUTO 35003KT //// 20/16 Q1015,2024-08-08T00:55:00Z,20,16,,29.97
LIMK,45.033,7.731,,,,LIMK 080055Z AUTO /////KT //// 19/17 Q1015,2024-08-08T00:55:00Z,19,17,,29.97
LIMH,45.935,7.707,,,,LIMH 080055Z AUTO /////KT //// ///// Q////,2024-08-08T00:55:00Z,,,,
LIED,39.354,8.973,350,4,4.6,LIED 080055Z 35004KT CAVOK 23/22 Q1012 RMK SKC VIS MIN 9999 WIND THR34 /////KT WIND THR16 01003KT BLU,2024-08-08T00:55:00Z,23,22,6+,29.88
LIEB,39.931,9.713,100,4,4.6,LIEB 080055Z 10004KT CAVOK 27/25 Q1013 RMK SKC QUK / QUL / VIS MAR 20 KM MON INVIS VIS MIN 9999,2024-08-08T00:55:00Z,27,25,6+,29.91
LICZ,37.406,14.919,330,2,2.3,LICZ 080055Z 33002KT CAVOK 26/22 Q1012 RMK SKC VIS MIN 9999 WIND THR28 31002KT WIND THR10 33003KT A2990 BLU,2024-08-08T00:55:00Z,26,22,6+,29.88
LICT,37.911,12.488,VRB,2,2.3,LICT 080055Z VRB02KT CAVOK 24/23 Q1012 RMK SKC VIS MIN 9999 WIND THR13 01006KT BLU,2024-08-08T00:55:00Z,24,23,6+,29.88
LIBY,39.811,18.342,10,5,5.75,LIBY 080055Z AUTO 01005KT //// 26/16 Q1010,2024-08-08T00:55:00Z,26,16,,29.82
LIBV,40.766,16.935,40,1,1.15,LIBV 080055Z 04001KT CAVOK 23/14 Q1013 RMK SKC VIS MIN 9999 WIND THR32 33004KT WIND THR14 30004KT BLU,2024-08-08T00:55:00Z,23,14,6+,29.91
LIBQ,39.331,16.396,310,5,5.75,LIBQ 080055Z AUTO 31005KT 280V350 //// 19/12 Q1023,2024-08-08T00:55:00Z,19,12,,30.21
LIBN,40.238,18.138,220,1,1.15,LIBN 080055Z 22001KT CAVOK 24/20 Q1011 RMK SKC VIS MIN 9999 WIND THR14 21001KT WIND THR32 17001KT BLU,2024-08-08T00:55:00Z,24,20,6+,29.85
LIBA,41.538,15.714,VRB,1,1.15,LIBA 080055Z VRB01KT CAVOK 25/19 Q1011 RMK SKC VIS MIN 9999 WIND THR11 VRB01KT WIND THR29 /////KT BLU,2024-08-08T00:55:00Z,25,19,6+,29.85
KQTZ,-99.99,-99.99,270,5,5.75,KQTZ 080055Z 27005KT 9999 SKC 34/05 A2948 RMK SLP986,2024-08-08T00:55:00Z,34,5,6+,29.48
KPOE,31.047,-93.194,0,0,0.0,KPOE 080055Z AUTO 00000KT 10SM CLR 31/22 A2978 RMK AO2 SLP083 T03130217,2024-08-08T00:55:00Z,31.3,21.7,10+,29.78
KNTD,34.124,-119.123,220,7,8.06,KNTD 080055Z 22007KT 6SM BR OVC007 19/18 A2994 RMK AO2 SLP140 T01940178 $,2024-08-08T00:55:00Z,19.4,17.8,6,29.94
KMUO,43.03,-115.859,310,16,18.41,KMUO 080055Z AUTO 31016KT 6SM HZ FEW210 33/M14 A2995 RMK AO2 SLP109 T03291145 $,2024-08-08T00:55:00Z,32.9,-14.5,6,29.95
KLRF,34.92,-92.131,50,9,10.36,KLRF 080055Z 05009KT 10SM CLR 27/19 A2981 RMK AO2A SLP094 T02670190 $,2024-08-08T00:55:00Z,26.7,19,10+,29.81
KGPH,39.3248,-94.3082,0,0,0.0,KGPH 080055Z AUTO 00000KT 10SM CLR 26/17 A2991 RMK AO2,2024-08-08T00:55:00Z,26,17,10+,29.91
KFEW,41.141,-104.869,100,8,9.21,KFEW 080055Z 10008KT 10SM BKN120 21/14 A3017 RMK SLPNO A02A WND DATA ESTMD ALSTG ESTMD,2024-08-08T00:55:00Z,21,14,10+,30.17
KEDW,34.908,-117.874,230,23,26.47,KEDW 080055Z 23023G29KT 50SM FEW220 38/M01 A2987 RMK AO2A PK WND 24030/15 SLP084 T03761007,2024-08-08T00:55:00Z,37.6,-0.7,50,29.87
KUZA,34.9836,-81.0562,40,11,12.66,KUZA 080054Z AUTO 04011G19KT 10SM SCT028 SCT033 27/23 A2972 RMK AO2 SLP050 T02670228,2024-08-08T00:54:00Z,26.7,22.8,10+,29.72
TIST,18.3362,-64.9799,80,6,6.9,TIST 080053Z 08006KT 10SM CLR 28/24 A2994 RMK AO2 SLP138 T02780244 $,2024-08-08T00:53:00Z,27.8,24.4,10+,29.94
PAPB,56.576,-169.663,320,9,10.36,PAPB 080053Z AUTO 32009KT 10SM BKN015 BKN025 OVC085 09/07 A2982 RMK AO2 SLP085 T00940067 TSNO $,2024-08-08T00:53:00Z,9.4,6.7,10+,29.82
PAOR,62.962,-141.938,140,3,3.45,PAOR 080053Z 14003KT 10SM CLR 27/08 A2992 RMK AO2 SLP125 T02720083 $,2024-08-08T00:53:00Z,27.2,8.3,10+,29.92
KTCC,35.1805,-103.601,180,12,13.81,KTCC 080053Z AUTO 18012KT 10SM CLR 35/05 A2990 RMK AO2 SLP051 T03500050,2024-08-08T00:53:00Z,35,5,10+,29.90
KRSL,38.8725,-98.8093,90,8,9.21,KRSL 080053Z AUTO 09008KT 10SM CLR 33/17 A2984 RMK AO2 SLP085 T03280167,2024-08-08T00:53:00Z,32.8,16.7,10+,29.84
KNUW,48.355,-122.664,260,6,6.9,KNUW 080053Z AUTO 26006KT 10SM SCT250 16/12 A3007 RMK AO2 SLP185 T01560122,2024-08-08T00:53:00Z,15.6,12.2,10+,30.07
KNRS,32.563,-117.111,240,8,9.21,KNRS 080053Z 24008KT 10SM SCT007 BKN130 BKN200 23/19 A2995 RMK AO2 SLP141 T02330189 $,2024-08-08T00:53:00Z,23.3,18.9,10+,29.95
KLXT,38.9577,-94.3712,80,6,6.9,KLXT 080053Z AUTO 08006KT 10SM CLR 25/17 A2991 RMK AO2 SLP121 T02500172,2024-08-08T00:53:00Z,25,17.2,10+,29.91
KHLC,39.3741,-99.8299,100,6,6.9,KHLC 080053Z AUTO 10006KT 10SM CLR 32/ A2988 RMK AO2 SLP094 T0322 $,2024-08-08T00:53:00Z,32.2,,10+,29.88
KCOT,28.4585,-99.2228,130,11,12.66,KCOT 080053Z AUTO 13011KT 10SM BKN100 BKN120 39/16 A2973 RMK AO2 SLP059 T03940156,2024-08-08T00:53:00Z,39.4,15.6,10+,29.73
KCGI,37.2254,-89.5785,30,9,10.36,KCGI 080053Z AUTO 03009KT 10SM OVC047 24/19 A2986 RMK AO2 SLP107 T02440194,2024-08-08T00:53:00Z,24.4,19.4,10+,29.86
PKMR,7.09,171.383,80,4,4.6,PKMR 080052Z 08004KT 15SM FEW015 SCT050 BKN120 OVC300 30/24 A2984 RMK SLP107 T02950244,2024-08-08T00:52:00Z,29.5,24.4,15,29.84
PAOO,60.537,-165.089,170,9,10.36,PAOO 080052Z AUTO 17009KT 10SM SCT019 BKN024 OVC047 12/09 A2974 RMK AO2 TSNO $,2024-08-08T00:52:00Z,12,9,10+,29.74
KTOL,41.5871,-83.8054,70,8,9.21,KTOL 080052Z 07008KT 10SM CLR 23/16 A2993 RMK AO2 SLP133 T02280161 $,2024-08-08T00:52:00Z,22.8,16.1,10+,29.93
KBAN,38.355,-119.522,,,,KBAN 080052Z AUTO 10SM CLR 29/04 A3027 RMK AO2 SLP143 T02890044,2024-08-08T00:52:00Z,28.9,4.4,10+,30.27
PTKK,7.462,151.843,VRB,4,4.6,PTKK 080051Z VRB04KT 15SM SCT014 SCT300 32/27 A2984 RMK SLP108 T03170269,2024-08-08T00:51:00Z,31.7,26.9,15,29.84
KSJT,31.3517,-100.495,80,6,6.9,KSJT 080051Z AUTO 08006KT 10SM CLR 39/09 A2981,2024-08-08T00:51:00Z,39,9,10+,29.81
KSDB,34.7433,-118.725,180,9,10.36,KSDB 080051Z AUTO 18009G17KT 10SM CLR 28/09 A3014 RMK AO2 SLP145 T02780094,2024-08-08T00:51:00Z,27.8,9.4,10+,30.14
TJBQ,18.494,-67.128,0,0,0.0,TJBQ 080050Z 00000KT 10SM CLR 27/23 A2994,2024-08-08T00:50:00Z,27,23,10+,29.94
OOSH,24.388,56.624,VRB,4,4.6,OOSH 080050Z AUTO VRB04KT //// ////// 30/27 Q0999 RMK QFE0996 RH085? PR000.0,2024-08-08T00:50:00Z,30,27,,29.50
MUCL,21.621,-81.552,190,3,3.45,MUCL 080050Z AUTO 19003KT 30/25 Q1011,2024-08-08T00:50:00Z,30,25,,29.85
MSSA,13.982,-89.549,0,0,0.0,MSSA 080050Z 00000KT 9999 FEW033 FEW037CB 21/21 Q1015 A2997,2024-08-08T00:50:00Z,21,21,6+,29.97
LTAE,40.079,32.566,20,3,3.45,LTAE 080050Z 02003KT 350V090 CAVOK 15/11 Q1015 NOSIG RMK RWY21 02007KT,2024-08-08T00:50:00Z,15,11,6+,29.97
KTIX,28.508,-80.798,230,5,5.75,KTIX 080050Z 23005KT 7SM SKC 31/23 A2970 RMK LAST,2024-08-08T00:50:00Z,31,23,7,29.70
KRYY,34.0146,-84.5964,340,10,11.51,KRYY 080050Z 34010KT 10SM CLR 31/21 A2975 RMK AO2 SLP049 T03100210 $,2024-08-08T00:50:00Z,31,21,10+,29.75
KRHV,37.3331,-121.82,300,9,10.36,KRHV 080050Z 30009KT 10SM SKC 31/12 A2989,2024-08-08T00:50:00Z,31,12,10+,29.89
KOLV,34.9808,-89.7851,360,10,11.51,KOLV 080050Z 36010KT 10SM SCT040 24/19 A2981,2024-08-08T00:50:00Z,24,19,10+,29.81
KJWN,36.1852,-86.8833,0,0,0.0,KJWN 080050Z 00000KT 5SM BKN038 25/23 A2979,2024-08-08T00:50:00Z,25,23,5,29.79
