station_id,latitude,longitude,wind_dir_degrees,wind_speed_kt,wind_speed_mph,raw_text,observation_time,temp_c,dewpoint_c,visibility_statute_mi,altim_in_hg
KXSA,37.8606,-76.9016,210,11,12.658579999999999,KXSA 032015Z AUTO 21011G19KT 10SM SCT046 31/24 A2984 RMK AO2 T03130241,2024-08-03T20:15:00Z,31.3,24.1,10+,29.84
KW75,37.6024,-76.4477,210,10,11.5078,KW75 032015Z AUTO 21010G17KT 10SM CLR 33/24 A2984 RMK AO1 T03250240,2024-08-03T20:15:00Z,32.5,24,10+,29.84
KW31,36.9599,-78.1838,170,4,4.60312,KW31 032015Z AUTO 17004KT 5SM SCT018 SCT032 OVC110 23/22 A2986 RMK AO1 P0005 T02270221,2024-08-03T20:15:00Z,22.7,22.1,5,29.86
KW13,38.077,-78.944,230,5,5.7539,KW13 032015Z AUTO 23005KT 10SM SCT028 BKN080 OVC110 22/20 A2989 RMK AO1 P0001 T02210201,2024-08-03T20:15:00Z,22.1,20.1,10+,29.89
KVER,38.9496,-92.6842,310,4,4.60312,KVER 032015Z AUTO 31004KT 10SM CLR 32/23 A3002 RMK AO2 T03210227,2024-08-03T20:15:00Z,32.1,22.7,10+,30.02
KVBW,38.366,-78.968,230,4,4.60312,KVBW 032015Z AUTO 23004KT 10SM SCT120 22/22 A2985 RMK AO1 T02230223,2024-08-03T20:15:00Z,22.3,22.3,10+,29.85
KUUV,38.2335,-91.1609,0,0,0.0,KUUV 032015Z AUTO 00000KT 10SM SCT044 31/19 A3004 RMK AO2,2024-08-03T20:15:00Z,31,19,10+,30.04
KTYL,34.4577,-110.112,280,7,8.05546,KTYL 032015Z AUTO 28007G18KT 10SM FEW110 34/04 A3027 RMK AO2,2024-08-03T20:15:00Z,34,4,10+,30.27
KTVY,40.6127,-112.354,250,3,3.4523399999999995,KTVY 032015Z AUTO 25003KT 10SM CLR 35/06 A3010 RMK AO2,2024-08-03T20:15:00Z,35,6,10+,30.10
KTGI,37.8279,-75.9964,190,12,13.809359999999998,KTGI 032015Z AUTO 19012KT 10SM CLR 32/27 A2983 RMK AO1 T03230266,2024-08-03T20:15:00Z,32.3,26.6,10+,29.83
KSPA,34.9106,-81.9589,200,7,8.05546,KSPA 032015Z AUTO 20007KT 160V220 7SM CLR 30/21 A2989 RMK AO2 LTG DSNT E,2024-08-03T20:15:00Z,30,21,7,29.89
KRID,39.7579,-84.8359,350,8,9.20624,KRID 032015Z AUTO 35008KT 10SM SCT039 SCT044 28/21 A2994 RMK AO2,2024-08-03T20:15:00Z,28,21,10+,29.94
KRCM,38.7855,-93.8058,0,0,0.0,KRCM 032015Z AUTO 00000KT 10SM CLR 32/17 A3003 RMK AO2,2024-08-03T20:15:00Z,32,17,10+,30.03
KPTB,37.1803,-77.5081,260,3,3.4523399999999995,KPTB 032015Z AUTO 26003KT 10SM -RA SCT034 BKN042 BKN075 29/25 A2985 RMK AO2 T02910245,2024-08-03T20:15:00Z,29.1,24.5,10+,29.85
KPLD,40.4532,-84.9848,340,7,8.05546,KPLD 032015Z AUTO 34007KT 10SM SCT044 29/20 A2993 RMK AO2,2024-08-03T20:15:00Z,29,20,10+,29.93
KMTV,36.6272,-80.0134,180,6,6.904679999999999,KMTV 032015Z AUTO 18006KT 10SM SCT039 SCT046 SCT050 31/21 A2988 RMK AO2 T03070206,2024-08-03T20:15:00Z,30.7,20.6,10+,29.88
KMCX,40.7127,-86.7649,0,0,0.0,KMCX 032015Z AUTO 00000KT 10SM BKN047 BKN055 30/19 A2994 RMK AO2 T03010194,2024-08-03T20:15:00Z,30.1,19.4,10+,29.94
KMCJ,29.7139,-95.3967,0,0,0.0,KMCJ 032015Z AUTO 00000KT CLR 36/21 A2991 RMK A01,2024-08-03T20:15:00Z,36,21,,29.91
KJYO,39.0826,-77.5605,330,7,8.05546,KJYO 032015Z AUTO 33007KT 10SM TS BKN060 BKN070 OVC110 27/23 A2981 RMK AO2 LTG DSNT W THRU NE,2024-08-03T20:15:00Z,27,23,10+,29.81
KJXI,32.7036,-94.9471,20,6,6.904679999999999,KJXI 032015Z AUTO 02006KT 10SM CLR 33/19 A2994 RMK AO2 T03280186,2024-08-03T20:15:00Z,32.8,18.6,10+,29.94
KIXA,36.331,-77.6333,160,17,19.56326,KIXA 032015Z AUTO 16017G41KT 120V180 10SM SCT035 31/27 A2988 RMK AO2,2024-08-03T20:15:00Z,31,27,10+,29.88
KIUA,42.9058,-77.3227,270,4,4.60312,KIUA 032015Z AUTO 27004KT 10SM BKN120 26/21 A2986 RMK AO2 T02550210,2024-08-03T20:15:00Z,25.5,21,10+,29.86
KGAF,48.4081,-97.3694,350,21,24.166379999999997,KGAF 032015Z AUTO 35021G26KT 8SM SCT037 26/18 A2996 RMK AO2,2024-08-03T20:15:00Z,26,18,8,29.96
KFRH,38.5034,-86.6442,320,3,3.4523399999999995,KFRH 032015Z AUTO 32003KT 10SM SCT038 SCT048 SCT070 30/17 A2994 RMK AO1,2024-08-03T20:15:00Z,30,17,10+,29.94
KEMV,36.6858,-77.485,130,10,11.5078,KEMV 032015Z AUTO 13010G16KT 10SM SCT040 SCT049 SCT110 32/23 A2986 RMK AO2 LTG DSNT SW THRU NW T03180231,2024-08-03T20:15:00Z,31.8,23.1,10+,29.86
KDYA,32.4641,-87.9504,350,5,5.7539,KDYA 032015Z AUTO 35005KT 10SM CLR 34/20 A2989 RMK AO2 T03370201,2024-08-03T20:15:00Z,33.7,20.1,10+,29.89
KDQH,31.4739,-82.8609,180,4,4.60312,KDQH 032015Z AUTO 18004KT 10SM SCT044 SCT050 SCT090 32/23 A2992 RMK AO2 T03230229,2024-08-03T20:15:00Z,32.3,22.9,10+,29.92
KD50,48.9248,-103.296,90,9,10.357019999999999,KD50 032015Z AUTO 09009KT 060V120 9SM CLR 27/11 A3011 RMK AO2,2024-08-03T20:15:00Z,27,11,9,30.11
KCPF,37.3869,-83.2593,0,0,0.0,KCPF 032015Z AUTO 00000KT 5SM RA SCT014 SCT031 BKN065 22/20 A2994 RMK AO2,2024-08-03T20:15:00Z,22,20,5,29.94
KCLK,35.5381,-98.9336,60,6,6.904679999999999,KCLK 032015Z AUTO 06006KT 10SM CLR 36/11 A3005 RMK AO2,2024-08-03T20:15:00Z,36,11,10+,30.05
KCCO,33.3107,-84.7713,320,5,5.7539,KCCO 032015Z AUTO 32005KT 10SM SCT050 SCT065 32/20 A2995 RMK AO2 T03190197,2024-08-03T20:15:00Z,31.9,19.7,10+,29.95
KCCA,35.5946,-92.4455,VRB,3,3.4523399999999995,KCCA 032015Z AUTO VRB03KT 10SM FEW050 FEW055 32/20 A2999 RMK AO2,2024-08-03T20:15:00Z,32,20,10+,29.99
KBNL,33.2601,-81.387,210,7,8.05546,KBNL 032015Z AUTO 21007G15KT 9SM VCTS CLR 34/23 A2990 RMK AO2 LTG DSNT W-NE,2024-08-03T20:15:00Z,34,23,9,29.90
KBFR,38.8383,-86.446,330,5,5.7539,KBFR 032015Z AUTO 33005KT 10SM SCT050 30/17 A2993 RMK AO2,2024-08-03T20:15:00Z,30,17,10+,29.93
KBEA,28.3692,-97.7953,130,4,4.60312,KBEA 032015Z AUTO 13004KT 10SM 34/22 A2995 RMK AO2 T03400218,2024-08-03T20:15:00Z,34,21.8,10+,29.95
K8W2,38.6554,-78.7083,260,6,6.904679999999999,K8W2 032015Z AUTO 26006G15KT 10SM SCT050 SCT060 BKN120 25/22 A2985 RMK AO1 P0001 T02480220,2024-08-03T20:15:00Z,24.8,22,10+,29.85
K2C8,48.7838,-97.6297,,,,K2C8 032015Z AUTO 6SM HZ CLR 25/14 A3000 RMK AO2,2024-08-03T20:15:00Z,25,14,6,30.00
K20U,46.9251,-103.985,360,11,12.658579999999999,K20U 032015Z AUTO 36011KT 10SM FEW060 FEW075 30/06 A3011 RMK AO2,2024-08-03T20:15:00Z,30,6,10+,30.11
K1S5,46.3288,-119.974,0,0,0.0,K1S5 032015Z AUTO 00000KT 10SM CLR 32/18 A2990 RMK AO2 T03150178,2024-08-03T20:15:00Z,31.5,17.8,10+,29.90
K08D,48.3018,-102.404,50,14,16.11092,K08D 032015Z AUTO 05014KT 10SM CLR 25/15 A3011 RMK AO2,2024-08-03T20:15:00Z,25,15,10+,30.11
KXVG,46.9942,-94.206,140,10,11.5078,KXVG 032013Z AUTO 14010G15KT 10SM CLR 22/19 A2989 RMK AO2 LTG DSNT N AND SE,2024-08-03T20:13:00Z,22,19,10+,29.89
KOWA,44.1191,-93.2569,130,6,6.904679999999999,KOWA 032013Z AUTO 13006KT 10SM CLR 28/18 A3000 RMK AO2,2024-08-03T20:13:00Z,28,18,10+,30.00
KORB,48.0171,-92.8538,140,4,4.60312,KORB 032013Z AUTO 14004KT 10SM -VCTSRA 16/16 A2998 RMK AO2 LTG DSNT ALQDS P0006,2024-08-03T20:13:00Z,16,16,10+,29.98
KJHW,42.1534,-79.2542,80,4,4.60312,KJHW 032013Z AUTO 08004KT 10SM BKN022 BKN028 OVC048 24/21 A2991 RMK AO2,2024-08-03T20:13:00Z,24,21,10+,29.91
KETH,45.7828,-96.5461,220,9,10.357019999999999,KETH 032013Z AUTO 22009KT 10SM CLR 34/20 A2986 RMK AO2,2024-08-03T20:13:00Z,34,20,10+,29.86
KDVP,43.9906,-95.781,190,8,9.20624,KDVP 032013Z AUTO 19008KT 10SM CLR 31/19 A3000 RMK AO2 T03120188,2024-08-03T20:13:00Z,31.2,18.8,10+,30.00
KAQP,45.2249,-96.0041,180,10,11.5078,KAQP 032013Z AUTO 18010G16KT 10SM CLR 33/21 A2988 RMK AO2 TSNO,2024-08-03T20:13:00Z,33,21,10+,29.88
PAOU,56.006,-161.162,60,11,12.658579999999999,PAOU 032012Z AUTO 06011KT 10SM OVC031 12/09 A3009 RMK AO2 PNO $,2024-08-03T20:12:00Z,12,9,10+,30.09
KTMB,25.6423,-80.4347,110,14,16.11092,KTMB 032012Z 11014G20KT 10SM VCTS -RA BKN027 BKN047 BKN060 28/28 A2988 RMK AO2 LTG DSNT S-NW P0004 T02830283 $,2024-08-03T20:12:00Z,28.3,28.3,10+,29.88
KODO,31.925,-102.387,110,6,6.904679999999999,KODO 032012Z AUTO 11006KT 10SM VCTS BKN085 36/14 A3008 RMK AO2 T03610139 $,2024-08-03T20:12:00Z,36.1,13.9,10+,30.08
KFWN,41.1993,-74.6259,210,3,3.4523399999999995,KFWN 032012Z AUTO 21003KT 2 1/2SM TSRA BR FEW060 BKN075 OVC110 24/23 A2983 RMK AO2 LTG DSNT ALQDS TSB06 P0003 T02390228,2024-08-03T20:12:00Z,23.9,22.8,2.5,29.83
KAVL,35.4318,-82.5379,0,0,0.0,KAVL 032012Z 00000KT 1 3/4SM +RA BR SCT020 BKN035 OVC070 21/19 A2996 RMK AO2 LTG DSNT NE AND E P0003 T02110194,2024-08-03T20:12:00Z,21.1,19.4,1.75,29.96
CYER,56.019,-87.675,320,17,19.56326,CYER 032012Z AUTO 32017G29KT 9SM OVC024 13/09 A2980 RMK SLP095,2024-08-03T20:12:00Z,13,9,9,29.80
YAMB,-27.63,152.711,310,6,6.904679999999999,YAMB 032011Z AUTO 31006KT 9999 // NCD 03/03 Q1028 RF00.0/000.0,2024-08-03T20:11:00Z,3,3,6+,30.35
PAGS,58.425,-135.707,210,5,5.7539,PAGS 032011Z AUTO 21005KT 10SM SCT023 OVC028 16/11 A3029 RMK AO2 TSNO,2024-08-03T20:11:00Z,16,11,10+,30.29
KUTS,30.7443,-95.5866,220,4,4.60312,KUTS 032011Z AUTO 22004KT 10SM TS BKN038 BKN055 BKN075 34/26 A2994 RMK AO2 TSB05 T03390256 $,2024-08-03T20:11:00Z,33.9,25.6,10+,29.94
KSFM,43.3876,-70.7154,260,3,3.4523399999999995,KSFM 032011Z AUTO 26003KT 10SM FEW029 29/22 A2977 RMK AO2 PNO $,2024-08-03T20:11:00Z,29,22,10+,29.77
KFGN,49.318,-94.902,30,8,9.20624,KFGN 032011Z AUTO 03008KT 22/16 A2998 RMK AO2 PWINO,2024-08-03T20:11:00Z,22,16,,29.98
KCHO,38.1374,-78.4551,200,17,19.56326,KCHO 032011Z 20017G24KT 10SM VCTS CLR 32/21 A2981 RMK AO2 LTG DSNT SW-N T03170206 $,2024-08-03T20:11:00Z,31.7,20.6,10+,29.81
K0J4,31.0447,-86.3119,310,10,11.5078,K0J4 032011Z AUTO 31010G20KT 280V010 8SM -TSRA FEW043 BKN050 28/21 A2995 RMK AO2 RAB09 TSB08B10 P0000 T02780206,2024-08-03T20:11:00Z,27.8,20.6,8,29.95
KSUT,33.9292,-78.0722,180,9,10.357019999999999,KSUT 032010Z AUTO 18009G15KT 10SM CLR 31/25 A2996 RMK AO2 T03080251,2024-08-03T20:10:00Z,30.8,25.1,10+,29.96
KSOP,35.2371,-79.3921,190,9,10.357019999999999,KSOP 032010Z AUTO 19009KT 10SM VCTS CLR 31/24 A2986 RMK AO2 LTG DSNT W-NE TSE1959B10,2024-08-03T20:10:00Z,31,24,10+,29.86
KSEG,40.8193,-76.8658,330,6,6.904679999999999,KSEG 032010Z AUTO 33006KT 10SM OVC026 25/22 A2984 RMK AO2 LTG DSNT ALQDS T02500222,2024-08-03T20:10:00Z,25,22.2,10+,29.84
KRCZ,34.8955,-79.7576,170,10,11.5078,KRCZ 032010Z AUTO 17010G17KT 10SM CLR 31/24 A2986 RMK AO2 T03120240,2024-08-03T20:10:00Z,31.2,24,10+,29.86
KQFX,-99.99,-99.99,110,1,1.15078,KQFX 032010Z AUTO 11001KT 3200 BR OVC002 25/24 A2979 RMK A02 TSNO,2024-08-03T20:10:00Z,25,24,1.99,29.79
KQFV,-99.99,-99.99,260,1,1.15078,KQFV 032010Z AUTO 26001KT 6000 OVC002 23/23 A2989 RMK A02 TSNO,2024-08-03T20:10:00Z,23,23,3.73,29.89
KQFU,-99.99,-99.99,0,0,0.0,KQFU 032010Z AUTO 00000KT 6000 CLR 26/25 A2985 RMK A02 TSNO,2024-08-03T20:10:00Z,26,25,3.73,29.85
KQFT,-99.99,-99.99,360,2,2.30156,KQFT 032010Z AUTO 36002KT 4800 BKN002 25/25 A2980 RMK A02 TSNO,2024-08-03T20:10:00Z,25,25,2.98,29.80
KQFB,-99.99,-99.99,360,1,1.15078,KQFB 032010Z AUTO 36001KT 9999 SCT005 27/27 A2984 RMK A02 TSNO,2024-08-03T20:10:00Z,27,27,6+,29.84
KQEX,-99.99,-99.99,350,2,2.30156,KQEX 032010Z AUTO 35002KT 6000 CLR 27/26 A2972 RMK A02 TSNO,2024-08-03T20:10:00Z,27,26,3.73,29.72
KQEW,-99.99,-99.99,120,1,1.15078,KQEW 032010Z AUTO 12001KT / // CLR 29/29 / RMK A02 TSNO,2024-08-03T20:10:00Z,29,29,,
KQEV,-99.99,-99.99,200,1,1.15078,KQEV 032010Z AUTO 20001KT 9999 CLR 25/24 A2977 RMK A02 TSNO,2024-08-03T20:10:00Z,25,24,6+,29.77
KQEQ,-99.99,-99.99,20,2,2.30156,KQEQ 032010Z AUTO 02002KT M0400 FG CLR 25/25 A2983 RMK A02 TSNO,2024-08-03T20:10:00Z,25,25,0.25,29.83
KQEP,-99.99,-99.99,320,2,2.30156,KQEP 032010Z AUTO 32002KT 2800 BR SCT003 25/25 A2983 RMK A02 TSNO,2024-08-03T20:10:00Z,25,25,1.74,29.83
KQEJ,-99.99,-99.99,0,0,0.0,KQEJ 032010Z AUTO 00000KT 2800 BR OVC002 24/23 A2983 RMK A02 TSNO,2024-08-03T20:10:00Z,24,23,1.74,29.83
KQEI,-99.99,-99.99,140,2,2.30156,KQEI 032010Z AUTO 14002KT 9999 OVC006 24/24 A2985 RMK A02 TSNO,2024-08-03T20:10:00Z,24,24,6+,29.85
KPGV,35.6374,-77.3851,190,6,6.904679999999999,KPGV 032010Z AUTO 19006KT 10SM SCT037 SCT110 24/24 A2993 RMK AO2 TSNO,2024-08-03T20:10:00Z,24,24,10+,29.93
KMWK,36.4568,-80.5548,320,7,8.05546,KMWK 032010Z AUTO 32007KT 10SM SCT033 BKN043 BKN060 28/22 A2991 RMK AO2 T02790222,2024-08-03T20:10:00Z,27.9,22.2,10+,29.91
KHRJ,35.3794,-78.7356,180,12,13.809359999999998,KHRJ 032010Z AUTO 18012G20KT 10SM CLR 29/22 A2989 RMK AO2 T02870225,2024-08-03T20:10:00Z,28.7,22.5,10+,29.89
KHPN,41.0624,-73.7046,340,19,21.864819999999998,KHPN 032010Z 34019G47KT 1/2SM R16/2200VP6000FT TSRA BKN023 BKN042 23/21 A2984 RMK AO2 PK WND 29047/2003 WSHFT 1956 LTG DSNT ALQDS RAB02 P0009 T02330206,2024-08-03T20:10:00Z,23.3,20.6,0.5,29.84
KGWW,35.4637,-77.9604,140,8,9.20624,KGWW 032010Z AUTO 14008KT 10SM CLR 26/24 A2992 RMK AO2 T02570235,2024-08-03T20:10:00Z,25.7,23.5,10+,29.92
KFFA,36.0165,-75.6739,190,10,11.5078,KFFA 032010Z AUTO 19010G15KT 150V220 10SM CLR 31/24 A2993 RMK AO2 T03090235,2024-08-03T20:10:00Z,30.9,23.5,10+,29.93
KEYF,34.6042,-78.579,180,10,11.5078,KEYF 032010Z AUTO 18010G18KT 10SM CLR 29/25 A2993 RMK AO2 T02930252,2024-08-03T20:10:00Z,29.3,25.2,10+,29.93
KEDE,36.0286,-76.5668,210,13,14.960139999999999,KEDE 032010Z AUTO 21013G20KT 10SM CLR 30/27 A2993 RMK AO2 T03030272,2024-08-03T20:10:00Z,30.3,27.2,10+,29.93
KCGS,38.9806,-76.9251,170,13,14.960139999999999,KCGS 032010Z AUTO 17013G19KT 10SM CLR 34/22 A2977 RMK AO2 T03420216,2024-08-03T20:10:00Z,34.2,21.6,10+,29.77
KBKV,28.4739,-82.4537,40,5,5.7539,KBKV 032010Z 04005KT 10SM FEW075 BKN100 24/24 A2996 RMK AO2 LTG DSNT W AND NW T02440239,2024-08-03T20:10:00Z,24.4,23.9,10+,29.96
KAQV,31.396,-93.297,,,,KAQV 032010Z AUTO 1 3/4SM +TSRA BR SCT026 SCT036 BKN046 24/22 A2999 RMK AO2 RAB1959 P0007 T02390217 $,2024-08-03T20:10:00Z,23.9,21.7,1.75,29.99
K2W6,38.315,-76.55,200,12,13.809359999999998,K2W6 032010Z AUTO 20012G18KT 10SM SCT035 32/23 A2984 RMK AO1,2024-08-03T20:10:00Z,32,23,10+,29.84
K24A,35.3156,-83.2071,0,0,0.0,K24A 032010Z AUTO 00000KT 10SM SCT037 BKN046 BKN050 26/19 A3000 RMK AO2 LTG DSNT SE AND NW T02620190,2024-08-03T20:10:00Z,26.2,19,10+,30.00
ETAD,49.979,6.698,250,6,6.904679999999999,ETAD 032010Z AUTO 25006KT 9999 FEW030 BKN041 19/15 A2996 RMK AO2 SLP133 PNO $,2024-08-03T20:10:00Z,19,15,6+,29.96
CYZV,50.217,-66.26,130,9,10.357019999999999,CYZV 032010Z 13009KT 5SM BR OVC007 20/19 A2963 RMK ST8 SLP036 DENSITY ALT 1200FT,2024-08-03T20:10:00Z,20,19,5,29.63
CYGP,48.777,-64.478,300,7,8.05546,CYGP 032010Z 30007KT 190V330 5SM +TSRA BKN042CB BKN250 22/20 A2965 RMK RA1CB5CI1 CI TR VIS E 12 HAZY FREQ LTGIC SLP042 DENSITY ALT 1300FT,2024-08-03T20:10:00Z,22,20,5,29.65
CYBG,48.331,-70.989,280,22,25.317159999999998,CYBG 032010Z 28022G41KT 1/2SM R11/1200FT +TSRA OVC020CB 21/20 A2970 RMK CB8 DENSITY ALT 1916FT TS OHD MOV E FRQ LTGCCCG OHD SLP057,2024-08-03T20:10:00Z,21,20,0.5,29.70
ULOO,57.79,28.397,140,2,2.30156,ULOO 032009Z 14001MPS 9999 0450NE R19/1100D PRFG NSC 15/15 Q1006 NOSIG RMK QFE750,2024-08-03T20:09:00Z,15,15,6+,29.70
PASK,66.599,-159.991,170,10,11.5078,PASK 032009Z AUTO 17010KT 10SM BKN028 OVC036 12/09 A2998 RMK AO2,2024-08-03T20:09:00Z,12,9,10+,29.98
MUSC,22.494,-79.931,220,10,11.5078,MUSC 032009Z 22010KT 180V260 4000 SHRA BKN018 24/23 Q1013,2024-08-03T20:09:00Z,24,23,2.49,29.91
KRHP,35.1939,-83.8618,230,3,3.4523399999999995,KRHP 032009Z AUTO 23003KT 10SM SCT070 BKN080 29/18 A2996 RMK AO2 T02880183,2024-08-03T20:09:00Z,28.8,18.3,10+,29.96
KPOU,41.6257,-73.8816,300,5,5.7539,KPOU 032009Z 30005KT 10SM VCTS SCT100 BKN120 29/22 A2979 RMK AO2 LTG DSNT SE-SW T02890222 $,2024-08-03T20:09:00Z,28.9,22.2,10+,29.79
KMUI,40.4381,-76.5643,0,0,0.0,KMUI 032009Z AUTO 00000KT 10SM FEW043 BKN075 OVC150 25/22 A2982 RMK AO2 LTG DSNT E-SE DZE09 SLP097,2024-08-03T20:09:00Z,25,22,10+,29.82
KLBL,37.0375,-100.957,70,17,19.56326,KLBL 032009Z AUTO 07017G24KT 3/4SM +TSRA BR SCT008 BKN031 OVC080 19/18 A3019 RMK AO2 WSHFT 1945 LTG DSNT ALQDS PNO $,2024-08-03T20:09:00Z,19,18,0.75,30.19
KFME,39.086,-76.757,190,9,10.357019999999999,KFME 032009Z AUTO 19009G17KT 10SM 33/22 A2978 RMK AO1,2024-08-03T20:09:00Z,33,22,10+,29.78
KFKL,41.3806,-79.8603,0,0,0.0,KFKL 032009Z AUTO 00000KT 10SM BKN010 OVC016 23/22 A2990 RMK AO2 CIG 007V013,2024-08-03T20:09:00Z,23,22,10+,29.90
KDUJ,41.1795,-78.8933,120,3,3.4523399999999995,KDUJ 032009Z AUTO 12003KT 10SM FEW009 SCT050 BKN095 22/21 A2990 RMK AO2 RAE03 P0000 T02220206 $,2024-08-03T20:09:00Z,22.2,20.6,10+,29.90
KDAA,38.714,-77.178,200,11,12.658579999999999,KDAA 032009Z AUTO 20011G18KT 10SM CLR 34/22 A2975 RMK AO2 WSHFT 02 SLP076 $,2024-08-03T20:09:00Z,34,22,10+,29.75
CYPX,60.045,-77.281,150,18,20.714039999999997,CYPX 032009Z AUTO 15018G24KT 030V180 9SM FEW008 BKN020 BKN029 OVC049 15/13 A2925 RMK SLP907 DENSITY ALT 900FT,2024-08-03T20:09:00Z,15,13,9,29.25
ZBAD,39.501,116.412,90,6,6.904679999999999,ZBAD 032008Z 09003MPS 040V150 9999 -TSRA FEW040CB 25/24 Q1001 NOSIG,2024-08-03T20:08:00Z,25,24,6+,29.56
NZCM,-77.85,166.667,60,17,19.56326,NZCM 032008Z AUTO 06017G21KT 9999 BKN013 M11/M15 A2978 RMK AO2 SNB1959E2008 SLP092 T11131152 $,2024-08-03T20:08:00Z,-11.3,-15.2,6+,29.78
KSFB,28.7795,-81.2436,150,14,16.11092,KSFB 032008Z 15014KT 10SM SCT025 28/24 A2997 RMK AO2 T02780244,2024-08-03T20:08:00Z,27.8,24.4,10+,29.97
KPQL,30.4631,-88.5316,VRB,4,4.60312,KPQL 032008Z VRB04KT 10SM VCTS FEW060 SCT090 36/26 A2986 RMK AO2 LTG DSNT S-W T03610261,2024-08-03T20:08:00Z,36.1,26.1,10+,29.86
KCTB,48.6036,-112.377,270,8,9.20624,KCTB 032008Z AUTO 27008KT 10SM VCTS FEW090 28/08 A3009 RMK AO2 T02830078,2024-08-03T20:08:00Z,28.3,7.8,10+,30.09
KBLM,40.1822,-74.1207,VRB,4,4.60312,KBLM 032008Z AUTO VRB04KT 10SM TS FEW026 BKN045 BKN060 31/26 A2981 RMK AO2 LTG DSNT N TSB02,2024-08-03T20:08:00Z,31,26,10+,29.81
EBFN,51.09,2.653,230,7,8.05546,EBFN 032008Z AUTO 23007KT 2700 +RA FEW007/// OVC037/// 18/18 Q1012 YLO,2024-08-03T20:08:00Z,18,18,1.68,29.88
PATA,65.173,-152.107,140,6,6.904679999999999,PATA 032007Z 14006KT 7SM -RA BKN008 BKN012 OVC022 12/12 A3019 RMK AO2 P0000 T01220117 $,2024-08-03T20:07:00Z,12.2,11.7,7,30.19
PAHL,65.699,-156.353,200,7,8.05546,PAHL 032007Z AUTO 20007G14KT 3SM -RA BR OVC009 11/10 A3008 RMK AO2 CIG 007V013 P0001 TSNO,2024-08-03T20:07:00Z,11,10,3,30.08
KRDU,35.8923,-78.782,320,3,3.4523399999999995,KRDU 032007Z COR 32003KT 1SM -RA BR FEW010 SCT039CB OVC055 24/23 A2987 RMK AO2 TSE07 MOV NE P0033 T02440233,2024-08-03T20:07:00Z,24.4,23.3,1,29.87
KMAI,30.837,-85.1835,170,12,13.809359999999998,KMAI 032007Z AUTO 17012G23KT 10SM BKN046 BKN060 29/24 A2990 RMK AO2 WSHFT 1947 LTG DSNT E AND SE T02940239,2024-08-03T20:07:00Z,29.4,23.9,10+,29.90
KIPT,41.243,-76.9217,320,3,3.4523399999999995,KIPT 032007Z 32003KT 5SM VCTS -RA BR FEW042 BKN075 OVC110 21/21 A2983 RMK AO2 LTG DSNT NE-SE TSE01 TS E MOV E P0003 T02110206,2024-08-03T20:07:00Z,21.1,20.6,5,29.83
KBOK,42.0754,-124.29,290,4,4.60312,KBOK 032007Z AUTO 29004KT 2SM BR OVC003 14/14 A3005 RMK AO2 VIS 1V5,2024-08-03T20:07:00Z,14,14,2,30.05
KAOO,40.2999,-78.3168,VRB,3,3.4523399999999995,KAOO 032007Z AUTO VRB03KT 10SM VCTS FEW008 BKN028 OVC065 22/20 A2989 RMK AO2 LTG DSNT ALQDS RAE03 TSE1959 P0000 T02170200,2024-08-03T20:07:00Z,21.7,20,10+,29.89
EHEH,51.45,5.377,200,7,8.05546,EHEH 032007Z AUTO 20007KT 180V250 9999 SCT025 BKN029 BKN032 20/17 Q1012 BLU BECMG 4500 -RADZ SCT006 BKN009 RMK TREND REMOTE BY EHWX,2024-08-03T20:07:00Z,20,17,6+,29.88
CWSA,43.933,-60.002,,,,CWSA 032007Z AUTO /////KT 3/4SM BR OVC002 20/20 A2992 RMK WIND MISG SLP135 DENSITY ALT 700FT,2024-08-03T20:07:00Z,20,20,0.75,29.92
PAWS,61.571,-149.538,VRB,3,3.4523399999999995,PAWS 032006Z AUTO VRB03KT 10SM FEW017 14/10 A3035 RMK AO2,2024-08-03T20:06:00Z,14,10,10+,30.35
PASY,52.711,174.107,280,12,13.809359999999998,PASY 032006Z 28012KT 1 1/2SM BR VV003 12/11 A2972 RMK SLP066 PNO FZRANO $,2024-08-03T20:06:00Z,12,11,1.5,29.72
PAPM,59.011,-161.82,140,15,17.261699999999998,PAPM 032006Z AUTO 14015G20KT 10SM BKN017 A3014 RMK AO2 FZRANO $,2024-08-03T20:06:00Z,,,10+,30.14
PAKH,56.94,-154.181,80,14,16.11092,PAKH 032006Z AUTO 08014KT 10SM BKN026 BKN100 14/09 A3030 RMK AO2 PNO $,2024-08-03T20:06:00Z,14,9,10+,30.30
KTOI,31.8574,-86.0103,190,3,3.4523399999999995,KTOI 032006Z AUTO 19003KT 10SM -TSRA SCT038 SCT065 BKN090 24/23 A2993 RMK AO2 LTG DSNT ALQDS P0002 T02390228,2024-08-03T20:06:00Z,23.9,22.8,10+,29.93
KSSC,33.978,-80.466,170,13,14.960139999999999,KSSC 032006Z 17013G21KT 10SM -TSRA BKN045 BKN070 33/24 A2988 RMK AO2A LTG DSNT N RAB06 TSB02 SLP117 $,2024-08-03T20:06:00Z,33,24,10+,29.88
KRCA,44.155,-103.118,340,14,16.11092,KRCA 032006Z AUTO 34014G21KT 10SM FEW190 38/08 A3003 RMK AO2 WSHFT 1956 SLP132,2024-08-03T20:06:00Z,38,8,10+,30.03
KPOB,35.175,-79.008,180,11,12.658579999999999,KPOB 032006Z AUTO 18011G19KT 10SM FEW039 SCT050 SCT070 SCT080 BKN180 32/23 A2985 RMK AO2 WSHFT 02 LTG DSNT N SLP108,2024-08-03T20:06:00Z,32,23,10+,29.85
KHST,25.49,-80.379,140,18,20.714039999999997,KHST 032006Z AUTO 14018G32KT 8SM -TSRA FEW008 29/25 A2988 RMK AO2 WSHFT 1952 RAB1955 TSB1956 PRESRR SLP122,2024-08-03T20:06:00Z,29,25,8,29.88
KHIF,41.111,-111.962,140,5,5.7539,KHIF 032006Z COR AUTO 14005KT 10SM FEW140 BKN170 34/04 A3012 RMK AO2A SLP115 COR 2007,2024-08-03T20:06:00Z,34,4,10+,30.12
KEVM,47.4274,-92.4972,140,5,5.7539,KEVM 032006Z AUTO 14005KT 10SM -VCTSRA SCT033 SCT060 SCT075 18/16 A2996 RMK AO2 LTG DSNT ALQDS,2024-08-03T20:06:00Z,18,16,10+,29.96
KELZ,42.1077,-77.9842,VRB,4,4.60312,KELZ 032006Z AUTO VRB04KT 10SM SCT015 BKN023 23/20 A2993 RMK AO2 T02330200,2024-08-03T20:06:00Z,23.3,20,10+,29.93
KDXR,41.3722,-73.4834,350,6,6.904679999999999,KDXR 032006Z 35006KT 10SM VCTS FEW060 FEW080 SCT100 30/21 A2981 RMK AO2 LTG DSNT SE-W T03000211 $,2024-08-03T20:06:00Z,30,21.1,10+,29.81
EHVL,53.297,5.086,240,15,17.261699999999998,EHVL 032006Z AUTO 24015KT 9999 FEW006 SCT008 BKN032 19/17 Q1010 BLU,2024-08-03T20:06:00Z,19,17,6+,29.82
PAFR,61.263,-149.66,0,0,0.0,PAFR 032005Z AUTO 00000KT 10SM OVC015 14/11 A3033 RMK AO2 SLP274 $,2024-08-03T20:05:00Z,14,11,10+,30.33
MUCC,22.456,-78.339,120,10,11.5078,MUCC 032005Z 12010KT 080V150 9000 SCT018CB 30/26 Q1012 RMK CB AT II AND III QUAD,2024-08-03T20:05:00Z,30,26,5.59,29.88
KXER,27.946,-90.997,0,0,0.0,KXER 032005Z AUTO 00000KT 9SM 30/27 A2995 RMK A01,2024-08-03T20:05:00Z,30,27,9,29.95
KW40,35.2211,-78.0404,120,5,5.7539,KW40 032005Z AUTO 12005KT 10SM CLR 26/23 A2994 RMK AO2 T02620227,2024-08-03T20:05:00Z,26.2,22.7,10+,29.94
KW29,38.9777,-76.3276,200,11,12.658579999999999,KW29 032005Z AUTO 20011G20KT 10SM CLR 33/24 A2980 RMK AO2 T03280243,2024-08-03T20:05:00Z,32.8,24.3,10+,29.80
KVUJ,35.4173,-80.1508,190,7,8.05546,KVUJ 032005Z AUTO 19007KT 10SM -TSRA SCT030 SCT043 SCT050 24/22 A2993 RMK AO2 LTG DSNT E THRU W T02350221,2024-08-03T20:05:00Z,23.5,22.1,10+,29.93
KUKF,36.2188,-81.1002,10,5,5.7539,KUKF 032005Z AUTO 01005KT 10SM BKN039 BKN045 BKN050 26/19 A2994 RMK AO2,2024-08-03T20:05:00Z,26,19,10+,29.94
KTTA,35.5762,-79.1035,170,7,8.05546,KTTA 032005Z AUTO 17007KT 10SM BKN055 BKN080 BKN100 29/25 A2985 RMK AO2 T02900249,2024-08-03T20:05:00Z,29,24.9,10+,29.85
KTDF,36.284,-78.9884,0,0,0.0,KTDF 032005Z AUTO 00000KT 10SM CLR 25/21 A2989 RMK AO2 LTG DSNT ALQDS,2024-08-03T20:05:00Z,25,21,10+,29.89
KSVH,35.7635,-80.9473,220,6,6.904679999999999,KSVH 032005Z AUTO 22006KT 10SM SCT040 SCT048 SCT050 32/23 A2988 RMK AO2 T03180225,2024-08-03T20:05:00Z,31.8,22.5,10+,29.88
KSIF,36.4408,-79.8544,0,0,0.0,KSIF 032005Z AUTO 00000KT 7SM SCT030 SCT040 BKN048 29/24 A2986 RMK AO2 T02880242,2024-08-03T20:05:00Z,28.8,24.2,7,29.86
KSCR,35.7058,-79.5051,180,8,9.20624,KSCR 032005Z AUTO 18008KT 10SM -RA SCT055 28/24 A2988 RMK AO2 T02790244,2024-08-03T20:05:00Z,27.9,24.4,10+,29.88
KRUQ,35.6441,-80.5236,260,6,6.904679999999999,KRUQ 032005Z AUTO 26006KT 10SM -RA SCT041 BKN050 OVC110 27/22 A2989 RMK AO2 T02690224,2024-08-03T20:05:00Z,26.9,22.4,10+,29.89
KMRN,35.8192,-81.6097,340,5,5.7539,KMRN 032005Z AUTO 34005KT 10SM SCT110 29/23 A2989 RMK AO2 T02940225,2024-08-03T20:05:00Z,29.4,22.5,10+,29.89
KMQI,35.9188,-75.6989,230,17,19.56326,KMQI 032005Z AUTO 23017KT 10SM CLR 31/25 A2995 RMK AO2 T03090254,2024-08-03T20:05:00Z,30.9,25.4,10+,29.95
KMCZ,35.862,-77.178,220,11,12.658579999999999,KMCZ 032005Z AUTO 22011KT 10SM SCT029 SCT070 SCT120 24/22 A2992 RMK AO2 T02390222,2024-08-03T20:05:00Z,23.9,22.2,10+,29.92
KLHZ,36.0229,-78.3341,150,6,6.904679999999999,KLHZ 032005Z AUTO 15006KT 5SM HZ SCT040 SCT048 30/23 A2988 RMK AO2,2024-08-03T20:05:00Z,30,23,5,29.88
KJNX,35.5369,-78.3934,170,10,11.5078,KJNX 032005Z AUTO 17010G22KT 10SM CLR 30/22 A2987 RMK AO2 LTG DSNT W AND NW,2024-08-03T20:05:00Z,30,22,10+,29.87
KIPJ,35.4861,-81.1564,170,7,8.05546,KIPJ 032005Z AUTO 17007G16KT 10SM SCT035 BKN043 OVC070 28/23 A2989 RMK AO2 T02810231,2024-08-03T20:05:00Z,28.1,23.1,10+,29.89
KHBI,35.6527,-79.8942,190,13,14.960139999999999,KHBI 032005Z AUTO 19013G17KT 10SM SCT110 27/22 A2991 RMK AO2 T02700219,2024-08-03T20:05:00Z,27,21.9,10+,29.91
KGHB,27.8403,-91.9878,,,,KGHB 032005Z AUTO 9SM FEW024 FEW029 31/26 A2995 RMK A01,2024-08-03T20:05:00Z,31,26,9,29.95
KGEV,36.4312,-81.4206,0,0,0.0,KGEV 032005Z AUTO 00000KT 10SM BKN029 OVC036 21/20 A3001 RMK AO2 T02110197,2024-08-03T20:05:00Z,21.1,19.7,10+,30.01
KFZY,43.3504,-76.3831,240,4,4.60312,KFZY 032005Z AUTO 24004KT 10SM BKN021 27/23 A2983 RMK AO2 T02670228,2024-08-03T20:05:00Z,26.7,22.8,10+,29.83
KFSI,34.6457,-98.404,0,0,0.0,KFSI 032005Z AUTO 00000KT 1 3/4SM HZ CLR 37/12 A2997 RMK AO2 VIS 1 3/4V6 SLP137 FZRANO $,2024-08-03T20:05:00Z,37,12,1.75,29.97
KFQD,35.43,-81.936,190,12,13.809359999999998,KFQD 032005Z AUTO 19012G15KT 10SM VCTS CLR 31/20 A2988 RMK AO2 LTG DSNT SE W AND NW,2024-08-03T20:05:00Z,31,20,10+,29.88
KEXX,35.7804,-80.3084,230,7,8.05546,KEXX 032005Z AUTO 23007KT 200V270 3SM RA SCT037 SCT048 BKN070 27/25 A2988 RMK AO2 P0003 T02700252,2024-08-03T20:05:00Z,27,25.2,3,29.88
KDPL,34.9994,-77.9799,170,8,9.20624,KDPL 032005Z AUTO 17008KT 10SM CLR 29/26 A2994 RMK AO2,2024-08-03T20:05:00Z,29,26,10+,29.94
KCTZ,34.9752,-78.3627,160,9,10.357019999999999,KCTZ 032005Z AUTO 16009G15KT 130V190 10SM CLR 29/28 A2993 RMK AO2 T02940275,2024-08-03T20:05:00Z,29.4,27.5,10+,29.93
KCPC,34.2753,-78.7146,180,9,10.357019999999999,KCPC 032005Z AUTO 18009KT 7SM SCT022 BKN029 BKN037 29/25 A2994 RMK AO2 T02930246,2024-08-03T20:05:00Z,29.3,24.6,7,29.94
KCGE,38.5372,-76.0309,190,9,10.357019999999999,KCGE 032005Z AUTO 19009G21KT 170V240 10SM FEW030 SCT036 31/25 A2981 RMK A01,2024-08-03T20:05:00Z,31,25,10+,29.81
KCBE,39.6182,-78.7598,250,10,11.5078,KCBE 032005Z AUTO 25010G19KT 230V290 10SM RA SCT034 BKN047 OVC070 27/21 A2988 RMK AO2 T02710211,2024-08-03T20:05:00Z,27.1,21.1,10+,29.88
KATP,27.1956,-90.0269,,,,KATP 032005Z AUTO 9SM CLR 31/25 A2993 RMK A01,2024-08-03T20:05:00Z,31,25,9,29.93
KASJ,36.2941,-77.1724,180,14,16.11092,KASJ 032005Z AUTO 18014G32KT 3SM +RA BKN039 BKN050 27/23 A2992 RMK AO2 T02650234,2024-08-03T20:05:00Z,26.5,23.4,3,29.92
KANR,27.2264,-91.19,350,9,10.357019999999999,KANR 032005Z AUTO 35009KT 10SM SCT022 BKN028 SCT039 37/25 A3006 RMK A01,2024-08-03T20:05:00Z,37,25,10+,30.06
KACZ,34.718,-78.005,170,8,9.20624,KACZ 032005Z AUTO 17008KT 10SM SCT025 31/26 A2993 RMK AO2 T03080264,2024-08-03T20:05:00Z,30.8,26.4,10+,29.93
K7W6,35.5594,-75.955,220,18,20.714039999999997,K7W6 032005Z AUTO 22018G22KT 10SM SCT027 31/26 A2996 RMK AO2 T03100258,2024-08-03T20:05:00Z,31,25.8,10+,29.96
K2G4,39.5827,-79.3418,VRB,6,6.904679999999999,K2G4 032005Z AUTO VRB06G11KT 10SM FEW012 FEW016 SCT033 22/20 A2997 RMK AO2,2024-08-03T20:05:00Z,22,20,10+,29.97
K1A5,35.2228,-83.415,330,5,5.7539,K1A5 032005Z AUTO 33005KT 10SM BKN060 BKN080 OVC090 27/19 A2999 RMK AO2 T02730192,2024-08-03T20:05:00Z,27.3,19.2,10+,29.99
K0W3,39.566,-76.202,180,11,12.658579999999999,K0W3 032005Z AUTO 18011KT 10SM CLR 31/26 A2979 RMK AO2 T03060263 $,2024-08-03T20:05:00Z,30.6,26.3,10+,29.79
EHWO,51.448,4.342,240,11,12.658579999999999,EHWO 032005Z AUTO 24011KT 210V280 3200 -SHRA FEW005 SCT010 BKN015 18/18 Q1012 YLO,2024-08-03T20:05:00Z,18,18,1.99,29.88
PHNG,21.45,-157.763,60,11,12.658579999999999,PHNG 032004Z AUTO 06011KT 10SM SCT024 29/21 A3009 RMK AO2 T02940211,2024-08-03T20:04:00Z,29.4,21.1,10+,30.09
PAWM,64.688,-163.41,190,18,20.714039999999997,PAWM 032004Z AUTO 19018G28KT 1 3/4SM -RA BR OVC003 09/09 A2996 RMK AO2 PK WND 19028/1957 PNO $,2024-08-03T20:04:00Z,9,9,1.75,29.96
PASN,57.155,-170.223,170,15,17.261699999999998,PASN 032004Z AUTO 17015G24KT 2 1/2SM -RA BR OVC002 09/08 A2982 RMK AO2 P0000 T00890083 TSNO $,2024-08-03T20:04:00Z,8.9,8.3,2.5,29.82
PAEN,60.579,-151.242,220,10,11.5078,PAEN 032004Z 22010KT 10SM BKN016 OVC100 13/09 A3033 RMK AO2 T01280089,2024-08-03T20:04:00Z,12.8,8.9,10+,30.33
MMCZ,20.516,-86.932,190,4,4.60312,MMCZ 032004Z 19004KT 4SM TSRA BKN010CB OVC080 23/23 A2987 RMK 8/97/,2024-08-03T20:04:00Z,23,23,4,29.87
KRIC,37.5115,-77.3234,210,10,11.5078,KRIC 032004Z 21010KT 10SM VCTS -RA FEW030CB SCT045 BKN120 31/24 A2984 RMK AO2 LTG DSNT S AND SW RAB01 TSE1958 P0000 T03110239 $,2024-08-03T20:04:00Z,31.1,23.9,10+,29.84
KJST,40.3149,-78.8307,340,13,14.960139999999999,KJST 032004Z AUTO 34013G20KT 10SM VCTS -RA FEW007 BKN032 OVC055 21/19 A2994 RMK AO2 WSHFT 1946 LTG DSNT NE AND SE P0000 T02060189,2024-08-03T20:04:00Z,20.6,18.9,10+,29.94
KIGM,35.2575,-113.934,260,17,19.56326,KIGM 032004Z AUTO 26017G22KT 10SM VCTS CLR 39/11 A3007 RMK AO2 LTG DSNT E T03890111,2024-08-03T20:04:00Z,38.9,11.1,10+,30.07
KCKB,39.3022,-80.2239,VRB,4,4.60312,KCKB 032004Z VRB04KT 7SM -RA FEW012 BKN060 OVC070 23/22 A2990 RMK AO2 P0000 T02330217,2024-08-03T20:04:00Z,23.3,21.7,7,29.90
KASD,30.3436,-89.8224,220,5,5.7539,KASD 032004Z AUTO 22005KT 10SM VCTS FEW060 29/24 A2989 RMK AO2 LTG DSNT W AND NW TSE1958 T02890239,2024-08-03T20:04:00Z,28.9,23.9,10+,29.89
CYPO,54.988,-85.439,300,15,17.261699999999998,CYPO 032004Z AUTO 30015G27KT 9SM -RA OVC015 11/09 A2974 RMK SLP074,2024-08-03T20:04:00Z,11,9,9,29.74
SVVL,9.34,-70.585,,,,SVVL 032003Z AUTO ///01KT NCD ///// Q////,2024-08-03T20:03:00Z,,,,
SVVA,10.154,-67.92,210,6,6.904679999999999,SVVA 032003Z AUTO 21006KT NCD 32/20 Q1012,2024-08-03T20:03:00Z,32,20,,29.88
SVSR,7.881,-67.443,,,,SVSR 032003Z AUTO NIL,2024-08-03T20:03:00Z,,,,
SVSA,7.841,-72.441,120,12,13.809359999999998,SVSA 032003Z AUTO 12012KT NCD 36/13 Q1008,2024-08-03T20:03:00Z,36,13,,29.76
SVPR,8.288,-62.76,70,9,10.357019999999999,SVPR 032003Z AUTO 07009KT NCD 29/21 Q1011,2024-08-03T20:03:00Z,29,21,,29.85
SVPA,5.622,-67.605,,,,SVPA 032003Z AUTO NIL,2024-08-03T20:03:00Z,,,,
SVMT,9.748,-63.156,90,9,10.357019999999999,SVMT 032003Z AUTO 09009KT NCD 33/32 Q1010,2024-08-03T20:03:00Z,33,32,,29.82
SVMI,10.603,-66.991,60,8,9.20624,SVMI 032003Z AUTO 06008KT NCD 32/21 Q1012,2024-08-03T20:03:00Z,32,21,,29.88
SVMG,10.913,-63.968,90,17,19.56326,SVMG 032003Z AUTO 09017KT NCD 26/23 Q1011,2024-08-03T20:03:00Z,26,23,,29.85
SVMC,10.558,-71.728,160,3,3.4523399999999995,SVMC 032003Z AUTO 16003KT NCD 37/22 Q1008,2024-08-03T20:03:00Z,37,22,,29.76
SVLO,11.805,-66.192,,,,SVLO 032003Z AUTO NIL,2024-08-03T20:03:00Z,,,,
SVJM,9.909,-67.377,340,3,3.4523399999999995,SVJM 032003Z AUTO 34003KT NCD 31/23 Q1012,2024-08-03T20:03:00Z,31,23,,29.88
SVGU,9.027,-69.755,,,,SVGU 032003Z AUTO ///01KT NCD ///// Q1012,2024-08-03T20:03:00Z,,,,29.88
SVGD,7.212,-70.755,220,6,6.904679999999999,SVGD 032003Z AUTO 22006KT NCD 23/24 Q1012,2024-08-03T20:03:00Z,23,24,,29.88
SVFM,10.487,-66.846,,,,SVFM 032003Z AUTO NIL,2024-08-03T20:03:00Z,,,,
SVCS,10.287,-66.816,,,,SVCS 032003Z AUTO NIL,2024-08-03T20:03:00Z,,,,
SVCB,8.121,-63.533,,,,SVCB 032003Z AUTO NIL,2024-08-03T20:03:00Z,,,,
SVBS,10.25,-67.649,250,6,6.904679999999999,SVBS 032003Z AUTO 25006KT NCD 34/20 Q1013,2024-08-03T20:03:00Z,34,20,,29.91
SVBM,10.043,-69.358,100,11,12.658579999999999,SVBM 032003Z AUTO 10011KT NCD 30/18 Q1013,2024-08-03T20:03:00Z,30,18,,29.91
SVBI,8.62,-70.22,,,,SVBI 032003Z AUTO NIL,2024-08-03T20:03:00Z,,,,
SVBC,10.107,-64.689,360,8,9.20624,SVBC 032003Z AUTO 36008KT NCD 31/24 Q1011,2024-08-03T20:03:00Z,31,24,,29.85
PFNO,66.819,-161.024,170,15,17.261699999999998,PFNO 032003Z AUTO 17015KT 4SM -RA BR BKN011 OVC029 11/11 A2993 RMK AO2 P0000 $,2024-08-03T20:03:00Z,11,11,4,29.93
PFEL,64.616,-162.272,200,19,21.864819999999998,PFEL 032003Z AUTO 20019G28KT 10SM OVC008 10/09 A2998 RMK AO2 PK WND 21028/1959 CIG 007V012 PNO $,2024-08-03T20:03:00Z,10,9,10+,29.98
PAJZ,59.727,-157.267,160,6,6.904679999999999,PAJZ 032003Z AUTO 16006KT 6SM BR BKN010 13/11 A3029 RMK AO2 CIG 007V013,2024-08-03T20:03:00Z,13,11,6,30.29
KWRB,32.639,-83.593,340,8,9.20624,KWRB 032003Z AUTO 34008KT 10SM CLR 29/24 A2989 RMK AO2 LTG DSNT SW DZB1955E03 SLP121,2024-08-03T20:03:00Z,29,24,10+,29.89
KNKT,34.897,-76.881,200,18,20.714039999999997,KNKT 032003Z 20018G27KT 10SM BKN026 31/24 A2998 RMK AO2 PK WND 20027/2003 T03110244,2024-08-03T20:03:00Z,31.1,24.4,10+,29.98
KMPO,41.1368,-75.3771,30,6,6.904679999999999,KMPO 032003Z AUTO 03006KT 10SM VCTS -RA SCT031 BKN085 OVC110 21/19 A2991 RMK AO2 LTG DSNT N-SE TSE1957 P0000 T02110194,2024-08-03T20:03:00Z,21.1,19.4,10+,29.91
KEWN,35.0684,-77.0478,180,6,6.904679999999999,KEWN 032003Z 18006KT 10SM -RA FEW032 SCT070 27/24 A2997 RMK AO2 LTG DSNT SW RAB1956 P0000 T02670244,2024-08-03T20:03:00Z,26.7,24.4,10+,29.97
PANN,64.547,-149.087,60,5,5.7539,PANN 032002Z AUTO 06005KT 10SM -RA FEW005 SCT012 OVC040 12/11 A3023 RMK AO2 P0000 T01170111 TSNO,2024-08-03T20:02:00Z,11.7,11.1,10+,30.23
PAHX,62.688,-159.566,210,8,9.20624,PAHX 032002Z AUTO 21008KT 10SM OVC017 12/09 A3015 RMK AO2 SLP210 T01170089,2024-08-03T20:02:00Z,11.7,8.9,10+,30.15
KSFY,42.0454,-90.1101,0,0,0.0,KSFY 032002Z AUTO 00000KT 10SM BKN065 BKN070 30/19 A2995 RMK AO2,2024-08-03T20:02:00Z,30,19,10+,29.95
KLHQ,39.7573,-82.6633,70,3,3.4523399999999995,KLHQ 032002Z AUTO 07003KT 10SM -TSRA SCT032 BKN050 BKN070 23/22 A2991 RMK AO2 LTG DSNT W AND NW P0000 T02280222,2024-08-03T20:02:00Z,22.8,22.2,10+,29.91
KCMH,39.9907,-82.8771,30,3,3.4523399999999995,KCMH 032002Z 03003KT 10SM BKN032 BKN085 25/22 A2989 RMK AO2 LTG DSNT SE-SW RAE1958 TSE00 TS MOV SE VCSH P0000 T02500217,2024-08-03T20:02:00Z,25,21.7,10+,29.89
ETIH,49.216,11.839,270,5,5.7539,ETIH 032002Z AUTO 27005KT 9999 BKN049 OVC110 20/17 A2993 RMK AO2 DZE02 TSE1957 SLP131 $,2024-08-03T20:02:00Z,20,17,6+,29.93
PGSN,15.116,145.72,210,11,12.658579999999999,PGSN 032001Z 21011G21KT 10SM SCT009 SCT055 BKN120 27/24 A2980 RMK AO2 T02670244 $,2024-08-03T20:01:00Z,26.7,24.4,10+,29.80
PAFS,63.015,-154.367,230,4,4.60312,PAFS 032001Z AUTO 23004KT 10SM BKN100 BKN120 13/11 A3021 RMK AO2 SLP235 P0001 T01280106 $,2024-08-03T20:01:00Z,12.8,10.6,10+,30.21
PADK,51.881,-176.644,240,17,19.56326,PADK 032001Z AUTO 24017KT 3SM BR BKN006 OVC024 12/12 A2978 RMK AO2 $,2024-08-03T20:01:00Z,12,12,3,29.78
MMDO,24.124,-104.532,0,0,0.0,MMDO 032001Z 00000KT 8SM -RA SCT015 BKN030CB 26/09 A3027 RMK 8/300 RAB02,2024-08-03T20:01:00Z,26,9,8,30.27
KTHV,39.9194,-76.8768,290,6,6.904679999999999,KTHV 032001Z AUTO 29006KT 10SM CLR 27/21 A2980 RMK AO2 LTG DSNT ALQDS T02720206,2024-08-03T20:01:00Z,27.2,20.6,10+,29.80
KPGD,26.9185,-81.9939,110,13,14.960139999999999,KPGD 032001Z 11013G30KT 6SM VCTS RA BR SCT037 BKN048 OVC070 26/23 A2992 RMK AO2 PK WND 14027/1954 LTG DSNT N-E P0005 T02610233 $,2024-08-03T20:01:00Z,26.1,23.3,6,29.92
KOQT,36.023,-84.2336,VRB,4,4.60312,KOQT 032001Z AUTO VRB04KT 10SM SCT060 BKN080 BKN090 28/23 A2993 RMK AO2 RAE1959 P0000 T02830233,2024-08-03T20:01:00Z,28.3,23.3,10+,29.93
KEGE,39.6448,-106.918,60,7,8.05546,KEGE 032001Z 06007KT 9SM CLR 33/02 A3033 RMK AO2 PNO $,2024-08-03T20:01:00Z,33,2,9,30.33
EHLW,53.223,5.752,230,5,5.7539,EHLW 032001Z AUTO 23005KT 4700 +RA BKN011 BKN013 FEW015CB OVC018 19/18 Q1010 GRN,2024-08-03T20:01:00Z,19,18,2.92,29.82
ZYTX,41.639,123.485,120,6,6.904679999999999,ZYTX 032000Z 12003MPS CAVOK 26/24 Q1006 NOSIG,2024-08-03T20:00:00Z,26,24,6+,29.70
ZYTL,38.961,121.556,150,8,9.20624,ZYTL 032000Z 15004MPS 120V180 7000 FEW011 SCT033 28/26 Q1005 NOSIG,2024-08-03T20:00:00Z,28,26,4.35,29.68
ZYHB,45.628,126.259,140,6,6.904679999999999,ZYHB 032000Z 14003MPS 100V190 9999 SCT046 22/21 Q1007 NOSIG,2024-08-03T20:00:00Z,22,21,6+,29.73
ZYCC,43.993,125.682,180,8,9.20624,ZYCC 032000Z 18004MPS CAVOK 24/24 Q1007 NOSIG,2024-08-03T20:00:00Z,24,24,6+,29.73
ZWWW,43.907,87.474,160,8,9.20624,ZWWW 032000Z 16004MPS CAVOK 30/10 Q1007 NOSIG,2024-08-03T20:00:00Z,30,10,6+,29.73
ZWSH,39.542,76.019,230,6,6.904679999999999,ZWSH 032000Z 23003MPS 9999 FEW033CB BKN040 28/13 Q1009 NOSIG,2024-08-03T20:00:00Z,28,13,6+,29.79
ZUUU,30.576,103.95,230,6,6.904679999999999,ZUUU 032000Z 23003MPS 9999 -SHRA FEW015 FEW040TCU SCT050 24/23 Q1006 NOSIG,2024-08-03T20:00:00Z,24,23,6+,29.70
ZUTF,30.304,104.436,270,4,4.60312,ZUTF 032000Z 27002MPS 9999 FEW040CB SCT050 26/24 Q1005 NOSIG,2024-08-03T20:00:00Z,26,24,6+,29.68
ZUGY,26.538,106.801,220,4,4.60312,ZUGY 032000Z 22002MPS 9999 FEW020 BKN033 22/20 Q1013 NOSIG,2024-08-03T20:00:00Z,22,20,6+,29.91
ZUCK,29.718,106.639,20,6,6.904679999999999,ZUCK 032000Z 02003MPS CAVOK 28/26 Q1005 NOSIG,2024-08-03T20:00:00Z,28,26,6+,29.68
ZSSS,31.209,121.337,140,4,4.60312,ZSSS 032000Z 14002MPS CAVOK 31/24 Q1007 NOSIG,2024-08-03T20:00:00Z,31,24,6+,29.73
ZSQD,36.362,120.087,160,10,11.5078,ZSQD 032000Z 16005MPS 5000 BR NSC 29/29 Q1004 NOSIG,2024-08-03T20:00:00Z,29,29,3.11,29.65
ZSPD,31.146,121.8,VRB,2,2.30156,ZSPD 032000Z VRB01MPS 6000 NSC 28/27 Q1007 NOSIG,2024-08-03T20:00:00Z,28,27,3.73,29.73
ZSOF,31.99,116.965,170,6,6.904679999999999,ZSOF 032000Z 17003MPS CAVOK 29/26 Q1005 NOSIG,2024-08-03T20:00:00Z,29,26,6+,29.68
ZSNJ,31.739,118.863,320,2,2.30156,ZSNJ 032000Z 32001MPS CAVOK 30/30 Q1005 NOSIG,2024-08-03T20:00:00Z,30,30,6+,29.68
ZSNB,29.827,121.462,VRB,2,2.30156,ZSNB 032000Z VRB01MPS CAVOK 29/26 Q1007 NOSIG,2024-08-03T20:00:00Z,29,26,6+,29.73
ZSHC,30.229,120.434,170,2,2.30156,ZSHC 032000Z 17001MPS CAVOK 32/26 Q1006 NOSIG,2024-08-03T20:00:00Z,32,26,6+,29.70
ZSFZ,25.936,119.666,VRB,2,2.30156,ZSFZ 032000Z VRB01MPS 5000 BR FEW009 29/28 Q1008 NOSIG,2024-08-03T20:00:00Z,29,28,3.11,29.76
ZSAM,24.546,118.131,50,4,4.60312,ZSAM 032000Z 05002MPS 9999 FEW060 28/28 Q1007 NOSIG,2024-08-03T20:00:00Z,28,28,6+,29.73
ZPPP,25.107,102.934,40,4,4.60312,ZPPP 032000Z 04002MPS 5000 BR FEW003 SCT023 17/17 Q1019 NOSIG,2024-08-03T20:00:00Z,17,17,3.11,30.09
ZMUB,47.843,106.766,VRB,2,2.30156,ZMUB 032000Z VRB01MPS 9999 FEW033 09/07 Q1009 NOSIG RMK QFE650.2 91 NT,2024-08-03T20:00:00Z,9,7,6+,29.79
ZMCK,47.651,106.822,VRB,2,2.30156,ZMCK 032000Z VRB01MPS 9999 FEW033 10/10 Q1009 NOSIG RMK QFE642.5 100 NT,2024-08-03T20:00:00Z,10,10,6+,29.79
ZLXY,34.449,108.752,90,4,4.60312,ZLXY 032000Z 09002MPS CAVOK 26/23 Q1006 NOSIG,2024-08-03T20:00:00Z,26,23,6+,29.70
ZLLL,36.513,103.623,330,4,4.60312,ZLLL 032000Z 33002MPS CAVOK 14/13 Q1017 NOSIG,2024-08-03T20:00:00Z,14,13,6+,30.03
ZJSY,18.303,109.412,340,4,4.60312,ZJSY 032000Z 34002MPS 320V020 9999 FEW015 27/25 Q1008 NOSIG,2024-08-03T20:00:00Z,27,25,6+,29.76
ZJHK,19.934,110.445,0,0,0.0,ZJHK 032000Z 00000MPS CAVOK 26/26 Q1008 NOSIG,2024-08-03T20:00:00Z,26,26,6+,29.76
ZHHH,30.783,114.205,180,6,6.904679999999999,ZHHH 032000Z 18003MPS CAVOK 31/26 Q1005 NOSIG,2024-08-03T20:00:00Z,31,26,6+,29.68
ZHCC,34.52,113.834,210,4,4.60312,ZHCC 032000Z 21002MPS 170V260 CAVOK 30/26 Q1004 NOSIG,2024-08-03T20:00:00Z,30,26,6+,29.65
ZGSZ,22.639,113.803,210,4,4.60312,ZGSZ 032000Z 21002MPS 9999 FEW015 29/27 Q1008 NOSIG,2024-08-03T20:00:00Z,29,27,6+,29.76
ZGOW,23.55,116.505,VRB,2,2.30156,ZGOW 032000Z VRB01MPS CAVOK 28/27 Q1007 NOSIG,2024-08-03T20:00:00Z,28,27,6+,29.73
ZGNN,22.609,108.173,90,4,4.60312,ZGNN 032000Z 09002MPS CAVOK 27/26 Q1008 NOSIG,2024-08-03T20:00:00Z,27,26,6+,29.76
ZGKL,25.22,110.04,VRB,2,2.30156,ZGKL 032000Z VRB01MPS CAVOK 26/25 Q1009 NOSIG,2024-08-03T20:00:00Z,26,25,6+,29.79
ZGHA,28.18,113.219,200,2,2.30156,ZGHA 032000Z 20001MPS CAVOK 28/24 Q1006 NOSIG,2024-08-03T20:00:00Z,28,24,6+,29.70
ZGGG,23.392,113.307,220,4,4.60312,ZGGG 032000Z 22002MPS 150V270 CAVOK 30/26 Q1008 NOSIG,2024-08-03T20:00:00Z,30,26,6+,29.76
ZBYN,37.747,112.628,170,4,4.60312,ZBYN 032000Z 17002MPS 9999 FEW040 23/21 Q1008 NOSIG,2024-08-03T20:00:00Z,23,21,6+,29.76
ZBTJ,39.124,117.346,VRB,2,2.30156,ZBTJ 032000Z VRB01MPS 9999 OVC033 27/26 Q1002 NOSIG,2024-08-03T20:00:00Z,27,26,6+,29.59
ZBSJ,38.281,114.697,VRB,2,2.30156,ZBSJ 032000Z VRB01MPS 4000 BR FEW005 OVC046 26/26 Q1002 NOSIG,2024-08-03T20:00:00Z,26,26,2.49,29.59
ZBHH,40.854,111.827,90,2,2.30156,ZBHH 032000Z 09001MPS 6000 SCT040 18/17 Q1009 NOSIG,2024-08-03T20:00:00Z,18,17,3.73,29.79
ZBAA,40.082,116.603,10,2,2.30156,ZBAA 032000Z 01001MPS 3200 BR SCT005 26/26 Q1002 BECMG TL2020 2500,2024-08-03T20:00:00Z,26,26,1.99,29.59
YWLM,-32.794,151.836,320,6,6.904679999999999,YWLM 032000Z AUTO 32006KT 9999 // NCD 06/05 Q1027 RF00.0/000.2,2024-08-03T20:00:00Z,6,5,6+,30.32
YSTW,-31.084,150.847,100,3,3.4523399999999995,YSTW 032000Z AUTO 10003KT 9999 // NCD 01/00 Q1028 RF00.0/000.0,2024-08-03T20:00:00Z,1,0,6+,30.35
YSSY,-33.946,151.173,310,8,9.20624,YSSY 032000Z 31008KT CAVOK 08/06 Q1028,2024-08-03T20:00:00Z,8,6,6+,30.35
YSRI,-33.601,150.777,230,1,1.15078,YSRI 032000Z AUTO 23001KT 1800 // FEW001 02/02 Q1028 RF00.0/000.0,2024-08-03T20:00:00Z,2,2,1.12,30.35
YSNF,-29.039,167.941,230,8,9.20624,YSNF 032000Z AUTO 23008KT 9999 // BKN021 BKN024 16/12 Q1016,2024-08-03T20:00:00Z,16,12,6+,30.00
YSDU,-32.221,148.575,80,4,4.60312,YSDU 032000Z AUTO 08004KT 060V120 9999 // NCD 02/01 Q1027 RF00.0/000.0,2024-08-03T20:00:00Z,2,1,6+,30.32
YSCB,-35.309,149.2,360,4,4.60312,YSCB 032000Z AUTO 36004KT 9999 // NCD M04/M04 Q1028 RF00.0/000.0,2024-08-03T20:00:00Z,-4,-4,6+,30.35
YPXM,-10.453,105.688,140,9,10.357019999999999,YPXM 032000Z AUTO 14009KT 9999 // OVC012 24/22 Q1015 RF00.0/000.0,2024-08-03T20:00:00Z,24,22,6+,29.97
YPWR,-31.156,136.805,130,10,11.5078,YPWR 032000Z AUTO 13010KT 9999 // FEW065 OVC085 13/06 Q1024,2024-08-03T20:00:00Z,13,6,6+,30.24
YPTN,-14.523,132.383,230,4,4.60312,YPTN 032000Z AUTO 23004KT 200V270 9999 // NCD 18/15 Q1016 RF00.0/000.0,2024-08-03T20:00:00Z,18,15,6+,30.00
YPPH,-31.927,115.976,360,6,6.904679999999999,YPPH 032000Z 36006KT CAVOK 05/03 Q1024,2024-08-03T20:00:00Z,5,3,6+,30.24
YPPD,-20.372,118.632,180,6,6.904679999999999,YPPD 032000Z AUTO 18006KT 9999 // ////// 17/16 Q1017 RF00.0/000.0,2024-08-03T20:00:00Z,17,16,6+,30.03
YPLM,-22.241,114.097,220,8,9.20624,YPLM 032000Z AUTO 22008KT 9999 // NCD 12/08 Q1018 RF00.0/000.0,2024-08-03T20:00:00Z,12,8,6+,30.06
YPKU,-15.781,128.71,0,0,0.0,YPKU 032000Z AUTO 00000KT 9999 // NCD 15/13 Q1014 RF00.0/000.0,2024-08-03T20:00:00Z,15,13,6+,29.94
YPKG,-30.785,121.453,220,6,6.904679999999999,YPKG 032000Z AUTO 22006KT 9999 // NCD 03/M01 Q1024 RF00.0/000.0,2024-08-03T20:00:00Z,3,-1,6+,30.24
YPJT,-32.101,115.879,0,0,0.0,YPJT 032000Z AUTO 00000KT 9999 // NCD 04/03 Q1024 RF00.0/000.0,2024-08-03T20:00:00Z,4,3,6+,30.24
YPGV,-12.274,136.82,90,5,5.7539,YPGV 032000Z AUTO 09005KT 9999 // FEW023 SCT028 22/21 Q1015,2024-08-03T20:00:00Z,22,21,6+,29.97
YPEA,-31.667,116.019,150,4,4.60312,YPEA 032000Z AUTO 15004KT 100V220 9999 // NCD 06/03 Q1024 RF00.0/000.0,2024-08-03T20:00:00Z,6,3,6+,30.24
YPDN,-12.424,130.893,120,2,2.30156,YPDN 032000Z AUTO 12002KT 9999 // NCD 22/19 Q1015 RF00.0/000.0,2024-08-03T20:00:00Z,22,19,6+,29.97
YPCC,-12.189,96.834,100,8,9.20624,YPCC 032000Z AUTO 10008KT 9999 // OVC065 26/22 Q1014 RF00.0/000.0,2024-08-03T20:00:00Z,26,22,6+,29.94
YPAD,-34.952,138.52,130,3,3.4523399999999995,YPAD 032000Z 13003KT CAVOK 08/04 Q1026 OVC200,2024-08-03T20:00:00Z,8,4,6+,30.30
YMML,-37.666,144.832,10,10,11.5078,YMML 032000Z 01010KT CAVOK 03/01 Q1028,2024-08-03T20:00:00Z,3,1,6+,30.35
YMLT,-41.544,147.213,340,9,10.357019999999999,YMLT 032000Z AUTO 34009KT 9999 // NCD 06/05 Q1022 RF00.0/000.2,2024-08-03T20:00:00Z,6,5,6+,30.18
YMHB,-42.834,147.503,360,7,8.05546,YMHB 032000Z 36007KT 9999 FEW040 09/03 Q1019,2024-08-03T20:00:00Z,9,3,6+,30.09
YMAV,-38.029,144.478,0,0,0.0,YMAV 032000Z AUTO 00000KT 9999 // NCD M02/M02 Q1028 RF00.0/000.0,2024-08-03T20:00:00Z,-2,-2,6+,30.35
YLHI,-31.538,159.077,150,3,3.4523399999999995,YLHI 032000Z AUTO 15003KT 9999 // NCD 13/09 Q1025 RF00.0/007.2,2024-08-03T20:00:00Z,13,9,6+,30.27
YHID,-10.584,142.29,130,15,17.261699999999998,YHID 032000Z AUTO 13015KT 9999 // BKN046 24/20 Q1014 RF00.0/000.0,2024-08-03T20:00:00Z,24,20,6+,29.94
YGLA,-23.87,151.221,210,6,6.904679999999999,YGLA 032000Z AUTO 21006KT 9999 // BKN061 14/11 Q1025 RF00.0/000.0,2024-08-03T20:00:00Z,14,11,6+,30.27
YGEL,-28.805,114.699,340,2,2.30156,YGEL 032000Z AUTO 34002KT 9999 // NCD 08/04 Q1023 RF00.0/000.0,2024-08-03T20:00:00Z,8,4,6+,30.21
YFRT,-30.848,128.114,140,5,5.7539,YFRT 032000Z AUTO 14005KT 9999 -DZ SCT006 OVC010 10/09 Q1023,2024-08-03T20:00:00Z,10,9,6+,30.21
YCIN,-17.574,123.831,90,8,9.20624,YCIN 032000Z AUTO 09008KT 9999 // OVC120 22/18 Q1013 RF00.0/000.0,2024-08-03T20:00:00Z,22,18,6+,29.91
YCFS,-30.317,153.119,240,5,5.7539,YCFS 032000Z AUTO 24005KT 9999 // NCD 06/05 Q1028 RF00.0/000.0,2024-08-03T20:00:00Z,6,5,6+,30.35
YBWW,-27.558,151.793,140,4,4.60312,YBWW 032000Z AUTO 14004KT 9999 // NCD 04/04 Q1026 RF00.0/000.0,2024-08-03T20:00:00Z,4,4,6+,30.30
YBTL,-19.248,146.766,180,6,6.904679999999999,YBTL 032000Z AUTO 18006KT 9999 // OVC059 18/12 Q1021 RF00.0/000.0,2024-08-03T20:00:00Z,18,12,6+,30.15
YBSU,-26.603,153.091,270,6,6.904679999999999,YBSU 032000Z AUTO 27006KT 9999 // NCD 10/08 Q1026 RF00.0/000.0,2024-08-03T20:00:00Z,10,8,6+,30.30
YBRM,-17.948,122.235,160,9,10.357019999999999,YBRM 032000Z AUTO 16009KT 9999 // FEW052 SCT063 OVC120 23/19 Q1014,2024-08-03T20:00:00Z,23,19,6+,29.94
YBRK,-23.375,150.477,130,5,5.7539,YBRK 032000Z AUTO 13005KT 9999 // SCT042 BKN046 BKN053 15/12 Q1025,2024-08-03T20:00:00Z,15,12,6+,30.27
YBMA,-20.678,139.488,70,2,2.30156,YBMA 032000Z AUTO 07002KT 9999 // NCD 06/03 Q1019 RF00.0/000.0,2024-08-03T20:00:00Z,6,3,6+,30.09
YBLN,-33.688,115.402,70,5,5.7539,YBLN 032000Z AUTO 07005KT 9999 // NCD 05/05 Q1024 RF00.0/000.0,2024-08-03T20:00:00Z,5,5,6+,30.24
YBHM,-20.357,148.949,120,17,19.56326,YBHM 032000Z AUTO 12017KT 9999 // FEW031 20/16 Q1022 RF00.0/000.0,2024-08-03T20:00:00Z,20,16,6+,30.18
YBCS,-16.874,145.745,,,,YBCS 032000Z AUTO /////KT 9999 // SCT073 19/16 Q1019 RF00.0/001.4,2024-08-03T20:00:00Z,19,16,6+,30.09
YBCG,-28.168,153.505,180,2,2.30156,YBCG 032000Z AUTO 18002KT 9999 // NCD 11/10 Q1027 RF00.0/000.0,2024-08-03T20:00:00Z,11,10,6+,30.32
YBBN,-27.391,153.13,210,7,8.05546,YBBN 032000Z 21007KT CAVOK 09/08 Q1027,2024-08-03T20:00:00Z,9,8,6+,30.32
YBAS,-23.795,133.889,160,1,1.15078,YBAS 032000Z AUTO 16001KT 9999 // NCD 10/02 Q1019 RF00.0/000.0,2024-08-03T20:00:00Z,10,2,6+,30.09
WSSS,1.368,103.982,120,5,5.7539,WSSS 032000Z 12005KT 9999 FEW015 SCT160 BKN300 28/24 Q1010 NOSIG,2024-08-03T20:00:00Z,28,24,6+,29.82
WSSL,1.417,103.866,120,5,5.7539,WSSL 032000Z 12005KT 070V160 9999 SCT016 FEW018TCU FEW020CB BKN300 28/25 Q1010,2024-08-03T20:00:00Z,28,25,6+,29.82
WSAP,1.36,103.909,100,6,6.904679999999999,WSAP 032000Z 10006KT 9999 -SHRA FEW016 FEW018TCU SCT300 27/24 Q1011,2024-08-03T20:00:00Z,27,24,6+,29.85
WMSA,3.13,101.552,VRB,1,1.15078,WMSA 032000Z VRB01KT 9000 FEW010 26/24 Q1011,2024-08-03T20:00:00Z,26,24,5.59,29.85
WMKP,5.297,100.277,VRB,2,2.30156,WMKP 032000Z VRB02KT 8000 FEW025 27/23 Q1010 NOSIG,2024-08-03T20:00:00Z,27,23,4.97,29.82
WMKN,5.383,103.103,VRB,2,2.30156,WMKN 032000Z VRB02KT 9999 FEW022 26/25 Q1009,2024-08-03T20:00:00Z,26,25,6+,29.79
WMKM,2.263,102.252,340,3,3.4523399999999995,WMKM 032000Z 34003KT 290V020 3000 RA FEW008 FEW017CB SCT027 25/24 Q1010,2024-08-03T20:00:00Z,25,24,1.86,29.82
WMKL,6.33,99.729,0,0,0.0,WMKL 032000Z 00000KT 8000 -RA FEW010 FEW017CB SCT025 25/24 Q1010,2024-08-03T20:00:00Z,25,24,4.97,29.82
WMKK,2.747,101.714,0,0,0.0,WMKK 032000Z 00000KT 9999 FEW017CB 26/24 Q1010 NOSIG,2024-08-03T20:00:00Z,26,24,6+,29.82
WMKJ,1.641,103.67,0,0,0.0,WMKJ 032000Z 00000KT 6000 FEW006 24/23 Q1010,2024-08-03T20:00:00Z,24,23,3.73,29.82
WMKI,4.568,101.092,VRB,3,3.4523399999999995,WMKI 032000Z VRB03KT 8000 FEW005 23/22 Q1011,2024-08-03T20:00:00Z,23,22,4.97,29.85
WMKE,4.537,103.427,0,0,0.0,WMKE 032000Z AUTO 00000KT //// // ////// 24/23 Q1009,2024-08-03T20:00:00Z,24,23,,29.79
WMKD,3.775,103.209,0,0,0.0,WMKD 032000Z 00000KT 9999 FEW025 24/23 Q1010 NOSIG,2024-08-03T20:00:00Z,24,23,6+,29.82
WMKC,6.167,102.293,230,5,5.7539,WMKC 032000Z 23005KT 190V260 9999 FEW017CB 26/23 Q1010,2024-08-03T20:00:00Z,26,23,6+,29.82
WMKB,5.466,100.391,80,3,3.4523399999999995,WMKB 032000Z 08003KT 7000 FEW024 25/20 Q1010 NOSIG,2024-08-03T20:00:00Z,25,20,4.35,29.82
WMKA,6.19,100.398,VRB,1,1.15078,WMKA 032000Z VRB01KT 8000 FEW010 24/24 Q1010,2024-08-03T20:00:00Z,24,24,4.97,29.82
WMBA,4.221,100.701,0,0,0.0,WMBA 032000Z 00000KT 9000 FEW031 24/23 Q1010,2024-08-03T20:00:00Z,24,23,5.59,29.82
WMAU,2.387,103.876,240,6,6.904679999999999,WMAU 032000Z 24006KT 8000 FEW002 24/23 Q1010,2024-08-03T20:00:00Z,24,23,4.97,29.82
WIOO,-0.151,109.404,50,2,2.30156,WIOO 032000Z AUTO 05002KT 8000 OVC180 25/25 Q1010,2024-08-03T20:00:00Z,25,25,4.97,29.82
WIMM,3.636,98.874,150,5,5.7539,WIMM 032000Z 15005KT 9000 SCT018 23/23 Q1010 RERA NOSIG,2024-08-03T20:00:00Z,23,23,5.59,29.82
WILL,-5.242,105.179,VRB,1,1.15078,WILL 032000Z VRB01KT 2200 BR BKN018 23/23 Q1011,2024-08-03T20:00:00Z,23,23,1.37,29.85
WIII,-6.125,106.659,190,6,6.904679999999999,WIII 032000Z 19006KT 5000 -RA BKN020 25/23 Q1011 BECMG AT2040 NSW,2024-08-03T20:00:00Z,25,23,3.11,29.85
WIEE,-0.783,100.283,100,2,2.30156,"WIEE 032000Z 10002KT 9999 FEW018CB SCT020 25/23 Q1012 NOSIG RMK CB TO SE,S,W",2024-08-03T20:00:00Z,25,23,6+,29.88
WIDN,0.923,104.532,30,1,1.15078,WIDN 032000Z 03001KT 9999 FEW017 26/25 Q1010 NOSIG,2024-08-03T20:00:00Z,26,25,6+,29.82
WIDD,1.121,104.119,100,3,3.4523399999999995,WIDD 032000Z 10003KT 9999 FEW014 28/25 Q1012 NOSIG,2024-08-03T20:00:00Z,28,25,6+,29.88
WIBB,0.461,101.445,280,6,6.904679999999999,WIBB 032000Z AUTO 28006KT 9999 BKN004 OVC008 24/24 Q1010,2024-08-03T20:00:00Z,24,24,6+,29.82
WBSB,4.944,114.928,180,2,2.30156,WBSB 032000Z 18002KT 9999 FEW003 SCT140 BKN300 26/25 Q1010 NOSIG,2024-08-03T20:00:00Z,26,25,6+,29.82
WBKW,4.316,118.119,VRB,1,1.15078,WBKW 032000Z VRB01KT 9999 FEW016 23/22 Q1010,2024-08-03T20:00:00Z,23,22,6+,29.82
WBKT,6.922,116.837,VRB,2,2.30156,WBKT 032000Z AUTO VRB02KT //// // ////// 24/23 Q1010,2024-08-03T20:00:00Z,24,23,,29.82
WBKS,5.901,118.059,VRB,1,1.15078,WBKS 032000Z VRB01KT 9999 FEW016 26/25 Q1010,2024-08-03T20:00:00Z,26,25,6+,29.82
WBKL,5.301,115.25,0,0,0.0,WBKL 032000Z 00000KT 9999 FEW040 25/24 Q1010,2024-08-03T20:00:00Z,25,24,6+,29.82
WBKK,5.937,116.051,110,5,5.7539,WBKK 032000Z 11005KT 080V140 9999 FEW014 25/22 Q1010 NOSIG,2024-08-03T20:00:00Z,25,22,6+,29.82
WBGY,1.222,111.466,0,0,0.0,WBGY 032000Z AUTO 00000KT //// // ////// 24/23 Q1010,2024-08-03T20:00:00Z,24,23,,29.82
WBGS,2.264,111.983,VRB,2,2.30156,WBGS 032000Z VRB02KT 9999 FEW008 SCT018 24/23 Q1010,2024-08-03T20:00:00Z,24,23,6+,29.82
WBGR,4.322,113.987,0,0,0.0,WBGR 032000Z 00000KT 9999 FEW016 26/24 Q1010,2024-08-03T20:00:00Z,26,24,6+,29.82
WBGG,1.484,110.34,VRB,2,2.30156,WBGG 032000Z VRB02KT 9999 FEW020 25/24 Q1010 NOSIG,2024-08-03T20:00:00Z,25,24,6+,29.82
WBGB,3.12,113.025,VRB,2,2.30156,WBGB 032000Z VRB02KT 9999 FEW016 25/24 Q1010,2024-08-03T20:00:00Z,25,24,6+,29.82
WATT,-10.172,123.671,120,7,8.05546,WATT 032000Z AUTO 12007KT 9999 NCD 25/20 Q1014,2024-08-03T20:00:00Z,25,20,6+,29.94
WARR,-7.38,112.787,240,7,8.05546,WARR 032000Z 24007KT 5000 HZ FEW020 25/23 Q1012 NOSIG,2024-08-03T20:00:00Z,25,23,3.11,29.88
WAPP,-3.71,128.089,170,6,6.904679999999999,WAPP 032000Z 17006KT 6000 -RA BKN016 25/24 Q1012 NOSIG,2024-08-03T20:00:00Z,25,24,3.73,29.88
WAOO,-3.44,114.759,VRB,2,2.30156,WAOO 032000Z AUTO VRB02KT 9999 NCD 24/24 Q1011,2024-08-03T20:00:00Z,24,24,6+,29.85
WAMM,1.541,124.926,VRB,1,1.15078,WAMM 032000Z VRB01KT 9999 SCT020 24/24 Q1013 NOSIG,2024-08-03T20:00:00Z,24,24,6+,29.91
WALL,-1.268,116.894,220,4,4.60312,WALL 032000Z 22004KT 170V270 9000 SCT020 28/25 Q1010 NOSIG,2024-08-03T20:00:00Z,28,25,5.59,29.82
WAJJ,-2.573,140.514,80,4,4.60312,WAJJ 032000Z 08004KT 9999 FEW014 26/25 Q1009,2024-08-03T20:00:00Z,26,25,6+,29.79
WAHS,-6.973,110.375,140,4,4.60312,WAHS 032000Z AUTO 14004KT 100V170 7000 OVC040 26/23 Q1012,2024-08-03T20:00:00Z,26,23,4.35,29.88
WADL,-8.757,116.277,0,0,0.0,WADL 032000Z 00000KT 7000 SCT016 23/22 Q1014 NOSIG,2024-08-03T20:00:00Z,23,22,4.35,29.94
WADD,-8.748,115.167,80,4,4.60312,WADD 032000Z 08004KT 9999 FEW017 25/24 Q1013 NOSIG,2024-08-03T20:00:00Z,25,24,6+,29.91
WABB,-1.19,136.108,360,5,5.7539,WABB 032000Z 36005KT 180V360 8000 -RA FEW014CB SCT015 25/25 Q1010 TEMPO RA RMK CB AT S,2024-08-03T20:00:00Z,25,25,4.97,29.82
WAAA,-5.062,119.554,210,2,2.30156,WAAA 032000Z 21002KT 8000 FEW019 21/18 Q1011 NOSIG,2024-08-03T20:00:00Z,21,18,4.97,29.85
VYYY,16.906,96.137,280,2,2.30156,VYYY 032000Z 28002KT 5000 DZ BKN014 FEW016CB OVC090 26/25 Q1008,2024-08-03T20:00:00Z,26,25,3.11,29.76
VVVD,21.118,107.414,140,1,1.15078,VVVD 032000Z AUTO 14001KT 9999 FEW020/// SCT025/// 27/26 Q1007 NOSIG,2024-08-03T20:00:00Z,27,26,6+,29.73
VVTS,10.817,106.667,230,4,4.60312,VVTS 032000Z 23004KT 200V260 9999 BKN040 27/25 Q1009 NOSIG,2024-08-03T20:00:00Z,27,25,6+,29.79
VVPB,16.399,107.699,220,3,3.4523399999999995,VVPB 032000Z 22003KT 160V290 9999 FEW015 SCT060 26/23 Q1007 NOSIG,2024-08-03T20:00:00Z,26,23,6+,29.73
VVNB,21.218,105.805,80,5,5.7539,VVNB 032000Z 08005KT CAVOK 27/26 Q1006 NOSIG,2024-08-03T20:00:00Z,27,26,6+,29.70
VVDN,16.044,108.199,220,2,2.30156,VVDN 032000Z 22002KT 9999 FEW017 26/22 Q1008 NOSIG,2024-08-03T20:00:00Z,26,22,6+,29.76
VVCR,11.998,109.219,0,0,0.0,VVCR 032000Z 00000KT CAVOK 28/23 Q1009 NOSIG,2024-08-03T20:00:00Z,28,23,6+,29.79
VVCI,20.823,106.727,110,3,3.4523399999999995,VVCI 032000Z 11003KT CAVOK 28/26 Q1006 NOSIG,2024-08-03T20:00:00Z,28,26,6+,29.70
VTUU,15.251,104.87,0,0,0.0,VTUU 032000Z 00000KT CAVOK 25/25 Q1010 NOSIG,2024-08-03T20:00:00Z,25,25,6+,29.82
VTUK,16.462,102.786,180,7,8.05546,VTUK 032000Z 18007KT 9999 -RA BKN030 BKN100 24/24 Q1010 NOSIG,2024-08-03T20:00:00Z,24,24,6+,29.82
VTSS,6.933,100.393,VRB,2,2.30156,VTSS 032000Z VRB02KT 9999 FEW020 SCT100 24/23 Q1010 NOSIG,2024-08-03T20:00:00Z,24,23,6+,29.82
VTSP,8.105,98.308,260,16,18.41248,VTSP 032000Z 26016KT 3000 RA FEW005 FEW015CB BKN020 25/24 Q1010 WS ALL RWY NOSIG,2024-08-03T20:00:00Z,25,24,1.86,29.82
VTSG,8.099,98.986,VRB,2,2.30156,VTSG 032000Z VRB02KT 9999 FEW020 BKN100 24/24 Q1010 NOSIG,2024-08-03T20:00:00Z,24,24,6+,29.82
VTCT,19.961,99.881,160,5,5.7539,VTCT 032000Z 16005KT 9999 FEW025 25/25 Q1008 NOSIG,2024-08-03T20:00:00Z,25,25,6+,29.76
VTCC,18.771,98.963,VRB,2,2.30156,VTCC 032000Z VRB02KT 9999 FEW012 SCT030 24/23 Q1009 NOSIG,2024-08-03T20:00:00Z,24,23,6+,29.79
VTBU,12.68,101.001,10,3,3.4523399999999995,VTBU 032000Z 01003KT 6000 -RA FEW018 SCT035 BKN100 24/24 Q1010 NOSIG,2024-08-03T20:00:00Z,24,24,3.73,29.82
VTBS,13.686,100.767,60,5,5.7539,VTBS 032000Z 06005KT 9999 -RA FEW020 25/23 Q1010 NOSIG,2024-08-03T20:00:00Z,25,23,6+,29.82
VTBD,13.913,100.607,100,5,5.7539,VTBD 032000Z 10005KT 9999 -RA FEW020 SCT040 24/23 Q1010 NOSIG,2024-08-03T20:00:00Z,24,23,6+,29.82
VRMM,4.192,73.529,30,3,3.4523399999999995,VRMM 032000Z 03003KT 9999 FEW018 BKN270 28/26 Q1011 NOSIG,2024-08-03T20:00:00Z,28,26,6+,29.85
VRMH,6.744,73.171,340,7,8.05546,VRMH 032000Z 34007KT 9999 FEW018TCU BKN260 29/26 Q1011,2024-08-03T20:00:00Z,29,26,6+,29.85
VRMG,-0.693,73.156,110,8,9.20624,VRMG 032000Z 11008KT 9999 FEW018 FEW019CB BKN260 29/27 Q1011 CB W TEMPO 5000 TSRA,2024-08-03T20:00:00Z,29,27,6+,29.85
VOVZ,17.722,83.228,250,8,9.20624,VOVZ 032000Z 25008KT 4000 BR SCT018 FEW022TCU BKN090 28/26 Q1005 TEMPO DZ,2024-08-03T20:00:00Z,28,26,2.49,29.68
VOTV,8.484,76.919,330,8,9.20624,VOTV 032000Z 33008KT 3000 BR SCT015 26/23 Q1010 NOSIG,2024-08-03T20:00:00Z,26,23,1.86,29.82
VOTR,10.765,78.71,210,4,4.60312,VOTR 032000Z 21004KT 5000 HZ FEW016 SCT100 29/23 Q1008 NOSIG,2024-08-03T20:00:00Z,29,23,3.11,29.76
VOPB,11.641,92.73,VRB,2,2.30156,VOPB 032000Z VRB02KT 5000 BR SCT012 OVC080 26/25 Q1009 NOSIG,2024-08-03T20:00:00Z,26,25,3.11,29.79
VOMM,12.994,80.18,200,10,11.5078,VOMM 032000Z 20010KT 3000 -DZ SCT018 FEW025CB OVC100 26/24 Q1005 BECMG 4000 BR,2024-08-03T20:00:00Z,26,24,1.86,29.68
VOMD,9.835,78.093,350,6,6.904679999999999,VOMD 032000Z 35006KT 5000 HZ FEW020 29/22 Q1009 NOSIG,2024-08-03T20:00:00Z,29,22,3.11,29.79
VOKN,11.917,75.547,VRB,2,2.30156,VOKN 032000Z VRB02KT 3000 -RA FEW002 SCT012 FEW025CB BKN080 24/23 Q1011 NOSIG,2024-08-03T20:00:00Z,24,23,1.86,29.85
VOHS,17.233,78.429,240,12,13.809359999999998,VOHS 032000Z 24012KT 5000 BR SCT010 SCT015 BKN080 25/21 Q1009 NOSIG,2024-08-03T20:00:00Z,25,21,3.11,29.79
VOGO,15.378,73.828,250,5,5.7539,VOGO 032000Z 25005KT 6000 FEW010 SCT020 OVC070 27/26 Q1008 TEMPO 2000 RA,2024-08-03T20:00:00Z,27,26,3.73,29.76
VOGA,15.7426,73.8631,250,8,9.20624,VOGA 032000Z 25008KT 2500 BR FEW005 SCT015 BKN080 25/24 Q1009 NOSIG,2024-08-03T20:00:00Z,25,24,1.55,29.79
VOCL,11.137,75.955,230,4,4.60312,VOCL 032000Z 23004KT 4000 BR SCT012 BKN080 24/24 Q1011 TEMPO 3000 -RA BR,2024-08-03T20:00:00Z,24,24,2.49,29.85
VOCI,10.152,76.402,0,0,0.0,VOCI 032000Z 00000KT 4000 BR SCT012 FEW025CB BKN080 25/24 Q1011 TEMPO 3500 -RA,2024-08-03T20:00:00Z,25,24,2.49,29.85
VOCB,11.03,77.043,220,6,6.904679999999999,VOCB 032000Z 22006KT 5000 BR SCT012 SCT080 25/22 Q1012 NOSIG,2024-08-03T20:00:00Z,25,22,3.11,29.88
VOBL,13.205,77.704,250,5,5.7539,VOBL 032000Z 25005KT 6000 SCT008 SCT012 BKN080 22/20 Q1015 NOSIG,2024-08-03T20:00:00Z,22,20,3.73,29.97
VOBG,12.949,77.663,250,9,10.357019999999999,VOBG 032000Z 25009KT 6000 SCT008 SCT012 BKN080 23/21 Q1015 NOSIG,2024-08-03T20:00:00Z,23,21,3.73,29.97
VNKT,27.697,85.359,VRB,2,2.30156,VNKT 032000Z VRB02KT 8000 FEW015 SCT030 BKN100 22/21 Q1013 NOSIG,2024-08-03T20:00:00Z,22,21,4.97,29.91
VMMC,22.141,113.596,250,4,4.60312,VMMC 032000Z 25004KT 210V280 9999 FEW018 29/25 Q1008 NOSIG,2024-08-03T20:00:00Z,29,25,6+,29.76
VIJP,26.824,75.812,VRB,2,2.30156,VIJP 032000Z VRB02KT 3000 BR FEW025 SCT100 28/26 Q1003 NOSIG,2024-08-03T20:00:00Z,28,26,1.86,29.62
VIDP,28.567,77.117,80,4,4.60312,VIDP 032000Z 08004KT 3500 BR FEW030 BKN100 28/27 Q1002 NOSIG,2024-08-03T20:00:00Z,28,27,2.17,29.59
VIAR,31.707,74.801,80,5,5.7539,VIAR 032000Z 08005KT 4500 BR FEW030 SCT090 30/29 Q1002 NOSIG,2024-08-03T20:00:00Z,30,29,2.8,29.59
VHHH,22.309,113.922,220,6,6.904679999999999,VHHH 032000Z 22006KT 9999 FEW018 29/26 Q1008 NOSIG,2024-08-03T20:00:00Z,29,26,6+,29.76
VGHS,23.846,90.4,120,4,4.60312,VGHS 032000Z 12004KT 4000 HZ FEW015 SCT100 26/25 Q1005 NOSIG,2024-08-03T20:00:00Z,26,25,2.49,29.68
VERC,23.314,85.322,190,8,9.20624,VERC 032000Z 19008KT 2000 DZ SCT008 SCT015 OVC080 23/22 Q1007 NOSIG,2024-08-03T20:00:00Z,23,22,1.24,29.73
VEPT,25.591,85.088,100,8,9.20624,VEPT 032000Z 10008KT 3000 BR SCT018 BKN100 28/26 Q1002 NOSIG,2024-08-03T20:00:00Z,28,26,1.86,29.59
VECC,22.651,88.445,170,6,6.904679999999999,VECC 032000Z 17006KT 3500 HZ SCT018 SCT100 28/27 Q1004 NOSIG,2024-08-03T20:00:00Z,28,27,2.17,29.65
VEBN,25.452,82.859,90,15,17.261699999999998,VEBN 032000Z 09015KT 2000 BR SCT020 BKN100 28/26 Q0998 NOSIG,2024-08-03T20:00:00Z,28,26,1.24,29.47
VDSV,10.582,103.637,110,3,3.4523399999999995,VDSV 032000Z 11003KT 080V140 9000 SCT015 SCT040 26/25 Q1009,2024-08-03T20:00:00Z,26,25,5.59,29.79
VDSA,13.371,104.225,140,3,3.4523399999999995,VDSA 032000Z 14003KT 9000 SCT015 SCT040 26/25 Q1009,2024-08-03T20:00:00Z,26,25,5.59,29.79
VDPP,11.547,104.844,180,1,1.15078,VDPP 032000Z 18001KT 9000 SCT015 SCT040 26/26 Q1008,2024-08-03T20:00:00Z,26,26,5.59,29.76
VASU,21.114,72.742,250,14,16.11092,VASU 032000Z 25014KT 3000 DZ SCT010 BKN018 OVC080 27/26 Q1002 NOSIG,2024-08-03T20:00:00Z,27,26,1.86,29.59
VANP,21.089,79.055,220,5,5.7539,VANP 032000Z 22005KT 3000 DZ FEW010 SCT018 OVC080 26/25 Q1004 NOSIG,2024-08-03T20:00:00Z,26,25,1.86,29.65
VAID,22.722,75.801,270,8,9.20624,VAID 032000Z 27008KT 4000 HZ SCT008 SCT018 BKN100 24/22 Q1005 NOSIG,2024-08-03T20:00:00Z,24,22,2.49,29.68
VABB,19.1,72.859,230,7,8.05546,VABB 032000Z 23007G17KT 2500 BR FEW012 SCT018 FEW030CB OVC090 27/25 Q1004 TEMPO 1500 SHRA,2024-08-03T20:00:00Z,27,25,1.55,29.65
VAAH,23.077,72.635,190,9,10.357019999999999,VAAH 032000Z 19009KT 1500 BR FEW010 SCT018 FEW025TCU OVC080 26/25 Q1001 NOSIG,2024-08-03T20:00:00Z,26,25,0.93,29.56
UWWW,53.509,50.163,250,4,4.60312,UWWW 032000Z 25002MPS 200V300 CAVOK 19/14 Q1003 R33/CLRD63 NOSIG RMK QFE741/0989,2024-08-03T20:00:00Z,19,14,6+,29.62
UWUU,54.57,55.87,200,6,6.904679999999999,UWUU 032000Z 20003MPS CAVOK 16/14 Q1000 R14R/0///60 NOSIG,2024-08-03T20:00:00Z,16,14,6+,29.53
UWSG,51.713,46.171,280,8,9.20624,UWSG 032000Z 28004MPS CAVOK 19/12 Q1006 R26/CLRD70 NOSIG RMK QFE751/1002,2024-08-03T20:00:00Z,19,12,6+,29.70
UWPS,54.116,45.203,230,6,6.904679999999999,UWPS 032000Z 23003MPS CAVOK 16/13 Q1005 R20/190060 NOSIG RMK QFE736,2024-08-03T20:00:00Z,16,13,6+,29.68
UWOR,51.07,58.597,230,8,9.20624,UWOR 032000Z 23004MPS CAVOK 16/13 Q1004 R25/CLRD65 NOSIG RMK QFE729/0973,2024-08-03T20:00:00Z,16,13,6+,29.65
UWOO,51.795,55.457,VRB,2,2.30156,UWOO 032000Z VRB01MPS 9999 SCT040CB 17/16 Q1003 R26/250055 NOSIG RMK QFE742/0989,2024-08-03T20:00:00Z,17,16,6+,29.62
UWLW,54.402,48.8,250,6,6.904679999999999,UWLW 032000Z 25003MPS CAVOK 17/16 Q1002 R20/CLRD60 NOSIG RMK QFE746/0995,2024-08-03T20:00:00Z,17,16,6+,29.59
UWLL,54.274,48.236,260,8,9.20624,UWLL 032000Z 26004MPS 9999 FEW040 16/11 Q1003 R20/090065 NOSIG RMK QFE742/0989,2024-08-03T20:00:00Z,16,11,6+,29.62
UWKS,56.09,47.347,270,6,6.904679999999999,UWKS 032000Z 27003MPS 9999 FEW040 17/17 Q1001 R24/090060 NOSIG RMK QFE737,2024-08-03T20:00:00Z,17,17,6+,29.56
UWKE,55.566,52.1,250,8,9.20624,UWKE 032000Z 25004MPS 9999 FEW050CB 15/15 Q1000 R21/090070 NOSIG RMK QFE734/0978,2024-08-03T20:00:00Z,15,15,6+,29.53
UWKD,55.61,49.275,260,6,6.904679999999999,UWKD 032000Z 26003MPS CAVOK 16/15 Q1001 R29/CLRD70 TEMPO 0700 FG RMK QFE739/0986,2024-08-03T20:00:00Z,16,15,6+,29.56
UWGG,56.225,43.786,200,2,2.30156,UWGG 032000Z 20001MPS 5000 1100SE R36R/1900D BR NSC 16/16 Q1002 R36R/290050 TEMPO 1000 BR BKN003,2024-08-03T20:00:00Z,16,16,3.11,29.59
UUYY,61.647,50.845,10,6,6.904679999999999,UUYY 032000Z 01003MPS 9999 FEW007 SCT020CB 17/17 Q0997 R36/19//55 NOSIG RMK QFE739/0985,2024-08-03T20:00:00Z,17,17,6+,29.44
UUWW,55.592,37.261,220,4,4.60312,UUWW 032000Z 22002MPS 9999 FEW040 16/15 Q1005 R06/000065 NOSIG,2024-08-03T20:00:00Z,16,15,6+,29.68
UUOO,51.814,39.228,0,0,0.0,UUOO 032000Z 00000MPS CAVOK 16/11 Q1006 R30/010070 NOSIG RMK QFE741,2024-08-03T20:00:00Z,16,11,6+,29.70
UUOL,52.702,39.534,260,6,6.904679999999999,UUOL 032000Z AUTO 26003MPS 9999 NCD 15/12 Q1006,2024-08-03T20:00:00Z,15,12,6+,29.70
UUOK,51.751,36.297,70,4,4.60312,UUOK 032000Z AUTO 07002MPS 030V090 9999 // NSC 19/13 Q1006 RMK QFE736/0982,2024-08-03T20:00:00Z,19,13,6+,29.70
UUOB,50.644,36.59,60,4,4.60312,UUOB 032000Z 06002MPS CAVOK 22/12 Q1006 R29/010070 NOSIG,2024-08-03T20:00:00Z,22,12,6+,29.70
UUEE,55.973,37.415,250,8,9.20624,UUEE 032000Z 25004MPS CAVOK 17/14 Q1005 R24L/CLRD62 R24C/CLRD62 NOSIG,2024-08-03T20:00:00Z,17,14,6+,29.68
UUDL,57.561,40.157,250,6,6.904679999999999,UUDL 032000Z 25003MPS CAVOK 16/15 Q1003 R23/290350 NOSIG RMK QFE744,2024-08-03T20:00:00Z,16,15,6+,29.62
UUDD,55.409,37.906,170,4,4.60312,UUDD 032000Z 17002MPS 9999 FEW040 16/15 Q1005 R32L/CLRD60 NOSIG,2024-08-03T20:00:00Z,16,15,6+,29.68
UUBW,55.553,38.15,0,0,0.0,UUBW 032000Z 00000MPS CAVOK 16/16 Q1005 R30/010060 NOSIG RMK QFE744,2024-08-03T20:00:00Z,16,16,6+,29.68
UUBC,54.552,36.37,VRB,2,2.30156,UUBC 032000Z VRB01MPS CAVOK 16/15 Q1006 R31/CLRD60 NOSIG RMK QFE738/0984,2024-08-03T20:00:00Z,16,15,6+,29.70
UTTT,41.258,69.281,VRB,2,2.30156,UTTT 032000Z VRB02KT CAVOK 29/07 Q1004 R08R/CLRD70 NOSIG,2024-08-03T20:00:00Z,29,7,6+,29.65
UTST,37.287,67.318,240,8,9.20624,UTST 032000Z 24008KT CAVOK 29/06 Q1001 R25/CLRD70 NOSIG,2024-08-03T20:00:00Z,29,6,6+,29.56
UTSS,39.7,66.974,VRB,2,2.30156,UTSS 032000Z VRB02KT 9999 NSC 23/10 Q1006 R09/70D NOSIG,2024-08-03T20:00:00Z,23,10,6+,29.70
UTSK,38.804,65.773,300,6,6.904679999999999,UTSK 032000Z 30006KT CAVOK 24/11 Q1003 R34/CLRD70,2024-08-03T20:00:00Z,24,11,6+,29.62
UTSB,39.775,64.483,350,6,6.904679999999999,UTSB 032000Z 35006KT CAVOK 25/07 Q1004 R01/CLRD70 NOSIG,2024-08-03T20:00:00Z,25,7,6+,29.65
UTSA,40.116,65.167,70,2,2.30156,UTSA 032000Z 07002KT 9999 NSC 26/02 Q1005 R07/CLRD70 NOSIG,2024-08-03T20:00:00Z,26,2,6+,29.68
UTNU,41.584,60.642,340,4,4.60312,UTNU 032000Z 34004KT CAVOK 23/19 Q1006 R31/CLRD70 NOSIG,2024-08-03T20:00:00Z,23,19,6+,29.70
UTNN,42.488,59.623,0,0,0.0,UTNN 032000Z 00000KT CAVOK 26/12 Q1006 R33/CLRD60 NOSIG,2024-08-03T20:00:00Z,26,12,6+,29.70
UTFN,40.983,71.573,350,2,2.30156,UTFN 032000Z 35002KT 9999 NSC 26/19 Q1003 R28/CLRD70 NOSIG,2024-08-03T20:00:00Z,26,19,6+,29.62
UTFF,40.356,71.745,140,6,6.904679999999999,UTFF 032000Z 14006KT 9999 NSC 26/12 Q1005 R18/CLRD70,2024-08-03T20:00:00Z,26,12,6+,29.68
UTDT,37.866,68.865,70,4,4.60312,UTDT 032000Z 07002MPS 9999 FEW120 25/16 Q1001 R35/CLRD70 RMK QFE712/0950,2024-08-03T20:00:00Z,25,16,6+,29.56
UTDL,40.215,69.695,230,10,11.5078,UTDL 032000Z 23005MPS 9999 SCT086 27/08 Q1004 R26/CLRD70 NOSIG RMK QFE716/0954,2024-08-03T20:00:00Z,27,8,6+,29.65
UTDK,37.988,69.805,20,12,13.809359999999998,UTDK 032000Z 02006MPS 9999 NSC 29/11 Q1005 R01/09//70 RMK QFE697/0929,2024-08-03T20:00:00Z,29,11,6+,29.68
UTDD,38.543,68.825,VRB,4,4.60312,UTDD 032000Z VRB02MPS 9000 NSC 25/12 Q1006 R09/D NOSIG RMK QFE687/0916,2024-08-03T20:00:00Z,25,12,5.59,29.70
UTAV,39.083,63.613,330,8,9.20624,UTAV 032000Z 33008KT CAVOK 28/07 Q1004 R31/CLRD70 NOSIG,2024-08-03T20:00:00Z,28,7,6+,29.65
UTAT,41.761,59.827,VRB,2,2.30156,UTAT 032000Z VRB02KT CAVOK 26/13 Q1006 R08/CLRD70 NOSIG,2024-08-03T20:00:00Z,26,13,6+,29.70
UTAM,37.619,61.897,60,4,4.60312,UTAM 032000Z 06004KT 6000 NSC 28/11 Q1004 R88/CLRD70 NOSIG,2024-08-03T20:00:00Z,28,11,3.73,29.65
UTAK,40.054,53.007,350,4,4.60312,UTAK 032000Z 35004KT 9999 SCT050CB BKN100 25/17 Q1006 R16R/CLRD70 NOSIG,2024-08-03T20:00:00Z,25,17,6+,29.70
UTAA,37.975,58.371,100,6,6.904679999999999,UTAA 032000Z 10006KT 9999 NSC 30/11 Q1004 R88/70D NOSIG,2024-08-03T20:00:00Z,30,11,6+,29.65
USTR,57.19,65.324,200,6,6.904679999999999,USTR 032000Z 20003MPS CAVOK 15/15 Q0998 R21/090065 R30/190063 TEMPO 0500 FG VV003,2024-08-03T20:00:00Z,15,15,6+,29.47
USSS,56.745,60.792,210,4,4.60312,USSS 032000Z 21002MPS 190V250 CAVOK 14/14 Q0999 R26L/220060 NOSIG RMK QFE729/0972,2024-08-03T20:00:00Z,14,14,6+,29.50
USRR,61.342,73.422,VRB,2,2.30156,USRR 032000Z VRB01MPS 9999 FEW040 17/17 Q0999 R07/290055 NOSIG RMK QFE744,2024-08-03T20:00:00Z,17,17,6+,29.50
USPP,57.914,56.021,210,6,6.904679999999999,USPP 032000Z 21003MPS 9999 FEW037 15/14 Q0997 R21/090060 NOSIG RMK QFE737,2024-08-03T20:00:00Z,15,14,6+,29.44
USNN,60.959,76.497,150,4,4.60312,USNN 032000Z 15002MPS 9999 TS SCT038CB 20/19 Q0999 R03/0///65 TEMPO 2000 TSRA BR RMK QFE745,2024-08-03T20:00:00Z,20,19,6+,29.50
USHH,61.029,69.086,0,0,0.0,USHH 032000Z 00000MPS 9000 MIFG NSC 18/18 Q0997 R06/010060 TEMPO 0500 FG VV002,2024-08-03T20:00:00Z,18,18,5.59,29.44
USDA,71.216,72.05,40,14,16.11092,USDA 032000Z AUTO 04007MPS 9999 ///009/// 06/06 Q1014 RMK QFE760/1013,2024-08-03T20:00:00Z,6,6,6+,29.94
USCM,53.393,58.756,230,4,4.60312,USCM 032000Z 23002MPS 9999 BKN040CB 13/11 Q1002 R18/090060 TEMPO 0300 FG VV001 RMK QFE714,2024-08-03T20:00:00Z,13,11,6+,29.59
USCC,55.306,61.503,270,8,9.20624,USCC 032000Z 27004MPS 9999 SCT030 14/14 Q0999 R27/000060 NOSIG RMK QFE729,2024-08-03T20:00:00Z,14,14,6+,29.50
URWW,48.788,44.336,70,6,6.904679999999999,URWW 032000Z 07003MPS CAVOK 18/13 Q1008 R05/010070 NOSIG,2024-08-03T20:00:00Z,18,13,6+,29.76
URWI,46.374,44.331,30,6,6.904679999999999,URWI 032000Z AUTO 03003MPS 9999 // NSC 24/04 Q1008,2024-08-03T20:00:00Z,24,4,6+,29.76
URWA,46.286,47.995,270,4,4.60312,URWA 032000Z 27002MPS 230V300 CAVOK 24/18 Q1006 R27/010070 NOSIG RMK QFE756/1009,2024-08-03T20:00:00Z,24,18,6+,29.70
URSS,43.438,39.926,30,6,6.904679999999999,URSS 032000Z 03003MPS 9999 FEW100 23/20 Q1007 R02/010070 R06/010070 NOSIG RMK R06/08004MPS QFE753,2024-08-03T20:00:00Z,23,20,6+,29.73
URRP,47.494,39.925,VRB,2,2.30156,URRP 032000Z VRB01MPS CAVOK 22/08 Q1006 R23/CLRD70 NOSIG RMK QFE747/0996,2024-08-03T20:00:00Z,22,8,6+,29.70
URMT,45.108,42.1,30,4,4.60312,URMT 032000Z 03002MPS CAVOK 24/10 Q1009 R07/010070 NOSIG RMK QFE717,2024-08-03T20:00:00Z,24,10,6+,29.79
URMO,43.204,44.608,120,6,6.904679999999999,URMO 032000Z 12003MPS 9999 NSC 19/16 Q1009 R09/010070 NOSIG RMK QFE713/0951,2024-08-03T20:00:00Z,19,16,6+,29.79
URMN,43.514,43.646,220,6,6.904679999999999,URMN 032000Z 22003MPS 9999 NSC 24/13 Q1007 R24/////// NOSIG RMK QFE719,2024-08-03T20:00:00Z,24,13,6+,29.73
URMM,44.225,43.082,360,2,2.30156,URMM 032000Z 36001MPS 9999 NSC 22/12 Q1007 R11/090070 NOSIG RMK QFE728/0970,2024-08-03T20:00:00Z,22,12,6+,29.73
URML,42.817,47.652,170,6,6.904679999999999,URML 032000Z 17003MPS 160V220 9999 NSC 23/20 Q1007 R14/01//70 NOSIG RMK QFE755/1007,2024-08-03T20:00:00Z,23,20,6+,29.73
URMG,43.387,45.702,0,0,0.0,URMG 032000Z 00000MPS CAVOK 25/16 Q1007 R26/090070 NOSIG RMK QFE741/0988,2024-08-03T20:00:00Z,25,16,6+,29.73
URKK,45.033,39.15,330,4,4.60312,URKK 032000Z 33002MPS CAVOK 24/16 Q1006 R05R/CLRD70 NOSIG RMK QFE751,2024-08-03T20:00:00Z,24,16,6+,29.70
URKA,44.995,37.341,140,4,4.60312,URKA 032000Z 14002MPS CAVOK 20/18 Q1006 R03/010070 NOSIG RMK QFE751/1001,2024-08-03T20:00:00Z,20,18,6+,29.70
UOOO,69.308,87.322,20,19,21.864819999999998,UOOO 032000Z 02010MPS CAVOK 12/11 Q1005 R01/CLRD60 NOSIG RMK QFE739/0986,2024-08-03T20:00:00Z,12,11,6+,29.68
UNWW,53.811,86.878,140,6,6.904679999999999,UNWW 032000Z 14003MPS 9999 BKN040CB 20/14 Q1003 R19/09//55 NOSIG RMK QFE725,2024-08-03T20:00:00Z,20,14,6+,29.62
UNTT,56.381,85.207,70,4,4.60312,UNTT 032000Z 07002MPS CAVOK 19/17 Q1000 R21/////// NOSIG RMK QFE735,2024-08-03T20:00:00Z,19,17,6+,29.53
UNOO,54.964,73.32,260,6,6.904679999999999,UNOO 032000Z 26003MPS CAVOK 15/12 Q1002 R25/CLRD60 NOSIG RMK QFE743,2024-08-03T20:00:00Z,15,12,6+,29.59
UNNT,55.013,82.651,160,4,4.60312,UNNT 032000Z 16002MPS 9999 FEW040CB 19/18 Q0999 R16/090070 R25/290255 NOSIG RMK QFE739/0986,2024-08-03T20:00:00Z,19,18,6+,29.50
UNKL,56.173,92.493,0,0,0.0,UNKL 032000Z 00000MPS 9000 NSC 13/13 Q1004 R29/CLRD65 TEMPO 0300 FG RMK QFE727,2024-08-03T20:00:00Z,13,13,5.59,29.65
UNEE,55.27,86.107,0,0,0.0,UNEE 032000Z 00000MPS CAVOK 20/16 Q1000 R23/////// NOSIG RMK QFE727,2024-08-03T20:00:00Z,20,16,6+,29.53
UNBB,53.362,83.54,240,10,11.5078,UNBB 032000Z 24005MPS 9999 BKN040CB 20/14 Q1002 R24/CLRD66 NOSIG RMK QFE729,2024-08-03T20:00:00Z,20,14,6+,29.59
UNAA,53.74,91.385,0,0,0.0,UNAA 032000Z 00000MPS CAVOK 19/16 Q1001 R02/CLRD65 NOSIG RMK QFE729,2024-08-03T20:00:00Z,19,16,6+,29.56
UMMS,53.883,28.031,320,4,4.60312,UMMS 032000Z 32002MPS CAVOK 15/13 Q1007 NOSIG,2024-08-03T20:00:00Z,15,13,6+,29.73
UMKK,54.885,20.583,240,4,4.60312,UMKK 032000Z 24002MPS CAVOK 16/16 Q1010 R24/95D NOSIG RMK QFE756/1008,2024-08-03T20:00:00Z,16,16,6+,29.82
UMIO,54.44,30.297,170,2,2.30156,UMIO 032000Z 17001MPS CAVOK 16/14 Q1007 NOSIG RMK QFE738/0984,2024-08-03T20:00:00Z,16,14,6+,29.73
UMGG,52.525,31.015,VRB,2,2.30156,UMGG 032000Z VRB01MPS 9999 FEW051CB BKN100 18/16 Q1007 NOSIG,2024-08-03T20:00:00Z,18,16,6+,29.73
ULWC,59.281,38.019,0,0,0.0,ULWC 032000Z 00000MPS 9999 MIFG FEW026 14/14 Q1003 R21/190060 NOSIG RMK QFE742/0990,2024-08-03T20:00:00Z,14,14,6+,29.62
ULPB,61.885,34.155,360,8,9.20624,ULPB 032000Z AUTO 36004MPS 9999 // ///008/// 17/16 Q1006 RMK QBB240 QFE750/1000,2024-08-03T20:00:00Z,17,16,6+,29.70
ULMM,68.781,32.749,360,4,4.60312,ULMM 032000Z 36002MPS 9999 BKN008 11/09 Q1016 R31/090070 NOSIG RMK OBST OBSC QFE754,2024-08-03T20:00:00Z,11,9,6+,30.00
ULLI,59.798,30.267,190,2,2.30156,ULLI 032000Z 19001MPS 9000 NSC 17/16 Q1005 R88/190055 NOSIG,2024-08-03T20:00:00Z,17,16,5.59,29.68
ULAA,64.599,40.712,VRB,2,2.30156,ULAA 032000Z VRB01MPS 9999 FEW030 14/14 Q1006 R08/CLRD70 NOSIG RMK QFE753/1004,2024-08-03T20:00:00Z,14,14,6+,29.70
UIUU,51.808,107.443,300,4,4.60312,UIUU 032000Z 30002MPS 9999 NSC 12/12 Q1004 R26/60D NOSIG RMK QFE709/0946,2024-08-03T20:00:00Z,12,12,6+,29.65
UIII,52.273,104.38,90,6,6.904679999999999,UIII 032000Z 09003MPS CAVOK 12/12 Q1003 R12/CLRD60 NOSIG RMK QFE710/0947,2024-08-03T20:00:00Z,12,12,6+,29.62
UIBB,56.365,101.716,300,6,6.904679999999999,UIBB 032000Z AUTO 30003MPS 9999 // NCD 12/11 Q1004 RMK QFE710/0947,2024-08-03T20:00:00Z,12,11,6+,29.65
UIAA,52.026,113.31,0,0,0.0,UIAA 032000Z 00000MPS 9000 VCFG BKN005 16/16 Q1001 R29/290258 NOSIG RMK QBB160 MT OBSC QFE693/0924,2024-08-03T20:00:00Z,16,16,5.59,29.56
UHWW,43.399,132.146,0,0,0.0,UHWW 032000Z 00000MPS 9999 BKN010 OVC043 21/21 Q1011 R25L/0///70 NOSIG RMK QFE757,2024-08-03T20:00:00Z,21,21,6+,29.85
UHSS,46.887,142.719,350,17,19.56326,UHSS 032000Z 35009MPS 9999 BKN035CB 12/11 Q1010 R01/250060 NOSIG RMK QFE756/1008,2024-08-03T20:00:00Z,12,11,6+,29.82
UHPP,53.175,158.444,350,6,6.904679999999999,UHPP 032000Z 35003MPS CAVOK 14/11 Q1009 R34L/CLRD60 NOSIG RMK QFE753/1004,2024-08-03T20:00:00Z,14,11,6+,29.79
UHMM,59.911,150.725,90,2,2.30156,UHMM 032000Z 09001MPS 9999 NSC 04/04 Q1014 R10/70D RMK QFE746 R28/10001MPS,2024-08-03T20:00:00Z,4,4,6+,29.94
UHMA,64.733,177.739,50,10,11.5078,UHMA 032000Z 05005MPS 010V080 9999 -RA SCT012 BKN026 09/07 Q1000 R02/////// NOSIG RMK MID 05004G07MPS END R02/03006G09MPS MT OBSC QFE746/0995,2024-08-03T20:00:00Z,9,7,6+,29.53
UHHH,48.527,135.184,10,6,6.904679999999999,UHHH 032000Z 01003MPS CAVOK 14/13 Q1012 R05L/090060 NOSIG RMK QFE753/1004,2024-08-03T20:00:00Z,14,13,6+,29.88
UHBB,50.425,127.412,VRB,2,2.30156,UHBB 032000Z VRB01MPS 9999 SCT033CB 20/19 Q1008 R36/090055 NOSIG RMK QFE738/0985,2024-08-03T20:00:00Z,20,19,6+,29.76
UGTB,41.669,44.955,280,5,5.7539,UGTB 032000Z 28005KT 9999 BKN058 25/18 Q1009 NOSIG,2024-08-03T20:00:00Z,25,18,6+,29.79
UGSB,41.61,41.6,130,8,9.20624,UGSB 032000Z 13008KT 9999 BKN068 24/20 Q1007 NOSIG,2024-08-03T20:00:00Z,24,20,6+,29.73
UGMS,43.055,42.75,VRB,2,2.30156,UGMS 032000Z AUTO VRB02KT //// ////// 15/14 Q1017,2024-08-03T20:00:00Z,15,14,,30.03
UGKO,42.177,42.483,VRB,2,2.30156,UGKO 032000Z VRB02KT 9999 BKN025 23/22 Q1007 NOSIG,2024-08-03T20:00:00Z,23,22,6+,29.73
UGAM,42.527,43.135,VRB,2,2.30156,UGAM 032000Z AUTO VRB02KT //// ////// 21/21 Q1010,2024-08-03T20:00:00Z,21,21,,29.82
UERR,62.538,114.056,60,4,4.60312,UERR 032000Z 06002MPS CAVOK 10/04 Q1008 R07/CLRD60 NOSIG RMK QFE726/0968,2024-08-03T20:00:00Z,10,4,6+,29.76
UEEE,62.093,129.774,290,2,2.30156,UEEE 032000Z 29001MPS CAVOK 05/02 Q1012 R23/09//61 NOSIG RMK QFE750,2024-08-03T20:00:00Z,5,2,6+,29.88
UDYZ,40.147,44.396,70,5,5.7539,UDYZ 032000Z 07005KT 9999 SCT043CB 26/11 Q1008 NOSIG,2024-08-03T20:00:00Z,26,11,6+,29.76
UDSG,40.75,43.859,310,10,11.5078,UDSG 032000Z 31010KT 9999 VCTS BKN043CB 19/13 Q1016 NOSIG,2024-08-03T20:00:00Z,19,13,6+,30.00
UCFO,40.61,72.791,190,4,4.60312,UCFO 032000Z 19002MPS 9999 FEW050 25/14 Q1007 NOSIG,2024-08-03T20:00:00Z,25,14,6+,29.73
UCFM,43.061,74.478,100,8,9.20624,UCFM 032000Z 10004MPS 090V150 CAVOK 23/13 Q1006 NOSIG,2024-08-03T20:00:00Z,23,13,6+,29.70
UCFL,42.585,76.702,340,4,4.60312,UCFL 032000Z 34002MPS 310V020 9999 BKN030CB 18/09 Q1016,2024-08-03T20:00:00Z,18,9,6+,30.00
UBBZ,39.094,46.734,290,6,6.904679999999999,UBBZ 032000Z AUTO 29006KT 9999 // ///////// 26/14 Q1010,2024-08-03T20:00:00Z,26,14,6+,29.82
UBBY,41.561,46.667,90,12,13.809359999999998,UBBY 032000Z 09012KT 9999 BKN080 26/18 Q1011 NOSIG,2024-08-03T20:00:00Z,26,18,6+,29.85
UBBQ,40.809,47.729,140,7,8.05546,UBBQ 032000Z 14007KT 9999 SCT150 24/18 Q1009 NOSIG,2024-08-03T20:00:00Z,24,18,6+,29.79
UBBN,39.189,45.458,110,12,13.809359999999998,UBBN 032000Z 11012KT 9999 FEW046CB SCT100 27/12 Q1007 NOSIG RMK QFE681,2024-08-03T20:00:00Z,27,12,6+,29.73
UBBL,38.746,48.818,0,0,0.0,UBBL 032000Z 00000KT 9999 NSC 21/18 Q1007 NOSIG,2024-08-03T20:00:00Z,21,18,6+,29.73
UBBG,40.738,46.318,220,4,4.60312,UBBG 032000Z 22004KT 9999 BKN100 25/19 Q1007 NOSIG,2024-08-03T20:00:00Z,25,19,6+,29.73
UBBF,39.595,47.196,310,4,4.60312,UBBF 032000Z AUTO 31004KT 9999 // NSC 23/17 Q1009,2024-08-03T20:00:00Z,23,17,6+,29.79
UBBB,40.469,50.061,330,4,4.60312,UBBB 032000Z 33004KT CAVOK 25/23 Q1006 NOSIG,2024-08-03T20:00:00Z,25,23,6+,29.70
UAUU,53.215,63.553,210,10,11.5078,UAUU 032000Z 21005MPS 9999 SCT050CB 17/14 Q1001 NOSIG RMK QFE734/0979,2024-08-03T20:00:00Z,17,14,6+,29.56
UATT,50.248,57.203,220,8,9.20624,UATT 032000Z 22004MPS CAVOK 17/11 Q1004 NOSIG RMK QFE733/0978,2024-08-03T20:00:00Z,17,11,6+,29.65
UATG,47.122,51.829,250,10,11.5078,UATG 032000Z 25005MPS 9999 SCT033CB 25/21 Q1005 NOSIG RMK QFE756/1008,2024-08-03T20:00:00Z,25,21,6+,29.68
UATE,43.86,51.092,20,6,6.904679999999999,UATE 032000Z 02003MPS 350V050 CAVOK 24/11 Q1007 NOSIG RMK QFE754/1005,2024-08-03T20:00:00Z,24,11,6+,29.73
UASP,52.202,77.078,240,6,6.904679999999999,UASP 032000Z 24003MPS CAVOK 16/15 Q1004 NOSIG RMK QFE742/0990,2024-08-03T20:00:00Z,16,15,6+,29.65
UASK,50.027,82.5,90,4,4.60312,UASK 032000Z 09002MPS 9999 NSC 14/14 Q1006 NOSIG RMK QFE729/0973,2024-08-03T20:00:00Z,14,14,6+,29.70
UARR,51.151,51.541,230,4,4.60312,UARR 032000Z 23002MPS CAVOK 18/14 Q1004 NOSIG RMK QFE750/1000,2024-08-03T20:00:00Z,18,14,6+,29.65
UAOO,44.707,65.593,320,4,4.60312,UAOO 032000Z 32002MPS CAVOK 20/09 Q1006 NOSIG RMK QFE743/0990,2024-08-03T20:00:00Z,20,9,6+,29.70
UAKK,49.672,73.333,90,4,4.60312,UAKK 032000Z 09002MPS CAVOK 08/07 Q1008 NOSIG RMK QFE710/0946,2024-08-03T20:00:00Z,8,7,6+,29.76
UAIT,43.311,68.55,30,10,11.5078,UAIT 032000Z 03005MPS CAVOK 28/03 Q1004 NOSIG RMK QFE728/0971,2024-08-03T20:00:00Z,28,3,6+,29.65
UAII,42.366,69.476,0,0,0.0,UAII 032000Z 00000MPS CAVOK 25/11 Q1004 NOSIG RMK QFE718/0957,2024-08-03T20:00:00Z,25,11,6+,29.65
UADD,42.854,71.304,250,6,6.904679999999999,UADD 032000Z 25003MPS 9999 NSC 21/11 Q1006 NOSIG RMK QFE697/0930,2024-08-03T20:00:00Z,21,11,6+,29.70
UACC,51.024,71.468,190,6,6.904679999999999,UACC 032000Z 19003MPS CAVOK 16/12 Q1005 NOSIG RMK QFE723/0964,2024-08-03T20:00:00Z,16,12,6+,29.68
UAAA,43.35,77.027,210,4,4.60312,UAAA 032000Z 21002MPS 9999 FEW100 24/09 Q1007 NOSIG,2024-08-03T20:00:00Z,24,9,6+,29.73
TVSA,13.156,-61.15,50,8,9.20624,TVSA 032000Z 05008KT 9999 SCT018 30/26 Q1012 TEMPO SHRA ,2024-08-03T20:00:00Z,30,26,6+,29.88
TUPJ,18.445,-64.543,100,11,12.658579999999999,TUPJ 032000Z 10011KT 10SM FEW023 31/24 A2998 RMK Q1015 VIS16KM,2024-08-03T20:00:00Z,31,24,10+,29.98
TTPP,10.593,-61.348,90,10,11.5078,TTPP 032000Z 09010KT 9999 FEW020 30/26 Q1010 NOSIG,2024-08-03T20:00:00Z,30,26,6+,29.82
TTCP,11.149,-60.836,100,8,9.20624,TTCP 032000Z 10008KT 9999 FEW018 30/25 Q1010 NOSIG,2024-08-03T20:00:00Z,30,25,6+,29.82
TRPG,16.792,-62.194,100,18,20.714039999999997,TRPG 032000Z 10018KT 050V130 9999 BKN017 29/26 Q1015,2024-08-03T20:00:00Z,29,26,6+,29.97
TQPF,18.205,-63.055,110,11,12.658579999999999,TQPF 032000Z 11011KT 9999 FEW016TCU SCT034 29/27 Q1015,2024-08-03T20:00:00Z,29,27,6+,29.97
TNCM,18.041,-63.109,70,9,10.357019999999999,TNCM 032000Z 07009KT 040V120 9999 FEW016 BKN032 31/25 Q1016 NOSIG ,2024-08-03T20:00:00Z,31,25,6+,30.00
TNCC,12.189,-68.96,90,12,13.809359999999998,TNCC 032000Z 09012KT CAVOK 32/25 Q1011 NOSIG,2024-08-03T20:00:00Z,32,25,6+,29.85
TNCA,12.501,-70.015,90,16,18.41248,TNCA 032000Z 09016KT 9999 FEW025 33/25 Q1010 NOSIG,2024-08-03T20:00:00Z,33,25,6+,29.82
TLPL,13.743,-60.948,100,17,19.56326,TLPL 032000Z 10017KT 9999 FEW024 BKN040 32/26 Q1012 NOSIG,2024-08-03T20:00:00Z,32,26,6+,29.88
TLPC,14.021,-60.993,70,6,6.904679999999999,TLPC 032000Z 07006KT 9999 SCT022 28/26 Q1012 NOSIG,2024-08-03T20:00:00Z,28,26,6+,29.88
TKPN,17.205,-62.591,90,13,14.960139999999999,TKPN 032000Z 09013KT 9999 SCT021 SCT047 31/26 Q1014,2024-08-03T20:00:00Z,31,26,6+,29.94
TKPK,17.312,-62.72,50,13,14.960139999999999,TKPK 032000Z 05013KT 9999 SCT020 BKN045 30/25 Q1015,2024-08-03T20:00:00Z,30,25,6+,29.97
TGPY,12.006,-61.797,90,10,11.5078,TGPY 032000Z 09010KT 9999 FEW020 31/25 Q1011 NOSIG,2024-08-03T20:00:00Z,31,25,6+,29.85
TFFR,16.265,-61.532,90,7,8.05546,TFFR 032000Z AUTO 09007KT 060V120 //// R12///// // FEW040/// SCT190/// ///TCU 28/25 Q1013,2024-08-03T20:00:00Z,28,25,,29.91
TFFJ,17.904,-62.844,60,11,12.658579999999999,TFFJ 032000Z AUTO 06011KT 040V110 9999 FEW024 OVC058 30/25 Q1015,2024-08-03T20:00:00Z,30,25,6+,29.97
TFFF,14.591,-61.003,120,12,13.809359999999998,TFFF 032000Z AUTO 12012KT 9999 SCT019 SCT025 BKN033 30/26 Q1012 TEMPO 3000 SHRA FEW012CB BKN018TCU,2024-08-03T20:00:00Z,30,26,6+,29.88
TDPD,15.547,-61.299,160,2,2.30156,TDPD 032000Z 16002KT 9999 -TSRA BKN014 BKN030 FEW///CB 26/23 Q1014,2024-08-03T20:00:00Z,26,23,6+,29.94
TBPB,13.075,-59.492,90,18,20.714039999999997,TBPB 032000Z 09018KT 9999 FEW022 30/25 Q1011 NOSIG,2024-08-03T20:00:00Z,30,25,6+,29.85
TAPA,17.135,-61.797,90,9,10.357019999999999,TAPA 032000Z 09009KT 050V130 9999 FEW016TCU SCT038 30/24 Q1014 NOSIG,2024-08-03T20:00:00Z,30,24,6+,29.94
SYCJ,6.499,-58.254,320,4,4.60312,SYCJ 032000Z 32004KT 9999 TS FEW014CB SCT015 26/25 Q1009 NOSIG RMK CB E-NW,2024-08-03T20:00:00Z,26,25,6+,29.79
SUSO,-31.438,-57.982,210,6,6.904679999999999,SUSO 032000Z 21006G16KT 9999 FEW020 18/12 Q1011,2024-08-03T20:00:00Z,18,12,6+,29.85
SUMU,-34.838,-56.031,240,8,9.20624,SUMU 032000Z 24008KT 9999 SCT011 14/13 Q1011 NOSIG,2024-08-03T20:00:00Z,14,13,6+,29.85
SULS,-34.855,-55.094,250,13,14.960139999999999,SULS 032000Z 25013KT 8000 BKN005 13/12 Q1010,2024-08-03T20:00:00Z,13,12,4.97,29.82
SUCA,-34.452,-57.768,270,6,6.904679999999999,SUCA 032000Z 27006KT 240V300 9999 FEW020 16/11 Q1012,2024-08-03T20:00:00Z,16,11,6+,29.88
SUAA,-34.788,-56.263,230,8,9.20624,SUAA 032000Z 23008KT 9999 BKN020 SCT200 14/12 Q1011,2024-08-03T20:00:00Z,14,12,6+,29.85
SPZO,-13.536,-71.939,300,10,11.5078,SPZO 032000Z 30010KT 260V340 9999 FEW050 22/M02 Q1026 NOSIG RMK PP000,2024-08-03T20:00:00Z,22,-2,6+,30.30
SPYL,-4.577,-81.254,,,,SPYL 032000Z /////KT CAVOK 25/18 Q1013 RMK BIRD HAZARD RWY 17/35 PP000,2024-08-03T20:00:00Z,25,18,6+,29.91
SPUR,-5.206,-80.616,220,7,8.05546,SPUR 032000Z 22007KT 170V260 CAVOK 27/17 Q1012 RMK BIRD HAZARD RWY 19/01 PP000,2024-08-03T20:00:00Z,27,17,6+,29.88
SPTU,-12.603,-69.228,310,7,8.05546,SPTU 032000Z 31007KT 260V350 9999 SCT050TCU 23/22 Q1008 RMK BIRD HAZARD RWY 01/19 PP000,2024-08-03T20:00:00Z,23,22,6+,29.76
SPTN,-18.049,-70.277,220,10,11.5078,SPTN 032000Z 22010KT CAVOK 18/10 Q1015 RMK PP000,2024-08-03T20:00:00Z,18,10,6+,29.97
SPST,-6.509,-76.373,40,10,11.5078,SPST 032000Z 04010KT 9999 FEW015 37/18 Q1008 RMK PP000,2024-08-03T20:00:00Z,37,18,6+,29.76
SPSO,-13.744,-76.221,280,7,8.05546,SPSO 032000Z 28007KT 9999 FEW019 18/15 Q1014 RMK BIRD HAZARD RWY 22/04 PP000,2024-08-03T20:00:00Z,18,15,6+,29.94
SPRU,-8.087,-79.109,180,9,10.357019999999999,SPRU 032000Z 18009KT 9000 VCFG BKN025 19/15 Q1014 RMK PP000,2024-08-03T20:00:00Z,19,15,5.59,29.94
SPQU,-16.341,-71.583,240,10,11.5078,SPQU 032000Z 24010KT 200V270 CAVOK 18/M07 Q1026 NOSIG RMK PP000,2024-08-03T20:00:00Z,18,-7,6+,30.30
SPQT,-3.786,-73.306,30,5,5.7539,SPQT 032000Z 03005KT 330V100 9999 BKN025 33/23 Q1009 NOSIG RMK PP000,2024-08-03T20:00:00Z,33,23,6+,29.79
SPPY,-6.207,-77.853,320,12,13.809359999999998,SPPY 032000Z 32012KT 9999 SCT025 23/06 Q1025 RMK PP000,2024-08-03T20:00:00Z,23,6,6+,30.27
SPNC,-9.879,-76.207,60,17,19.56326,SPNC 032000Z 06017KT 9999 FEW040 25/12 Q1019 RMK PP000,2024-08-03T20:00:00Z,25,12,6+,30.09
SPMS,-5.895,-76.111,360,5,5.7539,SPMS 032000Z 36005KT 9999 FEW015 35/24 Q1009 RMK BIRD HAZARD RWY 09/27 PP000,2024-08-03T20:00:00Z,35,24,6+,29.79
SPME,-3.551,-80.385,300,11,12.658579999999999,SPME 032000Z 30011KT 9999 BKN014 26/20 Q1012 RMK BIRD HAZARD RWY 32/14 PP000,2024-08-03T20:00:00Z,26,20,6+,29.88
SPLO,-17.692,-71.343,180,7,8.05546,SPLO 032000Z 18007KT 9999 FEW030 19/13 Q1014 RMK PP000,2024-08-03T20:00:00Z,19,13,6+,29.94
SPJR,-7.139,-78.489,40,9,10.357019999999999,SPJR 032000Z 04009KT 9999 FEW025 24/02 Q1024 RMK PP000,2024-08-03T20:00:00Z,24,2,6+,30.24
SPJL,-15.467,-70.158,VRB,5,5.7539,SPJL 032000Z VRB05KT CAVOK 18/M16 Q1030 RMK BIRD HAZARD RWY 12/30 PP000,2024-08-03T20:00:00Z,18,-16,6+,30.41
SPJJ,-11.783,-75.473,VRB,6,6.904679999999999,SPJJ 032000Z VRB06KT 9999 SCT040 20/04 Q1028 RMK PP000,2024-08-03T20:00:00Z,20,4,6+,30.35
SPJE,-5.593,-78.774,,,,SPJE 032000Z /////KT 9999 FEW040 33/19 Q1012 RMK BIRD HAZARD RWY 16/34 PP000,2024-08-03T20:00:00Z,33,19,6+,29.88
SPJC,-12.024,-77.113,180,10,11.5078,SPJC 032000Z 18010KT 9999 SCT012 OVC020 18/13 Q1014 NOSIG RMK PP000,2024-08-03T20:00:00Z,18,13,6+,29.94
SPHZ,-9.347,-77.598,350,20,23.0156,SPHZ 032000Z 35020KT 9999 FEW050 25/05 Q1022 RMK PP000,2024-08-03T20:00:00Z,25,5,6+,30.18
SPHO,-13.155,-74.204,VRB,3,3.4523399999999995,SPHO 032000Z VRB03KT 9999 SCT030 24/02 Q1023 RMK BIRD HAZARD RWY 20/02 PP000,2024-08-03T20:00:00Z,24,2,6+,30.21
SPHI,-6.787,-79.828,200,8,9.20624,SPHI 032000Z 20008KT 160V250 9999 SCT020 22/15 Q1013 RMK BIRD HAZARD RWY 19/01 PP000,2024-08-03T20:00:00Z,22,15,6+,29.91
SPGM,-9.291,-76.005,30,3,3.4523399999999995,SPGM 032000Z 03003KT 9999 FEW040 32/20 Q1012 RMK PP000,2024-08-03T20:00:00Z,32,20,6+,29.88
SPEO,-9.15,-78.526,200,12,13.809359999999998,SPEO 032000Z 20012KT 9999 FEW002 SCT020 20/15 Q1014 RMK PP000,2024-08-03T20:00:00Z,20,15,6+,29.94
SPCL,-8.378,-74.574,10,6,6.904679999999999,SPCL 032000Z 01006KT 9999 SCT020 34/21 Q1010 RMK BIRD HAZARD RWY 02/20 PP000,2024-08-03T20:00:00Z,34,21,6+,29.82
SOCA,4.822,-52.365,110,4,4.60312,SOCA 032000Z AUTO 11004KT 070V160 CAVOK 27/23 Q1010 TEMPO 3000 SHRA FEW015CB BKN018TCU,2024-08-03T20:00:00Z,27,23,6+,29.82
SMZO,5.811,-55.191,0,0,0.0,SMZO 032000Z 00000KT 8000 -TSRA FEW008 FEW012CB BKN020 27/24 Q1010 RESHRA NOSIG,2024-08-03T20:00:00Z,27,24,4.97,29.82
SMJP,5.453,-55.188,360,8,9.20624,SMJP 032000Z 36008KT 9999 TS VCSH FEW006 FEW015CB SCT020 26/24 Q1010 NOSIG,2024-08-03T20:00:00Z,26,24,6+,29.82
SLVR,-17.645,-63.135,330,25,28.769499999999997,SLVR 032000Z 33025G37KT 7000 FEW023 32/21 Q1007,2024-08-03T20:00:00Z,32,21,4.35,29.73
SLTR,-14.819,-64.918,290,13,14.960139999999999,SLTR 032000Z 29013KT 5000 FU FEW030 34/21 Q1008,2024-08-03T20:00:00Z,34,21,3.11,29.76
SLTJ,-21.556,-64.701,120,10,11.5078,SLTJ 032000Z 12010KT 9999 NSC 28/05 Q1013,2024-08-03T20:00:00Z,28,5,6+,29.91
SLSV,-16.401,-61.046,350,18,20.714039999999997,SLSV 032000Z 35018KT 5000 FU FEW017 33/18 Q1008,2024-08-03T20:00:00Z,33,18,3.11,29.76
SLSA,-13.762,-65.435,320,10,11.5078,SLSA 032000Z 32010KT 8000 SCT030 36/20 Q1009,2024-08-03T20:00:00Z,36,20,4.97,29.79
SLRQ,-14.429,-67.503,330,5,5.7539,SLRQ 032000Z 33005KT 8000 FEW027 32/23 Q1009,2024-08-03T20:00:00Z,32,23,4.97,29.79
SLRI,-11.007,-66.076,300,5,5.7539,SLRI 032000Z 30005KT 5000 FU FEW020 35/21 Q1010,2024-08-03T20:00:00Z,35,21,3.11,29.82
SLPS,-18.981,-57.821,360,12,13.809359999999998,SLPS 032000Z 36012G22KT 6000 SCT017 35/21 Q1008,2024-08-03T20:00:00Z,35,21,3.73,29.76
SLOR,-17.962,-67.077,310,11,12.658579999999999,SLOR 032000Z 31011G21KT 9999 NSC 17/M05 Q1029,2024-08-03T20:00:00Z,17,-5,6+,30.38
SLLP,-16.511,-68.182,290,10,11.5078,SLLP 032000Z 29010G21KT 260V320 9999 FEW017 15/M13 Q1034,2024-08-03T20:00:00Z,15,-13,6+,30.53
SLET,-17.812,-63.172,350,20,23.0156,SLET 032000Z 35020G32KT 7000 FEW023 31/20 Q1006,2024-08-03T20:00:00Z,31,20,4.35,29.70
SLCP,-16.138,-62.028,360,12,13.809359999999998,SLCP 032000Z 36012KT 4000 FU SCT017 32/16 Q1012,2024-08-03T20:00:00Z,32,16,2.49,29.88
SLCB,-17.421,-66.179,60,8,9.20624,SLCB 032000Z 06008KT 360V120 9999 FEW033 26/M03 Q1018,2024-08-03T20:00:00Z,26,-3,6+,30.06
SLCA,-20.006,-63.528,180,3,3.4523399999999995,SLCA 032000Z 18003KT 9999 NSC 37/05 Q1006,2024-08-03T20:00:00Z,37,5,6+,29.70
SLAL,-19.247,-65.15,20,11,12.658579999999999,SLAL 032000Z 02011KT 9999 NSC 21/M13 Q1024,2024-08-03T20:00:00Z,21,-13,6+,30.24
SKVV,4.162,-73.618,330,9,10.357019999999999,SKVV 032000Z 33009KT 9999 VCSH FEW023 31/21 Q1011 RMK VCSH/NE,2024-08-03T20:00:00Z,31,21,6+,29.85
SKVP,10.436,-73.248,240,6,6.904679999999999,SKVP 032000Z 24006KT 210V280 9999 FEW020 34/24 Q1010,2024-08-03T20:00:00Z,34,24,6+,29.82
SKUI,5.691,-76.644,240,5,5.7539,SKUI 032000Z 24005KT 9999 SCT040 30/24 Q1010,2024-08-03T20:00:00Z,30,24,6+,29.82
SKUC,7.066,-70.735,VRB,2,2.30156,SKUC 032000Z VRB02KT 9999 BKN017 25/23 Q1012,2024-08-03T20:00:00Z,25,23,6+,29.88
SKSP,12.587,-81.704,60,9,10.357019999999999,SKSP 032000Z 06009KT 9999 SCT018 30/26 Q1011,2024-08-03T20:00:00Z,30,26,6+,29.85
SKSM,11.12,-74.231,10,8,9.20624,SKSM 032000Z 01008KT 9999 -DZ SCT018CB 32/26 Q1010 RMK CB/E,2024-08-03T20:00:00Z,32,26,6+,29.82
SKRH,11.528,-72.918,30,12,13.809359999999998,SKRH 032000Z 03012KT 360V070 9999 FEW018 32/26 Q1008,2024-08-03T20:00:00Z,32,26,6+,29.76
SKRG,6.169,-75.426,110,10,11.5078,SKRG 032000Z 11010KT 020V170 9999 FEW020TCU 23/11 Q1024 NOSIG RMK TCUS,2024-08-03T20:00:00Z,23,11,6+,30.24
SKPV,13.358,-81.358,70,4,4.60312,SKPV 032000Z 07004KT 9999 FEW017 33/30 Q1011,2024-08-03T20:00:00Z,33,30,6+,29.85
SKPS,1.394,-77.291,320,9,10.357019999999999,SKPS 032000Z 32009KT 280V360 9999 SCT042 24/15 Q1019,2024-08-03T20:00:00Z,24,15,6+,30.09
SKPE,4.814,-75.735,320,6,6.904679999999999,SKPE 032000Z 32006KT 270V360 9999 SCT020TCU SCT080 28/17 Q1016,2024-08-03T20:00:00Z,28,17,6+,30.00
SKPC,6.184,-67.491,10,5,5.7539,SKPC 032000Z 01005KT 320V050 9999 VCTS SCT023CB 34/23 Q1008 RMK CB/SE,2024-08-03T20:00:00Z,34,23,6+,29.76
SKNV,2.949,-75.294,220,8,9.20624,SKNV 032000Z 22008KT 180V260 9999 FEW040 SCT110 34/15 Q1009,2024-08-03T20:00:00Z,34,15,6+,29.79
SKMZ,5.03,-75.47,VRB,5,5.7539,SKMZ 032000Z VRB05KT 9000 BKN070 22/14 Q1025,2024-08-03T20:00:00Z,22,14,5.59,30.27
SKMU,1.117,-70.083,VRB,3,3.4523399999999995,SKMU 032000Z VRB03KT 8000 VCSH SCT030 29/24 Q1008 RMK VCSH/S/N,2024-08-03T20:00:00Z,29,24,4.97,29.76
SKMR,8.826,-75.825,VRB,3,3.4523399999999995,SKMR 032000Z VRB03KT 9999 SCT017 30/23 Q1010,2024-08-03T20:00:00Z,30,23,6+,29.82
SKMD,6.221,-75.59,330,7,8.05546,SKMD 032000Z 33007KT 300V020 9999 SCT035 29/14 Q1018,2024-08-03T20:00:00Z,29,14,6+,30.06
SKLT,-4.196,-69.943,350,3,3.4523399999999995,SKLT 032000Z 35003KT 9999 VCSH FEW020 29/24 Q1009 RMK VCSH/N,2024-08-03T20:00:00Z,29,24,6+,29.79
SKLC,7.817,-76.718,150,5,5.7539,SKLC 032000Z 15005KT 9999 BKN017 28/24 Q1010,2024-08-03T20:00:00Z,28,24,6+,29.82
SKIP,0.858,-77.677,90,9,10.357019999999999,SKIP 032000Z 09009KT 050V130 9999 SCT020 17/07 Q1028,2024-08-03T20:00:00Z,17,7,6+,30.35
SKIB,4.418,-75.13,190,4,4.60312,SKIB 032000Z 19004KT 9999 SCT030 BKN100 29/21 Q1016,2024-08-03T20:00:00Z,29,21,6+,30.00
SKCL,3.543,-76.382,340,12,13.809359999999998,SKCL 032000Z 34012KT 9999 FW023 SCT120 30/18 Q1013 NOSIG,2024-08-03T20:00:00Z,30,18,6+,29.91
SKCG,10.447,-75.516,260,6,6.904679999999999,SKCG 032000Z 26006KT 200V300 9999 FEW015 33/25 Q1009,2024-08-03T20:00:00Z,33,25,6+,29.79
SKCC,7.93,-72.509,360,12,13.809359999999998,SKCC 032000Z 36012KT 9999 SCT022 34/21 Q1010,2024-08-03T20:00:00Z,34,21,6+,29.82
SKBQ,10.883,-74.78,270,7,8.05546,SKBQ 032000Z 27007KT 210V330 8000 3000SW -RA BKN015CB 25/25 Q1009 RERA NOSIG RMK CB/NW,2024-08-03T20:00:00Z,25,25,4.97,29.79
SKBO,4.706,-74.151,50,10,11.5078,SKBO 032000Z 05010KT 9999 BKN030 SCT060 18/09 Q1026 NOSIG,2024-08-03T20:00:00Z,18,9,6+,30.30
SKBG,7.127,-73.185,320,7,8.05546,SKBG 032000Z 32007KT 9999 BKN015 SCT070 25/20 Q1014,2024-08-03T20:00:00Z,25,20,6+,29.94
SKAR,4.455,-75.766,0,0,0.0,SKAR 032000Z 00000KT 9000 VCSH FEW020TCU SCT023 BKN090 28/18 Q1015 RMK TCUVCSH/NE/N,2024-08-03T20:00:00Z,28,18,5.59,29.97
SGES,-25.461,-54.849,50,10,11.5078,SGES 032000Z 05010KT CAVOK 28/16 Q1010,2024-08-03T20:00:00Z,28,16,6+,29.82
SGAS,-25.248,-57.519,70,8,9.20624,SGAS 032000Z 07008KT 4000 FU NSC 30/17 Q1006,2024-08-03T20:00:00Z,30,17,2.49,29.70
SETN,0.979,-79.627,270,6,6.904679999999999,SETN 032000Z 27006KT 200V320 9999 SCT026 SCT100 29/24 Q1011 RMK A2986,2024-08-03T20:00:00Z,29,24,6+,29.85
SEST,-0.906,-89.619,150,9,10.357019999999999,SEST 032000Z 15009KT 9999 FEW030 24/22 Q1012 RMK A2990,2024-08-03T20:00:00Z,24,22,6+,29.88
SESM,-1.505,-78.063,100,6,6.904679999999999,SESM 032000Z 10006KT 9999 SCT030 27/22 Q1015 RMK A2997,2024-08-03T20:00:00Z,27,22,6+,29.97
SESA,-2.205,-80.989,250,10,11.5078,SESA 032000Z 25010KT 6000 -DZ FEW003 BKN006 OVC010 23/20 Q1013 RMK A2992,2024-08-03T20:00:00Z,23,20,3.73,29.91
SERO,-3.435,-79.978,300,8,9.20624,SERO 032000Z 30008KT 9999 FEW010 BKN020 BKN080 26/21 Q1012,2024-08-03T20:00:00Z,26,21,6+,29.88
SEQM,-0.124,-78.354,350,18,20.714039999999997,SEQM 032000Z 35018KT 9999 SCT040 SCT300 23/10 Q1023 NOSIG RMK A3021,2024-08-03T20:00:00Z,23,10,6+,30.21
SENL,0.092,-76.869,100,3,3.4523399999999995,SENL 032000Z 10003KT 9999 FEW020 34/20 Q1010 RMK A2983,2024-08-03T20:00:00Z,34,20,6+,29.82
SEMT,-0.946,-80.679,250,8,9.20624,SEMT 032000Z 25008KT 200V290 9999 OVC023 25/22 Q1011 RMK A2986,2024-08-03T20:00:00Z,25,22,6+,29.85
SEMC,-2.299,-78.121,30,8,9.20624,SEMC 032000Z 03008KT 350V100 9999 FEW040 29/12 Q1015 RMK A2998,2024-08-03T20:00:00Z,29,12,6+,29.97
SELT,-0.921,-78.619,180,20,23.0156,SELT 032000Z 18020KT 160V230 9999 SCT030 SCT300 20/04 Q1027,2024-08-03T20:00:00Z,20,4,6+,30.32
SEGU,-2.158,-79.884,160,6,6.904679999999999,SEGU 032000Z 16006KT 9999 SCT023 SCT100 31/22 Q1011 NOSIG RMK A2986,2024-08-03T20:00:00Z,31,22,6+,29.85
SEGS,-0.445,-90.269,120,20,23.0156,SEGS 032000Z 12020KT 9999 FEW030 24/15 Q1015 RMK A2997,2024-08-03T20:00:00Z,24,15,6+,29.97
SECU,-2.889,-78.984,100,11,12.658579999999999,SECU 032000Z 10011KT 9999 SCT040 SCT300 24/03 Q1023 RMK A3023,2024-08-03T20:00:00Z,24,3,6+,30.21
SECO,-0.461,-76.988,150,5,5.7539,SECO 032000Z 15005KT 9999 SCT026 34/22 Q1010 RMK A2984,2024-08-03T20:00:00Z,34,22,6+,29.82
SCVD,-39.65,-73.086,310,9,10.357019999999999,SCVD 032000Z 31009KT 9999 BKN023 OVC027 11/08 Q1017,2024-08-03T20:00:00Z,11,8,6+,30.03
SCTN,-42.933,-72.699,350,12,13.809359999999998,SCTN 032000Z AUTO 35012KT 9999 FEW026 OVC035 09/08 Q1013,2024-08-03T20:00:00Z,9,8,6+,29.91
SCTE,-41.439,-73.094,350,7,8.05546,SCTE 032000Z 35007KT 9999 -SHRA FEW011 SCT016 OVC040 09/08 Q1014 NOSIG,2024-08-03T20:00:00Z,9,8,6+,29.94
SCTB,-33.456,-70.547,VRB,3,3.4523399999999995,SCTB 032000Z VRB03KT CAVOK 16/04 Q1018,2024-08-03T20:00:00Z,16,4,6+,30.06
SCSN,-33.656,-71.615,220,9,10.357019999999999,SCSN 032000Z 22009KT CAVOK 15/08 Q1018,2024-08-03T20:00:00Z,15,8,6+,30.06
SCSE,-29.918,-71.201,290,8,9.20624,SCSE 032000Z 29008KT CAVOK 14/12 Q1015,2024-08-03T20:00:00Z,14,12,6+,29.97
SCRM,-62.191,-58.987,80,11,12.658579999999999,SCRM 032000Z 08011KT 9999 FEW040 OVC050 M13/M18 Q1005 NOSIG,2024-08-03T20:00:00Z,-13,-18,6+,29.68
SCRD,-33.068,-71.557,VRB,3,3.4523399999999995,SCRD 032000Z VRB03KT CAVOK 17/09 Q1017,2024-08-03T20:00:00Z,17,9,6+,30.03
SCQP,-38.925,-72.648,290,4,4.60312,SCQP 032000Z 29004KT 260V350 9999 BKN043 10/09 Q1018,2024-08-03T20:00:00Z,10,9,6+,30.06
SCPQ,-42.347,-73.718,330,11,12.658579999999999,SCPQ 032000Z 33011KT 9999 BKN020 OVC025 08/06 Q1011,2024-08-03T20:00:00Z,8,6,6+,29.85
SCPD,-33.1173,-70.6838,VRB,1,1.15078,SCPD 032000Z VRB01KT CAVOK 13/06 Q1018,2024-08-03T20:00:00Z,13,6,6+,30.06
SCNT,-51.672,-72.528,50,2,2.30156,SCNT 032000Z 05002KT 9999 BKN015 BKN030 03/02 Q1000,2024-08-03T20:00:00Z,3,2,6+,29.53
SCJO,-40.605,-73.061,360,9,10.357019999999999,SCJO 032000Z 36009KT 9999 BKN030 OVC060 11/07 Q1015,2024-08-03T20:00:00Z,11,7,6+,29.97
SCIP,-27.161,-109.427,320,9,10.357019999999999,SCIP 032000Z 32009KT 280V340 CAVOK 22/14 Q1024 NOSIG,2024-08-03T20:00:00Z,22,14,6+,30.24
SCIE,-36.773,-73.063,360,9,10.357019999999999,SCIE 032000Z 36009KT 320V020 9999 SCT015 OVC030 12/11 Q1019,2024-08-03T20:00:00Z,12,11,6+,30.09
SCIC,-34.966,-71.217,VRB,3,3.4523399999999995,SCIC 032000Z VRB03KT 9999 FEW020 SCT200 17/04 Q1017,2024-08-03T20:00:00Z,17,4,6+,30.03
SCGE,-37.403,-72.422,360,5,5.7539,SCGE 032000Z 36005KT 9999 -SHRA BKN025 11/10 Q1019,2024-08-03T20:00:00Z,11,10,6+,30.09
SCFT,-43.189,-71.853,260,8,9.20624,SCFT 032000Z AUTO 26008KT 180V310 9999 -RA SCT041/// OVC049/// 06/04 Q1010,2024-08-03T20:00:00Z,6,4,6+,29.82
SCFA,-23.45,-70.441,200,13,14.960139999999999,SCFA 032000Z 20013KT 9999 BKN010 15/11 Q1015 NOSIG,2024-08-03T20:00:00Z,15,11,6+,29.97
SCEL,-33.393,-70.786,340,5,5.7539,SCEL 032000Z 34005KT CAVOK 14/05 Q1018 NOSIG,2024-08-03T20:00:00Z,14,5,6+,30.06
SCDA,-20.535,-70.181,220,11,12.658579999999999,SCDA 032000Z 22011KT 9999 OVC029 17/11 Q1015,2024-08-03T20:00:00Z,17,11,6+,29.97
SCCI,-53.003,-70.855,50,10,11.5078,SCCI 032000Z 05010KT 9999 SCT020 BKN030 01/M02 Q1002 NOSIG,2024-08-03T20:00:00Z,1,-2,6+,29.59
SCCH,-36.583,-72.031,20,10,11.5078,SCCH 032000Z 02010KT 9999 FEW030 BKN040 14/07 Q1019,2024-08-03T20:00:00Z,14,7,6+,30.09
SCCF,-22.496,-68.905,280,21,24.166379999999997,SCCF 032000Z 28021G31KT CAVOK 20/M10 Q1024,2024-08-03T20:00:00Z,20,-10,6+,30.24
SCBA,-45.913,-71.694,290,16,18.41248,SCBA 032000Z 29016KT 9999 FEW050 06/00 Q1003,2024-08-03T20:00:00Z,6,0,6+,29.62
SCAT,-27.262,-70.774,250,15,17.261699999999998,SCAT 032000Z 25015KT CAVOK 17/11 Q1014,2024-08-03T20:00:00Z,17,11,6+,29.94
SCAR,-18.351,-70.336,210,10,11.5078,SCAR 032000Z 21010KT CAVOK 18/11 Q1014,2024-08-03T20:00:00Z,18,11,6+,29.94
SBYS,-21.982,-47.34,60,9,10.357019999999999,SBYS 032000Z 06009KT CAVOK 28/12 Q1020,2024-08-03T20:00:00Z,28,12,6+,30.12
SBVT,-20.258,-40.286,70,6,6.904679999999999,SBVT 032000Z 07006KT 9999 VCSH FEW015 BKN017 BKN019 24/21 Q1022,2024-08-03T20:00:00Z,24,21,6+,30.18
SBVH,-12.694,-60.098,20,8,9.20624,SBVH 032000Z 02008KT 320V060 9999 FEW040 SCT070 32/13 Q1013,2024-08-03T20:00:00Z,32,13,6+,29.91
SBUY,-4.884,-65.354,170,2,2.30156,SBUY 032000Z 17002KT 9999 TS FEW025 FEW030CB SCT100 27/25 Q1008,2024-08-03T20:00:00Z,27,25,6+,29.76
SBUR,-19.765,-47.965,70,9,10.357019999999999,SBUR 032000Z 07009KT CAVOK 26/11 Q1021,2024-08-03T20:00:00Z,26,11,6+,30.15
SBUL,-18.883,-48.226,30,12,13.809359999999998,SBUL 032000Z 03012KT 9999 SCT048 25/10 Q1022,2024-08-03T20:00:00Z,25,10,6+,30.18
SBTU,-3.786,-49.72,,,,SBTU 032000Z AUTO /////KT ///V/// //// // ///////// ///// Q////,2024-08-03T20:00:00Z,,,,
SBTT,-4.254,-69.939,340,5,5.7539,SBTT 032000Z 34005KT 9999 VCSH FEW020 FEW033TCU 30/23 Q1010,2024-08-03T20:00:00Z,30,23,6+,29.82
SBTF,-3.383,-64.724,90,5,5.7539,SBTF 032000Z 09005KT 9999 SCT020 SCT100 33/23 Q1008,2024-08-03T20:00:00Z,33,23,6+,29.76
SBTE,-5.06,-42.824,140,7,8.05546,SBTE 032000Z 14007KT 9999 FEW045 35/14 Q1010,2024-08-03T20:00:00Z,35,14,6+,29.82
SBTC,-15.355,-38.999,140,6,6.904679999999999,SBTC 032000Z 14006KT 9999 SCT020 25/20 Q1020,2024-08-03T20:00:00Z,25,20,6+,30.12
SBTA,-23.04,-45.516,40,4,4.60312,SBTA 032000Z 04004KT 350V060 CAVOK 26/09 Q1021,2024-08-03T20:00:00Z,26,9,6+,30.15
SBSV,-12.911,-38.331,120,9,10.357019999999999,SBSV 032000Z 12009KT 9999 SCT025 26/20 Q1018,2024-08-03T20:00:00Z,26,20,6+,30.06
SBST,-23.924,-46.305,340,3,3.4523399999999995,SBST 032000Z 34003KT CAVOK 21/18 Q1018,2024-08-03T20:00:00Z,21,18,6+,30.06
SBSR,-20.817,-49.407,70,10,11.5078,SBSR 032000Z 07010KT 9999 FEW030 30/09 Q1018,2024-08-03T20:00:00Z,30,9,6+,30.06
SBSP,-23.627,-46.655,350,6,6.904679999999999,SBSP 032000Z 35006KT 320V030 CAVOK 27/09 Q1022,2024-08-03T20:00:00Z,27,9,6+,30.18
SBSN,-2.423,-54.789,100,11,12.658579999999999,SBSN 032000Z 10011KT CAVOK 32/24 Q1009,2024-08-03T20:00:00Z,32,24,6+,29.79
SBSM,-29.711,-53.688,340,18,20.714039999999997,SBSM 032000Z 34018G35KT 310V010 9999 SCT030 FEW040TCU SCT090 29/14 Q1007,2024-08-03T20:00:00Z,29,14,6+,29.73
SBSL,-2.585,-44.234,340,8,9.20624,SBSL 032000Z 34008KT CAVOK 29/23 Q1011,2024-08-03T20:00:00Z,29,23,6+,29.85
SBSJ,-23.229,-45.861,30,3,3.4523399999999995,SBSJ 032000Z 03003KT CAVOK 27/10 Q1021,2024-08-03T20:00:00Z,27,10,6+,30.15
SBSG,-5.768,-35.376,130,9,10.357019999999999,SBSG 032000Z 13009KT 090V180 9999 FEW035 SCT050 26/20 Q1014,2024-08-03T20:00:00Z,26,20,6+,29.94
SBSC,-22.932,-43.719,10,7,8.05546,SBSC 032000Z 01007KT CAVOK 29/18 Q1019,2024-08-03T20:00:00Z,29,18,6+,30.09
SBRP,-21.134,-47.774,50,5,5.7539,SBRP 032000Z 05005KT 9999 FEW045 SCT080 28/11 Q1019,2024-08-03T20:00:00Z,28,11,6+,30.09
SBRJ,-22.91,-43.163,180,6,6.904679999999999,SBRJ 032000Z 18006KT 9999 FEW040 26/20 Q1018,2024-08-03T20:00:00Z,26,20,6+,30.06
SBRF,-8.126,-34.923,170,14,16.11092,SBRF 032000Z 17014KT 9999 SCT023 26/21 Q1015,2024-08-03T20:00:00Z,26,21,6+,29.97
SBRB,-9.867,-67.897,310,10,11.5078,SBRB 032000Z 31010KT 9000 SCT040 35/19 Q1009,2024-08-03T20:00:00Z,35,19,5.59,29.79
SBPV,-8.708,-63.901,320,3,3.4523399999999995,SBPV 032000Z 32003KT 8000 BKN040 FEW045TCU 29/20 Q1008,2024-08-03T20:00:00Z,29,20,4.97,29.76
SBPS,-16.439,-39.081,100,8,9.20624,SBPS 032000Z 10008KT 9999 SCT020 25/22 Q1020,2024-08-03T20:00:00Z,25,22,6+,30.12
SBPP,-22.55,-55.703,10,12,13.809359999999998,SBPP 032000Z 01012KT CAVOK 30/09 Q1012,2024-08-03T20:00:00Z,30,9,6+,29.88
SBPL,-9.367,-40.565,180,8,9.20624,SBPL 032000Z 18008KT 9999 SCT030 30/12 Q1016,2024-08-03T20:00:00Z,30,12,6+,30.00
SBPK,-31.717,-52.328,350,12,13.809359999999998,SBPK 032000Z 35012KT CAVOK 26/16 Q1007,2024-08-03T20:00:00Z,26,16,6+,29.73
SBPJ,-10.291,-48.357,90,5,5.7539,SBPJ 032000Z 09005KT CAVOK 33/12 Q1013,2024-08-03T20:00:00Z,33,12,6+,29.91
SBPB,-2.894,-41.731,120,8,9.20624,SBPB 032000Z 12008KT 9999 FEW020 32/24 Q1010,2024-08-03T20:00:00Z,32,24,6+,29.82
SBOI,3.861,-51.796,30,4,4.60312,SBOI 032000Z AUTO 03004KT 360V060 9999 -RA NSC 25/23 Q1011,2024-08-03T20:00:00Z,25,23,6+,29.85
SBNT,-5.911,-35.248,150,7,8.05546,SBNT 032000Z 15007KT 9999 FEW045 26/20 Q1014,2024-08-03T20:00:00Z,26,20,6+,29.94
SBNM,-28.282,-54.169,40,15,17.261699999999998,SBNM 032000Z 04015KT 9999 SCT040 BKN080 25/18 Q1010,2024-08-03T20:00:00Z,25,18,6+,29.82
SBNF,-26.88,-48.651,70,9,10.357019999999999,SBNF 032000Z 07009KT 9000 SCT003 18/17 Q1017,2024-08-03T20:00:00Z,18,17,5.59,30.03
SBMT,-23.509,-46.638,360,4,4.60312,SBMT 032000Z 36004KT CAVOK 27/07 Q1021,2024-08-03T20:00:00Z,27,7,6+,30.15
SBMS,-5.202,-37.364,140,10,11.5078,SBMS 032000Z 14010KT 9999 FEW030 35/14 Q1011,2024-08-03T20:00:00Z,35,14,6+,29.85
SBMQ,0.051,-51.072,120,4,4.60312,SBMQ 032000Z 12004KT 9999 FEW040 32/24 Q1009,2024-08-03T20:00:00Z,32,24,6+,29.79
SBMO,-9.511,-35.792,140,8,9.20624,SBMO 032000Z 14008KT 9999 SCT022 BKN060 23/18 Q1017,2024-08-03T20:00:00Z,23,18,6+,30.03
SBMN,-3.146,-59.986,80,4,4.60312,SBMN 032000Z 08004KT 010V150 9999 FEW030 FEW035TCU SCT100 31/23 Q1009,2024-08-03T20:00:00Z,31,23,6+,29.79
SBMK,-16.705,-43.819,90,9,10.357019999999999,SBMK 032000Z 09009KT CAVOK 25/14 Q1021,2024-08-03T20:00:00Z,25,14,6+,30.15
SBMG,-23.476,-52.017,20,10,11.5078,SBMG 032000Z 02010G20KT CAVOK 30/10 Q1015,2024-08-03T20:00:00Z,30,10,6+,29.97
SBME,-22.343,-41.766,80,8,9.20624,SBME 032000Z 08008KT 4000 BR OVC020 23/20 Q1022,2024-08-03T20:00:00Z,23,20,2.49,30.18
SBMA,-5.368,-49.137,100,5,5.7539,SBMA 032000Z 10005KT CAVOK 36/12 Q1010,2024-08-03T20:00:00Z,36,12,6+,29.82
SBLS,-19.662,-43.896,120,4,4.60312,SBLS 032000Z 12004KT 060V130 9999 FEW040 SCT050 23/14 Q1023,2024-08-03T20:00:00Z,23,14,6+,30.21
SBLO,-23.334,-51.13,50,10,11.5078,SBLO 032000Z 05010KT CAVOK 30/08 Q1017,2024-08-03T20:00:00Z,30,8,6+,30.03
SBLE,-12.482,-41.277,120,9,10.357019999999999,SBLE 032000Z AUTO 12009KT CAVOK 25/13 Q1019,2024-08-03T20:00:00Z,25,13,6+,30.09
SBLB,-22.109,-39.917,80,20,23.0156,SBLB 032000Z AUTO 08020KT //// OVC040 24/// Q//// W///S4,2024-08-03T20:00:00Z,,,,
SBKP,-23.007,-47.135,340,5,5.7539,SBKP 032000Z 34005KT 300V020 CAVOK 28/11 Q1020,2024-08-03T20:00:00Z,28,11,6+,30.12
SBKG,-7.27,-35.895,150,10,11.5078,SBKG 032000Z 15010KT 9999 FEW025 25/15 Q1017,2024-08-03T20:00:00Z,25,15,6+,30.03
SBJV,-26.224,-48.797,130,5,5.7539,SBJV 032000Z 13005KT 9999 FEW020 22/19 Q1016,2024-08-03T20:00:00Z,22,19,6+,30.00
SBJU,-7.219,-39.27,160,10,11.5078,SBJU 032000Z 16010KT 9999 FEW020 30/13 Q1015,2024-08-03T20:00:00Z,30,13,6+,29.97
SBJR,-22.988,-43.37,320,1,1.15078,SBJR 032000Z 32001KT CAVOK 26/22 Q1019,2024-08-03T20:00:00Z,26,22,6+,30.09
SBJP,-7.148,-34.951,130,13,14.960139999999999,SBJP 032000Z 13013KT CAVOK 26/20 Q1015,2024-08-03T20:00:00Z,26,20,6+,29.97
SBJE,-2.907,-40.358,50,15,17.261699999999998,SBJE 032000Z 05015KT CAVOK 29/22 Q1010,2024-08-03T20:00:00Z,29,22,6+,29.82
SBIZ,-5.53,-47.458,120,8,9.20624,SBIZ 032000Z 12008KT CAVOK 36/20 Q1010,2024-08-03T20:00:00Z,36,20,6+,29.82
SBIP,-19.471,-42.488,VRB,3,3.4523399999999995,SBIP 032000Z AUTO VRB03KT 9999 FEW038 25/13 Q1021,2024-08-03T20:00:00Z,25,13,6+,30.15
SBIL,-14.816,-39.033,70,6,6.904679999999999,SBIL 032000Z 07006KT 9999 SCT025 26/20 Q1019,2024-08-03T20:00:00Z,26,20,6+,30.09
SBIH,-4.242,-56.001,70,2,2.30156,SBIH 032000Z 07002KT 9999 FEW020 30/26 Q1008,2024-08-03T20:00:00Z,30,26,6+,29.76
SBHT,-3.251,-52.252,50,3,3.4523399999999995,SBHT 032000Z 05003KT 9999 FEW030 33/19 Q1010,2024-08-03T20:00:00Z,33,19,6+,29.82
SBGW,-22.792,-45.205,30,5,5.7539,SBGW 032000Z 03005KT CAVOK 27/10 Q1021,2024-08-03T20:00:00Z,27,10,6+,30.15
SBGR,-23.432,-46.469,50,9,10.357019999999999,SBGR 032000Z 05009KT CAVOK 26/11 Q1022,2024-08-03T20:00:00Z,26,11,6+,30.18
SBGO,-16.632,-49.221,90,8,9.20624,SBGO 032000Z 09008KT CAVOK 28/09 Q1019,2024-08-03T20:00:00Z,28,9,6+,30.09
SBGL,-22.815,-43.261,130,4,4.60312,SBGL 032000Z 13004KT CAVOK 27/18 Q1019,2024-08-03T20:00:00Z,27,18,6+,30.09
SBFZ,-3.776,-38.533,90,11,12.658579999999999,SBFZ 032000Z 09011KT 9999 FEW020 28/22 Q1012,2024-08-03T20:00:00Z,28,22,6+,29.88
SBFS,-22.028,-41.069,80,13,14.960139999999999,SBFS 032000Z 08013KT 9999 VCSH FEW015 BKN025 BKN080 24/18 Q1022,2024-08-03T20:00:00Z,24,18,6+,30.18
SBFN,-3.855,-32.423,150,15,17.261699999999998,SBFN 032000Z AUTO 15015KT 9999 FEW010 SCT015 BKN042 25/23 Q1014,2024-08-03T20:00:00Z,25,23,6+,29.94
SBFL,-27.671,-48.547,340,15,17.261699999999998,SBFL 032000Z 34015KT 9999 SCT018 20/17 Q1015,2024-08-03T20:00:00Z,20,17,6+,29.97
SBFI,-25.595,-54.488,40,10,11.5078,SBFI 032000Z 04010KT CAVOK 30/14 Q1011,2024-08-03T20:00:00Z,30,14,6+,29.85
SBES,-22.813,-42.093,60,9,10.357019999999999,SBES 032000Z 06009KT 020V080 9999 SCT020 BKN050 22/21 Q1022,2024-08-03T20:00:00Z,22,21,6+,30.18
SBEG,-3.039,-60.05,110,8,9.20624,SBEG 032000Z 11008KT 9999 SCT030 FEW035TCU 32/23 Q1009,2024-08-03T20:00:00Z,32,23,6+,29.79
SBDN,-22.175,-51.427,40,9,10.357019999999999,SBDN 032000Z 04009KT CAVOK 32/09 Q1015,2024-08-03T20:00:00Z,32,9,6+,29.97
SBCZ,-7.597,-72.774,340,7,8.05546,SBCZ 032000Z 34007KT 9999 BKN030 35/19 Q1010,2024-08-03T20:00:00Z,35,19,6+,29.82
SBCY,-15.653,-56.116,340,6,6.904679999999999,SBCY 032000Z 34006KT CAVOK 36/10 Q1010,2024-08-03T20:00:00Z,36,10,6+,29.82
SBCX,-29.195,-51.189,60,8,9.20624,SBCX 032000Z 06008KT CAVOK 25/14 Q1015,2024-08-03T20:00:00Z,25,14,6+,29.97
SBCT,-25.529,-49.176,360,8,9.20624,SBCT 032000Z 36008KT CAVOK 24/11 Q1020,2024-08-03T20:00:00Z,24,11,6+,30.12
SBCR,-19.01,-57.667,30,8,9.20624,SBCR 032000Z 03008G20KT 360V060 5000 FU HZ NSC 35/13 Q1007,2024-08-03T20:00:00Z,35,13,3.11,29.73
SBCP,-21.701,-41.305,70,9,10.357019999999999,SBCP 032000Z 07009KT 6000 BKN007 OVC090 22/20 Q1022,2024-08-03T20:00:00Z,22,20,3.73,30.18
SBCO,-29.945,-51.144,350,5,5.7539,SBCO 032000Z 35005KT 320V030 CAVOK 30/15 Q1009,2024-08-03T20:00:00Z,30,15,6+,29.79
SBCJ,-6.118,-50.004,130,5,5.7539,SBCJ 032000Z 13005KT CAVOK 31/11 Q1016,2024-08-03T20:00:00Z,31,11,6+,30.00
SBCH,-27.132,-52.662,20,14,16.11092,SBCH 032000Z 02014KT 9999 FEW020 SCT080 26/17 Q1015,2024-08-03T20:00:00Z,26,17,6+,29.97
SBCG,-20.469,-54.672,10,13,14.960139999999999,SBCG 032000Z 01013KT CAVOK 33/08 Q1013,2024-08-03T20:00:00Z,33,8,6+,29.91
SBCF,-19.635,-43.966,70,5,5.7539,SBCF 032000Z 07005KT 9999 BKN033 23/13 Q1023,2024-08-03T20:00:00Z,23,13,6+,30.21
SBCC,-9.334,-54.965,70,9,10.357019999999999,SBCC 032000Z 07009KT CAVOK 32/12 Q1013,2024-08-03T20:00:00Z,32,12,6+,29.91
SBCB,-22.922,-42.074,50,6,6.904679999999999,SBCB 032000Z 05006KT 9999 SCT020 BKN040 24/19 Q1022,2024-08-03T20:00:00Z,24,19,6+,30.18
SBCA,-25,-53.501,40,18,20.714039999999997,SBCA 032000Z 04018G28KT CAVOK 27/12 Q1016,2024-08-03T20:00:00Z,27,12,6+,30.00
SBBW,-15.861,-52.389,0,0,0.0,SBBW 032000Z 00000KT 9999 FEW020 34/11 Q1015,2024-08-03T20:00:00Z,34,11,6+,29.97
SBBV,2.846,-60.69,120,5,5.7539,SBBV 032000Z 12005KT 9999 SCT035 FEW040TCU 32/21 Q1009,2024-08-03T20:00:00Z,32,21,6+,29.79
SBBU,-22.345,-49.054,50,4,4.60312,SBBU 032000Z 05004KT CAVOK 31/11 Q1018,2024-08-03T20:00:00Z,31,11,6+,30.06
SBBR,-15.867,-47.933,80,11,12.658579999999999,SBBR 032000Z 08011KT 050V110 9999 SCT045 26/09 Q1021,2024-08-03T20:00:00Z,26,9,6+,30.15
SBBQ,-21.267,-43.761,90,5,5.7539,SBBQ 032000Z 09005KT 9999 BKN040 20/15 Q1027,2024-08-03T20:00:00Z,20,15,6+,30.32
SBBI,-25.404,-49.232,350,15,17.261699999999998,SBBI 032000Z 35015KT CAVOK 24/12 Q1020,2024-08-03T20:00:00Z,24,12,6+,30.12
SBBH,-19.851,-43.951,110,10,11.5078,SBBH 032000Z 11010KT 9999 SCT048 SCT060 23/14 Q1023,2024-08-03T20:00:00Z,23,14,6+,30.21
SBBG,-31.391,-54.112,120,3,3.4523399999999995,SBBG 032000Z AUTO 12003KT 080V170 CAVOK 20/17 Q1009,2024-08-03T20:00:00Z,20,17,6+,29.79
SBBE,-1.379,-48.476,140,6,6.904679999999999,SBBE 032000Z 14006KT 9999 FEW045 33/20 Q1010,2024-08-03T20:00:00Z,33,20,6+,29.82
SBAX,-19.563,-46.96,80,10,11.5078,SBAX 032000Z AUTO 08010KT 050V110 CAVOK 25/11 Q1022,2024-08-03T20:00:00Z,25,11,6+,30.18
SBAT,-9.872,-56.106,90,5,5.7539,SBAT 032000Z 09005KT CAVOK 37/08 Q1011,2024-08-03T20:00:00Z,37,8,6+,29.85
SBAR,-10.984,-37.07,140,12,13.809359999999998,SBAR 032000Z 14012KT 9999 FEW033 26/19 Q1017,2024-08-03T20:00:00Z,26,19,6+,30.03
SBAN,-16.229,-48.964,40,7,8.05546,SBAN 032000Z 04007KT 010V080 CAVOK 24/08 Q1021,2024-08-03T20:00:00Z,24,8,6+,30.15
SBAF,-22.875,-43.385,60,5,5.7539,SBAF 032000Z 06005KT CAVOK 28/17 Q1020,2024-08-03T20:00:00Z,28,17,6+,30.12
SAZS,-41.151,-71.157,290,21,24.166379999999997,SAZS 032000Z 29021G32KT 9000 VCSH SCT022 BKN050 06/01 Q1011,2024-08-03T20:00:00Z,6,1,5.59,29.85
SAZN,-38.95,-68.141,270,17,19.56326,SAZN 032000Z 27017KT 8000 NSC 17/M05 Q1012,2024-08-03T20:00:00Z,17,-5,4.97,29.88
SAZM,-37.932,-57.581,290,6,6.904679999999999,SAZM 032000Z 29006KT CAVOK 14/04 Q1008,2024-08-03T20:00:00Z,14,4,6+,29.76
SAWH,-54.844,-68.308,140,6,6.904679999999999,SAWH 032000Z 14006KT 9999 BKN035 M01/M06 Q1005,2024-08-03T20:00:00Z,-1,-6,6+,29.68
SAWG,-51.609,-69.306,110,5,5.7539,SAWG 032000Z 11005KT 3000 -RASN BR FEW003 BKN010 01/00 Q1003,2024-08-03T20:00:00Z,1,0,1.86,29.62
SAVC,-45.79,-67.471,100,6,6.904679999999999,SAVC 032000Z 10006KT 9999 -RA FEW045 07/05 Q1004,2024-08-03T20:00:00Z,7,5,6+,29.65
SASJ,-24.387,-65.098,190,14,16.11092,SASJ 032000Z 19014KT 5000 DU FU NSC 25/09 Q1010 PP000,2024-08-03T20:00:00Z,25,9,3.11,29.82
SASA,-24.856,-65.486,70,11,12.658579999999999,SASA 032000Z 07011KT 7000 NSC 22/07 Q1013,2024-08-03T20:00:00Z,22,7,4.35,29.91
SARI,-25.737,-54.473,VRB,3,3.4523399999999995,SARI 032000Z VRB03KT CAVOK 27/17 Q1011,2024-08-03T20:00:00Z,27,17,6+,29.85
SARE,-27.45,-59.056,210,12,13.809359999999998,SARE 032000Z 21012KT 8000 NSC 28/16 Q1006,2024-08-03T20:00:00Z,28,16,4.97,29.70
SAME,-32.832,-68.793,360,10,11.5078,SAME 032000Z 36010KT CAVOK 09/M10 Q1012,2024-08-03T20:00:00Z,9,-10,6+,29.88
SAEZ,-34.822,-58.536,280,8,9.20624,SAEZ 032000Z 28008KT 9999 FEW028 SCT200 19/12 Q1012 NOSIG,2024-08-03T20:00:00Z,19,12,6+,29.88
SADF,-34.457,-58.593,250,8,9.20624,SADF 032000Z 25008KT 230V290 9999 FEW033 17/11 Q1012,2024-08-03T20:00:00Z,17,11,6+,29.88
SACO,-31.324,-64.208,170,17,19.56326,SACO 032000Z 17017G30KT CAVOK 20/01 Q1014 NOSIG,2024-08-03T20:00:00Z,20,1,6+,29.94
SABE,-34.559,-58.416,250,5,5.7539,SABE 032000Z 25005KT 190V310 9999 FEW033 18/11 Q1013 NOSIG,2024-08-03T20:00:00Z,18,11,6+,29.91
SAAR,-32.918,-60.782,190,10,11.5078,SAAR 032000Z 19010KT 9999 FEW034 19/11 Q1013,2024-08-03T20:00:00Z,19,11,6+,29.91
RPVM,10.308,123.978,220,2,2.30156,RPVM 032000Z 22002KT 9999 FEW020 BKN100 26/24 Q1010 NOSIG RMK A2983,2024-08-03T20:00:00Z,26,24,6+,29.82
RPMD,7.125,125.646,360,4,4.60312,RPMD 032000Z 36004KT 9999 FEW016 26/26 Q1010 RMK A2983,2024-08-03T20:00:00Z,26,26,6+,29.82
RPLL,14.507,121.004,VRB,2,2.30156,RPLL 032000Z VRB02KT 9999 FEW025 SCT100 27/25 Q1008 NOSIG RMK A2977,2024-08-03T20:00:00Z,27,25,6+,29.76
RPLI,18.178,120.532,110,4,4.60312,RPLI 032000Z 11004KT 9999 FEW018 BKN290 26/25 Q1008 NOSIG RMK A2977,2024-08-03T20:00:00Z,26,25,6+,29.76
RPLC,15.186,120.56,250,1,1.15078,RPLC 032000Z 25001KT 8000 FEW020 25/24 Q1009 NOSIG RMK A2980,2024-08-03T20:00:00Z,25,24,4.97,29.79
RPLB,14.794,120.271,20,2,2.30156,RPLB 032000Z 02002KT 9999 FEW020 BKN080 26/25 Q1009 NOSIG RMK A2980,2024-08-03T20:00:00Z,26,25,6+,29.79
ROYN,24.467,122.978,200,3,3.4523399999999995,ROYN 032000Z AUTO 20003KT 9999 NCD 27/26 Q1007,2024-08-03T20:00:00Z,27,26,6+,29.73
RORY,27.044,128.4,20,6,6.904679999999999,RORY 032000Z AUTO 02006KT 9999 FEW011 29/27 Q1007,2024-08-03T20:00:00Z,29,27,6+,29.73
RORT,24.653,124.674,350,2,2.30156,RORT 032000Z AUTO 35002KT 9999 NCD 26/25 Q1007,2024-08-03T20:00:00Z,26,25,6+,29.73
RORS,24.827,125.145,330,4,4.60312,RORS 032000Z AUTO 33004KT 290V350 9999 FEW018 28/26 Q1007,2024-08-03T20:00:00Z,28,26,6+,29.73
RORK,25.944,131.326,20,11,12.658579999999999,RORK 032000Z AUTO 02011KT 9999 SCT021 29/26 Q1005,2024-08-03T20:00:00Z,29,26,6+,29.68
ROMY,24.782,125.295,350,2,2.30156,ROMY 032000Z AUTO 35002KT 9999 NCD 27/26 Q1007,2024-08-03T20:00:00Z,27,26,6+,29.73
ROMD,25.847,131.264,30,8,9.20624,ROMD 032000Z AUTO 03008KT 9999 NCD 29/25 Q1005,2024-08-03T20:00:00Z,29,25,6+,29.68
ROIG,24.395,124.245,320,4,4.60312,ROIG 032000Z AUTO 32004KT 9999 NCD 26/26 Q1007,2024-08-03T20:00:00Z,26,26,6+,29.73
ROAH,26.196,127.646,10,8,9.20624,ROAH 032000Z AUTO 01008KT 9999 FEW015 29/26 Q1006 RMK A2973,2024-08-03T20:00:00Z,29,26,6+,29.70
RKTU,36.717,127.499,60,2,2.30156,RKTU 032000Z 06002KT 9000 NSC 25/24 Q1008,2024-08-03T20:00:00Z,25,24,5.59,29.76
RKTN,35.894,128.659,110,1,1.15078,RKTN 032000Z 11001KT CAVOK 28/26 Q1008,2024-08-03T20:00:00Z,28,26,6+,29.76
RKSS,37.558,126.791,360,3,3.4523399999999995,RKSS 032000Z 36003KT CAVOK 26/26 Q1008 NOSIG,2024-08-03T20:00:00Z,26,26,6+,29.76
RKSI,37.469,126.451,290,5,5.7539,RKSI 032000Z 29005KT CAVOK 26/25 Q1009 NOSIG,2024-08-03T20:00:00Z,26,25,6+,29.79
RKPK,35.179,128.938,60,3,3.4523399999999995,RKPK 032000Z 06003KT CAVOK 28/26 Q1008,2024-08-03T20:00:00Z,28,26,6+,29.76
RKPC,33.511,126.493,200,6,6.904679999999999,RKPC 032000Z 20006KT CAVOK 29/24 Q1009 NOSIG,2024-08-03T20:00:00Z,29,24,6+,29.79
RKNY,38.061,128.669,290,6,6.904679999999999,RKNY 032000Z AUTO 29006KT 9999 NCD 26/23 Q1009,2024-08-03T20:00:00Z,26,23,6+,29.79
RKJB,34.991,126.383,350,3,3.4523399999999995,RKJB 032000Z 35003KT 4000 BR SCT010 28/27 Q1009 NOSIG,2024-08-03T20:00:00Z,28,27,2.49,29.79
RJTT,35.553,139.781,VRB,4,4.60312,RJTT 032000Z VRB04KT 9999 FEW025 BKN060 28/22 Q1008 NOSIG RMK 1CU025 7SC060 A2979,2024-08-03T20:00:00Z,28,22,6+,29.76
RJSN,37.956,139.121,150,4,4.60312,RJSN 032000Z AUTO 15004KT 9999 BKN037 26/25 Q1008,2024-08-03T20:00:00Z,26,25,6+,29.76
RJSM,40.705,141.372,220,3,3.4523399999999995,RJSM 032000Z 22003KT 9999 FEW030 BKN130 25/23 Q1008,2024-08-03T20:00:00Z,25,23,6+,29.76
RJSF,37.227,140.428,130,3,3.4523399999999995,RJSF 032000Z AUTO 13003KT 9999 NCD 23/22 Q1010,2024-08-03T20:00:00Z,23,22,6+,29.82
RJOS,34.132,134.609,130,3,3.4523399999999995,RJOS 032000Z 13003KT 9999 SCT003 27/26 Q1008,2024-08-03T20:00:00Z,27,26,6+,29.76
RJOO,34.784,135.439,VRB,1,1.15078,RJOO 032000Z AUTO VRB01KT 9999 NSC 29/26 Q1008 RMK A2977,2024-08-03T20:00:00Z,29,26,6+,29.76
RJOK,33.546,133.669,330,5,5.7539,RJOK 032000Z AUTO 33005KT 9999 NCD 27/25 Q1007,2024-08-03T20:00:00Z,27,25,6+,29.73
RJOH,35.493,133.239,170,3,3.4523399999999995,RJOH 032000Z 17003KT 9999 FEW007 SCT009 28/28 Q1008,2024-08-03T20:00:00Z,28,28,6+,29.76
RJOC,35.414,132.89,170,4,4.60312,RJOC 032000Z AUTO 17004KT 9999 BKN011 BKN016 28/27 Q1008,2024-08-03T20:00:00Z,28,27,6+,29.76
RJOA,34.436,132.919,290,2,2.30156,RJOA 032000Z AUTO 29002KT 9999 FEW024 SCT037 BKN041 //////TCU 27/26 Q1010,2024-08-03T20:00:00Z,27,26,6+,29.82
RJNK,36.394,136.407,VRB,1,1.15078,RJNK 032000Z VRB01KT 9999 FEW030 BKN050 27/24 Q1008,2024-08-03T20:00:00Z,27,24,6+,29.76
RJKI,28.321,129.928,30,6,6.904679999999999,RJKI 032000Z AUTO 03006KT 9999 FEW017 29/26 Q1007,2024-08-03T20:00:00Z,29,26,6+,29.73
RJKB,27.432,128.706,10,6,6.904679999999999,RJKB 032000Z AUTO 01006KT 9999 NCD 29/26 Q1007,2024-08-03T20:00:00Z,29,26,6+,29.73
RJKA,28.431,129.713,340,4,4.60312,RJKA 032000Z AUTO 34004KT 9999 BKN015 BKN022 28/26 Q1007,2024-08-03T20:00:00Z,28,26,6+,29.73
RJGG,34.858,136.805,100,3,3.4523399999999995,RJGG 032000Z AUTO 10003KT 9999 FEW014 BKN050 28/26 Q1008 NOSIG,2024-08-03T20:00:00Z,28,26,6+,29.76
RJFR,33.846,131.035,10,5,5.7539,RJFR 032000Z AUTO 01005KT 9999 FEW015 SCT019 29/27 Q1007,2024-08-03T20:00:00Z,29,27,6+,29.73
RJFM,31.877,131.449,320,3,3.4523399999999995,RJFM 032000Z AUTO 32003KT 9999 NCD 28/25 Q1007,2024-08-03T20:00:00Z,28,25,6+,29.73
RJFF,33.584,130.452,130,3,3.4523399999999995,RJFF 032000Z AUTO 13003KT 9999 NCD 28/26 Q1008 NOSIG RMK A2977,2024-08-03T20:00:00Z,28,26,6+,29.76
RJEC,43.671,142.447,170,5,5.7539,RJEC 032000Z AUTO 17005KT 9999 FEW013 SCT018 BKN023 23/22 Q1008,2024-08-03T20:00:00Z,23,22,6+,29.76
RJDC,33.93,131.279,VRB,2,2.30156,RJDC 032000Z AUTO VRB02KT 9999 NCD 29/27 Q1007,2024-08-03T20:00:00Z,29,27,6+,29.73
RJDB,33.749,129.785,VRB,2,2.30156,RJDB 032000Z AUTO VRB02KT 9999 NCD 29/28 Q1007,2024-08-03T20:00:00Z,29,28,6+,29.73
RJCK,43.041,144.193,190,3,3.4523399999999995,RJCK 032000Z AUTO 19003KT 160V220 0200 R35/0325N FG OVC001 20/20 Q1008,2024-08-03T20:00:00Z,20,20,0.12,29.76
RJCH,41.77,140.822,120,3,3.4523399999999995,RJCH 032000Z AUTO 12003KT 9000 SCT025 SCT033 BKN035 25/24 Q1008,2024-08-03T20:00:00Z,25,24,5.59,29.76
RJCC,42.774,141.693,350,9,10.357019999999999,RJCC 032000Z 35009KT 1500 R19R/2000N R19L/1900D -DZ BR FEW002 BKN004 21/21 Q1008 RMK 1ST002 7ST004 A2979,2024-08-03T20:00:00Z,21,21,0.93,29.76
RJBB,34.434,135.233,200,4,4.60312,RJBB 032000Z AUTO 20004KT 9999 BKN050 28/26 Q1008 NOSIG,2024-08-03T20:00:00Z,28,26,6+,29.76
RJAW,24.784,141.322,180,7,8.05546,RJAW 032000Z 18007KT 9999 SCT015 BKN/// 28/26 Q1005 RMK 3CU015 A2968,2024-08-03T20:00:00Z,28,26,6+,29.68
RJAH,36.182,140.415,VRB,1,1.15078,RJAH 032000Z VRB01KT 9999 FEW015 BKN050 25/23 Q1008,2024-08-03T20:00:00Z,25,23,6+,29.76
RJAA,35.765,140.386,120,2,2.30156,RJAA 032000Z AUTO 12002KT 9999 NSC 23/23 Q1009 NOSIG RMK A2979,2024-08-03T20:00:00Z,23,23,6+,29.79
RCTP,25.078,121.233,240,6,6.904679999999999,RCTP 032000Z 24006KT 9999 FEW010 BKN045 28/28 Q1008 NOSIG RMK A2977,2024-08-03T20:00:00Z,28,28,6+,29.76
RCSS,25.069,121.552,VRB,1,1.15078,RCSS 032000Z VRB01KT 9999 FEW025 28/25 Q1008 NOSIG RMK A2977,2024-08-03T20:00:00Z,28,25,6+,29.76
RCNN,22.95,120.206,100,2,2.30156,RCNN 032000Z 10002KT 9999 FEW012 BKN100 27/25 Q1008 RMK A2979,2024-08-03T20:00:00Z,27,25,6+,29.76
RCMQ,24.265,120.621,220,6,6.904679999999999,RCMQ 032000Z 22006KT 9999 FEW012 BKN040 28/26 Q1009 RMK A2981,2024-08-03T20:00:00Z,28,26,6+,29.79
RCKH,22.577,120.35,90,3,3.4523399999999995,RCKH 032000Z 09003KT 9999 FEW015 SCT040 BKN080 28/26 Q1007 NOSIG RMK A2976,2024-08-03T20:00:00Z,28,26,6+,29.73
PLCH,1.988,-157.349,110,4,4.60312,PLCH 032000Z 11004KT 9999 FEW020 30/25 Q1013,2024-08-03T20:00:00Z,30,25,6+,29.91
PKWA,8.72,167.724,50,3,3.4523399999999995,PKWA 032000Z AUTO 05003KT 10SM CLR 28/24 A2990 RMK AO2 T02830242,2024-08-03T20:00:00Z,28.3,24.2,10+,29.90
PAOM,64.5111,-165.44,170,16,18.41248,PAOM 032000Z 17016G26KT 2SM -RA BR OVC005 09/09 A2990 RMK AO2 PK WND 17026/1956 RAB1956 P0000 T00940089 $,2024-08-03T20:00:00Z,9.4,8.9,2,29.90
PAFB,64.836,-147.614,120,4,4.60312,PAFB 032000Z AUTO 12004KT 7SM -RA OVC006 12/11 A3025 RMK AO2 SLP251 $,2024-08-03T20:00:00Z,12,11,7,30.25
OYAA,12.829,45.029,VRB,2,2.30156,OYAA 032000Z VRB02KT 5000 DU FEW020 BKN080 28/24 Q1004 NOSIG,2024-08-03T20:00:00Z,28,24,3.11,29.65
OTHH,25.273,51.609,320,11,12.658579999999999,OTHH 032000Z 32011KT CAVOK 35/16 Q0996 NOSIG,2024-08-03T20:00:00Z,35,16,6+,29.41
OTBD,25.261,51.565,340,7,8.05546,OTBD 032000Z 34007KT CAVOK 37/11 Q0997 NOSIG,2024-08-03T20:00:00Z,37,11,6+,29.44
OSLK,35.402,35.949,200,8,9.20624,OSLK 032000Z 20008KT 9999 SCT030 26/22 Q1006,2024-08-03T20:00:00Z,26,22,6+,29.70
OSDI,33.411,36.516,200,15,17.261699999999998,OSDI 032000Z 20015KT CAVOK 25/10 Q1008,2024-08-03T20:00:00Z,25,10,6+,29.76
ORSU,35.56,45.318,310,5,5.7539,ORSU 032000Z 31005KT CAVOK 27/06 Q1004,2024-08-03T20:00:00Z,27,6,6+,29.65
ORNI,31.99,44.405,230,7,8.05546,ORNI 032000Z 23007KT 8000 NSC 33/05 Q0998,2024-08-03T20:00:00Z,33,5,4.97,29.47
ORMM,30.549,47.662,300,10,11.5078,ORMM 032000Z 30010KT CAVOK 34/04 Q0997 NOSIG,2024-08-03T20:00:00Z,34,4,6+,29.44
ORER,36.232,43.951,260,6,6.904679999999999,ORER 032000Z 26006KT 9000 NSC 34/03 Q1001,2024-08-03T20:00:00Z,34,3,5.59,29.56
ORBI,33.263,44.235,240,8,9.20624,ORBI 032000Z 24008KT CAVOK 33/08 Q0997 NOSIG,2024-08-03T20:00:00Z,33,8,6+,29.44
OPST,32.536,74.364,90,6,6.904679999999999,OPST 032000Z 09006KT 4000 FU FEW040 SCT100 29/25 Q1002 NOSIG RH78,2024-08-03T20:00:00Z,29,25,2.49,29.59
OPSK,27.722,68.792,310,6,6.904679999999999,OPSK 032000Z 31006KT 3000 DZ SCT040 BKN100 27/27 Q0998 TEMPO DZ,2024-08-03T20:00:00Z,27,27,1.86,29.47
OPPS,33.996,71.515,310,10,11.5078,OPPS 032000Z 31010KT 5000 TS FEW030CB SCT040 BKN080 29/26 Q1002,2024-08-03T20:00:00Z,29,26,3.11,29.59
OPKC,24.902,67.139,260,10,11.5078,OPKC 032000Z 26010KT 4000 FU SCT030 BKN090 29/26 Q1000 TEMPO 1000 TSRA FEW025CB,2024-08-03T20:00:00Z,29,26,2.49,29.53
OPIS,33.551,72.827,90,10,11.5078,OPIS 032000Z 09010KT 6000 SCT040 SCT100 27/25 Q1003 NOSIG,2024-08-03T20:00:00Z,27,25,3.73,29.62
OMSJ,25.329,55.517,220,5,5.7539,OMSJ 032000Z 22005KT 9000 NSC 35/30 Q0996 NOSIG,2024-08-03T20:00:00Z,35,30,5.59,29.41
OMRK,25.613,55.939,250,5,5.7539,OMRK 032000Z 25005KT CAVOK 36/29 Q0995 A2940,2024-08-03T20:00:00Z,36,29,6+,29.38
OMFJ,25.112,56.324,180,3,3.4523399999999995,OMFJ 032000Z 18003KT 120V210 6000 NSC 33/29 Q0995 A2940,2024-08-03T20:00:00Z,33,29,3.73,29.38
OMDW,24.897,55.161,250,5,5.7539,OMDW 032000Z 25005KT CAVOK 34/30 Q0996 NOSIG,2024-08-03T20:00:00Z,34,30,6+,29.41
OMDB,25.254,55.366,230,6,6.904679999999999,OMDB 032000Z 23006KT 8000 NSC 35/30 Q0995 NOSIG,2024-08-03T20:00:00Z,35,30,4.97,29.38
OMAL,24.262,55.609,280,7,8.05546,OMAL 032000Z 28007KT 9000 NSC 33/28 Q0998 NOSIG,2024-08-03T20:00:00Z,33,28,5.59,29.47
OMAD,24.428,54.458,310,8,9.20624,OMAD 032000Z 31008KT CAVOK 35/26 Q0996 NOSIG,2024-08-03T20:00:00Z,35,26,6+,29.41
OMAA,24.433,54.651,280,9,10.357019999999999,OMAA 032000Z 28009KT CAVOK 34/27 Q0996 NOSIG,2024-08-03T20:00:00Z,34,27,6+,29.41
OLBA,33.82,35.491,200,6,6.904679999999999,OLBA 032000Z 20006KT CAVOK 28/21 Q1008 NOSIG,2024-08-03T20:00:00Z,28,21,6+,29.76
OKKK,29.227,47.969,340,8,9.20624,OKKK 032000Z 34008KT CAVOK 39/09 Q0998 NOSIG,2024-08-03T20:00:00Z,39,9,6+,29.47
OJAQ,29.612,35.018,360,8,9.20624,OJAQ 032000Z 36008KT 8000 NSC 34/10 Q1005 NOSIG,2024-08-03T20:00:00Z,34,10,4.97,29.68
OJAM,31.973,35.992,320,5,5.7539,OJAM 032000Z 32005KT CAVOK 24/15 Q1011 NOSIG,2024-08-03T20:00:00Z,24,15,6+,29.85
OJAI,31.723,35.993,300,6,6.904679999999999,OJAI 032000Z 30006KT 7000 NSC 24/15 Q1011 NOSIG,2024-08-03T20:00:00Z,24,15,4.35,29.85
OIZI,27.236,60.72,250,8,9.20624,OIZI 032000Z 25008KT 8000 NSC 38/21 Q0999,2024-08-03T20:00:00Z,38,21,4.97,29.50
OIZH,29.472,60.901,190,4,4.60312,OIZH 032000Z 19004KT CAVOK 28/03 Q1008 A2977,2024-08-03T20:00:00Z,28,3,6+,29.76
OIZC,25.445,60.383,120,10,11.5078,OIZC 032000Z 12010KT 3000 BR BKN035 29/26 Q0996 A2943,2024-08-03T20:00:00Z,29,26,1.86,29.41
OIZB,31.094,61.546,350,27,31.07106,OIZB 032000Z 35027KT CAVOK 36/05 Q0997,2024-08-03T20:00:00Z,36,5,6+,29.44
OIYY,31.905,54.276,140,6,6.904679999999999,OIYY 032000Z 14006KT 6000 FEW100 38/05 Q1003,2024-08-03T20:00:00Z,38,5,3.73,29.62
OITT,38.13,46.24,80,6,6.904679999999999,OITT 032000Z 08006KT 9999 FEW035 24/09 Q1012 A2990,2024-08-03T20:00:00Z,24,9,6+,29.88
OITR,37.665,45.066,330,6,6.904679999999999,OITR 032000Z 33006KT 9999 FEW040 23/12 Q1010 A2983,2024-08-03T20:00:00Z,23,12,6+,29.82
OITL,38.326,48.424,350,4,4.60312,OITL 032000Z 35004KT CAVOK 13/10 Q1014,2024-08-03T20:00:00Z,13,10,6+,29.94
OISY,30.701,51.545,0,0,0.0,OISY 032000Z 00000KT CAVOK 23/04 Q1013,2024-08-03T20:00:00Z,23,4,6+,29.91
OISS,29.539,52.59,330,4,4.60312,OISS 032000Z 33004KT 8000 NSC 30/07 Q1008 A2978,2024-08-03T20:00:00Z,30,7,4.97,29.76
OISL,27.67,54.375,30,4,4.60312,OISL 032000Z 03004KT 7000 NSC 35/24 Q1000 A2954,2024-08-03T20:00:00Z,35,24,4.35,29.53
OISF,28.895,53.72,270,4,4.60312,OISF 032000Z 27004KT 8000 FEW040 SCT100 33/07 Q1007 A2975,2024-08-03T20:00:00Z,33,7,4.97,29.73
OISA,31.033,52.786,270,8,9.20624,OISA 032000Z 27008KT CAVOK 28/02 Q1012 A2991,2024-08-03T20:00:00Z,28,2,6+,29.88
OINZ,36.636,53.194,180,2,2.30156,OINZ 032000Z 18002KT 9999 SCT040 OVC070 23/19 Q1006,2024-08-03T20:00:00Z,23,19,6+,29.70
OINR,36.91,50.68,0,0,0.0,OINR 032000Z 00000KT 9999 SCT026 25/22 Q1004,2024-08-03T20:00:00Z,25,22,6+,29.65
OINN,36.663,51.465,180,2,2.30156,OINN 032000Z 18002KT 9999 FEW027 24/20 Q1005,2024-08-03T20:00:00Z,24,20,6+,29.68
OINK,37.245,55.093,180,4,4.60312,OINK 032000Z AUTO 18004KT //// // ////// 24/22 Q1005,2024-08-03T20:00:00Z,24,22,,29.68
OING,36.908,54.404,180,6,6.904679999999999,OING 032000Z 18006KT 5000 -DZ BR OVC016 24/22 Q1008,2024-08-03T20:00:00Z,24,22,3.11,29.76
OINB,36.71,52.65,0,0,0.0,OINB 032000Z 00000KT 9999 SCT033 BKN090 24/20 Q1006,2024-08-03T20:00:00Z,24,20,6+,29.70
OIMN,37.488,57.303,290,10,11.5078,OIMN 032000Z 29010KT CAVOK 24/18 Q1011,2024-08-03T20:00:00Z,24,18,6+,29.85
OIMM,36.236,59.639,200,8,9.20624,OIMM 032000Z 20008KT CAVOK 27/13 Q1011 A2986,2024-08-03T20:00:00Z,27,13,6+,29.85
OIMB,32.894,59.29,80,8,9.20624,OIMB 032000Z 08008KT 9000 NSC 27/M02 Q1010 A2985,2024-08-03T20:00:00Z,27,-2,5.59,29.82
OIKQ,26.755,55.902,0,0,0.0,OIKQ 032000Z 00000KT 7000 NSC 35/30 Q0994,2024-08-03T20:00:00Z,35,30,4.35,29.35
OIKO,27.1,57.083,220,4,4.60312,OIKO 032000Z AUTO 22004KT //// // ////// 33/28 Q0996,2024-08-03T20:00:00Z,33,28,,29.41
OIKK,30.251,56.964,170,6,6.904679999999999,OIKK 032000Z 17006KT CAVOK 29/09 Q1011 A2988,2024-08-03T20:00:00Z,29,9,6+,29.85
OIKB,27.218,56.378,100,8,9.20624,OIKB 032000Z 10008KT 4000 BR FEW100 34/30 Q0995 A2939,2024-08-03T20:00:00Z,34,30,2.49,29.38
OIIP,35.776,50.827,290,19,21.864819999999998,OIIP 032000Z 29019KT 6000 NSC 23/11 Q1007 A2975,2024-08-03T20:00:00Z,23,11,3.73,29.73
OIIK,36.243,50.045,320,4,4.60312,OIIK 032000Z 32004KT CAVOK 26/13 Q1008 A2977,2024-08-03T20:00:00Z,26,13,6+,29.76
OIII,35.686,51.304,290,8,9.20624,OIII 032000Z 29008KT CAVOK 29/10 Q1006 A2971 NOSIG,2024-08-03T20:00:00Z,29,10,6+,29.70
OIIE,35.416,51.152,310,16,18.41248,OIIE 032000Z 31016KT CAVOK 28/10 Q1004,2024-08-03T20:00:00Z,28,10,6+,29.65
OIHM,34.28,48.82,80,4,4.60312,OIHM 032000Z 08004KT CAVOK 24/M01 Q1011,2024-08-03T20:00:00Z,24,-1,6+,29.85
OIHH,34.869,48.553,60,6,6.904679999999999,OIHH 032000Z 06006KT CAVOK 20/M02 Q1011 A2988,2024-08-03T20:00:00Z,20,-2,6+,29.85
OIGG,37.325,49.606,0,0,0.0,OIGG 032000Z 00000KT 9999 SCT070 22/19 Q1005,2024-08-03T20:00:00Z,22,19,6+,29.68
OIFS,32.297,50.842,360,6,6.904679999999999,OIFS 032000Z 36006KT CAVOK 23/M03 Q1015,2024-08-03T20:00:00Z,23,-3,6+,29.97
OIFM,32.752,51.866,310,6,6.904679999999999,OIFM 032000Z 31006KT CAVOK 30/05 Q1008 A2978,2024-08-03T20:00:00Z,30,5,6+,29.76
OIFK,33.895,51.577,0,0,0.0,OIFK 032000Z 00000KT CAVOK 35/04 Q1002 A2960,2024-08-03T20:00:00Z,35,4,6+,29.59
OICS,35.245,47.009,0,0,0.0,OICS 032000Z 00000KT CAVOK 25/05 Q1009 A2980,2024-08-03T20:00:00Z,25,5,6+,29.79
OICK,33.435,48.283,130,6,6.904679999999999,OICK 032000Z 13006KT CAVOK 26/02 Q1006 A2973,2024-08-03T20:00:00Z,26,2,6+,29.70
OICI,33.588,46.397,300,4,4.60312,OICI 032000Z 30004KT CAVOK 26/05 Q1011 A2985,2024-08-03T20:00:00Z,26,5,6+,29.85
OICC,34.346,47.158,300,6,6.904679999999999,OICC 032000Z 30006KT CAVOK 27/M00 Q1008 A2979,2024-08-03T20:00:00Z,27,0,6+,29.76
OIBP,27.38,52.738,0,0,0.0,OIBP 032000Z 00000KT CAVOK 33/26 Q0994 A2936,2024-08-03T20:00:00Z,33,26,6+,29.35
OIBK,26.526,53.98,260,4,4.60312,OIBK 032000Z 26004KT 4000 BR NSC 33/30 Q0994,2024-08-03T20:00:00Z,33,30,2.49,29.35
OIBB,28.947,50.834,0,0,0.0,OIBB 032000Z 00000KT CAVOK 33/24 Q0995 A2939,2024-08-03T20:00:00Z,33,24,6+,29.38
OIAW,31.343,48.751,290,10,11.5078,OIAW 032000Z 29010KT CAVOK 37/11 Q0995,2024-08-03T20:00:00Z,37,11,6+,29.38
OIAM,30.556,49.152,290,8,9.20624,OIAM 032000Z 29008KT CAVOK 36/16 Q0995,2024-08-03T20:00:00Z,36,16,6+,29.38
OIAH,30.336,50.83,260,4,4.60312,OIAH 032000Z 26004KT CAVOK 32/05 Q1003,2024-08-03T20:00:00Z,32,5,6+,29.62
OIAG,30.74,49.684,340,6,6.904679999999999,OIAG 032000Z 34006KT CAVOK 35/08 Q0996,2024-08-03T20:00:00Z,35,8,6+,29.41
OIAA,30.366,48.23,280,6,6.904679999999999,OIAA 032000Z 28006KT CAVOK 32/09 Q0997,2024-08-03T20:00:00Z,32,9,6+,29.44
OEYN,24.144,38.063,240,8,9.20624,OEYN 032000Z 24008KT 9999 FEW040 34/28 Q1004 NOSIG,2024-08-03T20:00:00Z,34,28,6+,29.65
OEWJ,26.199,36.476,250,4,4.60312,OEWJ 032000Z 25004KT CAVOK 33/26 Q1005 NOSIG,2024-08-03T20:00:00Z,33,26,6+,29.68
OEWD,20.504,45.197,110,8,9.20624,OEWD 032000Z 11008KT CAVOK 37/M01 Q1004,2024-08-03T20:00:00Z,37,-1,6+,29.65
OETR,31.693,38.731,270,12,13.809359999999998,OETR 032000Z 27012KT CAVOK 27/09 Q1009 NOSIG,2024-08-03T20:00:00Z,27,9,6+,29.79
OETF,21.483,40.544,290,10,11.5078,OETF 032000Z 29010KT 9999 FEW030 25/18 Q1018 NOSIG,2024-08-03T20:00:00Z,25,18,6+,30.06
OETB,28.366,36.619,10,7,8.05546,OETB 032000Z 01007KT CAVOK 32/01 Q1010 NOSIG,2024-08-03T20:00:00Z,32,1,6+,29.82
OESK,29.785,40.1,310,4,4.60312,OESK 032000Z 31004KT CAVOK 30/M01 Q1009 NOSIG,2024-08-03T20:00:00Z,30,-1,6+,29.79
OESH,17.467,47.121,230,4,4.60312,OESH 032000Z 23004KT 9999 SCT040 37/06 Q1006 NOSIG,2024-08-03T20:00:00Z,37,6,6+,29.70
OERR,30.907,41.138,340,10,11.5078,OERR 032000Z 34010KT CAVOK 31/M03 Q1005 NOSIG,2024-08-03T20:00:00Z,31,-3,6+,29.68
OERK,24.945,46.702,330,7,8.05546,OERK 032000Z 33007KT CAVOK 36/M01 Q1006 NOSIG,2024-08-03T20:00:00Z,36,-1,6+,29.70
OERF,29.626,43.491,270,4,4.60312,OERF 032000Z 27004KT CAVOK 32/02 Q1004 NOSIG,2024-08-03T20:00:00Z,32,2,6+,29.65
OEPA,28.335,46.125,330,10,11.5078,OEPA 032000Z 33010KT CAVOK 36/03 Q1002 NOSIG,2024-08-03T20:00:00Z,36,3,6+,29.59
OENG,17.611,44.419,30,8,9.20624,OENG 032000Z 03008KT 9999 SCT030 SCT090 33/07 Q1011 NOSIG,2024-08-03T20:00:00Z,33,7,6+,29.85
OEMN,-99.99,-99.99,240,4,4.60312,OEMN 032000Z 24004KT 9999 FEW040 33/26 Q1008,2024-08-03T20:00:00Z,33,26,6+,29.76
OEMA,24.553,39.705,260,6,6.904679999999999,OEMA 032000Z 26006KT CAVOK 35/15 Q1010 NOSIG,2024-08-03T20:00:00Z,35,15,6+,29.82
OEKM,18.301,42.798,210,5,5.7539,OEKM 032000Z 21005KT 9999 FEW022 21/17 Q1022 NOSIG,2024-08-03T20:00:00Z,21,17,6+,30.18
OEKJ,24.07,47.58,330,5,5.7539,OEKJ 032000Z 33005KT CAVOK 36/02 Q1006,2024-08-03T20:00:00Z,36,2,6+,29.70
OEJN,21.685,39.166,0,0,0.0,OEJN 032000Z 00000KT CAVOK 34/24 Q1006 NOSIG,2024-08-03T20:00:00Z,34,24,6+,29.70
OEHL,27.438,41.686,290,6,6.904679999999999,OEHL 032000Z 29006KT CAVOK 33/08 Q1010,2024-08-03T20:00:00Z,33,8,6+,29.82
OEGT,31.412,37.279,310,10,11.5078,OEGT 032000Z 31010KT CAVOK 27/08 Q1008 NOSIG,2024-08-03T20:00:00Z,27,8,6+,29.76
OEGS,26.303,43.774,10,5,5.7539,OEGS 032000Z 01005KT CAVOK 34/04 Q1006,2024-08-03T20:00:00Z,34,4,6+,29.70
OEGN,16.901,42.586,0,0,0.0,OEGN 032000Z 00000KT 9999 FEW030 BKN100 30/25 Q1007 NOSIG,2024-08-03T20:00:00Z,30,25,6+,29.73
OEDR,26.265,50.152,VRB,2,2.30156,OEDR 032000Z VRB02KT CAVOK 34/08 Q0996,2024-08-03T20:00:00Z,34,8,6+,29.41
OEDM,24.45,44.121,60,8,9.20624,OEDM 032000Z 06008KT CAVOK 33/02 Q1008,2024-08-03T20:00:00Z,33,2,6+,29.76
OEDF,26.45,49.817,270,5,5.7539,OEDF 032000Z 27005KT CAVOK 34/08 Q0997 NOSIG,2024-08-03T20:00:00Z,34,8,6+,29.44
OEBH,19.984,42.621,270,8,9.20624,OEBH 032000Z 27008KT 9999 FEW030 31/16 Q1011 NOSIG,2024-08-03T20:00:00Z,31,16,6+,29.85
OEBA,20.296,41.634,270,3,3.4523399999999995,OEBA 032000Z 27003KT 9999 SCT030 27/13 Q1018 NOSIG,2024-08-03T20:00:00Z,27,13,6+,30.06
OEAO,26.483,38.117,280,10,11.5078,OEAO 032000Z 28010KT CAVOK 35/09 Q1009 NOSIG,2024-08-03T20:00:00Z,35,9,6+,29.79
OEAH,25.285,49.485,230,7,8.05546,OEAH 032000Z 23007KT CAVOK 34/08 Q0999 NOSIG,2024-08-03T20:00:00Z,34,8,6+,29.50
OEAB,18.24,42.657,180,6,6.904679999999999,OEAB 032000Z 18006KT 9999 FEW020 20/17 Q1022 NOSIG,2024-08-03T20:00:00Z,20,17,6+,30.18
OBBI,26.271,50.634,280,5,5.7539,OBBI 032000Z 28005KT 250V310 CAVOK 36/23 Q0997 NOSIG,2024-08-03T20:00:00Z,36,23,6+,29.44
NZWN,-41.331,174.806,20,8,9.20624,NZWN 032000Z AUTO 02008KT 9999 NCD 03/02 Q1023,2024-08-03T20:00:00Z,3,2,6+,30.21
NZQN,-45.021,168.739,30,7,8.05546,NZQN 032000Z AUTO 03007KT 9999 NCD M03/M06 Q1022,2024-08-03T20:00:00Z,-3,-6,6+,30.18
NZCH,-43.489,172.528,250,4,4.60312,NZCH 032000Z AUTO 25004KT 9999 NCD M03/M03 Q1023,2024-08-03T20:00:00Z,-3,-3,6+,30.21
NZAA,-37.008,174.792,130,11,12.658579999999999,NZAA 032000Z AUTO 13011KT 9999 NCD 08/06 Q1021,2024-08-03T20:00:00Z,8,6,6+,30.15
NWWW,-22.015,166.213,110,1,1.15078,NWWW 032000Z AUTO 11001KT 9999 FEW047 15/13 Q1020 NOSIG,2024-08-03T20:00:00Z,15,13,6+,30.12
NVVV,-17.695,168.313,VRB,2,2.30156,NVVV 032000Z VRB02KT 9999 FEW008 BKN015 OVC090 20/19 Q1018 RERA,2024-08-03T20:00:00Z,20,19,6+,30.06
NVSS,-15.505,167.22,200,6,6.904679999999999,NVSS 032000Z 20006KT 140V280 9999 SCT018 BKN040 24/21 Q1015,2024-08-03T20:00:00Z,24,21,6+,29.97
NTAA,-17.554,-149.607,200,10,11.5078,NTAA 032000Z AUTO 20010KT 9999 SCT045 26/17 Q1018 NOSIG,2024-08-03T20:00:00Z,26,17,6+,30.06
NSFA,-13.829,-171.993,60,6,6.904679999999999,NSFA 032000Z 06006KT 9999 FEW023 SCT060 28/23 Q1015,2024-08-03T20:00:00Z,28,23,6+,29.97
NLWW,-13.238,-176.199,70,8,9.20624,NLWW 032000Z 07008KT 9999 FEW020 28/24 Q1014 NOSIG,2024-08-03T20:00:00Z,28,24,6+,29.94
NIUE,-19.079,-169.926,60,6,6.904679999999999,NIUE 032000Z AUTO 06006KT 030V100 9999 FEW060/// 25/21 Q1017,2024-08-03T20:00:00Z,25,21,6+,30.03
NGTA,1.381,173.147,100,9,10.357019999999999,NGTA 032000Z 10009KT 9999 FEW020 30/25 Q1011,2024-08-03T20:00:00Z,30,25,6+,29.85
NGFU,-8.523,179.198,90,4,4.60312,NGFU 032000Z 09004KT 9999 FEW020 SCT300 30/24 Q1012,2024-08-03T20:00:00Z,30,24,6+,29.88
NFTV,-18.585,-173.963,60,6,6.904679999999999,NFTV 032000Z 06006KT 9999 FEW016 25/21 Q1015,2024-08-03T20:00:00Z,25,21,6+,29.97
NFTF,-21.241,-175.15,310,4,4.60312,NFTF 032000Z 31004KT 9999 FEW010 BKN035 24/22 Q1015,2024-08-03T20:00:00Z,24,22,6+,29.97
NFNS,-16.803,179.341,0,0,0.0,NFNS 032000Z 00000KT 9999 FEW020 24/23 Q1015,2024-08-03T20:00:00Z,24,23,6+,29.97
NFNM,-16.691,-179.877,0,0,0.0,NFNM 032000Z 00000KT 9999 FEW020 26/24 Q1014,2024-08-03T20:00:00Z,26,24,6+,29.94
NFNL,-16.467,179.339,VRB,2,2.30156,NFNL 032000Z VRB02KT 9999 FEW030 22/21 Q1015,2024-08-03T20:00:00Z,22,21,6+,29.97
NFNA,-18.043,178.559,320,2,2.30156,NFNA 032000Z 32002KT 9999 FEW020 23/22 Q1015,2024-08-03T20:00:00Z,23,22,6+,29.97
NFFN,-17.755,177.443,VRB,2,2.30156,NFFN 032000Z VRB02KT 9999 FEW030 23/20 Q1015 NOSIG,2024-08-03T20:00:00Z,23,20,6+,29.97
NCSW,-99.99,-99.99,,,,NCSW 032000Z AUTO NIL,2024-08-03T20:00:00Z,,,,
NCRK,-10.032,-161.101,,,,NCRK 032000Z AUTO NIL,2024-08-03T20:00:00Z,,,,
NCRG,-21.203,-159.806,100,1,1.15078,NCRG 032000Z AUTO 10001KT 9999 OVC048/// 22/15 Q1020,2024-08-03T20:00:00Z,22,15,6+,30.12
NCPY,-9.01,-158.034,100,9,10.357019999999999,NCPY 032000Z AUTO 10009KT 9999 SCT018 BKN100 29/24 Q1014,2024-08-03T20:00:00Z,29,24,6+,29.94
NCPL,1.98,-157.48,,,,NCPL 032000Z AUTO NIL,2024-08-03T20:00:00Z,,,,
NCPK,-10.915,-165.839,,,,NCPK 032000Z AUTO NIL,2024-08-03T20:00:00Z,,,,
NCNS,-99.99,-99.99,,,,NCNS 032000Z AUTO NIL,2024-08-03T20:00:00Z,,,,
NCMR,-19.842,-157.703,100,2,2.30156,NCMR 032000Z AUTO 10002KT //// ////// 24/15 Q1019,2024-08-03T20:00:00Z,24,15,,30.09
NCMK,-20.137,-157.344,120,1,1.15078,NCMK 032000Z AUTO 12001KT //// ////// 24/15 Q1018,2024-08-03T20:00:00Z,24,15,,30.06
NCMH,-10.374,-161.004,130,5,5.7539,NCMH 032000Z AUTO 13005KT //// ////// 30/24 Q1015,2024-08-03T20:00:00Z,30,24,,29.97
NCMG,-21.896,-157.907,330,2,2.30156,NCMG 032000Z AUTO 33002KT //// ////// 24/13 Q1015,2024-08-03T20:00:00Z,24,13,,29.97
NCAT,-19.968,-158.119,,,,NCAT 032000Z AUTO NIL,2024-08-03T20:00:00Z,,,,
NCAI,-18.829,-159.766,90,6,6.904679999999999,NCAI 032000Z AUTO 09006KT 9999 BKN045 24/15 Q1020,2024-08-03T20:00:00Z,24,15,6+,30.12
MZBZ,17.538,-88.309,VRB,3,3.4523399999999995,MZBZ 032000Z VRB03KT 9999 FEW021 SCT024 33/25 A2986 Q1011 NOSIG,2024-08-03T20:00:00Z,33,25,6+,29.85
MYNN,25.04,-77.467,150,16,18.41248,MYNN 032000Z 15016KT 9999 BKN020 BKN200 31/25 A2997,2024-08-03T20:00:00Z,31,25,6+,29.97
MYGF,26.555,-78.698,130,14,16.11092,MYGF 032000Z 13014KT 9999 VCSH FEW015CB SCT020 BKN200 31/26 A2995,2024-08-03T20:00:00Z,31,26,6+,29.95
MYCB,24.315,-75.452,110,15,17.261699999999998,MYCB 032000Z AUTO 11015KT CAVOK 30/25 A2999,2024-08-03T20:00:00Z,30,25,6+,29.99
MYAF,24.689,-77.796,140,15,17.261699999999998,MYAF 032000Z AUTO 14015KT 110V180 9999 FEW020 31/26 A2995,2024-08-03T20:00:00Z,31,26,6+,29.95
MWCR,19.294,-81.357,200,10,11.5078,MWCR 032000Z 20010KT 9999 FEW018 BKN040 31/24 Q1012,2024-08-03T20:00:00Z,31,24,6+,29.88
MWCB,19.688,-79.879,160,13,14.960139999999999,MWCB 032000Z 16013KT 120V180 9999 BKN016CB 30/27 Q1012,2024-08-03T20:00:00Z,30,27,6+,29.88
MTPP,18.577,-72.305,100,13,14.960139999999999,MTPP 032000Z 10013KT 070V130 9999 BKN028CB 36/18 Q1012 A2989 RMK/CB/ALLQDS,2024-08-03T20:00:00Z,36,18,6+,29.88
MSSS,13.704,-89.123,120,5,5.7539,MSSS 032000Z 12005KT 080V180 9999 SCT037 29/21 Q1014 A2996,2024-08-03T20:00:00Z,29,21,6+,29.94
MSLP,13.438,-89.056,230,8,9.20624,MSLP 032000Z 23008KT 200V260 9999 SCT023 FEW033TCU 31/25 Q1010 A2982 NOSIG RMK TCU N DSTN CB NE,2024-08-03T20:00:00Z,31,25,6+,29.82
MRPV,9.957,-84.141,280,7,8.05546,MRPV 032000Z 28007KT 360V290 9999 SCT035 BKN200 27/20 A3000 NOSIG,2024-08-03T20:00:00Z,27,20,6+,30.00
MROC,9.991,-84.218,240,11,12.658579999999999,MROC 032000Z 24011KT 9999 SCT030 BKN200 26/22 A2997 NOSIG,2024-08-03T20:00:00Z,26,22,6+,29.97
MRLM,9.961,-83.026,10,11,12.658579999999999,MRLM 032000Z 01011KT CAVOK 29/25 A2983,2024-08-03T20:00:00Z,29,25,6+,29.83
MRLB,10.589,-85.552,160,4,4.60312,MRLB 032000Z 16004KT 9999 FEW025 BKN150 31/26 A2981,2024-08-03T20:00:00Z,31,26,6+,29.81
MPTO,9.056,-79.391,200,4,4.60312,MPTO 032000Z 20004KT 9000 -TSRA FEW006 SCT016CB SCT090 26/23 Q1010 TEMPO 6000 TSRA,2024-08-03T20:00:00Z,26,23,5.59,29.82
MPPA,8.909,-79.597,0,0,0.0,MPPA 032000Z 00000KT 8000 TS VCSH SCT015CB BKN070 ///// Q1010,2024-08-03T20:00:00Z,,,4.97,29.82
MPMG,8.967,-79.555,320,5,5.7539,MPMG 032000Z 32005KT 8000 TS VCSH FEW008 SCT015CB BKN070 27/23 Q1010 NOSIG,2024-08-03T20:00:00Z,27,23,4.97,29.82
MPDA,8.391,-82.434,230,7,8.05546,MPDA 032000Z 23007KT 9999 FEW015CB 30/23 Q1009 NOSIG,2024-08-03T20:00:00Z,30,23,6+,29.79
MNRS,11.417,-85.833,80,4,4.60312,MNRS 032000Z 08004KT 9999 FEW013CB SCT080 31/24 Q1009 CB/NE/E/SE/S,2024-08-03T20:00:00Z,31,24,6+,29.79
MNPC,14.045,-83.388,90,6,6.904679999999999,MNPC 032000Z 09006KT 7000 SCT016 SCT300 31/26 Q1008 HZ,2024-08-03T20:00:00Z,31,26,4.35,29.76
MNMG,12.141,-86.177,110,8,9.20624,MNMG 032000Z 11008KT 9999 FEW025TCU SCT070 32/24 Q1009 A2981 TCU/NE/E/SE NOSIG,2024-08-03T20:00:00Z,32,24,6+,29.79
MNJU,12.1,-85.367,90,6,6.904679999999999,MNJU 032000Z 09006KT 9999 SCT020 SCT300 34/24 Q1010,2024-08-03T20:00:00Z,34,24,6+,29.82
MNJG,13.141,-86.019,0,0,0.0,MNJG 032000Z 00000KT 9999 SCT020 29/13 Q1013,2024-08-03T20:00:00Z,29,13,6+,29.91
MNCH,12.638,-87.136,350,4,4.60312,MNCH 032000Z 35004KT 9999 FEW025TCU SCT280 32/24 Q1010 TCU/N,2024-08-03T20:00:00Z,32,24,6+,29.82
MNBL,11.995,-83.768,110,4,4.60312,MNBL 032000Z 11004KT 9999 SCT022 SCT080 30/27 Q1011,2024-08-03T20:00:00Z,30,27,6+,29.85
MKJS,18.502,-77.915,70,14,16.11092,MKJS 032000Z 07014KT 9999 -SHRA BKN020 FEW022CB 30/24 Q1011,2024-08-03T20:00:00Z,30,24,6+,29.85
MKJP,17.942,-76.798,140,17,19.56326,MKJP 032000Z 14017KT 9999 FEW022 33/26 Q1013,2024-08-03T20:00:00Z,33,26,6+,29.91
MHTR,15.926,-85.939,290,8,9.20624,MHTR 032000Z 29008KT 9999 SCT024TCU FEW026CB 31/25,2024-08-03T20:00:00Z,31,25,6+,
MHTG,14.06,-87.216,360,8,9.20624,MHTG 032000Z 36008KT 9999 SCT036TCU FEW040CB 29/19 Q1017 A3003 NOSIG,2024-08-03T20:00:00Z,29,19,6+,30.03
MHTE,15.776,-87.473,10,6,6.904679999999999,MHTE 032000Z 01006KT 9999 SCT028TCU SCT036CB 32/27 Q1011,2024-08-03T20:00:00Z,32,27,6+,29.85
MHRO,16.316,-86.523,310,9,10.357019999999999,MHRO 032000Z 31009KT 9999 FEW018TCU FEW022CB 30/24 Q1011 A2986 NOSIG,2024-08-03T20:00:00Z,30,24,6+,29.85
MHPR,14.382,-87.621,330,8,9.20624,MHPR 032000Z 33008KT 9999 SCT046TCU FEW048CB 31/21 Q1015 A2998 NOSIG,2024-08-03T20:00:00Z,31,21,6+,29.97
MHPL,15.262,-83.776,0,0,0.0,MHPL 032000Z 00000KT 9999 SCT026TCU 33/25,2024-08-03T20:00:00Z,33,25,6+,
MHNO,14.433,-89.194,360,6,6.904679999999999,MHNO 032000Z 36006KT 9999 SCT040TCU 30/20,2024-08-03T20:00:00Z,30,20,6+,
MHLM,15.442,-87.934,70,11,12.658579999999999,MHLM 032000Z 07011KT 9999 FEW030TCU FEW032CB 33/24 Q1011 A2986 NOSIG,2024-08-03T20:00:00Z,33,24,6+,29.85
MHLE,14.291,-88.175,100,6,6.904679999999999,MHLE 032000Z 10006KT 9999 TS FEW024TCU FEW025CB 23/16,2024-08-03T20:00:00Z,23,16,6+,
MHLC,15.737,-86.864,180,7,8.05546,MHLC 032000Z 18007KT 9999 FEW025 27/25 Q1012 A2989 NOSIG,2024-08-03T20:00:00Z,27,25,6+,29.88
MHCH,13.318,-87.154,220,8,9.20624,MHCH 032000Z 22008KT 9999 SCT034TCU 33/25,2024-08-03T20:00:00Z,33,25,6+,
MHCA,14.875,-85.775,100,4,4.60312,MHCA 032000Z 10004KT 9999 SCT026TCU FEW028CB 32/25 Q1013 CB N SW,2024-08-03T20:00:00Z,32,25,6+,29.91
MGZA,14.959,-89.538,80,10,11.5078,MGZA 032000Z 08010KT 9999 FEW025 36/20 QFE985/6 FEW200,2024-08-03T20:00:00Z,36,20,6+,
MGTU,-99.99,-99.99,180,4,4.60312,MGTU 032000Z 18004KT 9999 SCT018 34/24,2024-08-03T20:00:00Z,34,24,6+,
MGRT,14.523,-91.697,270,6,6.904679999999999,MGRT 032000Z 27006KT 9999 TS SCT018 FEW022CB 33/24 Q1012 A2988 CB/TS/PCPN NNE/NE VOLC STA MARIA Y SATGO EN ACTV,2024-08-03T20:00:00Z,33,24,6+,29.88
MGQZ,14.862,-91.506,360,14,16.11092,MGQZ 032000Z 36014KT 9999 SCT020TCU SCT200 23/11 QFE 773/1 TCU SE/S/SW/E,2024-08-03T20:00:00Z,23,11,6+,
MGPB,15.737,-88.589,360,4,4.60312,MGPB 032000Z 36004KT 9999 FEW020 FEW030CB 33/24 Q1010 A2983 CB SSE/W CB DIS N,2024-08-03T20:00:00Z,33,24,6+,29.82
MGMT,-99.99,-99.99,0,0,0.0,MGMT 032000Z 00000KT 9999 FEW014 SCT070 32/28,2024-08-03T20:00:00Z,32,28,6+,
MGMM,16.914,-89.866,330,4,4.60312,MGMM 032000Z 33004KT 9999 SCT020 SCT200 32/25 Q1013 A2991,2024-08-03T20:00:00Z,32,25,6+,29.91
MGHT,15.317,-91.503,180,6,6.904679999999999,MGHT 032000Z 18006KT 9999 SCT025TCU 25/14 FEW100 TCU N/SE/NW,2024-08-03T20:00:00Z,25,14,6+,
MGGT,14.585,-90.526,40,10,11.5078,MGGT 032000Z 04010KT 9999 SCT022TCU 27/15 Q1020 A3012 TCU SE/SSE,2024-08-03T20:00:00Z,27,15,6+,30.12
MGES,14.568,-89.326,30,8,9.20624,MGES 032000Z 03008KT 9999 BKN020 30/16 QFE 909.5 FEW090 FEW200 TCU ENE/SE,2024-08-03T20:00:00Z,30,16,6+,
MGCB,15.47,-90.406,20,4,4.60312,MGCB 032000Z 02004KT 9999 SCT018 FEW025CB 25/18 QFE 872.3 CB NE,2024-08-03T20:00:00Z,25,18,6+,
MDST,19.407,-70.614,80,8,9.20624,MDST 032000Z 08008KT 020V130 9999 FEW022CB SCT025 33/24 Q1014 CB/S/SW,2024-08-03T20:00:00Z,33,24,6+,29.94
MDSD,18.433,-69.667,100,4,4.60312,MDSD 032000Z 10004KT 8000 VCSH FEW020CB FEW022 SCT300 30/26 Q1015 CB/NE/NW/N,2024-08-03T20:00:00Z,30,26,4.97,29.97
MDPP,19.759,-70.571,100,12,13.809359999999998,MDPP 032000Z 10012KT 9999 FEW020 32/27 Q1014,2024-08-03T20:00:00Z,32,27,6+,29.94
MDPC,18.566,-68.356,90,8,9.20624,MDPC 032000Z 09008KT 9999 TS FEW018CB FEW020 31/25 Q1015 CB/W,2024-08-03T20:00:00Z,31,25,6+,29.97
MDLR,18.451,-68.921,90,10,11.5078,MDLR 032000Z 09010KT 9999 SCT020 SCT300 33/25 Q1015,2024-08-03T20:00:00Z,33,25,6+,29.97
MDJB,18.577,-69.984,0,0,0.0,MDJB 032000Z 00000KT 8000 TSVCSH FEW016CB BKN016 SCT300 26/23 Q1015 RERA CB/NE/NW/N,2024-08-03T20:00:00Z,26,23,4.97,29.97
MDCY,19.271,-69.733,90,10,11.5078,MDCY 032000Z 09010KT 8000 VCSH FEW018CB SCT018 29/25 Q1015 CB/NW,2024-08-03T20:00:00Z,29,25,4.97,29.97
MDBH,18.25,-71.126,130,14,16.11092,MDBH 032000Z 13014KT 9999 FEW022CB SCT022 SCT300 33/25 Q1013 CB/NE/SE/S/NW/N,2024-08-03T20:00:00Z,33,25,6+,29.91
MDAB,19.2,-69.433,120,8,9.20624,MDAB 032000Z 12008KT 9999 FEW018CB SCT020 32/26 Q1014 CB/W,2024-08-03T20:00:00Z,32,26,6+,29.94
MBPV,21.772,-72.265,130,6,6.904679999999999,MBPV 032000Z 13006KT 9999 FEW010 SCT015 30/25 Q1015,2024-08-03T20:00:00Z,30,25,6+,29.97
LZZI,49.231,18.613,VRB,1,1.15078,LZZI 032000Z VRB01KT CAVOK 14/11 Q1013,2024-08-03T20:00:00Z,14,11,6+,29.91
LZTT,49.068,20.25,VRB,2,2.30156,LZTT 032000Z VRB02KT 9999 FEW033 11/09 Q1013,2024-08-03T20:00:00Z,11,9,6+,29.91
LZPP,48.613,17.832,10,3,3.4523399999999995,LZPP 032000Z 01003KT CAVOK 17/12 Q1012,2024-08-03T20:00:00Z,17,12,6+,29.88
LZKZ,48.661,21.24,350,5,5.7539,LZKZ 032000Z 35005KT CAVOK 17/12 Q1011 NOSIG,2024-08-03T20:00:00Z,17,12,6+,29.85
LZIB,48.17,17.207,350,2,2.30156,LZIB 032000Z 35002KT CAVOK 21/12 Q1012 NOSIG,2024-08-03T20:00:00Z,21,12,6+,29.88
LYVR,45.147,21.31,0,0,0.0,LYVR 032000Z AUTO 00000KT CAVOK 18/15 Q1010,2024-08-03T20:00:00Z,18,15,6+,29.82
LYTV,42.405,18.723,VRB,3,3.4523399999999995,LYTV 032000Z AUTO VRB03KT CAVOK 22/16 Q1009,2024-08-03T20:00:00Z,22,16,6+,29.79
LYPG,42.359,19.252,320,10,11.5078,LYPG 032000Z 32010KT CAVOK 27/15 Q1008 NOSIG,2024-08-03T20:00:00Z,27,15,6+,29.76
LYNI,43.338,21.863,230,3,3.4523399999999995,LYNI 032000Z 23003KT 130V300 CAVOK 20/16 Q1012 NOSIG,2024-08-03T20:00:00Z,20,16,6+,29.88
LYKV,43.818,20.587,VRB,2,2.30156,LYKV 032000Z VRB02KT CAVOK 20/13 Q1011 NOSIG,2024-08-03T20:00:00Z,20,13,6+,29.85
LYBT,44.935,20.258,310,6,6.904679999999999,LYBT 032000Z 31006KT CAVOK 20/13 Q1011 NOSIG,2024-08-03T20:00:00Z,20,13,6+,29.85
LYBE,44.824,20.291,290,8,9.20624,LYBE 032000Z 29008KT CAVOK 22/12 Q1011 NOSIG,2024-08-03T20:00:00Z,22,12,6+,29.85
LUKK,46.928,28.931,VRB,1,1.15078,LUKK 032000Z VRB01KT CAVOK 19/18 Q1005 NOSIG,2024-08-03T20:00:00Z,19,18,6+,29.68
LRTR,45.811,21.333,350,10,11.5078,LRTR 032000Z 35010KT CAVOK 21/14 Q1010,2024-08-03T20:00:00Z,21,14,6+,29.82
LRTM,46.468,24.421,0,0,0.0,LRTM 032000Z AUTO 00000KT 9999 FEW060/// 20/16 Q1009,2024-08-03T20:00:00Z,20,16,6+,29.79
LRTC,45.065,28.716,300,9,10.357019999999999,LRTC 032000Z AUTO 30009KT 9999 FEW100/// SCT170/// 26/18 Q1004,2024-08-03T20:00:00Z,26,18,6+,29.65
LRSV,47.686,26.354,310,11,12.658579999999999,LRSV 032000Z 31011KT 9999 SCT013 19/16 Q1007,2024-08-03T20:00:00Z,19,16,6+,29.73
LRSM,47.703,22.886,270,4,4.60312,LRSM 032000Z AUTO 27004KT 250V310 9999 SCT007/// BKN015/// 16/15 Q1009,2024-08-03T20:00:00Z,16,15,6+,29.79
LRSB,45.789,24.091,310,12,13.809359999999998,LRSB 032000Z 31012KT CAVOK 21/13 Q1009,2024-08-03T20:00:00Z,21,13,6+,29.79
LROP,44.572,26.102,70,6,6.904679999999999,LROP 032000Z 07006KT CAVOK 26/13 Q1005 NOSIG,2024-08-03T20:00:00Z,26,13,6+,29.68
LROD,47.036,21.896,360,8,9.20624,LROD 032000Z AUTO 36008KT 9999 FEW013/// SCT016/// 17/14 Q1011,2024-08-03T20:00:00Z,17,14,6+,29.85
LRIA,47.164,27.627,260,4,4.60312,LRIA 032000Z 26004KT CAVOK 20/18 Q1006,2024-08-03T20:00:00Z,20,18,6+,29.70
LRCV,44.31,23.867,280,12,13.809359999999998,LRCV 032000Z 28012KT CAVOK 25/09 Q1007,2024-08-03T20:00:00Z,25,9,6+,29.73
LRCL,46.783,23.676,270,4,4.60312,LRCL 032000Z 27004KT 200V310 CAVOK 20/14 Q1009,2024-08-03T20:00:00Z,20,14,6+,29.79
LRCK,44.362,28.488,200,11,12.658579999999999,LRCK 032000Z 20011KT 5000 -TSRA SCT045CB 22/21 Q1006 TEMPO 3000 TSRA,2024-08-03T20:00:00Z,22,21,3.11,29.70
LRBV,45.706,25.524,VRB,1,1.15078,LRBV 032000Z VRB01KT 9999 FEW061 22/12 Q1009,2024-08-03T20:00:00Z,22,12,6+,29.79
LRBS,44.511,26.078,VRB,4,4.60312,LRBS 032000Z VRB04KT CAVOK 27/15 Q1005 NOSIG,2024-08-03T20:00:00Z,27,15,6+,29.68
LRBM,47.658,23.47,260,8,9.20624,LRBM 032000Z AUTO 26008KT 9999 SHRA SCT003/// OVC005/// 17/16 Q1009,2024-08-03T20:00:00Z,17,16,6+,29.79
LRBC,46.522,26.91,340,10,11.5078,LRBC 032000Z 34010KT CAVOK 23/16 Q1006,2024-08-03T20:00:00Z,23,16,6+,29.70
LRAR,46.176,21.264,360,8,9.20624,LRAR 032000Z AUTO 36008KT 9999 NCD 19/15 Q1010,2024-08-03T20:00:00Z,19,15,6+,29.82
LQTZ,44.461,18.728,VRB,2,2.30156,LQTZ 032000Z VRB02KT CAVOK 19/14 Q1012,2024-08-03T20:00:00Z,19,14,6+,29.88
LQSA,43.825,18.331,310,6,6.904679999999999,LQSA 032000Z 31006KT 9999 SCT065 23/13 Q1013 NOSIG,2024-08-03T20:00:00Z,23,13,6+,29.91
LQMO,43.285,17.84,VRB,3,3.4523399999999995,LQMO 032000Z VRB03KT 9999 -RA SCT055 BKN075 24/19 Q1009,2024-08-03T20:00:00Z,24,19,6+,29.79
LQBK,44.937,17.299,VRB,2,2.30156,LQBK 032000Z VRB02KT CAVOK 20/14 Q1012 NOSIG,2024-08-03T20:00:00Z,20,14,6+,29.88
LPPT,38.781,-9.136,320,14,16.11092,LPPT 032000Z 32014G24KT 9999 FEW018 21/16 Q1014,2024-08-03T20:00:00Z,21,16,6+,29.94
LPPS,33.073,-16.35,50,11,12.658579999999999,LPPS 032000Z 05011KT 010V070 9999 SCT014 SCT030 23/18 Q1018,2024-08-03T20:00:00Z,23,18,6+,30.06
LPPR,41.235,-8.684,340,6,6.904679999999999,LPPR 032000Z 34006KT CAVOK 19/16 Q1014,2024-08-03T20:00:00Z,19,16,6+,29.94
LPPD,37.741,-25.698,30,8,9.20624,LPPD 032000Z 03008KT 360V060 9999 FEW020 25/19 Q1022,2024-08-03T20:00:00Z,25,19,6+,30.18
LPOV,40.916,-8.646,350,12,13.809359999999998,LPOV 032000Z 35012KT CAVOK 17/16 Q1015,2024-08-03T20:00:00Z,17,16,6+,29.97
LPMT,38.704,-9.036,340,9,10.357019999999999,LPMT 032000Z 34009KT CAVOK 23/16 Q1013,2024-08-03T20:00:00Z,23,16,6+,29.91
LPMR,39.831,-8.887,340,9,10.357019999999999,LPMR 032000Z 34009KT 9999 FEW008 19/17 Q1015,2024-08-03T20:00:00Z,19,17,6+,29.97
LPMA,32.698,-16.774,10,14,16.11092,LPMA 032000Z 01014KT 340V040 9999 FEW015 24/17 Q1017,2024-08-03T20:00:00Z,24,17,6+,30.03
LPLA,38.762,-27.091,,,,LPLA 032000Z /////KT 9999 FEW025 27/20 Q1022,2024-08-03T20:00:00Z,27,20,6+,30.18
LPHR,38.521,-28.714,300,9,10.357019999999999,LPHR 032000Z 30009KT 9999 FEW025 26/21 Q1021,2024-08-03T20:00:00Z,26,21,6+,30.15
LPFR,37.014,-7.966,260,6,6.904679999999999,LPFR 032000Z 26006KT CAVOK 27/14 Q1012,2024-08-03T20:00:00Z,27,14,6+,29.88
LPCS,38.725,-9.355,360,19,21.864819999999998,LPCS 032000Z 36019KT 9999 FEW007 20/16 Q1014,2024-08-03T20:00:00Z,20,16,6+,29.94
LPBJ,38.073,-7.931,300,11,12.658579999999999,LPBJ 032000Z 30011KT CAVOK 30/15 Q1012,2024-08-03T20:00:00Z,30,15,6+,29.88
LPAZ,36.971,-25.171,10,5,5.7539,LPAZ 032000Z 01005KT 320V060 9999 FEW026 25/19 Q1022,2024-08-03T20:00:00Z,25,19,6+,30.18
LKTB,49.151,16.694,20,4,4.60312,LKTB 032000Z 02004KT CAVOK 21/11 Q1012 NOSIG,2024-08-03T20:00:00Z,21,11,6+,29.88
LKPR,50.101,14.26,260,4,4.60312,LKPR 032000Z 26004KT CAVOK 18/15 Q1013 NOSIG,2024-08-03T20:00:00Z,18,15,6+,29.91
LKPD,50.016,15.74,180,2,2.30156,LKPD 032000Z 18002KT CAVOK 18/15 Q1012 NOSIG RMK BLU BLU,2024-08-03T20:00:00Z,18,15,6+,29.88
LKNA,49.166,16.125,330,4,4.60312,LKNA 032000Z 33004KT CAVOK 20/11 Q1013 RMK BLACK,2024-08-03T20:00:00Z,20,11,6+,29.91
LKMT,49.696,18.111,VRB,2,2.30156,LKMT 032000Z VRB02KT CAVOK 16/14 Q1012 NOSIG,2024-08-03T20:00:00Z,16,14,6+,29.88
LKLN,49.675,13.275,240,4,4.60312,LKLN 032000Z AUTO 24004KT 9999 SCT170 20/15 Q1013,2024-08-03T20:00:00Z,20,15,6+,29.91
LKKV,50.202,12.91,VRB,1,1.15078,LKKV 032000Z VRB01KT CAVOK 16/14 Q1014,2024-08-03T20:00:00Z,16,14,6+,29.94
LKKB,50.123,14.538,0,0,0.0,LKKB 032000Z 00000KT CAVOK 20/15 Q1012,2024-08-03T20:00:00Z,20,15,6+,29.88
LKCV,49.94,15.382,210,4,4.60312,LKCV 032000Z 21004KT CAVOK 19/14 Q1012 NOSIG RMK BLU BLU,2024-08-03T20:00:00Z,19,14,6+,29.88
LJPZ,45.473,13.615,120,6,6.904679999999999,LJPZ 032000Z AUTO 12006KT 9999 NCD 24/19 Q1010,2024-08-03T20:00:00Z,24,19,6+,29.82
LJMB,46.48,15.682,,,,LJMB 032000Z AUTO /////KT 9999 NCD 19/16 Q1013,2024-08-03T20:00:00Z,19,16,6+,29.91
LJLJ,46.218,14.477,VRB,1,1.15078,LJLJ 032000Z VRB01KT 9999 FEW060 19/17 Q1013 NOSIG,2024-08-03T20:00:00Z,19,17,6+,29.91
LJCE,45.899,15.523,110,4,4.60312,LJCE 032000Z AUTO 11004KT 9999 NCD 19/16 Q1012,2024-08-03T20:00:00Z,19,16,6+,29.88
LHBP,47.437,19.256,80,2,2.30156,LHBP 032000Z 08002KT CAVOK 17/14 Q1012 NOSIG,2024-08-03T20:00:00Z,17,14,6+,29.88
LFYR,47.32,1.688,270,3,3.4523399999999995,LFYR 032000Z AUTO 27003KT 230V290 9999 OVC049 23/15 Q1016,2024-08-03T20:00:00Z,23,15,6+,30.00
LFVP,46.764,-56.169,210,7,8.05546,LFVP 032000Z AUTO 21007KT CAVOK 20/17 Q1013 NOSIG,2024-08-03T20:00:00Z,20,17,6+,29.91
LFTW,43.757,4.416,340,9,10.357019999999999,LFTW 032000Z AUTO 34009KT CAVOK 27/11 Q1012,2024-08-03T20:00:00Z,27,11,6+,29.88
LFTH,43.094,6.146,240,1,1.15078,LFTH 032000Z AUTO 24001KT CAVOK 27/19 Q1008 NOSIG,2024-08-03T20:00:00Z,27,19,6+,29.76
LFSX,47.783,6.364,320,4,4.60312,LFSX 032000Z AUTO 32004KT 9999 FEW045 SCT170 20/16 Q1016,2024-08-03T20:00:00Z,20,16,6+,30.00
LFST,48.549,7.64,330,6,6.904679999999999,LFST 032000Z AUTO 33006KT CAVOK 21/15 Q1015 NOSIG,2024-08-03T20:00:00Z,21,15,6+,29.97
LFSO,48.583,5.955,0,0,0.0,LFSO 032000Z AUTO 00000KT CAVOK 18/14 Q1016,2024-08-03T20:00:00Z,18,14,6+,30.00
LFSN,48.692,6.231,250,3,3.4523399999999995,LFSN 032000Z AUTO 25003KT 200V320 CAVOK 21/14 Q1016,2024-08-03T20:00:00Z,21,14,6+,30.00
LFSL,45.04,1.486,310,7,8.05546,LFSL 032000Z AUTO 31007KT CAVOK 21/14 Q1018 NOSIG,2024-08-03T20:00:00Z,21,14,6+,30.06
LFSI,48.631,4.904,260,3,3.4523399999999995,LFSI 032000Z AUTO 26003KT CAVOK 20/15 Q1015,2024-08-03T20:00:00Z,20,15,6+,29.97
LFSG,48.325,6.07,260,4,4.60312,LFSG 032000Z AUTO 26004KT CAVOK 18/15 Q1016,2024-08-03T20:00:00Z,18,15,6+,30.00
LFSD,47.269,5.09,20,4,4.60312,LFSD 032000Z AUTO 02004KT CAVOK 21/15 Q1016,2024-08-03T20:00:00Z,21,15,6+,30.00
LFSB,47.614,7.51,290,8,9.20624,LFSB 032000Z AUTO 29008KT CAVOK 21/15 Q1015 NOSIG,2024-08-03T20:00:00Z,21,15,6+,29.97
LFRZ,47.312,-2.163,240,7,8.05546,LFRZ 032000Z AUTO 24007KT 9000 4200 BKN007 BKN015 OVC034 19/18 Q1017 TEMPO 3000 -RADZ,2024-08-03T20:00:00Z,19,18,5.59,30.03
LFRV,47.722,-2.727,260,4,4.60312,LFRV 032000Z AUTO 26004KT 220V310 9999 BKN003 OVC014 18/18 Q1016,2024-08-03T20:00:00Z,18,18,6+,30.00
LFRU,48.601,-3.814,300,3,3.4523399999999995,LFRU 032000Z AUTO 30003KT CAVOK 15/12 Q1016,2024-08-03T20:00:00Z,15,12,6+,30.00
LFRT,48.536,-2.853,310,3,3.4523399999999995,LFRT 032000Z AUTO 31003KT 9999 FEW029 15/14 Q1016,2024-08-03T20:00:00Z,15,14,6+,30.00
LFRS,47.15,-1.609,240,4,4.60312,LFRS 032000Z AUTO 24004KT 200V270 9999 BKN019 OVC048 20/17 Q1017 BECMG BKN012,2024-08-03T20:00:00Z,20,17,6+,30.03
LFRQ,47.975,-4.168,290,6,6.904679999999999,LFRQ 032000Z AUTO 29006KT CAVOK 15/14 Q1017 TEMPO BKN008,2024-08-03T20:00:00Z,15,14,6+,30.03
LFRO,48.755,-3.469,270,4,4.60312,LFRO 032000Z AUTO 27004KT 9999 SCT023 15/14 Q1016,2024-08-03T20:00:00Z,15,14,6+,30.00
LFRN,48.069,-1.734,240,9,10.357019999999999,LFRN 032000Z AUTO 24009KT 9999 OVC013 19/17 Q1016 TEMPO 4000 RA BKN008,2024-08-03T20:00:00Z,19,17,6+,30.00
LFRM,47.949,0.202,220,6,6.904679999999999,LFRM 032000Z AUTO 22006KT 180V250 9999 FEW034 BKN056 21/16 Q1016 NOSIG,2024-08-03T20:00:00Z,21,16,6+,30.00
LFRL,48.279,-4.439,350,6,6.904679999999999,LFRL 032000Z AUTO 35006KT 9999 FEW019 15/12 Q1017,2024-08-03T20:00:00Z,15,12,6+,30.03
LFRK,49.18,-0.456,310,8,9.20624,LFRK 032000Z AUTO 31008KT 7000 BKN004 BKN013 OVC020 17/17 Q1015 TEMPO 3000 RA BKN008,2024-08-03T20:00:00Z,17,17,4.35,29.97
LFRJ,48.527,-4.138,330,3,3.4523399999999995,LFRJ 032000Z AUTO 33003KT CAVOK 15/12 Q1017,2024-08-03T20:00:00Z,15,12,6+,30.03
LFRI,46.702,-1.379,240,5,5.7539,LFRI 032000Z AUTO 24005KT 220V280 9999 FEW017 SCT029 OVC052 20/17 Q1018 NOSIG,2024-08-03T20:00:00Z,20,17,6+,30.06
LFRH,47.761,-3.44,240,4,4.60312,LFRH 032000Z AUTO 24004KT 7000 BKN003 BKN007 18/18 Q1016 TEMPO 0600 FG VV///,2024-08-03T20:00:00Z,18,18,4.35,30.00
LFRG,49.365,0.154,320,7,8.05546,LFRG 032000Z AUTO 32007KT 260V020 5000 -RA BR OVC002/// ///TCU 17/17 Q1015 TEMPO BKN008,2024-08-03T20:00:00Z,17,17,3.11,29.97
LFRD,48.589,-2.075,VRB,2,2.30156,LFRD 032000Z AUTO VRB02KT 9999 FEW010 SCT016 OVC026 16/15 Q1016 TEMPO BKN008,2024-08-03T20:00:00Z,16,15,6+,30.00
LFRC,49.65,-1.47,280,9,10.357019999999999,LFRC 032000Z AUTO 28009KT CAVOK 14/13 Q1015,2024-08-03T20:00:00Z,14,13,6+,29.97
LFRB,48.444,-4.412,330,4,4.60312,LFRB 032000Z AUTO 33004KT 9999 4800 NSC 15/13 Q1017 NOSIG,2024-08-03T20:00:00Z,15,13,6+,30.03
LFQQ,50.562,3.089,260,4,4.60312,LFQQ 032000Z AUTO 26004KT 9999 FEW005/// SCT025/// BKN037/// ///CB 19/18 Q1013 TEMPO 4000 RA SCT009 BKN014,2024-08-03T20:00:00Z,19,18,6+,29.91
LFQB,48.325,4.02,240,3,3.4523399999999995,LFQB 032000Z AUTO 24003KT CAVOK 19/17 Q1015,2024-08-03T20:00:00Z,19,17,6+,29.97
LFQA,49.21,4.155,0,0,0.0,LFQA 032000Z AUTO 00000KT CAVOK 20/16 Q1015,2024-08-03T20:00:00Z,20,16,6+,29.97
LFPV,48.77,2.205,280,4,4.60312,LFPV 032000Z AUTO 28004KT 9999 FEW036 SCT043 OVC110 19/17 Q1016 TEMPO 4900 -RA,2024-08-03T20:00:00Z,19,17,6+,30.00
LFPT,49.097,2.041,0,0,0.0,LFPT 032000Z AUTO 00000KT 9999 SCT046 SCT052 BKN062 19/17 Q1015,2024-08-03T20:00:00Z,19,17,6+,29.97
LFPO,48.717,2.384,280,5,5.7539,LFPO 032000Z AUTO 28005KT CAVOK 20/16 Q1015 TEMPO 4000 -SHRA SCT030TCU,2024-08-03T20:00:00Z,20,16,6+,29.97
LFPN,48.752,2.114,310,2,2.30156,LFPN 032000Z AUTO 31002KT 9999 BKN039 BKN047 BKN066 20/18 Q1015 TEMPO 4500 -SHRA SCT040TCU,2024-08-03T20:00:00Z,20,18,6+,29.97
LFPM,48.611,2.68,280,4,4.60312,LFPM 032000Z AUTO 28004KT 9999 //////CB 20/16 Q1015,2024-08-03T20:00:00Z,20,16,6+,29.97
LFPG,49.015,2.534,250,8,9.20624,LFPG 032000Z 25008KT 9999 FEW038 BKN120 19/17 Q1015 NOSIG,2024-08-03T20:00:00Z,19,17,6+,29.97
LFPB,48.967,2.428,230,4,4.60312,LFPB 032000Z AUTO 23004KT 200V270 9999 FEW038/// OVC120/// ///TCU 20/18 Q1015 TEMPO 4000 -SHRA,2024-08-03T20:00:00Z,20,18,6+,29.97
LFOZ,47.897,2.163,290,5,5.7539,LFOZ 032000Z AUTO 29005KT CAVOK 22/15 Q1016,2024-08-03T20:00:00Z,22,15,6+,30.00
LFOV,48.031,-0.746,230,7,8.05546,LFOV 032000Z AUTO 23007KT 9999 FEW026 BKN033 BKN052 21/16 Q1016,2024-08-03T20:00:00Z,21,16,6+,30.00
LFOT,47.444,0.728,260,5,5.7539,LFOT 032000Z AUTO 26005KT 9999 OVC043 21/16 Q1017 NOSIG,2024-08-03T20:00:00Z,21,16,6+,30.03
LFOP,49.383,1.182,200,7,8.05546,LFOP 032000Z AUTO 20007KT 9999 BKN008 OVC016 18/18 Q1015,2024-08-03T20:00:00Z,18,18,6+,29.97
LFOK,48.777,4.165,200,4,4.60312,LFOK 032000Z AUTO 20004KT CAVOK 19/16 Q1015 NOSIG,2024-08-03T20:00:00Z,19,16,6+,29.97
LFOJ,47.985,1.754,260,6,6.904679999999999,LFOJ 032000Z AUTO 26006KT CAVOK 20/15 Q1016 NOSIG,2024-08-03T20:00:00Z,20,15,6+,30.00
LFOH,49.533,0.091,330,6,6.904679999999999,LFOH 032000Z AUTO 33006KT 4600 BR OVC002/// ///TCU 16/16 Q1015,2024-08-03T20:00:00Z,16,16,2.86,29.97
LFOE,49.025,1.222,220,9,10.357019999999999,LFOE 032000Z AUTO 22009KT 9000 -RA FEW018/// BKN058/// OVC076/// ///TCU 19/18 Q1015 TEMPO 4000 -SHRA,2024-08-03T20:00:00Z,19,18,5.59,29.97
LFOB,49.454,2.113,220,9,10.357019999999999,LFOB 032000Z AUTO 22009KT 9999 BKN034 BKN044 OVC058 20/17 Q1014 TEMPO 2000 RADZ BKN008,2024-08-03T20:00:00Z,20,17,6+,29.94
LFOA,47.052,2.642,280,6,6.904679999999999,LFOA 032000Z AUTO 28006KT CAVOK 20/15 Q1017,2024-08-03T20:00:00Z,20,15,6+,30.03
LFMY,43.604,5.108,320,15,17.261699999999998,LFMY 032000Z AUTO 32015KT 280V350 CAVOK 28/14 Q1010,2024-08-03T20:00:00Z,28,14,6+,29.82
LFMV,43.911,4.903,340,18,20.714039999999997,LFMV 032000Z AUTO 34018KT CAVOK 28/14 Q1010 BECMG 33020G30KT,2024-08-03T20:00:00Z,28,14,6+,29.82
LFMU,43.322,3.353,300,17,19.56326,LFMU 032000Z AUTO 30017KT CAVOK 27/14 Q1013 NOSIG,2024-08-03T20:00:00Z,27,14,6+,29.91
LFMT,43.577,3.963,320,16,18.41248,LFMT 032000Z AUTO 32016KT CAVOK 29/17 Q1011 NOSIG,2024-08-03T20:00:00Z,29,17,6+,29.85
LFMP,42.737,2.873,300,16,18.41248,LFMP 032000Z AUTO 30016KT CAVOK 26/15 Q1014 NOSIG,2024-08-03T20:00:00Z,26,15,6+,29.94
LFMO,44.144,4.861,350,18,20.714039999999997,LFMO 032000Z AUTO 35018KT CAVOK 28/15 Q1011 BECMG 35015G30KT,2024-08-03T20:00:00Z,28,15,6+,29.85
LFMN,43.658,7.216,VRB,3,3.4523399999999995,LFMN 032000Z VRB03KT 9999 FEW083 29/20 Q1008 NOSIG,2024-08-03T20:00:00Z,29,20,6+,29.76
LFML,43.438,5.216,320,19,21.864819999999998,LFML 032000Z AUTO 32019KT CAVOK 29/14 Q1010 NOSIG,2024-08-03T20:00:00Z,29,14,6+,29.82
LFMK,43.214,2.31,270,6,6.904679999999999,LFMK 032000Z AUTO 27006KT 240V300 CAVOK 23/14 Q1016,2024-08-03T20:00:00Z,23,14,6+,30.00
LFMI,43.516,4.935,330,18,20.714039999999997,LFMI 032000Z AUTO 33018KT CAVOK 29/13 Q1010 NOSIG,2024-08-03T20:00:00Z,29,13,6+,29.82
LFMH,45.533,4.293,40,4,4.60312,LFMH 032000Z AUTO 04004KT CAVOK 21/15 Q1017,2024-08-03T20:00:00Z,21,15,6+,30.03
LFMD,43.544,6.953,VRB,2,2.30156,LFMD 032000Z AUTO VRB02KT CAVOK 28/20 Q1008 NOSIG,2024-08-03T20:00:00Z,28,20,6+,29.76
LFMC,43.383,6.386,10,3,3.4523399999999995,LFMC 032000Z AUTO 01003KT 9999 ////// 29/18 Q1009,2024-08-03T20:00:00Z,29,18,6+,29.79
LFLY,45.726,4.938,330,10,11.5078,LFLY 032000Z AUTO 33010KT 9999 SCT048 24/15 Q1015 NOSIG,2024-08-03T20:00:00Z,24,15,6+,29.97
LFLW,44.899,2.421,VRB,3,3.4523399999999995,LFLW 032000Z AUTO VRB03KT CAVOK 18/15 Q1019 NOSIG,2024-08-03T20:00:00Z,18,15,6+,30.09
LFLS,45.363,5.329,VRB,2,2.30156,LFLS 032000Z AUTO VRB02KT 9999 BKN068 23/16 Q1016,2024-08-03T20:00:00Z,23,16,6+,30.00
LFLP,45.93,6.106,VRB,1,1.15078,LFLP 032000Z AUTO VRB01KT CAVOK 23/14 Q1015,2024-08-03T20:00:00Z,23,14,6+,29.97
LFLN,46.412,4.025,0,0,0.0,LFLN 032000Z AUTO 00000KT CAVOK 20/16 Q1016,2024-08-03T20:00:00Z,20,16,6+,30.00
LFLL,45.726,5.078,340,10,11.5078,LFLL 032000Z 34010KT CAVOK 24/16 Q1015 NOSIG,2024-08-03T20:00:00Z,24,16,6+,29.97
LFLC,45.787,3.169,350,4,4.60312,LFLC 032000Z AUTO 35004KT 9999 BKN050 23/15 Q1017 NOSIG,2024-08-03T20:00:00Z,23,15,6+,30.03
LFLB,45.637,5.883,340,7,8.05546,LFLB 032000Z AUTO 34007KT CAVOK 25/15 Q1014,2024-08-03T20:00:00Z,25,15,6+,29.94
LFKS,41.924,9.406,VRB,2,2.30156,LFKS 032000Z AUTO VRB02KT CAVOK 28/24 Q1008,2024-08-03T20:00:00Z,28,24,6+,29.76
LFKJ,41.924,8.803,40,4,4.60312,LFKJ 032000Z AUTO 04004KT 350V060 CAVOK 28/25 Q1009 NOSIG,2024-08-03T20:00:00Z,28,25,6+,29.79
LFKF,41.501,9.098,250,14,16.11092,LFKF 032000Z AUTO 25014KT CAVOK 28/22 Q1008 NOSIG,2024-08-03T20:00:00Z,28,22,6+,29.76
LFKC,42.531,8.793,VRB,3,3.4523399999999995,LFKC 032000Z AUTO VRB03KT 9999 FEW041 28/24 Q1009 TEMPO BKN012,2024-08-03T20:00:00Z,28,24,6+,29.79
LFKB,42.553,9.484,220,2,2.30156,LFKB 032000Z AUTO 22002KT CAVOK 27/24 Q1008 NOSIG,2024-08-03T20:00:00Z,27,24,6+,29.76
LFJR,47.562,-0.317,220,5,5.7539,LFJR 032000Z AUTO 22005KT CAVOK 20/15 Q1016,2024-08-03T20:00:00Z,20,15,6+,30.00
LFJL,48.982,6.251,250,5,5.7539,LFJL 032000Z AUTO 25005KT CAVOK 19/15 Q1016 NOSIG,2024-08-03T20:00:00Z,19,15,6+,30.00
LFGJ,47.044,5.427,10,5,5.7539,LFGJ 032000Z AUTO 01005KT CAVOK 22/15 Q1016,2024-08-03T20:00:00Z,22,15,6+,30.00
LFGA,48.11,7.359,310,4,4.60312,LFGA 032000Z AUTO 31004KT 270V330 CAVOK 21/15 Q1015,2024-08-03T20:00:00Z,21,15,6+,29.97
LFCR,44.41,2.483,320,6,6.904679999999999,LFCR 032000Z AUTO 32006KT CAVOK 19/15 Q1018 NOSIG,2024-08-03T20:00:00Z,19,15,6+,30.06
LFCK,43.556,2.289,270,6,6.904679999999999,LFCK 032000Z AUTO 27006KT CAVOK 22/15 Q1018 NOSIG,2024-08-03T20:00:00Z,22,15,6+,30.06
LFBZ,43.469,-1.534,330,3,3.4523399999999995,LFBZ 032000Z AUTO 33003KT 9999 NCD 21/17 Q1019 NOSIG,2024-08-03T20:00:00Z,21,17,6+,30.09
LFBY,43.69,-1.07,320,3,3.4523399999999995,LFBY 032000Z AUTO 32003KT 270V360 9999 // ////// 21/16 Q1018,2024-08-03T20:00:00Z,21,16,6+,30.06
LFBX,45.196,0.815,VRB,2,2.30156,LFBX 032000Z AUTO VRB02KT CAVOK 20/14 Q1017,2024-08-03T20:00:00Z,20,14,6+,30.03
LFBU,45.728,0.22,290,5,5.7539,LFBU 032000Z AUTO 29005KT CAVOK 20/13 Q1018 NOSIG,2024-08-03T20:00:00Z,20,13,6+,30.06
LFBT,43.189,,210,5,5.7539,LFBT 032000Z AUTO 21005KT 160V230 9999 BKN037 19/16 Q1019 NOSIG,2024-08-03T20:00:00Z,19,16,6+,30.09
LFBP,43.385,-0.416,200,3,3.4523399999999995,LFBP 032000Z AUTO 20003KT CAVOK 21/17 Q1018 NOSIG,2024-08-03T20:00:00Z,21,17,6+,30.06
LFBO,43.621,1.379,310,6,6.904679999999999,LFBO 032000Z AUTO 31006KT CAVOK 23/14 Q1017 NOSIG,2024-08-03T20:00:00Z,23,14,6+,30.03
LFBM,43.912,-0.507,320,4,4.60312,LFBM 032000Z AUTO 32004KT CAVOK 21/16 Q1018 NOSIG,2024-08-03T20:00:00Z,21,16,6+,30.06
LFBL,45.863,1.179,320,4,4.60312,LFBL 032000Z AUTO 32004KT CAVOK 18/13 Q1019 NOSIG,2024-08-03T20:00:00Z,18,13,6+,30.09
LFBI,46.584,0.309,250,6,6.904679999999999,LFBI 032000Z AUTO 25006KT 9999 OVC046 21/15 Q1017 NOSIG,2024-08-03T20:00:00Z,21,15,6+,30.03
LFBH,46.178,-1.193,260,5,5.7539,LFBH 032000Z AUTO 26005KT 9999 FEW040 20/15 Q1018 NOSIG,2024-08-03T20:00:00Z,20,15,6+,30.06
LFBG,45.665,-0.316,310,5,5.7539,LFBG 032000Z AUTO 31005KT CAVOK 21/14 Q1018,2024-08-03T20:00:00Z,21,14,6+,30.06
LFBE,44.826,0.516,290,5,5.7539,LFBE 032000Z AUTO 29005KT CAVOK 21/15 Q1017 NOSIG,2024-08-03T20:00:00Z,21,15,6+,30.03
LFBD,44.831,-0.691,320,5,5.7539,LFBD 032000Z AUTO 32005KT CAVOK 21/15 Q1018 NOSIG,2024-08-03T20:00:00Z,21,15,6+,30.06
LFBC,44.533,-1.125,330,3,3.4523399999999995,LFBC 032000Z AUTO 33003KT CAVOK 20/15 Q1018,2024-08-03T20:00:00Z,20,15,6+,30.06
LFBA,44.176,0.593,270,3,3.4523399999999995,LFBA 032000Z AUTO 27003KT CAVOK 22/15 Q1017 NOSIG,2024-08-03T20:00:00Z,22,15,6+,30.03
LFAT,50.515,1.623,270,6,6.904679999999999,LFAT 032000Z AUTO 27006KT 240V300 9999 OVC003 19/19 Q1013,2024-08-03T20:00:00Z,19,19,6+,29.91
LFAQ,49.972,2.704,210,7,8.05546,LFAQ 032000Z AUTO 21007KT 9999 SCT034 BKN044 OVC050 21/16 Q1014,2024-08-03T20:00:00Z,21,16,6+,29.94
LFAC,50.962,1.955,230,9,10.357019999999999,LFAC 032000Z AUTO 23009KT 9999 SCT007/// BKN012/// BKN032/// ///TCU 18/17 Q1013,2024-08-03T20:00:00Z,18,17,6+,29.91
LEZL,37.418,-5.893,220,7,8.05546,LEZL 032000Z 22007KT CAVOK 30/13 Q1011 NOSIG,2024-08-03T20:00:00Z,30,13,6+,29.85
LEZG,41.661,-1.004,290,14,16.11092,LEZG 032000Z 29014KT CAVOK 28/09 Q1014 NOSIG,2024-08-03T20:00:00Z,28,9,6+,29.94
LEXJ,43.429,-3.831,80,3,3.4523399999999995,LEXJ 032000Z 08003KT 030V130 9999 BKN034 22/17 Q1019,2024-08-03T20:00:00Z,22,17,6+,30.09
LEVX,42.239,-8.624,20,5,5.7539,LEVX 032000Z 02005KT 350V060 CAVOK 22/16 Q1016 NOSIG,2024-08-03T20:00:00Z,22,16,6+,30.00
LEVT,42.872,-2.733,50,5,5.7539,LEVT 032000Z 05005KT 9999 FEW020 18/14 Q1019,2024-08-03T20:00:00Z,18,14,6+,30.09
LEVS,40.371,-3.785,VRB,1,1.15078,LEVS 032000Z VRB01KT CAVOK 31/09 Q1015,2024-08-03T20:00:00Z,31,9,6+,29.97
LEVD,41.706,-4.852,30,6,6.904679999999999,LEVD 032000Z AUTO 03006KT CAVOK 25/06 Q1018,2024-08-03T20:00:00Z,25,6,6+,30.06
LEVC,39.489,-0.482,50,9,10.357019999999999,LEVC 032000Z 05009KT 010V080 9999 FEW025 28/23 Q1013 NOSIG,2024-08-03T20:00:00Z,28,23,6+,29.91
LETU,-99.99,-99.99,310,9,10.357019999999999,LETU 032000Z AUTO 31009KT CAVOK 24/14 Q1016,2024-08-03T20:00:00Z,24,14,6+,30.00
LETO,40.489,-3.451,360,10,11.5078,LETO 032000Z 36010KT CAVOK 32/10 Q1014 NOSIG,2024-08-03T20:00:00Z,32,10,6+,29.94
LETL,40.404,-1.218,120,8,9.20624,LETL 032000Z AUTO 12008KT CAVOK 25/19 Q1019,2024-08-03T20:00:00Z,25,19,6+,30.09
LEST,42.888,-8.411,10,10,11.5078,LEST 032000Z 01010KT 330V040 9999 FEW015 19/16 Q1019 NOSIG,2024-08-03T20:00:00Z,19,16,6+,30.09
LESO,43.361,-1.787,VRB,2,2.30156,LESO 032000Z AUTO VRB02KT CAVOK 21/18 Q1018,2024-08-03T20:00:00Z,21,18,6+,30.06
LESB,39.599,2.703,210,7,8.05546,LESB 032000Z AUTO 21007KT 9999 BKN022 27/22 Q1014,2024-08-03T20:00:00Z,27,22,6+,29.94
LESA,40.96,-5.498,40,4,4.60312,LESA 032000Z AUTO 04004KT CAVOK 24/14 Q1017,2024-08-03T20:00:00Z,24,14,6+,30.03
LERT,36.645,-6.349,260,4,4.60312,LERT 032000Z 26004KT 230V290 CAVOK 24/21 Q1012 NOSIG,2024-08-03T20:00:00Z,24,21,6+,29.88
LERS,41.15,1.179,220,2,2.30156,LERS 032000Z 22002KT CAVOK 26/22 Q1013,2024-08-03T20:00:00Z,26,22,6+,29.91
LEPP,42.777,-1.65,320,10,11.5078,LEPP 032000Z 32010KT CAVOK 19/15 Q1018,2024-08-03T20:00:00Z,19,15,6+,30.06
LEPA,39.561,2.737,210,5,5.7539,LEPA 032000Z 21005KT 180V240 9999 FEW018 28/23 Q1013 NOSIG,2024-08-03T20:00:00Z,28,23,6+,29.91
LEMO,37.175,-5.616,240,5,5.7539,LEMO 032000Z 24005KT 200V260 CAVOK 28/13 Q1012 NOSIG,2024-08-03T20:00:00Z,28,13,6+,29.88
LEMI,37.803,-1.125,100,6,6.904679999999999,LEMI 032000Z 10006KT 9999 FEW015 26/23 Q1014,2024-08-03T20:00:00Z,26,23,6+,29.94
LEMH,39.855,4.216,360,6,6.904679999999999,LEMH 032000Z 36006KT CAVOK 25/19 Q1014,2024-08-03T20:00:00Z,25,19,6+,29.94
LEMG,36.666,-4.482,140,5,5.7539,LEMG 032000Z 14005KT 110V170 9999 FEW008 25/23 Q1013 NOSIG,2024-08-03T20:00:00Z,25,23,6+,29.91
LEMD,40.466,-3.555,360,7,8.05546,LEMD 032000Z 36007KT 330V040 CAVOK 33/10 Q1014 NOSIG,2024-08-03T20:00:00Z,33,10,6+,29.94
LELO,42.452,-2.331,330,3,3.4523399999999995,LELO 032000Z AUTO 33003KT 280V050 CAVOK 23/12 Q1017,2024-08-03T20:00:00Z,23,12,6+,30.03
LELN,42.588,-5.651,10,5,5.7539,LELN 032000Z AUTO 01005KT 340V040 CAVOK 24/06 Q1019,2024-08-03T20:00:00Z,24,6,6+,30.09
LELL,41.521,2.105,VRB,1,1.15078,LELL 032000Z AUTO VRB01KT CAVOK 26/18 Q1013,2024-08-03T20:00:00Z,26,18,6+,29.91
LELC,37.775,-0.812,110,4,4.60312,LELC 032000Z 11004KT 070V170 9999 SCT015 27/24 Q1013 NOSIG,2024-08-03T20:00:00Z,27,24,6+,29.91
LEJR,36.751,-6.056,190,5,5.7539,LEJR 032000Z 19005KT CAVOK 26/17 Q1012,2024-08-03T20:00:00Z,26,17,6+,29.88
LEIB,38.876,1.384,150,3,3.4523399999999995,LEIB 032000Z 15003KT 110V190 9999 FEW024 27/22 Q1013 NOSIG,2024-08-03T20:00:00Z,27,22,6+,29.91
LEHC,42.082,-0.324,260,7,8.05546,LEHC 032000Z AUTO 26007KT CAVOK 25/05 Q1014,2024-08-03T20:00:00Z,25,5,6+,29.94
LEGT,40.299,-3.723,140,2,2.30156,LEGT 032000Z AUTO 14002KT CAVOK 32/09 Q1014,2024-08-03T20:00:00Z,32,9,6+,29.94
LEGR,37.19,-3.789,190,8,9.20624,LEGR 032000Z 19008KT CAVOK 31/08 Q1015,2024-08-03T20:00:00Z,31,8,6+,29.97
LEGE,41.911,2.763,150,3,3.4523399999999995,LEGE 032000Z 15003KT 120V180 CAVOK 26/19 Q1014 NOSIG,2024-08-03T20:00:00Z,26,19,6+,29.94
LEDA,41.734,0.538,250,5,5.7539,LEDA 032000Z AUTO 25005KT CAVOK 28/09 Q1013,2024-08-03T20:00:00Z,28,9,6+,29.91
LECO,43.307,-8.372,340,5,5.7539,LECO 032000Z 34005KT 290V020 9999 FEW015 19/17 Q1019 NOSIG,2024-08-03T20:00:00Z,19,17,6+,30.09
LECH,40.211,0.067,210,8,9.20624,LECH 032000Z AUTO 21008KT 180V240 CAVOK 26/21 Q1015,2024-08-03T20:00:00Z,26,21,6+,29.97
LEBT,39.58,-0.45,80,3,3.4523399999999995,LEBT 032000Z AUTO 08003KT 030V140 9999 BKN014 27/22 Q1013,2024-08-03T20:00:00Z,27,22,6+,29.91
LEBR,42.2,-1.43,300,16,18.41248,LEBR 032000Z AUTO 30016KT CAVOK 23/14 Q1015,2024-08-03T20:00:00Z,23,14,6+,29.97
LEBL,41.293,2.07,240,7,8.05546,LEBL 032000Z 24007KT CAVOK 26/20 Q1013 NOSIG,2024-08-03T20:00:00Z,26,20,6+,29.91
LEBG,42.356,-3.622,50,8,9.20624,LEBG 032000Z AUTO 05008KT CAVOK 20/09 Q1020,2024-08-03T20:00:00Z,20,9,6+,30.12
LEBB,43.298,-2.906,VRB,1,1.15078,LEBB 032000Z VRB01KT 9999 FEW020 21/16 Q1019 NOSIG,2024-08-03T20:00:00Z,21,16,6+,30.09
LEBA,37.842,-4.849,250,6,6.904679999999999,LEBA 032000Z AUTO 25006KT CAVOK 33/11 Q1010,2024-08-03T20:00:00Z,33,11,6+,29.82
LEAS,43.567,-6.044,VRB,2,2.30156,LEAS 032000Z VRB02KT 9999 BKN020 20/18 Q1019 NOSIG,2024-08-03T20:00:00Z,20,18,6+,30.09
LEAM,36.846,-2.357,260,5,5.7539,LEAM 032000Z 26005KT CAVOK 28/25 Q1013,2024-08-03T20:00:00Z,28,25,6+,29.91
LEAL,38.282,-0.558,130,3,3.4523399999999995,LEAL 032000Z 13003KT 090V170 9999 FEW020 27/22 Q1013 NOSIG,2024-08-03T20:00:00Z,27,22,6+,29.91
LEAG,36.129,-5.441,40,7,8.05546,LEAG 032000Z AUTO 04007KT 350V090 CAVOK 24/21 Q1013,2024-08-03T20:00:00Z,24,21,6+,29.91
LEAB,38.952,-1.863,160,7,8.05546,LEAB 032000Z 16007KT 130V190 CAVOK 29/18 Q1016 NOSIG,2024-08-03T20:00:00Z,29,18,6+,30.00
LDZD,44.108,15.347,VRB,2,2.30156,LDZD 032000Z VRB02KT CAVOK 25/20 Q1010 NOSIG,2024-08-03T20:00:00Z,25,20,6+,29.82
LDZA,45.729,16.054,VRB,1,1.15078,LDZA 032000Z VRB01KT CAVOK 21/16 Q1012 NOSIG,2024-08-03T20:00:00Z,21,16,6+,29.88
LDSP,43.539,16.301,70,6,6.904679999999999,LDSP 032000Z 07006KT CAVOK 26/21 Q1009 NOSIG,2024-08-03T20:00:00Z,26,21,6+,29.79
LDRI,45.218,14.573,VRB,1,1.15078,LDRI 032000Z VRB01KT CAVOK 25/14 Q1010,2024-08-03T20:00:00Z,25,14,6+,29.82
LDPL,44.894,13.922,50,3,3.4523399999999995,LDPL 032000Z 05003KT 030V120 CAVOK 22/15 Q1010 NOSIG,2024-08-03T20:00:00Z,22,15,6+,29.82
LDOS,45.463,18.81,310,4,4.60312,LDOS 032000Z 31004KT CAVOK 20/14 Q1012,2024-08-03T20:00:00Z,20,14,6+,29.88
LDDU,42.56,18.269,300,8,9.20624,LDDU 032000Z 30008KT CAVOK 25/22 Q1010 NOSIG,2024-08-03T20:00:00Z,25,22,6+,29.82
LCPH,34.715,32.479,20,4,4.60312,LCPH 032000Z 02004KT 9999 FEW018 27/24 Q1004 NOSIG,2024-08-03T20:00:00Z,27,24,6+,29.65
LCLK,34.874,33.617,200,4,4.60312,LCLK 032000Z 20004KT CAVOK 27/24 Q1004 NOSIG,2024-08-03T20:00:00Z,27,24,6+,29.65
LBWN,43.232,27.825,310,7,8.05546,LBWN 032000Z AUTO 31007KT 9999 NCD 21/19 Q1006 NOSIG,2024-08-03T20:00:00Z,21,19,6+,29.70
LBSF,42.694,23.414,300,14,16.11092,LBSF 032000Z AUTO 30014KT 9999 OVC069/// 24/15 Q1012 TEMPO 5000 SHRA FEW040TCU,2024-08-03T20:00:00Z,24,15,6+,29.88
LBPL,43.453,24.504,250,4,4.60312,LBPL 032000Z 25004KT 9999 FEW100 26/17 Q1006,2024-08-03T20:00:00Z,26,17,6+,29.70
LBPG,42.289,24.714,110,4,4.60312,LBPG 032000Z 11004KT 9999 SCT050 BKN100 26/17 Q1008,2024-08-03T20:00:00Z,26,17,6+,29.76
LBPD,42.064,24.86,140,9,10.357019999999999,LBPD 032000Z AUTO 14009KT 9999 //////CB 25/18 Q1008,2024-08-03T20:00:00Z,25,18,6+,29.76
LBIA,42.456,26.352,200,4,4.60312,LBIA 032000Z 20004KT 9999 SKC 21/20 Q1008,2024-08-03T20:00:00Z,21,20,6+,29.76
LBGO,43.151,25.713,60,3,3.4523399999999995,LBGO 032000Z AUTO 06003KT 9999 NCD 20/19 Q1007,2024-08-03T20:00:00Z,20,19,6+,29.73
LBBG,42.569,27.514,300,5,5.7539,LBBG 032000Z AUTO 30005KT 260V330 9999 NSC 22/19 Q1006 NOSIG,2024-08-03T20:00:00Z,22,19,6+,29.70
KXNX,36.3745,-86.41,VRB,6,6.904679999999999,KXNX 032000Z AUTO VRB06G13KT 10SM SCT041 SCT048 SCT055 31/22 A2996 RMK A01,2024-08-03T20:00:00Z,31,22,10+,29.96
KTIP,40.291,-88.146,310,5,5.7539,KTIP 032000Z AUTO 31005KT 10SM SCT047 30/20 A2996 RMK AO2 T02990201,2024-08-03T20:00:00Z,29.9,20.1,10+,29.96
KSEM,32.3367,-86.9836,330,8,9.20624,KSEM 032000Z AUTO 33008KT 10SM FEW050 34/23 A2989 RMK AO2,2024-08-03T20:00:00Z,34,23,10+,29.89
KQFW,-99.99,-99.99,360,1,1.15078,KQFW 032000Z AUTO 36001KT 4000 BR OVC005 24/24 A2968 RMK A02 TSNO,2024-08-03T20:00:00Z,24,24,2.49,29.68
KQEY,-99.99,-99.99,200,1,1.15078,KQEY 032000Z AUTO 20001KT 6000 BKN005 27/26 A2954 RMK A02 TSNO,2024-08-03T20:00:00Z,27,26,3.73,29.54
KQER,-99.99,-99.99,160,1,1.15078,KQER 032000Z AUTO 16001KT 6000 CLR 24/24 A2981 RMK A02 TSNO,2024-08-03T20:00:00Z,24,24,3.73,29.81
KQDG,-99.99,-99.99,0,0,0.0,KQDG 032000Z AUTO 00000KT 4400 BR BKN100 OVC130 23/23 A2974 RMK AO2 VIS 4400V6000 SLP073 PWINO $,2024-08-03T20:00:00Z,23,23,2.73,29.74
KOJA,35.5484,-98.6702,360,5,5.7539,KOJA 032000Z AUTO 36005KT 10SM CLR 35/13 A3006 RMK AO2 T03510128,2024-08-03T20:00:00Z,35.1,12.8,10+,30.06
KOCW,35.5703,-77.05,200,6,6.904679999999999,KOCW 032000Z AUTO 20006KT 10SM -RA BKN110 24/21 A2996 RMK AO2 T02420210,2024-08-03T20:00:00Z,24.2,21,10+,29.96
KNEL,40.037,-74.326,210,9,10.357019999999999,KNEL 032000Z AUTO 21009KT FEW043 SCT050 33/24 A2976 RMK AO2 RAB1920E1933 SLP076 P0001 T03280244 $,2024-08-03T20:00:00Z,32.8,24.4,,29.76
KMGW,39.6498,-79.9206,0,0,0.0,KMGW 032000Z 00000KT 4SM -RA BR FEW004 BKN045 OVC065 23/22 A2991 RMK AO2 P0000 T02280217,2024-08-03T20:00:00Z,22.8,21.7,4,29.91
KIKT,28.5208,-88.2889,20,6,6.904679999999999,KIKT 032000Z AUTO 02006KT 10SM CLR 31/22 A2993 RMK A01,2024-08-03T20:00:00Z,31,22,10+,29.93
KGUL,27.3039,-93.5383,0,0,0.0,KGUL 032000Z AUTO 00000KT 10SM CLR 32/25 A2996 RMK A01,2024-08-03T20:00:00Z,32,25,10+,29.96
KETC,35.9363,-77.5416,190,8,9.20624,KETC 032000Z AUTO 19008G20KT 160V220 3 1/2SM -RA BR SCT010 SCT038 BKN070 A2992 RMK AO2,2024-08-03T20:00:00Z,,,3.5,29.92
KEHO,35.2556,-81.5986,150,12,13.809359999999998,KEHO 032000Z AUTO 15012G18KT 10SM SCT047 BKN060 30/23 A2988 RMK AO2 T02970231,2024-08-03T20:00:00Z,29.7,23.1,10+,29.88
KEDU,38.53,-121.788,0,0,0.0,KEDU 032000Z AUTO 00000KT 10SM CLR 34/12 A2992 RMK AO1,2024-08-03T20:00:00Z,34,12,10+,29.92
KDSF,28.3426,-88.2649,0,0,0.0,KDSF 032000Z AUTO 00000KT 10SM CLR 33/20 A2993 RMK A01,2024-08-03T20:00:00Z,33,20,10+,29.93
KDMW,39.61,-77.007,200,8,9.20624,KDMW 032000Z AUTO 20008KT 10SM VCTSRA SCT013 BKN020 OVC050 28/24 A2982 RMK AO2 LTG DSNT ALQDS P0012,2024-08-03T20:00:00Z,28,24,10+,29.82
KDLH,46.8435,-92.1866,100,5,5.7539,KDLH 032000Z 10005KT 10SM -TSRA SCT090 BKN110CB 21/15 A3001 RMK AO2 TSB00 FRQ LTGICCCCA W-N TS W-N MOV SE P0000 T02060150,2024-08-03T20:00:00Z,20.6,15,10+,30.01
K0F2,33.6011,-97.7735,30,7,8.05546,K0F2 032000Z AUTO 03007KT 10SM CLR 37/13 A3001 RMK AO2 T03650134,2024-08-03T20:00:00Z,36.5,13.4,10+,30.01
HRYR,-1.969,30.14,220,3,3.4523399999999995,HRYR 032000Z 22003KT 9999 FEW026 23/09 Q1022 NOSIG,2024-08-03T20:00:00Z,23,9,6+,30.18
HETR,28.209,33.646,300,9,10.357019999999999,HETR 032000Z 30009KT CAVOK 32/23 Q1004,2024-08-03T20:00:00Z,32,23,6+,29.65
HESW,29.346,25.507,10,16,18.41248,HESW 032000Z 01016KT CAVOK 31/19 Q1008,2024-08-03T20:00:00Z,31,19,6+,29.76
HECA,30.133,31.405,10,10,11.5078,HECA 032000Z 01010KT 9999 FEW025 29/21 Q1007 NOSIG,2024-08-03T20:00:00Z,29,21,6+,29.73
GVSV,16.833,-25.055,40,9,10.357019999999999,GVSV 032000Z 04009KT 9999 BKN022 27/21 Q1008 NOSIG,2024-08-03T20:00:00Z,27,21,6+,29.76
GVNP,14.947,-23.484,150,3,3.4523399999999995,GVNP 032000Z 15003KT 9999 SCT014 BKN100 26/22 Q1009 NOSIG,2024-08-03T20:00:00Z,26,22,6+,29.79
GVAC,16.742,-22.949,VRB,2,2.30156,GVAC 032000Z VRB02KT 99999 BKN014 BKN200 25/21 Q1009 NOSIG,2024-08-03T20:00:00Z,25,21,6+,29.79
GUCY,9.577,-13.612,220,10,11.5078,GUCY 032000Z 22010KT 5000 -RA BKN010 OVC100 24/24 Q1013 NOSIG,2024-08-03T20:00:00Z,24,24,3.11,29.91
GQPP,20.929,-17.031,260,5,5.7539,GQPP 032000Z 26005KT 6000 DRSA NSC 25/21 Q1010 NOSIG,2024-08-03T20:00:00Z,25,21,3.73,29.82
GOTT,13.733,-13.657,170,2,2.30156,GOTT 032000Z 17002KT 9999 VCTS SCT013 SCT026CB 26/25 Q1011,2024-08-03T20:00:00Z,26,25,6+,29.85
GOSS,16.051,-16.461,260,8,9.20624,GOSS 032000Z 26008KT 230V290 CAVOK 29/23 Q1010,2024-08-03T20:00:00Z,29,23,6+,29.82
GOOY,14.741,-17.49,180,8,9.20624,GOOY 032000Z 18008KT 150V230 9999 FEW013 29/23 Q1010,2024-08-03T20:00:00Z,29,23,6+,29.82
GOBD,14.671,-17.067,220,10,11.5078,GOBD 032000Z 22010KT 9999 SCT024 28/24 Q1010 NOSIG,2024-08-03T20:00:00Z,28,24,6+,29.82
GMTT,35.727,-5.917,10,6,6.904679999999999,GMTT 032000Z 01006KT CAVOK 25/19 Q1012 NOSIG,2024-08-03T20:00:00Z,25,19,6+,29.88
GMTN,35.594,-5.32,60,6,6.904679999999999,GMTN 032000Z 06006KT 8000 FEW010 23/21 Q1012 NOSIG,2024-08-03T20:00:00Z,23,21,4.97,29.88
GMTA,35.177,-3.84,330,4,4.60312,GMTA 032000Z 33004KT CAVOK 25/21 Q1012 NOSIG,2024-08-03T20:00:00Z,25,21,6+,29.88
GMMZ,30.939,-6.909,70,5,5.7539,GMMZ 032000Z 07005KT 9999 FEW040 37/M09 Q1016 NOSIG,2024-08-03T20:00:00Z,37,-9,6+,30.00
GMMX,31.607,-8.036,360,7,8.05546,GMMX 032000Z 36007KT 320V030 9999 FEW040 35/14 Q1013 NOSIG,2024-08-03T20:00:00Z,35,14,6+,29.91
GMMW,34.993,-3.025,80,5,5.7539,GMMW 032000Z 08005KT CAVOK 26/20 Q1013 NOSIG,2024-08-03T20:00:00Z,26,20,6+,29.91
GMMN,33.367,-7.59,10,9,10.357019999999999,GMMN 032000Z 01009KT CAVOK 23/18 Q1013 NOSIG,2024-08-03T20:00:00Z,23,18,6+,29.91
GMML,27.141,-13.23,30,32,36.82496,GMML 032000Z 03032KT 2500 SA NSC 24/23 Q1008 NOSIG,2024-08-03T20:00:00Z,24,23,1.55,29.76
GMMI,31.406,-9.687,360,12,13.809359999999998,GMMI 032000Z AUTO 36012KT 7000 NSC 26/18 Q1010 NOSIG,2024-08-03T20:00:00Z,26,18,4.35,29.82
GMMH,23.718,-15.932,50,6,6.904679999999999,GMMH 032000Z AUTO 05006KT 2800 HZ NCD 23/20 Q1010,2024-08-03T20:00:00Z,23,20,1.74,29.82
GMME,34.051,-6.752,20,4,4.60312,GMME 032000Z 02004KT 350V050 8000 NSC 23/22 Q1012 NOSIG,2024-08-03T20:00:00Z,23,22,4.97,29.88
GMMB,33.655,-7.221,360,7,8.05546,GMMB 032000Z AUTO 36007KT 9999 NSC 22/22 Q1013 NOSIG,2024-08-03T20:00:00Z,22,22,6+,29.91
GMFO,34.787,-1.924,350,10,11.5078,GMFO 032000Z 35010KT CAVOK 29/12 Q1014 NOSIG,2024-08-03T20:00:00Z,29,12,6+,29.94
GMFM,33.875,-5.52,300,6,6.904679999999999,GMFM 032000Z 30006KT CAVOK 28/16 Q1015 NOSIG,2024-08-03T20:00:00Z,28,16,6+,29.97
GMFK,31.946,-4.399,180,8,9.20624,GMFK 032000Z 18008KT 9999 FEW033 38/M09 Q1017 NOSIG,2024-08-03T20:00:00Z,38,-9,6+,30.03
GMFF,33.929,-4.976,310,5,5.7539,GMFF 032000Z 31005KT CAVOK 31/10 Q1015 NOSIG,2024-08-03T20:00:00Z,31,10,6+,29.97
GMFB,32.514,-1.978,220,7,8.05546,GMFB 032000Z AUTO 22007KT 9999 ////// 35/M00 Q1017 NOSIG,2024-08-03T20:00:00Z,35,0,6+,30.03
GMAZ,30.266,-5.854,130,10,11.5078,GMAZ 032000Z 13010KT CAVOK 38/M07 Q1013 NOSIG,2024-08-03T20:00:00Z,38,-7,6+,29.91
GMAG,29.031,-10.051,190,9,10.357019999999999,GMAG 032000Z AUTO 19009KT 6000 30/14 Q1009,2024-08-03T20:00:00Z,30,14,3.73,29.79
GMAD,30.325,-9.413,260,10,11.5078,GMAD 032000Z 26010KT 8000 NSC 24/19 Q1007 NOSIG,2024-08-03T20:00:00Z,24,19,4.97,29.73
GLRB,6.234,-10.362,180,6,6.904679999999999,GLRB 032000Z 18006KT 9999 BKN012 FEW022CB 25/24 Q1014 CB-SW NOSIG,2024-08-03T20:00:00Z,25,24,6+,29.94
GGOV,11.895,-15.654,220,6,6.904679999999999,GGOV 032000Z 22006KT 180V260 8000 -RA BKN010 25/24 Q1011 TEMPO 4000 RA,2024-08-03T20:00:00Z,25,24,4.97,29.85
GEML,35.278,-2.956,VRB,2,2.30156,GEML 032000Z VRB02KT CAVOK 26/22 Q1013,2024-08-03T20:00:00Z,26,22,6+,29.91
GECE,35.893,-5.306,350,5,5.7539,GECE 032000Z AUTO 35005KT 0550 FG BKN001 OVC002 21/21 Q1012,2024-08-03T20:00:00Z,21,21,0.34,29.88
GCXO,28.483,-16.342,270,5,5.7539,GCXO 032000Z 27005KT 220V300 CAVOK 24/17 Q1016 NOSIG,2024-08-03T20:00:00Z,24,17,6+,30.00
GCTS,28.047,-16.561,50,10,11.5078,GCTS 032000Z 05010G20KT 350V100 CAVOK 30/11 Q1011 WS R07 NOSIG,2024-08-03T20:00:00Z,30,11,6+,29.85
GCRR,28.952,-13.6,360,27,31.07106,GCRR 032000Z 36027KT 9999 FEW020 24/20 Q1010,2024-08-03T20:00:00Z,24,20,6+,29.82
GCLP,27.923,-15.389,10,22,25.317159999999998,GCLP 032000Z 01022KT 9999 FEW020 28/13 Q1012 NOSIG,2024-08-03T20:00:00Z,28,13,6+,29.88
GCLA,28.633,-17.755,20,13,14.960139999999999,GCLA 032000Z 02013KT 350V060 9999 FEW017 23/20 Q1015,2024-08-03T20:00:00Z,23,20,6+,29.97
GCHI,27.819,-17.889,330,22,25.317159999999998,GCHI 032000Z AUTO 33022KT 9999 OVC014 23/20 Q1013,2024-08-03T20:00:00Z,23,20,6+,29.91
GCGM,28.032,-17.211,VRB,2,2.30156,GCGM 032000Z AUTO VRB02KT CAVOK 28/15 Q1012 RMK R09/VRB02KT ARP/24003KT 190V280,2024-08-03T20:00:00Z,28,15,6+,29.88
GCFV,28.445,-13.863,30,10,11.5078,GCFV 032000Z 03010KT CAVOK 26/19 Q1011,2024-08-03T20:00:00Z,26,19,6+,29.85
GBYD,13.341,-16.653,260,5,5.7539,GBYD 032000Z 26005KT 9999 BKN010 FEW018CB SCT100 28/24 Q1009 CB NE-SE,2024-08-03T20:00:00Z,28,24,6+,29.79
GAKD,14.482,-11.404,280,8,9.20624,GAKD 032000Z 28008KT 9999 TS SCT020 FEW030CB 29/24 Q1011,2024-08-03T20:00:00Z,29,24,6+,29.85
GABS,12.534,-7.95,190,4,4.60312,GABS 032000Z 19004KT 9999 FEW015 FEW025CB 28/24 Q1013 TEMPO TS,2024-08-03T20:00:00Z,28,24,6+,29.91
FTTJ,12.134,15.034,210,3,3.4523399999999995,FTTJ 032000Z 21003KT 7000 FEW026 27/26 Q1011 NOSIG,2024-08-03T20:00:00Z,27,26,4.35,29.85
FSIA,-4.674,55.522,140,5,5.7539,FSIA 032000Z 14005KT 060V220 9999 SCT020 26/22 Q1013 NOSIG,2024-08-03T20:00:00Z,26,22,6+,29.91
FQXA,-25.038,33.627,30,3,3.4523399999999995,FQXA 032000Z 03003KT 360V060 CAVOK 18/17 Q1021,2024-08-03T20:00:00Z,18,17,6+,30.15
FQTT,-16.108,33.64,30,5,5.7539,FQTT 032000Z 03005KT CAVOK 21/08 Q1019,2024-08-03T20:00:00Z,21,8,6+,30.09
FQPB,-12.989,40.525,130,6,6.904679999999999,FQPB 032000Z 13006KT 9999 FEW020 24/21 Q1019,2024-08-03T20:00:00Z,24,21,6+,30.09
FQNP,-15.106,39.282,120,4,4.60312,FQNP 032000Z 12004KT 9999 FEW020 20/16 Q1021,2024-08-03T20:00:00Z,20,16,6+,30.15
FQMA,-25.921,32.573,90,5,5.7539,FQMA 032000Z 09005KT 9000 NSC 20/18 Q1020 NOSIG RMK BR,2024-08-03T20:00:00Z,20,18,5.59,30.12
FQLC,-13.271,35.265,70,5,5.7539,FQLC 032000Z 07005KT 5000 FU NSC 16/09 Q1025,2024-08-03T20:00:00Z,16,9,3.11,30.27
FQCH,-19.148,33.428,,,,FQCH 032000Z /////KT CAVOK 17/14 Q1024,2024-08-03T20:00:00Z,17,14,6+,30.24
FQBR,-19.796,34.908,110,6,6.904679999999999,FQBR 032000Z 11006KT CAVOK 19/18 Q1020,2024-08-03T20:00:00Z,19,18,6+,30.12
FNLU,-8.858,13.231,240,5,5.7539,FNLU 032000Z 24005KT 9999 FEW020 20/18 Q1017 NOSIG,2024-08-03T20:00:00Z,20,18,6+,30.03
FMSD,-25.038,46.956,320,6,6.904679999999999,FMSD 032000Z 32006KT 9999 FEW016 18/16 Q1020,2024-08-03T20:00:00Z,18,16,6+,30.12
FMNM,-15.667,46.352,VRB,1,1.15078,FMNM 032000Z VRB01KT CAVOK 21/20 Q1019,2024-08-03T20:00:00Z,21,20,6+,30.09
FMMT,-18.11,49.392,0,0,0.0,FMMT 032000Z 00000KT 9999 FEW017 16/15 Q1020,2024-08-03T20:00:00Z,16,15,6+,30.12
FMMI,-18.797,47.479,90,5,5.7539,FMMI 032000Z 09005KT CAVOK 12/12 Q1024 NOSIG,2024-08-03T20:00:00Z,12,12,6+,30.24
FMEP,-21.32,55.425,50,5,5.7539,FMEP 032000Z AUTO 05005KT CAVOK 19/14 Q1020,2024-08-03T20:00:00Z,19,14,6+,30.12
FMEE,-20.887,55.51,190,3,3.4523399999999995,FMEE 032000Z AUTO 19003KT 9999 OVC039 19/16 Q1020 NOSIG,2024-08-03T20:00:00Z,19,16,6+,30.12
FMCZ,-12.805,45.281,230,4,4.60312,FMCZ 032000Z AUTO 23004KT CAVOK 23/20 Q1018 BECMG 16012KT,2024-08-03T20:00:00Z,23,20,6+,30.06
FIMP,-20.434,57.684,310,3,3.4523399999999995,FIMP 032000Z 31003KT 9999 SCT017 20/17 Q1021,2024-08-03T20:00:00Z,20,17,6+,30.15
FGSL,3.756,8.71,250,5,5.7539,FGSL 032000Z 25005KT 9999 SCT010 25/24 Q1016 NOSIG,2024-08-03T20:00:00Z,25,24,6+,30.00
FDPP,-25.966,31.249,10,6,6.904679999999999,FDPP 032000Z AUTO 01006KT //// // ////// 17/13 Q1026,2024-08-03T20:00:00Z,17,13,,30.30
FDBB,-26.815,31.934,310,3,3.4523399999999995,FDBB 032000Z AUTO 31003KT //// // ////// 18/16 Q1019,2024-08-03T20:00:00Z,18,16,,30.09
FCBB,-4.252,15.253,270,4,4.60312,FCBB 032000Z 27004KT 240V310 7000 NSC 26/16 Q1016 NOSIG,2024-08-03T20:00:00Z,26,16,4.35,30.00
FAWK,-25.83,28.223,20,1,1.15078,FAWK 032000Z AUTO 02001KT //// // ////// 13/03 Q1026,2024-08-03T20:00:00Z,13,3,,30.30
FAWB,-25.654,28.224,190,1,1.15078,FAWB 032000Z AUTO 19001KT //// // ////// 12/04 Q1023,2024-08-03T20:00:00Z,12,4,,30.21
FAVV,-26.566,27.961,280,6,6.904679999999999,FAVV 032000Z AUTO 28006KT //// // ////// 16/04 Q1026,2024-08-03T20:00:00Z,16,4,,30.30
FAUT,-31.546,28.673,160,1,1.15078,FAUT 032000Z AUTO 16001KT //// // ////// 10/05 Q1014,2024-08-03T20:00:00Z,10,5,,29.94
FAUP,-28.399,21.26,350,9,10.357019999999999,FAUP 032000Z AUTO 35009KT //// // ////// 21/M00 Q1015,2024-08-03T20:00:00Z,21,0,,29.97
FASI,-26.248,28.398,330,2,2.30156,FASI 032000Z AUTO 33002KT //// // ////// 12/02 Q1029,2024-08-03T20:00:00Z,12,2,,30.38
FAPP,-23.845,29.459,100,4,4.60312,FAPP 032000Z AUTO 10004KT //// // ////// 12/08 Q1027,2024-08-03T20:00:00Z,12,8,,30.32
FAOR,-26.139,28.246,310,4,4.60312,FAOR 032000Z 31004KT CAVOK 16/04 Q1026 NOSIG,2024-08-03T20:00:00Z,16,4,6+,30.30
FAMM,-25.798,25.548,40,5,5.7539,FAMM 032000Z AUTO 04005KT //// // ////// 13/01 Q1022,2024-08-03T20:00:00Z,13,1,,30.18
FALE,-29.602,31.13,10,7,8.05546,FALE 032000Z 01007KT CAVOK 17/15 Q1016 NOSIG,2024-08-03T20:00:00Z,17,15,6+,30.00
FALA,-25.939,27.926,170,3,3.4523399999999995,FALA 032000Z 17003KT 110V210 CAVOK 12/03 Q1025 NOSIG,2024-08-03T20:00:00Z,12,3,6+,30.27
FAKN,-25.383,31.106,50,3,3.4523399999999995,FAKN 032000Z AUTO 05003KT //// // ////// 17/13 Q1024,2024-08-03T20:00:00Z,17,13,,30.24
FAKM,-28.803,24.765,10,8,9.20624,FAKM 032000Z AUTO 01008KT //// // ////// 16/10 Q1018,2024-08-03T20:00:00Z,16,10,,30.06
FAJB,-26.15,28,170,2,2.30156,FAJB 032000Z AUTO 17002KT //// // ////// 11/03 Q1025,2024-08-03T20:00:00Z,11,3,,30.27
FAHS,-24.381,31.044,130,2,2.30156,FAHS 032000Z AUTO 13002KT //// // ////// 21/14 Q1022,2024-08-03T20:00:00Z,21,14,,30.18
FAGG,-34.006,22.379,VRB,2,2.30156,FAGG 032000Z AUTO VRB02KT CAVOK 14/02 Q1004,2024-08-03T20:00:00Z,14,2,6+,29.65
FACT,-33.965,18.602,340,10,11.5078,FACT 032000Z 34010KT CAVOK 12/09 Q1008 NOSIG,2024-08-03T20:00:00Z,12,9,6+,29.76
FABL,-29.093,26.302,0,0,0.0,FABL 032000Z AUTO 00000KT //// R02///// // ///////// 09/02 Q1021,2024-08-03T20:00:00Z,9,2,,30.15
EPZG,52.137,15.779,0,0,0.0,EPZG 032000Z 00000KT CAVOK 17/14 Q1011,2024-08-03T20:00:00Z,17,14,6+,29.85
EPWR,51.1032,16.8998,VRB,2,2.30156,EPWR 032000Z VRB02KT CAVOK 17/15 Q1012,2024-08-03T20:00:00Z,17,15,6+,29.88
EPWA,52.163,20.961,270,5,5.7539,EPWA 032000Z 27005KT CAVOK 18/11 Q1010 NOSIG,2024-08-03T20:00:00Z,18,11,6+,29.82
EPSY,53.482,20.938,0,0,0.0,EPSY 032000Z 00000KT CAVOK 14/13 Q1010,2024-08-03T20:00:00Z,14,13,6+,29.82
EPSC,53.585,14.902,100,1,1.15078,EPSC 032000Z 10001KT CAVOK 16/15 Q1010,2024-08-03T20:00:00Z,16,15,6+,29.82
EPRZ,50.112,22.025,280,9,10.357019999999999,EPRZ 032000Z 28009KT CAVOK 17/15 Q1011,2024-08-03T20:00:00Z,17,15,6+,29.85
EPRA,51.39,21.211,240,6,6.904679999999999,EPRA 032000Z 24006KT CAVOK 15/12 Q1011,2024-08-03T20:00:00Z,15,12,6+,29.85
EPPO,52.417,16.835,320,2,2.30156,EPPO 032000Z 32002KT CAVOK 18/14 Q1011,2024-08-03T20:00:00Z,18,14,6+,29.85
EPMO,52.452,20.642,310,3,3.4523399999999995,EPMO 032000Z 31003KT CAVOK 17/11 Q1010,2024-08-03T20:00:00Z,17,11,6+,29.82
EPLL,51.724,19.401,0,0,0.0,EPLL 032000Z 00000KT CAVOK 16/13 Q1011,2024-08-03T20:00:00Z,16,13,6+,29.85
EPLB,51.239,22.714,270,5,5.7539,EPLB 032000Z 27005KT CAVOK 17/14 Q1010,2024-08-03T20:00:00Z,17,14,6+,29.82
EPKT,50.478,19.085,VRB,2,2.30156,EPKT 032000Z VRB02KT 9999 MIFG NSC 14/13 Q1012,2024-08-03T20:00:00Z,14,13,6+,29.88
EPKK,50.078,19.797,240,2,2.30156,EPKK 032000Z 24002KT CAVOK 15/14 Q1012,2024-08-03T20:00:00Z,15,14,6+,29.88
EPGD,54.379,18.466,250,3,3.4523399999999995,EPGD 032000Z 25003KT CAVOK 16/16 Q1010,2024-08-03T20:00:00Z,16,16,6+,29.82
EPBY,53.0962,17.9949,VRB,2,2.30156,EPBY 032000Z VRB02KT CAVOK 18/11 Q1010,2024-08-03T20:00:00Z,18,11,6+,29.82
EIWF,52.187,-7.087,260,4,4.60312,EIWF 032000Z 26004KT 230V290 9999 FEW040 SCT060 15/12 Q1014,2024-08-03T20:00:00Z,15,12,6+,29.94
EISG,54.28,-8.599,250,11,12.658579999999999,EISG 032000Z 25011KT 8000 SCT027 BKN033 OVC050 13/// Q1011,2024-08-03T20:00:00Z,,,4.97,29.85
EINN,52.702,-8.925,240,9,10.357019999999999,EINN 032000Z 24009KT 9999 FEW027 BKN043 16/11 Q1013 NOSIG,2024-08-03T20:00:00Z,16,11,6+,29.91
EIME,53.306,-6.442,250,9,10.357019999999999,EIME 032000Z 25009KT CAVOK 15/10 Q1012,2024-08-03T20:00:00Z,15,10,6+,29.88
EIKY,52.18,-9.538,220,6,6.904679999999999,EIKY 032000Z 22006KT 9999 FEW036 BKN049 15/12 Q1014,2024-08-03T20:00:00Z,15,12,6+,29.94
EIDW,53.422,-6.298,240,7,8.05546,EIDW 032000Z 24007KT 170V290 9999 FEW018CB BKN060 16/10 Q1012 NOSIG,2024-08-03T20:00:00Z,16,10,6+,29.88
EICK,51.848,-8.479,240,7,8.05546,EICK 032000Z 24007KT 9999 FEW028 BKN044 BKN200 14/11 Q1014 NOSIG,2024-08-03T20:00:00Z,14,11,6+,29.94
DXXX,6.166,1.254,220,10,11.5078,DXXX 032000Z 22010KT 9999 FEW010 25/23 Q1015 NOSIG,2024-08-03T20:00:00Z,25,23,6+,29.97
DTTZ,33.94,8.111,90,19,21.864819999999998,DTTZ 032000Z 09019KT 4000 SA NSC 38/14 Q1006,2024-08-03T20:00:00Z,38,14,2.49,29.70
DTTX,34.718,10.691,20,15,17.261699999999998,DTTX 032000Z 02015KT 9999 FEW033 30/25 Q1009,2024-08-03T20:00:00Z,30,25,6+,29.79
DTTR,31.703,9.257,310,5,5.7539,DTTR 032000Z AUTO 31005KT NCD 39/05 Q1007,2024-08-03T20:00:00Z,39,5,,29.73
DTTN,36.483,8.8,330,7,8.05546,DTTN 032000Z AUTO 33007KT 250V020 NCD 27/20 Q1013,2024-08-03T20:00:00Z,27,20,,29.91
DTTL,36.85,11.083,320,4,4.60312,DTTL 032000Z AUTO 32004KT 250V060 NCD 27/24 Q1010,2024-08-03T20:00:00Z,27,24,,29.82
DTTK,35.667,10.1,40,3,3.4523399999999995,DTTK 032000Z 04003KT 9999 FEW023 32/20 Q1010,2024-08-03T20:00:00Z,32,20,6+,29.82
DTTJ,33.875,10.775,50,23,26.46794,DTTJ 032000Z 05023G33KT 6000 NSC 30/25 Q1007,2024-08-03T20:00:00Z,30,25,3.73,29.73
DTTG,33.733,9.918,40,19,21.864819999999998,DTTG 032000Z 04019KT 2000 SA FEW030 29/22 Q1008,2024-08-03T20:00:00Z,29,22,1.24,29.76
DTTD,32.312,10.386,210,5,5.7539,DTTD 032000Z AUTO 21005KT 160V260 NCD 40/03 Q1007,2024-08-03T20:00:00Z,40,3,,29.73
DTTB,37.245,9.791,270,14,16.11092,DTTB 032000Z 27014KT 9999 SCT020 27/23 Q1010,2024-08-03T20:00:00Z,27,23,6+,29.82
DTTA,36.851,10.227,280,13,14.960139999999999,DTTA 032000Z 28013KT 8000 FEW030 28/21 Q1011,2024-08-03T20:00:00Z,28,21,4.97,29.85
DTNH,36.074,10.436,340,13,14.960139999999999,DTNH 032000Z 34013KT 9999 SCT033 32/19 Q1009,2024-08-03T20:00:00Z,32,19,6+,29.79
DTMB,35.758,10.755,30,11,12.658579999999999,DTMB 032000Z 03011KT 9999 FEW046 29/24 Q1010,2024-08-03T20:00:00Z,29,24,6+,29.82
DTKA,36.98,8.877,300,13,14.960139999999999,DTKA 032000Z 30013KT 250V320 9999 SCT020 SCT030 26/22 Q1012,2024-08-03T20:00:00Z,26,22,6+,29.88
DRRN,13.483,2.17,250,4,4.60312,DRRN 032000Z 25004KT 9000 FEW016 24/24 Q1012 NOSIG,2024-08-03T20:00:00Z,24,24,5.59,29.88
DNYO,9.267,12.429,250,6,6.904679999999999,DNYO 032000Z 25006KT CAVOK 30/22 Q1013,2024-08-03T20:00:00Z,30,22,6+,29.91
DNMM,6.577,3.321,190,5,5.7539,DNMM 032000Z 19005KT 9999 FEW011 27/22 Q1015 NOSIG,2024-08-03T20:00:00Z,27,22,6+,29.97
DNKT,13.006,7.659,230,12,13.809359999999998,DNKT 032000Z 23012KT 9999 SCT010 25/22 Q1015,2024-08-03T20:00:00Z,25,22,6+,29.97
DNKA,10.6,7.45,210,4,4.60312,DNKA 032000Z 21004KT 9999 SCT009 24/21 Q1017 NOSIG,2024-08-03T20:00:00Z,24,21,6+,30.03
DNIM,5.427,7.206,180,10,11.5078,DNIM 032000Z 18010KT 9999 BKN010 25/24 Q1015,2024-08-03T20:00:00Z,25,24,6+,29.97
DNIL,8.438,4.491,210,4,4.60312,DNIL 032000Z 21004KT 9999 FEW011 27/22 Q1015,2024-08-03T20:00:00Z,27,22,6+,29.97
DNAA,9.007,7.263,25,12,13.809359999999998,DNAA 032000Z 02512G29KT 9999 BKN010 26/23 Q1014 NOSIG,2024-08-03T20:00:00Z,26,23,6+,29.94
DIYO,6.903,-5.366,200,4,4.60312,DIYO 032000Z 20004KT 9999 FEW010 25/22 Q1014 NOSIG,2024-08-03T20:00:00Z,25,22,6+,29.94
DIBK,7.739,-5.074,160,4,4.60312,DIBK 032000Z 16004KT 8000 NSC 25/22 Q1014 NOSIG,2024-08-03T20:00:00Z,25,22,4.97,29.94
DIAP,5.261,-3.926,200,6,6.904679999999999,DIAP 032000Z 20006KT 9999 SCT009 SCT012 25/23 Q1014 NOSIG,2024-08-03T20:00:00Z,25,23,6+,29.94
DGAA,5.6,-0.17,210,11,12.658579999999999,DGAA 032000Z 21011KT 9999 SCT009 25/23 Q1015 NOSIG,2024-08-03T20:00:00Z,25,23,6+,29.97
DFOO,11.163,-4.322,160,4,4.60312,DFOO 032000Z 16004KT 9999 FEW016 26/22 Q1014,2024-08-03T20:00:00Z,26,22,6+,29.94
DFFD,12.356,-1.512,170,4,4.60312,DFFD 032000Z 17004KT 130V190 8000 -TSRA SCT020 FEW033CB 28/24 Q1014 TEMPO 10025G45KT 2500 SQ TSRA,2024-08-03T20:00:00Z,28,24,4.97,29.94
DBBB,6.357,2.384,230,12,13.809359999999998,DBBB 032000Z 23012KT 9999 SCT011 25/23 Q1014 NOSIG,2024-08-03T20:00:00Z,25,23,6+,29.94
DAUZ,28.052,9.643,90,7,8.05546,DAUZ 032000Z 09007KT CAVOK 38/01 Q1011,2024-08-03T20:00:00Z,38,1,6+,29.85
DAUU,31.917,5.413,50,4,4.60312,DAUU 032000Z 05004KT 8000 NSC 40/07 Q1007,2024-08-03T20:00:00Z,40,7,4.97,29.73
DAUO,33.513,6.782,310,10,11.5078,DAUO 032000Z 31010KT 6000 NSC 40/// Q1006,2024-08-03T20:00:00Z,,,3.73,29.70
DAUL,33.764,2.928,350,6,6.904679999999999,DAUL 032000Z 35006KT CAVOK 35/02 Q1014,2024-08-03T20:00:00Z,35,2,6+,29.94
DAUK,33.068,6.089,340,9,10.357019999999999,DAUK 032000Z 34009KT CAVOK 39/02 Q1007,2024-08-03T20:00:00Z,39,2,6+,29.73
DAUI,27.251,2.512,70,6,6.904679999999999,DAUI 032000Z 07006KT CAVOK 39/// Q1008,2024-08-03T20:00:00Z,,,6+,29.76
DAUH,31.673,6.14,20,5,5.7539,DAUH 032000Z 02005KT 340V050 8000 NSC 41/06 Q1006,2024-08-03T20:00:00Z,41,6,4.97,29.70
DAUG,32.384,3.794,10,12,13.809359999999998,DAUG 032000Z 01012KT 8000 NSC 40/01 Q1011,2024-08-03T20:00:00Z,40,1,4.97,29.85
DAUE,30.571,2.86,VRB,1,1.15078,DAUE 032000Z VRB01KT CAVOK 37/03 Q1010,2024-08-03T20:00:00Z,37,3,6+,29.82
DAUB,34.793,5.738,10,11,12.658579999999999,DAUB 032000Z 01011KT CAVOK 38/12 Q1008,2024-08-03T20:00:00Z,38,12,6+,29.76
DAUA,27.839,-0.186,80,5,5.7539,DAUA 032000Z 08005KT CAVOK 40/// Q1008,2024-08-03T20:00:00Z,,,6+,29.76
DAOY,33.721,1.091,30,10,11.5078,DAOY 032000Z 03010KT CAVOK 29/01 Q1020,2024-08-03T20:00:00Z,29,1,6+,30.12
DAOV,35.208,0.147,360,8,9.20624,DAOV 032000Z 36008KT CAVOK 30/13 Q1015,2024-08-03T20:00:00Z,30,13,6+,29.97
DAOR,31.65,-2.261,210,6,6.904679999999999,DAOR 032000Z 21006KT CAVOK 39/// Q1015,2024-08-03T20:00:00Z,,,6+,29.97
DAOO,35.623,-0.624,360,3,3.4523399999999995,DAOO 032000Z 36003KT CAVOK 26/22 Q1012,2024-08-03T20:00:00Z,26,22,6+,29.88
DAON,35.013,-1.457,340,4,4.60312,DAON 032000Z 34004KT CAVOK 28/17 Q1013,2024-08-03T20:00:00Z,28,17,6+,29.91
DAOL,35.542,-0.532,50,10,11.5078,DAOL 032000Z 05010KT CAVOK 28/20 Q1012,2024-08-03T20:00:00Z,28,20,6+,29.88
DAOI,36.213,1.332,90,11,12.658579999999999,DAOI 032000Z 09011KT CAVOK 33/09 Q1012,2024-08-03T20:00:00Z,33,9,6+,29.88
DAOF,27.7,-8.167,VRB,1,1.15078,DAOF 032000Z VRB01KT 4000 HZ NSC 41/06 Q1009,2024-08-03T20:00:00Z,41,6,2.49,29.79
DAOB,35.345,1.476,290,4,4.60312,DAOB 032000Z 29004KT CAVOK 28/04 Q1019,2024-08-03T20:00:00Z,28,4,6+,30.09
DABT,35.752,6.309,350,8,9.20624,DABT 032000Z 35008KT CAVOK 24/10 Q1018,2024-08-03T20:00:00Z,24,10,6+,30.06
DABS,35.432,8.121,300,10,11.5078,DABS 032000Z 30010KT CAVOK 26/10 Q1017,2024-08-03T20:00:00Z,26,10,6+,30.03
DABC,36.278,6.629,40,5,5.7539,DABC 032000Z 04005KT CAVOK 24/16 Q1018,2024-08-03T20:00:00Z,24,16,6+,30.06
DABB,36.822,7.809,280,4,4.60312,DABB 032000Z 28004KT 250V310 CAVOK 27/21 Q1013,2024-08-03T20:00:00Z,27,21,6+,29.91
DAAY,33.532,-0.248,350,16,18.41248,DAAY 032000Z 35016KT 7000 FEW030 33/01 Q1020,2024-08-03T20:00:00Z,33,1,4.35,30.12
DAAV,36.795,5.877,270,1,1.15078,DAAV 032000Z 27001KT 9999 FEW020 26/22 Q1014,2024-08-03T20:00:00Z,26,22,6+,29.94
DAAT,22.824,5.452,150,10,11.5078,DAAT 032000Z 15010KT CAVOK 33/M02 Q1017,2024-08-03T20:00:00Z,33,-2,6+,30.03
DAAS,36.18,5.33,50,5,5.7539,DAAS 032000Z 05005KT CAVOK 24/12 Q1019,2024-08-03T20:00:00Z,24,12,6+,30.09
DAAP,26.724,8.622,80,4,4.60312,DAAP 032000Z 08004KT CAVOK 36/// Q1011,2024-08-03T20:00:00Z,,,6+,29.85
DAAJ,24.286,9.464,40,10,11.5078,DAAJ 032000Z 04010KT CAVOK 33/M04 Q1014,2024-08-03T20:00:00Z,33,-4,6+,29.94
DAAG,36.691,3.215,60,8,9.20624,DAAG 032000Z 06008KT 9999 FEW030 27/23 Q1013,2024-08-03T20:00:00Z,27,23,6+,29.91
DAAE,36.712,5.07,90,4,4.60312,DAAE 032000Z 09004KT 9999 FEW020 26/23 Q1014,2024-08-03T20:00:00Z,26,23,6+,29.94
CZZJ,53.583,-116.462,30,5,5.7539,CZZJ 032000Z AUTO 03005KT 23/10 RMK AO1 SLP170 T02320100 56010,2024-08-03T20:00:00Z,23.2,10,,
CZVL,53.67,-113.863,160,9,10.357019999999999,CZVL 032000Z AUTO 16009G16KT 120V200 9SM CLR 26/10 A3001 RMK SLP160 DENSITY ALT 4000FT,2024-08-03T20:00:00Z,26,10,9,30.01
CZTB,48.369,-89.327,300,8,9.20624,CZTB 032000Z AUTO 30008KT 23/15 RMK AO1 SLP138 T02330152 58011,2024-08-03T20:00:00Z,23.3,15.2,,
CZST,55.935,-129.984,200,3,3.4523399999999995,CZST 032000Z 20003KT 120V240 15SM FEW220 20/09 A3011 RMK CI1 SLP199 DENSITY ALT 500FT,2024-08-03T20:00:00Z,20,9,15,30.11
CZSP,46.45,-62.576,200,9,10.357019999999999,CZSP 032000Z AUTO 20009KT 28/22 RMK AO1 SLP083 T02810216 56014,2024-08-03T20:00:00Z,28.1,21.6,,
CZSM,60.026,-111.929,100,6,6.904679999999999,CZSM 032000Z AUTO 10006KT 22/08 RMK AO1 SLP199 T02220077 57012,2024-08-03T20:00:00Z,22.2,7.7,,
CZSJ,53.063,-93.344,300,10,11.5078,CZSJ 032000Z AUTO 30010KT 280V350 9SM BKN066 OVC087 19/07 A3002 RMK SLP173 DENSITY ALT 1500FT,2024-08-03T20:00:00Z,19,7,9,30.02
CZRP,75.377,-105.715,180,8,9.20624,CZRP 032000Z AUTO 18008KT 04/03 RMK AO1 SLP156 T00360026 51007,2024-08-03T20:00:00Z,3.6,2.6,,
CZPC,49.522,-114.005,150,7,8.05546,CZPC 032000Z AUTO 15007KT 9SM BKN150 BKN180 26/11 A3004 RMK SLP152 DENSITY ALT 6000FT,2024-08-03T20:00:00Z,26,11,9,30.04
CZOL,53.642,-113.364,140,6,6.904679999999999,CZOL 032000Z AUTO 14006KT 26/10 RMK AO1 T02600102,2024-08-03T20:00:00Z,26,10.2,,
CZMU,53.563,-112.296,120,11,12.658579999999999,CZMU 032000Z AUTO 12011KT 24/11 RMK AO1 T02410106,2024-08-03T20:00:00Z,24.1,10.6,,
CZMT,54.023,-132.12,340,14,16.11092,CZMT 032000Z 34014KT 10SM FEW240 18/13 A3021 RMK CI1 SLP230,2024-08-03T20:00:00Z,18,13,10+,30.21
CZMJ,50.332,-105.538,70,3,3.4523399999999995,CZMJ 032000Z AUTO 07003KT 25/08 RMK AO1 SLP208 T02540083 57015,2024-08-03T20:00:00Z,25.4,8.3,,
CZMD,53.439,-91.766,340,7,8.05546,CZMD 032000Z AUTO 34007KT 270V020 9SM SCT050 OVC071 19/07 A2998 RMK SLP161 DENSITY ALT 1500FT,2024-08-03T20:00:00Z,19,7,9,29.98
CZKD,56.037,-96.51,350,8,9.20624,CZKD 032000Z AUTO 35008KT 18/04 RMK AO1 PK WND 34017/1924 SLP192 T01840043 55000,2024-08-03T20:00:00Z,18.4,4.3,,
CZHY,60.839,-115.781,160,7,8.05546,CZHY 032000Z AUTO 16007KT 22/10 RMK AO1 SLP170 T02230100 58003,2024-08-03T20:00:00Z,22.3,10,,
CZFS,61.76,-121.23,320,13,14.960139999999999,CZFS 032000Z AUTO 32013KT 20/11 RMK AO1 PK WND 31017/1934 SLP186 T01990113 50005,2024-08-03T20:00:00Z,19.9,11.3,,
CZFM,67.41,-134.871,180,6,6.904679999999999,CZFM 032000Z 18006KT 110V200 35SM FEW030 FEW070 17/08 A3020 RMK CU1AC1 SLP231,2024-08-03T20:00:00Z,17,8,35,30.20
CZFA,62.211,-133.385,310,5,5.7539,CZFA 032000Z 31005KT 270V340 30SM FEW018 SCT030 BKN049 13/09 A3023 RMK SC2SC2SC3 SLP263,2024-08-03T20:00:00Z,13,9,30,30.23
CZEV,68.313,-133.496,180,5,5.7539,CZEV 032000Z AUTO 18005KT 14/06 RMK AO1 SLP238 T01410062 58004,2024-08-03T20:00:00Z,14.1,6.2,,
CZEL,43.642,-80.412,310,8,9.20624,CZEL 032000Z AUTO 31008KT 27/18 RMK AO1 SLP112 T02730175 57004,2024-08-03T20:00:00Z,27.3,17.5,,
CZDB,45.422,-63.466,180,7,8.05546,CZDB 032000Z AUTO 18007KT 25/23 RMK AO1 SLP092 T02510233 56009,2024-08-03T20:00:00Z,25.1,23.3,,
CZCR,47.99,-66.334,360,17,19.56326,CZCR 032000Z AUTO 36017G28KT 22/21 RMK AO1 PK WND 34028/1954 SLP044 T02180206 55004,2024-08-03T20:00:00Z,21.8,20.6,,
CZBF,47.628,-65.746,140,4,4.60312,CZBF 032000Z AUTO 14004KT 100V190 9SM FEW060 28/22 A2967 RMK SLP049 DENSITY ALT 2000FT,2024-08-03T20:00:00Z,28,22,9,29.67
CYZY,55.303,-123.135,350,8,9.20624,CYZY 032000Z AUTO 35008KT 320V040 9SM CLR 22/09 A3009 RMK SLP193 DENSITY ALT 3500FT,2024-08-03T20:00:00Z,22,9,9,30.09
CYZX,44.985,-64.912,160,4,4.60312,CYZX 032000Z 16004KT 15SM FEW015 BKN038 BKN250 26/22 A2977 RMK SF1SC5CI1 DENSITY ALT 1915FT SLP081,2024-08-03T20:00:00Z,26,22,15,29.77
CYZW,60.175,-132.734,260,11,12.658579999999999,CYZW 032000Z 26011G20KT 30SM BKN040 BKN140 18/09 A3020 RMK SC5AC2 SLP247 DENSITY ALT 2900FT,2024-08-03T20:00:00Z,18,9,30,30.20
CYZU,54.142,-115.785,50,3,3.4523399999999995,CYZU 032000Z 05003KT 15SM BKN210 22/12 A3004 RMK CI5 SLP175 DENSITY ALT 3800FT,2024-08-03T20:00:00Z,22,12,15,30.04
CYZT,50.685,-127.369,30,8,9.20624,CYZT 032000Z 03008KT 15SM FEW020 17/14 A3012 RMK SF1 SF TR FG BNK OVR WTR DST N SLP201,2024-08-03T20:00:00Z,17,14,15,30.12
CYZS,64.188,-83.351,20,24,27.618719999999996,CYZS 032000Z 02024G33KT 15SM SCT040 BKN140 10/04 A2974 RMK SC3AC4 PRESRR SLP078,2024-08-03T20:00:00Z,10,4,15,29.74
CYZR,42.995,-82.307,50,6,6.904679999999999,CYZR 032000Z AUTO 05006KT 9SM CLR 28/18 A2989 RMK SLP119 DENSITY ALT 2300FT,2024-08-03T20:00:00Z,28,18,9,29.89
CYZP,53.254,-131.814,100,4,4.60312,CYZP 032000Z AUTO 10004KT 040V110 9SM CLR 22/14 A3018 RMK SLP222 DENSITY ALT 600FT,2024-08-03T20:00:00Z,22,14,9,30.18
CYZH,55.293,-114.773,130,15,17.261699999999998,CYZH 032000Z AUTO 13015G21KT 9SM SCT081 23/09 A3004 RMK SLP180 DENSITY ALT 3200FT,2024-08-03T20:00:00Z,23,9,9,30.04
CYZF,62.475,-114.448,160,11,12.658579999999999,CYZF 032000Z 16011KT 15SM FEW070 FEW140 BKN200 21/03 A3009 RMK ACC1AC1CI6 AC TR SLP198 DENSITY ALT 1300FT,2024-08-03T20:00:00Z,21,3,15,30.09
CYZE,45.885,-82.57,300,11,12.658579999999999,CYZE 032000Z AUTO 30011G16KT 9SM CLR 30/15 A2985 RMK SLP110 DENSITY ALT 2600FT,2024-08-03T20:00:00Z,30,15,9,29.85
CYYZ,43.679,-79.629,250,5,5.7539,CYYZ 032000Z 25005KT 200V300 15SM FEW030 BKN220 29/22 A2982 RMK CF1CS6 SLP096 DENSITY ALT 2500FT,2024-08-03T20:00:00Z,29,22,15,29.82
CYYY,48.609,-68.208,250,16,18.41248,CYYY 032000Z 25016KT 15SM FEW040TCU SCT240 30/21 A2961 RMK TCU2CI2 SLP029 DENSITY ALT 2300FT,2024-08-03T20:00:00Z,30,21,15,29.61
CYYW,50.296,-88.912,300,9,10.357019999999999,CYYW 032000Z AUTO 30009G17KT 270V360 9SM FEW060 24/11 A2992 RMK SLP124 DENSITY ALT 2400FT,2024-08-03T20:00:00Z,24,11,9,29.92
CYYU,49.416,-82.47,310,11,12.658579999999999,CYYU 032000Z 31011KT 15SM SCT060 BKN072 25/11 A2985 RMK CU3AC2 SLP111 DENSITY ALT 2100FT,2024-08-03T20:00:00Z,25,11,15,29.85
CYYT,47.627,-52.748,270,11,12.658579999999999,CYYT 032000Z 27011G23KT 15SM FEW150 FEW160 FEW240 25/15 A2991 RMK AC1ACC1CI1 AC TR CI TR SLP131 DENSITY ALT 1800FT,2024-08-03T20:00:00Z,25,15,15,29.91
CYYR,53.32,-60.417,50,10,11.5078,CYYR 032000Z 05010KT 15SM FEW030CB SCT090 BKN140 BKN270 22/15 A2961 RMK CB1AC2AC2CI2 DENSITY ALT 1577FT LTNG DTCTRS REP STRIKES 27 NM SE AND 29 NM W CB W AND SE MOV E SLP028,2024-08-03T20:00:00Z,22,15,15,29.61
CYYQ,58.745,-94.074,10,11,12.658579999999999,CYYQ 032000Z 01011G19KT 15SM SCT060 SCT250 14/07 A2999 RMK CU3CI1 SLP160,2024-08-03T20:00:00Z,14,7,15,29.99
CYYN,50.292,-107.691,100,11,12.658579999999999,CYYN 032000Z AUTO 10011G22KT 080V140 9SM CLR 27/10 A3008 RMK SLP178 DENSITY ALT 4500FT,2024-08-03T20:00:00Z,27,10,9,30.08
CYYL,56.863,-101.073,340,8,9.20624,CYYL 032000Z AUTO 34008G15KT 300V080 9SM FEW066 18/04 A3011 RMK SLP209 DENSITY ALT 1600FT,2024-08-03T20:00:00Z,18,4,9,30.11
CYYJ,48.642,-123.433,120,9,10.357019999999999,CYYJ 032000Z 12009KT 30SM FEW250 19/12 A3004 RMK CI1 SLP175 DENSITY ALT 500FT,2024-08-03T20:00:00Z,19,12,30,30.04
CYYH,69.543,-93.568,220,8,9.20624,CYYH 032000Z 22008KT 15SM FEW020 BKN044 BKN220 10/03 A3006 RMK CU1SC4CI2 SLP182,2024-08-03T20:00:00Z,10,3,15,30.06
CYYG,46.289,-63.128,190,12,13.809359999999998,CYYG 032000Z 19012KT 15SM BKN150 OVC260 28/21 A2976 RMK AC6CS2 SLP081 DENSITY ALT 1900FT,2024-08-03T20:00:00Z,28,21,15,29.76
CYYF,49.46,-119.606,360,8,9.20624,CYYF 032000Z 36008KT 15SM FEW050 FEW140 SCT240 36/13 A2987 RMK CF1AC2CI1 CF TR SLP106 DENSITY ALT 3800FT,2024-08-03T20:00:00Z,36,13,15,29.87
CYYE,58.839,-122.59,290,6,6.904679999999999,CYYE 032000Z 29006KT 270V360 30SM FEW040 BKN210 23/05 A3007 RMK CU1CI5 SLP190 DENSITY ALT 2400FT,2024-08-03T20:00:00Z,23,5,30,30.07
CYYD,54.823,-127.185,10,3,3.4523399999999995,CYYD 032000Z 01003KT 270V060 25SM SKC 25/03 A3010 RMK SLP193 DENSITY ALT 3100FT,2024-08-03T20:00:00Z,25,3,25,30.10
CYYC,51.116,-114.011,110,5,5.7539,CYYC 032000Z 11005KT 070V150 15SM BKN230 26/12 A3001 RMK FU2CI5 SLP151 DENSITY ALT 5600FT,2024-08-03T20:00:00Z,26,12,15,30.01
CYYB,46.365,-79.423,280,5,5.7539,CYYB 032000Z 28005KT 250V340 15SM SCT055 SCT280 29/16 A2982 RMK CU3CI1 SLP096 DENSITY ALT 3200FT,2024-08-03T20:00:00Z,29,16,15,29.82
CYXZ,47.974,-84.781,220,6,6.904679999999999,CYXZ 032000Z 22006KT 170V270 12SM FEW078 BKN170 BKN220 22/15 A2992 RMK AC2AS4CI1 FU HZ SLP135 DENSITY ALT 2000FT,2024-08-03T20:00:00Z,22,15,12,29.92
CYXY,60.71,-135.059,360,6,6.904679999999999,CYXY 032000Z 36006KT 310V090 40SM SCT034 BKN120 16/07 A3027 RMK CU4AC1 SLP268 DENSITY ALT 2600FT,2024-08-03T20:00:00Z,16,7,40,30.27
CYXX,49.027,-122.377,230,10,11.5078,CYXX 032000Z 23010KT 200V270 30SM FEW085 FEW220 24/16 A3004 RMK CU1CI1 CU TR CI TR SLP173 DENSITY ALT 1200FT,2024-08-03T20:00:00Z,24,16,30,30.04
CYXU,43.039,-81.162,310,8,9.20624,CYXU 032000Z 31008KT 15SM FEW032 SCT095 BKN190 28/18 A2989 RMK CU2AC1CI4 AC TR SLP118 DENSITY ALT 2700FT,2024-08-03T20:00:00Z,28,18,15,29.89
CYXT,54.471,-128.577,340,3,3.4523399999999995,CYXT 032000Z 34003KT 260V020 20SM FEW210 24/08 A3010 RMK CI1 CI TR SLP197 DENSITY ALT 1800FT,2024-08-03T20:00:00Z,24,8,20,30.10
CYXS,53.884,-122.677,VRB,4,4.60312,CYXS 032000Z AUTO VRB04KT 9SM CLR 24/11 A3007 RMK SLP189 DENSITY ALT 3700FT,2024-08-03T20:00:00Z,24,11,9,30.07
CYXR,47.698,-79.852,270,9,10.357019999999999,CYXR 032000Z AUTO 27009G15KT 260V330 9SM FEW081 29/12 A2980 RMK SLP091 DENSITY ALT 2800FT,2024-08-03T20:00:00Z,29,12,9,29.80
CYXQ,62.408,-140.866,300,3,3.4523399999999995,CYXQ 032000Z 30003KT 260V020 25SM SCT030 BKN090 OVC220 15/06 A3028 RMK CU3AC4CI1 SLP272,2024-08-03T20:00:00Z,15,6,25,30.28
CYXN,62.238,-92.597,60,12,13.809359999999998,CYXN 032000Z 06012G18KT 15SM SCT047 BKN230 13/06 A2993 RMK CU4CC2 LAST STFD OB/NXT 041400Z SLP138,2024-08-03T20:00:00Z,13,6,15,29.93
CYXL,50.114,-91.905,270,6,6.904679999999999,CYXL 032000Z 27006KT 250V360 15SM SCT050 BKN070 BKN220 21/14 A2998 RMK CU4AC1CI1 SLP156 DENSITY ALT 2200FT,2024-08-03T20:00:00Z,21,14,15,29.98
CYXJ,56.247,-120.737,230,4,4.60312,CYXJ 032000Z 23004KT 100V250 60SM FEW060 FEW210 23/08 A3008 RMK CU1CI2 CU TR SLP192 DENSITY ALT 3600FT,2024-08-03T20:00:00Z,23,8,60,30.08
CYXH,50.018,-110.717,160,12,13.809359999999998,CYXH 032000Z 16012G18KT 30SM FEW120 BKN270 32/10 A2997 RMK AC1CI5 SLP135 DENSITY ALT 4800FT,2024-08-03T20:00:00Z,32,10,30,29.97
CYXE,52.172,-106.695,110,6,6.904679999999999,CYXE 032000Z 11006KT 12SM FEW110 BKN170 25/09 A3013 RMK AC2AC3 FU SLP211 DENSITY ALT 3000FT,2024-08-03T20:00:00Z,25,9,12,30.13
CYXC,49.614,-115.784,110,15,17.261699999999998,CYXC 032000Z 11015G22KT 090V150 10SM FEW090 FEW150 SCT240 31/10 A2997 RMK FU1CU1AC2CI1 CU TR CI TR SLP121 DENSITY ALT 5500FT,2024-08-03T20:00:00Z,31,10,10+,29.97
CYWL,52.186,-122.066,300,9,10.357019999999999,CYWL 032000Z 30009KT 13SM FEW120 26/08 A3008 RMK AC1 AC TR HZ SLP174 DENSITY ALT 4900FT,2024-08-03T20:00:00Z,26,8,13,30.08
CYWK,52.927,-66.874,160,3,3.4523399999999995,CYWK 032000Z 16003KT 120V190 15SM SCT100 BKN200 22/19 A2958 RMK CU4CC2 SLP022 DENSITY ALT 3500FT,2024-08-03T20:00:00Z,22,19,15,29.58
CYWJ,65.209,-123.434,130,8,9.20624,CYWJ 032000Z 13008KT 090V160 40SM FEW035 SCT050 BKN070 BKN090 12/10 A3015 RMK SC2SC2AC2AC1 -SHRA DIST NW SLP222,2024-08-03T20:00:00Z,12,10,40,30.15
CYWH,48.423,-123.387,210,5,5.7539,CYWH 032000Z 21005KT 15SM SKC 18/12 A3005 RMK SLP179,2024-08-03T20:00:00Z,18,12,15,30.05
CYWG,49.916,-97.249,30,19,21.864819999999998,CYWG 032000Z 03019KT 15SM FEW048 FEW060 FEW150 FEW230 FEW260 23/10 A3004 RMK CU1SC1AC1CI1CI1 CU TR SC TR AC TR SLP176 DENSITY ALT 1700FT,2024-08-03T20:00:00Z,23,10,15,30.04
CYWE,64.192,-114.078,250,4,4.60312,CYWE 032000Z AUTO 25004KT 9SM OVC081 15/11 A3012 RMK SLP214,2024-08-03T20:00:00Z,15,11,9,30.12
CYVV,44.745,-81.107,250,7,8.05546,CYVV 032000Z 25007KT 230V300 15SM FEW250 25/19 A2986 RMK CI1 SLP111 DENSITY ALT 2200FT,2024-08-03T20:00:00Z,25,19,15,29.86
CYVT,55.842,-108.418,60,5,5.7539,CYVT 032000Z AUTO 06005KT 9SM SCT160 BKN180 BKN200 BKN220 22/10 A3009 RMK SLP197 DENSITY ALT 2400FT,2024-08-03T20:00:00Z,22,10,9,30.09
CYVR,49.183,-123.168,240,8,9.20624,CYVR 032000Z 24008KT 20SM FEW050 FEW230 23/18 A3003 RMK CU1CI1 CU TR CI TR SLP171 DENSITY ALT 800FT,2024-08-03T20:00:00Z,23,18,20,30.03
CYVQ,65.278,-126.796,250,13,14.960139999999999,CYVQ 032000Z 25013KT 30SM FEW023 FEW050 SCT120 BKN200 OVC250 18/11 A3020 RMK SC1CU2AC1CC2CI2 SC TR TCU ASOCTD SLP230,2024-08-03T20:00:00Z,18,11,30,30.20
CYVP,58.1,-68.415,190,9,10.357019999999999,CYVP 032000Z 19009KT 15SM FEW050 SCT065 BKN099 BKN210 BKN260 22/12 A2947 RMK CU1CU4AC2CI1CI1 CU TR CI TR SLP982 DENSITY ALT 1500FT,2024-08-03T20:00:00Z,22,12,15,29.47
CYVO,48.056,-77.779,330,10,11.5078,CYVO 032000Z 33010KT 15SM SCT080 27/12 A2978 RMK CU3 SLP086 DENSITY ALT 3000FT,2024-08-03T20:00:00Z,27,12,15,29.78
CYVM,67.552,-64.026,30,7,8.05546,CYVM 032000Z 03007KT 15SM SCT250 07/04 A2986 RMK CC3 SLP113,2024-08-03T20:00:00Z,7,4,15,29.86
CYVL,67.021,-126.129,10,6,6.904679999999999,CYVL 032000Z AUTO 01006KT 350V060 9SM OVC022 12/07 A3021 RMK SLP245,2024-08-03T20:00:00Z,12,7,9,30.21
CYVC,55.15,-105.264,320,11,12.658579999999999,CYVC 032000Z 32011KT 290V010 15SM BKN070 24/09 A3011 RMK CU5 SLP204 DENSITY ALT 2500FT,2024-08-03T20:00:00Z,24,9,15,30.11
CYUY,48.209,-78.83,290,6,6.904679999999999,CYUY 032000Z 29006KT 15SM SCT080 28/11 A2978 RMK CU4 SLP086 DENSITY ALT 2900FT,2024-08-03T20:00:00Z,28,11,15,29.78
CYUX,68.772,-81.233,360,16,18.41248,CYUX 032000Z 36016KT 10SM FEW025 SCT210 08/04 A2991 RMK SC2CC1 SLP131,2024-08-03T20:00:00Z,8,4,10+,29.91
CYUT,66.525,-86.23,340,17,19.56326,CYUT 032000Z 34017G24KT 15SM SCT020 12/04 A2993 RMK CU3 SLP139,2024-08-03T20:00:00Z,12,4,15,29.93
CYUL,45.468,-73.742,230,13,14.960139999999999,CYUL 032000Z 23013KT 15SM FEW050 FEW110 BKN250 31/23 A2972 RMK CU1AC1CI7 CU TR AC TR SLP067 DENSITY ALT 2200FT,2024-08-03T20:00:00Z,31,23,15,29.72
CYUB,69.434,-133.026,170,10,11.5078,CYUB 032000Z 17010KT 15SM SCT022 11/05 A3021 RMK SC3 SLP234,2024-08-03T20:00:00Z,11,5,15,30.21
CYTZ,43.627,-79.397,200,11,12.658579999999999,CYTZ 032000Z AUTO 20011KT 9SM CLR 25/22 A2981 RMK SLP096 DENSITY ALT 1700FT,2024-08-03T20:00:00Z,25,22,9,29.81
CYTS,48.568,-81.378,300,11,12.658579999999999,CYTS 032000Z 30011G21KT 260V330 15SM SCT065 BKN230 28/09 A2984 RMK SC4CI1 SLP105 DENSITY ALT 2800FT,2024-08-03T20:00:00Z,28,9,15,29.84
CYTR,44.115,-77.531,230,7,8.05546,CYTR 032000Z 23007KT 12SM OVC180 27/23 A2980 RMK AC8 DENSITY ALT 2212FT SLP090,2024-08-03T20:00:00Z,27,23,12,29.80
CYTQ,58.671,-69.948,170,14,16.11092,CYTQ 032000Z 17014G19KT 15SM BKN020 BKN040 20/13 A2942 RMK SC5SC2 SLP966 DENSITY ALT 1400FT,2024-08-03T20:00:00Z,20,13,15,29.42
CYTH,55.803,-97.846,350,9,10.357019999999999,CYTH 032000Z 35009KT 290V020 15SM SCT057 BKN081 18/05 A3009 RMK CU3AC4 SLP198 DENSITY ALT 1200FT,2024-08-03T20:00:00Z,18,5,15,30.09
CYTE,64.23,-76.528,110,11,12.658579999999999,CYTE 032000Z AUTO 11011KT 9SM CLR 13/M02 A2960 RMK SLP030 DENSITY ALT 400FT,2024-08-03T20:00:00Z,13,-2,9,29.60
CYSP,48.759,-86.351,250,6,6.904679999999999,CYSP 032000Z 25006KT 180V350 15SM FEW060 SCT075 BKN090 24/14 A2991 RMK SC2AC2AC2 VIS LWR SW-W SLP135 DENSITY ALT 2400FT,2024-08-03T20:00:00Z,24,14,15,29.91
CYSN,43.192,-79.176,190,8,9.20624,CYSN 032000Z 19008KT 15SM SCT140 OVC220 26/21 A2984 RMK AC3CS5 SLP104 DENSITY ALT 1800FT,2024-08-03T20:00:00Z,26,21,15,29.84
CYSM,60.026,-111.929,140,10,11.5078,CYSM 032000Z 14010KT 140V220 15SM SCT080 BKN190 BKN260 22/07 A3009 RMK ACC3AC2CI2 PCPN DIST W SLP199 DENSITY ALT 1500FT,2024-08-03T20:00:00Z,22,7,15,30.09
CYSJ,45.309,-65.886,210,9,10.357019999999999,CYSJ 032000Z 21009KT 12SM SCT007 BKN030 BKN090 24/21 A2977 RMK SF4SC1AC2 SLP081 DENSITY ALT 1700FT,2024-08-03T20:00:00Z,24,21,12,29.77
CYSF,59.252,-105.837,,,,CYSF 032000Z AUTO /////KT 9SM CLR 19/06 A3014 RMK WIND MISG SLP216 DENSITY ALT 1200FT,2024-08-03T20:00:00Z,19,6,9,30.14
CYSC,45.44,-71.692,270,6,6.904679999999999,CYSC 032000Z AUTO 27006KT 9SM FEW240 30/20 A2976 RMK SLP075 DENSITY ALT 2900FT,2024-08-03T20:00:00Z,30,20,9,29.76
CYSB,46.622,-80.799,320,7,8.05546,CYSB 032000Z 32007KT 280V010 20SM SCT230 30/13 A2984 RMK CI4 SLP102 DENSITY ALT 3200FT,2024-08-03T20:00:00Z,30,13,20,29.84
CYRV,50.958,-118.176,320,8,9.20624,CYRV 032000Z AUTO 32008KT 9SM CLR 30/14 A2989 RMK SLP117 DENSITY ALT 3600FT,2024-08-03T20:00:00Z,30,14,9,29.89
CYRT,62.811,-92.1,10,15,17.261699999999998,CYRT 032000Z 01015KT 15SM BKN043 OVC210 14/06 A2991 RMK SC6CI2 SLP134,2024-08-03T20:00:00Z,14,6,15,29.91
CYRQ,46.358,-72.68,210,3,3.4523399999999995,CYRQ 032000Z AUTO 21003KT 190V270 9SM BKN210 BKN230 23/20 A2970 RMK LTNG DIST S SW W SLP058 DENSITY ALT 1500FT,2024-08-03T20:00:00Z,23,20,9,29.70
CYRL,51.067,-93.799,20,8,9.20624,CYRL 032000Z 02008KT 320V060 15SM SCT060 BKN240 21/07 A3001 RMK CU3CI3 SLP167 DENSITY ALT 2200FT,2024-08-03T20:00:00Z,21,7,15,30.01
CYRJ,48.523,-72.266,220,5,5.7539,CYRJ 032000Z 22005KT 25SM VCSH SCT110 BKN150 BKN220 22/20 A2970 RMK AC3AC3CI1 SLP058 DENSITY ALT 1800FT,2024-08-03T20:00:00Z,22,20,25,29.70
CYRB,74.713,-94.982,310,4,4.60312,CYRB 032000Z 31004KT 2 1/2SM BR OVC002 03/03 A3001 RMK ST8 SLP170,2024-08-03T20:00:00Z,3,3,2.5,30.01
CYQZ,53.027,-122.506,350,6,6.904679999999999,CYQZ 032000Z AUTO 35006KT 300V070 9SM CLR 26/12 A3004 RMK SLP176 DENSITY ALT 3400FT,2024-08-03T20:00:00Z,26,12,9,30.04
CYQY,46.166,-60.049,190,10,11.5078,CYQY 032000Z 19010KT 15SM SCT150 OVC210 27/21 A2983 RMK AC3CS5 SLP101 DENSITY ALT 1800FT,2024-08-03T20:00:00Z,27,21,15,29.83
CYQX,48.946,-54.576,240,8,9.20624,CYQX 032000Z 24008KT 20SM SCT065 SCT092 28/16 A2982 RMK CU4AC1 AC TR SLP101 DENSITY ALT 2200FT,2024-08-03T20:00:00Z,28,16,20,29.82
CYQW,52.769,-108.251,140,11,12.658579999999999,CYQW 032000Z AUTO 14011G21KT 9SM CLR 24/09 A3011 RMK SLP204 DENSITY ALT 3100FT,2024-08-03T20:00:00Z,24,9,9,30.11
CYQV,51.26,-102.461,70,6,6.904679999999999,CYQV 032000Z AUTO 07006G15KT 360V080 9SM CLR 23/07 A3013 RMK SLP211 DENSITY ALT 2700FT,2024-08-03T20:00:00Z,23,7,9,30.13
CYQU,55.182,-118.882,320,6,6.904679999999999,CYQU 032000Z 32006G16KT 240V360 25SM FEW065 FEW220 25/08 A3004 RMK CU1CI1 SLP179 DENSITY ALT 3700FT,2024-08-03T20:00:00Z,25,8,25,30.04
CYQT,48.374,-89.33,300,10,11.5078,CYQT 032000Z 30010G15KT 270V340 20SM FEW030 SCT190 BKN280 23/14 A2993 RMK SC1AC3CI4 SC TR SLP139 DENSITY ALT 1800FT,2024-08-03T20:00:00Z,23,14,20,29.93
CYQR,50.427,-104.67,40,5,5.7539,CYQR 032000Z 04005KT 330V080 15SM FEW140 FEW230 26/10 A3012 RMK AC1CI1 AC TR SLP202 DENSITY ALT 3400FT,2024-08-03T20:00:00Z,26,10,15,30.12
CYQQ,49.712,-124.895,10,10,11.5078,CYQQ 032000Z 01010KT 20SM FEW020 25/10 A3003 RMK CF1 DENSITY ALT 1246FT SLP167,2024-08-03T20:00:00Z,25,10,20,30.03
CYQM,46.107,-64.682,240,9,10.357019999999999,CYQM 032000Z 24009KT 15SM FEW027 BKN140 28/21 A2974 RMK SC1AC7 SC TR SLP072 DENSITY ALT 2000FT,2024-08-03T20:00:00Z,28,21,15,29.74
CYQL,49.627,-112.792,70,5,5.7539,CYQL 032000Z 07005KT 15SM FEW160 BKN230 28/15 A2997 RMK AC2CI5 FU SLP135 DENSITY ALT 5200FT,2024-08-03T20:00:00Z,28,15,15,29.97
CYQK,49.791,-94.361,20,8,9.20624,CYQK 032000Z 02008KT 15SM FEW011 BKN023 BKN042 BKN073 20/15 A3001 RMK SF1SC4SC1AC1 SLP165 DENSITY ALT 2200FT,2024-08-03T20:00:00Z,20,15,15,30.01
CYQI,43.831,-66.088,190,15,17.261699999999998,CYQI 032000Z 19015KT 15SM SCT008 OVC020 23/23 A2979 RMK SF3SC5 SLP089 DENSITY ALT 1300FT,2024-08-03T20:00:00Z,23,23,15,29.79
CYQH,60.116,-128.832,290,7,8.05546,CYQH 032000Z 29007KT 30SM FEW040 OVC150 15/06 A3018 RMK CU2AS6 SLP235 DENSITY ALT 2500FT,2024-08-03T20:00:00Z,15,6,30,30.18
CYQG,42.269,-82.963,360,4,4.60312,CYQG 032000Z AUTO 36004KT 9SM FEW060 31/18 A2988 RMK SLP117 DENSITY ALT 2600FT,2024-08-03T20:00:00Z,31,18,9,29.88
CYQF,52.179,-113.903,VRB,3,3.4523399999999995,CYQF 032000Z AUTO VRB03KT 9SM BKN130 24/13 A3003 RMK SLP172 DENSITY ALT 4600FT,2024-08-03T20:00:00Z,24,13,9,30.03
CYQD,53.975,-101.089,330,6,6.904679999999999,CYQD 032000Z AUTO 33006KT 300V020 9SM SCT071 21/09 A3012 RMK SLP204 DENSITY ALT 1600FT,2024-08-03T20:00:00Z,21,9,9,30.12
CYQB,46.791,-71.396,270,8,9.20624,CYQB 032000Z 27008KT 20SM FEW048 FEW180 BKN250 28/22 A2969 RMK CU1AC2CS5 CU TR CB TOPS W HAZY SLP055 DENSITY ALT 2100FT,2024-08-03T20:00:00Z,28,22,20,29.69
CYQA,44.971,-79.303,290,7,8.05546,CYQA 032000Z AUTO 29007KT 270V330 9SM CLR 28/20 A2982 RMK SLP096 DENSITY ALT 2800FT,2024-08-03T20:00:00Z,28,20,9,29.82
CYPY,58.766,-111.117,120,8,9.20624,CYPY 032000Z AUTO 12008KT 080V140 9SM CLR 21/10 A3010 RMK SLP203 DENSITY ALT 1400FT,2024-08-03T20:00:00Z,21,10,9,30.10
CYPW,49.835,-124.499,260,6,6.904679999999999,CYPW 032000Z 26006KT 30SM SKC 23/15 A3005 RMK SLP176 DENSITY ALT 1400FT,2024-08-03T20:00:00Z,23,15,30,30.05
CYPR,54.291,-130.451,270,6,6.904679999999999,CYPR 032000Z AUTO 27006KT 220V330 9SM CLR 17/14 A3016 RMK SLP214,2024-08-03T20:00:00Z,17,14,9,30.16
CYPQ,44.232,-78.36,290,7,8.05546,CYPQ 032000Z AUTO 29007KT 9SM CLR 28/21 A2981 RMK SLP095 DENSITY ALT 2400FT,2024-08-03T20:00:00Z,28,21,9,29.81
CYPL,51.449,-90.218,VRB,7,8.05546,CYPL 032000Z AUTO VRB07G20KT 9SM OVC066 19/08 A2997 RMK SLP156 DENSITY ALT 2000FT,2024-08-03T20:00:00Z,19,8,9,29.97
CYPH,58.47,-78.08,190,7,8.05546,CYPH 032000Z AUTO 19007KT 9SM FEW010 OVC027 11/09 A2925 RMK SLP907 DENSITY ALT 400FT,2024-08-03T20:00:00Z,11,9,9,29.25
CYPE,56.228,-117.453,20,7,8.05546,CYPE 032000Z AUTO 02007KT 350V090 9SM CLR 23/11 A3003 RMK SLP181 DENSITY ALT 3100FT,2024-08-03T20:00:00Z,23,11,9,30.03
CYPD,45.657,-61.374,180,6,6.904679999999999,CYPD 032000Z AUTO 18006KT 140V220 9SM SCT160 SCT190 28/21 A2982 RMK SLP100 DENSITY ALT 2100FT,2024-08-03T20:00:00Z,28,21,9,29.82
CYPA,53.217,-105.679,160,5,5.7539,CYPA 032000Z 16005KT 110V190 12SM FEW040 SCT130 BKN270 20/11 A3014 RMK CU1AC3CI3 CU TR FU SLP216 DENSITY ALT 2200FT,2024-08-03T20:00:00Z,20,11,12,30.14
CYOW,45.307,-75.66,230,11,12.658579999999999,CYOW 032000Z 23011G17KT 12SM SCT050 BKN250 31/22 A2974 RMK CU3CI2 SLP071 DENSITY ALT 2500FT,2024-08-03T20:00:00Z,31,22,12,29.74
CYOO,43.921,-78.899,230,5,5.7539,CYOO 032000Z AUTO 23005KT 9SM SCT230 26/22 A2982 RMK SLP099 DENSITY ALT 2000FT,2024-08-03T20:00:00Z,26,22,9,29.82
CYOJ,58.628,-117.174,VRB,4,4.60312,CYOJ 032000Z VRB04KT 15SM FEW064 FEW110 BKN260 24/08 A3004 RMK CU1AC1CI4 AC TR SLP181 DENSITY ALT 2300FT,2024-08-03T20:00:00Z,24,8,15,30.04
CYOD,54.41,-110.287,170,6,6.904679999999999,CYOD 032000Z 17006KT 15SM OVC100 21/11 A3011 RMK AC8 DENSITY ALT 2899FT SLP203,2024-08-03T20:00:00Z,21,11,15,30.11
CYNM,49.759,-77.793,310,18,20.714039999999997,CYNM 032000Z AUTO 31018G24KT 9SM FEW076 SCT098 25/12 A2974 RMK SLP076 DENSITY ALT 2500FT,2024-08-03T20:00:00Z,25,12,9,29.74
CYNE,53.958,-97.845,340,8,9.20624,CYNE 032000Z AUTO 34008KT 300V020 9SM FEW060 OVC077 20/08 A3010 RMK SLP199 DENSITY ALT 1300FT,2024-08-03T20:00:00Z,20,8,9,30.10
CYND,45.52,-75.563,230,12,13.809359999999998,CYND 032000Z 23012KT 190V260 12SM FEW045TCU SCT170 BKN240 32/21 A2972 RMK TCU2AC1CI4 SLP066 DENSITY ALT 2500FT,2024-08-03T20:00:00Z,32,21,12,29.72
CYNA,50.19,-61.789,160,8,9.20624,CYNA 032000Z AUTO 16008KT 080V170 9SM CLR 26/19 A2966 RMK SLP045 DENSITY ALT 1700FT,2024-08-03T20:00:00Z,26,19,9,29.66
CYMX,45.68,-74.038,210,8,9.20624,CYMX 032000Z 21008KT 180V260 15SM BKN050TCU BKN250 30/24 A2972 RMK TCU5CI2 SLP067 DENSITY ALT 2300FT,2024-08-03T20:00:00Z,30,24,15,29.72
CYMU,56.538,-76.52,210,23,26.46794,CYMU 032000Z 21023G29KT 1 1/4SM -SHRA BR OVC004 09/08 A2941 RMK ST8 CIG RAG SLP965,2024-08-03T20:00:00Z,9,8,1.25,29.41
CYMT,49.779,-74.527,260,9,10.357019999999999,CYMT 032000Z AUTO 26009G16KT 9SM BKN100 26/11 A2971 RMK SLP062 DENSITY ALT 3100FT,2024-08-03T20:00:00Z,26,11,9,29.71
CYMO,51.292,-80.607,300,17,19.56326,CYMO 032000Z AUTO 30017G24KT 9SM BKN071 22/10 A2977 RMK SLP085 DENSITY ALT 1000FT,2024-08-03T20:00:00Z,22,10,9,29.77
CYMM,56.65,-111.221,0,0,0.0,CYMM 032000Z AUTO 00000KT 9SM FEW076 21/11 A3008 RMK SLP196 DENSITY ALT 2100FT,2024-08-03T20:00:00Z,21,11,9,30.08
CYMH,52.304,-55.833,120,9,10.357019999999999,CYMH 032000Z AUTO 12009KT 9SM OVC008 14/11 A2978 RMK SLP086,2024-08-03T20:00:00Z,14,11,9,29.78
CYMA,63.616,-135.88,210,9,10.357019999999999,CYMA 032000Z 21009KT 180V240 20SM BKN047TCU 16/06 A3020 RMK TCU7 SLP245 DENSITY ALT 1900FT,2024-08-03T20:00:00Z,16,6,20,30.20
CYLW,49.953,-119.375,VRB,4,4.60312,CYLW 032000Z AUTO VRB04KT 9SM CLR 34/10 A2990 RMK SLP115 DENSITY ALT 4000FT,2024-08-03T20:00:00Z,34,10,9,29.90
CYLU,58.708,-65.989,160,5,5.7539,CYLU 032000Z 16005KT 120V200 15SM FEW022 SCT050 18/13 A2955 RMK SC2SC1 SLP010 DENSITY ALT 1100FT,2024-08-03T20:00:00Z,18,13,15,29.55
CYLL,53.312,-110.074,120,9,10.357019999999999,CYLL 032000Z 12009G16KT 15SM OVC085 23/09 A3009 RMK AC8 SLP196 DENSITY ALT 3500FT,2024-08-03T20:00:00Z,23,9,15,30.09
CYLJ,54.126,-108.519,200,6,6.904679999999999,CYLJ 032000Z 20006G15KT 160V250 15SM FEW043 OVC098 21/11 A3011 RMK CU1AC7 SLP207 DENSITY ALT 2500FT,2024-08-03T20:00:00Z,21,11,15,30.11
CYLH,52.196,-87.936,310,7,8.05546,CYLH 032000Z AUTO 31007G16KT 240V360 9SM BKN060 BKN073 19/09 A2992 RMK SLP137 DENSITY ALT 1600FT,2024-08-03T20:00:00Z,19,9,9,29.92
CYLD,47.818,-83.358,320,7,8.05546,CYLD 032000Z 32007KT 260V360 15SM FEW065 OVC240 27/10 A2990 RMK CU2CS6 SLP127 DENSITY ALT 3200FT,2024-08-03T20:00:00Z,27,10,15,29.90
CYKY,51.517,-109.175,100,15,17.261699999999998,CYKY 032000Z 10015KT 15SM SCT150 BKN250 25/11 A3007 RMK AC4CI1 SLP181 DENSITY ALT 3800FT,2024-08-03T20:00:00Z,25,11,15,30.07
CYKP,51.659,-85.901,310,14,16.11092,CYKP 032000Z AUTO 31014G23KT 9SM BKN060 21/09 A2987 RMK SLP110 DENSITY ALT 1600FT,2024-08-03T20:00:00Z,21,9,9,29.87
CYKO,60.818,-78.154,100,13,14.960139999999999,CYKO 032000Z 10013KT 10SM OVC040 17/10 A2932 RMK SC8 SLP931 DENSITY ALT 1000FT,2024-08-03T20:00:00Z,17,10,10+,29.32
CYKL,54.803,-66.804,250,7,8.05546,CYKL 032000Z AUTO 25007KT 190V260 9SM FEW050 SCT240 26/14 A2953 RMK SLP004 DENSITY ALT 3800FT,2024-08-03T20:00:00Z,26,14,9,29.53
CYKJ,57.256,-105.618,250,4,4.60312,CYKJ 032000Z AUTO 25004KT 140V280 9SM SCT055 19/06 A3012 RMK SLP214 DENSITY ALT 2400FT,2024-08-03T20:00:00Z,19,6,9,30.12
CYKF,43.462,-80.386,290,6,6.904679999999999,CYKF 032000Z AUTO 29006KT 240V330 9SM CLR 28/19 A2987 RMK SLP110 DENSITY ALT 2900FT,2024-08-03T20:00:00Z,28,19,9,29.87
CYKD,68.227,-135.013,180,9,10.357019999999999,CYKD 032000Z 18009KT 15SM SCT025 14/08 A3020 RMK SC3 SLP228,2024-08-03T20:00:00Z,14,8,15,30.20
CYKA,50.704,-120.444,280,11,12.658579999999999,CYKA 032000Z 28011KT 40SM FEW120 FEW150 34/11 A2989 RMK AC1FU2 AC TR SLP114 DENSITY ALT 3600FT,2024-08-03T20:00:00Z,34,11,40,29.89
CYJT,48.545,-58.564,170,8,9.20624,CYJT 032000Z 17008KT 15SM FEW052 BKN100 25/20 A2981 RMK SC2AC5 SLP098 DENSITY ALT 1400FT,2024-08-03T20:00:00Z,25,20,15,29.81
CYIV,53.857,-94.655,310,7,8.05546,CYIV 032000Z AUTO 31007G17KT 270V350 9SM BKN044 BKN050 OVC060 18/10 A3003 RMK SLP178 DENSITY ALT 1200FT,2024-08-03T20:00:00Z,18,10,9,30.03
CYIO,72.694,-77.957,40,7,8.05546,CYIO 032000Z 04007KT 40SM FEW030 08/05 A2995 RMK SC2 SLP150,2024-08-03T20:00:00Z,8,5,40,29.95
CYIN,51.265,-121.681,350,10,11.5078,CYIN 032000Z AUTO 35010G16KT 330V030 9SM CLR 28/05 A3010 RMK SLP169 DENSITY ALT 5800FT,2024-08-03T20:00:00Z,28,5,9,30.10
CYHZ,44.8781,-63.5136,150,11,12.658579999999999,CYHZ 032000Z 15011KT 8SM -RA FEW002 FEW025 BKN090 OVC190 22/22 A2982 RMK SF2CU1AS5AC1 CU TR VIS NE-S 3 SLP100 DENSITY ALT 1600FT,2024-08-03T20:00:00Z,22,22,8,29.82
CYHY,60.839,-115.781,180,6,6.904679999999999,CYHY 032000Z 18006KT 15SM SCT045 BKN100 BKN230 22/10 A3002 RMK FU3AC3CI1 SLP172 DENSITY ALT 1400FT,2024-08-03T20:00:00Z,22,10,15,30.02
CYHU,45.516,-73.415,220,13,14.960139999999999,CYHU 032000Z AUTO 22013G18KT 9SM CLR 30/23 A2972 RMK SLP065 DENSITY ALT 2100FT,2024-08-03T20:00:00Z,30,23,9,29.72
CYHM,43.173,-79.936,210,8,9.20624,CYHM 032000Z 21008KT 15SM FEW190 BKN210 BKN230 27/20 A2987 RMK AC2CI3CS2 SLP113 DENSITY ALT 2400FT,2024-08-03T20:00:00Z,27,20,15,29.87
CYHK,68.633,-95.851,230,5,5.7539,CYHK 032000Z 23005KT 15SM FEW020 BKN031 BKN250 08/04 A3010 RMK CU1SC5CS1 LAST STFD OBS/ NXT 041200Z SLP200,2024-08-03T20:00:00Z,8,4,15,30.10
CYHE,49.37,-121.493,290,11,12.658579999999999,CYHE 032000Z AUTO 29011G18KT 9SM CLR 27/17 A2997 RMK SLP150 DENSITY ALT 1600FT,2024-08-03T20:00:00Z,27,17,9,29.97
CYHD,49.83,-92.74,30,4,4.60312,CYHD 032000Z AUTO 03004KT 350V060 9SM BKN017 BKN024 BKN032 OVC050 19/16 A2999 RMK SLP163 DENSITY ALT 2100FT,2024-08-03T20:00:00Z,19,16,9,29.99
CYHA,61.048,-69.624,100,18,20.714039999999997,CYHA 032000Z 10018KT 1SM -DZ BR OVC004 03/03 A2953 RMK ST8 SLP005,2024-08-03T20:00:00Z,3,3,1,29.53
CYGX,56.359,-94.704,360,17,19.56326,CYGX 032000Z 36017G22KT 15SM BKN060 17/06 A3004 RMK SC7 SLP178 DENSITY ALT 700FT,2024-08-03T20:00:00Z,17,6,15,30.04
CYGW,55.283,-77.76,240,15,17.261699999999998,CYGW 032000Z AUTO 24015G26KT 9SM OVC009 10/09 A2952 RMK SLP999,2024-08-03T20:00:00Z,10,9,9,29.52
CYGV,50.286,-63.606,150,8,9.20624,CYGV 032000Z AUTO 15008KT 9SM CLR 24/18 A2964 RMK SLP040 DENSITY ALT 1500FT,2024-08-03T20:00:00Z,24,18,9,29.64
CYGR,47.425,-61.775,200,10,11.5078,CYGR 032000Z 20010KT 15SM SCT180 BKN270 27/20 A2974 RMK AC4CI3 SLP073 DENSITY ALT 1600FT,2024-08-03T20:00:00Z,27,20,15,29.74
CYGL,53.625,-77.7,250,16,18.41248,CYGL 032000Z CCA 25016G23KT 15SM -DZ BKN014 OVC021 12/10 A2964 RMK SC7SC1 -DZ INTMT SLP045,2024-08-03T20:00:00Z,12,10,15,29.64
CYGK,44.223,-76.599,180,10,11.5078,CYGK 032000Z 18010KT 10SM FEW012 OVC180 27/24 A2981 RMK SC1CI7 WIND EST SLP096 DENSITY ALT 1900FT,2024-08-03T20:00:00Z,27,24,10+,29.81
CYGH,66.242,-128.644,290,3,3.4523399999999995,CYGH 032000Z 29003KT 240V020 25SM SCT026 15/09 A3022 RMK SC4 SLP238,2024-08-03T20:00:00Z,15,9,25,30.22
CYGE,51.3,-116.984,320,16,18.41248,CYGE 032000Z 32016G26KT 300V010 15SM FEW080CB BKN100TCU 25/10 A3000 RMK CB1TCU6 VIS N LWR DIST SH N CB N TCU ALQDS SLP145 DENSITY ALT 4300FT,2024-08-03T20:00:00Z,25,10,15,30.00
CYFT,55.082,-59.189,100,11,12.658579999999999,CYFT 032000Z 10011KT 15SM FEW220 17/09 A2965 RMK CI2 LAST STFD OBS/NEXT 040900Z SLP046 DENSITY ALT 800FT,2024-08-03T20:00:00Z,17,9,15,29.65
CYFS,61.76,-121.23,330,13,14.960139999999999,CYFS 032000Z 33013G19KT 15SM SCT082 SCT150 BKN210 BKN250 20/12 A3007 RMK AC3AC1CC1CI1 SLP189 DENSITY ALT 1200FT,2024-08-03T20:00:00Z,20,12,15,30.07
CYFO,54.678,-101.68,290,8,9.20624,CYFO 032000Z 29008KT 260V030 15SM SCT065 22/06 A3011 RMK CU4 FU SLP202 DENSITY ALT 1900FT,2024-08-03T20:00:00Z,22,6,15,30.11
CYFC,45.873,-66.539,180,10,11.5078,CYFC 032000Z AUTO 18010G15KT 9SM BKN140 28/20 A2972 RMK SLP065 DENSITY ALT 1800FT,2024-08-03T20:00:00Z,28,20,9,29.72
CYFB,63.75,-68.544,150,15,17.261699999999998,CYFB 032000Z 15015KT 30SM FEW250 06/02 A2970 RMK CI1 CI TR SLP062,2024-08-03T20:00:00Z,6,2,30,29.70
CYEV,68.309,-133.5,180,9,10.357019999999999,CYEV 032000Z 18009KT 140V200 15SM FEW024 FEW250 13/05 A3021 RMK CU1CI1 CU TR CI TR SLP236,2024-08-03T20:00:00Z,13,5,15,30.21
CYET,53.58,-116.455,10,4,4.60312,CYET 032000Z AUTO 01004KT 340V080 9SM CLR 24/11 A3005 RMK SLP172 DENSITY ALT 4600FT,2024-08-03T20:00:00Z,24,11,9,30.05
CYEN,49.207,-102.963,30,9,10.357019999999999,CYEN 032000Z AUTO 03009G23KT 010V090 9SM CLR 27/10 A3011 RMK SLP194 DENSITY ALT 3600FT,2024-08-03T20:00:00Z,27,10,9,30.11
CYEK,61.098,-94.072,360,11,12.658579999999999,CYEK 032000Z 36011G19KT 15SM BKN043 BKN140 16/06 A2995 RMK CU5AS2 LAST STFD OBS/NXT 041400Z SLP145,2024-08-03T20:00:00Z,16,6,15,29.95
CYEG,53.308,-113.592,170,7,8.05546,CYEG 032000Z 17007KT 120V200 20SM FEW080 SCT150 BKN260 26/13 A3001 RMK AC1AC2CI3 ACC ASOCTD N SLP161 DENSITY ALT 4100FT,2024-08-03T20:00:00Z,26,13,20,30.01
CYDQ,55.741,-120.188,350,6,6.904679999999999,CYDQ 032000Z AUTO 35006KT 260V040 9SM CLR 25/01 A3005 RMK SLP183 DENSITY ALT 3700FT,2024-08-03T20:00:00Z,25,1,9,30.05
CYDP,56.549,-61.684,70,15,17.261699999999998,CYDP 032000Z 07015KT 15SM OVC031 08/06 A2966 RMK SC8 SLP048,2024-08-03T20:00:00Z,8,6,15,29.66
CYDN,51.1,-100.057,40,12,13.809359999999998,CYDN 032000Z AUTO 04012G18KT 9SM CLR 22/09 A3012 RMK SLP205 DENSITY ALT 1900FT,2024-08-03T20:00:00Z,22,9,9,30.12
CYDL,58.426,-130.025,VRB,2,2.30156,CYDL 032000Z AUTO VRB02KT 9SM OVC150 17/05 A3018 RMK SLP223 DENSITY ALT 3200FT,2024-08-03T20:00:00Z,17,5,9,30.18
CYDF,49.212,-57.394,220,11,12.658579999999999,CYDF 032000Z 22011G18KT 15SM FEW042 SCT078 BKN150 27/18 A2980 RMK SC2AC2AC2 SLP093 DENSITY ALT 1700FT,2024-08-03T20:00:00Z,27,18,15,29.80
CYDC,49.468,-120.514,240,3,3.4523399999999995,CYDC 032000Z 24003KT 25SM FEW066 33/03 A2997 RMK CF1 CF TR FU S SLP128 DENSITY ALT 4800FT,2024-08-03T20:00:00Z,33,3,25,29.97
CYDB,61.37,-139.032,100,6,6.904679999999999,CYDB 032000Z 10006KT 050V140 15SM SCT050 SCT210 17/05 A3026 RMK CU3CI1 CI TR SLP266 DENSITY ALT 3200FT,2024-08-03T20:00:00Z,17,5,15,30.26
CYDA,64.044,-139.127,230,7,8.05546,CYDA 032000Z 23007KT 20SM SCT042 BKN210 15/06 A3026 RMK SC4CI1 SLP261,2024-08-03T20:00:00Z,15,6,20,30.26
CYCY,70.484,-68.515,340,18,20.714039999999997,CYCY 032000Z AUTO 34018KT 9SM CLR 11/06 A2989 RMK SLP125,2024-08-03T20:00:00Z,11,6,9,29.89
CYCQ,55.689,-121.62,10,3,3.4523399999999995,CYCQ 032000Z 01003KT 35SM FEW250 26/05 A3005 RMK CI2 SLP182 DENSITY ALT 3600FT,2024-08-03T20:00:00Z,26,5,35,30.05
CYCP,52.129,-119.29,200,3,3.4523399999999995,CYCP 032000Z 20003KT 140V230 15SM FEW120TCU SCT160 SCT350 26/11 A3000 RMK TCU2AC1CI1 SLP157 DENSITY ALT 4000FT,2024-08-03T20:00:00Z,26,11,15,30.00
CYCO,67.817,-115.135,340,7,8.05546,CYCO 032000Z 34007KT 320V030 15SM OVC023 09/05 A3022 RMK SC8 SLP236,2024-08-03T20:00:00Z,9,5,15,30.22
CYCK,42.307,-82.085,190,7,8.05546,CYCK 032000Z AUTO 19007KT 9SM CLR 27/23 A2988 RMK SLP116 DENSITY ALT 2300FT,2024-08-03T20:00:00Z,27,23,9,29.88
CYCG,49.295,-117.634,360,3,3.4523399999999995,CYCG 032000Z 36003KT 6SM FU SCT170 30/14 A2990 RMK FU1AC3 SLP116 DENSITY ALT 3800FT,2024-08-03T20:00:00Z,30,14,6,29.90
CYCD,49.052,-123.874,350,3,3.4523399999999995,CYCD 032000Z 35003KT 320V090 30SM FEW050 27/13 A3003 RMK CF1 CF TR SLP170 DENSITY ALT 1400FT,2024-08-03T20:00:00Z,27,13,30,30.03
CYCB,69.106,-105.116,170,12,13.809359999999998,CYCB 032000Z 17012KT 15SM VCSH BKN040 BKN075 10/05 A3006 RMK SC6AC1 SLP185,2024-08-03T20:00:00Z,10,5,15,30.06
CYCA,53.683,-57.042,90,11,12.658579999999999,CYCA 032000Z AUTO 09011G21KT 9SM CLR 19/11 A2969 RMK SLP058 DENSITY ALT 800FT,2024-08-03T20:00:00Z,19,11,9,29.69
CYBX,51.442,-57.188,230,5,5.7539,CYBX 032000Z 23005KT 220V290 15SM BKN013 OVC074 18/16 A2977 RMK SC6AC2 SLP084 DENSITY ALT 700FT,2024-08-03T20:00:00Z,18,16,15,29.77
CYBW,51.108,-114.382,70,7,8.05546,CYBW 032000Z AUTO 07007KT 050V120 9SM CLR 25/12 A3003 RMK SLP159 DENSITY ALT 5900FT,2024-08-03T20:00:00Z,25,12,9,30.03
CYBU,53.333,-104.005,VRB,6,6.904679999999999,CYBU 032000Z AUTO VRB06KT 9SM CLR 23/07 A3014 RMK SLP215 DENSITY ALT 2200FT,2024-08-03T20:00:00Z,23,7,9,30.14
CYBR,49.91,-99.945,40,11,12.658579999999999,CYBR 032000Z 04011G19KT 020V080 12SM SCT042 BKN250 23/13 A3009 RMK CU4CI2 SLP193 DENSITY ALT 2400FT,2024-08-03T20:00:00Z,23,13,12,30.09
CYBQ,58.707,-98.511,360,11,12.658579999999999,CYBQ 032000Z AUTO 36011G17KT 330V050 9SM BKN066 17/05 A3006 RMK SLP193 DENSITY ALT 1300FT,2024-08-03T20:00:00Z,17,5,9,30.06
CYBL,49.951,-125.269,70,5,5.7539,CYBL 032000Z 07005KT 040V100 30SM FEW045 26/13 A3003 RMK CU1 CU TR SLP171 DENSITY ALT 1700FT,2024-08-03T20:00:00Z,26,13,30,30.03
CYBK,64.306,-96.078,10,13,14.960139999999999,CYBK 032000Z 01013KT 15SM FEW038 FEW180 BKN220 15/04 A3000 RMK SC1AC1CI6 SC TR SLP161,2024-08-03T20:00:00Z,15,4,15,30.00
CYBD,52.388,-126.589,270,12,13.809359999999998,CYBD 032000Z 27012G17KT 15SM SKC 26/16 A3003 RMK SLP170 DENSITY ALT 1300FT,2024-08-03T20:00:00Z,26,16,15,30.03
CYBC,49.135,-68.202,240,15,17.261699999999998,CYBC 032000Z AUTO 24015G23KT 9SM CLR 29/19 A2959 RMK SLP023 DENSITY ALT 2100FT,2024-08-03T20:00:00Z,29,19,9,29.59
CYAZ,49.08,-125.767,200,7,8.05546,CYAZ 032000Z 20007KT 3SM BR OVC005 15/15 A3009 RMK SC8 VIS 2SM E/CLDS LWR OVR E-SE SLP192,2024-08-03T20:00:00Z,15,15,3,30.09
CYAY,51.39,-56.081,170,6,6.904679999999999,CYAY 032000Z AUTO 17006KT 100V200 9SM OVC023 20/16 A2977 RMK SLP085 DENSITY ALT 1000FT,2024-08-03T20:00:00Z,20,16,9,29.77
CYAT,52.927,-82.432,300,10,11.5078,CYAT 032000Z AUTO 30010G19KT 9SM SCT034 OVC050 17/12 A2974 RMK SLP072 DENSITY ALT 500FT,2024-08-03T20:00:00Z,17,12,9,29.74
CYAS,60.026,-70.004,50,17,19.56326,CYAS 032000Z 05017KT 15SM FEW009 BKN071 11/09 A2947 RMK ST1AS5 SLP988,2024-08-03T20:00:00Z,11,9,15,29.47
CYAM,46.484,-84.504,300,10,11.5078,CYAM 032000Z 30010KT 15SM FEW170 FEW260 FEW290 28/15 A2993 RMK AC1CI1CI1 AC TR SLP136 DENSITY ALT 2300FT,2024-08-03T20:00:00Z,28,15,15,29.93
CYAH,53.757,-73.676,260,11,12.658579999999999,CYAH 032000Z AUTO 26011G19KT 9SM FEW028 SCT036 BKN043 OVC060 17/12 A2957 RMK SLP023 DENSITY ALT 2000FT,2024-08-03T20:00:00Z,17,12,9,29.57
CYAB,73.003,-85.029,260,14,16.11092,CYAB 032000Z 26014G20KT 180V280 15SM BKN045 08/02 A3000 RMK SC7 SLP161,2024-08-03T20:00:00Z,8,2,15,30.00
CXZV,50.217,-66.26,120,4,4.60312,CXZV 032000Z AUTO 12004KT 20/18 RMK AO1 8008 SLP033 T01960184 50005,2024-08-03T20:00:00Z,19.6,18.4,,
CXZC,51.292,-80.618,300,9,10.357019999999999,CXZC 032000Z AUTO 30009G18KT 22/09 RMK AO1 PK WND 29018/1906 SLP092 T02190089 53010,2024-08-03T20:00:00Z,21.9,8.9,,
CXYH,61.242,-123.742,70,5,5.7539,CXYH 032000Z AUTO 07005KT 23/10 RMK AO1 SLP179 T02290095 58001,2024-08-03T20:00:00Z,22.9,9.5,,
CXWN,49.889,-97.13,20,7,8.05546,CXWN 032000Z AUTO 02007G16KT 23/10 RMK AO1 PK WND 00019/1940 SLP174 T02270098 53006,2024-08-03T20:00:00Z,22.7,9.8,,
CXVN,43.183,-79.4,190,7,8.05546,CXVN 032000Z AUTO 19007KT 25/21 RMK AO1 SLP106 T02540209 58005,2024-08-03T20:00:00Z,25.4,20.9,,
CXVM,53.344,-110.882,120,9,10.357019999999999,CXVM 032000Z AUTO 12009KT 25/10 RMK AO1 T02460102,2024-08-03T20:00:00Z,24.6,10.2,,
CXTP,48.557,-53.975,240,8,9.20624,CXTP 032000Z AUTO 24008KT 27/15 RMK AO1 PK WND 23017/1931 SLP103 T02680151 53003,2024-08-03T20:00:00Z,26.8,15.1,,
CXTO,43.667,-79.4,,,,CXTO 032000Z AUTO 27/21 RMK AO1 SLP100 T02690210 58006,2024-08-03T20:00:00Z,26.9,21,,
CXTH,53.625,-111.678,110,9,10.357019999999999,CXTH 032000Z AUTO 11009KT 23/10 RMK AO1 T02310095,2024-08-03T20:00:00Z,23.1,9.5,,
CXTD,45.608,-61.68,190,10,11.5078,CXTD 032000Z AUTO 19010G15KT 27/21 RMK AO1 SLP098 T02690213 56009,2024-08-03T20:00:00Z,26.9,21.3,,
CXSH,46.564,-72.733,200,5,5.7539,CXSH 032000Z AUTO 20005KT 25/20 RMK AO1 SLP066 T02480202 58002,2024-08-03T20:00:00Z,24.8,20.2,,
CXSE,73.766,-105.296,110,8,9.20624,CXSE 032000Z AUTO 11008KT 03/02 RMK AO1 SLP155 T00320019 51006,2024-08-03T20:00:00Z,3.2,1.9,,
CXRL,54.503,-111.691,80,3,3.4523399999999995,CXRL 032000Z AUTO 08003KT 21/13 RMK AO1 T02080126,2024-08-03T20:00:00Z,20.8,12.6,,
CXRH,49.57,-57.878,190,6,6.904679999999999,CXRH 032000Z AUTO 19006G15KT 21/19 RMK AO1 SLP096 T02100194 53003,2024-08-03T20:00:00Z,21,19.4,,
CXRB,74.716,-94.983,310,5,5.7539,CXRB 032000Z AUTO 31005KT 03/02 RMK AO1 SOG 01 1015 SLP166 T00270020,2024-08-03T20:00:00Z,2.7,2,,
CXPC,45.344,-80.044,,,,CXPC 032000Z AUTO 26/20 RMK AO1 SLP100 T02640195 56002,2024-08-03T20:00:00Z,26.4,19.5,,
CXOX,55.146,-105.27,310,7,8.05546,CXOX 032000Z AUTO 31007KT 23/04 RMK AO1 SLP199 T02330039 56016,2024-08-03T20:00:00Z,23.3,3.9,,
CXNP,45.76,-64.241,210,9,10.357019999999999,CXNP 032000Z AUTO 21009KT 26/22 RMK AO1 SLP082 T02610220 57017,2024-08-03T20:00:00Z,26.1,22,,
CXNM,46.818,-60.673,220,5,5.7539,CXNM 032000Z AUTO 22005KT 26/20 RMK AO1 T02620197,2024-08-03T20:00:00Z,26.2,19.7,,
CXMY,44.984,-62.484,,,,CXMY 032000Z AUTO 22/22 RMK AO1 T02150215,2024-08-03T20:00:00Z,21.5,21.5,,
CXMM,56.649,-111.221,120,2,2.30156,CXMM 032000Z AUTO 12002KT 21/11 RMK AO1 SLP197 T02140111 55005,2024-08-03T20:00:00Z,21.4,11.1,,
CXMI,44.602,-63.534,200,12,13.809359999999998,CXMI 032000Z AUTO 20012KT 20/19 RMK AO1 SLP096 T01970193 58017,2024-08-03T20:00:00Z,19.7,19.3,,
CXMG,56.974,-117.451,150,2,2.30156,CXMG 032000Z AUTO 15002KT 23/12 RMK AO1 T02290118,2024-08-03T20:00:00Z,22.9,11.8,,
CXMD,49.188,-98.084,20,15,17.261699999999998,CXMD 032000Z AUTO 02015G23KT 24/13 RMK AO1 PK WND 35024/1926 SLP175 T02380130 51012,2024-08-03T20:00:00Z,23.8,13,,
CXLC,63.601,-113.866,60,4,4.60312,CXLC 032000Z AUTO 06004KT 18/10 RMK AO1 SLP205 T01760102 58005,2024-08-03T20:00:00Z,17.6,10.2,,
CXLB,44.36,-64.296,180,12,13.809359999999998,CXLB 032000Z AUTO 18012KT 20/19 RMK AO1 SLP090 T01990191 58010,2024-08-03T20:00:00Z,19.9,19.1,,
CXKT,45.067,-64.478,160,3,3.4523399999999995,CXKT 032000Z AUTO 16003KT 26/24 RMK AO1 6017 SLP084 T02590235 50016,2024-08-03T20:00:00Z,25.9,23.5,,
CXKM,52.849,-111.873,140,9,10.357019999999999,CXKM 032000Z AUTO 14009KT 26/11 RMK AO1 T02550114,2024-08-03T20:00:00Z,25.5,11.4,,
CXKI,48.15,-80,300,11,12.658579999999999,CXKI 032000Z AUTO 30011G18KT 28/11 RMK AO1 PK WND 28024/1940 SLP082 T02820106 57007,2024-08-03T20:00:00Z,28.2,10.6,,
CXKE,45.005,-75.637,210,7,8.05546,CXKE 032000Z AUTO 21007KT 29/23 RMK AO1 SLP078 T02890232 58010,2024-08-03T20:00:00Z,28.9,23.2,,
CXKA,49.405,-82.443,310,7,8.05546,CXKA 032000Z AUTO 31007KT 24/13 RMK AO1 SLP113 T02400134 51002,2024-08-03T20:00:00Z,24,13.4,,
CXIB,46.663,-60.406,190,7,8.05546,CXIB 032000Z AUTO 19007KT 30/19 RMK AO1 SLP083 T02970191 58005,2024-08-03T20:00:00Z,29.7,19.1,,
CXHP,55.396,-116.48,20,5,5.7539,CXHP 032000Z AUTO 02005KT 23/14 RMK AO1 T02260140,2024-08-03T20:00:00Z,22.6,14,,
CXHM,43.286,-79.905,240,2,2.30156,CXHM 032000Z AUTO 24002KT 27/20 RMK AO1 SLP108 T02710200 58006,2024-08-03T20:00:00Z,27.1,20,,
CXHD,53.185,-112.246,130,10,11.5078,CXHD 032000Z AUTO 13010KT 26/11 RMK AO1 PK WND 14018/1901 T02600114,2024-08-03T20:00:00Z,26,11.4,,
CXHA,42.033,-82.896,240,5,5.7539,CXHA 032000Z AUTO 24005KT 29/22 RMK AO1 SLP115 T02870220 58006,2024-08-03T20:00:00Z,28.7,22,,
CXGH,50.631,-96.984,20,16,18.41248,CXGH 032000Z AUTO 02016G22KT 21/09 RMK AO1 PK WND 02023/1925 SLP181 T02090092 50000,2024-08-03T20:00:00Z,20.9,9.2,,
CXFR,56.081,-118.44,150,4,4.60312,CXFR 032000Z AUTO 15004KT 23/09 RMK AO1 T02340093,2024-08-03T20:00:00Z,23.4,9.3,,
CXET,44.234,-79.779,0,0,0.0,CXET 032000Z AUTO 00000KT 29/21 RMK AO1 SLP103 T02850208 58006,2024-08-03T20:00:00Z,28.5,20.8,,
CXEG,53.307,-113.606,170,6,6.904679999999999,CXEG 032000Z AUTO 17006KT 27/13 RMK AO1 SLP159 T02660132 57021,2024-08-03T20:00:00Z,26.6,13.2,,
CXEC,53.573,-113.517,140,8,9.20624,CXEC 032000Z AUTO 14008G15KT 26/09 RMK AO1 SLP156 T02630088 56022,2024-08-03T20:00:00Z,26.3,8.8,,
CXEA,50.631,-93.221,340,6,6.904679999999999,CXEA 032000Z AUTO 34006KT 23/09 RMK AO1 SLP161 T02290092 56009,2024-08-03T20:00:00Z,22.9,9.2,,
CXDW,49.4,-98.319,10,15,17.261699999999998,CXDW 032000Z AUTO 01015G21KT 23/12 RMK AO1 PK WND 01024/1903 SLP183 T02280117 53009,2024-08-03T20:00:00Z,22.8,11.7,,
CXDK,61.257,-124.468,140,5,5.7539,CXDK 032000Z AUTO 14005KT 21/10 RMK AO1 SLP191 T02100099 55003,2024-08-03T20:00:00Z,21,9.9,,
CXDI,42.864,-80.545,180,5,5.7539,CXDI 032000Z AUTO 18005KT 28/20 RMK AO1 SLP112 T02760195 58007,2024-08-03T20:00:00Z,27.6,19.5,,
CXDE,65.209,-123.434,140,7,8.05546,CXDE 032000Z AUTO 14007KT 12/10 RMK AO1 4PAST HR 2011 SLP222 P0002 T01210097 50004,2024-08-03T20:00:00Z,12.1,9.7,,
CXDB,49.048,-112.808,270,7,8.05546,CXDB 032000Z AUTO 27007KT 24/13 RMK AO1 PK WND 25022/1900 T02390134,2024-08-03T20:00:00Z,23.9,13.4,,
CXCP,50.281,-113.35,120,7,8.05546,CXCP 032000Z AUTO 12007KT 29/11 RMK AO1 T02930109,2024-08-03T20:00:00Z,29.3,10.9,,
CXCK,62.115,-136.192,300,6,6.904679999999999,CXCK 032000Z AUTO 30006KT 14/10 RMK AO1 SLP263 T01440103 52003,2024-08-03T20:00:00Z,14.4,10.3,,
CXCA,49.154,-88.344,270,5,5.7539,CXCA 032000Z AUTO 27005KT 25/14 RMK AO1 SLP131 T02510136 58007,2024-08-03T20:00:00Z,25.1,13.6,,
CXBO,46.837,-71.197,260,8,9.20624,CXBO 032000Z AUTO 26008KT 29/21 RMK AO1 PK WND 22019/1915 T02940214,2024-08-03T20:00:00Z,29.4,21.4,,
CXBK,50.201,-104.71,60,7,8.05546,CXBK 032000Z AUTO 06007KT 26/08 RMK AO1 SLP203 T02580077 58010,2024-08-03T20:00:00Z,25.8,7.7,,
CXBI,44.484,-79.546,290,10,11.5078,CXBI 032000Z AUTO 29010G15KT 28/18 RMK AO1 SLP110 T02810183 57006,2024-08-03T20:00:00Z,28.1,18.3,,
CXAT,73.006,-85.033,300,6,6.904679999999999,CXAT 032000Z AUTO 30006KT 06/02 RMK AO1 SLP165 T00570020 53004,2024-08-03T20:00:00Z,5.7,2,,
CXAG,53.917,-112.279,90,7,8.05546,CXAG 032000Z AUTO 09007KT 21/14 RMK AO1 T02110138,2024-08-03T20:00:00Z,21.1,13.8,,
CWZW,60.167,-132.733,270,10,11.5078,CWZW 032000Z AUTO 27010G16KT 18/08 RMK AO1 SLP247 T01760078 58004,2024-08-03T20:00:00Z,17.6,7.8,,
CWZQ,46.547,-61.049,210,9,10.357019999999999,CWZQ 032000Z AUTO 21009KT 28/20 RMK AO1 SLP093 T02790204 56012,2024-08-03T20:00:00Z,27.9,20.4,,
CWZO,48.568,-123.265,170,11,12.658579999999999,CWZO 032000Z AUTO 17011KT RMK AO1,2024-08-03T20:00:00Z,,,,
CWZN,47.368,-55.795,220,7,8.05546,CWZN 032000Z AUTO 22007KT 18/15 RMK AO1 SLP116 T01780153 50002,2024-08-03T20:00:00Z,17.8,15.3,,
CWZG,51.194,-115.552,190,3,3.4523399999999995,CWZG 032000Z AUTO 19003KT 30/06 RMK AO1 SLP122 T02960064 58030,2024-08-03T20:00:00Z,29.6,6.4,,
CWZA,49.244,-121.759,190,5,5.7539,CWZA 032000Z AUTO 19005KT 26/14 RMK AO1 SLP164 T02630137 57013,2024-08-03T20:00:00Z,26.3,13.7,,
CWYY,49.028,-119.441,310,5,5.7539,CWYY 032000Z AUTO 31005KT 37/12 RMK AO1 SLP095 T03720116 58018,2024-08-03T20:00:00Z,37.2,11.6,,
CWYL,51.443,-116.345,250,9,10.357019999999999,CWYL 032000Z AUTO 25009KT 26/11 RMK AO1 SLP133 T02610108 57024,2024-08-03T20:00:00Z,26.1,10.8,,
CWYJ,48.457,-123.305,90,2,2.30156,CWYJ 032000Z AUTO 09002KT 22/12 RMK AO1 SLP177 T02200115 58007,2024-08-03T20:00:00Z,22,11.5,,
CWXL,49.734,-111.45,130,11,12.658579999999999,CWXL 032000Z AUTO 13011G16KT 29/12 RMK AO1 PK WND 13018/1931 SLP133 T02920116 58026,2024-08-03T20:00:00Z,29.2,11.6,,
CWXI,51.022,-57.096,200,16,18.41248,CWXI 032000Z AUTO 20016KT 20/17 RMK AO1 PK WND 20020/1934 SLP082 T02010174 55002,2024-08-03T20:00:00Z,20.1,17.4,,
CWXC,48.894,-71.032,190,1,1.15078,CWXC 032000Z AUTO 19001KT 24/19 RMK AO1 SLP051 T02410191 55002,2024-08-03T20:00:00Z,24.1,19.1,,
CWXA,51.083,-115.066,30,5,5.7539,CWXA 032000Z AUTO 03005KT 28/11 RMK AO1 SLP169 T02760109 56017,2024-08-03T20:00:00Z,27.6,10.9,,
CWWZ,43.244,-79.218,180,5,5.7539,CWWZ 032000Z AUTO 18005KT 25/21 RMK AO1 SLP105 T02530209 58005,2024-08-03T20:00:00Z,25.3,20.9,,
CWWS,52.819,-97.616,340,19,21.864819999999998,CWWS 032000Z AUTO 34019KT 19/12 RMK AO1 PK WND 32023/1917 SLP197 T01860115 55003,2024-08-03T20:00:00Z,18.6,11.5,,
CWWK,49.018,-122.784,270,3,3.4523399999999995,CWWK 032000Z AUTO 27003KT 20/14 RMK AO1 SLP181 T02000135 58007,2024-08-03T20:00:00Z,20,13.5,,
CWWF,49.695,-103.801,60,8,9.20624,CWWF 032000Z AUTO 06008G15KT 26/08 RMK AO1 SLP200 T02630075 56007,2024-08-03T20:00:00Z,26.3,7.5,,
CWWE,43.989,-64.662,190,6,6.904679999999999,CWWE 032000Z AUTO 19006KT 15/15 RMK AO1 5PAST HR 6016 SLP099 P0010 T01470146 50027,2024-08-03T20:00:00Z,14.7,14.6,,
CWWB,43.302,-79.791,230,6,6.904679999999999,CWWB 032000Z AUTO 23006KT 27/19 RMK AO1 SLP108 T02660188 58006,2024-08-03T20:00:00Z,26.6,18.8,,
CWWA,49.347,-123.193,210,2,2.30156,CWWA 032000Z AUTO 21002KT 24/14 RMK AO1 SLP176 T02380143 56007,2024-08-03T20:00:00Z,23.8,14.3,,
CWVU,44.287,-66.342,150,8,9.20624,CWVU 032000Z AUTO 15008KT 18/18 RMK AO1 PK WND 15017/1904 SLP077 T01750183 58008,2024-08-03T20:00:00Z,17.5,18.3,,
CWVT,55.841,-108.421,50,4,4.60312,CWVT 032000Z AUTO 05004KT 22/10 RMK AO1 SLP213 T02190101 56014,2024-08-03T20:00:00Z,21.9,10.1,,
CWVQ,45.427,-73.929,240,8,9.20624,CWVQ 032000Z AUTO 24008KT 30/23 RMK AO1 SLP067 T03000231 56012,2024-08-03T20:00:00Z,30,23.1,,
CWVP,49.64,-109.514,140,12,13.809359999999998,CWVP 032000Z AUTO 14012G18KT 24/07 RMK AO1 PK WND 13022/1902 SLP169 T02420074 57019,2024-08-03T20:00:00Z,24.2,7.4,,
CWVN,49.058,-107.586,140,8,9.20624,CWVN 032000Z AUTO 14008KT 30/05 RMK AO1 SLP175 T03030054 58023,2024-08-03T20:00:00Z,30.3,5.4,,
CWVI,53.505,-112.098,120,9,10.357019999999999,CWVI 032000Z AUTO 12009KT 24/10 RMK AO1 SLP171 T02440097 58020,2024-08-03T20:00:00Z,24.4,9.7,,
CWVH,68.894,-133.943,160,11,12.658579999999999,CWVH 032000Z AUTO 16011KT ////SM ////// ///// A////,2024-08-03T20:00:00Z,,,,
CWVF,49.106,-123.303,170,9,10.357019999999999,CWVF 032000Z AUTO 17009KT 19/15 RMK AO1 T01930154,2024-08-03T20:00:00Z,19.3,15.4,,
CWUS,49.563,-119.649,30,2,2.30156,CWUS 032000Z AUTO 03002KT 33/13 RMK AO1 SLP110 T03310134 56017,2024-08-03T20:00:00Z,33.1,13.4,,
CWTY,46.354,-72.516,250,6,6.904679999999999,CWTY 032000Z AUTO 25006KT 26/20 RMK AO1 SLP058 T02640204 58003,2024-08-03T20:00:00Z,26.4,20.4,,
CWTT,45.27,-72.17,240,11,12.658579999999999,CWTT 032000Z AUTO 24011KT 29/19 RMK AO1 T02890194,2024-08-03T20:00:00Z,28.9,19.4,,
CWTN,47.079,-70.781,270,4,4.60312,CWTN 032000Z AUTO 27004KT 29/22 RMK AO1 SLP045 T02890224 56008,2024-08-03T20:00:00Z,28.9,22.4,,
CWTG,49.317,-67.381,190,10,11.5078,CWTG 032000Z AUTO 19010KT 19/16 RMK AO1 SLP031 T01860157 55006,2024-08-03T20:00:00Z,18.6,15.7,,
CWTA,45.506,-73.579,190,6,6.904679999999999,CWTA 032000Z AUTO 19006KT 30/22 RMK AO1 SLP066 T03010220 56010,2024-08-03T20:00:00Z,30.1,22,,
CWSW,49.834,-114.881,170,14,16.11092,CWSW 032000Z 17014G25KT 20SM FEW140 SCT260 BKN290 30/10 A3001 RMK AC2CC2CI2 FU ALQDS SLP130 DENSITY ALT 6300FT,2024-08-03T20:00:00Z,30,10,20,30.01
CWST,47.354,-70.03,240,9,10.357019999999999,CWST 032000Z AUTO 24009G17KT 29/22 RMK AO1 PK WND 24018/1915 SLP036 T02940220 56011,2024-08-03T20:00:00Z,29.4,22,,
CWSS,45.21,-67.253,130,4,4.60312,CWSS 032000Z AUTO 13004KT 23/20 RMK AO1 SLP072 T02310201 58015,2024-08-03T20:00:00Z,23.1,20.1,,
CWSR,53.368,-107.553,160,5,5.7539,CWSR 032000Z AUTO 16005KT 18/09 RMK AO1 SLP222 T01810089 56012,2024-08-03T20:00:00Z,18.1,8.9,,
CWSP,48.377,-123.921,290,17,19.56326,CWSP 032000Z AUTO 29017KT 14/13 RMK AO1 PK WND 29021/1945 SLP188 T01400127 57005,2024-08-03T20:00:00Z,14,12.7,,
CWSL,50.703,-119.291,10,3,3.4523399999999995,CWSL 032000Z AUTO 01003KT 30/16 RMK AO1 SLP121 T03000160 57017,2024-08-03T20:00:00Z,30,16,,
CWSK,49.783,-123.161,170,7,8.05546,CWSK 032000Z AUTO 17007G15KT 27/16 RMK AO1 SLP157 T02670161 58014,2024-08-03T20:00:00Z,26.7,16.1,,
CWSG,49.109,-66.655,280,10,11.5078,CWSG 032000Z AUTO 28010KT 23/18 RMK AO1 PK WND 26018/1901 SLP031 T02270179 56012,2024-08-03T20:00:00Z,22.7,17.9,,
CWSF,49.251,-65.325,110,3,3.4523399999999995,CWSF 032000Z AUTO 11003KT 22/18 RMK AO1 SLP038 T02170177 56005,2024-08-03T20:00:00Z,21.7,17.7,,
CWSD,46.441,-63.837,220,11,12.658579999999999,CWSD 032000Z AUTO 22011G16KT 26/23 RMK AO1 SLP077 T02570228 56013,2024-08-03T20:00:00Z,25.7,22.8,,
CWRZ,48.419,-64.317,230,7,8.05546,CWRZ 032000Z AUTO 23007KT 24/20 RMK AO1 SLP036 T02370204 57015,2024-08-03T20:00:00Z,23.7,20.4,,
CWRY,49.133,-112.051,170,10,11.5078,CWRY 032000Z AUTO 17010KT 28/09 RMK AO1 SLP144 T02770088 58018,2024-08-03T20:00:00Z,27.7,8.8,,
CWRT,49.628,-114.482,250,8,9.20624,CWRT 032000Z AUTO 25008G15KT 30/06 RMK AO1 SLP139 T03010063 56019,2024-08-03T20:00:00Z,30.1,6.3,,
CWRO,54.161,-131.66,270,13,14.960139999999999,CWRO 032000Z AUTO 27013KT 17/14 RMK AO1 PK WND 27018/1922 SLP228 T01730139 55000,2024-08-03T20:00:00Z,17.3,13.9,,
CWRN,45.347,-60.98,190,16,18.41248,CWRN 032000Z AUTO 19016KT 21/20 RMK AO1 PK WND 20021/1939 SLP108 T02100201 58006,2024-08-03T20:00:00Z,21,20.1,,
CWRM,52.431,-114.907,340,3,3.4523399999999995,CWRM 032000Z AUTO 34003KT 17/14 RMK AO1 SLP157 T01730137 55007,2024-08-03T20:00:00Z,17.3,13.7,,
CWRK,45.072,-77.879,230,4,4.60312,CWRK 032000Z AUTO 23004KT 29/20 RMK AO1 SLP095 T02860195 58008,2024-08-03T20:00:00Z,28.6,19.5,,
CWRJ,51.565,-107.924,130,11,12.658579999999999,CWRJ 032000Z AUTO 13011KT 24/08 RMK AO1 SLP196 T02400075 57018,2024-08-03T20:00:00Z,24,7.5,,
CWRA,46.659,-53.073,250,18,20.714039999999997,CWRA 032000Z AUTO 25018KT 18/15 RMK AO1 PK WND 25021/1956 SLP150 T01780147 53005,2024-08-03T20:00:00Z,17.8,14.7,,
CWQV,48.26,-70.116,120,1,1.15078,CWQV 032000Z AUTO 12001KT 29/20 RMK AO1 T02890202,2024-08-03T20:00:00Z,28.9,20.2,,
CWQR,50.221,-64.207,130,6,6.904679999999999,CWQR 032000Z AUTO 13006KT 20/17 RMK AO1 T01960168,2024-08-03T20:00:00Z,19.6,16.8,,
CWQP,43.84,-77.153,260,5,5.7539,CWQP 032000Z AUTO 26005KT 25/25 RMK AO1 SLP101 T02530252 56007,2024-08-03T20:00:00Z,25.3,25.2,,
CWQO,48.416,-68.893,220,15,17.261699999999998,CWQO 032000Z AUTO 22015KT 19/17 RMK AO1 PK WND 22021/1940 T01890168,2024-08-03T20:00:00Z,18.9,16.8,,
CWQK,48.298,-123.531,270,21,24.166379999999997,CWQK 032000Z AUTO 27021KT 13/13 RMK AO1 PK WND 27023/1903 SLP178 T01300130 58006,2024-08-03T20:00:00Z,13,13,,
CWQH,45.369,-71.824,240,8,9.20624,CWQH 032000Z AUTO 24008KT 30/20 RMK AO1 SLP074 T02950195 56007,2024-08-03T20:00:00Z,29.5,19.5,,
CWPZ,54.383,-125.959,300,6,6.904679999999999,CWPZ 032000Z AUTO 30006KT 25/M00 RMK AO1 SLP197 T02491003 57011,2024-08-03T20:00:00Z,24.9,-0.3,,
CWPR,49.468,-120.514,290,3,3.4523399999999995,CWPR 032000Z AUTO 29003KT 32/02 RMK AO1 SLP127 T03240018 56022,2024-08-03T20:00:00Z,32.4,1.8,,
CWPO,49.191,-98.905,360,15,17.261699999999998,CWPO 032000Z AUTO 36015G23KT 22/12 RMK AO1 PK WND 02025/1933 SLP196 T02190123 53015,2024-08-03T20:00:00Z,21.9,12.3,,
CWPF,48.432,-123.439,170,5,5.7539,CWPF 032000Z AUTO 17005KT 18/12 RMK AO1 SLP174 T01840121 58006,2024-08-03T20:00:00Z,18.4,12.1,,
CWPE,45.058,-66.459,150,3,3.4523399999999995,CWPE 032000Z AUTO 15003KT 20/19 RMK AO1 SLP076 T01980189 58012,2024-08-03T20:00:00Z,19.8,18.9,,
CWPD,47.562,-71.229,200,5,5.7539,CWPD 032000Z AUTO 20005KT 24/17 RMK AO1 SLP045 T02350172 55002,2024-08-03T20:00:00Z,23.5,17.2,,
CWPC,42.868,-79.253,200,2,2.30156,CWPC 032000Z AUTO 20002KT 23/20 RMK AO1 SLP123 T02340200 58006,2024-08-03T20:00:00Z,23.4,20,,
CWOY,51.767,-104.2,90,4,4.60312,CWOY 032000Z AUTO 09004KT 22/06 RMK AO1 SLP217 T02220062 56013,2024-08-03T20:00:00Z,22.2,6.2,,
CWOD,48.842,-72.546,180,7,8.05546,CWOD 032000Z AUTO 18007KT 26/21 RMK AO1 SLP053 T02580210 50001,2024-08-03T20:00:00Z,25.8,21,,
CWOC,48.012,-65.332,270,2,2.30156,CWOC 032000Z AUTO 27002KT 24/19 RMK AO1 SLP047 T02360187 58007,2024-08-03T20:00:00Z,23.6,18.7,,
CWNZ,49.747,-84.164,300,5,5.7539,CWNZ 032000Z AUTO 30005KT 23/09 RMK AO1 SLP119 T02300094 55002,2024-08-03T20:00:00Z,23,9.4,,
CWNQ,46.226,-72.657,340,6,6.904679999999999,CWNQ 032000Z AUTO 34006KT 26/18 RMK AO1 PK WND 34022/1937 SLP057 T02590175 58006,2024-08-03T20:00:00Z,25.9,17.5,,
CWNP,50.269,-117.817,300,4,4.60312,CWNP 032000Z AUTO 30004KT 27/12 RMK AO1 SLP120 T02690120 56021,2024-08-03T20:00:00Z,26.9,12,,
CWNM,49.491,-117.305,40,5,5.7539,CWNM 032000Z AUTO 04005KT 30/14 RMK AO1 SLP119 T03040135 58015,2024-08-03T20:00:00Z,30.4,13.5,,
CWNK,49.498,-98.03,10,12,13.809359999999998,CWNK 032000Z AUTO 01012G18KT 23/13 RMK AO1 PK WND 01023/1909 SLP179 T02310127 53010,2024-08-03T20:00:00Z,23.1,12.7,,
CWNH,47.806,-69.548,210,4,4.60312,CWNH 032000Z AUTO 21004KT 26/20 RMK AO1 SLP040 T02560199 58016,2024-08-03T20:00:00Z,25.6,19.9,,
CWNE,47.058,-63.997,200,9,10.357019999999999,CWNE 032000Z AUTO 20009G15KT 26/21 RMK AO1 SLP060 T02620210 57012,2024-08-03T20:00:00Z,26.2,21,,
CWNC,43.951,-78.165,260,5,5.7539,CWNC 032000Z AUTO 26005KT 24/23 RMK AO1 2PAST HR 8007 SLP093 P0001 T02350229 50006,2024-08-03T20:00:00Z,23.5,22.9,,
CWMT,63.134,-117.245,90,6,6.904679999999999,CWMT 032000Z AUTO 09006KT 20/07 RMK AO1 SLP188 T01970072 50001,2024-08-03T20:00:00Z,19.7,7.2,,
CWMQ,49.903,-109.466,140,13,14.960139999999999,CWMQ 032000Z AUTO 14013G19KT 30/08 RMK AO1 PK WND 12019/1917 SLP152 T02960075 56027,2024-08-03T20:00:00Z,29.6,7.5,,
CWMM,49.208,-122.69,200,3,3.4523399999999995,CWMM 032000Z AUTO 20003KT 26/14 RMK AO1 SLP172 T02590135 58010,2024-08-03T20:00:00Z,25.9,13.5,,
CWMJ,46.275,-75.992,230,9,10.357019999999999,CWMJ 032000Z AUTO 23009G15KT 31/21 RMK AO1 SLP063 T03120212 56012,2024-08-03T20:00:00Z,31.2,21.2,,
CWLS,43.983,-80.74,300,5,5.7539,CWLS 032000Z AUTO 30005KT 27/17 RMK AO1 SLP115 T02680170 56006,2024-08-03T20:00:00Z,26.8,17,,
CWLP,50.94,-127.632,290,13,14.960139999999999,CWLP 032000Z AUTO 29013KT 15/12 RMK AO1 PK WND 30017/1915 SLP204 T01530122 56004,2024-08-03T20:00:00Z,15.3,12.2,,
CWLM,48.413,-123.325,210,4,4.60312,CWLM 032000Z AUTO 21004KT 19/12 RMK AO1 SLP174 T01930118 58006,2024-08-03T20:00:00Z,19.3,11.8,,
CWLE,50.951,-107.143,110,11,12.658579999999999,CWLE 032000Z AUTO 11011KT 26/08 RMK AO1 SLP197 T02560080 58018,2024-08-03T20:00:00Z,25.6,8,,
CWLC,54.296,-130.609,290,1,1.15078,CWLC 032000Z AUTO 29001KT 18/13 RMK AO1 T01810133,2024-08-03T20:00:00Z,18.1,13.3,,
CWLB,54.769,-112.024,30,7,8.05546,CWLB 032000Z AUTO 03007KT 19/11 RMK AO1 SLP203 T01860106 56009,2024-08-03T20:00:00Z,18.6,10.6,,
CWKX,58.429,-130.011,270,1,1.15078,CWKX 032000Z AUTO 27001KT 17/05 RMK AO1 SLP237 T01710048 58012,2024-08-03T20:00:00Z,17.1,4.8,,
CWKO,49.168,-105.979,60,5,5.7539,CWKO 032000Z AUTO 06005KT 27/06 RMK AO1 SLP199 T02730056 58010,2024-08-03T20:00:00Z,27.3,5.6,,
CWKM,69.595,-140.174,60,9,10.357019999999999,CWKM 032000Z AUTO 06009KT ////SM ////// 12/07 A3005,2024-08-03T20:00:00Z,12,7,,30.05
CWKK,49.713,-88.332,90,4,4.60312,CWKK 032000Z AUTO 09004KT 21/14 RMK AO1 SLP136 T02120141 58007,2024-08-03T20:00:00Z,21.2,14.1,,
CWKH,48.568,-123.542,,,,CWKH 032000Z AUTO 24/14 RMK AO1 SLP170 T02390136 58003,2024-08-03T20:00:00Z,23.9,13.6,,
CWKG,44.432,-65.203,190,4,4.60312,CWKG 032000Z AUTO 19004KT 24/23 RMK AO1 4PAST HR 6020 SLP095 P0002 T02350227 50004,2024-08-03T20:00:00Z,23.5,22.7,,
CWJX,50.876,-109.501,120,14,16.11092,CWJX 032000Z AUTO 12014G20KT 30/05 RMK AO1 PK WND 12021/1904 SLP156 T03030050 58024,2024-08-03T20:00:00Z,30.3,5,,
CWJV,50.223,-119.194,250,4,4.60312,CWJV 032000Z AUTO 25004KT 35/11 RMK AO1 SLP116 T03490106 56016,2024-08-03T20:00:00Z,34.9,10.6,,
CWJU,54.255,-133.058,320,12,13.809359999999998,CWJU 032000Z AUTO 32012KT 15/12 RMK AO1 PK WND 31017/1916 SLP243 T01460115 56001,2024-08-03T20:00:00Z,14.6,11.5,,
CWJT,46.08,-74.556,250,5,5.7539,CWJT 032000Z AUTO 25005KT 31/20 RMK AO1 SLP074 T03100204 56012,2024-08-03T20:00:00Z,31,20.4,,
CWJR,49.04,-116.483,210,4,4.60312,CWJR 032000Z AUTO 21004KT 25/14 RMK AO1 SLP138 T02470135 58007,2024-08-03T20:00:00Z,24.7,13.5,,
CWJI,49.729,-105.946,80,9,10.357019999999999,CWJI 032000Z AUTO 08009KT 26/09 RMK AO1 SLP195 T02560088 58014,2024-08-03T20:00:00Z,25.6,8.8,,
CWJH,56.333,-103.283,70,4,4.60312,CWJH 032000Z AUTO 07004KT 20/06 RMK AO1 SLP208 T02020055 57012,2024-08-03T20:00:00Z,20.2,5.5,,
CWJD,53.187,-99.268,60,6,6.904679999999999,CWJD 032000Z AUTO 06006KT 20/10 RMK AO1 SLP202 T02010101 56006,2024-08-03T20:00:00Z,20.1,10.1,,
CWJC,61.132,-100.884,300,16,18.41248,CWJC 032000Z AUTO 30016G23KT RMK AO1 PK WND 32023/1948 58008,2024-08-03T20:00:00Z,,,,
CWJB,46.781,-71.288,210,3,3.4523399999999995,CWJB 032000Z AUTO 21003KT 29/21 RMK AO1 T02900213,2024-08-03T20:00:00Z,29,21.3,,
CWIZ,45.294,-73.35,240,7,8.05546,CWIZ 032000Z AUTO 24007KT 31/22 RMK AO1 T03080221,2024-08-03T20:00:00Z,30.8,22.1,,
CWIW,51.667,-105.4,110,6,6.904679999999999,CWIW 032000Z AUTO 11006KT 24/08 RMK AO1 SLP208 T02350082 58016,2024-08-03T20:00:00Z,23.5,8.2,,
CWIT,45.167,-73.678,240,6,6.904679999999999,CWIT 032000Z AUTO 24006KT 30/21 RMK AO1 SLP072 T03020207 57011,2024-08-03T20:00:00Z,30.2,20.7,,
CWIS,47.284,-70.637,240,3,3.4523399999999995,CWIS 032000Z AUTO 24003KT RMK AO1 56007,2024-08-03T20:00:00Z,,,,
CWIP,50.162,-66.434,120,2,2.30156,CWIP 032000Z AUTO 12002KT 19/19 RMK AO1 T01940193,2024-08-03T20:00:00Z,19.4,19.3,,
CWIK,50.366,-102.567,20,5,5.7539,CWIK 032000Z AUTO 02005KT 23/10 RMK AO1 SLP212 T02290101 50003,2024-08-03T20:00:00Z,22.9,10.1,,
CWIJ,65.756,-111.246,30,8,9.20624,CWIJ 032000Z AUTO 03008KT 16/08 RMK AO1 SLP216 T01620081 51003,2024-08-03T20:00:00Z,16.2,8.1,,
CWII,50.695,-96.562,350,14,16.11092,CWII 032000Z AUTO 35014G19KT 21/11 RMK AO1 PK WND 35021/1903 SLP179 T02100113 55001,2024-08-03T20:00:00Z,21,11.3,,
CWIG,47.074,-70.533,230,12,13.809359999999998,CWIG 032000Z AUTO 23012KT RMK AO1 PK WND 23018/1932,2024-08-03T20:00:00Z,,,,
CWID,61.317,-117.605,360,3,3.4523399999999995,CWID 032000Z AUTO 36003KT 23/08 RMK AO1 SLP165 T02310082 55000,2024-08-03T20:00:00Z,23.1,8.2,,
CWHV,46.205,-70.785,290,3,3.4523399999999995,CWHV 032000Z AUTO 29003KT 30/20 RMK AO1 SLP060 T03040197 56009,2024-08-03T20:00:00Z,30.4,19.7,,
CWHT,60.773,-137.581,170,3,3.4523399999999995,CWHT 032000Z AUTO 17003KT 18/07 RMK AO1 SLP267 T01800072 58009,2024-08-03T20:00:00Z,18,7.2,,
CWHQ,46.691,-71.972,280,3,3.4523399999999995,CWHQ 032000Z AUTO 28003KT 26/23 RMK AO1 T02630226,2024-08-03T20:00:00Z,26.3,22.6,,
CWHL,54.172,-130.361,270,10,11.5078,CWHL 032000Z AUTO 27010KT 14/12 RMK AO1 SLP216 T01390122 56002,2024-08-03T20:00:00Z,13.9,12.2,,
CWGY,51.67,-110.206,120,15,17.261699999999998,CWGY 032000Z AUTO 12015KT 27/10 RMK AO1 PK WND 11022/1914 SLP166 T02680099 58023,2024-08-03T20:00:00Z,26.8,9.9,,
CWGW,49.745,-114.884,170,14,16.11092,CWGW 032000Z AUTO 17014G23KT 30/10 RMK AO1 PK WND 16023/1938 SLP129 T02980095 55020,2024-08-03T20:00:00Z,29.8,9.5,,
CWGT,49.487,-124.435,330,5,5.7539,CWGT 032000Z AUTO 33005KT 21/ RMK AO1 SLP173 T0211 58010,2024-08-03T20:00:00Z,21.1,,,
CWGR,47.425,-61.775,190,10,11.5078,CWGR 032000Z AUTO 19010KT 26/20 RMK AO1 SLP072 T02640197 58010,2024-08-03T20:00:00Z,26.4,19.7,,
CWGM,49.133,-113.806,220,13,14.960139999999999,CWGM 032000Z AUTO 22013G21KT 27/09 RMK AO1 PK WND 22021/1950 SLP149 T02690086 55013,2024-08-03T20:00:00Z,26.9,8.6,,
CWGL,44.55,-79.218,220,6,6.904679999999999,CWGL 032000Z AUTO 22006KT 27/22 RMK AO1 SLP088 T02670215 58006,2024-08-03T20:00:00Z,26.7,21.5,,
CWGH,44.417,-75.847,210,3,3.4523399999999995,CWGH 032000Z AUTO 21003KT 27/23 RMK AO1 SLP091 T02680229 58008,2024-08-03T20:00:00Z,26.8,22.9,,
CWGD,43.765,-81.712,310,7,8.05546,CWGD 032000Z AUTO 31007KT 25/20 RMK AO1 SLP122 T02460198 56002,2024-08-03T20:00:00Z,24.6,19.8,,
CWGB,49.336,-124.149,260,8,9.20624,CWGB 032000Z AUTO 26008KT 21/15 RMK AO1 SLP169 T02130154 58010,2024-08-03T20:00:00Z,21.3,15.4,,
CWFQ,45.05,-72.861,250,2,2.30156,CWFQ 032000Z AUTO 25002KT 29/22 RMK AO1 SLP079 T02850221 56008,2024-08-03T20:00:00Z,28.5,22.1,,
CWFJ,49.2,-113.278,20,4,4.60312,CWFJ 032000Z AUTO 02004KT 23/12 RMK AO1 SLP139 T02310118 58015,2024-08-03T20:00:00Z,23.1,11.8,,
CWFF,52.817,-104.601,60,6,6.904679999999999,CWFF 032000Z AUTO 06006KT 21/04 RMK AO1 SLP215 T02140036 58013,2024-08-03T20:00:00Z,21.4,3.6,,
CWEZ,48.783,-123.046,210,10,11.5078,CWEZ 032000Z AUTO 21010KT 20/12 RMK AO1 SLP176 T02020120 58007,2024-08-03T20:00:00Z,20.2,12,,
CWEW,45.809,-73.435,210,9,10.357019999999999,CWEW 032000Z AUTO 21009KT 31/23 RMK AO1 SLP064 T03140232 56007,2024-08-03T20:00:00Z,31.4,23.2,,
CWEU,79.989,-85.934,110,10,11.5078,CWEU 032000Z 11010KT 15SM -RA FEW009 FEW019 SCT038 OVC068 07/05 A2981 RMK ST1SC1SC3AS5 ST TR SC TR VIS LWR SW SLP102,2024-08-03T20:00:00Z,7,5,15,29.81
CWER,46.997,-70.808,250,11,12.658579999999999,CWER 032000Z AUTO 25011KT RMK AO1 PK WND 23021/1905,2024-08-03T20:00:00Z,,,,
CWEQ,52.115,-101.233,30,5,5.7539,CWEQ 032000Z AUTO 03005KT 22/07 RMK AO1 SLP210 T02220073 56009,2024-08-03T20:00:00Z,22.2,7.3,,
CWEP,46.46,-61.988,180,7,8.05546,CWEP 032000Z AUTO 18007KT 25/22 RMK AO1 SLP085 T02540215 56012,2024-08-03T20:00:00Z,25.4,21.5,,
CWEL,49.209,-123.808,100,4,4.60312,CWEL 032000Z AUTO 10004KT 21/16 RMK AO1 SLP171 T02110155 58009,2024-08-03T20:00:00Z,21.1,15.5,,
CWEK,54.58,-130.698,320,7,8.05546,CWEK 032000Z AUTO 32007KT 17/11 RMK AO1 SLP214 T01740112 57004,2024-08-03T20:00:00Z,17.4,11.2,,
CWEH,49.438,-108.989,130,16,18.41248,CWEH 032000Z AUTO 13016G22KT 27/06 RMK AO1 PK WND 12024/1919 SLP168 T02710061 58022,2024-08-03T20:00:00Z,27.1,6.1,,
CWEF,47.226,-60.141,90,3,3.4523399999999995,CWEF 032000Z AUTO 09003KT 23/20 RMK AO1 SLP084 T02250195 58010,2024-08-03T20:00:00Z,22.5,19.5,,
CWEB,49.383,-126.543,230,3,3.4523399999999995,CWEB 032000Z AUTO 23003KT 16/14 RMK AO1 SLP193 T01560139 50001,2024-08-03T20:00:00Z,15.6,13.9,,
CWDZ,51.445,-112.677,140,10,11.5078,CWDZ 032000Z AUTO 14010G16KT 31/12 RMK AO1 PK WND 14019/1911 SLP126 T03090117 56028,2024-08-03T20:00:00Z,30.9,11.7,,
CWDV,49.033,-90.467,50,5,5.7539,CWDV 032000Z AUTO 05005KT 22/14 RMK AO1 SLP154 T02240143 58009,2024-08-03T20:00:00Z,22.4,14.3,,
CWDQ,47.415,-72.788,170,6,6.904679999999999,CWDQ 032000Z AUTO 17006KT 23/19 RMK AO1 PK WND 14017/1935 SLP070 T02310194 53012,2024-08-03T20:00:00Z,23.1,19.4,,
CWDO,49.688,-54.8,210,4,4.60312,CWDO 032000Z AUTO 21004KT 28/16 RMK AO1 SLP070 T02810160 57003,2024-08-03T20:00:00Z,28.1,16,,
CWDM,50.465,-59.64,200,7,8.05546,CWDM 032000Z AUTO 20007KT 18/17 RMK AO1 SLP066 T01800171 56005,2024-08-03T20:00:00Z,18,17.1,,
CWDK,50.006,-113.631,120,6,6.904679999999999,CWDK 032000Z AUTO 12006KT 29/11 RMK AO1 SLP134 T02930114 56027,2024-08-03T20:00:00Z,29.3,11.4,,
CWDJ,50.408,-104.58,120,5,5.7539,CWDJ 032000Z AUTO 12005KT 26/07 RMK AO1 SLP197 T02570069 58012,2024-08-03T20:00:00Z,25.7,6.9,,
CWDC,59.56,-108.487,230,4,4.60312,CWDC 032000Z AUTO 23004KT 19/05 RMK AO1 SLP224 T01860052 57010,2024-08-03T20:00:00Z,18.6,5.2,,
CWDA,50.721,-56.113,100,5,5.7539,CWDA 032000Z AUTO 10005KT 18/15 RMK AO1 SLP085 T01840149 54000,2024-08-03T20:00:00Z,18.4,14.9,,
CWCT,52.074,-111.448,120,13,14.960139999999999,CWCT 032000Z AUTO 12013G20KT 29/07 RMK AO1 PK WND 12020/1905 SLP165 T02910073 58027,2024-08-03T20:00:00Z,29.1,7.3,,
CWCJ,48.588,-86.295,250,4,4.60312,CWCJ 032000Z AUTO 25004KT 23/14 RMK AO1 SLP135 T02300144 56004,2024-08-03T20:00:00Z,23,14.4,,
CWCF,52.36,-97.022,320,12,13.809359999999998,CWCF 032000Z AUTO 32012G20KT 20/10 RMK AO1 PK WND 31020/1958 SLP191 T01980097 58003,2024-08-03T20:00:00Z,19.8,9.7,,
CWBZ,45.121,-74.289,240,9,10.357019999999999,CWBZ 032000Z AUTO 24009KT 30/23 RMK AO1 SLP067 T02980233 58013,2024-08-03T20:00:00Z,29.8,23.3,,
CWBY,49.839,-64.293,240,9,10.357019999999999,CWBY 032000Z AUTO 24009KT 27/18 RMK AO1 SLP041 T02740175 55007,2024-08-03T20:00:00Z,27.4,17.5,,
CWBV,44.825,-62.338,220,10,11.5078,CWBV 032000Z AUTO 22010KT 18/18 RMK AO1 SLP109 T01800180 55005,2024-08-03T20:00:00Z,18,18,,
CWBU,53.333,-104.005,170,4,4.60312,CWBU 032000Z AUTO 17004KT 23/05 RMK AO1 SLP209 T02290050 58014,2024-08-03T20:00:00Z,22.9,5,,
CWBT,50.271,-64.226,140,3,3.4523399999999995,CWBT 032000Z AUTO 14003KT 22/17 RMK AO1 SLP041 T02240167 56009,2024-08-03T20:00:00Z,22.4,16.7,,
CWBS,46.189,-72.916,210,20,23.0156,CWBS 032000Z AUTO 21020KT 25/19 RMK AO1 PK WND 23038/1913 T02520193,2024-08-03T20:00:00Z,25.2,19.3,,
CWBO,50.55,-111.849,170,6,6.904679999999999,CWBO 032000Z AUTO 17006KT 32/14 RMK AO1 SLP130 T03170138 58027,2024-08-03T20:00:00Z,31.7,13.8,,
CWBK,45.764,-62.681,210,6,6.904679999999999,CWBK 032000Z AUTO 21006KT 27/22 RMK AO1 SLP086 T02700220 55011,2024-08-03T20:00:00Z,27,22,,
CWBA,46.71,-79.101,340,5,5.7539,CWBA 032000Z AUTO 34005KT 29/14 RMK AO1 T02920135,2024-08-03T20:00:00Z,29.2,13.5,,
CWAV,51.777,-114.681,40,3,3.4523399999999995,CWAV 032000Z AUTO 04003KT 21/11 RMK AO1 SLP163 T02140114 55006,2024-08-03T20:00:00Z,21.4,11.4,,
CWAR,47.294,-53.993,220,16,18.41248,CWAR 032000Z AUTO 22016KT 18/16 RMK AO1 PK WND 23021/1935 SLP136 T01790157 53004,2024-08-03T20:00:00Z,17.9,15.7,,
CWAQ,49.05,-105.483,50,8,9.20624,CWAQ 032000Z AUTO 05008G15KT 29/04 RMK AO1 SLP196 T02880040 57012,2024-08-03T20:00:00Z,28.8,4,,
CWAF,48.069,-69.556,250,2,2.30156,CWAF 032000Z AUTO 25002KT 20/17 RMK AO1 T01990167,2024-08-03T20:00:00Z,19.9,16.7,,
CWAE,50.129,-122.955,230,2,2.30156,CWAE 032000Z 23002KT 15SM FEW072 30/13 A3004 RMK CU1 WIND EST SLP157 DENSITY ALT 4200FT,2024-08-03T20:00:00Z,30,13,15,30.04
CTNK,45.533,-78.266,350,1,1.15078,CTNK 032000Z AUTO 35001KT 23/19 RMK AO1 SLP099 T02330186 55004,2024-08-03T20:00:00Z,23.3,18.6,,
CTCK,45.251,-74.963,220,5,5.7539,CTCK 032000Z AUTO 22005KT 30/24 RMK AO1 SLP065 T02960236 58013,2024-08-03T20:00:00Z,29.6,23.6,,
CPSV,49.92,-110.915,150,12,13.809359999999998,CPSV 032000Z AUTO 15012KT 31/09 RMK AO1 T03080090,2024-08-03T20:00:00Z,30.8,9,,
CPST,51.02,-113.27,140,8,9.20624,CPST 032000Z AUTO 14008KT 26/11 RMK AO1 T02610110,2024-08-03T20:00:00Z,26.1,11,,
CPRY,49.488,-112.674,90,4,4.60312,CPRY 032000Z AUTO 09004KT 28/11 RMK AO1 T02840111,2024-08-03T20:00:00Z,28.4,11.1,,
CPRO,50.826,-112.06,140,7,8.05546,CPRO 032000Z AUTO 14007KT 29/12 RMK AO1 T02900117,2024-08-03T20:00:00Z,29,11.7,,
CPIN,68.755,-114.94,300,21,24.166379999999997,CPIN 032000Z AUTO 30021KT ////SM ////// ///// A////,2024-08-03T20:00:00Z,,,,
CPFI,49.805,-112.037,140,7,8.05546,CPFI 032000Z AUTO 14007KT 31/11 RMK AO1 T03090112,2024-08-03T20:00:00Z,30.9,11.2,,
CMGB,45.373,-72.774,240,4,4.60312,CMGB 032000Z AUTO 24004KT 31/20 RMK AO1 SLP079 T03080203 56008,2024-08-03T20:00:00Z,30.8,20.3,,
CMFM,47.323,-71.148,210,5,5.7539,CMFM 032000Z AUTO 21005KT 23/20 RMK AO1 SLP078 T02250198 55001,2024-08-03T20:00:00Z,22.5,19.8,,
CERM,47.417,-68.325,260,5,5.7539,CERM 032000Z AUTO 26005KT 31/20 RMK AO1 SLP047 T03110198 56015,2024-08-03T20:00:00Z,31.1,19.8,,
CBBC,52.181,-128.154,350,6,6.904679999999999,CBBC 032000Z AUTO 35006KT 9SM CLR 22/14 A3009 RMK SLP190 DENSITY ALT 900FT,2024-08-03T20:00:00Z,22,14,9,30.09
CAHR,46.344,-63.17,200,9,10.357019999999999,CAHR 032000Z AUTO 20009KT 27/22 RMK AO1 SLP080 T02740220 56015,2024-08-03T20:00:00Z,27.4,22,,
BKPR,42.576,21.03,10,7,8.05546,BKPR 032000Z 01007KT CAVOK 17/16 Q1013 NOSIG,2024-08-03T20:00:00Z,17,16,6+,29.91
BIVM,63.424,-20.278,100,26,29.920279999999998,BIVM 032000Z 10026G36KT 9999 SCT010 SCT020 11/10 Q0992,2024-08-03T20:00:00Z,11,10,6+,29.29
BIRK,64.129,-21.941,90,20,23.0156,BIRK 032000Z 09020G31KT 9999 SCT040 15/06 Q0993,2024-08-03T20:00:00Z,15,6,6+,29.32
BIKF,63.987,-22.614,120,13,14.960139999999999,BIKF 032000Z 12013KT 9999 FEW031 BKN041 12/09 Q0994,2024-08-03T20:00:00Z,12,9,6+,29.35
BIEG,65.275,-14.409,350,8,9.20624,BIEG 032000Z 35008KT 9999 FEW015 SCT036 11/09 Q1001,2024-08-03T20:00:00Z,11,9,6+,29.56
BIAR,65.655,-18.069,40,7,8.05546,BIAR 032000Z 04007KT 9999 BKN052 14/08 Q1000,2024-08-03T20:00:00Z,14,8,6+,29.53
AYPY,-9.443,147.216,140,7,8.05546,AYPY 032000Z 14007KT 9999 FEW030 22/19 Q1012,2024-08-03T20:00:00Z,22,19,6+,29.88
RODE,26.718,127.783,,,,RODE 031959Z AUTO A2977 RMK AO2 SLPNO PWINO TSNO $,2024-08-03T19:59:00Z,,,,29.77
PASD,55.318,-160.525,30,8,9.20624,PASD 031959Z 03008G27KT 350V080 10SM -DZ SCT013 BKN027 OVC045 11/10 A3012 RMK AO2 WIND REPORTED HIGHER WITH NE WIND DIRECTION P0000 $,2024-08-03T19:59:00Z,11,10,10+,30.12
MUCF,22.159,-80.41,180,7,8.05546,MUCF 031959Z AUTO 18007G18KT 140V210 25/24 Q1012,2024-08-03T19:59:00Z,25,24,,29.88
KOXD,39.5047,-84.7838,330,7,8.05546,KOXD 031959Z AUTO 33007KT 10SM SCT038 31/20 A2993 RMK AO2,2024-08-03T19:59:00Z,31,20,10+,29.93
KNGU,36.937,-76.281,210,18,20.714039999999997,KNGU 031959Z 21018G27KT 8SM BKN045 BKN250 34/24 A2987 RMK AO2 PK WND 22027/1957 SLP116 T03390239,2024-08-03T19:59:00Z,33.9,23.9,8,29.87
KAID,40.1061,-85.6097,340,7,8.05546,KAID 031959Z 340007KT 10SM SCT042 SCT048 29/18 A2996,2024-08-03T19:59:00Z,29,18,10+,29.96
K2V6,40.1047,-102.713,90,7,8.05546,K2V6 031959Z AUTO 09007KT 10SM CLR 33/09 A3018 RMK AO2,2024-08-03T19:59:00Z,33,9,10+,30.18
PADG,68.028,-162.911,110,13,14.960139999999999,PADG 031958Z 11013G22KT 5SM BR OVC009 09/08 A2986,2024-08-03T19:58:00Z,9,8,5,29.86
KROG,36.3749,-94.1078,0,0,0.0,KROG 031958Z 00000KT 10SM SCT065 33/17 A3005 RMK AO2 SLP160 T03280172,2024-08-03T19:58:00Z,32.8,17.2,10+,30.05
KPRN,31.8467,-86.6141,360,9,10.357019999999999,KPRN 031958Z AUTO 36009KT 10SM CLR 34/22 A2990 RMK AO2 SLP069 T03390217,2024-08-03T19:58:00Z,33.9,21.7,10+,29.90
KMRH,34.7326,-76.6566,190,14,16.11092,KMRH 031958Z AUTO 19014G23KT 10SM CLR 31/24 A2999 RMK AO2 LTG DSNT W RAB1859E11 SLP156 P0000 T03060244,2024-08-03T19:58:00Z,30.6,24.4,10+,29.99
KMEI,32.3348,-88.7507,330,6,6.904679999999999,KMEI 031958Z 33006KT 10SM CLR 34/20 A2991 RMK AO2 SLP123 T03440200,2024-08-03T19:58:00Z,34.4,20,10+,29.91
KDUB,43.5485,-109.684,120,10,11.5078,KDUB 031958Z AUTO 12010G15KT 10SM CLR 31/M02 A3035 RMK AO2,2024-08-03T19:58:00Z,31,-2,10+,30.35
KBKF,39.713,-104.758,20,9,10.357019999999999,KBKF 031958Z 02009G22KT 10SM FEW090 FEW220 34/M00 A3026 RMK AO2A SLP145 T03441003,2024-08-03T19:58:00Z,34.4,-0.3,10+,30.26
KBCR,30.8432,-85.6043,180,5,5.7539,KBCR 031958Z AUTO 18005KT 10SM CLR 34/24 A2990 RMK AO2 SLP082 T03440244,2024-08-03T19:58:00Z,34.4,24.4,10+,29.90
KARA,30.0292,-91.8845,360,7,8.05546,KARA 031958Z 36007KT 8SM TSRA SCT045 SCT060 BKN090 32/26 A2990 RMK AO2 LTG DSNT SE-SW RAB55 TSB58 P0004 T03220261,2024-08-03T19:58:00Z,32.2,26.1,8,29.90
K79J,31.3061,-86.3902,200,8,9.20624,K79J 031958Z AUTO 20008KT 3SM RA BR SCT043 SCT080 OVC110 24/22 A2992 RMK AO2 P0000 T02440222 TSNO,2024-08-03T19:58:00Z,24.4,22.2,3,29.92
PAJC,56.312,-158.374,40,4,4.60312,PAJC 031957Z AUTO 04004KT 1 1/2SM -RA BR BKN006 OVC014 11/10 A3023 RMK AO2 CIG 005V010 SLP238 P0006 T01060100,2024-08-03T19:57:00Z,10.6,10,1.5,30.23
KNYL,32.66,-114.608,0,0,0.0,KNYL 031957Z AUTO 00000KT 10SM 44/16 A2980 RMK AO2 SLP086 T04390156 $,2024-08-03T19:57:00Z,43.9,15.6,10+,29.80
KNJW,32.792,-88.832,280,8,9.20624,KNJW 031957Z AUTO 28008KT 10SM BKN055 BKN080 34/19 A2995 RMK AO2 SLP055 T03390194 $,2024-08-03T19:57:00Z,33.9,19.4,10+,29.95
KNJM,34.694,-77.029,190,16,18.41248,KNJM 031957Z AUTO 19016KT 6SM HZ CLR 30/26 A2999 RMK AO2 PK WND 20026/1911 TSB1841B1848B1854E05 SLP158 T03000256,2024-08-03T19:57:00Z,30,25.6,6,29.99
KMNM,45.126,-87.639,140,7,8.05546,KMNM 031957Z AUTO 14007KT 10SM CLR 28/16 A2997 RMK AO2 SLP159 T02830161 PNO $,2024-08-03T19:57:00Z,28.3,16.1,10+,29.97
KFLG,35.1443,-111.666,110,6,6.904679999999999,KFLG 031957Z 11006KT 10SM CLR 26/11 A3039 RMK AO2 LTG DSNT NW-NE SLP180 T02560106,2024-08-03T19:57:00Z,25.6,10.6,10+,30.39
EQYR,36.647,-6.347,280,3,3.4523399999999995,EQYR 031957Z AUTO 28003KT 10SM CLR 22/19 A2989 RMK AO2 SLP121 T02220194 $,2024-08-03T19:57:00Z,22.2,19.4,10+,29.89
EQYG,35.53,24.15,310,8,9.20624,EQYG 031957Z AUTO 31008KT 10SM CLR 28/17 A2979 RMK AO2 SLP077 T02830172 PWINO $ ,2024-08-03T19:57:00Z,28.3,17.2,10+,29.79
TJSJ,18.4326,-66.0107,80,16,18.41248,TJSJ 031956Z 08016KT 10SM FEW027 FEW065 SCT110 32/26 A2997 RMK AO2 PK WND 07026/1942 SLP147 VCSH SW T03170256 $,2024-08-03T19:56:00Z,31.7,25.6,10+,29.97
ROTM,26.271,127.754,10,3,3.4523399999999995,ROTM 031956Z 01003KT 10SM FEW020 SCT030 28/27 A2974 RMK AO2 SLP064 T02780272 PNO $,2024-08-03T19:56:00Z,27.8,27.2,10+,29.74
RJOI,34.144,132.236,300,3,3.4523399999999995,RJOI 031956Z 30003KT 9999 FEW015 SCT040 BKN050 31/26 A2977 RMK AO2 SLP079 T03060256,2024-08-03T19:56:00Z,30.6,25.6,6+,29.77
PPIZ,69.735,-163.003,120,8,9.20624,PPIZ 031956Z AUTO 12008KT 7SM -RA BKN049 OVC095 08/08 A2981 RMK AO2 SLP099 P0001 T00830078,2024-08-03T19:56:00Z,8.3,7.8,7,29.81
PPIT,60.905,-162.443,190,18,20.714039999999997,PPIT 031956Z AUTO 19018G22KT 10SM OVC020 12/08 A3011 RMK AO2 PK WND 19026/1915 SLP195 T01170083 TSNO PNO $,2024-08-03T19:56:00Z,11.7,8.3,10+,30.11
PHNY,20.783,-156.955,VRB,5,5.7539,PHNY 031956Z AUTO VRB05KT 10SM BKN027 BKN035 26/19 A3015 RMK AO2 SLP187 T02610189,2024-08-03T19:56:00Z,26.1,18.9,10+,30.15
PFZK,60.9156,-161.488,180,13,14.960139999999999,PFZK 031956Z AUTO 18013G18KT 10SM FEW024 13/07 A3012 RMK AO2 SLP196 T01330072,2024-08-03T19:56:00Z,13.3,7.2,10+,30.12
PFYU,66.572,-145.243,250,5,5.7539,PFYU 031956Z 25005KT 10SM FEW030 14/07 A3023 RMK AO2 SLP246 T01390072,2024-08-03T19:56:00Z,13.9,7.2,10+,30.23
PFWS,58.704,-157.005,190,7,8.05546,PFWS 031956Z AUTO 19007KT 9SM CLR 15/09 A3025 RMK AO2 SLP287 T01500089 PNO $,2024-08-03T19:56:00Z,15,8.9,9,30.25
PFTO,63.329,-142.954,110,6,6.904679999999999,PFTO 031956Z AUTO 11006KT 10SM CLR 14/06 A3027 RMK AO2 SLP893 T01440061 $,2024-08-03T19:56:00Z,14.4,6.1,10+,30.27
PFSH,64.367,-161.217,190,24,27.618719999999996,PFSH 031956Z AUTO 19024G27KT 10SM OVC015 12/09 A3004 RMK AO2 PK WND 20029/1933 RAB02E13 SLP171 P0000 T01170094,2024-08-03T19:56:00Z,11.7,9.4,10+,30.04
PFKW,60.793,-161.44,190,15,17.261699999999998,PFKW 031956Z AUTO 19015KT 10SM CLR 14/08 A3012 RMK AO2 SLP200 T01440083,2024-08-03T19:56:00Z,14.4,8.3,10+,30.12
PFKT,65.33,-166.479,180,19,21.864819999999998,PFKT 031956Z AUTO 18019KT 10SM OVC011 09/08 A2983 RMK AO2 PK WND 17029/1939 SLP102 T00890078,2024-08-03T19:56:00Z,8.9,7.8,10+,29.83
PFCL,58.837,-158.526,160,12,13.809359999999998,PFCL 031956Z AUTO 16012KT 10SM FEW015 14/11 A3022 RMK AO2 SLP228 T01390106 TSNO,2024-08-03T19:56:00Z,13.9,10.6,10+,30.22
PAZK,61.938,-147.169,220,6,6.904679999999999,PAZK 031956Z AUTO 22006KT 10SM -RA FEW036 BKN044 OVC055 09/06 A3031 RMK AO2 SLP288 P0000 T00940061 $,2024-08-03T19:56:00Z,9.4,6.1,10+,30.31
PAWG,56.486,-132.377,270,5,5.7539,PAWG 031956Z 27005KT 10SM FEW040 SCT120 21/11 A3023,2024-08-03T19:56:00Z,21,11,10+,30.23
PAVD,61.133,-146.251,290,3,3.4523399999999995,PAVD 031956Z 29003KT 10SM FEW024 SCT047 OVC075 14/11 A3041 RMK AO2 SLP295 T01390111 $,2024-08-03T19:56:00Z,13.9,11.1,10+,30.41
PAVA,61.537,-165.604,180,22,25.317159999999998,PAVA 031956Z AUTO 18022G28KT 10SM OVC012 09/07 A2999 RMK AO2 PK WND 18031/1940 SLP159 T00940072 PNO $,2024-08-03T19:56:00Z,9.4,7.2,10+,29.99
PAUN,63.885,-160.794,140,8,9.20624,PAUN 031956Z AUTO 14008KT 10SM FEW002 13/09 A3007 RMK AO2 SLP186 T01280089 PNO $,2024-08-03T19:56:00Z,12.8,8.9,10+,30.07
PATQ,70.469,-157.428,170,12,13.809359999999998,PATQ 031956Z AUTO 17012KT 10SM -RA BKN044 11/06 A2987 RMK AO2 RAB37 SLP118 P0000 T01060061 TSNO,2024-08-03T19:56:00Z,10.6,6.1,10+,29.87
PATG,59.051,-160.398,110,11,12.658579999999999,PATG 031956Z AUTO 11011KT 10SM BKN019 13/11 A3020 RMK AO2 SLP228 T01280106,2024-08-03T19:56:00Z,12.8,10.6,10+,30.20
PASX,60.476,-151.053,280,10,11.5078,PASX 031956Z AUTO 28010KT 10SM OVC016 13/10 A3036 RMK AO2 SLP285 T01330100,2024-08-03T19:56:00Z,13.3,10,10+,30.36
PASM,62.057,-163.298,180,13,14.960139999999999,PASM 031956Z AUTO 18013G22KT 10SM OVC012 09/07 A3008 RMK AO2 SLP191 T00940072,2024-08-03T19:56:00Z,9.4,7.2,10+,30.08
PASL,61.697,-157.167,160,10,11.5078,PASL 031956Z AUTO 16010G16KT 140V210 10SM SCT018 14/09 A3024 RMK AO2 SLP231 T01390094,2024-08-03T19:56:00Z,13.9,9.4,10+,30.24
PASH,66.252,-166.084,180,20,23.0156,PASH 031956Z AUTO 18020KT 4SM -RA BR BKN016 BKN024 OVC029 09/08 A2981 RMK AO2 RAB36 SLP095 P0000 T00940083,2024-08-03T19:56:00Z,9.4,8.3,4,29.81
PASA,63.689,-170.49,180,22,25.317159999999998,PASA 031956Z AUTO 18022G33KT 8SM SCT005 OVC040 09/07 A2962 RMK AO2 PK WND 18033/1952 WSHFT 1919 SLPNO P0001 T00890067,2024-08-03T19:56:00Z,8.9,6.7,8,29.62
PARY,64.731,-155.463,220,5,5.7539,PARY 031956Z AUTO 22005KT 10SM BKN013 OVC019 11/10 A3015 RMK AO2 RAB18E56 SLP217 P0000 T01060100 TSNO,2024-08-03T19:56:00Z,10.6,10,10+,30.15
PARS,61.78,-161.321,170,9,10.357019999999999,PARS 031956Z AUTO 17009KT 10SM OVC018 12/08 A3013 RMK AO2 SLP205 T01170083 $,2024-08-03T19:56:00Z,11.7,8.3,10+,30.13
PAQH,59.751,-161.842,170,14,16.11092,PAQH 031956Z AUTO 17014KT 10SM FEW027 14/10 A3014 RMK AO2 SLP206 T01440100,2024-08-03T19:56:00Z,14.4,10,10+,30.14
PAPO,68.345,-166.807,160,12,13.809359999999998,PAPO 031956Z AUTO 16012KT 1 1/4SM BR OVC004 08/08 A2978 RMK AO2 RAE55 CIG 002V006 SLP083 P0000 T00830083,2024-08-03T19:56:00Z,8.3,8.3,1.25,29.78
PAPH,56.959,-158.631,150,24,27.618719999999996,PAPH 031956Z AUTO 15024G28KT 10SM OVC065 14/08 A3015 RMK AO2 PK WND 15028/1956 SLP210 P0013 T01440083 $,2024-08-03T19:56:00Z,14.4,8.3,10+,30.15
PAPG,56.805,-132.935,100,6,6.904679999999999,PAPG 031956Z 10006KT 10SM CLR 15/10 A3026 RMK AO2 SLP248 T01500100,2024-08-03T19:56:00Z,15,10,10+,30.26
PAPE,55.9096,-159.16,60,8,9.20624,PAPE 031956Z AUTO 06008KT 8SM OVC017 12/09 A3017 RMK AO2 SLP215 T01220089,2024-08-03T19:56:00Z,12.2,8.9,8,30.17
PANW,59.451,-157.325,100,7,8.05546,PANW 031956Z AUTO 10007KT 10SM BKN012 12/10 A3026 RMK AO2 SLP252 T01220100 $,2024-08-03T19:56:00Z,12.2,10,10+,30.26
PANU,64.7304,-158.075,210,8,9.20624,PANU 031956Z AUTO 21008G18KT 160V240 10SM OVC006 10/09 A3011 RMK AO2 RAE03 SLP105 P0000 T01000089,2024-08-03T19:56:00Z,10,8.9,10+,30.11
PANI,61.578,-159.539,170,7,8.05546,PANI 031956Z AUTO 17007KT 10SM FEW013 15/09 A3014 RMK AO2 SLP210 T01500094 $,2024-08-03T19:56:00Z,15,9.4,10+,30.14
PANA,60.694,-161.978,190,13,14.960139999999999,PANA 031956Z AUTO 19013G19KT 9SM OVC021 13/09 A3013 RMK AO2 SLP201 T01280089 TSNO,2024-08-03T19:56:00Z,12.8,8.9,9,30.13
PAMY,60.376,-166.262,170,28,32.22184,PAMY 031956Z AUTO 17028G36KT 10SM OVC011 09/07 A2994 RMK AO2 PK WND 16037/1938 SLP138 T00940072 TSNO PNO $,2024-08-03T19:56:00Z,9.4,7.2,10+,29.94
PAMO,62.095,-163.686,170,23,26.46794,PAMO 031956Z AUTO 17023G29KT 10SM OVC013 09/07 A3004 RMK AO2 PK WND 17029/1953 SLP176 T00940072,2024-08-03T19:56:00Z,9.4,7.2,10+,30.04
PAMK,63.484,-162.115,190,20,23.0156,PAMK 031956Z AUTO 19020G25KT 10SM OVC014 11/08 A3004 RMK AO2 PK WND 19027/1921 RAB01E17 SLP175 P0000 T01060078,2024-08-03T19:56:00Z,10.6,7.8,10+,30.04
PAMH,63.889,-152.292,200,4,4.60312,PAMH 031956Z AUTO 20004KT 10SM FEW015 OVC070 12/11 A3023 RMK AO2 SLP236 T01170106 TSNO PNO $,2024-08-03T19:56:00Z,11.7,10.6,10+,30.23
PAMD,59.442,-146.317,270,8,9.20624,PAMD 031956Z AUTO 27008KT 230V300 OVC023 13/10 A3036 RMK AO2 SLP283 T01330100 PWINO $,2024-08-03T19:56:00Z,13.3,10,,30.36
PAMB,58.986,-159.05,130,8,9.20624,PAMB 031956Z AUTO 13008G16KT 4SM HZ BKN014 13/09 A3023 RMK AO2 SLP240 T01280094,2024-08-03T19:56:00Z,12.8,9.4,4,30.23
PALG,61.538,-160.34,VRB,3,3.4523399999999995,PALG 031956Z AUTO VRB03KT 10SM FEW017 14/09 A3013 RMK AO2 SLP206 T01390094 PNO $,2024-08-03T19:56:00Z,13.9,9.4,10+,30.13
PAKP,68.136,-151.74,220,10,11.5078,PAKP 031956Z AUTO 22010KT 10SM OVC031 07/04 A2977 RMK AO2 PRESRR SLP110 T00720044,2024-08-03T19:56:00Z,7.2,4.4,10+,29.77
PAKI,59.935,-164.033,180,20,23.0156,PAKI 031956Z AUTO 18020G27KT 10SM OVC014 10/08 A3006 RMK AO2 PK WND 19028/1858 SLP180 T01000078 PNO $,2024-08-03T19:56:00Z,10,7.8,10+,30.06
PAKF,54.85,-163.409,170,11,12.658579999999999,PAKF 031956Z AUTO 17011KT 9SM OVC014 11/09 A3007 RMK AO2 RAB40E50 SLP182 P0000 T01060089,2024-08-03T19:56:00Z,10.6,8.9,9,30.07
PAIN,63.733,-148.912,0,0,0.0,PAIN 031956Z AUTO 00000KT 10SM -RA FEW038 BKN046 OVC065 11/08 A3029 RMK AO2 SLP272 P0000 T01060083,2024-08-03T19:56:00Z,10.6,8.3,10+,30.29
PAIK,66.975,-160.439,160,8,9.20624,PAIK 031956Z AUTO 16008KT 10SM FEW016 BKN023 OVC039 11/09 A2997 RMK AO2 SLP149 T01110094,2024-08-03T19:56:00Z,11.1,9.4,10+,29.97
PAII,58.186,-157.375,140,15,17.261699999999998,PAII 031956Z AUTO 14015KT 10SM CLR 14/09 A3023 RMK AO2 SLP235 T01440089,2024-08-03T19:56:00Z,14.4,8.9,10+,30.23
PAIG,59.325,-155.897,70,7,8.05546,PAIG 031956Z AUTO 07007KT 10SM CLR 13/11 A3025 RMK AO2 SLP251 T01330111,2024-08-03T19:56:00Z,13.3,11.1,10+,30.25
PAHY,55.202,-132.825,310,8,9.20624,PAHY 031956Z AUTO 31008KT 10SM CLR 20/09 A3020 RMK AO2 SLP222 T02000094 PNO $,2024-08-03T19:56:00Z,20,9.4,10+,30.20
PAHC,62.191,-159.773,180,7,8.05546,PAHC 031956Z AUTO 18007G14KT 10SM OVC020 13/08 A3015 RMK AO2 SLP215 T01330083,2024-08-03T19:56:00Z,13.3,8.3,10+,30.15
PAGN,57.502,-134.589,VRB,3,3.4523399999999995,PAGN 031956Z AUTO VRB03KT 10SM CLR 16/11 A3028 RMK AO2 SLP243 P0001 T01560111,2024-08-03T19:56:00Z,15.6,11.1,10+,30.28
PAGL,64.548,-163.013,200,22,25.317159999999998,PAGL 031956Z AUTO 20022G29KT 6SM BR OVC010 10/09 A2998 RMK AO2 PK WND 19030/1902 RAE18 SLP148 P0000 T01000094,2024-08-03T19:56:00Z,10,9.4,6,29.98
PAGH,66.886,-157.159,110,11,12.658579999999999,PAGH 031956Z AUTO 11011KT 10SM OVC013 11/10 A3005 RMK AO2 SLP180 T01060100,2024-08-03T19:56:00Z,10.6,10,10+,30.05
PAGA,64.738,-156.92,170,7,8.05546,PAGA 031956Z AUTO 17007KT 10SM SCT026 BKN035 OVC100 12/09 A3012 RMK AO2 RAE09B33E53 SLP200 P0000 T01170094 TSNO $,2024-08-03T19:56:00Z,11.7,9.4,10+,30.12
PAFM,67.106,-157.858,130,13,14.960139999999999,PAFM 031956Z AUTO 13013G18KT 4SM -RA BR OVC004 10/09 A3005 RMK AO2 RAB28 CIG 003V008 SLP181 P0001 T01000094,2024-08-03T19:56:00Z,10,9.4,4,30.05
PAFE,56.961,-133.91,260,7,8.05546,PAFE 031956Z AUTO 26007KT 10SM CLR 16/11 A3028 RMK AO2 SLP258 T01610106,2024-08-03T19:56:00Z,16.1,10.6,10+,30.28
PADU,53.896,-166.543,130,14,16.11092,PADU 031956Z 13014G18KT 10SM BKN025 BKN034 11/06 A3001 RMK AO2 SLP160 T01110061 $,2024-08-03T19:56:00Z,11.1,6.1,10+,30.01
PADM,61.865,-162.033,190,16,18.41248,PADM 031956Z AUTO 19016G22KT 10SM OVC017 11/08 A3015 RMK AO2 SLP214 T01110083,2024-08-03T19:56:00Z,11.1,8.3,10+,30.15
PADL,59.04,-158.507,VRB,5,5.7539,PADL 031956Z VRB05KT 10SM BKN018 14/09 A3023 RMK AO2 SLP240 T01390094,2024-08-03T19:56:00Z,13.9,9.4,10+,30.23
PACX,67.252,-150.204,150,3,3.4523399999999995,PACX 031956Z AUTO 15003KT 10SM -RA OVC025 09/08 A3017 RMK AO2 RAB49 SLP842 P0000 T00890078,2024-08-03T19:56:00Z,8.9,7.8,10+,30.17
PACM,61.846,-165.579,150,21,24.166379999999997,PACM 031956Z AUTO 15021G30KT 10SM OVC011 10/08 A2996 RMK AO2 PK WND 14032/1917 SLP144 T01000083,2024-08-03T19:56:00Z,10,8.3,10+,29.96
PABV,61.416,-149.511,310,3,3.4523399999999995,PABV 031956Z AUTO 31003KT 10SM BKN100 14/10 A3035 RMK AO2 SLP278 T01390100,2024-08-03T19:56:00Z,13.9,10,10+,30.35
PABL,65.979,-161.146,150,12,13.809359999999998,PABL 031956Z AUTO 15012G19KT 10SM -RA FEW023 OVC040 11/09 A2994 RMK AO2 RAB27 SLP140 P0001 T01110094,2024-08-03T19:56:00Z,11.1,9.4,10+,29.94
PAAK,52.219,-174.208,70,4,4.60312,PAAK 031956Z AUTO 07004KT 10SM -RA OVC003 09/09 A2983 RMK AO2 RAB28 CIG 002V008 SLP101 T00890089 TSNO PNO $,2024-08-03T19:56:00Z,8.9,8.9,10+,29.83
KYKN,42.9142,-97.3807,200,13,14.960139999999999,KYKN 031956Z AUTO 20013KT 10SM CLR 34/18 A2997 RMK AO2 SLP145 T03440178 $,2024-08-03T19:56:00Z,34.4,17.8,10+,29.97
KY50,44.0435,-89.304,VRB,4,4.60312,KY50 031956Z AUTO VRB04KT 10SM CLR 29/16 A2998 RMK AO2 SLP142 T02940156 $,2024-08-03T19:56:00Z,29.4,15.6,10+,29.98
KWWD,39.0108,-74.9079,180,9,10.357019999999999,KWWD 031956Z AUTO 18009KT 10SM CLR 31/24 A2983 RMK AO2 SLP101 T03060244,2024-08-03T19:56:00Z,30.6,24.4,10+,29.83
KWVL,44.5301,-69.6753,210,6,6.904679999999999,KWVL 031956Z AUTO 21006KT 10SM CLR 27/21 A2973 RMK AO2 SLP091 T02720211,2024-08-03T19:56:00Z,27.2,21.1,10+,29.73
KWMC,40.9018,-117.808,0,0,0.0,KWMC 031956Z AUTO 00000KT 10SM CLR 34/06 A3007 RMK AO2 SLP116 T03440061,2024-08-03T19:56:00Z,34.4,6.1,10+,30.07
KWJF,34.7412,-118.213,270,7,8.05546,KWJF 031956Z 27007G18KT 10SM CLR 38/04 A3001 RMK AO2 SLP134 T03830039,2024-08-03T19:56:00Z,38.3,3.9,10+,30.01
KVPZ,41.4535,-86.998,10,5,5.7539,KVPZ 031956Z AUTO 01005KT 10SM CLR 32/19 A2995 RMK AO2 SLP135 T03170189,2024-08-03T19:56:00Z,31.7,18.9,10+,29.95
KVIS,36.3135,-119.388,230,5,5.7539,KVIS 031956Z AUTO 23005KT 10SM CLR 34/16 A2992 RMK AO2 SLP129 T03440161,2024-08-03T19:56:00Z,34.4,16.1,10+,29.92
KVBT,36.3444,-94.2211,30,9,10.357019999999999,KVBT 031956Z AUTO 03009G14KT 10SM CLR 33/17 A3006 RMK AO2 SLP165 T03280172,2024-08-03T19:56:00Z,32.8,17.2,10+,30.06
KUKI,39.1278,-123.2,130,6,6.904679999999999,KUKI 031956Z AUTO 13006KT 10SM CLR 36/11 A2991 RMK AO2 SLP118 T03610106,2024-08-03T19:56:00Z,36.1,10.6,10+,29.91
KUDG,34.4474,-79.8902,190,16,18.41248,KUDG 031956Z AUTO 19016G19KT 10SM SCT038 32/24 A2989 RMK AO2 LTG DSNT NW SLP122 T03170244,2024-08-03T19:56:00Z,31.7,24.4,10+,29.89
KUCP,41.0228,-80.4153,340,5,5.7539,KUCP 031956Z AUTO 34005KT 10SM FEW022 25/21 A2989 RMK AO2 SLP129 T02500211 PNO $,2024-08-03T19:56:00Z,25,21.1,10+,29.89
KTVF,48.0597,-96.1787,90,3,3.4523399999999995,KTVF 031956Z AUTO 09003KT 10SM -RA BKN120 22/20 A2994 RMK AO2 LTG DSNT E-SW TSE52 SLP136 T02170200 PNO $,2024-08-03T19:56:00Z,21.7,20,10+,29.94
KTPH,38.0505,-117.091,160,9,10.357019999999999,KTPH 031956Z AUTO 16009G24KT 10SM SCT095 31/09 A3020 RMK AO2 SLP137 T03110089,2024-08-03T19:56:00Z,31.1,8.9,10+,30.20
KSUE,44.847,-87.425,10,5,5.7539,KSUE 031956Z AUTO 01005KT 10SM CLR 28/13 A2998 RMK AO2 SLP146 T02830133,2024-08-03T19:56:00Z,28.3,13.3,10+,29.98
KSRC,35.2134,-91.7393,VRB,5,5.7539,KSRC 031956Z AUTO VRB05KT 10SM BKN047 32/22 A2998 RMK AO2 SLP149 T03220217 $,2024-08-03T19:56:00Z,32.2,21.7,10+,29.98
KSQI,41.7432,-89.6655,VRB,6,6.904679999999999,KSQI 031956Z AUTO VRB06KT 10SM BKN045 BKN065 BKN080 32/24 A2995 RMK AO2 SLP006 T03170239 PNO $,2024-08-03T19:56:00Z,31.7,23.9,10+,29.95
KSMP,47.2764,-121.338,VRB,5,5.7539,KSMP 031956Z AUTO VRB05KT 10SM CLR 22/16 A3016 N REQ SEAMTRSMP,2024-08-03T19:56:00Z,22,16,10+,30.16
KSMN,45.1283,-113.883,340,3,3.4523399999999995,KSMN 031956Z AUTO 34003KT 8SM CLR 33/08 A3003 RMK AO2 SLP128 T03280078,2024-08-03T19:56:00Z,32.8,7.8,8,30.03
KSLG,36.1941,-94.488,VRB,5,5.7539,KSLG 031956Z AUTO VRB05KT 9SM FEW070 33/17 A3004 RMK AO2 SLP158 T03330167,2024-08-03T19:56:00Z,33.3,16.7,9,30.04
KSLE,44.9049,-123.001,10,8,9.20624,KSLE 031956Z 01008KT 10SM CLR 27/12 A3002 RMK AO2 SLP163 T02670122,2024-08-03T19:56:00Z,26.7,12.2,10+,30.02
KSKX,36.4584,-105.675,330,8,9.20624,KSKX 031956Z AUTO 33008KT 10SM FEW120 31/07 A3036 RMK AO2 LTG DSNT E AND SE SLP193 T03110072,2024-08-03T19:56:00Z,31.1,7.2,10+,30.36
KSHV,32.4473,-93.8244,60,8,9.20624,KSHV 031956Z 06008KT 10SM SCT055 SCT250 37/23 A2992 RMK CB DSNT S-SW SLPNO,2024-08-03T19:56:00Z,37,23,10+,29.92
KSGU,37.0444,-113.503,280,6,6.904679999999999,KSGU 031956Z AUTO 28006KT 10SM CLR 37/13 A3001 RMK AO2 SLP122 T03670133,2024-08-03T19:56:00Z,36.7,13.3,10+,30.01
KSGT,34.5998,-91.5763,VRB,4,4.60312,KSGT 031956Z AUTO VRB04KT 10SM SCT043 32/21 A2998 RMK AO2 SLP149 T03170211 $,2024-08-03T19:56:00Z,31.7,21.1,10+,29.98
KSGJ,29.9592,-81.341,140,11,12.658579999999999,KSGJ 031956Z 14011KT 10SM FEW017 30/26 A2998 RMK AO2 SLP151 T03000261,2024-08-03T19:56:00Z,30,26.1,10+,29.98
KSGH,39.8358,-83.8443,340,8,9.20624,KSGH 031956Z AUTO 34008KT 10SM SCT036 BKN047 OVC075 28/21 A2992 RMK AO2 LTG DSNT E SLP123 T02780211,2024-08-03T19:56:00Z,27.8,21.1,10+,29.92
KSFZ,41.9168,-71.4924,250,8,9.20624,KSFZ 031956Z AUTO 25008KT 190V270 CLR 31/24 A2981 RMK AO2 SLP091 T03110239 PWINO $,2024-08-03T19:56:00Z,31.1,23.9,,29.81
KSFO,37.6196,-122.366,320,13,14.960139999999999,KSFO 031956Z 32013KT 10SM FEW008 FEW200 21/14 A2995 RMK AO2 SLP143 T02060139,2024-08-03T19:56:00Z,20.6,13.9,10+,29.95
KSDY,47.7029,-104.195,30,11,12.658579999999999,KSDY 031956Z AUTO 03011KT 10SM CLR 29/14 A3008 RMK AO2 SLP174 T02890139,2024-08-03T19:56:00Z,28.9,13.9,10+,30.08
KSDF,38.1774,-85.7308,340,5,5.7539,KSDF 031956Z 34005KT 10SM SCT043 BKN060 31/21 A2991 RMK AO2 SLP122 T03110206,2024-08-03T19:56:00Z,31.1,20.6,10+,29.91
KSBP,35.2382,-120.644,310,8,9.20624,KSBP 031956Z 31008KT 10SM CLR 30/14 A2995 RMK AO2 SLP137 T03000144,2024-08-03T19:56:00Z,30,14.4,10+,29.95
KRUT,43.53,-72.9517,260,5,5.7539,KRUT 031956Z AUTO 26005KT 10SM CLR 28/22 A2981 RMK AO2 SLP085 T02830222 $,2024-08-03T19:56:00Z,28.3,22.2,10+,29.81
KRKD,44.0611,-69.1014,120,4,4.60312,KRKD 031956Z AUTO 12004KT 10SM SCT065 25/22 A2975 RMK AO2 SLP073 T02500222,2024-08-03T19:56:00Z,25,22.2,10+,29.75
KRDM,44.2558,-121.141,270,5,5.7539,KRDM 031956Z AUTO 27005KT 10SM CLR 31/10 A3009 RMK AO2 SLP151 T03110100 $,2024-08-03T19:56:00Z,31.1,10,10+,30.09
KPWT,47.4942,-122.759,230,5,5.7539,KPWT 031956Z AUTO 23005KT 10SM CLR 23/15 A3007 RMK AO2 SLP184 T02330150,2024-08-03T19:56:00Z,23.3,15,10+,30.07
KPWG,31.4891,-97.3202,90,6,6.904679999999999,KPWG 031956Z AUTO 09006KT 10SM CLR 35/22 A2997 RMK AO2 SLP140 T03500217,2024-08-03T19:56:00Z,35,21.7,10+,29.97
KPVU,40.224,-111.725,70,5,5.7539,KPVU 031956Z 07005KT 10SM FU CLR 34/10 A3014 RMK AO2 SLP140 T03440100 $,2024-08-03T19:56:00Z,34.4,10,10+,30.14
KPVG,36.7824,-76.452,,,,KPVG 031956Z AUTO 10SM SCT041 BKN049 33/24 A2988 RMK AO2 SLP120 T03330244 $,2024-08-03T19:56:00Z,33.3,24.4,10+,29.88
KPVC,42.0743,-70.2183,220,14,16.11092,KPVC 031956Z AUTO 22014G20KT 10SM CLR 28/23 A2978 RMK AO2 SLP085 T02780233,2024-08-03T19:56:00Z,27.8,23.3,10+,29.78
KPTV,36.0274,-119.063,VRB,5,5.7539,KPTV 031956Z AUTO VRB05KT 10SM CLR 36/13 A2993 RMK AO2 SLP131 T03610133,2024-08-03T19:56:00Z,36.1,13.3,10+,29.93
KPTN,29.71,-91.3381,200,3,3.4523399999999995,KPTN 031956Z AUTO 20003KT 6SM TS HZ FEW040 SCT050 BKN080 A2995 RMK AO2 LTG DSNT ALQDS RAB13E30 SLPNO P0000 FZRANO $,2024-08-03T19:56:00Z,,,6,29.95
KPRX,33.6359,-95.4514,100,6,6.904679999999999,KPRX 031956Z AUTO 10006KT 10SM FEW060 A2997 RMK AO2 SLPNO FZRANO $,2024-08-03T19:56:00Z,,,10+,29.97
KPQI,46.697,-68.054,240,9,10.357019999999999,KPQI 031956Z AUTO 24009KT 9SM CLR 31/21 A2969 RMK AO2 LTG DSNT NW SLP071 T03060211,2024-08-03T19:56:00Z,30.6,21.1,9,29.69
KPIB,31.4727,-89.3383,350,7,8.05546,KPIB 031956Z AUTO 35007KT 10SM FEW060 35/24 A2990 RMK AO2 SLP122 T03500239,2024-08-03T19:56:00Z,35,23.9,10+,29.90
KP53,46.412,-86.6504,350,5,5.7539,KP53 031956Z AUTO 35005KT 27/16 A2996 RMK AO1 SLP145 T02720161 $,2024-08-03T19:56:00Z,27.2,16.1,,29.96
KP28,37.2664,-98.5463,240,5,5.7539,KP28 031956Z AUTO 24005KT 35/16 A3007 RMK AO1 SLP162 T03500161 $,2024-08-03T19:56:00Z,35,16.1,,30.07
KOWB,37.7297,-87.1683,310,5,5.7539,KOWB 031956Z 31005KT 10SM FEW040 SCT055 31/22 A2995 RMK AO2 SLP137 T03060222,2024-08-03T19:56:00Z,30.6,22.2,10+,29.95
KOTH,43.4194,-124.244,350,14,16.11092,KOTH 031956Z 35014KT 10SM OVC007 18/14 A3007 RMK AO2 SLP183 T01780139,2024-08-03T19:56:00Z,17.8,13.9,10+,30.07
KOTG,43.6525,-95.5759,230,10,11.5078,KOTG 031956Z AUTO 23010KT 10SM CLR 32/20 A3000 RMK AO2 SLP150 T03170200,2024-08-03T19:56:00Z,31.7,20,10+,30.00
KOLU,41.4472,-97.3391,180,11,12.658579999999999,KOLU 031956Z AUTO 18011KT 10SM CLR 33/20 A3004 RMK AO2 SLP162 T03330200,2024-08-03T19:56:00Z,33.3,20,10+,30.04
KOKK,40.5304,-86.055,350,7,8.05546,KOKK 031956Z AUTO 35007KT 10SM FEW038 SCT055 31/22 A2996 RMK AO2 SLP137 T03060217,2024-08-03T19:56:00Z,30.6,21.7,10+,29.96
KOFK,41.9799,-97.4335,210,14,16.11092,KOFK 031956Z AUTO 21014KT 10SM CLR 33/19 A3002 RMK AO2 SLP151 T03330189,2024-08-03T19:56:00Z,33.3,18.9,10+,30.02
KOCH,31.5809,-94.7081,VRB,3,3.4523399999999995,KOCH 031956Z AUTO VRB03KT 10SM FEW055 34/23 A2993 RMK AO2 SLP134 T03440233,2024-08-03T19:56:00Z,34.4,23.3,10+,29.93
KOAJ,34.8251,-77.6189,150,4,4.60312,KOAJ 031956Z 15004KT 10SM SCT026 SCT032 BKN041 27/26 A2997 RMK AO2 LTG DSNT NE AND E TSE09B13E46RAE17 SLP151 P0000 T02720256,2024-08-03T19:56:00Z,27.2,25.6,10+,29.97
KNYG,38.503,-77.301,,,,KNYG 031956Z AUTO 7SM FEW049 33/23 A2979 RMK AO2 SLP090 T03330233 $,2024-08-03T19:56:00Z,33.3,23.3,7,29.79
KNXP,34.294,-116.147,VRB,3,3.4523399999999995,KNXP 031956Z AUTO VRB03KT 10SM CLR 41/10 A3001 RMK AO2 SLP118 T04060100,2024-08-03T19:56:00Z,40.6,10,10+,30.01
KNTU,36.8209,-76.0277,220,17,19.56326,KNTU 031956Z 22017G25KT 10SM FEW030 SCT250 34/24 A2987 RMK AO2 PK WND 23027/1905 SLP117 T03390244,2024-08-03T19:56:00Z,33.9,24.4,10+,29.87
KNSE,30.728,-87.022,210,9,10.357019999999999,KNSE 031956Z AUTO 21009KT 10SM SCT070 SCT085 33/24 A2988 RMK AO2 SLP103 T03330244 $,2024-08-03T19:56:00Z,33.3,24.4,10+,29.88
KNQI,27.507,-97.81,VRB,6,6.904679999999999,KNQI 031956Z AUTO VRB06KT 10SM FEW050 37/24 A2994 RMK AO2 SLP135 T03670244 $,2024-08-03T19:56:00Z,36.7,24.4,10+,29.94
KNPA,30.356,-87.323,190,8,9.20624,KNPA 031956Z 19008KT 10SM SCT035 SCT120 BKN250 35/26 A2989 RMK AO2 SLP122 OCNL LTGICCG DSNT N CB DSNT N T2 SET T03500256 $,2024-08-03T19:56:00Z,35,25.6,10+,29.89
KNOG,27.895,-98.043,90,7,8.05546,KNOG 031956Z AUTO 09007G15KT 10SM CLR 37/22 A2995 RMK AO2 SLP122 T03670222 $,2024-08-03T19:56:00Z,36.7,22.2,10+,29.95
KNMM,32.546,-88.543,10,7,8.05546,KNMM 031956Z AUTO 01007KT 10SM SCT050 BKN075 34/21 A2991 RMK AO2 SLP134 T03440206 $,2024-08-03T19:56:00Z,34.4,20.6,10+,29.91
KNLC,36.3024,-119.94,VRB,6,6.904679999999999,KNLC 031956Z VRB06KT 10SM FEW150 SCT200 38/16 A2991 RMK AO2 SLP126 T03780156,2024-08-03T19:56:00Z,37.8,15.6,10+,29.91
KNJK,32.823,-115.668,0,0,0.0,KNJK 031956Z 00000KT 10SM FEW065 FEW180 44/16 A2980 RMK AO2 SLP105 T04440156 $,2024-08-03T19:56:00Z,44.4,15.6,10+,29.80
KNID,35.688,-117.69,120,7,8.05546,KNID 031956Z AUTO 12007KT 10SM CLR 39/07 A2997 RMK AO2 SLP119 T03940067 $,2024-08-03T19:56:00Z,39.4,6.7,10+,29.97
KNFE,36.701,-76.129,190,10,11.5078,KNFE 031956Z AUTO 19010G20KT 180V250 10SM CLR 34/24 A2988 RMK AO2 SLP122 T03440244,2024-08-03T19:56:00Z,34.4,24.4,10+,29.88
KNDZ,30.6973,-87.0207,180,9,10.357019999999999,KNDZ 031956Z AUTO 18009G14KT 10SM SCT039 32/24 A2988 RMK AO2 SLP103 T03170244 $,2024-08-03T19:56:00Z,31.7,24.4,10+,29.88
KNCA,34.7062,-77.4406,190,15,17.261699999999998,KNCA 031956Z AUTO 19015G25KT 30/25 A2996 RMK AO2 TSE51 SLP147 T03000250 $,2024-08-03T19:56:00Z,30,25,,29.96
KNBC,32.477,-80.722,180,9,10.357019999999999,KNBC 031956Z AUTO 18009G19KT 10SM FEW031 34/25 A2993 RMK AO2 SLP136 T03440250,2024-08-03T19:56:00Z,34.4,25,10+,29.93
KMYR,33.6769,-78.9325,180,18,20.714039999999997,KMYR 031956Z 18018G23KT 10SM CLR 29/28 A2995 RMK AO2 RAE09 SLP142 T02940278,2024-08-03T19:56:00Z,29.4,27.8,10+,29.95
KMVN,38.3284,-88.853,0,0,0.0,KMVN 031956Z AUTO 00000KT 10SM BKN047 31/21 A2997 RMK AO2 SLP146 T03110211,2024-08-03T19:56:00Z,31.1,21.1,10+,29.97
KMTW,44.1322,-87.6819,110,7,8.05546,KMTW 031956Z AUTO 11007KT 4SM HZ CLR 27/17 RMK AO2 SLPNO T02720167 $,2024-08-03T19:56:00Z,27.2,16.7,4,
KMTC,42.6045,-82.8353,330,7,8.05546,KMTC 031956Z 33007KT 10SM FEW050 FEW220 30/16 A2986 RMK AO2A SLP112 T03030159 $,2024-08-03T19:56:00Z,30.3,15.9,10+,29.86
KMQY,36.0029,-86.5144,10,10,11.5078,KMQY 031956Z 01010KT 10SM CLR A2994 RMK AO2 SLPNO $,2024-08-03T19:56:00Z,,,10+,29.94
KMOB,30.6882,-88.2459,300,4,4.60312,KMOB 031956Z 30004KT 10SM SCT040 SCT100 BKN150 34/24 A2989 RMK AO2 SLP118 T03440239,2024-08-03T19:56:00Z,34.4,23.9,10+,29.89
KMML,44.4504,-95.8215,220,12,13.809359999999998,KMML 031956Z AUTO 22012KT 10SM CLR 32/21 A2994 RMK AO2 SLP132 T03220206,2024-08-03T19:56:00Z,32.2,20.6,10+,29.94
KMKT,44.2184,-93.9179,170,7,8.05546,KMKT 031956Z AUTO 17007KT 10SM CLR 28/19 A2998 RMK AO2 SLP148 T02830194,2024-08-03T19:56:00Z,28.3,19.4,10+,29.98
KMJX,39.9235,-74.297,180,10,11.5078,KMJX 031956Z AUTO 18010G17KT 10SM SCT046 33/24 A2980 RMK AO2 SLP094 T03330244,2024-08-03T19:56:00Z,33.3,24.4,10+,29.80
KMDT,40.1962,-76.7725,10,4,4.60312,KMDT 031956Z 01004KT 10SM SCT043 BKN090 BKN110 26/21 A2981 RMK AO2 LTG DSNT ALQDS RAB08E47 SLP093 P0001 T02560206,2024-08-03T19:56:00Z,25.6,20.6,10+,29.81
KMBL,44.2714,-86.2377,320,10,11.5078,KMBL 031956Z AUTO 32010KT 10SM CLR 28/17 A2995 RMK AO2 SLP140 T02830172,2024-08-03T19:56:00Z,28.3,17.2,10+,29.95
KM19,35.643,-91.1735,50,5,5.7539,KM19 031956Z AUTO 05005KT 10SM CLR 32/22 A2998 RMK AO2 SLP149 T03170217 $,2024-08-03T19:56:00Z,31.7,21.7,10+,29.98
KLZU,33.9828,-83.9585,290,6,6.904679999999999,KLZU 031956Z 29006KT 10SM CLR 31/20 A2992 RMK AO2 SLP132 T03110200,2024-08-03T19:56:00Z,31.1,20,10+,29.92
KLWS,46.3746,-117.015,0,0,0.0,KLWS 031956Z AUTO 00000KT 10SM CLR 34/13 A2993 RMK AO2 SLP119 T03440133,2024-08-03T19:56:00Z,34.4,13.3,10+,29.93
KLRD,27.551,-99.4614,90,5,5.7539,KLRD 031956Z 09005KT 10SM FEW075 38/21 A2993 RMK AO2 SLP131 T03830206,2024-08-03T19:56:00Z,38.3,20.6,10+,29.93
KLPC,34.6646,-120.464,270,10,11.5078,KLPC 031956Z AUTO 27010KT 10SM CLR 20/14 A2998 RMK AO2 SLP150 T02000144,2024-08-03T19:56:00Z,20,14.4,10+,29.98
KLNR,43.2111,-90.1874,VRB,4,4.60312,KLNR 031956Z AUTO VRB04KT 10SM SCT055 32/18 A2997 RMK AO2 SLP140 T03170178,2024-08-03T19:56:00Z,31.7,17.8,10+,29.97
KLGD,45.2906,-118.009,310,15,17.261699999999998,KLGD 031956Z AUTO 31015KT 10SM CLR 34/09 A3001 RMK AO2 SLP127 T03390089 $,2024-08-03T19:56:00Z,33.9,8.9,10+,30.01
KLEW,44.0444,-70.2853,VRB,4,4.60312,KLEW 031956Z AUTO VRB04KT 10SM SCT023 28/22 A2977 RMK AO2 SLP083 T02780222,2024-08-03T19:56:00Z,27.8,22.2,10+,29.77
KLBT,34.6082,-79.059,190,15,17.261699999999998,KLBT 031956Z AUTO 19015G25KT 10SM CLR 32/24 A2990 RMK AO2 PK WND 16027/1918 SLP121 T03170239,2024-08-03T19:56:00Z,31.7,23.9,10+,29.90
KLAS,36.0719,-115.163,180,6,6.904679999999999,KLAS 031956Z 18006KT 10SM FEW120 FEW220 41/13 A2995 RMK AO2 SLP108 CB DSNT NE-SE T04060128,2024-08-03T19:56:00Z,40.6,12.8,10+,29.95
KKLS,46.118,-122.898,VRB,4,4.60312,KKLS 031956Z AUTO VRB04KT 10SM CLR 24/13 A3007 RMK AO2 SLP186 T02390133,2024-08-03T19:56:00Z,23.9,13.3,10+,30.07
KJXN,42.259,-84.4589,310,7,8.05546,KJXN 031956Z 31007G17KT 10SM FEW044 29/19 A2993 RMK AO2 RAB17E27 SLP129 P0000 T02940189,2024-08-03T19:56:00Z,29.4,18.9,10+,29.93
KJRB,40.701,-74.009,160,15,17.261699999999998,KJRB 031956Z AUTO 16015G18KT 10SM CLR 31/23 A2980 RMK AO2 LTG DSNT W-NE SLPNO T03110228 PNO $,2024-08-03T19:56:00Z,31.1,22.8,10+,29.80
KJMS,46.9259,-98.6704,360,19,21.864819999999998,KJMS 031956Z AUTO 36019G25KT 10SM SCT028 OVC039 27/21 A2995 RMK AO2 PK WND 36026/1936 SLP134 T02670211,2024-08-03T19:56:00Z,26.7,21.1,10+,29.95
KJAX,30.4953,-81.6937,130,10,11.5078,KJAX 031956Z 13010KT 10SM FEW031 FEW065 BKN250 33/26 A2993 RMK AO2 RAB05E16 TSE16 SLP136 CB DSNT S P0003 T03280256,2024-08-03T19:56:00Z,32.8,25.6,10+,29.93
KJAC,43.6129,-110.737,230,8,9.20624,KJAC 031956Z 23008KT 10SM CLR 31/04 A3028 RMK AO2 SLP176 T03110039,2024-08-03T19:56:00Z,31.1,3.9,10+,30.28
KIWD,46.5321,-90.126,20,6,6.904679999999999,KIWD 031956Z AUTO 02006KT 10SM BKN110 26/14 A3003 RMK AO2 SLP165 T02560144,2024-08-03T19:56:00Z,25.6,14.4,10+,30.03
KITH,42.4931,-76.4569,0,0,0.0,KITH 031956Z 00000KT 10SM -RA BKN035 24/22 A2987 RMK AO2 RAB29 SLP107 P0000 T02390217,2024-08-03T19:56:00Z,23.9,21.7,10+,29.87
KISP,40.7939,-73.1018,190,12,13.809359999999998,KISP 031956Z 19012KT 10SM FEW040 SCT250 29/23 A2981 RMK AO2 SLP091 CB DSNT NW TCU DSNT N T02940233,2024-08-03T19:56:00Z,29.4,23.3,10+,29.81
KISO,35.324,-77.6187,140,5,5.7539,KISO 031956Z 14005KT 7SM SCT075 SCT090 26/23 A2996,2024-08-03T19:56:00Z,26,23,7,29.96
KISM,28.2924,-81.4371,150,7,8.05546,KISM 031956Z 15007KT 10SM -RA CLR 26/24 A2998 RMK AO2 RAB15 SLP152 P0001 T02560239 $,2024-08-03T19:56:00Z,25.6,23.9,10+,29.98
KINW,35.028,-110.722,100,7,8.05546,KINW 031956Z AUTO 10007KT 10SM CLR 36/09 A3020 RMK AO2 SLP134 T03560094,2024-08-03T19:56:00Z,35.6,9.4,10+,30.20
KILE,31.084,-97.6885,0,0,0.0,KILE 031956Z AUTO 00000KT 10SM CLR 34/23 A2998 RMK AO2 SLP139 T03440228,2024-08-03T19:56:00Z,34.4,22.8,10+,29.98
KI69,39.078,-84.21,320,5,5.7539,KI69 031956Z AUTO 32005KT 10SM SCT041 BKN060 OVC075 29/21 A2991 RMK AO1 T02940205,2024-08-03T19:56:00Z,29.4,20.5,10+,29.91
KHYS,38.8392,-99.2742,0,0,0.0,KHYS 031956Z AUTO 00000KT 10SM CLR 32/14 A3009 RMK AO2 SLP170 T03170144,2024-08-03T19:56:00Z,31.7,14.4,10+,30.09
KHYI,29.8958,-97.8664,80,9,10.357019999999999,KHYI 031956Z 08009KT 10SM FEW060 36/22 A2996 RMK AO2 SLP138 T03610222,2024-08-03T19:56:00Z,36.1,22.2,10+,29.96
KHYA,41.6719,-70.2697,220,16,18.41248,KHYA 031956Z 22016G24KT 10SM CLR 29/23 A2979 RMK AO2 SLP090 T02890233,2024-08-03T19:56:00Z,28.9,23.3,10+,29.79
KHWV,40.8212,-72.8674,190,13,14.960139999999999,KHWV 031956Z AUTO 19013G19KT 10SM CLR 28/23 A2982 RMK AO2 SLP096 T02830228,2024-08-03T19:56:00Z,28.3,22.8,10+,29.82
KHND,35.9658,-115.134,VRB,5,5.7539,KHND 031956Z VRB05KT 10SM CLR 39/14 A2999 RMK AO2 SLP133 T03890144,2024-08-03T19:56:00Z,38.9,14.4,10+,29.99
KHNB,38.2505,-86.9473,300,6,6.904679999999999,KHNB 031956Z AUTO 30006KT 10SM FEW041 SCT055 31/22 A2995 RMK AO2 SLP135 T03060222,2024-08-03T19:56:00Z,30.6,22.2,10+,29.95
KHEZ,31.6159,-91.2973,10,5,5.7539,KHEZ 031956Z AUTO 01005KT 10SM FEW045 34/23 A2992 RMK AO2 SLP129 T03390233,2024-08-03T19:56:00Z,33.9,23.3,10+,29.92
KHEF,38.724,-77.5175,200,12,13.809359999999998,KHEF 031956Z 20012G22KT 10SM FEW050 34/23 A2978 RMK AO2 LTG DSNT N AND NW SLP089 T03440228,2024-08-03T19:56:00Z,34.4,22.8,10+,29.78
KHDN,40.4842,-107.23,30,8,9.20624,KHDN 031956Z AUTO 03008KT 10SM CLR 32/01 A3033 RMK AO2 SLP166 T03170011,2024-08-03T19:56:00Z,31.7,1.1,10+,30.33
KGXY,40.4345,-104.63,120,9,10.357019999999999,KGXY 031956Z AUTO 12009G15KT 10SM CLR 34/09 A3021 RMK AO2 SLP177 T03440089,2024-08-03T19:56:00Z,34.4,8.9,10+,30.21
KGVQ,43.0298,-78.1665,,,,KGVQ 031956Z AUTO 10SM OVC110 23/21 A2987 RMK AO2 SLP111 T02280211 $,2024-08-03T19:56:00Z,22.8,21.1,10+,29.87
KGUC,38.5322,-106.942,150,8,9.20624,KGUC 031956Z AUTO 15008KT 10SM CLR 30/02 A3040 RMK AO2 SLP180 T03000022,2024-08-03T19:56:00Z,30,2.2,10+,30.40
KGTU,30.6809,-97.6767,VRB,3,3.4523399999999995,KGTU 031956Z VRB03KT 10SM CLR 36/19 A2999 RMK AO2 SLP144 T03610194,2024-08-03T19:56:00Z,36.1,19.4,10+,29.99
KGTR,33.456,-88.593,330,5,5.7539,KGTR 031956Z 33005KT 10SM CLR 33/21 A2993 RMK AO2 SLP141 T03330211,2024-08-03T19:56:00Z,33.3,21.1,10+,29.93
KGRD,34.2539,-82.1526,180,10,11.5078,KGRD 031956Z AUTO 18010KT 5SM +RA BR SCT025 BKN075 OVC110 23/22 A2996 RMK AO2 LTG DSNT E-S RAB02E11B34 TSE05 SLP958 P0006 T02280222,2024-08-03T19:56:00Z,22.8,22.2,5,29.96
KGPZ,47.2029,-93.5071,150,10,11.5078,KGPZ 031956Z AUTO 15010KT 10SM CLR 19/17 A2994 RMK AO2 LTG DSNT SE-SW TSE20RAE24 SLP140 P0006 T01890172,2024-08-03T19:56:00Z,18.9,17.2,10+,29.94
KGON,41.3279,-72.0489,200,13,14.960139999999999,KGON 031956Z AUTO 20013KT 10SM CLR 29/23 A2980 RMK AO2 SLP089 T02890233,2024-08-03T19:56:00Z,28.9,23.3,10+,29.80
KGNR,45.4649,-69.5543,VRB,4,4.60312,KGNR 031956Z AUTO VRB04KT 28/22 A2975 RMK AO1 SLP066 T02830217,2024-08-03T19:56:00Z,28.3,21.7,,29.75
KGNA,47.745,-90.346,0,0,0.0,KGNA 031956Z AUTO 00000KT 22/17 A2994 RMK AO1 SLP131 T02170172,2024-08-03T19:56:00Z,21.7,17.2,,29.94
KGKT,35.8568,-83.5333,240,8,9.20624,KGKT 031956Z AUTO 24008KT 210V280 10SM FEW040 30/22 A2992 RMK A01,2024-08-03T19:56:00Z,30,22,10+,29.92
KGDV,47.14,-104.813,80,11,12.658579999999999,KGDV 031956Z AUTO 08011G14KT 10SM CLR 30/09 A3010 RMK AO2 SLP169 T03000094 TSNO PNO $,2024-08-03T19:56:00Z,30,9.4,10+,30.10
KGBD,38.3405,-98.8592,200,13,14.960139999999999,KGBD 031956Z AUTO 20013KT 10SM CLR 33/17 A3008 RMK AO2 SLP167 T03280172,2024-08-03T19:56:00Z,32.8,17.2,10+,30.08
KGAI,39.1696,-77.1653,290,13,14.960139999999999,KGAI 031956Z AUTO 29013G22KT 10SM TS BKN050 OVC065 29/20 A2981 RMK AO2 LTG DSNT W-N TSB51 SLP101 T02890200,2024-08-03T19:56:00Z,28.9,20,10+,29.81
KGAD,33.9686,-86.0917,330,4,4.60312,KGAD 031956Z AUTO 33004KT FEW046 30/21 A2992 RMK AO2 SLP130 T03000211 PWINO $,2024-08-03T19:56:00Z,30,21.1,,29.92
KFSD,43.5775,-96.7539,210,12,13.809359999999998,KFSD 031956Z 21012G25KT 10SM CLR 33/19 A2997 RMK AO2 SLP135 T03330189,2024-08-03T19:56:00Z,33.3,18.9,10+,29.97
KFRM,43.6455,-94.4168,170,9,10.357019999999999,KFRM 031956Z AUTO 17009KT 10SM CLR 30/20 A2999 RMK AO2 SLP151 T03000200,2024-08-03T19:56:00Z,30,20,10+,29.99
KFOD,42.549,-94.182,90,4,4.60312,KFOD 031956Z AUTO 09004KT 10SM CLR A3002 RMK AO2 SLPNO FZRANO $,2024-08-03T19:56:00Z,,,10+,30.02
KFNL,40.4427,-105.01,130,12,13.809359999999998,KFNL 031956Z 13012G18KT 8SM CLR 36/07 A3023 RMK AO2 SLP161 T03610072,2024-08-03T19:56:00Z,36.1,7.2,8,30.23
KFLP,36.2925,-92.5851,0,0,0.0,KFLP 031956Z AUTO 00000KT 10SM CLR 33/21 A3002 RMK AO2 SLP158 T03280206,2024-08-03T19:56:00Z,32.8,20.6,10+,30.02
KFCI,37.407,-77.522,170,8,9.20624,KFCI 031956Z AUTO 17008KT 10SM -TSRA FEW034 SCT060 26/24 A2987 RMK AO2 LTG DSNT SW TSB18E33B40RAB46 SLP121 P0000 T02560244,2024-08-03T19:56:00Z,25.6,24.4,10+,29.87
KFAM,37.7631,-90.4292,340,6,6.904679999999999,KFAM 031956Z AUTO 34006KT 10SM CLR 31/19 A3002 RMK AO2 SLP162 T03110189,2024-08-03T19:56:00Z,31.1,18.9,10+,30.02
KEWK,38.0621,-97.275,170,9,10.357019999999999,KEWK 031956Z AUTO 17009KT 10SM FEW075 35/17 A3008 RMK AO2 SLP165 T03500167,2024-08-03T19:56:00Z,35,16.7,10+,30.08
KEUL,43.6405,-116.63,310,3,3.4523399999999995,KEUL 031956Z AUTO 31003KT 10SM CLR 33/14 A2993 RMK AO2 SLP110 T03280144,2024-08-03T19:56:00Z,32.8,14.4,10+,29.93
KESC,45.7225,-87.0893,190,7,8.05546,KESC 031956Z AUTO 19007KT 10SM CLR 28/17 A2996 RMK AO2 SLP148 T02780172 $,2024-08-03T19:56:00Z,27.8,17.2,10+,29.96
KENV,40.7211,-114.031,110,5,5.7539,KENV 031956Z AUTO 11005KT 10SM CLR 34/06 A3010 RMK AO2 SLP137 T03440056,2024-08-03T19:56:00Z,34.4,5.6,10+,30.10
KEKY,33.314,-86.925,350,6,6.904679999999999,KEKY 031956Z AUTO 35006KT 10SM FEW047 32/21 A2993 RMK AO2 SLP982 T03220211,2024-08-03T19:56:00Z,32.2,21.1,10+,29.93
KEKQ,36.8576,-84.8562,290,7,8.05546,KEKQ 031956Z AUTO 29007KT 10SM FEW026 SCT034 23/22 A2996 RMK AO2 LTG DSNT NE RAB16E34 SLP136 T02330217 PNO $,2024-08-03T19:56:00Z,23.3,21.7,10+,29.96
KEKO,40.824,-115.786,190,9,10.357019999999999,KEKO 031956Z AUTO 19009KT 10SM CLR 32/08 A3015 RMK AO2 SLP139 T03220078 $,2024-08-03T19:56:00Z,32.2,7.8,10+,30.15
KEHR,37.8066,-87.6824,310,5,5.7539,KEHR 031956Z AUTO 31005KT 10SM BKN045 31/21 A2995 RMK AO2 SLP138 T03110211,2024-08-03T19:56:00Z,31.1,21.1,10+,29.95
KEEN,42.898,-72.2695,240,6,6.904679999999999,KEEN 031956Z AUTO 24006KT 10SM FEW031 29/22 A2980 RMK AO2 SLP090 T02890217 $,2024-08-03T19:56:00Z,28.9,21.7,10+,29.80
KEED,34.7678,-114.618,160,7,8.05546,KEED 031956Z AUTO 16007G16KT 10SM BKN100 44/16 A2985 RMK AO2 SLP063 T04390156,2024-08-03T19:56:00Z,43.9,15.6,10+,29.85
KEAU,44.8665,-91.4881,190,3,3.4523399999999995,KEAU 031956Z 19003KT 10SM CLR 29/13 A2998 RMK AO2 SLP146 T02940133,2024-08-03T19:56:00Z,29.4,13.3,10+,29.98
KEAR,40.7193,-99.0086,230,11,12.658579999999999,KEAR 031956Z AUTO 23011KT 10SM CLR 33/19 A3008 RMK AO2 SLP162 T03330189,2024-08-03T19:56:00Z,33.3,18.9,10+,30.08
KDYR,35.9957,-89.4057,0,0,0.0,KDYR 031956Z AUTO 00000KT 10SM SCT045 BKN060 32/21 A2998 RMK AO2 SLP154 T03220211,2024-08-03T19:56:00Z,32.2,21.1,10+,29.98
KDWU,38.556,-82.7375,VRB,4,4.60312,KDWU 031956Z AUTO VRB04KT 10SM CLR 29/21 A2989 RMK AO2 SLP118 T02890206 $,2024-08-03T19:56:00Z,28.9,20.6,10+,29.89
KDVL,48.1136,-98.9034,20,18,20.714039999999997,KDVL 031956Z AUTO 02018G25KT 10SM CLR 24/13 A3002 RMK AO2 PK WND 04027/1944 SLP164 T02440133,2024-08-03T19:56:00Z,24.4,13.3,10+,30.02
KDUG,31.4725,-109.602,VRB,4,4.60312,KDUG 031956Z AUTO VRB04G15KT 10SM CLR 36/12 A3013 RMK AO2 LTG DSNT N SLP118 T03560117 $,2024-08-03T19:56:00Z,35.6,11.7,10+,30.13
KDIK,46.7997,-102.797,40,13,14.960139999999999,KDIK 031956Z AUTO 04013G23KT 10SM CLR 31/14 A3006 RMK AO2 SLP157 T03060139,2024-08-03T19:56:00Z,30.6,13.9,10+,30.06
KDIJ,43.745,-111.091,240,8,9.20624,KDIJ 031956Z AUTO 24008KT 10SM CLR 33/02 A3027 RMK AO2 SLP165 T03280017 $,2024-08-03T19:56:00Z,32.8,1.7,10+,30.27
KDAY,39.9064,-84.2185,320,12,13.809359999999998,KDAY 031956Z 32012KT 10SM SCT036 SCT050 BKN060 30/22 A2992 RMK AO2 SLP121 T03000217 $,2024-08-03T19:56:00Z,30,21.7,10+,29.92
KD07,45.0326,-102.02,350,12,13.809359999999998,KD07 031956Z AUTO 35012G22KT 36/13 A3001 RMK AO1 PK WND 01026/1925 SLP140 T03610128 $,2024-08-03T19:56:00Z,36.1,12.8,,30.01
KCXY,40.2184,-76.8552,0,0,0.0,KCXY 031956Z 00000KT 10SM -RA FEW041 SCT070 BKN100 25/21 A2982 RMK AO2 LTG DSNT E-SW RAB1859E34B47 TSB05E20 SLP096 VCTS P0010 T02500206,2024-08-03T19:56:00Z,25,20.6,10+,29.82
KCWI,41.8295,-90.3328,230,3,3.4523399999999995,KCWI 031956Z AUTO 23003KT 10SM CLR 30/22 A2996 RMK AO2 SLPNO T03000222,2024-08-03T19:56:00Z,30,22.2,10+,29.96
KCVO,44.5013,-123.293,40,7,8.05546,KCVO 031956Z 04007KT 10SM CLR 26/14 A3004 RMK AO2 SLP171 T02610139,2024-08-03T19:56:00Z,26.1,13.9,10+,30.04
KCVN,34.4227,-103.08,200,8,9.20624,KCVN 031956Z AUTO 20008KT 10SM FEW065 33/15 A3021 RMK AO2 SLP180 T03280150,2024-08-03T19:56:00Z,32.8,15,10+,30.21
KCQM,47.8199,-92.6817,360,9,10.357019999999999,KCQM 031956Z AUTO 36009G18KT 10SM -TSRA SCT070 BKN090 18/16 A3002 RMK AO2 LTG DSNT ALQDS,2024-08-03T19:56:00Z,18,16,10+,30.02
KCOE,47.7719,-116.833,180,6,6.904679999999999,KCOE 031956Z AUTO 18006KT 10SM CLR 27/15 A3001 RMK AO2 SLP156 T02670150 PNO $,2024-08-03T19:56:00Z,26.7,15,10+,30.01
KCOD,44.52,-109.027,10,8,9.20624,KCOD 031956Z AUTO 01008KT 10SM CLR 31/11 A3019 RMK AO2 SLP153 T03060111,2024-08-03T19:56:00Z,30.6,11.1,10+,30.19
KCIU,46.2531,-84.4773,320,14,16.11092,KCIU 031956Z AUTO 32014G18KT 10SM CLR 29/13 A2993 RMK AO2 SLP133 T02890128,2024-08-03T19:56:00Z,28.9,12.8,10+,29.93
KCIC,39.7988,-121.858,0,0,0.0,KCIC 031956Z 00000KT 10SM CLR 33/13 A2993,2024-08-03T19:56:00Z,33,13,10+,29.93
KCHS,32.8994,-80.0407,180,16,18.41248,KCHS 031956Z 18016KT 10SM SCT034 SCT046 33/23 A2993 RMK AO2 SLP136 T03280233,2024-08-03T19:56:00Z,32.8,23.3,10+,29.93
KCGZ,32.9531,-111.773,VRB,4,4.60312,KCGZ 031956Z AUTO VRB04KT 10SM CLR 42/14 A2991 RMK AO2 SLP105 T04170139 PNO $,2024-08-03T19:56:00Z,41.7,13.9,10+,29.91
KCEC,41.7836,-124.238,330,5,5.7539,KCEC 031956Z AUTO 33005KT 10SM OVC008 16/15 A3005 RMK AO2 SLP174 T01610150,2024-08-03T19:56:00Z,16.1,15,10+,30.05
KCAE,33.9422,-81.118,340,4,4.60312,KCAE 031956Z 34004KT 10SM VCTS BKN042CB BKN085 BKN250 28/25 A2989 RMK AO2 LTG DSNT W-NE RAE04 TSB12E44 SLP117 OCNL LTGIC VC W-N TS W-N MOV NE CB W-N MOV NE P0001 T02830250,2024-08-03T19:56:00Z,28.3,25,10+,29.89
KBZN,45.7876,-111.162,330,3,3.4523399999999995,KBZN 031956Z 33003KT 10SM CLR 35/07 A3010 RMK AO2 SLP137 T03500067,2024-08-03T19:56:00Z,35,6.7,10+,30.10
KBVX,35.7259,-91.6517,50,5,5.7539,KBVX 031956Z AUTO 05005KT 10SM BKN047 32/22 A3000 RMK AO2 SLP155 T03220217,2024-08-03T19:56:00Z,32.2,21.7,10+,30.00
KBTP,40.7765,-79.9568,0,0,0.0,KBTP 031956Z AUTO 00000KT 10SM BKN015 BKN020 OVC025 24/21 A2989 RMK AO2 SLP119 T02440211 TSNO,2024-08-03T19:56:00Z,24.4,21.1,10+,29.89
KBMI,40.4777,-88.9144,330,5,5.7539,KBMI 031956Z COR 33005KT 10SM FEW050 32/20 A2998 RMK AO2 SLP143 T03170200,2024-08-03T19:56:00Z,31.7,20,10+,29.98
KBKX,44.3075,-96.8183,220,11,12.658579999999999,KBKX 031956Z AUTO 22011KT 10SM CLR 32/20 A2996 RMK AO2 SLP142 T03220200,2024-08-03T19:56:00Z,32.2,20,10+,29.96
KBJJ,40.8732,-81.8886,340,5,5.7539,KBJJ 031956Z AUTO 34005KT 10SM FEW014 26/22 A2990 RMK AO2 SLP118 T02610222,2024-08-03T19:56:00Z,26.1,22.2,10+,29.90
KBIH,37.3711,-118.359,150,11,12.658579999999999,KBIH 031956Z AUTO 15011G22KT 10SM CLR 36/09 A3007 RMK AO2 SLP122 T03610089,2024-08-03T19:56:00Z,36.1,8.9,10+,30.07
KBID,41.1668,-71.5757,220,16,18.41248,KBID 031956Z AUTO 22016KT 10SM CLR 27/23 A2983 RMK AO2 SLP102 T02670233 PNO $,2024-08-03T19:56:00Z,26.7,23.3,10+,29.83
KBHB,44.4549,-68.3617,140,3,3.4523399999999995,KBHB 031956Z AUTO 14003KT 10SM OVC060 24/21 A2975 RMK AO2 SLP075 T02440211,2024-08-03T19:56:00Z,24.4,21.1,10+,29.75
KBBB,45.331,-95.6469,180,15,17.261699999999998,KBBB 031956Z AUTO 18015KT 10SM CLR 31/22 A2991 RMK AO2,2024-08-03T19:56:00Z,31,22,10+,29.91
KAUO,32.617,-85.4342,150,10,11.5078,KAUO 031956Z AUTO 15010KT 7SM FEW055 29/24 A2994 RMK AO2 SLP124 T02940239,2024-08-03T19:56:00Z,29.4,23.9,7,29.94
KAUM,43.6688,-92.9321,120,4,4.60312,KAUM 031956Z AUTO 12004KT 10SM CLR 28/16 A3002 RMK AO2,2024-08-03T19:56:00Z,28,16,10+,30.02
KASH,42.7798,-71.5141,290,6,6.904679999999999,KASH 031956Z 29006KT 10SM SCT024 SCT033 BKN042 31/24 A2979 RMK AO2 SLP090 T03060244,2024-08-03T19:56:00Z,30.6,24.4,10+,29.79
KART,43.9888,-76.0261,220,8,9.20624,KART 031956Z AUTO 22008KT 10SM CLR 26/22 A2982 RMK AO2 SLP092 T02610222,2024-08-03T19:56:00Z,26.1,22.2,10+,29.82
KARG,36.1256,-90.9216,0,0,0.0,KARG 031956Z AUTO 00000KT 10SM CLR 32/21 A2998 RMK AO2 SLP151 T03220206,2024-08-03T19:56:00Z,32.2,20.6,10+,29.98
KAND,34.498,-82.7092,260,8,9.20624,KAND 031956Z AUTO 26008G18KT 10SM SCT055 33/19 A2989 RMK AO2 SLP111 T03280194,2024-08-03T19:56:00Z,32.8,19.4,10+,29.89
KALK,31.606,-110.428,100,7,8.05546,KALK 031956Z AUTO 10007G17KT 050V140 10SM CLR 36/12 A3019 RMK AO2 SLP117 T03560117,2024-08-03T19:56:00Z,35.6,11.7,10+,30.19
KAJO,33.8956,-117.596,270,9,10.357019999999999,KAJO 031956Z AUTO 27009KT 10SM CLR 37/15 A2992 RMK AO2 SLP121 T03670150,2024-08-03T19:56:00Z,36.7,15,10+,29.92
KAIZ,38.1005,-92.5475,0,0,0.0,KAIZ 031956Z AUTO 00000KT 10SM CLR 33/17 A3003 RMK AO2 SLP159 T03330167 PNO $,2024-08-03T19:56:00Z,33.3,16.7,10+,30.03
KAFJ,40.1362,-80.2851,30,8,9.20624,KAFJ 031956Z AUTO 03008KT 10SM -RA FEW034 SCT050 OVC065 22/22 A2992 RMK AO2 LTG DSNT E SLP124 P0002 T02220217,2024-08-03T19:56:00Z,22.2,21.7,10+,29.92
KADF,34.0953,-93.069,VRB,3,3.4523399999999995,KADF 031956Z AUTO VRB03KT 10SM FEW060 34/22 A2996 RMK AO2 SLP142 T03390222,2024-08-03T19:56:00Z,33.9,22.2,10+,29.96
K8D3,45.669,-96.9918,230,10,11.5078,K8D3 031956Z AUTO 23010KT 34/21 A2984 RMK AO1 SLP083 T03440211,2024-08-03T19:56:00Z,34.4,21.1,,29.84
K2WX,45.6043,-103.547,,,,K2WX 031956Z AUTO A3005 RMK AO1 SLPNO,2024-08-03T19:56:00Z,,,,30.05
K1M4,34.2832,-87.5986,VRB,4,4.60312,K1M4 031956Z AUTO VRB04KT 10SM BKN045 BKN065 29/21 A2998 RMK AO2 SLP135 T02940206 $,2024-08-03T19:56:00Z,29.4,20.6,10+,29.98
TXKF,32.364,-64.679,200,7,8.05546,TXKF 031955Z 20007KT 160V230 9999 FEW024 SCT300 30/23 Q1022 ,2024-08-03T19:55:00Z,30,23,6+,30.18
TNCE,17.497,-62.979,90,14,16.11092,TNCE 031955Z AUTO 09014KT //// // ///////// 30/25 Q1015 RE//,2024-08-03T19:55:00Z,30,25,,29.97
TNCB,12.133,-68.277,110,14,16.11092,TNCB 031955Z 11014KT 060V140 9999 SCT019 32/24 Q1010,2024-08-03T19:55:00Z,32,24,6+,29.82
TJPS,18.011,-66.567,140,16,18.41248,TJPS 031955Z AUTO 14016G21KT 10SM FEW050 32/25 A2993 RMK AO2 PWINO,2024-08-03T19:55:00Z,32,25,10+,29.93
RODN,26.356,127.768,VRB,2,2.30156,RODN 031955Z VRB02KT 10SM CLR 28/26 A2970 RMK AO2A SLP057 T02840260 FZRANO $,2024-08-03T19:55:00Z,28.4,26,10+,29.70
RKSO,37.091,127.03,0,0,0.0,RKSO 031955Z 00000KT 8SM CLR 26/25 A2977 RMK AO2A SLP084 T02550246,2024-08-03T19:55:00Z,25.5,24.6,8,29.77
RKSG,36.962,127.031,0,0,0.0,RKSG 031955Z 00000KT 10SM FEW100 27/24 A2977 RMK AO2A SLP084 T02660242 $,2024-08-03T19:55:00Z,26.6,24.2,10+,29.77
RKJK,35.9,126.618,0,0,0.0,RKJK 031955Z AUTO 00000KT 10SM CLR 27/26 A2975 RMK AO2 SLP078 T02710255 $,2024-08-03T19:55:00Z,27.1,25.5,10+,29.75
RJTY,35.749,139.349,240,4,4.60312,RJTY 031955Z AUTO 24004KT 10SM CLR 26/23 A2982 RMK AO2 SLP096 T02580229 FZRANO $,2024-08-03T19:55:00Z,25.8,22.9,10+,29.82
PWAK,19.287,166.623,180,6,6.904679999999999,PWAK 031955Z AUTO 18006KT 3SM HZ FEW130 BKN170 26/23 A2991 RMK AO2 SLP131 T02620232,2024-08-03T19:55:00Z,26.2,23.2,3,29.91
PKMR,7.09,171.383,80,4,4.60312,PKMR 031955Z 08004KT 15SM FEW015 SCT300 29/25 A2989 RMK SLP124 T02880250,2024-08-03T19:55:00Z,28.8,25,15,29.89
PHSF,19.758,-155.557,130,22,25.317159999999998,PHSF 031955Z AUTO 13022G29KT 7SM CLR 24/10 A3042 RMK AO2 PK WND 13029/49 SLP169 T02410104 $,2024-08-03T19:55:00Z,24.1,10.4,7,30.42
PHHI,21.478,-158.044,60,3,3.4523399999999995,PHHI 031955Z AUTO 06003KT 10SM OVC037 26/20 A3014 RMK AO2 SLP196 T02600201 $,2024-08-03T19:55:00Z,26,20.1,10+,30.14
PGUA,13.583,144.918,240,9,10.357019999999999,PGUA 031955Z AUTO 24009KT 10SM CLR 24/24 A2984 RMK AO2 RAE37 SLP095 P0007 T02430236 $,2024-08-03T19:55:00Z,24.3,23.6,10+,29.84
PAUT,54.145,-165.604,150,13,14.960139999999999,PAUT 031955Z AUTO 15013KT 10SM OVC023 11/08 A3001 RMK AO2,2024-08-03T19:55:00Z,11,8,10+,30.01
PATL,62.893,-155.977,60,7,8.05546,PATL 031955Z AUTO 06007KT 010V130 10SM BKN010 BKN130 10/09 A3022 RMK AO2 SLP236 T01040094,2024-08-03T19:55:00Z,10.4,9.4,10+,30.22
PASV,61.101,-155.577,210,10,11.5078,PASV 031955Z AUTO 21010KT 10SM BKN095 14/07 A3024 RMK AO2 SLP241 T01350074,2024-08-03T19:55:00Z,13.5,7.4,10+,30.24
PALU,68.873,-166.101,160,9,10.357019999999999,PALU 031955Z AUTO 16009G16KT 060V210 7SM OVC011 13/11 A2977 RMK AO2 SLP082 T01270109,2024-08-03T19:55:00Z,12.7,10.9,7,29.77
PAIM,65.994,-153.695,VRB,1,1.15078,PAIM 031955Z AUTO VRB01KT 2SM -RA BKN006 BKN016 10/09 A3012 RMK AO2 RAB1855 SLP204 P0002 T00990092,2024-08-03T19:55:00Z,9.9,9.2,2,30.12
PAEI,64.654,-147.094,170,5,5.7539,PAEI 031955Z 17005KT 10SM -RA BKN008 OVC042 12/11 A3023 RMK AO2A SLP242 P0002 T01240110,2024-08-03T19:55:00Z,12.4,11,10+,30.23
PAEH,58.652,-162.062,10,16,18.41248,PAEH 031955Z AUTO 01016KT 10SM FEW005 10/08 A3013 RMK AO2 PK WND 01026/1933 SLP205 T01040081,2024-08-03T19:55:00Z,10.4,8.1,10+,30.13
PAED,61.25,-149.837,290,4,4.60312,PAED 031955Z 29004KT 10SM FEW020 BKN100 BKN120 14/09 A3031 RMK AO2A SLP260 T01400094 $,2024-08-03T19:55:00Z,14,9.4,10+,30.31
PACZ,61.776,-166.043,190,29,33.37262,PACZ 031955Z AUTO 19029G37KT 10SM OVC006 08/07 A2989 RMK AO2 PK WND 18037/1910 SLP125 T00810072,2024-08-03T19:55:00Z,8.1,7.2,10+,29.89
PAAD,70.136,-146.29,120,8,9.20624,PAAD 031955Z AUTO 12008KT 10SM CLR 12/02 A3005 RMK AO2 T01180018,2024-08-03T19:55:00Z,11.8,1.8,10+,30.05
OTBH,25.117,51.315,290,5,5.7539,OTBH 031955Z 29005KT 8000 HZ CLR 34/12 A2942 Q0996 RMK AO2A SLP962 T03420119 FZRANO $,2024-08-03T19:55:00Z,34.2,11.9,4.97,29.41
OPLA,31.522,74.404,70,6,6.904679999999999,OPLA 031955Z 07006KT 4000 FU SCT040 BKN100 29/25 Q1001 NOSIG RMK QFE976 A29.58,2024-08-03T19:55:00Z,29,25,2.49,29.56
OKAS,29.347,47.521,270,12,13.809359999999998,OKAS 031955Z AUTO 27012KT 9999 CLR 35/05 A2951 RMK AO2 SLP986 T03520046 $,2024-08-03T19:55:00Z,35.2,4.6,6+,29.51
OEPS,24.063,47.581,0,0,0.0,OEPS 031955Z AUTO 00000KT 9999 CLR 36/01 A2970 RMK AO2 SLP031 WND DATA ESTMD T03550014,2024-08-03T19:55:00Z,35.5,1.4,6+,29.70
LIVT,45.677,13.754,70,6,6.904679999999999,LIVT 031955Z AUTO 07006KT 020V120 //// 27/15 Q1009,2024-08-03T19:55:00Z,27,15,,29.79
LIVR,46.298,11.787,350,8,9.20624,LIVR 031955Z 35008KT CAVOK 12/10 Q1020 RMK SKC MON LIB VIS MIN 9999,2024-08-03T19:55:00Z,12,10,6+,30.12
LIVP,46.143,11.038,220,12,13.809359999999998,LIVP 031955Z 22012KT 9999 SCT040 13/10 Q1021,2024-08-03T19:55:00Z,13,10,6+,30.15
LIVM,44.441,12.296,,,,LIVM 031955Z AUTO /////KT //// ///// Q////,2024-08-03T19:55:00Z,,,,
LIVF,43.517,12.728,170,2,2.30156,LIVF 031955Z 17002KT CAVOK 22/20 Q1011,2024-08-03T19:55:00Z,22,20,6+,29.85
LIVE,46.833,10.5,10,3,3.4523399999999995,LIVE 031955Z 01003KT CAVOK 18/11 Q1018 RMK SCT SCT070 VIS MIN 9999,2024-08-03T19:55:00Z,18,11,6+,30.06
LIVD,46.729,12.228,,,,LIVD 031955Z AUTO /////KT //// ///// Q////,2024-08-03T19:55:00Z,,,,
LIVC,44.194,10.7,240,7,8.05546,LIVC 031955Z AUTO 24007KT //// 14/10 Q1023,2024-08-03T19:55:00Z,14,10,,30.21
LIRY,-99.99,-99.99,250,3,3.4523399999999995,LIRY 031955Z AUTO 25003KT //// 26/19 Q1009,2024-08-03T19:55:00Z,26,19,,29.79
LIRX,42.731,10.396,120,3,3.4523399999999995,LIRX 031955Z AUTO 12003KT //// 25/19 Q1010,2024-08-03T19:55:00Z,25,19,,29.82
LIRT,41.047,15.233,90,9,10.357019999999999,LIRT 031955Z AUTO 09009KT //// 19/15 Q1016,2024-08-03T19:55:00Z,19,15,,30.00
LIRS,42.76,11.072,100,6,6.904679999999999,LIRS 031955Z 10006KT CAVOK 27/21 Q1008 RMK SCT FEW100 SCT200 VIS MIN 9999 WIND THR03 09006KT WIND THR21 11005KT BLU,2024-08-03T19:55:00Z,27,21,6+,29.76
LIRM,41.061,14.082,360,10,11.5078,LIRM 031955Z 36010KT 9999 SCT040 29/26 Q1008 RMK SCT VIS MIN 9999 WIND THR06 05010KT BLU,2024-08-03T19:55:00Z,29,26,6+,29.76
LIRK,42.466,12.979,280,4,4.60312,LIRK 031955Z AUTO 28004KT //// 18/09 Q1021,2024-08-03T19:55:00Z,18,9,,30.15
LIRE,41.656,12.449,140,4,4.60312,LIRE 031955Z 14004KT CAVOK 28/// Q1008,2024-08-03T19:55:00Z,,,6+,29.76
LIQO,42.387,11.17,270,10,11.5078,LIQO 031955Z AUTO 27010KT //// 23/21 Q1012,2024-08-03T19:55:00Z,23,21,,29.88
LIQC,40.558,14.201,0,0,0.0,LIQC 031955Z 00000KT CAVOK 28/25 Q1010 RMK OVC OVC080 QUK / QUL / VIS MAR 20 KM VIS MIN 9999,2024-08-03T19:55:00Z,28,25,6+,29.82
LIPS,45.689,12.101,0,0,0.0,LIPS 031955Z 00000KT CAVOK 26/20 Q1010 RMK SKC VIS MIN 9999 WIND THR26 00000KT WIND THR08 00000KT BLU,2024-08-03T19:55:00Z,26,20,6+,29.82
LIPL,45.432,10.268,110,5,5.7539,LIPL 031955Z 11005KT CAVOK 26/26 Q1009 RMK SCT SCT200 VIS MIN 9999 WIND THR31 10003KT WIND THR13 10005KT BLU,2024-08-03T19:55:00Z,26,26,6+,29.79
LIPI,45.979,13.049,10,4,4.60312,LIPI 031955Z 01004KT CAVOK 25/21 Q1010 RMK SKC VIS MIN 9999 WIND THR06 01005KT WIND THR24 05005KT BLU,2024-08-03T19:55:00Z,25,21,6+,29.82
LIPC,44.224,12.307,210,4,4.60312,LIPC 031955Z 21004KT CAVOK 23/21 Q1010 RMK SKC VIS MIN 9999 WIND THR11 21003KT WIND THR29 21004KT BLU,2024-08-03T19:55:00Z,23,21,6+,29.82
LIMY,44.258,7.794,80,4,4.60312,LIMY 031955Z AUTO 08004KT //// ///// Q////,2024-08-03T19:55:00Z,,,,
LIMK,45.033,7.731,90,8,9.20624,LIMK 031955Z AUTO 09008KT //// 24/14 Q1013,2024-08-03T19:55:00Z,24,14,,29.91
LIMH,45.935,7.707,230,3,3.4523399999999995,LIMH 031955Z AUTO 23003KT //// ///// Q////,2024-08-03T19:55:00Z,,,,
LIED,39.354,8.973,310,11,12.658579999999999,LIED 031955Z 31011KT CAVOK 27/25 Q1009 RMK FEW FEW200 VIS MIN 9999 WIND THR34 /////KT WIND THR16 31012KT BLU,2024-08-03T19:55:00Z,27,25,6+,29.79
LIEB,39.931,9.713,70,5,5.7539,LIEB 031955Z 07005KT CAVOK 28/23 Q1008 RMK SKC QUK / QUL / VIS MAR 25 KM MON INVIS VIS MIN 9999,2024-08-03T19:55:00Z,28,23,6+,29.76
LICZ,37.406,14.919,80,4,4.60312,LICZ 031955Z 08004KT 9999 -DZ FEW035 SCT070 30/22 Q1007 RMK BKN BKN160 VIS MIN 9999 WIND THR28 16002KT WIND THR10 11006KT A2974 BLU,2024-08-03T19:55:00Z,30,22,6+,29.73
LICT,37.911,12.488,320,5,5.7539,LICT 031955Z 32005KT 9999 SCT015 27/26 Q1009 RMK SCT VIS MIN 9999 WIND THR13 34005KT BLU,2024-08-03T19:55:00Z,27,26,6+,29.79
LIBY,39.811,18.342,310,4,4.60312,LIBY 031955Z AUTO 31004KT //// 29/20 Q1007,2024-08-03T19:55:00Z,29,20,,29.73
LIBV,40.766,16.935,340,6,6.904679999999999,LIBV 031955Z 34006KT 9999 FEW008 SCT033 23/20 Q1011 RMK OVC VIS MIN 9999 WIND THR32 36009KT WIND THR14 34009KT BLU,2024-08-03T19:55:00Z,23,20,6+,29.85
LIBQ,39.331,16.396,VRB,2,2.30156,LIBQ 031955Z AUTO VRB02KT //// 21/09 Q1020,2024-08-03T19:55:00Z,21,9,,30.12
LIBN,40.238,18.138,340,11,12.658579999999999,LIBN 031955Z 34011KT CAVOK 29/27 Q1008 RMK BKN SCT100 BKN200 VIS MIN 9999 WIND THR14 35011KT WIND THR32 35013KT BLU,2024-08-03T19:55:00Z,29,27,6+,29.76
LIBA,41.538,15.714,260,6,6.904679999999999,LIBA 031955Z 26006KT 9999 TS FEW040CB 25/21 Q1011 RMK OVC SCT080 BKN140 VIS MIN 9999 WIND THR11 27007KT WIND THR29 /////KT BLU,2024-08-03T19:55:00Z,25,21,6+,29.85
KZPH,28.2268,-82.1564,350,4,4.60312,KZPH 031955Z AUTO 35004KT 10SM CLR 27/25 A2998 RMK A02 LTG DSNT ALQDS T02720251,2024-08-03T19:55:00Z,27.2,25.1,10+,29.98
KZER,40.7072,-76.371,320,3,3.4523399999999995,KZER 031955Z AUTO 32003KT 5SM VCTS BR CLR 21/21 A2989 RMK AO2 P0005 LTG DSNT NE AND NW,2024-08-03T19:55:00Z,21,21,5,29.89
KY70,42.9398,-85.0653,320,6,6.904679999999999,KY70 031955Z AUTO 32006KT 10SM SCT049 31/17 A2992 RMK AO2 T03070166,2024-08-03T19:55:00Z,30.7,16.6,10+,29.92
KY63,45.9891,-95.9946,200,14,16.11092,KY63 031955Z AUTO 20014G18KT 10SM CLR 31/23 A2988 RMK AO2 T03110230,2024-08-03T19:55:00Z,31.1,23,10+,29.88
KY51,43.5814,-90.8997,350,3,3.4523399999999995,KY51 031955Z AUTO 35003KT 10SM CLR 28/14 A3002 RMK AO2 T02780135,2024-08-03T19:55:00Z,27.8,13.5,10+,30.02
KY49,47.1599,-94.6433,120,9,10.357019999999999,KY49 031955Z AUTO 12009KT 10SM VCTS CLR 24/18 A2990 RMK AO2 LTG DSNT N SE AND NW T02350184,2024-08-03T19:55:00Z,23.5,18.4,10+,29.90
KY31,44.2434,-84.18,20,4,4.60312,KY31 031955Z AUTO 02004KT 10SM BKN060 29/13 A2991 RMK AO2 T02900133,2024-08-03T19:55:00Z,29,13.3,10+,29.91
KY23,45.311,-91.638,150,7,8.05546,KY23 031955Z AUTO 15007KT 10SM CLR 30/16 A2999 RMK AO2 T02950155,2024-08-03T19:55:00Z,29.5,15.5,10+,29.99
KY19,46.7648,-100.894,20,16,18.41248,KY19 031955Z AUTO 02016G22KT 10SM CLR 28/22 A3002 RMK AO2,2024-08-03T19:55:00Z,28,22,10+,30.02
KXNO,33.612,-81.07,170,9,10.357019999999999,KXNO 031955Z AUTO 17009G15KT 10SM SCT044 32/24 A2989 RMK AO2 SLP121 T03230235 $,2024-08-03T19:55:00Z,32.3,23.5,10+,29.89
KXMR,28.4674,-80.5589,170,5,5.7539,KXMR 031955Z AUTO 17005KT 10SM FEW170 27/24 A2993 RMK AO2 SLP138 T02730243 PWINO $,2024-08-03T19:55:00Z,27.3,24.3,10+,29.93
KXLL,40.5704,-75.4894,200,9,10.357019999999999,KXLL 031955Z AUTO 20009G15KT 10SM SCT039 33/23 A2979 RMK AO2 LTG DSNT N,2024-08-03T19:55:00Z,33,23,10+,29.79
KXIF,-99.99,-99.99,310,3,3.4523399999999995,KXIF 031955Z AUTO 31003KT 8SM CLR 27/24 A2980 RMK AO2 LTG DSNT NE AND SE-S RAB21E31RAB38E48 SLP088 P0000 T02730235 $,2024-08-03T19:55:00Z,27.3,23.5,8,29.80
KX60,29.3524,-82.4743,180,7,8.05546,KX60 031955Z AUTO 18007KT 10SM -VCTSRA SCT047 SCT070 OVC100 24/23 A3000 RMK AO2 LTG DSNT ALQDS P0009 T02360228,2024-08-03T19:55:00Z,23.6,22.8,10+,30.00
KX26,27.813,-80.497,90,4,4.60312,KX26 031955Z AUTO 09004KT 10SM -RA SCT036 BKN044 26/24 A2997 RMK AO2 LTG DSNT NE AND SW P0002 T02620243,2024-08-03T19:55:00Z,26.2,24.3,10+,29.97
KWYS,44.6811,-111.124,VRB,6,6.904679999999999,KWYS 031955Z AUTO VRB06G15KT 10SM CLR 31/01 A3028 RMK AO2,2024-08-03T19:55:00Z,31,1,10+,30.28
KWRI,40.016,-74.591,210,13,14.960139999999999,KWRI 031955Z 21013KT 10SM FEW047 35/23 A2977 RMK AO2A SLP079 T03460229 $,2024-08-03T19:55:00Z,34.6,22.9,10+,29.77
KWHP,34.2596,-118.415,130,5,5.7539,KWHP 031955Z 13005KT 10SM SKC 36/11 A2996,2024-08-03T19:55:00Z,36,11,10+,29.96
KWDR,33.981,-83.667,330,8,9.20624,KWDR 031955Z AUTO 33008KT 10SM SCT050 31/19 A2993 RMK AO2 LTG DSNT SE,2024-08-03T19:55:00Z,31,19,10+,29.93
KWBF,26.9305,-90.5069,0,0,0.0,KWBF 031955Z AUTO 00000KT 10SM FEW024 SCT042 BKN055 31/29 A2994 RMK A01,2024-08-03T19:55:00Z,31,29,10+,29.94
KW99,38.9947,-79.1421,230,6,6.904679999999999,KW99 031955Z AUTO 23006KT 10SM FEW140 29/21 A2984 RMK AO2 LTG DSNT SE AND SW T02860208,2024-08-03T19:55:00Z,28.6,20.8,10+,29.84
KW81,37.1813,-78.0977,220,3,3.4523399999999995,KW81 031955Z AUTO 22003KT 10SM SCT060 SCT075 BKN110 23/21 A2988 RMK AO1 P0005 T02320208,2024-08-03T19:55:00Z,23.2,20.8,10+,29.88
KW78,36.7087,-78.846,190,3,3.4523399999999995,KW78 031955Z AUTO 19003KT 10SM CLR 26/23 A2985 RMK AO1 T02590225,2024-08-03T19:55:00Z,25.9,22.5,10+,29.85
KW63,36.6008,-78.5559,0,0,0.0,KW63 031955Z AUTO 00000KT 10SM SCT055 BKN110 23/23 A2985 RMK AO1 P0027,2024-08-03T19:55:00Z,23,23,10+,29.85
KW43,44.6607,-104.568,70,6,6.904679999999999,KW43 031955Z AUTO 07006KT 10SM CLR 35/05 A3018 RMK AO2,2024-08-03T19:55:00Z,35,5,10+,30.18
KW22,39.001,-80.2712,250,6,6.904679999999999,KW22 031955Z AUTO 25006G11KT 9SM BKN016 BKN026 BKN031 27/21 A2992 RMK AO2,2024-08-03T19:55:00Z,27,21,9,29.92
KVYS,41.3517,-89.1496,190,3,3.4523399999999995,KVYS 031955Z AUTO 19003KT 10SM BKN048 BKN055 31/23 A2994 RMK AO2 T03080233,2024-08-03T19:55:00Z,30.8,23.3,10+,29.94
KVWU,48.1502,-94.512,70,4,4.60312,KVWU 031955Z AUTO 07004KT 10SM -VCTSDZ OVC048 20/18 A2997 RMK AO2 LTG DSNT SE THRU SW,2024-08-03T19:55:00Z,20,18,10+,29.97
KVVV,45.2994,-96.4256,210,10,11.5078,KVVV 031955Z AUTO 21010G14KT 176V236 10SM CLR 33/22 A2988 RMK AO2,2024-08-03T19:55:00Z,33,22,10+,29.88
KVVS,39.9581,-79.6575,180,4,4.60312,KVVS 031955Z AUTO 18004KT 10SM RA SCT075 SCT085 BKN110 22/20 A2990 RMK AO2 T02250200,2024-08-03T19:55:00Z,22.5,20,10+,29.90
KVTP,37.512,-105.171,100,5,5.7539,KVTP 031955Z AUTO 10005KT 070V130 10SM BKN065 BKN085 BKN100 23/03 A3075 RMK AO2,2024-08-03T19:55:00Z,23,3,10+,30.75
KVTI,42.2176,-92.0248,0,0,0.0,KVTI 031955Z AUTO 00000KT 10SM CLR 30/16 A3000 RMK AO2 T03020158,2024-08-03T19:55:00Z,30.2,15.8,10+,30.00
KVPS,30.483,-86.526,150,7,8.05546,KVPS 031955Z AUTO 15007KT 10SM FEW140 FEW170 32/25 A2989 RMK AO2 SLP127 T03240249 $,2024-08-03T19:55:00Z,32.4,24.9,10+,29.89
KVPC,34.1158,-84.8507,280,8,9.20624,KVPC 031955Z AUTO 28008KT 10SM CLR 31/19 A2993 RMK AO2,2024-08-03T19:55:00Z,31,19,10+,29.93
KVOK,43.938,-90.253,0,0,0.0,KVOK 031955Z 00000KT 10SM FEW200 30/14 A2997 RMK AO2A SLP146 T02950137,2024-08-03T19:55:00Z,29.5,13.7,10+,29.97
KVNC,27.0728,-82.44,80,9,10.357019999999999,KVNC 031955Z AUTO 08009G17KT 10SM FEW048 SCT055 SCT110 34/24 A2989 RMK AO2 LTG DSNT ALQDS,2024-08-03T19:55:00Z,34,24,10+,29.89
KVLL,42.543,-83.178,350,7,8.05546,KVLL 031955Z AUTO 35007KT 10SM CLR 30/15 A2992 RMK AO2 T03000153,2024-08-03T19:55:00Z,30,15.3,10+,29.92
KVKS,32.2359,-90.9269,360,6,6.904679999999999,KVKS 031955Z AUTO 36006G11KT 10SM CLR 34/23 A2990 RMK A01,2024-08-03T19:55:00Z,34,23,10+,29.90
KVJI,36.6871,-82.037,280,6,6.904679999999999,KVJI 031955Z AUTO 28006KT 10SM SCT050 SCT065 BKN090 22/21 A2997 RMK AO2 P0011 T02240206,2024-08-03T19:55:00Z,22.4,20.6,10+,29.97
KVHN,31.0602,-104.783,80,12,13.809359999999998,KVHN 031955Z AUTO 08012G19KT 10SM CLR 36/08 A3018 RMK AO2 T03610083,2024-08-03T19:55:00Z,36.1,8.3,10+,30.18
KVGN,34.8494,-120.6,320,7,8.05546,KVGN 031955Z AUTO 32007KT 10SM FEW290 FEW340 SCT370 17/14 A2999 RMK AO2 SLP158 T01680137,2024-08-03T19:55:00Z,16.8,13.7,10+,29.99
KVGC,42.8444,-75.5637,0,0,0.0,KVGC 031955Z AUTO 00000KT 10SM CLR 26/18 A2987 RMK AO2,2024-08-03T19:55:00Z,26,18,10+,29.87
KVES,40.2056,-84.5346,360,5,5.7539,KVES 031955Z AUTO 36005KT 7SM SCT037 SCT044 30/21 A2993 RMK AO2,2024-08-03T19:55:00Z,30,21,7,29.93
KVDI,32.1933,-82.3642,180,8,9.20624,KVDI 031955Z AUTO 18008G15KT 10SM SCT039 SCT060 BKN075 33/25 A2991 RMK AO2 LTG DSNT N AND SE,2024-08-03T19:55:00Z,33,25,10+,29.91
KVDF,28.0198,-82.3415,50,5,5.7539,KVDF 031955Z AUTO 05005KT 10SM CLR 28/24 A2996 RMK AO2,2024-08-03T19:55:00Z,28,24,10+,29.96
KVCV,34.5933,-117.389,VRB,4,4.60312,KVCV 031955Z AUTO VRB04KT 10SM CLR 37/06 A3007 RMK AO2,2024-08-03T19:55:00Z,37,6,10+,30.07
KVBG,34.733,-120.583,300,7,8.05546,KVBG 031955Z AUTO 30007KT 10SM SCT006 BKN340 20/15 A2999 RMK AO2 SLP158 T01970149 TSNO $,2024-08-03T19:55:00Z,19.7,14.9,10+,29.99
KVAF,27.3536,-94.6253,340,3,3.4523399999999995,KVAF 031955Z AUTO 34003KT 7SM CLR 34/23 A2998 RMK A01,2024-08-03T19:55:00Z,34,23,7,29.98
KVAD,30.979,-83.192,200,9,10.357019999999999,KVAD 031955Z AUTO 20009KT 10SM FEW047 34/23 A2989 RMK AO2 SLP121 T03380228 $,2024-08-03T19:55:00Z,33.8,22.8,10+,29.89
KUYF,39.9312,-83.465,120,7,8.05546,KUYF 031955Z AUTO 12007KT 10SM SCT032 SCT043 SCT060 26/22 A2993 RMK AO2 LTG DSNT E AND SE,2024-08-03T19:55:00Z,26,22,10+,29.93
KUXL,30.135,-93.3767,330,4,4.60312,KUXL 031955Z AUTO 33004KT 10SM SCT048 35/25 A2992 RMK AO2 T03540251,2024-08-03T19:55:00Z,35.4,25.1,10+,29.92
KUWL,39.8752,-85.3313,330,4,4.60312,KUWL 031955Z AUTO 33004G10KT 10SM SCT040 SCT050 29/20 A2994 RMK A01,2024-08-03T19:55:00Z,29,20,10+,29.94
KUVA,29.2135,-99.743,110,6,6.904679999999999,KUVA 031955Z AUTO 11006G15KT 10SM SCT070 38/19 A2998 RMK AO2 T03810190,2024-08-03T19:55:00Z,38.1,19,10+,29.98
KUTA,34.6766,-90.344,360,7,8.05546,KUTA 031955Z AUTO 36007KT 10SM FEW046 32/23 A2996 RMK AO2 T03210229 $,2024-08-03T19:55:00Z,32.1,22.9,10+,29.96
KUSE,41.6118,-84.1275,350,10,11.5078,KUSE 031955Z AUTO 35010KT 10SM SCT050 32/18 A2991 RMK AO2,2024-08-03T19:55:00Z,32,18,10+,29.91
KUOX,34.3851,-89.5435,VRB,3,3.4523399999999995,KUOX 031955Z AUTO VRB03KT 10SM FEW043 31/20 A2997 RMK AO2 PWINO,2024-08-03T19:55:00Z,31,20,10+,29.97
KUNU,43.4285,-88.7017,60,3,3.4523399999999995,KUNU 031955Z AUTO 06003KT 10SM SCT044 29/19 A2999 RMK AO2 T02900185,2024-08-03T19:55:00Z,29,18.5,10+,29.99
KUNI,39.2129,-82.2204,280,4,4.60312,KUNI 031955Z AUTO 28004KT 10SM SCT037 30/18 A2991 RMK AO2 T02970175,2024-08-03T19:55:00Z,29.7,17.5,10+,29.91
KUMP,39.936,-86.0478,350,7,8.05546,KUMP 031955Z AUTO 35007KT 10SM FEW046 30/20 A2995 RMK AO2 T03000205,2024-08-03T19:55:00Z,30,20.5,10+,29.95
KULS,37.6037,-101.377,120,20,23.0156,KULS 031955Z AUTO 12020G26KT 10SM CLR 33/20 A3011 RMK AO2 LTG DSNT SE AND S,2024-08-03T19:55:00Z,33,20,10+,30.11
KULM,44.3228,-94.5024,170,8,9.20624,KULM 031955Z AUTO 17008KT 10SM CLR 29/19 A2997 RMK AO2,2024-08-03T19:55:00Z,29,19,10+,29.97
KUKT,40.4368,-75.3802,130,9,10.357019999999999,KUKT 031955Z AUTO 13009KT 10SM SCT044 SCT049 33/23 A2980 RMK AO2,2024-08-03T19:55:00Z,33,23,10+,29.80
KUKL,38.3041,-95.7217,0,0,0.0,KUKL 031955Z AUTO 00000KT 10SM SCT060 32/18 A3006 RMK AO2 T03170175,2024-08-03T19:55:00Z,31.7,17.5,10+,30.06
KUBE,45.5046,-91.978,190,5,5.7539,KUBE 031955Z AUTO 19005KT 10SM CLR 27/16 A3001 RMK AO2 LTG DSNT N,2024-08-03T19:55:00Z,27,16,10+,30.01
KU69,40.198,-110.387,VRB,4,4.60312,KU69 031955Z AUTO VRB04G12KT 10SM CLR 35/01 A3023 RMK A01,2024-08-03T19:55:00Z,35,1,10+,30.23
KU68,44.9113,-108.447,100,5,5.7539,KU68 031955Z AUTO 10005KT 10SM CLR 35/02 A3012 RMK AO2,2024-08-03T19:55:00Z,35,2,10+,30.12
KU64,37.9333,-109.34,170,6,6.904679999999999,KU64 031955Z AUTO 17006KT 10SM CLR 31/07 A3040 RMK AO2 T03070067 $,2024-08-03T19:55:00Z,30.7,6.7,10+,30.40
KU52,38.232,-112.672,300,9,10.357019999999999,KU52 031955Z AUTO 30009KT 10SM SCT090 31/09 A3024 RMK AO2 LTG DSNT NE-S PWINO,2024-08-03T19:55:00Z,31,9,10+,30.24
KU42,40.6196,-111.99,140,15,17.261699999999998,KU42 031955Z AUTO 14015G19KT 10SM CLR 34/06 A3015 RMK AO1 T03350058,2024-08-03T19:55:00Z,33.5,5.8,10+,30.15
KTZR,39.8988,-83.1357,300,4,4.60312,KTZR 031955Z 30004KT 10SM VCTS SCT030 BKN035 BKN050 22/20 A2991 RMK TS DSNT NW AND SW TSB26,2024-08-03T19:55:00Z,22,20,10+,29.91
KTYQ,40.0345,-86.2488,340,6,6.904679999999999,KTYQ 031955Z AUTO 34006KT 10SM SCT037 29/22 A2996 RMK AO2 T02890219,2024-08-03T19:55:00Z,28.9,21.9,10+,29.96
KTXW,26.1824,-97.9742,80,5,5.7539,KTXW 031955Z AUTO 08005KT 10SM SCT050 35/21 A2995 RMK AO2 T03460215,2024-08-03T19:55:00Z,34.6,21.5,10+,29.95
KTWT,37.5432,-87.9568,340,5,5.7539,KTWT 031955Z AUTO 34005KT 10SM CLR 32/22 A2995 RMK AO2,2024-08-03T19:55:00Z,32,22,10+,29.95
KTWM,47.0192,-91.7447,100,6,6.904679999999999,KTWM 031955Z AUTO 10006KT 7SM -TSRA SCT015 SCT032 BKN085 19/18 A3000 RMK AO2 LTG DSNT ALQDS,2024-08-03T19:55:00Z,19,18,7,30.00
KTVK,40.6832,-92.8984,310,5,5.7539,KTVK 031955Z AUTO 31005KT 32/22 A3002 RMK A01,2024-08-03T19:55:00Z,32,22,,30.02
KTVI,30.9026,-83.8826,190,6,6.904679999999999,KTVI 031955Z AUTO 19006KT 10SM CLR 31/23 A2993 RMK AO2 LTG DSNT W,2024-08-03T19:55:00Z,31,23,10+,29.93
KTTS,28.5987,-80.6815,150,6,6.904679999999999,KTTS 031955Z AUTO 15006KT 10SM VCTS FEW210 27/24 A2995 RMK AO2 SLP146 T02680238 CHINO RWY33 $,2024-08-03T19:55:00Z,26.8,23.8,10+,29.95
KTTF,41.9371,-83.4332,310,6,6.904679999999999,KTTF 031955Z AUTO 31006KT 10SM SCT050 31/19 A2989 RMK AO2 T03070188,2024-08-03T19:55:00Z,30.7,18.8,10+,29.89
KTSP,35.1387,-118.442,320,13,14.960139999999999,KTSP 031955Z AUTO 32013KT 10SM CLR 33/08 A3016 RMK AO2,2024-08-03T19:55:00Z,33,8,10+,30.16
KTQV,36.007,-78.937,100,5,5.7539,KTQV 031955Z AUTO 10005KT 9SM FEW004 FEW021 SCT042 25/22 A2987 RMK A01 P0059,2024-08-03T19:55:00Z,25,22,9,29.87
KTQH,35.9304,-95.0025,0,0,0.0,KTQH 031955Z AUTO 00000KT 10SM CLR 36/17 A3003 RMK AO2,2024-08-03T19:55:00Z,36,17,10+,30.03
KTPF,27.9153,-82.4518,40,9,10.357019999999999,KTPF 031955Z AUTO 04009KT 10SM SCT095 28/23 A2995 RMK AO2,2024-08-03T19:55:00Z,28,23,10+,29.95
KTOC,34.588,-83.2974,230,12,13.809359999999998,KTOC 031955Z AUTO 23012KT 10SM CLR 33/20 A2990 RMK AO2 T03320195,2024-08-03T19:55:00Z,33.2,19.5,10+,29.90
KTOB,44.0202,-92.8295,150,3,3.4523399999999995,KTOB 031955Z AUTO 15003KT 10SM CLR 27/16 A3003 RMK AO2,2024-08-03T19:55:00Z,27,16,10+,30.03
KTNU,41.6701,-93.019,240,4,4.60312,KTNU 031955Z AUTO 24004KT CLR 30/21 A3000 RMK A01,2024-08-03T19:55:00Z,30,21,,30.00
KTNB,36.1988,-81.6515,200,8,9.20624,KTNB 031955Z AUTO 20008KT 10SM SCT016 BKN022 OVC070 22/18 A2984 RMK AO2 T02210182,2024-08-03T19:55:00Z,22.1,18.2,10+,29.84
KTMT,39.4643,-117.197,250,12,13.809359999999998,KTMT 031955Z AUTO 25012G19KT 10SM BKN090 BKN110 30/09 A3022 RMK AO2 T02950093,2024-08-03T19:55:00Z,29.5,9.3,10+,30.22
KTMK,45.421,-123.814,340,7,8.05546,KTMK 031955Z AUTO 34007KT 10SM CLR 19/19 A3010 RMK AO2,2024-08-03T19:55:00Z,19,19,10+,30.10
KTME,29.806,-95.903,20,4,4.60312,KTME 031955Z AUTO 02004KT 10SM FEW045 34/26 A2995 RMK AO2,2024-08-03T19:55:00Z,34,26,10+,29.95
KTMA,31.4229,-83.4859,170,11,12.658579999999999,KTMA 031955Z AUTO 17011KT 10SM BKN032 BKN041 BKN070 32/26 A2992 RMK AO2 LTG DSNT N AND SE T03160257 $,2024-08-03T19:55:00Z,31.6,25.7,10+,29.92
KTKX,36.2226,-90.0367,0,0,0.0,KTKX 031955Z AUTO 00000KT 10SM BKN044 BKN060 32/21 A2996 RMK AO2,2024-08-03T19:55:00Z,32,21,10+,29.96
KTKV,45.469,-89.805,40,3,3.4523399999999995,KTKV 031955Z AUTO 04003KT 10SM CLR 28/14 A3003 RMK AO2 T02800141 PWINO,2024-08-03T19:55:00Z,28,14.1,10+,30.03
KTKC,44.25,-95.612,200,11,12.658579999999999,KTKC 031955Z AUTO 20011KT 10SM CLR 32/23 A2996 RMK AO2,2024-08-03T19:55:00Z,32,23,10+,29.96
KTIK,35.415,-97.386,40,5,5.7539,KTIK 031955Z AUTO 04005KT 10SM CLR 35/13 A3000 RMK AO2 SLP144 T03460128,2024-08-03T19:55:00Z,34.6,12.8,10+,30.00
KTIF,41.9646,-100.569,150,7,8.05546,KTIF 031955Z AUTO 15007KT 10SM CLR 37/11 A3006 RMK AO2 T03730106,2024-08-03T19:55:00Z,37.3,10.6,10+,30.06
KTHA,35.3804,-86.2419,300,5,5.7539,KTHA 031955Z AUTO 30005G11KT 10SM FEW040 FEW047 FEW070 30/20 A2994 RMK A01,2024-08-03T19:55:00Z,30,20,10+,29.94
KTFP,27.9132,-97.2132,190,7,8.05546,KTFP 031955Z AUTO 19007KT 10SM CLR 37/24 A2995 RMK AO1 T03670236,2024-08-03T19:55:00Z,36.7,23.6,10+,29.95
KTEX,37.954,-107.909,360,3,3.4523399999999995,KTEX 031955Z AUTO 36003KT 10SM SCT100 28/M05 A3054 RMK AO2,2024-08-03T19:55:00Z,28,-5,10+,30.54
KTEW,42.5636,-84.4222,20,4,4.60312,KTEW 031955Z AUTO 02004KT 10SM SCT050 30/17 A2993 RMK AO2 T02950169,2024-08-03T19:55:00Z,29.5,16.9,10+,29.93
KTCY,37.6919,-121.444,340,6,6.904679999999999,KTCY 031955Z AUTO 34006KT 10SM CLR 34/13 A2991 RMK A01,2024-08-03T19:55:00Z,34,13,10+,29.91
KTCM,47.149,-122.475,270,6,6.904679999999999,KTCM 031955Z AUTO 27006KT 10SM FEW200 23/14 A3005 RMK AO2 SLP178 T02310141 $,2024-08-03T19:55:00Z,23.1,14.1,10+,30.05
KTBR,32.48,-81.738,190,10,11.5078,KTBR 031955Z AUTO 19010KT 10SM SCT024 SCT038 BKN044 31/23 A2991 RMK AO2 LTG DSNT N AND S T03140230,2024-08-03T19:55:00Z,31.4,23,10+,29.91
KTBN,37.7445,-92.1447,360,5,5.7539,KTBN 031955Z AUTO 36005KT 10SM CLR 33/18 A3002 RMK AO2 SLP156 T03260184 $,2024-08-03T19:55:00Z,32.6,18.4,10+,30.02
KTAZ,39.535,-89.3294,0,0,0.0,KTAZ 031955Z AUTO 00000KT 10SM SCT045 31/21 A2997 RMK AO2 T03060213,2024-08-03T19:55:00Z,30.6,21.3,10+,29.97
KT89,29.2774,-103.691,VRB,5,5.7539,KT89 031955Z AUTO VRB05G10KT 10SM CLR 36/13 A3003 RMK A01,2024-08-03T19:55:00Z,36,13,10+,30.03
KT82,30.239,-98.904,70,4,4.60312,KT82 031955Z AUTO 07004KT 5SM HZ SCT060 34/19 A3004 RMK AO2 T03420194,2024-08-03T19:55:00Z,34.2,19.4,5,30.04
KT78,30.0754,-94.6996,270,4,4.60312,KT78 031955Z AUTO 27004KT 10SM SCT044 35/23 A2991 RMK AO2,2024-08-03T19:55:00Z,35,23,10+,29.91
KT74,30.5704,-97.4447,0,0,0.0,KT74 031955Z AUTO 00000KT 10SM CLR 35/21 A2996 RMK AO2 T03530212,2024-08-03T19:55:00Z,35.3,21.2,10+,29.96
KT70,29.117,-100.473,190,7,8.05546,KT70 031955Z AUTO 19007KT 10SM CLR 39/17 A2994 RMK AO2 SLP122 T03890170 $,2024-08-03T19:55:00Z,38.9,17,10+,29.94
KT69,28.0418,-97.541,,,,KT69 031955Z AUTO 9SM CLR 35/24 A2994 RMK A01,2024-08-03T19:55:00Z,35,24,9,29.94
KT41,29.6709,-95.0644,90,5,5.7539,KT41 031955Z AUTO 09005KT 10SM CLR 36/23 A2993 RMK AO2 T03590230,2024-08-03T19:55:00Z,35.9,23,10+,29.93
KT35,30.8789,-96.9704,40,4,4.60312,KT35 031955Z AUTO 04004KT 10SM CLR 36/24 A2995 RMK AO2 T03570242,2024-08-03T19:55:00Z,35.7,24.2,10+,29.95
KT20,29.5301,-97.463,0,0,0.0,KT20 031955Z AUTO 00000KT 10SM SCT055 37/22 A2995 RMK AO2 T03690221,2024-08-03T19:55:00Z,36.9,22.1,10+,29.95
KSZY,35.2064,-88.5012,VRB,3,3.4523399999999995,KSZY 031955Z AUTO VRB03KT 10SM CLR 31/21 A2995 RMK A01,2024-08-03T19:55:00Z,31,21,10+,29.95
KSZT,48.2945,-116.567,230,5,5.7539,KSZT 031955Z AUTO 23005KT 10SM CLR 27/15 A2998 RMK AO2,2024-08-03T19:55:00Z,27,15,10+,29.98
KSZL,38.736,-93.55,50,5,5.7539,KSZL 031955Z COR 05005KT 10SM FEW040 SCT200 33/18 A3001 RMK AO2A SLP156 T03310176 $ COR 1957,2024-08-03T19:55:00Z,33.1,17.6,10+,30.01
KSYM,38.2199,-83.5835,320,6,6.904679999999999,KSYM 031955Z AUTO 32006KT 10SM FEW044 FEW065 27/19 A2993 RMK AO2,2024-08-03T19:55:00Z,27,19,10+,29.93
KSYF,39.7583,-101.793,130,6,6.904679999999999,KSYF 031955Z AUTO 13006KT 10SM CLR 35/11 A3013 RMK AO2,2024-08-03T19:55:00Z,35,11,10+,30.13
KSXS,31.364,-85.846,0,0,0.0,KSXS 031955Z AUTO 00000KT 10SM VCTS SCT095 32/22 A2990 RMK AO2 TSB34E49 SLP122 T03210219 $,2024-08-03T19:55:00Z,32.1,21.9,10+,29.90
KSXK,42.9895,-96.1645,190,9,10.357019999999999,KSXK 031955Z AUTO 19009KT 10SM CLR 31/23 A2997 RMK AO2,2024-08-03T19:55:00Z,31,23,10+,29.97
KSWW,32.4688,-100.467,30,8,9.20624,KSWW 031955Z AUTO 03008KT 10SM 39/12 A3007 RMK AO2 T03910123,2024-08-03T19:55:00Z,39.1,12.3,10+,30.07
KSVN,32.011,-81.131,160,11,12.658579999999999,KSVN 031955Z AUTO 16011KT 10SM SCT033 33/24 A2989 RMK AO2 SLP125 T03280242 FZRANO $,2024-08-03T19:55:00Z,32.8,24.2,10+,29.89
KSVC,32.631,-108.147,130,6,6.904679999999999,KSVC 031955Z AUTO 13006KT 10SM SCT120 33/06 A3027 RMK AO2 T03330061,2024-08-03T19:55:00Z,33.3,6.1,10+,30.27
KSUZ,34.5862,-92.4802,VRB,4,4.60312,KSUZ 031955Z AUTO VRB04KT 7SM SCT055 34/21 A2997 RMK A01,2024-08-03T19:55:00Z,34,21,7,29.97
KSUW,46.6833,-92.0926,100,3,3.4523399999999995,KSUW 031955Z AUTO 10003KT 10SM CLR 23/14 A2999 RMK AO2 T02270144,2024-08-03T19:55:00Z,22.7,14.4,10+,29.99
KSUU,38.25,-121.938,210,8,9.20624,KSUU 031955Z AUTO 21008KT 10SM CLR 35/08 A2990 RMK AO2 SLP131 T03460076 $,2024-08-03T19:55:00Z,34.6,7.6,10+,29.90
KSTK,40.6133,-103.261,120,6,6.904679999999999,KSTK 031955Z AUTO 12006KT 10SM CLR 34/11 A3016 RMK AO2,2024-08-03T19:55:00Z,34,11,10+,30.16
KSTF,33.4326,-88.8506,VRB,6,6.904679999999999,KSTF 031955Z AUTO VRB06G15KT 10SM FEW049 32/21 A2992 RMK AO2,2024-08-03T19:55:00Z,32,21,10+,29.92
KSTE,44.5437,-89.5347,140,4,4.60312,KSTE 031955Z AUTO 14004KT 10SM CLR 30/15 A2999 RMK AO2 T03010147,2024-08-03T19:55:00Z,30.1,14.7,10+,29.99
KSSI,31.1527,-81.3905,150,11,12.658579999999999,KSSI 031955Z AUTO 15011G18KT 10SM CLR 32/28 A2994 RMK AO2,2024-08-03T19:55:00Z,32,28,10+,29.94
KSRR,33.4667,-105.528,150,12,13.809359999999998,KSRR 031955Z AUTO 15012G17KT 10SM BKN080 26/09 A3040 RMK AO2,2024-08-03T19:55:00Z,26,9,10+,30.40
KSRE,35.271,-96.675,360,5,5.7539,KSRE 031955Z AUTO 36005KT 10SM CLR 33/16 A3002 RMK AO2,2024-08-03T19:55:00Z,33,16,10+,30.02
KSPK,40.1497,-111.677,20,7,8.05546,KSPK 031955Z AUTO 02007KT 320V050 9SM CLR 33/11 A3014 RMK AO2,2024-08-03T19:55:00Z,33,11,9,30.14
KSPF,44.4811,-103.788,10,9,10.357019999999999,KSPF 031955Z AUTO 01009KT 10SM CLR 34/10 A3015 RMK AO2,2024-08-03T19:55:00Z,34,10,10+,30.15
KSOW,34.2686,-110.002,250,8,9.20624,KSOW 031955Z AUTO 25008G13KT 10SM FEW110 31/05 A3034 RMK AO2,2024-08-03T19:55:00Z,31,5,10+,30.34
KSOA,30.5853,-100.651,140,9,10.357019999999999,KSOA 031955Z AUTO 14009KT 10SM CLR 38/16 A3009 RMK AO2,2024-08-03T19:55:00Z,38,16,10+,30.09
KSNL,35.3611,-96.9445,50,7,8.05546,KSNL 031955Z AUTO 05007KT 10SM CLR 35/12 A3003 RMK AO2 T03450117,2024-08-03T19:55:00Z,34.5,11.7,10+,30.03
KSNK,32.6917,-100.951,100,6,6.904679999999999,KSNK 031955Z AUTO 10006KT 10SM SCT080 37/13 A3007 RMK AO2 T03690133,2024-08-03T19:55:00Z,36.9,13.3,10+,30.07
KSNH,35.1731,-88.2146,VRB,4,4.60312,KSNH 031955Z AUTO VRB04KT 10SM FEW047 32/21 A2993 RMK A01,2024-08-03T19:55:00Z,32,21,10+,29.93
KSNC,41.383,-72.506,170,7,8.05546,KSNC 031955Z AUTO 17007KT 10SM FEW036 32/24 A2981 RMK AO2,2024-08-03T19:55:00Z,32,24,10+,29.81
KSMS,34.0003,-80.3582,180,8,9.20624,KSMS 031955Z AUTO 18008G19KT 9SM FEW039 SCT045 SCT050 34/24 A2990 RMK AO2 LTG DSNT N AND NW,2024-08-03T19:55:00Z,34,24,9,29.90
KSME,37.0529,-84.6141,300,8,9.20624,KSME 031955Z AUTO 30008KT 250V320 10SM SCT031 SCT038 29/22 A2992 RMK AO2,2024-08-03T19:55:00Z,29,22,10+,29.92
KSMD,41.144,-85.1492,50,5,5.7539,KSMD 031955Z AUTO 05005KT 6SM HZ FEW050 FEW060 FEW070 34/21 A2994 RMK A01,2024-08-03T19:55:00Z,34,21,6,29.94
KSLR,33.1615,-95.6189,20,6,6.904679999999999,KSLR 031955Z AUTO 02006KT 10SM SCT060 35/18 A2999 RMK AO2 T03460179,2024-08-03T19:55:00Z,34.6,17.9,10+,29.99
KSLO,38.6446,-88.9612,350,3,3.4523399999999995,KSLO 031955Z AUTO 35003KT 10SM CLR 31/21 A2997 RMK AO2 T03120211,2024-08-03T19:55:00Z,31.2,21.1,10+,29.97
KSLI,33.796,-118.042,210,9,10.357019999999999,KSLI 031955Z 21009KT 7SM CLR 30/17 A2989 RMK AO2A SLP125 T02950166,2024-08-03T19:55:00Z,29.5,16.6,7,29.89
KSLH,45.6523,-84.5202,20,6,6.904679999999999,KSLH 031955Z AUTO 02006KT 10SM CLR 29/12 A2992 RMK AO2,2024-08-03T19:55:00Z,29,12,10+,29.92
KSLB,42.5972,-95.2399,230,7,8.05546,KSLB 031955Z AUTO 23007KT CLR 31/22 A3002 RMK AO2,2024-08-03T19:55:00Z,31,22,,30.02
KSKF,29.392,-98.581,140,4,4.60312,KSKF 031955Z AUTO 14004KT 10SM FEW070 FEW130 SCT200 37/19 A2993 RMK AO2 SLP126 T03700194 $,2024-08-03T19:55:00Z,37,19.4,10+,29.93
KSKA,47.612,-117.679,200,9,10.357019999999999,KSKA 031955Z 20009KT 10SM CLR 28/13 A3000 RMK AO2A SLP132 T02750134 $,2024-08-03T19:55:00Z,27.5,13.4,10+,30.00
KSJX,45.6928,-85.5662,240,8,9.20624,KSJX 031955Z AUTO 24008KT 10SM CLR 28/16 A2996 RMK AO2 T02840158,2024-08-03T19:55:00Z,28.4,15.8,10+,29.96
KSJS,37.7489,-82.6413,0,0,0.0,KSJS 031955Z AUTO 00000KT 10SM SCT016 SCT025 SCT030 24/22 A2993 RMK AO2 P0004 T02400219,2024-08-03T19:55:00Z,24,21.9,10+,29.93
KSIK,36.9027,-89.5577,360,6,6.904679999999999,KSIK 031955Z AUTO 36006KT 10SM SCT050 32/20 A2996 RMK AO2 T03210199,2024-08-03T19:55:00Z,32.1,19.9,10+,29.96
KSHM,38.8,-104.52,360,6,6.904679999999999,KSHM 031955Z AUTO 36006KT 10SM CLR 32/05 A3028 RMK AO2 SLP161 T03160051 $,2024-08-03T19:55:00Z,31.6,5.1,10+,30.28
KSHL,43.2082,-95.8354,190,8,9.20624,KSHL 031955Z AUTO 19008KT 10SM CLR 31/22 A2998 RMK AO2,2024-08-03T19:55:00Z,31,22,10+,29.98
KSHD,38.2601,-78.9013,190,11,12.658579999999999,KSHD 031955Z AUTO 19011G15KT 7SM -VCTSRA SCT070 BKN095 OVC110 24/20 A2991 RMK AO2 LTG DSNT SE THRU SW T02350201,2024-08-03T19:55:00Z,23.5,20.1,7,29.91
KSGS,44.8601,-93.0321,150,6,6.904679999999999,KSGS 031955Z AUTO 15006KT 10SM CLR 28/15 A2997 RMK AO2 T02790148,2024-08-03T19:55:00Z,27.9,14.8,10+,29.97
KSFQ,36.6825,-76.6013,190,12,13.809359999999998,KSFQ 031955Z AUTO 19012G15KT 10SM 33/25 A2989 RMK AO2 LTG DSNT S T03340250,2024-08-03T19:55:00Z,33.4,25,10+,29.89
KSEZ,34.8467,-111.788,0,0,0.0,KSEZ 031955Z AUTO 00000KT 10SM CLR 34/10 A3020 RMK AO2,2024-08-03T19:55:00Z,34,10,10+,30.20
KSEQ,29.566,-97.908,80,8,9.20624,KSEQ 031955Z AUTO 08008KT 10SM CLR 36/24 A2992 RMK AO2 SLP126 T03600235,2024-08-03T19:55:00Z,36,23.5,10+,29.92
KSEP,32.215,-98.1793,80,4,4.60312,KSEP 031955Z AUTO 08004KT 10SM CLR 35/19 A3003 RMK AO2 T03500194,2024-08-03T19:55:00Z,35,19.4,10+,30.03
KSEF,27.4553,-81.3415,80,14,16.11092,KSEF 031955Z AUTO 08014KT 10SM VCTS CLR 30/24 A2995 RMK AO2 LTG DSNT NE S AND SW T03000242,2024-08-03T19:55:00Z,30,24.2,10+,29.95
KSDC,43.2355,-77.1201,250,4,4.60312,KSDC 031955Z AUTO 25004KT 10SM SCT020 26/21 A2985 RMK AO2 P0001,2024-08-03T19:55:00Z,26,21,10+,29.85
KSDA,40.7533,-95.4112,220,5,5.7539,KSDA 031955Z AUTO 22005KT 10SM CLR 32/23 A3001 RMK AO2,2024-08-03T19:55:00Z,32,23,10+,30.01
KSCX,36.4553,-84.584,280,6,6.904679999999999,KSCX 031955Z AUTO 28006G11KT 10SM FEW036 FEW065 SCT085 28/20 A2995 RMK A01,2024-08-03T19:55:00Z,28,20,10+,29.95
KSCK,37.89,-121.226,240,5,5.7539,KSCK 031955Z 24005KT 10SM CLR 37/12 A2990 RMK AO2 SLP126 T03720117,2024-08-03T19:55:00Z,37.2,11.7,10+,29.90
KSCD,33.1732,-86.2933,340,5,5.7539,KSCD 031955Z AUTO 34005KT 10SM SCT055 BKN100 OVC120 32/22 A2992 RMK AO2 T03210223,2024-08-03T19:55:00Z,32.1,22.3,10+,29.92
KSBX,48.541,-111.871,0,0,0.0,KSBX 031955Z AUTO 00000KT 10SM CLR 32/06 A3005 RMK AO2,2024-08-03T19:55:00Z,32,6,10+,30.05
KSBS,40.5153,-106.868,80,7,8.05546,KSBS 031955Z AUTO 08007KT 060V120 10SM CLR 32/01 A3033 RMK AO1 T03220007,2024-08-03T19:55:00Z,32.2,0.7,10+,30.33
KSBO,32.6111,-82.3702,210,9,10.357019999999999,KSBO 031955Z AUTO 21009G15KT 10SM SCT043 33/22 A2991 RMK AO2 LTG DSNT SW,2024-08-03T19:55:00Z,33,22,10+,29.91
KSAZ,46.3785,-94.8017,160,11,12.658579999999999,KSAZ 031955Z AUTO 16011KT 10SM CLR 30/18 A2991 RMK AO2,2024-08-03T19:55:00Z,30,18,10+,29.91
KSAR,38.1463,-89.7025,360,6,6.904679999999999,KSAR 031955Z AUTO 36006KT 10SM SCT047 30/20 A2999 RMK AO2 T02970203,2024-08-03T19:55:00Z,29.7,20.3,10+,29.99
KSAA,41.447,-106.815,0,0,0.0,KSAA 031955Z AUTO 00000KT 10SM CLR 32/M06 A3037 RMK AO2,2024-08-03T19:55:00Z,32,-6,10+,30.37
KS52,48.4282,-120.15,140,5,5.7539,KS52 031955Z AUTO 14005KT 10SM CLR 36/09 A2989 RMK AO2 T03620091,2024-08-03T19:55:00Z,36.2,9.1,10+,29.89
KS39,44.2858,-120.901,270,7,8.05546,KS39 031955Z AUTO 27007KT 10SM CLR 30/10 A3010 RMK AO2,2024-08-03T19:55:00Z,30,10,10+,30.10
KS34,47.4718,-114.901,VRB,5,5.7539,KS34 031955Z AUTO VRB05KT 10SM CLR 34/11 A2997 RMK AO2,2024-08-03T19:55:00Z,34,11,10+,29.97
KS33,44.6653,-121.157,350,4,4.60312,KS33 031955Z AUTO 35004KT 10SM SCT110 27/10 A3008 RMK AO2,2024-08-03T19:55:00Z,27,10,10+,30.08
KS32,47.424,-98.11,360,17,19.56326,KS32 031955Z AUTO 36017KT 10SM 26/23 A2997 RMK AO2 TSNO,2024-08-03T19:55:00Z,26,23,10+,29.97
KS25,47.7954,-103.257,40,10,11.5078,KS25 031955Z AUTO 04010KT 10SM CLR 28/15 A3009 RMK AO2,2024-08-03T19:55:00Z,28,15,10+,30.09
KS24,41.296,-83.037,VRB,5,5.7539,KS24 031955Z AUTO VRB05KT 10SM CLR 29/23 A2990 RMK AO2,2024-08-03T19:55:00Z,29,23,10+,29.90
KS21,43.8801,-121.454,250,6,6.904679999999999,KS21 031955Z AUTO 25006KT 7SM CLR 26/12 A3021 RMK AO2,2024-08-03T19:55:00Z,26,12,7,30.21
KS12,44.6394,-123.058,VRB,5,5.7539,KS12 031955Z VRB05KT 10SM CLR 25/16 A3002 RMK AO2 CAUTION/ LG BIRDS IN VICINITY OF AIRPORT,2024-08-03T19:55:00Z,25,16,10+,30.02
KRZT,39.4402,-83.0209,10,3,3.4523399999999995,KRZT 031955Z AUTO 01003KT 10SM SCT032 SCT039 28/18 A2991 RMK AO2 PWINO,2024-08-03T19:55:00Z,28,18,10+,29.91
KRZR,35.207,-84.8005,290,7,8.05546,KRZR 031955Z AUTO 29007KT 10SM FEW042 30/21 A2990 RMK A01,2024-08-03T19:55:00Z,30,21,10+,29.90
KRZN,45.8229,-92.3706,210,5,5.7539,KRZN 031955Z AUTO 21005KT 10SM CLR 28/14 A2998 RMK AO2 T02810135,2024-08-03T19:55:00Z,28.1,13.5,10+,29.98
KRZL,40.9488,-87.1851,20,4,4.60312,KRZL 031955Z AUTO 02004KT 10SM SCT048 SCT050 30/21 A2996 RMK AO2,2024-08-03T19:55:00Z,30,21,10+,29.96
KRYW,30.498,-97.969,80,4,4.60312,KRYW 031955Z AUTO 08004KT SCT060 36/21 A3003 RMK AO2 T03570208 PWINO,2024-08-03T19:55:00Z,35.7,20.8,,30.03
KRWV,30.5161,-96.7051,50,5,5.7539,KRWV 031955Z AUTO 05005KT 10SM SCT049 34/23 A2996 RMK AO2 T03450234,2024-08-03T19:55:00Z,34.5,23.4,10+,29.96
KRVL,40.6768,-77.6251,VRB,4,4.60312,KRVL 031955Z AUTO VRB04KT 3SM -RA BKN001 BKN023 OVC044 22/21 A2985 RMK AO2 P0056,2024-08-03T19:55:00Z,22,21,3,29.85
KRVJ,32.059,-82.153,180,3,3.4523399999999995,KRVJ 031955Z AUTO 18003G15KT 10SM SCT044 SCT050 34/22 A2991 RMK AO2 LTG DSNT SE T03390217,2024-08-03T19:55:00Z,33.9,21.7,10+,29.91
KRVF,45.534,-112.303,220,3,3.4523399999999995,KRVF 031955Z AUTO 22003KT 10SM CLR 32/06 A3013 RMK AO2,2024-08-03T19:55:00Z,32,6,10+,30.13
KRTS,39.6658,-119.873,330,13,14.960139999999999,KRTS 031955Z AUTO 33013KT 10SM FEW110 29/05 A3020 RMK AO2,2024-08-03T19:55:00Z,29,5,10+,30.20
KRSN,32.5159,-92.5899,0,0,0.0,KRSN 031955Z AUTO 00000KT 10SM 34/24 A2993 RMK AO2 T03440236 $,2024-08-03T19:55:00Z,34.4,23.6,10+,29.93
KRRT,48.9318,-95.3405,50,7,8.05546,KRRT 031955Z AUTO 05007KT 014V094 10SM SCT070 23/21 A2998 RMK AO2,2024-08-03T19:55:00Z,23,21,10+,29.98
KRQB,43.722,-85.498,310,6,6.904679999999999,KRQB 031955Z AUTO 31006G18KT 10SM CLR 30/12 A2994 RMK AO2 T02950122,2024-08-03T19:55:00Z,29.5,12.2,10+,29.94
KRPJ,41.8906,-89.0817,0,0,0.0,KRPJ 031955Z AUTO 00000KT 10SM CLR 31/18 A2996 RMK AO2 T03120175,2024-08-03T19:55:00Z,31.2,17.5,10+,29.96
KRPH,33.1096,-98.5537,30,11,12.658579999999999,KRPH 031955Z AUTO 03011G17KT 10SM CLR 38/11 A2996 RMK AO2 T03760108,2024-08-03T19:55:00Z,37.6,10.8,10+,29.96
KRPD,45.4186,-91.7764,160,7,8.05546,KRPD 031955Z AUTO 16007KT 140V200 10SM CLR 29/13 A3000 RMK AO2 T02910131,2024-08-03T19:55:00Z,29.1,13.1,10+,30.00
KROX,48.856,-95.6949,80,3,3.4523399999999995,KROX 031955Z AUTO 08003KT 10SM SCT031 26/19 A2996 RMK AO2 LTG DSNT SE AND S,2024-08-03T19:55:00Z,26,19,10+,29.96
KROS,45.6962,-92.9543,150,4,4.60312,KROS 031955Z AUTO 15004KT 10SM CLR 27/15 A2998 RMK AO2 LTG DSNT N AND NE T02670147,2024-08-03T19:55:00Z,26.7,14.7,10+,29.98
KRNV,33.762,-90.759,330,8,9.20624,KRNV 031955Z AUTO 33008KT 10SM CLR 32/22 A2994 RMK AO2 T03180222 $,2024-08-03T19:55:00Z,31.8,22.2,10+,29.94
KRNP,42.9937,-84.1347,340,8,9.20624,KRNP 031955Z AUTO 34008KT 10SM CLR 30/15 A2992 RMK AO2 T02950147,2024-08-03T19:55:00Z,29.5,14.7,10+,29.92
KRNO,39.5077,-119.768,320,7,8.05546,KRNO 031955Z 32007G18KT 290V350 10SM SCT100 BKN150 BKN190 32/07 A3014 RMK AO2 LTG DSNT SE RAB04E11 SLP136 CB DSNT E THRU SE AND S THRU SW P0000 T03220067,2024-08-03T19:55:00Z,32.2,6.7,10+,30.14
KRND,29.537,-98.268,170,3,3.4523399999999995,KRND 031955Z AUTO 17003KT 10SM FEW190 36/20 A2993 RMK AO2 SLP125 T03610195,2024-08-03T19:55:00Z,36.1,19.5,10+,29.93
KRNC,35.6991,-85.8402,330,6,6.904679999999999,KRNC 031955Z AUTO 33006KT 10SM FEW044 30/20 A2994 RMK A01,2024-08-03T19:55:00Z,30,20,10+,29.94
KRMY,42.2524,-84.9526,0,0,0.0,KRMY 031955Z AUTO 00000KT 10SM SCT044 30/19 A2993 RMK AO2 T02970194,2024-08-03T19:55:00Z,29.7,19.4,10+,29.93
KRMN,38.3941,-77.4523,200,11,12.658579999999999,KRMN 031955Z AUTO 20011G17KT 160V220 10SM CLR 34/19 A2981 RMK AO2 T03440193,2024-08-03T19:55:00Z,34.4,19.3,10+,29.81
KRLD,46.3086,-119.306,180,6,6.904679999999999,KRLD 031955Z AUTO 18006KT 10SM CLR 35/15 A2988 RMK AO2 T03530146,2024-08-03T19:55:00Z,35.3,14.6,10+,29.88
KRKR,35.0187,-94.6202,40,3,3.4523399999999995,KRKR 031955Z AUTO 04003KT 10SM CLR 35/18 A2999 RMK AO2,2024-08-03T19:55:00Z,35,18,10+,29.99
KRIV,33.878,-117.244,330,8,9.20624,KRIV 031955Z AUTO 33008KT 10SM CLR 38/06 A2996 RMK AO2 SLP127 T03840062,2024-08-03T19:55:00Z,38.4,6.2,10+,29.96
KRGK,44.5927,-92.4844,160,4,4.60312,KRGK 031955Z AUTO 16004KT 10SM CLR 29/13 A2997 RMK AO2,2024-08-03T19:55:00Z,29,13,10+,29.97
KRGA,37.6305,-84.329,330,9,10.357019999999999,KRGA 031955Z AUTO 33009KT 10SM SCT032 SCT039 29/21 A2994 RMK AO2,2024-08-03T19:55:00Z,29,21,10+,29.94
KRFI,32.1441,-94.8539,350,6,6.904679999999999,KRFI 031955Z AUTO 35006KT 10SM SCT070 38/18 A2995 RMK AO2 T03810178 PWINO,2024-08-03T19:55:00Z,38.1,17.8,10+,29.95
KREG,30.1756,-90.9397,210,5,5.7539,KREG 031955Z AUTO 21005KT 10SM CLR 30/26 A2991 RMK AO2 LTG DSNT NE AND SW P0003 T02960259,2024-08-03T19:55:00Z,29.6,25.9,10+,29.91
KRDR,47.9477,-97.4029,20,15,17.261699999999998,KRDR 031955Z AUTO 02015KT 10SM OVC031 26/18 A2991 RMK AO2 SLP130 T02620183 $,2024-08-03T19:55:00Z,26.2,18.3,10+,29.91
KRDK,41.0107,-95.2622,220,8,9.20624,KRDK 031955Z AUTO 22008KT 10SM CLR 32/22 A3003 RMK AO2,2024-08-03T19:55:00Z,32,22,10+,30.03
KRCX,45.4935,-90.9985,170,3,3.4523399999999995,KRCX 031955Z AUTO 17003KT 10SM CLR 27/15 A3002 RMK AO2 T02720154,2024-08-03T19:55:00Z,27.2,15.4,10+,30.02
KRCV,37.7092,-106.355,80,10,11.5078,KRCV 031955Z AUTO 08010G15KT 10SM CLR 30/M02 A3045 RMK AO2 LTG DSNT E T02971025,2024-08-03T19:55:00Z,29.7,-2.5,10+,30.45
KRCR,41.0651,-86.1864,0,0,0.0,KRCR 031955Z AUTO 00000KT 10SM CLR 30/22 A2994 RMK AO2,2024-08-03T19:55:00Z,30,22,10+,29.94
KRCE,35.4971,-97.8255,10,3,3.4523399999999995,KRCE 031955Z AUTO 01003G17KT 10SM CLR 35/13 A3004 RMK AO2 TSNO,2024-08-03T19:55:00Z,35,13,10+,30.04
KRBW,32.921,-80.64,190,13,14.960139999999999,KRBW 031955Z AUTO 19013G18KT 10SM SCT041 SCT047 32/22 A2993 RMK AO2 LTG DSNT S,2024-08-03T19:55:00Z,32,22,10+,29.93
KRBO,27.7781,-97.6878,0,0,0.0,KRBO 031955Z AUTO 00000KT SCT055 35/24 A2995 RMK AO2 T03450242 PWINO,2024-08-03T19:55:00Z,34.5,24.2,,29.95
KRAW,38.3484,-93.3436,10,5,5.7539,KRAW 031955Z AUTO 01005KT 10SM CLR 32/17 A3005 RMK AO2,2024-08-03T19:55:00Z,32,17,10+,30.05
KQVF,-99.99,-99.99,210,5,5.7539,KQVF 031955Z 21005KT 7SM CLR 37/03 A3002 RMK AO2A SLP168 WND DATA ESTMD ALSTG/SLP ESTMD,2024-08-03T19:55:00Z,37,3,7,30.02
KQRH,-99.99,-99.99,0,0,0.0,KQRH 031955Z AUTO 00000KT 9999 BKN240 35/19 A2966 RMK AO2 SLP046 WND DATA ESTMD T03520191,2024-08-03T19:55:00Z,35.2,19.1,6+,29.66
KQHY,-99.99,-99.99,230,4,4.60312,KQHY 031955Z AUTO 23004KT 10SM CLR 32/25 A2990 RMK AO2 LTG DSNT N SLP133 T03200250,2024-08-03T19:55:00Z,32,25,10+,29.90
KQD3,-99.99,-99.99,VRB,3,3.4523399999999995,KQD3 031955Z VRB03KT 9999 SCT240 35/19 A2976 RMK AO2A SLP062 WND DATA ESTMD T03500190,2024-08-03T19:55:00Z,35,19,6+,29.76
KQBL,-99.99,-99.99,VRB,4,4.60312,KQBL 031955Z AUTO VRB04KT 10SM CLR 32/25 A2991 RMK AO2 LTG DSNT N SLP134 WND DATA ESTMD T03190247,2024-08-03T19:55:00Z,31.9,24.7,10+,29.91
KPZZ,28.4344,-91.0344,230,8,9.20624,KPZZ 031955Z AUTO 23008G19KT 10SM 29/24 A2995 RMK A01,2024-08-03T19:55:00Z,29,24,10+,29.95
KPZQ,45.4085,-83.812,330,12,13.809359999999998,KPZQ 031955Z AUTO 33012G17KT 10SM CLR 28/11 A2993 RMK AO2 T02800110,2024-08-03T19:55:00Z,28,11,10+,29.93
KPYX,36.4103,-100.751,180,10,11.5078,KPYX 031955Z AUTO 18010KT 10SM BKN110 A3012 RMK AO2,2024-08-03T19:55:00Z,,,10+,30.12
KPXE,32.5072,-83.7656,320,13,14.960139999999999,KPXE 031955Z AUTO 32013KT 10SM OVC040 28/22 A2992 RMK AO2 LTG DSNT ALQDS T02800223,2024-08-03T19:55:00Z,28,22.3,10+,29.92
KPWD,48.7912,-104.525,50,5,5.7539,KPWD 031955Z AUTO 05005G12KT 10SM CLR 28/07 A3012 RMK AO2,2024-08-03T19:55:00Z,28,7,10+,30.12
KPWC,46.7266,-94.3849,110,12,13.809359999999998,KPWC 031955Z AUTO 11012KT 10SM CLR 26/18 A2996 RMK AO2 LTG DSNT N THRU E,2024-08-03T19:55:00Z,26,18,10+,29.96
KPVW,34.169,-101.723,120,10,11.5078,KPVW 031955Z AUTO 12010KT 10SM CLR 34/09 A3014 RMK AO2 T03420093,2024-08-03T19:55:00Z,34.2,9.3,10+,30.14
KPVJ,34.7041,-97.2211,30,6,6.904679999999999,KPVJ 031955Z AUTO 03006KT 10SM CLR 35/14 A3001 RMK AO2 T03450144,2024-08-03T19:55:00Z,34.5,14.4,10+,30.01
KPVF,38.7222,-120.757,200,7,8.05546,KPVF 031955Z AUTO 20007KT 10SM CLR 33/07 A3008 RMK AO1,2024-08-03T19:55:00Z,33,7,10+,30.08
KPVE,35.6592,-88.1929,VRB,5,5.7539,KPVE 031955Z AUTO VRB05G11KT 10SM SCT045 SCT060 31/20 A2994 RMK A01,2024-08-03T19:55:00Z,31,20,10+,29.94
KPVB,42.6909,-90.4413,20,6,6.904679999999999,KPVB 031955Z AUTO 02006KT 10SM SCT046 BKN070 30/19 A2999 RMK AO1 T03030188,2024-08-03T19:55:00Z,30.3,18.8,10+,29.99
KPUJ,33.9085,-84.9369,0,0,0.0,KPUJ 031955Z AUTO 00000KT 7SM SCT045 28/18 A2995 RMK AO2,2024-08-03T19:55:00Z,28,18,7,29.95
KPTT,37.7069,-98.7453,290,14,16.11092,KPTT 031955Z AUTO 29014KT 10SM CLR 30/16 A3011 RMK AO2 T02970161,2024-08-03T19:55:00Z,29.7,16.1,10+,30.11
KPTS,37.4512,-94.7322,80,5,5.7539,KPTS 031955Z AUTO 08005KT 10SM CLR 33/14 A3002 RMK AO2 T03320143 PWINO,2024-08-03T19:55:00Z,33.2,14.3,10+,30.02
KPTD,44.6757,-74.9469,230,13,14.960139999999999,KPTD 031955Z AUTO 23013KT 10SM CLR 28/23 A2978 RMK AO2,2024-08-03T19:55:00Z,28,23,10+,29.78
KPSO,37.291,-107.056,230,4,4.60312,KPSO 031955Z AUTO 23004KT 10SM SCT110 30/02 A3040 RMK AO2 LTG DSNT NW T03020023,2024-08-03T19:55:00Z,30.2,2.3,10+,30.40
KPSN,31.7784,-95.7048,VRB,3,3.4523399999999995,KPSN 031955Z AUTO VRB03KT 10SM CLR 36/22 A2992 RMK AO2,2024-08-03T19:55:00Z,36,22,10+,29.92
KPSM,43.0677,-70.8127,230,5,5.7539,KPSM 031955Z 23005KT 10SM SCT030 SCT100 BKN220 31/22 A2976 RMK AO2A SLP079 T03050215,2024-08-03T19:55:00Z,30.5,21.5,10+,29.76
KPSK,37.1337,-80.6789,240,6,6.904679999999999,KPSK 031955Z AUTO 24006KT 10SM SCT037 SCT047 SCT050 28/21 A2993 RMK AO2 T02750205,2024-08-03T19:55:00Z,27.5,20.5,10+,29.93
KPRS,29.6346,-104.358,90,8,9.20624,KPRS 031955Z AUTO 09008G14KT 10SM CLR 37/05 A3007 RMK AO2 T03740048,2024-08-03T19:55:00Z,37.4,4.8,10+,30.07
KPRG,39.6982,-87.6669,320,5,5.7539,KPRG 031955Z AUTO 32005KT 10SM SCT041 31/22 A2997 RMK AO2 T03080218,2024-08-03T19:55:00Z,30.8,21.8,10+,29.97
KPPQ,39.6391,-90.7818,0,0,0.0,KPPQ 031955Z AUTO 00000KT 10SM SCT039 SCT046 BKN060 31/22 A3000 RMK AO2 T03130215,2024-08-03T19:55:00Z,31.3,21.5,10+,30.00
KPPO,41.5705,-86.7333,310,7,8.05546,KPPO 031955Z AUTO 31007KT 10SM CLR 31/20 A2995 RMK AO2,2024-08-03T19:55:00Z,31,20,10+,29.95
KPPA,35.6139,-100.997,180,7,8.05546,KPPA 031955Z AUTO 18007G16KT 10SM CLR 36/13 A3014 RMK AO2 T03610129,2024-08-03T19:55:00Z,36.1,12.9,10+,30.14
KPOY,44.8641,-108.79,120,7,8.05546,KPOY 031955Z AUTO 12007KT 10SM CLR 34/00 A3018 RMK AO2,2024-08-03T19:55:00Z,34,0,10+,30.18
KPOV,41.209,-81.2479,0,0,0.0,KPOV 031955Z AUTO 00000KT 10SM SCT014 SCT028 SCT035 24/20 A2991 RMK AO2 T02360198 PWINO,2024-08-03T19:55:00Z,23.6,19.8,10+,29.91
KPOE,31.047,-93.194,270,5,5.7539,KPOE 031955Z 27005KT 10SM SCT055 35/24 A2991 RMK AO2A LTG DSNT N-NE SLP127 T03530242,2024-08-03T19:55:00Z,35.3,24.2,10+,29.91
KPO1,48.134,-105.162,50,10,11.5078,KPO1 031955Z AUTO 05010KT 030V090 10SM CLR 30/11 A3008 RMK AO2,2024-08-03T19:55:00Z,30,11,10+,30.08
KPNT,40.9233,-88.6213,0,0,0.0,KPNT 031955Z AUTO 00000KT 10SM SCT046 SCT060 31/20 A2996 RMK AO2 T03060202,2024-08-03T19:55:00Z,30.6,20.2,10+,29.96
KPNM,45.556,-93.608,160,7,8.05546,KPNM 031955Z AUTO 16007KT 10SM CLR 30/16 A2998 RMK AO2,2024-08-03T19:55:00Z,30,16,10+,29.98
KPNA,42.7929,-109.805,180,8,9.20624,KPNA 031955Z AUTO 18008G17KT 10SM CLR 32/M02 A3035 RMK AO2,2024-08-03T19:55:00Z,32,-2,10+,30.35
KPMV,40.9446,-95.9124,220,6,6.904679999999999,KPMV 031955Z AUTO 22006KT 10SM CLR 32/21 A3003 RMK AO2 T03240211,2024-08-03T19:55:00Z,32.4,21.1,10+,30.03
KPMU,34.3656,-89.8904,10,4,4.60312,KPMU 031955Z AUTO 01004KT 10SM CLR 31/21 A2995 RMK AO2,2024-08-03T19:55:00Z,31,21,10+,29.95
KPLU,47.1005,-122.285,0,0,0.0,KPLU 031955Z AUTO 00000KT 7SM CLR 26/11 A3007 RMK AO2,2024-08-03T19:55:00Z,26,11,7,30.07
KPLR,33.5608,-86.2463,0,0,0.0,KPLR 031955Z AUTO 00000KT 10SM SCT047 SCT060 BKN085 31/21 A2992 RMK A01,2024-08-03T19:55:00Z,31,21,10+,29.92
KPJC,40.8009,-80.1624,0,0,0.0,KPJC 031955Z AUTO 00000KT 10SM SCT017 SCT022 BKN031 24/21 A2987 RMK AO2 P0002,2024-08-03T19:55:00Z,24,21,10+,29.87
KPIM,32.8421,-84.8766,210,3,3.4523399999999995,KPIM 031955Z AUTO 21003KT 10SM FEW050 BKN070 31/23 A2994 RMK AO2,2024-08-03T19:55:00Z,31,23,10+,29.94
KPHT,36.3322,-88.3871,0,0,0.0,KPHT 031955Z AUTO 00000KT 10SM FEW044 FEW050 31/20 A2996 RMK A01,2024-08-03T19:55:00Z,31,20,10+,29.96
KPHP,44.051,-101.601,350,10,11.5078,KPHP 031955Z AUTO 35010G18KT 10SM CLR 41/10 A2995 RMK AO2 SLP112 T04110100,2024-08-03T19:55:00Z,41.1,10,10+,29.95
KPHN,42.9103,-82.5332,320,7,8.05546,KPHN 031955Z AUTO 32007KT 10SM CLR 29/16 A2989 RMK AO2,2024-08-03T19:55:00Z,29,16,10+,29.89
KPEZ,28.9561,-98.5184,190,13,14.960139999999999,KPEZ 031955Z AUTO 19013G22KT 10SM CLR 38/20 A2996 RMK AO2 T03810200,2024-08-03T19:55:00Z,38.1,20,10+,29.96
KPEX,45.3725,-94.7388,150,9,10.357019999999999,KPEX 031955Z AUTO 15009G14KT 10SM CLR 29/21 A2994 RMK AO2,2024-08-03T19:55:00Z,29,21,10+,29.94
KPEQ,31.382,-103.512,100,10,11.5078,KPEQ 031955Z AUTO 10010G16KT 10SM CLR 38/12 A3005 RMK AO2 T03780119,2024-08-03T19:55:00Z,37.8,11.9,10+,30.05
KPEA,41.3989,-92.9431,20,3,3.4523399999999995,KPEA 031955Z AUTO 02003KT 10SM CLR 30/22 A3001 RMK AO2 T03030217,2024-08-03T19:55:00Z,30.3,21.7,10+,30.01
KPDC,43.0194,-91.1212,0,0,0.0,KPDC 031955Z AUTO 00000KT 10SM SCT060 30/14 A2998 RMK AO2 T03030143,2024-08-03T19:55:00Z,30.3,14.3,10+,29.98
KPCZ,44.3342,-89.0203,350,4,4.60312,KPCZ 031955Z AUTO 35004KT 10SM CLR 31/11 A2999 RMK AO2 T03070111,2024-08-03T19:55:00Z,30.7,11.1,10+,29.99
KPCW,41.5188,-82.8692,0,0,0.0,KPCW 031955Z AUTO 00000KT 10SM CLR 29/22 A2988 RMK AO2,2024-08-03T19:55:00Z,29,22,10+,29.88
KPCM,28.0013,-82.1593,80,4,4.60312,KPCM 031955Z AUTO 08004KT 10SM SCT085 30/25 A2998 RMK AO2,2024-08-03T19:55:00Z,30,25,10+,29.98
KPCD,37.8749,-89.8582,320,7,8.05546,KPCD 031955Z AUTO 32007KT 10SM SCT050 32/21 A2997 RMK AO2 T03200209,2024-08-03T19:55:00Z,32,20.9,10+,29.97
KPBX,37.5587,-82.5674,0,0,0.0,KPBX 031955Z AUTO 00000KT 10SM SCT014 SCT095 BKN120 24/22 A2994 RMK AO2 LTG DSNT SE AND SW P0001 T02410217,2024-08-03T19:55:00Z,24.1,21.7,10+,29.94
KPBH,45.7064,-90.4052,70,3,3.4523399999999995,KPBH 031955Z AUTO 07003KT 10SM CLR 27/15 A3001 RMK AO2 T02710154,2024-08-03T19:55:00Z,27.1,15.4,10+,30.01
KPAN,34.2551,-111.338,200,10,11.5078,KPAN 031955Z AUTO 20010KT 180V240 10SM CLR 34/09 A3024 RMK AO2 PWINO TSNO,2024-08-03T19:55:00Z,34,9,10+,30.24
KPAM,30.071,-85.577,200,8,9.20624,KPAM 031955Z 20008KT 10SM SCT020 SCT150 32/24 A2989 RMK AO2A LTG DSNT NE SLP125 T03190242,2024-08-03T19:55:00Z,31.9,24.2,10+,29.89
KP58,44.0217,-82.7929,0,0,0.0,KP58 031955Z AUTO 00000KT 27/20 A2990 RMK AO1 SLP116 T02720200,2024-08-03T19:55:00Z,27.2,20,,29.90
KP52,34.7263,-112.034,VRB,5,5.7539,KP52 031955Z AUTO VRB05KT 10SM VCTS CLR 37/12 A3008 RMK AO2 LTG DSNT S AND SW,2024-08-03T19:55:00Z,37,12,10+,30.08
KP08,32.9359,-111.427,0,0,0.0,KP08 031955Z AUTO 00000G12KT 10SM CLR 41/13 A2991 RMK AO2,2024-08-03T19:55:00Z,41,13,10+,29.91
KOZW,42.6327,-83.9854,300,9,10.357019999999999,KOZW 031955Z AUTO 30009KT 10SM CLR 29/18 A2993 RMK AO2 T02900178,2024-08-03T19:55:00Z,29,17.8,10+,29.93
KOZS,37.9745,-92.6897,0,0,0.0,KOZS 031955Z AUTO 00000KT 10SM CLR 32/15 A3005 RMK AO2,2024-08-03T19:55:00Z,32,15,10+,30.05
KOZR,31.2767,-85.7105,200,8,9.20624,KOZR 031955Z AUTO 20008KT 10SM FEW200 34/23 A2989 RMK AO2 LTG DSNT N AND E AND S SLP119 T03390226 $,2024-08-03T19:55:00Z,33.9,22.6,10+,29.89
KOYM,41.4118,-78.5131,0,0,0.0,KOYM 031955Z AUTO 00000KT 10SM SCT039 BKN095 OVC120 22/20 A2995 RMK AO2 P0001 PWINO,2024-08-03T19:55:00Z,22,20,10+,29.95
KOYE,28.8669,-90.4911,0,0,0.0,KOYE 031955Z AUTO 00000KT 4SM HZ CLR 33/25 A2993 RMK A01,2024-08-03T19:55:00Z,33,25,4,29.93
KOXV,41.2984,-93.1114,320,6,6.904679999999999,KOXV 031955Z AUTO 32006KT 10SM CLR 31/20 A3000 RMK AO2,2024-08-03T19:55:00Z,31,20,10+,30.00
KOXI,41.3275,-86.665,40,4,4.60312,KOXI 031955Z AUTO 04004KT 10SM CLR 31/13 A2993 RMK AO1,2024-08-03T19:55:00Z,31,13,10+,29.93
KOWX,41.0341,-83.9862,10,5,5.7539,KOWX 031955Z AUTO 01005KT 7SM SCT043 BKN050 31/17 A2992 RMK AO1,2024-08-03T19:55:00Z,31,17,7,29.92
KOWP,36.1721,-96.1536,80,4,4.60312,KOWP 031955Z AUTO 08004KT 10SM CLR 36/14 A3005 RMK AO2 T03610144,2024-08-03T19:55:00Z,36.1,14.4,10+,30.05
KOWI,38.5409,-95.2542,0,0,0.0,KOWI 031955Z AUTO 00000KT 10SM CLR 34/20 A3003 RMK AO2 PWINO,2024-08-03T19:55:00Z,34,20,10+,30.03
KOVL,44.7792,-95.0304,160,10,11.5078,KOVL 031955Z AUTO 16010KT 10SM CLR 29/22 A2994 RMK AO2,2024-08-03T19:55:00Z,29,22,10+,29.94
KOSC,44.453,-83.396,50,11,12.658579999999999,KOSC 031955Z AUTO 05011KT 10SM SCT055 29/16 A2990 RMK AO2 T02900158,2024-08-03T19:55:00Z,29,15.8,10+,29.90
KOSA,33.0936,-94.9601,60,7,8.05546,KOSA 031955Z AUTO 06007KT 10SM SCT050 34/21 A2995 RMK AO2 T03410214,2024-08-03T19:55:00Z,34.1,21.4,10+,29.95
KORS,48.7081,-122.909,180,8,9.20624,KORS 031955Z AUTO 18008KT 9SM CLR 20/13 A3004 RMK AO2,2024-08-03T19:55:00Z,20,13,9,30.04
KORK,34.833,-92.2557,330,5,5.7539,KORK 031955Z AUTO 33005G11KT 10SM FEW049 32/22 A2998 RMK AO2,2024-08-03T19:55:00Z,32,22,10+,29.98
KORG,30.068,-93.8043,0,0,0.0,KORG 031955Z AUTO 00000KT 10SM CLR 35/22 A2992 RMK AO2 T03540217,2024-08-03T19:55:00Z,35.4,21.7,10+,29.92
KOQN,39.9889,-75.5803,200,3,3.4523399999999995,KOQN 031955Z AUTO 20003KT 10SM SCT037 32/22 A2981 RMK AO2,2024-08-03T19:55:00Z,32,22,10+,29.81
KOPN,32.954,-84.2595,180,9,10.357019999999999,KOPN 031955Z AUTO 18009KT 10SM BKN046 BKN060 BKN075 A2995 RMK AO2 LTG DSNT SE THRU SW,2024-08-03T19:55:00Z,,,10+,29.95
KOOA,41.2273,-92.4919,350,3,3.4523399999999995,KOOA 031955Z AUTO 35003KT 3SM CLR 31/21 A3001 RMK AO2 T03130211,2024-08-03T19:55:00Z,31.3,21.1,3,30.01
KONZ,42.0991,-83.161,10,7,8.05546,KONZ 031955Z AUTO 01007KT BKN055 BKN075 OVC100 32/09 A2988 RMK AO2 T03180089 PWINO,2024-08-03T19:55:00Z,31.8,8.9,,29.88
KONP,44.5825,-124.057,340,11,12.658579999999999,KONP 031955Z AUTO 34011KT 10SM CLR 17/13 A3010 RMK AO2,2024-08-03T19:55:00Z,17,13,10+,30.10
KONM,34.0263,-106.904,100,5,5.7539,KONM 031955Z AUTO 10005KT 10SM CLR 35/08 A3021 RMK AO2 T03480081,2024-08-03T19:55:00Z,34.8,8.1,10+,30.21
KONL,42.4691,-98.6903,170,13,14.960139999999999,KONL 031955Z AUTO 17013KT 10SM CLR 35/17 A3001 RMK AO2 T03510170,2024-08-03T19:55:00Z,35.1,17,10+,30.01
KONA,44.076,-91.707,0,0,0.0,KONA 031955Z AUTO 00000KT 10SM CLR 28/14 A3000 RMK AO2,2024-08-03T19:55:00Z,28,14,10+,30.00
KOMH,38.2487,-78.0454,210,11,12.658579999999999,KOMH 031955Z AUTO 21011G19KT 10SM SCT044 32/21 A2983 RMK AO2,2024-08-03T19:55:00Z,32,21,10+,29.83
KOLZ,42.6831,-91.976,VRB,3,3.4523399999999995,KOLZ 031955Z AUTO VRB03KT 10SM CLR 29/16 A3001 RMK A01,2024-08-03T19:55:00Z,29,16,10+,30.01
KOLY,38.7213,-88.1799,0,0,0.0,KOLY 031955Z AUTO 00000KT 10SM SCT044 SCT049 31/20 A2997 RMK AO2 T03110204,2024-08-03T19:55:00Z,31.1,20.4,10+,29.97
KOLG,46.3153,-91.8183,90,3,3.4523399999999995,KOLG 031955Z AUTO 09003KT 10SM CLR 28/12 A2999 RMK AO1,2024-08-03T19:55:00Z,28,12,10+,29.99
KOLE,42.2429,-78.3721,0,0,0.0,KOLE 031955Z AUTO 00000KT 10SM SCT013 BKN050 OVC110 22/18 A2993 RMK AO2,2024-08-03T19:55:00Z,22,18,10+,29.93
KOKZ,32.9651,-82.8387,20,4,4.60312,KOKZ 031955Z AUTO 02004KT 10SM VCTS SCT035 SCT044 BKN070 28/24 A2988 RMK AO2 LTG DSNT NW THRU E P0019 T02770240,2024-08-03T19:55:00Z,27.7,24,10+,29.88
KOKV,39.1406,-78.1391,0,0,0.0,KOKV 031955Z AUTO 00000KT 10SM BKN070 BKN100 25/22 A2981 RMK AO2 LTG DSNT E AND SE,2024-08-03T19:55:00Z,25,22,10+,29.81
KOKM,35.6713,-95.9514,80,4,4.60312,KOKM 031955Z AUTO 08004KT 10SM CLR 35/16 A3001 RMK AO2 T03500160,2024-08-03T19:55:00Z,35,16,10+,30.01
KOIN,39.8298,-100.538,160,9,10.357019999999999,KOIN 031955Z AUTO 16009G14KT CLR 36/16 A3013 RMK AO1 T03560157 PWINO,2024-08-03T19:55:00Z,35.6,15.7,,30.13
KOIC,42.5642,-75.5269,0,0,0.0,KOIC 031955Z AUTO 00000KT 10SM -RA CLR 26/20 A2988 RMK AO2 T02550204,2024-08-03T19:55:00Z,25.5,20.4,10+,29.88
KOGS,44.68,-75.4641,220,11,12.658579999999999,KOGS 031955Z AUTO 22011G16KT 10SM CLR 28/23 A2976 RMK AO2,2024-08-03T19:55:00Z,28,23,10+,29.76
KOGA,41.1164,-101.768,210,4,4.60312,KOGA 031955Z AUTO 21004KT 10SM CLR 33/16 A3012 RMK AO2 T03300161,2024-08-03T19:55:00Z,33,16.1,10+,30.12
KOFF,41.122,-95.91,210,8,9.20624,KOFF 031955Z AUTO 21008KT 10SM CLR 35/18 A3001 RMK AO2 SLP154 T03490176,2024-08-03T19:55:00Z,34.9,17.6,10+,30.01
KOEO,45.3108,-92.6948,160,8,9.20624,KOEO 031955Z AUTO 16008KT 10SM CLR 29/17 A3001 RMK AO2 T02850166 PWINO,2024-08-03T19:55:00Z,28.5,16.6,10+,30.01
KOEL,39.1139,-100.819,190,11,12.658579999999999,KOEL 031955Z AUTO 19011G18KT 10SM CLR 35/10 A3014 RMK AO1 T03460096,2024-08-03T19:55:00Z,34.6,9.6,10+,30.14
KOCQ,44.8749,-87.9084,150,6,6.904679999999999,KOCQ 031955Z AUTO 15006KT 10SM CLR 29/16 A2996 RMK AO1 T02910155,2024-08-03T19:55:00Z,29.1,15.5,10+,29.96
KOBE,27.2663,-80.8487,110,8,9.20624,KOBE 031955Z AUTO 11008G15KT 10SM CLR 30/25 A2992 RMK AO2 LTG DSNT ALQDS,2024-08-03T19:55:00Z,30,25,10+,29.92
KOAR,36.6815,-121.757,280,14,16.11092,KOAR 031955Z AUTO 28014KT 10SM CLR 12/08 A2998 RMK AO2,2024-08-03T19:55:00Z,12,8,10+,29.98
KO86,40.9845,-122.693,30,9,10.357019999999999,KO86 031955Z AUTO 03009G15KT 10SM OVC110 27/15 A3006 RMK A01,2024-08-03T19:55:00Z,27,15,10+,30.06
KO69,38.2601,-122.607,0,0,0.0,KO69 031955Z AUTO 00000KT 10SM CLR 30/10 A2994 RMK A01,2024-08-03T19:55:00Z,30,10,10+,29.94
KO54,40.746,-122.922,0,0,0.0,KO54 031955Z AUTO 00000KT 10SM BKN110 30/11 A3005 RMK A01,2024-08-03T19:55:00Z,30,11,10+,30.05
KO32,36.6691,-119.453,VRB,5,5.7539,KO32 031955Z AUTO VRB05KT 10SM CLR 35/16 A2990 RMK AO2 T03520164 $,2024-08-03T19:55:00Z,35.2,16.4,10+,29.90
KO22,38.03,-120.415,VRB,5,5.7539,KO22 031955Z AUTO VRB05KT 10SM CLR 35/12 A3001 RMK A01,2024-08-03T19:55:00Z,35,12,10+,30.01
KO05,40.2865,-121.243,110,6,6.904679999999999,KO05 031955Z AUTO 11006KT 7SM OVC095 22/12 A3023 RMK A01,2024-08-03T19:55:00Z,22,12,7,30.23
KNY0,42.999,-74.3292,220,5,5.7539,KNY0 031955Z AUTO 22005KT 10SM SCT070 OVC090 26/19 A2985 RMK AO2 T02620194,2024-08-03T19:55:00Z,26.2,19.4,10+,29.85
KNTD,34.124,-119.123,280,10,11.5078,KNTD 031955Z 28010KT 10SM FEW005 22/16 A2996 RMK AO2 SLP145 T02220156 $,2024-08-03T19:55:00Z,22.2,15.6,10+,29.96
KNRN,39.8497,-99.8915,250,14,16.11092,KNRN 031955Z AUTO 25014KT 10SM CLR 36/15 A3011 RMK AO2,2024-08-03T19:55:00Z,36,15,10+,30.11
KNOW,48.1394,-123.403,290,12,13.809359999999998,KNOW 031955Z AUTO 29012KT 10SM CLR 16/13 A3007 RMK AO2 T01620132,2024-08-03T19:55:00Z,16.2,13.2,10+,30.07
KNFG,33.304,-117.355,200,10,11.5078,KNFG 031955Z AUTO 20010KT 10SM CLR 31/17 A2991 RMK AO2 SLP127 T03060167 $,2024-08-03T19:55:00Z,30.6,16.7,10+,29.91
KNBG,29.837,-90.024,270,4,4.60312,KNBG 031955Z 27004KT 10SM FEW030 SCT150 BKN250 31/22 A2991 RMK AO2 SLP126 OCNL LTGIC DSNT SE CB DSNT SE T2 SET T03110222 PNO $,2024-08-03T19:55:00Z,31.1,22.2,10+,29.91
KN79,40.8371,-76.546,310,3,3.4523399999999995,KN79 031955Z AUTO 31003KT 10SM FEW049 25/24 A2983 RMK AO2 T02490244,2024-08-03T19:55:00Z,24.9,24.4,10+,29.83
KN38,41.7287,-77.3958,VRB,5,5.7539,KN38 031955Z AUTO VRB05G10KT 10SM FEW008 SCT047 BKN055 21/21 A2990 RMK AO2 LTG DSNT E AND SE,2024-08-03T19:55:00Z,21,21,10+,29.90
KN03,42.5929,-76.2174,0,0,0.0,KN03 031955Z AUTO 00000KT 10SM SCT110 25/20 A2987 RMK AO2,2024-08-03T19:55:00Z,25,20,10+,29.87
KMZZ,40.4863,-85.6859,300,4,4.60312,KMZZ 031955Z AUTO 30004KT 7SM SCT047 BKN050 29/22 A2995 RMK AO2 T02890216,2024-08-03T19:55:00Z,28.9,21.6,7,29.95
KMZJ,32.5147,-111.335,VRB,5,5.7539,KMZJ 031955Z AUTO VRB05KT 10SM CLR 41/11 A2994 RMK AO2,2024-08-03T19:55:00Z,41,11,10+,29.94
KMZH,46.4163,-92.8049,0,0,0.0,KMZH 031955Z AUTO 00000KT 10SM BKN090 24/16 A2999 RMK AO2 LTG DSNT NW THRU NE,2024-08-03T19:55:00Z,24,16,10+,29.99
KMYZ,39.8544,-96.6279,230,5,5.7539,KMYZ 031955Z AUTO 23005KT 10SM CLR 33/12 A3006 RMK AO2,2024-08-03T19:55:00Z,33,12,10+,30.06
KMYP,38.4972,-106.32,80,14,16.11092,KMYP 031955Z AUTO 08014G18KT 10SM CLR 19/00 A3091 RMK AO2,2024-08-03T19:55:00Z,19,0,10+,30.91
KMYJ,39.1561,-91.8129,310,4,4.60312,KMYJ 031955Z AUTO 31004KT 10SM CLR 31/21 A3001 RMK AO2,2024-08-03T19:55:00Z,31,21,10+,30.01
KMXO,42.2203,-91.1604,320,5,5.7539,KMXO 031955Z AUTO 32005KT 10SM FEW048 31/20 A2996 RMK AO2,2024-08-03T19:55:00Z,31,20,10+,29.96
KMXF,32.3877,-86.3724,320,5,5.7539,KMXF 031955Z AUTO 32005KT 10SM SCT050 35/21 A2986 RMK AO2 SLP112 T03510210,2024-08-03T19:55:00Z,35.1,21,10+,29.86
KMWO,39.5324,-84.3973,350,7,8.05546,KMWO 031955Z AUTO 35007KT 10SM SCT036 SCT047 SCT070 30/21 A2991 RMK AO2 T03010210,2024-08-03T19:55:00Z,30.1,21,10+,29.91
KMWM,43.91,-95.1073,180,8,9.20624,KMWM 031955Z AUTO 18008KT 10SM CLR 32/20 A2998 RMK AO2,2024-08-03T19:55:00Z,32,20,10+,29.98
KMVH,46.838,-108.936,190,13,14.960139999999999,KMVH 031955Z AUTO 19013G24KT 10SM CLR 31/07 A3015 RMK AO2,2024-08-03T19:55:00Z,31,7,10+,30.15
KMVE,44.9675,-95.7116,200,7,8.05546,KMVE 031955Z AUTO 20007KT 10SM CLR 32/22 A2992 RMK AO2,2024-08-03T19:55:00Z,32,22,10+,29.92
KMUT,41.367,-91.1406,340,8,9.20624,KMUT 031955Z AUTO 34008KT 10SM CLR 31/19 A2997 RMK AO2,2024-08-03T19:55:00Z,31,19,10+,29.97
KMUO,43.03,-115.859,80,8,9.20624,KMUO 031955Z AUTO 08008KT 10SM FEW110 BKN150 BKN170 BKN200 37/01 A2992 RMK AO2 SLP088 T03650013 $,2024-08-03T19:55:00Z,36.5,1.3,10+,29.92
KMTK,28.6967,-89.3958,VRB,3,3.4523399999999995,KMTK 031955Z AUTO VRB03KT 10SM BKN025 BKN032 BKN038 A2993 RMK A01,2024-08-03T19:55:00Z,,,10+,29.93
KMRT,40.2237,-83.3475,100,7,8.05546,KMRT 031955Z AUTO 10007KT 7SM SCT036 SCT050 BKN110 26/22 A2992 RMK AO2 T02590219,2024-08-03T19:55:00Z,25.9,21.9,7,29.92
KMRJ,42.8875,-90.2315,20,3,3.4523399999999995,KMRJ 031955Z AUTO 02003KT 10SM CLR 28/19 A3002 RMK AO2 PWINO,2024-08-03T19:55:00Z,28,19,10+,30.02
KMQW,32.0942,-82.882,210,10,11.5078,KMQW 031955Z AUTO 21010KT 10SM CLR 34/24 A2990 RMK AO2 LTG DSNT SE AND W T03400245,2024-08-03T19:55:00Z,34,24.5,10+,29.90
KMQS,39.9773,-75.8605,200,4,4.60312,KMQS 031955Z AUTO 20004G10KT 10SM SCT030 SCT036 SCT042 30/24 A2983 RMK AO2,2024-08-03T19:55:00Z,30,24,10+,29.83
KMQJ,39.8402,-85.894,10,9,10.357019999999999,KMQJ 031955Z AUTO 01009KT 10SM FEW046 31/21 A2995 RMK AO2 T03070213 $,2024-08-03T19:55:00Z,30.7,21.3,10+,29.95
KMQB,40.5176,-90.6481,250,3,3.4523399999999995,KMQB 031955Z AUTO 25003KT 10SM SCT065 SCT075 SCT085 30/23 A3000 RMK AO2 T02970227,2024-08-03T19:55:00Z,29.7,22.7,10+,30.00
KMPZ,40.9453,-91.5122,330,4,4.60312,KMPZ 031955Z AUTO 33004KT 10SM CLR 30/20 A2998 RMK AO2,2024-08-03T19:55:00Z,30,20,10+,29.98
KMPR,38.3491,-97.6883,150,4,4.60312,KMPR 031955Z AUTO 15004KT 10SM BKN100 33/15 A3007 RMK AO2 T03340153,2024-08-03T19:55:00Z,33.4,15.3,10+,30.07
KMOX,45.5677,-95.9659,180,13,14.960139999999999,KMOX 031955Z AUTO 18013G22KT 10SM CLR 32/25 A2986 RMK AO2,2024-08-03T19:55:00Z,32,25,10+,29.86
KMOR,36.1746,-83.3853,VRB,6,6.904679999999999,KMOR 031955Z AUTO VRB06KT 180V260 10SM FEW031 28/22 A2993 RMK A01,2024-08-03T19:55:00Z,28,22,10+,29.93
KMOP,43.6229,-84.743,340,5,5.7539,KMOP 031955Z AUTO 34005KT 10SM CLR 31/12 A2993 RMK AO2 T03130124,2024-08-03T19:55:00Z,31.3,12.4,10+,29.93
KMNZ,31.6697,-98.1462,110,5,5.7539,KMNZ 031955Z AUTO 11005KT 10SM CLR 36/17 A3000 RMK AO2 T03600171 TSNO,2024-08-03T19:55:00Z,36,17.1,10+,30.00
KMNI,33.5882,-80.2059,210,10,11.5078,KMNI 031955Z AUTO 21010G18KT 10SM SCT048 33/22 A2992 RMK AO2 LTG DSNT N,2024-08-03T19:55:00Z,33,22,10+,29.92
KMNH,39.2232,-104.642,360,9,10.357019999999999,KMNH 031955Z AUTO 36009G17KT 10SM CLR 30/02 A3041 RMK AO2,2024-08-03T19:55:00Z,30,2,10+,30.41
KMNE,32.6433,-93.2972,100,7,8.05546,KMNE 031955Z AUTO 10007KT 10SM SCT050 SCT070 33/20 A2993 RMK AO2,2024-08-03T19:55:00Z,33,20,10+,29.93
KMMT,33.922,-80.802,160,12,13.809359999999998,KMMT 031955Z 16012G15KT 10SM FEW042 SCT080 34/24 A2987 RMK AO2A LTG DSNT NW-N SLP115 T03410237 $,2024-08-03T19:55:00Z,34.1,23.7,10+,29.87
KMMI,35.3952,-84.5612,VRB,5,5.7539,KMMI 031955Z AUTO VRB05G11KT 10SM CLR 30/20 A2994 RMK A01,2024-08-03T19:55:00Z,30,20,10+,29.94
KMMH,37.6253,-118.838,120,4,4.60312,KMMH 031955Z AUTO 12004KT 10SM SCT070 BKN100 26/06 A3035 RMK AO2 T02600063,2024-08-03T19:55:00Z,26,6.3,10+,30.35
KMLJ,33.153,-83.242,260,6,6.904679999999999,KMLJ 031955Z AUTO 26006KT 6SM VCTS RA BR FEW032 SCT050 BKN075 27/26 A2990 RMK AO2 LTG DSNT E-SW,2024-08-03T19:55:00Z,27,26,6,29.90
KMLE,41.1981,-96.1131,210,6,6.904679999999999,KMLE 031955Z AUTO 21006KT 10SM CLR 34/16 A3002 RMK AO2 T03380164,2024-08-03T19:55:00Z,33.8,16.4,10+,30.02
KMKS,33.1874,-80.0363,200,15,17.261699999999998,KMKS 031955Z AUTO 20015G20KT 10SM CLR 31/22 A2993 RMK AO2 LTG DSNT S,2024-08-03T19:55:00Z,31,22,10+,29.93
KMKN,31.924,-98.5978,0,0,0.0,KMKN 031955Z AUTO 00000KT CLR 39/18 A3000 RMK AO2 T03890179 PWINO,2024-08-03T19:55:00Z,38.9,17.9,,30.00
KMKJ,36.8944,-81.3449,250,11,12.658579999999999,KMKJ 031955Z AUTO 25011G14KT 10SM SCT031 SCT041 SCT047 25/18 A2998 RMK AO2 LTG DSNT N AND NW T02530183,2024-08-03T19:55:00Z,25.3,18.3,10+,29.98
KMKG,43.1711,-86.2368,270,8,9.20624,KMKG 031955Z 27008KT 10SM FEW050 32/18 A2994 RMK AO2 SLP133 T03170178,2024-08-03T19:55:00Z,31.7,17.8,10+,29.94
KMJQ,43.6496,-94.9885,180,8,9.20624,KMJQ 031955Z AUTO 18008KT 10SM CLR 31/21 A3000 RMK AO2,2024-08-03T19:55:00Z,31,21,10+,30.00
KMJD,30.494,-89.6535,0,0,0.0,KMJD 031955Z AUTO 00000KT 10SM VCTS SCT044 SCT055 SCT075 32/27 A2989 RMK AO2 LTG DSNT ALQDS,2024-08-03T19:55:00Z,32,27,10+,29.89
KMIO,36.9128,-94.8893,0,0,0.0,KMIO 031955Z AUTO 00000G10KT 10SM CLR 34/13 A3002 RMK AO2 PWINO,2024-08-03T19:55:00Z,34,13,10+,30.02
KMIB,48.4062,-101.341,70,14,16.11092,KMIB 031955Z 07014G19KT 10SM FEW030 27/14 A3004 RMK AO2A SLP167 T02670144,2024-08-03T19:55:00Z,26.7,14.4,10+,30.04
KMHR,38.56,-121.284,41,0,0.0,KMHR 031955Z AUTO 7.04166707KT 9SM CLR 36/05 A2989 RMK A01,2024-08-03T19:55:00Z,36,5,9,29.89
KMHP,32.374,-82.079,180,6,6.904679999999999,KMHP 031955Z AUTO 18006G16KT 10SM SCT037 SCT045 33/25 A2990 RMK AO2 LTG DSNT N AND SE T03350254,2024-08-03T19:55:00Z,33.5,25.4,10+,29.90
KMHL,39.093,-93.2024,290,3,3.4523399999999995,KMHL 031955Z AUTO 29003KT 10SM CLR 31/22 A3004 RMK AO2,2024-08-03T19:55:00Z,31,22,10+,30.04
KMGR,31.0835,-83.8035,190,6,6.904679999999999,KMGR 031955Z AUTO 19006KT 10SM FEW260 SCT280 32/24 A2992 RMK AO2 LTG DSNT SE AND W T03230239 $,2024-08-03T19:55:00Z,32.3,23.9,10+,29.92
KMGN,45.4241,-84.913,240,5,5.7539,KMGN 031955Z AUTO 24005KT 10SM CLR 27/17 A2994 RMK AO2 T02800178,2024-08-03T19:55:00Z,28,17.8,10+,29.94
KMGG,45.2354,-93.9896,170,4,4.60312,KMGG 031955Z AUTO 17004KT 10SM CLR 29/18 A2998 RMK AO2 T02860183,2024-08-03T19:55:00Z,28.6,18.3,10+,29.98
KMGE,33.9189,-84.5266,310,6,6.904679999999999,KMGE 031955Z 31006KT 10SM SCT050 BKN200 31/19 A2990 RMK AO2A SLP113 T03120188 $,2024-08-03T19:55:00Z,31.2,18.8,10+,29.90
KMGC,41.7048,-86.8183,10,5,5.7539,KMGC 031955Z AUTO 01005KT 10SM CLR 28/21 A2996 RMK AO2,2024-08-03T19:55:00Z,28,21,10+,29.96
KMEZ,34.5414,-94.1918,20,6,6.904679999999999,KMEZ 031955Z AUTO 02006G15KT 350V070 10SM CLR 34/19 A3000 RMK AO2 T03380190,2024-08-03T19:55:00Z,33.8,19,10+,30.00
KMEV,38.9963,-119.75,140,5,5.7539,KMEV 031955Z AUTO 14005KT 10SM FEW095 29/10 A3017 RMK AO2,2024-08-03T19:55:00Z,29,10,10+,30.17
KMDZ,45.1013,-90.3064,0,0,0.0,KMDZ 031955Z AUTO 00000KT 10SM CLR 27/13 A3002 RMK AO2 T02680128 PWINO,2024-08-03T19:55:00Z,26.8,12.8,10+,30.02
KMDS,44.0141,-97.0817,200,17,19.56326,KMDS 031955Z AUTO 20017KT 10SM CLR 32/21 A2996 RMK AO2 TSNO,2024-08-03T19:55:00Z,32,21,10+,29.96
KMDQ,34.866,-86.559,350,5,5.7539,KMDQ 031955Z AUTO 35005KT 7SM CLR 31/18 A2995 RMK A02 T03060183,2024-08-03T19:55:00Z,30.6,18.3,7,29.95
KMDD,32.0359,-102.1,30,6,6.904679999999999,KMDD 031955Z AUTO 03006KT 10SM SCT120 35/13 A3008 RMK AO2 T03530130,2024-08-03T19:55:00Z,35.3,13,10+,30.08
KMCF,27.8598,-82.5133,50,12,13.809359999999998,KMCF 031955Z AUTO 05012KT 10SM CLR 29/24 A2992 RMK AO2 SLP134 T02910242 FZRANO $,2024-08-03T19:55:00Z,29.1,24.2,10+,29.92
KMCD,45.866,-84.634,230,3,3.4523399999999995,KMCD 031955Z AUTO 23003KT 10SM CLR 27/18 A2993 RMK AO2 T02670176,2024-08-03T19:55:00Z,26.7,17.6,10+,29.93
KMCC,38.678,-121.403,0,0,0.0,KMCC 031955Z AUTO 00000KT 9SM CLR 35/08 A2990 RMK AO2 PWINO,2024-08-03T19:55:00Z,35,8,9,29.90
KMBY,39.464,-92.4244,0,0,0.0,KMBY 031955Z AUTO 00000KT 10SM CLR 33/17 A3001 RMK AO2,2024-08-03T19:55:00Z,33,17,10+,30.01
KMBT,35.8767,-86.3793,300,4,4.60312,KMBT 031955Z AUTO 30004KT 10SM FEW044 SCT055 SCT065 32/21 A2991 RMK A01,2024-08-03T19:55:00Z,32,21,10+,29.91
KMBO,32.4385,-90.1014,320,7,8.05546,KMBO 031955Z AUTO 32007G13KT 10SM FEW055 34/21 A2992 RMK AO2,2024-08-03T19:55:00Z,34,21,10+,29.92
KMAW,36.5945,-89.9865,320,5,5.7539,KMAW 031955Z AUTO 32005KT 10SM SCT049 SCT060 32/20 A2998 RMK AO1,2024-08-03T19:55:00Z,32,20,10+,29.98
KMAO,34.1852,-79.3341,180,7,8.05546,KMAO 031955Z AUTO 18007KT 10SM SCT044 SCT055 SCT090 27/26 A2993 RMK AO2 LTG DSNT W,2024-08-03T19:55:00Z,27,26,10+,29.93
KMAN,43.582,-116.521,340,8,9.20624,KMAN 031955Z AUTO 34008KT 9SM CLR 34/15 A2994 RMK A01,2024-08-03T19:55:00Z,34,15,9,29.94
KM91,36.5363,-86.919,310,7,8.05546,KM91 031955Z AUTO 31007KT 280V360 10SM 30/20 A2994 RMK A01,2024-08-03T19:55:00Z,30,20,10+,29.94
KM75,48.3686,-107.919,100,11,12.658579999999999,KM75 031955Z AUTO 10011KT 10SM CLR 30/06 A3004 RMK A01,2024-08-03T19:55:00Z,30,6,10+,30.04
KM40,33.8755,-88.4872,330,7,8.05546,KM40 031955Z AUTO 33007KT 10SM FEW046 FEW050 32/22 A2995 RMK AO2,2024-08-03T19:55:00Z,32,22,10+,29.95
KM30,37.1824,-88.7487,0,0,0.0,KM30 031955Z AUTO 00000KT 10SM SCT046 31/20 A2997 RMK AO2 T03090195,2024-08-03T19:55:00Z,30.9,19.5,10+,29.97
KM25,36.764,-88.5829,10,5,5.7539,KM25 031955Z AUTO 01005KT 10SM SCT043 SCT050 32/22 A2997 RMK AO2,2024-08-03T19:55:00Z,32,22,10+,29.97
KM21,37.2291,-87.1542,340,5,5.7539,KM21 031955Z AUTO 34005KT 10SM SCT042 BKN060 30/21 A2995 RMK AO2 T02980207,2024-08-03T19:55:00Z,29.8,20.7,10+,29.95
KM08,35.2155,-89.0449,310,7,8.05546,KM08 031955Z AUTO 31007KT 10SM FEW043 32/21 A2995 RMK A01,2024-08-03T19:55:00Z,32,21,10+,29.95
KM02,36.1289,-87.4283,VRB,3,3.4523399999999995,KM02 031955Z AUTO VRB03G10KT 10SM CLR 30/18 A2995 RMK A01,2024-08-03T19:55:00Z,30,18,10+,29.95
KM01,35.2004,-90.0548,310,11,12.658579999999999,KM01 031955Z AUTO 31011KT 10SM FEW370 31/23 A2995 RMK AO2 T03130227 $,2024-08-03T19:55:00Z,31.3,22.7,10+,29.95
KLYV,43.6217,-96.214,190,9,10.357019999999999,KLYV 031955Z AUTO 19009KT 10SM CLR 31/20 A2999 RMK AO2,2024-08-03T19:55:00Z,31,20,10+,29.99
KLYO,38.343,-98.2266,170,8,9.20624,KLYO 031955Z AUTO 17008KT 10SM SCT085 33/16 A3008 RMK AO2 T03340160,2024-08-03T19:55:00Z,33.4,16,10+,30.08
KLXY,31.6446,-96.5122,,,,KLXY 031955Z AUTO 10SM CLR 36/20 A2995 RMK AO2 T03590195 TSNO,2024-08-03T19:55:00Z,35.9,19.5,10+,29.95
KLXN,40.7915,-99.775,230,7,8.05546,KLXN 031955Z AUTO 23007KT 10SM CLR 34/17 A3008 RMK AO2 T03400169,2024-08-03T19:55:00Z,34,16.9,10+,30.08
KLXL,45.9509,-94.3441,160,11,12.658579999999999,KLXL 031955Z AUTO 16011G16KT 10SM CLR 28/18 A2992 RMK AO2,2024-08-03T19:55:00Z,28,18,10+,29.92
KLWA,42.3476,-86.2578,330,8,9.20624,KLWA 031955Z AUTO 33008KT 10SM SCT065 SCT075 28/21 A2995 RMK AO2 T02800212,2024-08-03T19:55:00Z,28,21.2,10+,29.95
KLVN,44.6252,-93.2273,150,6,6.904679999999999,KLVN 031955Z AUTO 15006KT 10SM CLR 28/17 A2999 RMK AO2,2024-08-03T19:55:00Z,28,17,10+,29.99
KLVL,36.7723,-77.7925,150,8,9.20624,KLVL 031955Z AUTO 15008G14KT 130V190 10SM BKN037 BKN046 BKN075 33/25 A2985 RMK AO1 T03300247,2024-08-03T19:55:00Z,33,24.7,10+,29.85
KLUX,34.508,-81.949,190,9,10.357019999999999,KLUX 031955Z AUTO 19009KT 10SM SCT055 SCT070 SCT080 24/22 A2993 RMK AO2 LTG DSNT SE AND SW,2024-08-03T19:55:00Z,24,22,10+,29.93
KLUV,32.7481,-101.913,230,3,3.4523399999999995,KLUV 031955Z AUTO 23003KT 10SM CLR 35/14 A3011 RMK AO2,2024-08-03T19:55:00Z,35,14,10+,30.11
KLUM,44.8936,-91.8665,150,5,5.7539,KLUM 031955Z AUTO 15005KT 10SM CLR 29/16 A2999 RMK AO2 T02890163 PWINO,2024-08-03T19:55:00Z,28.9,16.3,10+,29.99
KLUL,31.6682,-89.1705,340,8,9.20624,KLUL 031955Z AUTO 34008KT 10SM SCT055 SCT065 34/23 A2990 RMK A02 T03450227,2024-08-03T19:55:00Z,34.5,22.7,10+,29.90
KLUG,35.5082,-86.8055,350,5,5.7539,KLUG 031955Z AUTO 35005G10KT 10SM FEW050 SCT065 SCT075 30/20 A2994 RMK A01,2024-08-03T19:55:00Z,30,20,10+,29.94
KLUF,33.538,-112.38,0,0,0.0,KLUF 031955Z AUTO 00000KT 10SM CLR 42/12 A2985 RMK AO2 SLP089 T04240122 $,2024-08-03T19:55:00Z,42.4,12.2,10+,29.85
KLUD,33.2568,-97.5826,60,8,9.20624,KLUD 031955Z AUTO 06008KT 7SM CLR 37/13 A2999 RMK AO2 T03740133,2024-08-03T19:55:00Z,37.4,13.3,7,29.99
KLUA,38.667,-78.501,250,20,23.0156,KLUA 031955Z AUTO 25020G30KT 10SM 35/17 A2982 RMK AO2 LTG DSNT SW THRU NW,2024-08-03T19:55:00Z,35,17,10+,29.82
KLTS,34.666,-99.27,90,8,9.20624,KLTS 031955Z AUTO 09008KT 10SM CLR 38/12 A3000 RMK AO2 SLP137 T03760115 $,2024-08-03T19:55:00Z,37.6,11.5,10+,30.00
KLSV,36.236,-115.034,150,6,6.904679999999999,KLSV 031955Z AUTO 15006KT 10SM CLR 40/11 A2989 RMK AO2 SLP089 T04040106 $,2024-08-03T19:55:00Z,40.4,10.6,10+,29.89
KLSF,32.3239,-84.9826,0,0,0.0,KLSF 031955Z AUTO 00000KT 10SM SCT080 BKN100 24/22 A2990 RMK AO2 RAE32DZB32E33RAB33E34 TSE13 SLP128 P0052 T02440224 RVRNO FZRANO VISNO RWY33 $,2024-08-03T19:55:00Z,24.4,22.4,10+,29.90
KLRY,38.6074,-94.3453,360,4,4.60312,KLRY 031955Z AUTO 36004KT 10SM SCT050 33/17 A3006 RMK AO2,2024-08-03T19:55:00Z,33,17,10+,30.06
KLRU,32.2884,-106.913,130,5,5.7539,KLRU 031955Z AUTO 13005KT 10SM CLR 37/07 A3019 RMK AO2 T03690066,2024-08-03T19:55:00Z,36.9,6.6,10+,30.19
KLRJ,42.7771,-96.195,190,7,8.05546,KLRJ 031955Z AUTO 19007KT 10SM CLR 32/23 A2998 RMK AO2,2024-08-03T19:55:00Z,32,23,10+,29.98
KLRF,34.92,-92.131,360,6,6.904679999999999,KLRF 031955Z AUTO 36006KT 10SM FEW049 33/20 A2994 RMK AO2 SLP137 T03300201 $,2024-08-03T19:55:00Z,33,20.1,10+,29.94
KLQK,34.8069,-82.7047,240,6,6.904679999999999,KLQK 031955Z AUTO 24006KT 10SM SCT050 SCT070 32/22 A2989 RMK AO2 T03180219,2024-08-03T19:55:00Z,31.8,21.9,10+,29.89
KLOR,31.36,-85.749,200,7,8.05546,KLOR 031955Z AUTO 20007KT 10SM FEW100 33/22 A2990 RMK AO2 LTG DSNT W-NE AND SE SLP106 T03320220 $,2024-08-03T19:55:00Z,33.2,22,10+,29.90
KLOM,40.1376,-75.2684,180,11,12.658579999999999,KLOM 031955Z AUTO 18011KT 10SM SCT042 32/23 A2979 RMK AO2 T03210227,2024-08-03T19:55:00Z,32.1,22.7,10+,29.79
KLNP,36.9884,-82.524,300,6,6.904679999999999,KLNP 031955Z AUTO 30006KT 10SM -RA SCT012 BKN060 OVC095 19/18 A3001 RMK AO2 LTG DSNT NE AND W P0013,2024-08-03T19:55:00Z,19,18,10+,30.01
KLNN,41.6839,-81.3896,360,4,4.60312,KLNN 031955Z AUTO 36004KT 10SM CLR 26/22 A2988 RMK AO1 T02550215,2024-08-03T19:55:00Z,25.5,21.5,10+,29.88
KLNL,46.1515,-89.2108,350,4,4.60312,KLNL 031955Z AUTO 35004KT 10SM SCT100 27/12 A3005 RMK AO2 T02710118,2024-08-03T19:55:00Z,27.1,11.8,10+,30.05
KLNC,32.5832,-96.7209,60,4,4.60312,KLNC 031955Z AUTO 06004KT 10SM CLR 36/18 A2996 RMK AO2 T03570182,2024-08-03T19:55:00Z,35.7,18.2,10+,29.96
KLNA,26.5925,-80.0848,120,8,9.20624,KLNA 031955Z AUTO 12008G17KT 10SM SCT023 32/26 A2994 RMK AO2 LTG DSNT SW THRU N T03160259,2024-08-03T19:55:00Z,31.6,25.9,10+,29.94
KLMS,33.15,-89.063,VRB,6,6.904679999999999,KLMS 031955Z AUTO VRB06G13KT 10SM FEW046 FEW050 SCT065 31/21 A2997 RMK AO2,2024-08-03T19:55:00Z,31,21,10+,29.97
KLMO,40.1612,-105.16,70,7,8.05546,KLMO 031955Z AUTO 07007KT 10SM CLR 36/04 A3025 RMK AO2 T03580037,2024-08-03T19:55:00Z,35.8,3.7,10+,30.25
KLLN,33.556,-102.375,120,9,10.357019999999999,KLLN 031955Z AUTO 12009KT 10SM CLR 33/17 A3017 RMK AO2,2024-08-03T19:55:00Z,33,17,10+,30.17
KLLJ,44.523,-114.216,20,4,4.60312,KLLJ 031955Z AUTO 02004KT 10SM CLR 34/07 A3010 RMK AO2 SLP111 T03440067,2024-08-03T19:55:00Z,34.4,6.7,10+,30.10
KLKU,38.0085,-77.9681,200,10,11.5078,KLKU 031955Z AUTO 20010G16KT 170V230 10SM SCT038 SCT044 SCT060 32/22 A2985 RMK AO2 T03160224,2024-08-03T19:55:00Z,31.6,22.4,10+,29.85
KLKR,34.7266,-80.8532,180,11,12.658579999999999,KLKR 031955Z AUTO 18011G17KT 160V220 9SM 25/21 A2993 RMK AO2 LTG DSNT ALQDS,2024-08-03T19:55:00Z,25,21,9,29.93
KLHW,31.8872,-81.5625,180,10,11.5078,KLHW 031955Z AUTO 18010KT 10SM FEW043 34/24 A2988 RMK AO2 SLP121 T03350235 $,2024-08-03T19:55:00Z,33.5,23.5,10+,29.88
KLHM,38.9148,-121.352,300,6,6.904679999999999,KLHM 031955Z AUTO 30006KT 10SM CLR 35/12 A2991 RMK AO1,2024-08-03T19:55:00Z,35,12,10+,29.91
KLHB,30.8693,-96.6207,20,5,5.7539,KLHB 031955Z AUTO 02005KT CLR 35/25 A2996 RMK AO2 T03490246 PWINO,2024-08-03T19:55:00Z,34.9,24.6,,29.96
KLGF,32.868,-114.393,280,6,6.904679999999999,KLGF 031955Z AUTO 28006KT 10SM CLR 44/14 A2980 RMK AO2 SLP086 T04380142 $,2024-08-03T19:55:00Z,43.8,14.2,10+,29.80
KLGC,33.0093,-85.0717,310,6,6.904679999999999,KLGC 031955Z AUTO 31006KT 10SM SCT048 33/22 A2992 RMK AO2 T03260215,2024-08-03T19:55:00Z,32.6,21.5,10+,29.92
KLFI,37.088,-76.349,190,14,16.11092,KLFI 031955Z AUTO 19014G23KT 7SM CLR 34/23 A2985 RMK AO2 SLP114 T03380231 $,2024-08-03T19:55:00Z,33.8,23.1,7,29.85
KLDM,43.9614,-86.4107,360,10,11.5078,KLDM 031955Z AUTO 36010KT 10SM CLR 28/15 A2995 RMK AO2 T02820153,2024-08-03T19:55:00Z,28.2,15.3,10+,29.95
KLCQ,30.1838,-82.5684,170,7,8.05546,KLCQ 031955Z AUTO 17007KT 10SM CLR 33/22 A2993 RMK AO2 LTG DSNT E,2024-08-03T19:55:00Z,33,22,10+,29.93
KLCK,39.83,-82.919,110,5,5.7539,KLCK 031955Z AUTO 11005KT 10SM VCTS BKN035 OVC044 27/21 A2989 RMK AO2 LTG DSNT E W AND NW T02690212,2024-08-03T19:55:00Z,26.9,21.2,10+,29.89
KLCG,42.2423,-96.983,220,11,12.658579999999999,KLCG 031955Z AUTO 22011G16KT 10SM CLR 34/21 A3001 RMK AO2 T03370207,2024-08-03T19:55:00Z,33.7,20.7,10+,30.01
KLBO,37.6449,-92.6544,0,0,0.0,KLBO 031955Z AUTO 00000KT 10SM SCT050 32/18 A3006 RMK AO2,2024-08-03T19:55:00Z,32,18,10+,30.06
KLAM,35.8789,-106.262,210,10,11.5078,KLAM 031955Z AUTO 21010KT 160V260 7SM BKN120 29/09 A3038 RMK AO2 T02900090 $,2024-08-03T19:55:00Z,29,9,7,30.38
KL35,34.2626,-116.855,280,9,10.357019999999999,KL35 031955Z AUTO 28009KT 10SM CLR 26/06 A3037 RMK AO2,2024-08-03T19:55:00Z,26,6,10+,30.37
KL18,33.3551,-117.249,220,5,5.7539,KL18 031955Z AUTO 22005KT 10SM CLR 33/15 A2994 RMK AO2,2024-08-03T19:55:00Z,33,15,10+,29.94
KL08,33.2604,-116.323,130,12,13.809359999999998,KL08 031955Z AUTO 13012KT 10SM CLR 44/08 A2981 RMK AO2,2024-08-03T19:55:00Z,44,8,10+,29.81
KKY8,37.953,-86.8592,VRB,3,3.4523399999999995,KKY8 031955Z AUTO VRB03KT 9SM FEW039 FEW047 31/19 A2994 RMK A01,2024-08-03T19:55:00Z,31,19,9,29.94
KKNB,37.0078,-112.53,VRB,4,4.60312,KKNB 031955Z AUTO VRB04KT 10SM CLR 35/14 A3022 RMK A01,2024-08-03T19:55:00Z,35,14,10+,30.22
KK88,37.8692,-95.384,80,6,6.904679999999999,KK88 031955Z AUTO 08006KT 9SM FEW065 33/15 A3003 RMK AO2,2024-08-03T19:55:00Z,33,15,9,30.03
KK83,39.9053,-95.7747,210,8,9.20624,KK83 031955Z AUTO 21008KT 10SM CLR 33/14 A3007 RMK AO2 T03320136,2024-08-03T19:55:00Z,33.2,13.6,10+,30.07
KK82,39.7606,-98.7957,160,10,11.5078,KK82 031955Z AUTO 16010KT 10SM SCT120 36/16 A3006 RMK AO2 T03590164,2024-08-03T19:55:00Z,35.9,16.4,10+,30.06
KK70,25.322,-80.277,190,16,18.41248,KK70 031955Z AUTO 19016G28KT 1SM TSRA HZ SCT003 BKN024 OVC039 29/26 A2987 RMK AO2 LTG DSNT ALQDS P0003,2024-08-03T19:55:00Z,29,26,1,29.87
KK62,38.7018,-84.3964,330,4,4.60312,KK62 031955Z AUTO 33004KT 10SM SCT034 SCT043 SCT049 29/20 A2991 RMK AO2,2024-08-03T19:55:00Z,29,20,10+,29.91
KJZP,34.4542,-84.4597,320,9,10.357019999999999,KJZP 031955Z AUTO 32009KT 10SM SCT042 SCT065 28/19 A2997 RMK AO2 T02830195,2024-08-03T19:55:00Z,28.3,19.5,10+,29.97
KJZI,32.7025,-80.0058,200,13,14.960139999999999,KJZI 031955Z AUTO 20013G19KT 10SM CLR 32/25 A2995 RMK AO2,2024-08-03T19:55:00Z,32,25,10+,29.95
KJYR,40.8942,-97.6258,200,7,8.05546,KJYR 031955Z AUTO 20007KT 9SM CLR 30/19 A3006 RMK AO2,2024-08-03T19:55:00Z,30,19,9,30.06
KJYM,41.9197,-84.5853,330,5,5.7539,KJYM 031955Z AUTO 33005KT 10SM SCT041 BKN050 OVC100 30/20 A2994 RMK AO2,2024-08-03T19:55:00Z,30,20,10+,29.94
KJYL,32.6459,-81.5894,190,9,10.357019999999999,KJYL 031955Z AUTO 19009KT SCT038 SCT047 SCT055 33/24 A2991 RMK AO2 LTG DSNT S AND NW T03340243 PWINO,2024-08-03T19:55:00Z,33.4,24.3,,29.91
KJYG,43.9855,-94.5527,160,8,9.20624,KJYG 031955Z AUTO 16008KT 10SM CLR 30/24 A2997 RMK AO2,2024-08-03T19:55:00Z,30,24,10+,29.97
KJWY,32.456,-96.914,VRB,3,3.4523399999999995,KJWY 031955Z AUTO VRB03KT 10SM CLR 35/18 A2998 RMK AO2 T03520180 TSNO $,2024-08-03T19:55:00Z,35.2,18,10+,29.98
KJWG,35.863,-98.423,40,7,8.05546,KJWG 031955Z AUTO 04007G14KT 10SM CLR 36/12 A3008 RMK AO2 T03550124,2024-08-03T19:55:00Z,35.5,12.4,10+,30.08
KJVY,38.3692,-85.7366,340,7,8.05546,KJVY 031955Z 34007KT 10SM CLR M40/ A2990 RMK AO2 TEMP/DEW PT/DENSITY ALT UNRELIABLE. RWY 18 PREFERRED CALM WIND,2024-08-03T19:55:00Z,-40,,10+,29.90
KJVW,32.3069,-90.412,VRB,3,3.4523399999999995,KJVW 031955Z AUTO VRB03G10KT 10SM CLR 32/23 A2992 RMK AO2,2024-08-03T19:55:00Z,32,23,10+,29.92
KJTC,34.1292,-109.309,340,13,14.960139999999999,KJTC 031955Z AUTO 34013KT 10SM FEW075 SCT090 BKN120 26/11 A3039 RMK AO2,2024-08-03T19:55:00Z,26,11,10+,30.39
KJSY,45.3556,-117.254,210,3,3.4523399999999995,KJSY 031955Z AUTO 21003KT 10SM CLR 30/07 A3012 RMK AO2 T02980066,2024-08-03T19:55:00Z,29.8,6.6,10+,30.12
KJSV,35.4381,-94.8012,VRB,6,6.904679999999999,KJSV 031955Z AUTO VRB06G14KT 10SM CLR 34/21 A2998 RMK AO2,2024-08-03T19:55:00Z,34,21,10+,29.98
KJSO,31.869,-95.2145,20,7,8.05546,KJSO 031955Z AUTO 02007KT 10SM CLR 34/18 A2997 RMK AO2 T03440181,2024-08-03T19:55:00Z,34.4,18.1,10+,29.97
KJRO,38.9861,-82.5756,VRB,3,3.4523399999999995,KJRO 031955Z AUTO VRB03KT 10SM CLR 28/19 A2989 RMK AO2,2024-08-03T19:55:00Z,28,19,10+,29.89
KJPX,40.9605,-72.2511,220,10,11.5078,KJPX 031955Z AUTO 22010G18KT 10SM CLR 27/22 A2982 RMK AO2 T02710219,2024-08-03T19:55:00Z,27.1,21.9,10+,29.82
KJOT,41.5176,-88.179,290,4,4.60312,KJOT 031955Z AUTO 29004KT 10SM BKN050 BKN065 33/21 A2993 RMK AO2 T03300207,2024-08-03T19:55:00Z,33,20.7,10+,29.93
KJMR,45.8885,-93.269,160,7,8.05546,KJMR 031955Z AUTO 16007KT 10SM BKN100 27/15 A3000 RMK AO2 LTG DSNT S,2024-08-03T19:55:00Z,27,15,10+,30.00
KJKJ,46.8404,-96.6545,270,8,9.20624,KJKJ 031955Z AUTO 27008KT 10SM CLR 32/23 A2985 RMK AO2 LTG DSNT NE,2024-08-03T19:55:00Z,32,23,10+,29.85
KJKA,30.291,-87.661,200,9,10.357019999999999,KJKA 031955Z 20009KT 10SM FEW029 FEW046 33/28 A2988,2024-08-03T19:55:00Z,33,28,10+,29.88
KJHN,37.5782,-101.73,130,5,5.7539,KJHN 031955Z AUTO 13005KT 10SM CLR 33/16 A3012 RMK AO2 T03330157,2024-08-03T19:55:00Z,33.3,15.7,10+,30.12
KJFZ,37.0634,-81.7969,250,4,4.60312,KJFZ 031955Z AUTO 25004KT 10SM SCT055 SCT090 BKN110 23/21 A3000 RMK AO2 LTG DSNT NW T02250205,2024-08-03T19:55:00Z,22.5,20.5,10+,30.00
KJFX,33.9008,-87.3092,VRB,4,4.60312,KJFX 031955Z AUTO VRB04G10KT 10SM CLR 33/21 A2993 RMK AO2,2024-08-03T19:55:00Z,33,21,10+,29.93
KJES,31.5521,-81.8896,170,4,4.60312,KJES 031955Z AUTO 17004KT 10SM SCT045 SCT055 34/23 A2994 RMK AO2,2024-08-03T19:55:00Z,34,23,10+,29.94
KJDD,32.7403,-95.4945,0,0,0.0,KJDD 031955Z AUTO 00000KT 10SM CLR 34/21 A2995 RMK AO2,2024-08-03T19:55:00Z,34,21,10+,29.95
KJCA,34.1739,-83.5583,280,8,9.20624,KJCA 031955Z AUTO 28008G16KT 10SM SCT043 31/20 A2992 RMK AO2 T03080200,2024-08-03T19:55:00Z,30.8,20,10+,29.92
KJAS,30.8904,-94.0332,VRB,4,4.60312,KJAS 031955Z AUTO VRB04KT 9SM FEW041 35/23 RMK AO2 LTG DSNT N AND NE,2024-08-03T19:55:00Z,35,23,9,
KJAQ,38.3742,-120.794,260,5,5.7539,KJAQ 031955Z AUTO 26005KT 10SM CLR 35/08 A3001 RMK AO1 T03450081,2024-08-03T19:55:00Z,34.5,8.1,10+,30.01
KIZA,34.6059,-120.076,260,7,8.05546,KIZA 031955Z AUTO 26007G13KT 10SM CLR 34/12 A2993 RMK AO2,2024-08-03T19:55:00Z,34,12,10+,29.93
KIYA,29.976,-92.0826,,,,KIYA 031955Z AUTO 10SM BKN250 34/29 A2990 RMK AO2 LTG DSNT E - W T03370287 $,2024-08-03T19:55:00Z,33.7,28.7,10+,29.90
KISQ,45.9729,-86.1728,310,9,10.357019999999999,KISQ 031955Z AUTO 31009KT 10SM CLR 30/15 A2995 RMK AO2 T02960145,2024-08-03T19:55:00Z,29.6,14.5,10+,29.95
KIRS,41.8154,-85.4376,VRB,2,2.30156,KIRS 031955Z AUTO VRB02KT 10SM FEW045 30/20 A2994 RMK AO2,2024-08-03T19:55:00Z,30,20,10+,29.94
KIRK,40.0966,-92.5469,0,0,0.0,KIRK 031955Z AUTO 00000KT 10SM CLR 31/22 A3001 RMK AO2 RAB11E20 SLP157 P0000 T03110222,2024-08-03T19:55:00Z,31.1,22.2,10+,30.01
KIOB,38.0574,-83.9829,0,0,0.0,KIOB 031955Z AUTO 00000KT 10SM SCT037 SCT050 SCT065 28/20 A2994 RMK AO2 PWINO,2024-08-03T19:55:00Z,28,20,10+,29.94
KINS,36.586,-115.69,80,4,4.60312,KINS 031955Z AUTO 08004KT 10SM FEW120 38/09 A3001 RMK AO2 SLP099 T03750091 $,2024-08-03T19:55:00Z,37.5,9.1,10+,30.01
KINJ,32.0844,-97.0959,0,0,0.0,KINJ 031955Z AUTO 00000KT 10SM CLR 38/22 A2996 RMK AO2 T03780217,2024-08-03T19:55:00Z,37.8,21.7,10+,29.96
KINF,28.8062,-82.319,70,3,3.4523399999999995,KINF 031955Z AUTO 07003KT 10SM -TSRA SCT032 SCT048 BKN100 26/26 A2999 RMK AO2 LTG DSNT W THRU NE,2024-08-03T19:55:00Z,26,26,10+,29.99
KIMS,38.7515,-85.4689,0,0,0.0,KIMS 031955Z AUTO 00000KT 10SM SCT065 29/23 A2994 RMK AO2,2024-08-03T19:55:00Z,29,23,10+,29.94
KIMM,26.4321,-81.4073,100,9,10.357019999999999,KIMM 031955Z AUTO 10009G14KT 10SM VCTS CLR 25/25 A2992 RMK AO2 LTG DSNT ALQDS,2024-08-03T19:55:00Z,25,25,10+,29.92
KIKW,43.6643,-84.2613,350,6,6.904679999999999,KIKW 031955Z AUTO 35006KT 10SM CLR 31/15 A2991 RMK AO2,2024-08-03T19:55:00Z,31,15,10+,29.91
KIKV,41.6878,-93.5695,60,5,5.7539,KIKV 031955Z AUTO 06005KT CLR 31/22 A3001 RMK AO2,2024-08-03T19:55:00Z,31,22,,30.01
KIKK,41.0687,-87.8537,0,0,0.0,KIKK 031955Z AUTO 00000KT 10SM SCT050 SCT065 31/20 A2995 RMK AO2 T03070199,2024-08-03T19:55:00Z,30.7,19.9,10+,29.95
KIKG,27.5464,-98.0292,0,0,0.0,KIKG 031955Z AUTO 00000KT 10SM SCT046 33/23 A2995 RMK AO2 T03340231,2024-08-03T19:55:00Z,33.4,23.1,10+,29.95
KIJX,39.774,-90.2419,270,3,3.4523399999999995,KIJX 031955Z AUTO 27003KT 10SM SCT080 31/22 A2998 RMK AO2 T03060217,2024-08-03T19:55:00Z,30.6,21.7,10+,29.98
KIIY,33.7797,-82.8135,130,4,4.60312,KIIY 031955Z AUTO 13004KT 10SM SCT036 BKN046 BKN050 29/24 A2992 RMK AO2 LTG DSNT NW T02870240,2024-08-03T19:55:00Z,28.7,24,10+,29.92
KIIB,42.4544,-91.9504,290,3,3.4523399999999995,KIIB 031955Z AUTO 29003KT 10SM CLR 28/17 A3002 RMK AO2 T02850174,2024-08-03T19:55:00Z,28.5,17.4,10+,30.02
KIGQ,41.5412,-87.5282,50,6,6.904679999999999,KIGQ 031955Z AUTO 05006KT 10SM SCT070 SCT085 31/22 A2994 RMK AO2 T03110218,2024-08-03T19:55:00Z,31.1,21.8,10+,29.94
KIFA,42.4691,-93.2651,0,0,0.0,KIFA 031955Z AUTO 00000KT 10SM CLR 30/14 A3004 RMK AO2 T03010140,2024-08-03T19:55:00Z,30.1,14,10+,30.04
KIER,31.736,-93.1003,220,8,9.20624,KIER 031955Z AUTO 22008KT 10SM VCTS SCT041 SCT055 SCT070 27/23 A2994 RMK AO2 LTG DSNT S THRU N T02720227,2024-08-03T19:55:00Z,27.2,22.7,10+,29.94
KIDP,37.1566,-95.7792,60,6,6.904679999999999,KIDP 031955Z AUTO 06006KT 10SM SCT075 34/16 A3002 RMK AO2,2024-08-03T19:55:00Z,34,16,10+,30.02
KIDI,40.6337,-79.1036,110,3,3.4523399999999995,KIDI 031955Z AUTO 11003KT 4SM BR FEW007 FEW028 SCT044 21/21 A2994 RMK A01,2024-08-03T19:55:00Z,21,21,4,29.94
KICL,40.7242,-95.0222,230,6,6.904679999999999,KICL 031955Z AUTO 23006KT 10SM CLR 32/22 A3004 RMK AO2,2024-08-03T19:55:00Z,32,22,10+,30.04
KIBM,41.1894,-103.671,30,8,9.20624,KIBM 031955Z AUTO 03008KT 010V070 10SM CLR 35/08 A3022 RMK AO2 T03530081,2024-08-03T19:55:00Z,35.3,8.1,10+,30.22
KIAB,37.622,-97.268,0,0,0.0,KIAB 031955Z AUTO 00000KT 10SM FEW210 34/13 A3005 RMK AO2 SLP160 T03370132 $,2024-08-03T19:55:00Z,33.7,13.2,10+,30.05
KI95,40.6142,-83.6374,340,8,9.20624,KI95 031955Z AUTO 34008G14KT 5SM HZ FEW043 SCT050 30/21 A2990 RMK A01,2024-08-03T19:55:00Z,30,21,5,29.90
KI75,41.0472,-93.6876,280,4,4.60312,KI75 031955Z AUTO 28004KT 10SM CLR 33/18 A3002 RMK AO2 T03290181,2024-08-03T19:55:00Z,32.9,18.1,10+,30.02
KI74,40.1314,-83.757,360,9,10.357019999999999,KI74 031955Z AUTO 36009KT 10SM SCT034 SCT045 BKN060 28/21 A2992 RMK AO2,2024-08-03T19:55:00Z,28,21,10+,29.92
KI68,39.4664,-84.2532,320,10,11.5078,KI68 031955Z AUTO 32010G15KT 10SM FEW037 FEW042 SCT050 29/25 A2990 RMK AO2,2024-08-03T19:55:00Z,29,25,10+,29.90
KI67,39.2565,-84.7753,320,6,6.904679999999999,KI67 031955Z AUTO 32006KT 10SM SCT041 SCT050 BKN065 29/21 A2990 RMK AO1,2024-08-03T19:55:00Z,29,21,10+,29.90
KI63,39.9883,-90.8023,260,6,6.904679999999999,KI63 031955Z AUTO 26006KT 10SM SCT039 SCT050 SCT075 A2999 RMK AO2,2024-08-03T19:55:00Z,,,10+,29.99
KI40,40.3101,-81.8544,0,0,0.0,KI40 031955Z AUTO 00000KT 10SM SCT028 26/20 A2991 RMK AO2,2024-08-03T19:55:00Z,26,20,10+,29.91
KI35,36.8577,-83.3586,0,0,0.0,KI35 031955Z AUTO 00000KT 10SM SCT100 SCT120 25/22 A2996 RMK AO2 T02520222,2024-08-03T19:55:00Z,25.2,22.2,10+,29.96
KI23,39.5697,-83.4239,10,4,4.60312,KI23 031955Z AUTO 01004KT 10SM CLR 26/21 A2991 RMK AO1 P0001,2024-08-03T19:55:00Z,26,21,10+,29.91
KI16,37.5998,-81.5589,,,,KI16 031955Z AUTO 10SM SCT042 BKN070 BKN090 30/19 A2997 RMK AO2 T02990186,2024-08-03T19:55:00Z,29.9,18.6,10+,29.97
KHZX,46.6189,-93.3128,350,8,9.20624,KHZX 031955Z AUTO 35008KT 10SM TS BKN049 OVC095 23/16 A3006 RMK AO2 LTG DSNT NW THRU E,2024-08-03T19:55:00Z,23,16,10+,30.06
KHZL,40.9845,-75.9901,0,0,0.0,KHZL 031955Z AUTO 00000KT 22/21 A2991 RMK AO2 LTG DSNT E SE AND W P0004 PWINO,2024-08-03T19:55:00Z,22,21,,29.91
KHZE,47.288,-101.577,40,11,12.658579999999999,KHZE 031955Z AUTO 04011G18KT 010V080 10SM 27/17 A3007 RMK AO2,2024-08-03T19:55:00Z,27,17,10+,30.07
KHZD,36.089,-88.4654,VRB,4,4.60312,KHZD 031955Z AUTO VRB04G11KT 10SM CLR 31/20 A2995 RMK A01,2024-08-03T19:55:00Z,31,20,10+,29.95
KHYX,43.4319,-83.8648,330,10,11.5078,KHYX 031955Z AUTO 33010KT 10SM CLR 30/17 A2990 RMK AO2,2024-08-03T19:55:00Z,30,17,10+,29.90
KHYW,33.8256,-79.1259,170,8,9.20624,KHYW 031955Z AUTO 17008KT 10SM CLR 30/24 A2994 RMK AO2,2024-08-03T19:55:00Z,30,24,10+,29.94
KHWY,38.5876,-77.715,180,9,10.357019999999999,KHWY 031955Z AUTO 18009G18KT 150V210 10SM SCT050 35/19 A2980 RMK AO2 T03480191,2024-08-03T19:55:00Z,34.8,19.1,10+,29.80
KHVS,34.4065,-80.1198,200,5,5.7539,KHVS 031955Z AUTO 20005G11KT 10SM VCTS SCT039 SCT055 BKN070 29/24 A2989 RMK AO2 LTG DSNT ALQDS,2024-08-03T19:55:00Z,29,24,10+,29.89
KHVE,38.418,-110.704,0,0,0.0,KHVE 031955Z AUTO 00000KT CLR 37/06 A3014 RMK AO2,2024-08-03T19:55:00Z,37,6,,30.14
KHVC,36.8603,-87.4478,310,6,6.904679999999999,KHVC 031955Z AUTO 31006KT 10SM FEW043 SCT050 BKN065 30/21 A2995 RMK AO2,2024-08-03T19:55:00Z,30,21,10+,29.95
KHTH,38.5448,-118.631,VRB,9,10.357019999999999,KHTH 031955Z AUTO VRB09G29KT 3SM HZ FEW032 SCT040 BKN065 27/11 A3012 RMK A01 P0003,2024-08-03T19:55:00Z,27,11,3,30.12
KHSP,37.9531,-79.8285,250,7,8.05546,KHSP 031955Z AUTO 25007KT 10SM 25/20 A3001 RMK AO2 LTG DSNT SE AND S P0005 T02530203,2024-08-03T19:55:00Z,25.3,20.3,10+,30.01
KHSG,43.7178,-108.385,130,7,8.05546,KHSG 031955Z AUTO 13007KT 10SM CLR 36/04 A3016 RMK AO2 T03630035,2024-08-03T19:55:00Z,36.3,3.5,10+,30.16
KHSD,35.6018,-97.7093,30,7,8.05546,KHSD 031955Z AUTO 03007KT 360V060 10SM CLR 35/14 A3003 RMK A01,2024-08-03T19:55:00Z,35,14,10+,30.03
KHSB,37.8128,-88.5449,330,4,4.60312,KHSB 031955Z AUTO 33004KT 10SM SCT044 31/22 A2997 RMK AO2 T03080219,2024-08-03T19:55:00Z,30.8,21.9,10+,29.97
KHRX,34.8628,-102.32,140,12,13.809359999999998,KHRX 031955Z AUTO 14012G17KT 10SM SCT085 37/11 A3017 RMK AO2 T03710110 TSNO,2024-08-03T19:55:00Z,37.1,11,10+,30.17
KHRT,30.428,-86.69,170,9,10.357019999999999,KHRT 031955Z AUTO 17009KT 10SM CLR 32/25 A2988 RMK AO2 SLP116 T03240247 $,2024-08-03T19:55:00Z,32.4,24.7,10+,29.88
KHRF,46.2575,-114.127,20,6,6.904679999999999,KHRF 031955Z AUTO 02006KT 9SM CLR 29/11 A3001 RMK AO2,2024-08-03T19:55:00Z,29,11,9,30.01
KHQU,33.5279,-82.518,110,4,4.60312,KHQU 031955Z AUTO 11004KT 7SM -VCTSRA SCT015 SCT030 BKN070 A2991 RMK AO2 LTG DSNT NE THRU SW P0045,2024-08-03T19:55:00Z,,,7,29.91
KHQG,37.1647,-101.371,100,27,31.07106,KHQG 031955Z AUTO 10027G32KT 10SM BKN070 27/19 A3013 RMK AO2 PK WND 10032/53 LTG DSNT NE-SE,2024-08-03T19:55:00Z,27,19,10+,30.13
KHPT,42.7175,-93.2244,0,0,0.0,KHPT 031955Z AUTO 00000KT CLR 27/16 A3002 RMK AO2 PWINO,2024-08-03T19:55:00Z,27,16,,30.02
KHOP,36.672,-87.495,280,8,9.20624,KHOP 031955Z AUTO 28008KT 10SM FEW044 30/21 A2994 RMK AO2 SLP134 T03010206 PWINO $,2024-08-03T19:55:00Z,30.1,20.6,10+,29.94
KHON,44.3792,-98.2227,190,12,13.809359999999998,KHON 031955Z AUTO 19012G18KT 10SM CLR 36/18 A2990 RMK AO2 SLP111 T03560183,2024-08-03T19:55:00Z,35.6,18.3,10+,29.90
KHOE,31.0561,-82.7726,150,6,6.904679999999999,KHOE 031955Z AUTO 15006KT 10SM SCT049 SCT055 33/22 A2992 RMK AO2 T03370221,2024-08-03T19:55:00Z,33.7,22.1,10+,29.92
KHNZ,36.3635,-78.5289,100,8,9.20624,KHNZ 031955Z AUTO 10008G15KT 1 1/4SM RA 20/19 A2989 RMK AO2 VIS 1/2V5 T01960188,2024-08-03T19:55:00Z,19.6,18.8,1.25,29.89
KHNR,41.5841,-95.3358,230,4,4.60312,KHNR 031955Z AUTO 23004KT 10SM CLR A3002 RMK A01,2024-08-03T19:55:00Z,,,10+,30.02
KHMZ,40.0863,-78.5167,140,4,4.60312,KHMZ 031955Z AUTO 14004KT 10SM SCT042 BKN050 OVC100 22/20 A2987 RMK AO2 LTG DSNT E P0003 T02230202,2024-08-03T19:55:00Z,22.3,20.2,10+,29.87
KHMT,33.7303,-117.027,270,4,4.60312,KHMT 031955Z AUTO 27004KT 10SM CLR 39/08 A2996 RMK AO2,2024-08-03T19:55:00Z,39,8,10+,29.96
KHMP,33.3916,-84.3312,230,6,6.904679999999999,KHMP 031955Z AUTO 23006KT 10SM SCT044 32/22 A2995 RMK AO2 T03230215,2024-08-03T19:55:00Z,32.3,21.5,10+,29.95
KHMN,32.852,-106.108,180,6,6.904679999999999,KHMN 031955Z AUTO 18006KT 10SM SCT120 35/05 A3020 RMK AO2 SLP142 T03460051 $,2024-08-03T19:55:00Z,34.6,5.1,10+,30.20
KHLX,36.7637,-80.8211,150,3,3.4523399999999995,KHLX 031955Z AUTO 15003KT 10SM CLR 22/18 A2997 RMK AO2 LTG DSNT E P0002,2024-08-03T19:55:00Z,22,18,10+,29.97
KHLR,31.1361,-97.7149,130,6,6.904679999999999,KHLR 031955Z AUTO 13006KT 10SM FEW330 34/23 A2997 RMK AO2 SLP136 T03430227,2024-08-03T19:55:00Z,34.3,22.7,10+,29.97
KHLB,39.3463,-85.2602,VRB,4,4.60312,KHLB 031955Z AUTO VRB04KT 10SM SCT036 SCT044 BKN050 29/26 A2993 RMK A01,2024-08-03T19:55:00Z,29,26,10+,29.93
KHJH,40.1493,-97.5872,220,6,6.904679999999999,KHJH 031955Z AUTO 22006KT 10SM CLR 34/14 A3006 RMK AO2 T03400142,2024-08-03T19:55:00Z,34,14.2,10+,30.06
KHHW,34.0308,-95.5401,30,4,4.60312,KHHW 031955Z AUTO 03004KT 10SM SCT065 35/17 A2997 RMK AO2,2024-08-03T19:55:00Z,35,17,10+,29.97
KHHG,40.8543,-85.4543,340,3,3.4523399999999995,KHHG 031955Z AUTO 34003KT 10SM CLR 30/21 A2994 RMK AO2 T02960206,2024-08-03T19:55:00Z,29.6,20.6,10+,29.94
KHHF,35.8929,-100.405,90,8,9.20624,KHHF 031955Z AUTO 09008KT 10SM CLR 37/11 A3008 RMK AO2 T03650106,2024-08-03T19:55:00Z,36.5,10.6,10+,30.08
KHFY,39.628,-86.088,340,4,4.60312,KHFY 031955Z AUTO 34004KT 10SM SCT050 SCT065 SCT080 31/18 A2994 RMK AO2 T03090178,2024-08-03T19:55:00Z,30.9,17.8,10+,29.94
KHFJ,36.9105,-94.0099,10,6,6.904679999999999,KHFJ 031955Z AUTO 01006KT 10SM CLR 32/16 A3005 RMK AO2,2024-08-03T19:55:00Z,32,16,10+,30.05
KHFF,35.0424,-79.4973,210,13,14.960139999999999,KHFF 031955Z AUTO 21013G19KT 10SM FEW039 FEW048 SCT060 33/24 A2984 RMK AO2 LTG DSNT NE-E AND W-NW RAB1856E09 SLP102 P0000 T03320243 $,2024-08-03T19:55:00Z,33.2,24.3,10+,29.84
KHEY,31.348,-85.655,240,6,6.904679999999999,KHEY 031955Z AUTO 24006KT 10SM CLR 33/22 A2987 RMK AO2 LTG DSNT W-NE AND SE SLP113 T03340222,2024-08-03T19:55:00Z,33.4,22.2,10+,29.87
KHEQ,40.5715,-102.277,0,0,0.0,KHEQ 031955Z AUTO 00000KT 10SM CLR 32/15 A3016 RMK AO2,2024-08-03T19:55:00Z,32,15,10+,30.16
KHEG,30.2771,-81.8087,130,10,11.5078,KHEG 031955Z AUTO 13010G15KT 10SM FEW048 34/22 A2996 RMK AO2 TSNO,2024-08-03T19:55:00Z,34,22,10+,29.96
KHDE,40.4496,-99.3363,220,11,12.658579999999999,KHDE 031955Z AUTO 22011KT 10SM CLR 34/19 A3008 RMK AO2 T03410191,2024-08-03T19:55:00Z,34.1,19.1,10+,30.08
KHDC,30.5237,-90.4176,110,19,21.864819999999998,KHDC 031955Z AUTO 11019G25KT 10SM TS SCT035 SCT050 BKN060 33/25 A2992 RMK AO2 LTG DSNT ALQDS T03260247,2024-08-03T19:55:00Z,32.6,24.7,10+,29.92
KHCR,40.4774,-111.433,240,12,13.809359999999998,KHCR 031955Z AUTO 24012KT 10SM BKN180 OVC210 32/07 A3021 RMK AO2 T03220074,2024-08-03T19:55:00Z,32.2,7.4,10+,30.21
KHCO,48.7524,-96.9376,10,16,18.41248,KHCO 031955Z AUTO 01016KT 10SM SCT030 SCT041 BKN050 26/20 A2996 RMK AO2 LTG DSNT SE,2024-08-03T19:55:00Z,26,20,10+,29.96
KHCD,44.8597,-94.3855,160,7,8.05546,KHCD 031955Z AUTO 16007KT 10SM CLR 29/19 A2997 RMK AO2 T02900189 TSNO,2024-08-03T19:55:00Z,29,18.9,10+,29.97
KHAI,41.9591,-85.5933,0,0,0.0,KHAI 031955Z AUTO 00000KT 10SM CLR 30/19 A2994 RMK AO2 T02990190,2024-08-03T19:55:00Z,29.9,19,10+,29.94
KHAF,37.5136,-122.5,270,7,8.05546,KHAF 031955Z AUTO 27007KT 6SM BR SCT004 16/15 A3001 RMK AO2,2024-08-03T19:55:00Z,16,15,6,30.01
KHAE,39.7262,-91.4425,270,5,5.7539,KHAE 031955Z AUTO 27005KT 10SM SCT050 32/20 A3000 RMK AO2,2024-08-03T19:55:00Z,32,20,10+,30.00
KGZL,35.2913,-95.0956,340,6,6.904679999999999,KGZL 031955Z AUTO 34006KT 10SM SCT060 35/20 A3010 RMK AO2,2024-08-03T19:55:00Z,35,20,10+,30.10
KGYL,44.7588,-94.0905,180,5,5.7539,KGYL 031955Z AUTO 18005KT 10SM CLR 29/20 A2997 RMK AO2 T02930198,2024-08-03T19:55:00Z,29.3,19.8,10+,29.97
KGYF,26.1292,-94.8981,10,5,5.7539,KGYF 031955Z AUTO 01005KT 10SM SCT023 30/24 A2995 RMK AO2 T02950239,2024-08-03T19:55:00Z,29.5,23.9,10+,29.95
KGYB,30.1714,-96.9785,70,3,3.4523399999999995,KGYB 031955Z AUTO 07003KT 10SM CLR 35/23 A2999 RMK AO2 T03480228,2024-08-03T19:55:00Z,34.8,22.8,10+,29.99
KGXF,32.885,-112.721,320,4,4.60312,KGXF 031955Z 32004KT 10SM FEW080 FEW150 FEW250 43/15 A2986 RMK AO2A CB DSNT N MOV N MDT CU SE-SW SLP094 T04300152 FZRANO $,2024-08-03T19:55:00Z,43,15.2,10+,29.86
KGWR,46.2185,-97.6396,280,11,12.658579999999999,KGWR 031955Z AUTO 28011KT 10SM CLR 32/26 A2987 RMK A01,2024-08-03T19:55:00Z,32,26,10+,29.87
KGWB,41.3061,-85.0585,0,0,0.0,KGWB 031955Z AUTO 00000KT 10SM SCT046 SCT065 30/20 A2994 RMK AO2,2024-08-03T19:55:00Z,30,20,10+,29.94
KGVW,29.1303,-94.5466,70,6,6.904679999999999,KGVW 031955Z AUTO 07006KT 10SM CLR 32/25 A2995 RMK A01,2024-08-03T19:55:00Z,32,25,10+,29.95
KGVE,38.1569,-78.1656,200,8,9.20624,KGVE 031955Z AUTO 20008G19KT 10SM SCT044 33/22 A2981 RMK AO1 T03270222,2024-08-03T19:55:00Z,32.7,22.2,10+,29.81
KGUS,40.6375,-86.1631,340,7,8.05546,KGUS 031955Z AUTO 34007KT 10SM FEW200 31/20 A2992 RMK AO2 SLP127 T03050201,2024-08-03T19:55:00Z,30.5,20.1,10+,29.92
KGUR,42.261,-104.732,310,6,6.904679999999999,KGUR 031955Z AUTO 31006KT 10SM SCT130 39/04 A3012 RMK AO2 SLP155 T03870042,2024-08-03T19:55:00Z,38.7,4.2,10+,30.12
KGTB,44.0617,-75.7218,250,9,10.357019999999999,KGTB 031955Z AUTO 25009KT 10SM FEW150 SCT170 26/22 A2980 RMK AO2 SLP087 T02590215,2024-08-03T19:55:00Z,25.9,21.5,10+,29.80
KGSB,35.3446,-77.9458,160,7,8.05546,KGSB 031955Z 16007KT 10SM -DZ BKN035 BKN150 25/23 A2991 RMK SLPNO P0000 WND DATA ESTMD ALSTG ESTMD,2024-08-03T19:55:00Z,25,23,10+,29.91
KGRN,42.8039,-102.181,360,5,5.7539,KGRN 031955Z AUTO 36005KT 270V020 10SM SCT120 38/08 A3007 RMK AO2 T03770084,2024-08-03T19:55:00Z,37.7,8.4,10+,30.07
KGRK,31.0779,-97.8323,0,0,0.0,KGRK 031955Z AUTO 00000KT 10SM CLR 35/20 A2997 RMK AO2 SLP133 T03540201,2024-08-03T19:55:00Z,35.4,20.1,10+,29.97
KGRF,47.079,-122.58,270,4,4.60312,KGRF 031955Z AUTO 27004KT 10SM FEW170 FEW200 24/14 A3004 RMK AO2 SLP175 T02370138 $,2024-08-03T19:55:00Z,23.7,13.8,10+,30.04
KGPI,48.3041,-114.264,40,8,9.20624,KGPI 031955Z 04008KT 10SM FEW070 FEW110 26/14 A3008 RMK AO2 SLP167 T02610139,2024-08-03T19:55:00Z,26.1,13.9,10+,30.08
KGPC,39.635,-86.816,320,11,12.658579999999999,KGPC 031955Z AUTO 32011KT 10SM SCT046 30/21 A2996 RMK AO2 T02950206,2024-08-03T19:55:00Z,29.5,20.6,10+,29.96
KGOV,44.681,-84.727,360,11,12.658579999999999,KGOV 031955Z AUTO 36011KT 10SM CLR 30/12 A2994 RMK AO2 SLP139 T03000115 $,2024-08-03T19:55:00Z,30,11.5,10+,29.94
KGOP,31.4208,-97.7951,0,0,0.0,KGOP 031955Z AUTO 00000KT 10SM CLR 35/22 A2998 RMK AO2,2024-08-03T19:55:00Z,35,22,10+,29.98
KGOO,39.224,-121.003,VRB,4,4.60312,KGOO 031955Z AUTO VRB04KT 10SM CLR 31/14 A3009 RMK A01,2024-08-03T19:55:00Z,31,14,10+,30.09
KGNG,42.9155,-114.765,260,5,5.7539,KGNG 031955Z AUTO 26005KT 10SM CLR 35/12 A3004 RMK AO2,2024-08-03T19:55:00Z,35,12,10+,30.04
KGNC,32.678,-102.65,30,7,8.05546,KGNC 031955Z AUTO 03007KT 10SM SCT041 SCT065 BKN090 31/15 A3018 RMK AO2 T03100145,2024-08-03T19:55:00Z,31,14.5,10+,30.18
KGNB,40.0904,-105.911,240,5,5.7539,KGNB 031955Z AUTO 24005KT A3047 RMK AO2 PWINO,2024-08-03T19:55:00Z,,,,30.47
KGMJ,36.607,-94.7369,VRB,6,6.904679999999999,KGMJ 031955Z AUTO VRB06KT 10SM CLR 34/18 A3001 RMK AO2 TSNO,2024-08-03T19:55:00Z,34,18,10+,30.01
KGLY,38.3572,-93.6774,40,4,4.60312,KGLY 031955Z AUTO 04004KT 9SM CLR 33/18 A3003 RMK AO2,2024-08-03T19:55:00Z,33,18,9,30.03
KGLW,37.0337,-85.9523,290,5,5.7539,KGLW 031955Z AUTO 29005KT 10SM SCT035 BKN070 29/22 A2994 RMK AO2 T02940222,2024-08-03T19:55:00Z,29.4,22.2,10+,29.94
KGIC,45.9411,-116.133,70,9,10.357019999999999,KGIC 031955Z AUTO 07009G14KT 10SM CLR 29/12 A3006 RMK AO1,2024-08-03T19:55:00Z,29,12,10+,30.06
KGHG,42.0961,-70.6769,VRB,6,6.904679999999999,KGHG 031955Z AUTO VRB06G18KT 10SM FEW050 34/20 A2976 RMK AO2,2024-08-03T19:55:00Z,34,20,10+,29.76
KGGP,40.7127,-86.3673,360,5,5.7539,KGGP 031955Z AUTO 36005KT 10SM SCT041 BKN047 BKN060 28/21 A2995 RMK AO2,2024-08-03T19:55:00Z,28,21,10+,29.95
KGGF,40.871,-101.734,0,0,0.0,KGGF 031955Z AUTO 00000KT 10SM CLR 34/14 A3012 RMK AO2,2024-08-03T19:55:00Z,34,14,10+,30.12
KGGE,33.3138,-79.3187,170,16,18.41248,KGGE 031955Z AUTO 17016G24KT 10SM CLR 31/22 A2995 RMK AO2 LTG DSNT S,2024-08-03T19:55:00Z,31,22,10+,29.95
KGFA,47.505,-111.187,20,7,8.05546,KGFA 031955Z AUTO 02007KT 10SM CLR 36/08 A2998 RMK AO2 SLP105 T03550075,2024-08-03T19:55:00Z,35.5,7.5,10+,29.98
KGDK,39.6935,-83.9896,VRB,6,6.904679999999999,KGDK 031955Z AUTO VRB06KT 10SM FEW040 FEW070 29/23 A2989 RMK AO2,2024-08-03T19:55:00Z,29,23,10+,29.89
KGDB,44.7521,-95.5591,180,11,12.658579999999999,KGDB 031955Z AUTO 18011KT 10SM CLR 33/22 A2994 RMK AO2 T03260220,2024-08-03T19:55:00Z,32.6,22,10+,29.94
KGDA,37.3344,-88.1095,320,4,4.60312,KGDA 031955Z AUTO 32004KT 10SM BKN040 BKN055 31/20 A2997 RMK AO2 T03060199 PWINO,2024-08-03T19:55:00Z,30.6,19.9,10+,29.97
KGCY,36.1924,-82.8135,VRB,6,6.904679999999999,KGCY 031955Z AUTO VRB06KT 10SM SCT110 27/19 A2994 RMK A01,2024-08-03T19:55:00Z,27,19,10+,29.94
KGCM,36.2918,-95.4825,320,4,4.60312,KGCM 031955Z AUTO 32004KT 10SM CLR 33/18 A3001 RMK AO2,2024-08-03T19:55:00Z,33,18,10+,30.01
KGCD,44.4029,-118.967,0,0,0.0,KGCD 031955Z AUTO 00000KT 10SM CLR 30/08 A3009 RMK AO2 T02950083,2024-08-03T19:55:00Z,29.5,8.3,10+,30.09
KGBK,27.2039,-92.2025,0,0,0.0,KGBK 031955Z AUTO 00000KT 10SM SCT024 SCT029 32/26 A2994 RMK A01,2024-08-03T19:55:00Z,32,26,10+,29.94
KGBG,40.9329,-90.4334,280,7,8.05546,KGBG 031955Z AUTO 28007KT 10SM CLR 33/21 A2998 RMK AO2 T03260206,2024-08-03T19:55:00Z,32.6,20.6,10+,29.98
KGAO,29.4352,-90.2599,160,3,3.4523399999999995,KGAO 031955Z AUTO 16003KT 10SM VCTS SCT042 SCT050 32/23 A2992 RMK AO2 LTG DSNT E AND SW T03190229,2024-08-03T19:55:00Z,31.9,22.9,10+,29.92
KFZG,31.684,-83.2712,190,7,8.05546,KFZG 031955Z AUTO 19007KT 10SM SCT040 SCT049 34/24 A2991 RMK AO2 LTG DSNT SE AND NW T03390237,2024-08-03T19:55:00Z,33.9,23.7,10+,29.91
KFYM,35.0603,-86.5656,30,4,4.60312,KFYM 031955Z AUTO 03004KT 10SM FEW045 BKN055 30/21 A2996 RMK A01,2024-08-03T19:55:00Z,30,21,10+,29.96
KFYJ,37.5224,-76.7663,0,0,0.0,KFYJ 031955Z AUTO 00000KT 10SM SCT035 SCT042 SCT050 32/24 A2985 RMK AO1 T03220243,2024-08-03T19:55:00Z,32.2,24.3,10+,29.85
KFYG,38.5877,-90.9915,0,0,0.0,KFYG 031955Z AUTO 00000KT 10SM 32/26 A2998 RMK AO2,2024-08-03T19:55:00Z,32,26,10+,29.98
KFYE,35.2061,-89.3929,VRB,5,5.7539,KFYE 031955Z AUTO VRB05KT 10SM SCT047 SCT070 31/21 A2995 RMK A01,2024-08-03T19:55:00Z,31,21,10+,29.95
KFXY,43.2323,-93.6237,0,0,0.0,KFXY 031955Z AUTO 00000KT 10SM CLR 28/17 A3001 RMK AO2,2024-08-03T19:55:00Z,28,17,10+,30.01
KFWC,38.3796,-88.4135,300,3,3.4523399999999995,KFWC 031955Z AUTO 30003KT 10SM SCT045 BKN060 31/21 A2996 RMK AO2 T03050211,2024-08-03T19:55:00Z,30.5,21.1,10+,29.96
KFWB,36.6933,-93.4049,0,0,0.0,KFWB 031955Z AUTO 00000KT 10SM CLR 32/17 A3005 RMK AO2,2024-08-03T19:55:00Z,32,17,10+,30.05
KFVX,37.363,-78.4372,200,5,5.7539,KFVX 031955Z AUTO 20005KT 10SM CLR 29/24 A2985 RMK AO2 T02900244,2024-08-03T19:55:00Z,29,24.4,10+,29.85
KFTN,28.2111,-100.024,140,10,11.5078,KFTN 031955Z AUTO 14010KT 7SM SCT070 39/19 A2996 RMK A01,2024-08-03T19:55:00Z,39,19,7,29.96
KFTK,37.907,-85.973,280,5,5.7539,KFTK 031955Z AUTO 28005KT 10SM SCT032 30/23 A2991 RMK AO2 RAE1856DZB1856E07 SLP123 P0000 T02950229 $,2024-08-03T19:55:00Z,29.5,22.9,10+,29.91
KFSW,40.6615,-91.3267,280,5,5.7539,KFSW 031955Z AUTO 28005KT 10SM FEW048 FEW060 31/22 A2997 RMK AO2,2024-08-03T19:55:00Z,31,22,10+,29.97
KFSK,37.796,-94.7676,30,6,6.904679999999999,KFSK 031955Z AUTO 03006KT 10SM CLR 34/16 A3004 RMK AO2 T03360162,2024-08-03T19:55:00Z,33.6,16.2,10+,30.04
KFSE,47.589,-95.773,10,15,17.261699999999998,KFSE 031955Z AUTO 01015G20KT 10SM TS BKN041 23/18 A2994 RMK AO2 LTG DSNT NE THRU E,2024-08-03T19:55:00Z,23,18,10+,29.94
KFRR,38.9169,-78.2487,60,8,9.20624,KFRR 031955Z AUTO 06008KT 10SM SCT075 SCT090 SCT120 28/22 A2982 RMK AO1,2024-08-03T19:55:00Z,28,22,10+,29.82
KFRI,39.0568,-96.7617,300,3,3.4523399999999995,KFRI 031955Z AUTO 30003KT 6SM HZ FEW190 32/19 A3004 RMK AO2 SLP161 T03230188 PNO $,2024-08-03T19:55:00Z,32.3,18.8,6,30.04
KFPY,30.0719,-83.5731,150,7,8.05546,KFPY 031955Z AUTO 15007KT 10SM CLR 32/24 A2993 RMK AO2 LTG DSNT E T03240235,2024-08-03T19:55:00Z,32.4,23.5,10+,29.93
KFPK,42.5764,-84.8125,320,8,9.20624,KFPK 031955Z AUTO 32008KT 10SM SCT046 29/20 A2992 RMK AO2,2024-08-03T19:55:00Z,29,20,10+,29.92
KFOT,40.5529,-124.134,290,6,6.904679999999999,KFOT 031955Z AUTO 29006KT 10SM BKN011 BKN095 17/17 A3005 RMK AO1,2024-08-03T19:55:00Z,17,17,10+,30.05
KFOM,38.9618,-112.36,,,,KFOM 031955Z AUTO 10SM SCT120 35/04 A3020 RMK AO1,2024-08-03T19:55:00Z,35,4,10+,30.20
KFMM,40.3315,-103.807,VRB,6,6.904679999999999,KFMM 031955Z AUTO VRB06KT 10SM CLR 33/15 A3020 RMK AO2,2024-08-03T19:55:00Z,33,15,10+,30.20
KFLY,38.9439,-104.568,30,12,13.809359999999998,KFLY 031955Z AUTO 03012G17KT 10SM SCT100 32/04 A3039 RMK AO2 T03220043,2024-08-03T19:55:00Z,32.2,4.3,10+,30.39
KFKS,44.6246,-86.1985,310,7,8.05546,KFKS 031955Z AUTO 31007KT 290V350 10SM CLR 29/13 A2997 RMK AO2 T02900125,2024-08-03T19:55:00Z,29,12.5,10+,29.97
KFKR,40.2748,-86.5644,310,4,4.60312,KFKR 031955Z AUTO 31004KT 10SM SCT039 SCT047 30/22 A2994 RMK AO2,2024-08-03T19:55:00Z,30,22,10+,29.94
KFKN,36.6984,-76.9032,180,11,12.658579999999999,KFKN 031955Z AUTO 18011KT 10SM SCT040 BKN046 33/24 A2987 RMK AO2 LTG DSNT S T03300235,2024-08-03T19:55:00Z,33,23.5,10+,29.87
KFKA,43.677,-92.174,VRB,3,3.4523399999999995,KFKA 031955Z AUTO VRB03KT 10SM CLR 28/18 A3002 RMK AO2,2024-08-03T19:55:00Z,28,18,10+,30.02
KFHU,31.586,-110.348,150,6,6.904679999999999,KFHU 031955Z AUTO 15006KT 10SM FEW330 35/13 A3019 RMK AO2 LTG DSNT W SLP136 T03500126,2024-08-03T19:55:00Z,35,12.6,10+,30.19
KFHB,30.6131,-81.4623,150,16,18.41248,KFHB 031955Z AUTO 15016KT 10SM SCT035 31/26 A2996 RMK AO2 LTG DSNT SE,2024-08-03T19:55:00Z,31,26,10+,29.96
KFGX,38.5383,-83.7467,320,4,4.60312,KFGX 031955Z AUTO 32004KT 10SM SCT038 SCT047 BKN060 29/19 A2993 RMK AO2 T02850187,2024-08-03T19:55:00Z,28.5,18.7,10+,29.93
KFFX,43.4417,-85.9936,20,5,5.7539,KFFX 031955Z AUTO 02005KT 10SM CLR 30/16 A2994 RMK AO2 T03040160,2024-08-03T19:55:00Z,30.4,16,10+,29.94
KFFO,39.837,-84.035,340,8,9.20624,KFFO 031955Z 34008KT 10SM SCT036 SCT050 30/20 A2989 RMK AO2A SLP116 T03010203,2024-08-03T19:55:00Z,30.1,20.3,10+,29.89
KFFM,46.2865,-96.1534,200,14,16.11092,KFFM 031955Z AUTO 20014KT 10SM CLR 32/26 A2986 RMK AO2,2024-08-03T19:55:00Z,32,26,10+,29.86
KFFL,41.0521,-91.9834,320,4,4.60312,KFFL 031955Z AUTO 32004KT 10SM CLR 30/21 A2999 RMK A01,2024-08-03T19:55:00Z,30,21,10+,29.99
KFET,41.4489,-96.5237,220,9,10.357019999999999,KFET 031955Z AUTO 22009KT 10SM CLR 34/16 A3003 RMK AO2 T03440156,2024-08-03T19:55:00Z,34.4,15.6,10+,30.03
KFEP,42.2475,-89.581,0,0,0.0,KFEP 031955Z AUTO 00000KT 10SM CLR 31/17 A2998 RMK AO2 T03060169,2024-08-03T19:55:00Z,30.6,16.9,10+,29.98
KFDW,34.3151,-81.1119,140,7,8.05546,KFDW 031955Z AUTO 14007KT 10SM SCT033 SCT039 BKN090 27/22 A2994 RMK AO1 LTG DSNT E THRU S,2024-08-03T19:55:00Z,27,22,10+,29.94
KFCS,38.6756,-104.751,30,8,9.20624,KFCS 031955Z AUTO 03008KT 10SM SCT120 33/03 A3024 RMK AO2 SLP155 T03250034 $,2024-08-03T19:55:00Z,32.5,3.4,10+,30.24
KFCH,36.7338,-119.82,VRB,4,4.60312,KFCH 031955Z AUTO VRB04KT 10SM CLR 36/15 A2993 RMK A01,2024-08-03T19:55:00Z,36,15,10+,29.93
KFBR,41.3941,-110.406,60,5,5.7539,KFBR 031955Z AUTO 06005KT 10SM CLR 34/M04 A3036 RMK AO2 T03371042,2024-08-03T19:55:00Z,33.7,-4.2,10+,30.36
KFBL,44.3298,-93.3119,110,5,5.7539,KFBL 031955Z AUTO 11005KT 10SM CLR 29/17 A3000 RMK AO2,2024-08-03T19:55:00Z,29,17,10+,30.00
KFBG,35.131,-78.932,150,9,10.357019999999999,KFBG 031955Z AUTO 15009KT 10SM CLR 32/24 A2985 RMK AO2 LTG DSNT NW SLP108 T03180236 $,2024-08-03T19:55:00Z,31.8,23.6,10+,29.85
KFAF,37.134,-76.61,210,9,10.357019999999999,KFAF 031955Z AUTO 21009G15KT 10SM CLR 34/25 A2982 RMK AO2 SLP101 T03370248 $,2024-08-03T19:55:00Z,33.7,24.8,10+,29.82
KF95,30.4881,-85.1148,160,6,6.904679999999999,KF95 031955Z AUTO 16006G12KT 10SM VCTS CLR 31/23 A2989 RMK AO2 LTG DSNT NE,2024-08-03T19:55:00Z,31,23,10+,29.89
KF70,33.577,-117.126,220,6,6.904679999999999,KF70 031955Z AUTO 22006KT 10SM CLR 38/10 A2995 RMK AO2,2024-08-03T19:55:00Z,38,10,10+,29.95
KF46,32.9322,-96.4349,50,7,8.05546,KF46 031955Z AUTO 05007KT 10SM CLR 36/16 A2996 RMK AO2 T03630159,2024-08-03T19:55:00Z,36.3,15.9,10+,29.96
KF44,32.165,-95.829,110,4,4.60312,KF44 031955Z AUTO 11004KT 10SM CLR 34/19 A2994 RMK AO2,2024-08-03T19:55:00Z,34,19,10+,29.94
KF17,31.8277,-94.154,30,4,4.60312,KF17 031955Z AUTO 03004KT 10SM CLR 33/19 A2993 RMK AO2,2024-08-03T19:55:00Z,33,19,10+,29.93
KF05,34.2283,-99.2834,110,5,5.7539,KF05 031955Z AUTO 11005KT 10SM CLR 38/14 A3003 RMK AO2 T03750136,2024-08-03T19:55:00Z,37.5,13.6,10+,30.03
KF00,33.6158,-96.1809,90,10,11.5078,KF00 031955Z AUTO 09010KT 10SM SCT065 35/19 A2998 RMK AO2 T03460190,2024-08-03T19:55:00Z,34.6,19,10+,29.98
KEZZ,39.729,-94.2785,260,3,3.4523399999999995,KEZZ 031955Z AUTO 26003KT 10SM CLR 32/20 A3005 RMK AO2 T03160201,2024-08-03T19:55:00Z,31.6,20.1,10+,30.05
KEZS,44.787,-88.5639,0,0,0.0,KEZS 031955Z AUTO 00000KT 10SM CLR 30/17 A2997 RMK AO2 T03030166,2024-08-03T19:55:00Z,30.3,16.6,10+,29.97
KEZP,28.2198,-92.7944,10,7,8.05546,KEZP 031955Z AUTO 01007KT 10SM FEW024 31/25 A2996 RMK A01,2024-08-03T19:55:00Z,31,25,10+,29.96
KEZM,32.2136,-83.1321,190,8,9.20624,KEZM 031955Z AUTO 19008KT 10SM SCT041 SCT090 32/23 A2992 RMK AO2 LTG DSNT W,2024-08-03T19:55:00Z,32,23,10+,29.92
KEZF,38.2685,-77.448,200,12,13.809359999999998,KEZF 031955Z AUTO 20012G19KT 10SM SCT044 SCT055 34/21 A2980 RMK AO2 T03390211,2024-08-03T19:55:00Z,33.9,21.1,10+,29.80
KEVU,40.3524,-94.9137,250,6,6.904679999999999,KEVU 031955Z AUTO 25006KT 10SM CLR 33/20 A3004 RMK AO2 T03350205,2024-08-03T19:55:00Z,33.5,20.5,10+,30.04
KETO,28.0336,-89.1008,0,0,0.0,KETO 031955Z AUTO 00000KT 10SM CLR 36/25 A2993 RMK A01,2024-08-03T19:55:00Z,36,25,10+,29.93
KETN,32.4164,-98.8113,40,8,9.20624,KETN 031955Z AUTO 04008KT 10SM CLR 37/16 A3000 RMK AO2 T03680159,2024-08-03T19:55:00Z,36.8,15.9,10+,30.00
KETB,43.4225,-88.1326,100,4,4.60312,KETB 031955Z AUTO 10004KT 10SM CLR 28/17 A2998 RMK AO2,2024-08-03T19:55:00Z,28,17,10+,29.98
KERY,46.3151,-85.4568,300,8,9.20624,KERY 031955Z AUTO 30008KT 10SM CLR 29/11 A2995 RMK AO2 T02940108,2024-08-03T19:55:00Z,29.4,10.8,10+,29.95
KERV,29.9779,-99.0872,130,7,8.05546,KERV 031955Z AUTO 13007KT 110V190 10SM SCT065 35/20 A3002 RMK AO2 T03520197,2024-08-03T19:55:00Z,35.2,19.7,10+,30.02
KEQA,37.7753,-96.8145,360,6,6.904679999999999,KEQA 031955Z AUTO 36006KT 10SM CLR 33/15 A3007 RMK AO2,2024-08-03T19:55:00Z,33,15,10+,30.07
KENL,38.5095,-89.09,340,6,6.904679999999999,KENL 031955Z AUTO 34006KT 10SM SCT055 31/22 A2997 RMK AO2 T03100224,2024-08-03T19:55:00Z,31,22.4,10+,29.97
KEND,36.338,-97.919,30,5,5.7539,KEND 031955Z AUTO 03005KT 10SM FEW200 36/14 A3001 RMK AO2 VIS 3/4 RWY17R SLP147 T03560142 $,2024-08-03T19:55:00Z,35.6,14.2,10+,30.01
KEMM,41.8224,-110.555,230,4,4.60312,KEMM 031955Z AUTO 23004KT 10SM CLR 32/M06 A3037 RMK AO2,2024-08-03T19:55:00Z,32,-6,10+,30.37
KELO,47.8287,-91.8371,190,8,9.20624,KELO 031955Z AUTO 19008KT 10SM -VCTSRA SCT033 BKN075 OVC110 16/13 A2997 RMK AO2 LTG DSNT NE SE AND SW,2024-08-03T19:55:00Z,16,13,10+,29.97
KELK,35.4261,-99.3926,0,0,0.0,KELK 031955Z AUTO 00000KT 9SM CLR 35/14 A3006 RMK AO2 T03500138 $,2024-08-03T19:55:00Z,35,13.8,9,30.06
KELA,29.602,-96.3239,,,,KELA 031955Z AUTO 10SM CLR 36/24 A2995 RMK AO2 T03620240,2024-08-03T19:55:00Z,36.2,24,10+,29.95
KEKX,37.6924,-85.9204,310,7,8.05546,KEKX 031955Z AUTO 31007KT 10SM SCT034 SCT043 SCT060 29/21 A2993 RMK AO2 T02930212,2024-08-03T19:55:00Z,29.3,21.2,10+,29.93
KEKS,45.276,-111.65,VRB,5,5.7539,KEKS 031955Z AUTO VRB05KT 10SM CLR 33/03 A3020 RMK AO2,2024-08-03T19:55:00Z,33,3,10+,30.20
KEKM,41.7222,-86,VRB,3,3.4523399999999995,KEKM 031955Z VRB03KT 10SM CLR 31/20 A2993 RMK AO2 T03090199 $,2024-08-03T19:55:00Z,30.9,19.9,10+,29.93
KEKE,28.4971,-91.5702,320,11,12.658579999999999,KEKE 031955Z AUTO 32011KT 10SM FEW024 SCT029 SCT034 31/25 A2988 RMK A01,2024-08-03T19:55:00Z,31,25,10+,29.88
KEIK,40.0117,-105.05,70,9,10.357019999999999,KEIK 031955Z AUTO 07009G17KT 10SM CLR 35/04 A3022 RMK AO2 T03510042,2024-08-03T19:55:00Z,35.1,4.2,10+,30.22
KEHY,41.725,-106.459,130,7,8.05546,KEHY 031955Z AUTO 13007KT 070V140 10SM A3037 RMK AO2 PWINO,2024-08-03T19:55:00Z,,,10+,30.37
KEGV,45.9309,-89.267,310,5,5.7539,KEGV 031955Z AUTO 31005KT 10SM CLR 29/11 A3002 RMK AO2 T02860107,2024-08-03T19:55:00Z,28.6,10.7,10+,30.02
KEGT,37.3251,-97.3901,50,4,4.60312,KEGT 031955Z AUTO 05004KT 10SM CLR 35/16 A3007 RMK AO2 T03460158,2024-08-03T19:55:00Z,34.6,15.8,10+,30.07
KEGI,30.653,-86.525,180,10,11.5078,KEGI 031955Z AUTO 18010KT 10SM FEW041 FEW170 SCT200 34/23 A2988 RMK AO2 SLP117 T03380228 $,2024-08-03T19:55:00Z,33.8,22.8,10+,29.88
KEFT,42.6196,-89.5931,40,5,5.7539,KEFT 031955Z AUTO 04005KT 10SM CLR 30/20 A2997 RMK AO2 T03000201,2024-08-03T19:55:00Z,30,20.1,10+,29.97
KEFK,44.8886,-72.2296,280,7,8.05546,KEFK 031955Z AUTO 28007KT 10SM CLR 29/20 A2981 RMK AO2 T02880197,2024-08-03T19:55:00Z,28.8,19.7,10+,29.81
KEDW,34.908,-117.874,260,8,9.20624,KEDW 031955Z 26008KT 50SM FEW060 39/00 A2998 RMK AO2A SLP122 T03850000,2024-08-03T19:55:00Z,38.5,0,50,29.98
KEDJ,40.3714,-83.8142,360,10,11.5078,KEDJ 031955Z AUTO 36010KT 10SM SCT034 SCT040 SCT049 29/23 A2993 RMK A01,2024-08-03T19:55:00Z,29,23,10+,29.93
KEDC,30.3926,-97.5621,0,0,0.0,KEDC 031955Z AUTO 00000KT 7SM SCT060 BKN075 36/21 A2994 RMK AO2,2024-08-03T19:55:00Z,36,21,7,29.94
KECU,29.948,-100.174,70,7,8.05546,KECU 031955Z AUTO 07007KT 10SM 34/16 A3010 RMK AO2,2024-08-03T19:55:00Z,34,16,10+,30.10
KECS,43.8845,-104.312,320,10,11.5078,KECS 031955Z AUTO 32010KT 10SM CLR 37/M01 A3013 RMK AO2,2024-08-03T19:55:00Z,37,-1,10+,30.13
KEBS,42.4372,-93.8725,0,0,0.0,KEBS 031955Z AUTO 00000KT 10SM CLR A3000 RMK AO2,2024-08-03T19:55:00Z,,,10+,30.00
KEBG,26.4433,-98.1255,VRB,5,5.7539,KEBG 031955Z AUTO VRB05KT 10SM SCT050 35/21 A2993 RMK AO2,2024-08-03T19:55:00Z,35,21,10+,29.93
KEBA,34.0957,-82.8121,130,12,13.809359999999998,KEBA 031955Z AUTO 13012G15KT 10SM SCT025 BKN046 BKN070 29/25 A2991 RMK AO2 T02900249,2024-08-03T19:55:00Z,29,24.9,10+,29.91
KEAT,47.3975,-120.201,0,0,0.0,KEAT 031955Z AUTO 00000KT 10SM CLR 35/11 A2989 RMK AO2 SLP107 T03500111,2024-08-03T19:55:00Z,35,11.1,10+,29.89
KEAN,42.0563,-104.939,340,4,4.60312,KEAN 031955Z AUTO 34004KT 10SM CLR 37/02 A3018 RMK AO2 T03690020,2024-08-03T19:55:00Z,36.9,2,10+,30.18
KE77,32.634,-110.647,VRB,4,4.60312,KE77 031955Z AUTO VRB04KT 10SM 38/12 A3011 RMK AO2,2024-08-03T19:55:00Z,38,12,10+,30.11
KE57,32.976,-102.843,80,6,6.904679999999999,KE57 031955Z AUTO 08006KT 10SM CLR 32/16 A3017 RMK AO2,2024-08-03T19:55:00Z,32,16,10+,30.17
KE42,36.2193,-101.194,180,13,14.960139999999999,KE42 031955Z AUTO 18013KT 10SM SCT090 SCT120 35/13 A3013 RMK AO2 T03460131,2024-08-03T19:55:00Z,34.6,13.1,10+,30.13
KE41,31.1945,-101.473,130,3,3.4523399999999995,KE41 031955Z AUTO 13003KT 10SM CLR 36/13 A3008 RMK AO2 T03600128,2024-08-03T19:55:00Z,36,12.8,10+,30.08
KE38,30.3851,-103.68,70,4,4.60312,KE38 031955Z AUTO 07004G08KT 10SM CLR 34/05 A3025 RMK AO2 T03360051,2024-08-03T19:55:00Z,33.6,5.1,10+,30.25
KE16,37.0797,-121.598,0,0,0.0,KE16 031955Z AUTO 00000KT 10SM -RA CLR 33/10 A2994 RMK AO2,2024-08-03T19:55:00Z,33,10,10+,29.94
KE11,32.3281,-102.528,0,0,0.0,KE11 031955Z AUTO 00000KT 10SM CLR 35/13 A3012 RMK AO2 T03490131,2024-08-03T19:55:00Z,34.9,13.1,10+,30.12
KE01,31.5804,-102.908,100,11,12.658579999999999,KE01 031955Z AUTO 10011KT 10SM FEW090 39/13 A3005 RMK AO2,2024-08-03T19:55:00Z,39,13,10+,30.05
KDZJ,34.8552,-84.0014,300,4,4.60312,KDZJ 031955Z AUTO 30004KT 10SM BKN037 OVC090 28/20 A2997 RMK AO2 T02850203,2024-08-03T19:55:00Z,28.5,20.3,10+,29.97
KDZB,30.521,-98.3574,0,0,0.0,KDZB 031955Z AUTO 00000KT 10SM CLR 36/19 A3000 RMK AO2 T03570194,2024-08-03T19:55:00Z,35.7,19.4,10+,30.00
KDYT,46.7231,-92.0438,100,4,4.60312,KDYT 031955Z AUTO 10004KT 10SM FEW120 24/18 A2997 RMK AO2 LTG DSNT W-NE,2024-08-03T19:55:00Z,24,18,10+,29.97
KDYS,32.406,-99.85,40,12,13.809359999999998,KDYS 031955Z AUTO 04012G19KT 10SM FEW075 SCT180 SCT210 38/15 A2999 RMK AO2 SLP123 T03820147,2024-08-03T19:55:00Z,38.2,14.7,10+,29.99
KDYB,33.062,-80.28,0,0,0.0,KDYB 031955Z AUTO 00000KT 10SM SCT036 33/26 A2991 RMK AO2 LTG DSNT SE AND NW,2024-08-03T19:55:00Z,33,26,10+,29.91
KDXX,44.9839,-96.1789,200,12,13.809359999999998,KDXX 031955Z AUTO 20012KT 10SM CLR 33/24 A2992 RMK AO2,2024-08-03T19:55:00Z,33,24,10+,29.92
KDWX,41.037,-107.5,260,5,5.7539,KDWX 031955Z AUTO 26005KT 10SM CLR 35/M01 A3033 RMK AO2 T03461010,2024-08-03T19:55:00Z,34.6,-1,10+,30.33
KDVO,38.1417,-122.555,VRB,5,5.7539,KDVO 031955Z AUTO VRB05KT 10SM CLR 27/16 A2993 RMK AO2,2024-08-03T19:55:00Z,27,16,10+,29.93
KDUX,35.8608,-102.009,160,9,10.357019999999999,KDUX 031955Z AUTO 16009G20KT 130V200 10SM CLR 33/14 A3015 RMK AO2 T03340144,2024-08-03T19:55:00Z,33.4,14.4,10+,30.15
KDUH,41.7375,-83.6493,350,5,5.7539,KDUH 031955Z AUTO 35005KT 10SM SCT050 SCT065 31/18 A2990 RMK AO2 T03100175,2024-08-03T19:55:00Z,31,17.5,10+,29.90
KDUC,34.4778,-97.9616,10,9,10.357019999999999,KDUC 031955Z AUTO 01009KT 10SM CLR 36/13 A3002 RMK AO2,2024-08-03T19:55:00Z,36,13,10+,30.02
KDUA,33.9427,-96.3967,50,5,5.7539,KDUA 031955Z AUTO 05005KT 10SM CLR 37/12 A3001 RMK AO2,2024-08-03T19:55:00Z,37,12,10+,30.01
KDTL,46.8286,-95.8857,VRB,4,4.60312,KDTL 031955Z AUTO VRB04KT 10SM FEW047 FEW060 28/22 A2988 RMK AO2 LTG DSNT N AND NE,2024-08-03T19:55:00Z,28,22,10+,29.88
KDTA,39.3879,-112.504,210,6,6.904679999999999,KDTA 031955Z AUTO 21006G17KT 190V250 10SM CLR 35/05 A3014 RMK AO1,2024-08-03T19:55:00Z,35,5,10+,30.14
KDRP,35.1213,-90.8246,50,7,8.05546,KDRP 031955Z AUTO 05007KT 10SM CLR 32/23 A2996 RMK AO2,2024-08-03T19:55:00Z,32,23,10+,29.96
KDRM,46.009,-83.743,290,8,9.20624,KDRM 031955Z AUTO 29008KT 270V340 10SM CLR 29/13 A2990 RMK AO2 T02900127,2024-08-03T19:55:00Z,29,12.7,10+,29.90
KDRI,30.8344,-93.3359,0,0,0.0,KDRI 031955Z AUTO 00000KT 9SM FEW085 35/25 A2991 RMK AO2 LTG DSNT NW AND N T03480252,2024-08-03T19:55:00Z,34.8,25.2,9,29.91
KDOV,39.13,-75.465,200,17,19.56326,KDOV 031955Z AUTO 20017KT 10SM FEW033 32/24 A2978 RMK AO2 SLP088 T03220239 $,2024-08-03T19:55:00Z,32.2,23.9,10+,29.78
KDNV,40.2032,-87.5897,360,4,4.60312,KDNV 031955Z AUTO 36004KT 7SM BKN043 BKN060 BKN070 31/22 A2995 RMK AO2 T03050216,2024-08-03T19:55:00Z,30.5,21.6,7,29.95
KDNS,41.9842,-95.38,260,7,8.05546,KDNS 031955Z AUTO 26007KT 10SM CLR A3003 RMK AO2,2024-08-03T19:55:00Z,,,10+,30.03
KDNN,34.727,-84.8733,0,0,0.0,KDNN 031955Z AUTO 00000KT 10SM FEW045 SCT080 30/21 A2991 RMK AO2 T02990208,2024-08-03T19:55:00Z,29.9,20.8,10+,29.91
KDNA,31.875,-106.694,VRB,6,6.904679999999999,KDNA 031955Z AUTO VRB06G12KT 10SM CLR 36/07 A3016 RMK AO2,2024-08-03T19:55:00Z,36,7,10+,30.16
KDMA,32.165,-110.887,260,5,5.7539,KDMA 031955Z AUTO 26005KT 10SM CLR 39/11 A2998 RMK AO2 SLPNO T03870109 $,2024-08-03T19:55:00Z,38.7,10.9,10+,29.98
KDLZ,40.281,-83.114,0,0,0.0,KDLZ 031955Z AUTO 00000KT 10SM CLR 24/22 A2991 RMK AO2,2024-08-03T19:55:00Z,24,22,10+,29.91
KDLO,35.7449,-119.239,260,5,5.7539,KDLO 031955Z AUTO 26005KT 10SM CLR 34/11 A2992 RMK AO2 T03390113,2024-08-03T19:55:00Z,33.9,11.3,10+,29.92
KDLL,43.5236,-89.7736,60,4,4.60312,KDLL 031955Z AUTO 06004KT 10SM CLR 31/18 A2999 RMK AO2 T03060175,2024-08-03T19:55:00Z,30.6,17.5,10+,29.99
KDLF,29.3666,-100.785,130,11,12.658579999999999,KDLF 031955Z AUTO 13011KT 10SM FEW075 39/17 A2992 RMK AO2 SLP115 T03870169 $,2024-08-03T19:55:00Z,38.7,16.9,10+,29.92
KDKR,31.3097,-95.4039,270,6,6.904679999999999,KDKR 031955Z AUTO 27006KT 10SM CLR 35/25 A2993 RMK AO2,2024-08-03T19:55:00Z,35,25,10+,29.93
KDKB,41.9338,-88.7066,320,5,5.7539,KDKB 031955Z AUTO 32005KT 10SM SCT055 30/16 A2996 RMK AO2 T03020164,2024-08-03T19:55:00Z,30.2,16.4,10+,29.96
KDEH,43.2755,-91.7433,VRB,3,3.4523399999999995,KDEH 031955Z AUTO VRB03KT 10SM CLR 28/17 A3000 RMK AO2,2024-08-03T19:55:00Z,28,17,10+,30.00
KDCY,38.6953,-87.1314,320,4,4.60312,KDCY 031955Z AUTO 32004KT 10SM SCT042 BKN050 OVC060 30/20 A2994 RMK AO2 T03000204,2024-08-03T19:55:00Z,30,20.4,10+,29.94
KDCM,34.7908,-81.1987,310,3,3.4523399999999995,KDCM 031955Z AUTO 31003KT 10SM TS SCT060 SCT080 23/23 A2995 RMK AO2 LTG DSNT ALQDS P0001,2024-08-03T19:55:00Z,23,23,10+,29.95
KD95,43.0675,-83.2702,10,10,11.5078,KD95 031955Z AUTO 01010G15KT 10SM CLR 30/17 A2991 RMK AO2 T03010167,2024-08-03T19:55:00Z,30.1,16.7,10+,29.91
KD73,33.7826,-83.6948,310,7,8.05546,KD73 031955Z AUTO 31007KT 270V350 10SM CLR 32/21 A2991 RMK AO2 T03170209,2024-08-03T19:55:00Z,31.7,20.9,10+,29.91
KD60,48.3834,-102.898,80,10,11.5078,KD60 031955Z AUTO 08010G17KT 10SM CLR 25/15 A3012 RMK AO2,2024-08-03T19:55:00Z,25,15,10+,30.12
KD57,46.814,-101.864,30,13,14.960139999999999,KD57 031955Z AUTO 03013G19KT 10SM CLR 29/17 A3004 RMK AO2,2024-08-03T19:55:00Z,29,17,10+,30.04
KD39,45.7057,-94.9308,160,14,16.11092,KD39 031955Z AUTO 16014KT 10SM CLR 29/21 A2992 RMK AO2 T02860211,2024-08-03T19:55:00Z,28.6,21.1,10+,29.92
KD09,48.83,-100.417,60,11,12.658579999999999,KD09 031955Z AUTO 06011KT 10SM CLR 24/15 A3007 RMK AO2,2024-08-03T19:55:00Z,24,15,10+,30.07
KCZL,34.45,-84.936,290,4,4.60312,KCZL 031955Z AUTO 29004KT 10SM 30/21 A2991 RMK AO2,2024-08-03T19:55:00Z,30,21,10+,29.91
KCYD,28.1694,-89.2228,60,6,6.904679999999999,KCYD 031955Z AUTO 06006KT 5SM HZ CLR 31/24 A2995 RMK A02 LTG DSNT E T03100240,2024-08-03T19:55:00Z,31,24,5,29.95
KCXU,31.2141,-84.2358,190,9,10.357019999999999,KCXU 031955Z AUTO 19009KT 10SM SCT038 34/25 A2990 RMK AO1 T03370252,2024-08-03T19:55:00Z,33.7,25.2,10+,29.90
KCXP,39.1905,-119.732,0,0,0.0,KCXP 031955Z AUTO 00000KT 10SM SCT085 29/08 A3018 RMK AO2,2024-08-03T19:55:00Z,29,8,10+,30.18
KCXE,36.7923,-78.5027,0,0,0.0,KCXE 031955Z AUTO 00000KT 10SM SCT029 SCT049 BKN120 24/24 A2986 RMK AO1 P0017 T02400240,2024-08-03T19:55:00Z,24,24,10+,29.86
KCWV,32.193,-81.873,VRB,6,6.904679999999999,KCWV 031955Z AUTO VRB06G15KT 10SM FEW048 33/22 A2990 RMK AO2,2024-08-03T19:55:00Z,33,22,10+,29.90
KCWN,38.748,-104.847,40,5,5.7539,KCWN 031955Z AUTO 04005KT 9SM CLR 33/02 A3035 RMK AO2 SLP073 T03270017 $,2024-08-03T19:55:00Z,32.7,1.7,9,30.35
KCWF,30.2216,-93.1467,10,4,4.60312,KCWF 031955Z 01004KT 10SM SCT045 35/24 A2990,2024-08-03T19:55:00Z,35,24,10+,29.90
KCWC,33.8629,-98.4914,50,8,9.20624,KCWC 031955Z AUTO 05008G14KT 10SM CLR 37/14 A3001 RMK AO2 T03690135,2024-08-03T19:55:00Z,36.9,13.5,10+,30.01
KCVX,45.304,-85.2689,280,7,8.05546,KCVX 031955Z AUTO 28007KT 10SM CLR 28/15 A2997 RMK AO2 T02810152,2024-08-03T19:55:00Z,28.1,15.2,10+,29.97
KCVS,34.381,-103.322,130,9,10.357019999999999,KCVS 031955Z 13009KT 10SM FEW140 FEW200 33/15 A3019 RMK AO2A SLP146 T03260147 $,2024-08-03T19:55:00Z,32.6,14.7,10+,30.19
KCVH,36.8919,-121.41,240,9,10.357019999999999,KCVH 031955Z AUTO 24009KT 10SM CLR 33/15 A2993 RMK A01,2024-08-03T19:55:00Z,33,15,10+,29.93
KCVC,33.6312,-83.8482,320,8,9.20624,KCVC 031955Z AUTO 32008KT 300V360 10SM FEW049 FEW055 33/22 A2990 RMK AO2,2024-08-03T19:55:00Z,33,22,10+,29.90
KCVB,29.343,-98.8497,150,4,4.60312,KCVB 031955Z AUTO 15004KT 7SM CLR A2998 RMK AO2,2024-08-03T19:55:00Z,,,7,29.98
KCUH,35.949,-96.768,50,4,4.60312,KCUH 031955Z AUTO 05004KT 10SM CLR 34/10 A3002 RMK AO2 T03370097,2024-08-03T19:55:00Z,33.7,9.7,10+,30.02
KCTJ,33.6313,-85.1538,300,4,4.60312,KCTJ 031955Z AUTO 30004KT 10SM SCT045 SCT060 29/19 A2998 RMK AO2 T02940193,2024-08-03T19:55:00Z,29.4,19.3,10+,29.98
KCSQ,41.0188,-94.361,310,10,11.5078,KCSQ 031955Z AUTO 31010KT 270V330 10SM CLR A3003 RMK AO2,2024-08-03T19:55:00Z,,,10+,30.03
KCSB,40.307,-100.162,VRB,4,4.60312,KCSB 031955Z AUTO VRB04KT 10SM CLR 34/17 A3006 RMK AO2,2024-08-03T19:55:00Z,34,17,10+,30.06
KCRX,34.9209,-88.6071,290,5,5.7539,KCRX 031955Z AUTO 29005KT 10SM FEW045 31/22 A2995 RMK AO2,2024-08-03T19:55:00Z,31,22,10+,29.95
KCQW,34.7128,-79.9622,230,9,10.357019999999999,KCQW 031955Z AUTO 23009KT 10SM VCTS FEW044 SCT050 BKN065 31/24 A2987 RMK AO2 LTG DSNT ALQDS,2024-08-03T19:55:00Z,31,24,10+,29.87
KCQF,30.4618,-87.8749,240,3,3.4523399999999995,KCQF 031955Z AUTO 24003KT 10SM CLR A2989 RMK AO2,2024-08-03T19:55:00Z,,,10+,29.89
KCQB,35.7223,-96.8187,120,7,8.05546,KCQB 031955Z AUTO 12007KT 10SM SCT065 34/18 A3003 RMK AO2 T03400178,2024-08-03T19:55:00Z,34,17.8,10+,30.03
KCPW,37.464,-106.804,0,0,0.0,KCPW 031955Z AUTO 00000KT 10SM SCT085 19/00 A3084 RMK AO2 LTG DSNT E AND SW,2024-08-03T19:55:00Z,19,0,10+,30.84
KCPU,38.1445,-120.645,340,6,6.904679999999999,KCPU 031955Z AUTO 34006KT 10SM CLR 36/09 A2997 RMK AO2 T03640088,2024-08-03T19:55:00Z,36.4,8.8,10+,29.97
KCPT,32.3526,-97.435,40,9,10.357019999999999,KCPT 031955Z AUTO 04009KT 10SM CLR 35/21 A2997 RMK A01,2024-08-03T19:55:00Z,35,21,10+,29.97
KCPP,33.5991,-83.1401,220,4,4.60312,KCPP 031955Z AUTO 22004KT 10SM FEW045 SCT050 SCT070 30/23 A2990 RMK AO2,2024-08-03T19:55:00Z,30,23,10+,29.90
KCPK,36.6631,-76.3264,190,10,11.5078,KCPK 031955Z AUTO 19010G18KT 10SM SCT042 SCT050 33/24 A2988 RMK AO2 LTG DSNT SW T03290236,2024-08-03T19:55:00Z,32.9,23.6,10+,29.88
KCOQ,46.6986,-92.5034,100,4,4.60312,KCOQ 031955Z AUTO 10004KT 10SM CLR 23/13 A2999 RMK AO2 TSNO,2024-08-03T19:55:00Z,23,13,10+,29.99
KCOF,28.242,-80.608,150,11,12.658579999999999,KCOF 031955Z AUTO 15011KT 8SM -RA SCT080 BKN150 27/24 A2994 RMK AO2 RAB45 SLP143 P0001 T02710241 $,2024-08-03T19:55:00Z,27.1,24.1,8,29.94
KCNW,31.637,-97.071,VRB,3,3.4523399999999995,KCNW 031955Z VRB03KT 10SM SKC 38/18 A2996,2024-08-03T19:55:00Z,38,18,10+,29.96
KCNK,39.5513,-97.6508,200,9,10.357019999999999,KCNK 031955Z AUTO 20009KT 10SM CLR 32/17 A3006 RMK AO2 SLP161 T03220172,2024-08-03T19:55:00Z,32.2,17.2,10+,30.06
KCNI,34.31,-84.424,290,10,11.5078,KCNI 031955Z AUTO 29010KT 10SM SCT044 30/19 A2995 RMK AO2 LTG DSNT NW T02990189,2024-08-03T19:55:00Z,29.9,18.9,10+,29.95
KCNC,41.0185,-93.3608,330,4,4.60312,KCNC 031955Z AUTO 33004KT 10SM CLR 32/24 A3000 RMK AO2,2024-08-03T19:55:00Z,32,24,10+,30.00
KCNB,44.7297,-96.2623,210,8,9.20624,KCNB 031955Z AUTO 21008KT 170V250 10SM CLR 34/20 A2993 RMK AO2 T03350198,2024-08-03T19:55:00Z,33.5,19.8,10+,29.93
KCMY,43.9581,-90.7398,0,0,0.0,KCMY 031955Z AUTO 00000KT 10SM CLR 30/14 A2997 RMK AO2 SLP148 T02950141 $,2024-08-03T19:55:00Z,29.5,14.1,10+,29.97
KCMR,35.3016,-112.197,VRB,4,4.60312,KCMR 031955Z AUTO VRB04G10KT 10SM SCT070 SCT085 28/10 A3037 RMK AO2,2024-08-03T19:55:00Z,28,10,10+,30.37
KCMD,34.2722,-86.8583,VRB,4,4.60312,KCMD 031955Z AUTO VRB04G10KT 10SM FEW041 30/22 A2996 RMK AO2,2024-08-03T19:55:00Z,30,22,10+,29.96
KCMA,34.2114,-119.088,250,11,12.658579999999999,KCMA 031955Z 25011KT 10SM CLR 28/16 A2994 RMK AO2 SLP145 T02830156 $,2024-08-03T19:55:00Z,28.3,15.6,10+,29.94
KCLS,46.6774,-122.986,20,5,5.7539,KCLS 031955Z AUTO 02005KT 10SM CLR 23/16 A3006 RMK AO2,2024-08-03T19:55:00Z,23,16,10+,30.06
KCLI,44.6152,-88.7313,50,3,3.4523399999999995,KCLI 031955Z AUTO 05003KT 10SM CLR 29/15 A2999 RMK AO2 T02900151,2024-08-03T19:55:00Z,29,15.1,10+,29.99
KCKZ,40.3864,-75.2953,200,8,9.20624,KCKZ 031955Z AUTO 20008G14KT 160V220 10SM SCT042 BKN050 BKN065 32/22 A2980 RMK AO2,2024-08-03T19:55:00Z,32,22,10+,29.80
KCKP,42.7304,-95.5538,220,10,11.5078,KCKP 031955Z AUTO 22010KT 10SM CLR 32/21 A3000 RMK AO2,2024-08-03T19:55:00Z,32,21,10+,30.00
KCKN,47.8404,-96.6201,10,6,6.904679999999999,KCKN 031955Z AUTO 01006KT 5SM -VCTSRA SCT011 SCT026 SCT110 22/19 A2991 RMK AO2 LTG DSNT ALQDS,2024-08-03T19:55:00Z,22,19,5,29.91
KCKM,34.2945,-90.5146,340,5,5.7539,KCKM 031955Z AUTO 34005KT 10SM 32/32 A2996 RMK A01,2024-08-03T19:55:00Z,32,32,10+,29.96
KCKI,33.7187,-79.8567,180,8,9.20624,KCKI 031955Z AUTO 18008G17KT 10SM CLR 32/22 A2991 RMK AO2 LTG DSNT NE P0001,2024-08-03T19:55:00Z,32,22,10+,29.91
KCKF,31.9889,-83.7739,110,5,5.7539,KCKF 031955Z AUTO 11005KT 7SM TSRA BKN029 BKN039 OVC060 27/24 A2993 RMK AO2 LTG DSNT ALQDS P0008 T02730240,2024-08-03T19:55:00Z,27.3,24,7,29.93
KCKC,47.8366,-90.3864,0,0,0.0,KCKC 031955Z AUTO 00000KT 10SM CLR 19/11 A2998 RMK AO2 LTG DSNT SW,2024-08-03T19:55:00Z,19,11,10+,29.98
KCJR,38.5261,-77.8574,200,8,9.20624,KCJR 031955Z AUTO 20008G15KT 170V230 10SM SCT055 34/21 A2980 RMK AO2 T03380205,2024-08-03T19:55:00Z,33.8,20.5,10+,29.80
KCIR,37.0639,-89.2232,0,0,0.0,KCIR 031955Z AUTO 00000KT 10SM SCT043 BKN050 31/22 A2997 RMK AO2 T03140223,2024-08-03T19:55:00Z,31.4,22.3,10+,29.97
KCIN,42.0444,-94.7888,VRB,6,6.904679999999999,KCIN 031955Z AUTO VRB06KT 9SM CLR A3001 RMK AO2,2024-08-03T19:55:00Z,,,9,30.01
KCHK,35.0927,-97.9709,30,10,11.5078,KCHK 031955Z AUTO 03010G16KT 10SM CLR 35/13 A3000 RMK AO2,2024-08-03T19:55:00Z,35,13,10+,30.00
KCGC,28.866,-82.5741,120,3,3.4523399999999995,KCGC 031955Z AUTO 12003KT 10SM TSRA SCT075 BKN095 25/23 A3000 RMK AO2 LTG DSNT ALQS P0001,2024-08-03T19:55:00Z,25,23,10+,30.00
KCFS,43.4624,-83.4428,340,7,8.05546,KCFS 031955Z AUTO 34007KT 10SM SCT050 30/18 A2990 RMK AO2 T02950179,2024-08-03T19:55:00Z,29.5,17.9,10+,29.90
KCFJ,39.9767,-86.9148,310,10,11.5078,KCFJ 031955Z AUTO 31010KT 10SM SCT042 SCT048 29/17 A2996 RMK AO2 T02850166,2024-08-03T19:55:00Z,28.5,16.6,10+,29.96
KCFE,45.1601,-93.846,160,7,8.05546,KCFE 031955Z AUTO 16007G13KT 10SM CLR 28/19 A2996 RMK AO2,2024-08-03T19:55:00Z,28,19,10+,29.96
KCFD,30.7171,-96.3347,,,,KCFD 031955Z AUTO 10SM CLR 34/23 A2997 RMK AO2 T03390232,2024-08-03T19:55:00Z,33.9,23.2,10+,29.97
KCEY,36.664,-88.372,330,5,5.7539,KCEY 031955Z AUTO 33005KT 10SM SCT047 31/21 A2997 RMK A01,2024-08-03T19:55:00Z,31,21,10+,29.97
KCEF,42.201,-72.525,310,6,6.904679999999999,KCEF 031955Z 31006KT 10SM FEW041 SCT055 BKN250 31/21 A2976 RMK AO2A SLP079 T03120207,2024-08-03T19:55:00Z,31.2,20.7,10+,29.76
KCDN,34.2815,-80.5636,280,7,8.05546,KCDN 031955Z AUTO 28007G13KT 10SM VCTS FEW042 SCT050 BKN100 25/22 A2993 RMK AO2 LTG DSNT ALQDS,2024-08-03T19:55:00Z,25,22,10+,29.93
KCDI,39.976,-81.577,300,6,6.904679999999999,KCDI 031955Z AUTO 30006KT 10SM SCT027 SCT036 BKN046 27/22 A2988 RMK AO2 T02650215,2024-08-03T19:55:00Z,26.5,21.5,10+,29.88
KCDH,33.619,-92.765,20,5,5.7539,KCDH 031955Z AUTO 02005KT 10SM CLR 35/21 A2993 RMK AO2,2024-08-03T19:55:00Z,35,21,10+,29.93
KCDA,44.5677,-72.0191,110,4,4.60312,KCDA 031955Z AUTO 11004KT 10SM CLR 29/21 A2982 RMK AO2 T02900205,2024-08-03T19:55:00Z,29,20.5,10+,29.82
KCCY,43.073,-92.6132,0,0,0.0,KCCY 031955Z AUTO 00000KT 10SM CLR 29/14 A3002 RMK AO2,2024-08-03T19:55:00Z,29,14,10+,30.02
KCCU,39.475,-106.152,0,0,0.0,KCCU 031955Z AUTO 00000KT 10SM BKN090 23/M03 A3083 RMK AO2,2024-08-03T19:55:00Z,23,-3,10+,30.83
KCCB,34.1118,-117.685,260,6,6.904679999999999,KCCB 031955Z AUTO 26006G11KT 10SM CLR 35/10 A2997 RMK AO2,2024-08-03T19:55:00Z,35,10,10+,29.97
KCBM,33.6519,-88.4567,360,6,6.904679999999999,KCBM 031955Z AUTO 36006KT 10SM CLR 33/21 A2988 RMK AO2 SLP118 T03280210 $,2024-08-03T19:55:00Z,32.8,21,10+,29.88
KCBK,39.4301,-101.051,150,11,12.658579999999999,KCBK 031955Z AUTO 15011G17KT 10SM CLR 34/15 A3014 RMK AO2 T03360147,2024-08-03T19:55:00Z,33.6,14.7,10+,30.14
KCBG,45.557,-93.264,170,8,9.20624,KCBG 031955Z AUTO 17008KT 10SM CLR 28/20 A2997 RMK AO2,2024-08-03T19:55:00Z,28,20,10+,29.97
KCBF,41.2611,-95.7604,240,9,10.357019999999999,KCBF 031955Z AUTO 24009KT 10SM CLR A3000 RMK AO2,2024-08-03T19:55:00Z,,,10+,30.00
KCAV,42.743,-93.7592,VRB,3,3.4523399999999995,KCAV 031955Z AUTO VRB03KT 10SM CLR A3002 RMK A01,2024-08-03T19:55:00Z,,,10+,30.02
KCAO,36.4483,-103.154,230,11,12.658579999999999,KCAO 031955Z AUTO 23011G19KT 10SM CLR 32/12 A3023 RMK AO2 PK WND 19027/1907 LTG DSNT NW SLP160 T03170122 $,2024-08-03T19:55:00Z,31.7,12.2,10+,30.23
KCAD,44.2785,-85.4207,340,10,11.5078,KCAD 031955Z AUTO 34010KT 10SM CLR 28/12 A2997 RMK AO2,2024-08-03T19:55:00Z,28,12,10+,29.97
KC83,37.8276,-121.624,VRB,3,3.4523399999999995,KC83 031955Z AUTO VRB03KT 9SM CLR 35/08 A2991 RMK AO2,2024-08-03T19:55:00Z,35,8,9,29.91
KC75,41.0231,-89.3886,,,,KC75 031955Z AUTO 10SM BKN065 BKN075 BKN090 30/21 A2995 RMK AO2 T03040211,2024-08-03T19:55:00Z,30.4,21.1,10+,29.95
KC65,41.3636,-86.2998,0,0,0.0,KC65 031955Z AUTO 00000KT 10SM CLR 30/21 A2993 RMK A01,2024-08-03T19:55:00Z,30,21,10+,29.93
KC35,43.5261,-89.9809,360,5,5.7539,KC35 031955Z AUTO 36005KT 10SM CLR 30/16 A2999 RMK AO2 T03030161 PWINO,2024-08-03T19:55:00Z,30.3,16.1,10+,29.99
KC29,43.1153,-89.5312,360,5,5.7539,KC29 031955Z AUTO 36005KT 10SM SCT043 31/20 A2999 RMK AO1 T03060200,2024-08-03T19:55:00Z,30.6,20,10+,29.99
KC09,41.4317,-88.4152,250,4,4.60312,KC09 031955Z AUTO 25004KT 10SM SCT045 31/22 A2994 RMK AO2 T03110219,2024-08-03T19:55:00Z,31.1,21.9,10+,29.94
KC07,40.3544,-106.699,0,0,0.0,KC07 031955Z AUTO 00000KT 10SM CLR 22/00 A3070 RMK AO2,2024-08-03T19:55:00Z,22,0,10+,30.70
KBYY,28.9717,-95.8584,0,0,0.0,KBYY 031955Z AUTO 00000KT 10SM BKN042 BKN050 33/25 A2995 RMK AO2 T03370246,2024-08-03T19:55:00Z,33.7,24.6,10+,29.95
KBYS,35.271,-116.634,210,7,8.05546,KBYS 031955Z AUTO 21007KT 10SM FEW300 38/10 A2996 RMK AO2 SLP111 T03840098 $,2024-08-03T19:55:00Z,38.4,9.8,10+,29.96
KBYL,36.7954,-84.2013,300,5,5.7539,KBYL 031955Z AUTO 30005KT 10SM CLR 24/20 A2994 RMK AO1,2024-08-03T19:55:00Z,24,20,10+,29.94
KBXK,33.4178,-112.688,VRB,5,5.7539,KBXK 031955Z AUTO VRB05KT 10SM CLR 41/14 A2987 RMK A01,2024-08-03T19:55:00Z,41,14,10+,29.87
KBXA,30.8104,-89.8627,260,8,9.20624,KBXA 031955Z AUTO 26008KT 10SM SCT046 BKN050 OVC065 31/24 A2992 RMK AO2 T03130239,2024-08-03T19:55:00Z,31.3,23.9,10+,29.92
KBWW,46.1656,-103.296,10,11,12.658579999999999,KBWW 031955Z AUTO 01011G19KT 10SM CLR 32/07 A3009 RMK AO2,2024-08-03T19:55:00Z,32,7,10+,30.09
KBWP,46.2444,-96.6046,240,13,14.960139999999999,KBWP 031955Z AUTO 24013KT 10SM CLR 33/22 A2982 RMK AO2,2024-08-03T19:55:00Z,33,22,10+,29.82
KBWD,31.7898,-98.9522,340,4,4.60312,KBWD 031955Z AUTO 34004KT FEW100 36/18 A3000 RMK AO1 VSBY 2V5,2024-08-03T19:55:00Z,36,18,,30.00
KBVU,35.9489,-114.863,190,10,11.5078,KBVU 031955Z AUTO 19010KT 160V230 10SM SCT100 40/12 A2993 RMK AO2,2024-08-03T19:55:00Z,40,12,10+,29.93
KBVS,48.4696,-122.419,0,0,0.0,KBVS 031955Z AUTO 00000KT 10SM CLR 23/20 A3005 RMK A01,2024-08-03T19:55:00Z,23,20,10+,30.05
KBVN,41.7301,-98.0546,170,11,12.658579999999999,KBVN 031955Z AUTO 17011KT 10SM CLR 33/18 A3005 RMK AO2 T03270182,2024-08-03T19:55:00Z,32.7,18.2,10+,30.05
KBVI,40.7735,-80.3825,330,3,3.4523399999999995,KBVI 031955Z AUTO 33003KT 10SM SCT020 BKN026 28/19 A2990 RMK AO2 T02750192,2024-08-03T19:55:00Z,27.5,19.2,10+,29.90
KBUU,42.6908,-88.308,60,7,8.05546,KBUU 031955Z AUTO 06007KT 10SM SCT038 30/22 A2996 RMK AO2 T02950224 PWINO,2024-08-03T19:55:00Z,29.5,22.4,10+,29.96
KBTN,45.8186,-97.7457,240,10,11.5078,KBTN 031955Z AUTO 24010G15KT 10SM CLR 33/22 A2986 RMK AO2,2024-08-03T19:55:00Z,33,22,10+,29.86
KBTA,41.415,-96.109,230,7,8.05546,KBTA 031955Z AUTO 23007KT 10SM CLR 32/21 A3003 RMK AO2 T03210206,2024-08-03T19:55:00Z,32.1,20.6,10+,30.03
KBRY,37.8079,-85.5011,360,8,9.20624,KBRY 031955Z AUTO 36008KT 10SM SCT037 30/23 A2991 RMK AO2 T02970232 $,2024-08-03T19:55:00Z,29.7,23.2,10+,29.91
KBRG,34.6477,-106.833,0,0,0.0,KBRG 031955Z AUTO 00000KT 10SM CLR 32/10 A3025 RMK AO2 T03160096,2024-08-03T19:55:00Z,31.6,9.6,10+,30.25
KBQP,32.7583,-91.8793,360,5,5.7539,KBQP 031955Z AUTO 36005KT 10SM SCT055 35/21 A2993 RMK AO2 T03450209,2024-08-03T19:55:00Z,34.5,20.9,10+,29.93
KBQK,31.2567,-81.4754,150,16,18.41248,KBQK 031955Z AUTO 15016G21KT 7SM HZ CLR 33/24 A2994 RMK AO2 LTG DSNT S T03290238,2024-08-03T19:55:00Z,32.9,23.8,7,29.94
KBPG,32.2097,-101.525,0,0,0.0,KBPG 031955Z AUTO 00000KT 10SM CLR 36/14 A3006 RMK AO2 T03600138,2024-08-03T19:55:00Z,36,13.8,10+,30.06
KBNW,42.0486,-93.8486,0,0,0.0,KBNW 031955Z AUTO 00000KT 10SM CLR A3000 RMK AO2,2024-08-03T19:55:00Z,,,10+,30.00
KBMT,30.0686,-94.2155,0,0,0.0,KBMT 031955Z AUTO 00000KT 10SM CLR 35/23 A2991 RMK AO2 T03450225,2024-08-03T19:55:00Z,34.5,22.5,10+,29.91
KBMC,41.5463,-112.06,210,4,4.60312,KBMC 031955Z AUTO 21004KT 10SM CLR 35/M01 A3013 RMK AO1 T03461013,2024-08-03T19:55:00Z,34.6,-1.3,10+,30.13
KBLV,38.54,-89.845,20,5,5.7539,KBLV 031955Z AUTO 02005KT 10SM FEW210 32/21 A2996 RMK AO2 SLP144 T03180210 $,2024-08-03T19:55:00Z,31.8,21,10+,29.96
KBKT,37.082,-77.953,220,9,10.357019999999999,KBKT 031955Z AUTO 22009KT 10SM -TSRA SCT048 BKN080 26/23 A2989 RMK AO2 RAB01E15RAB22 TSB38 PRESRR SLP121 P0005 T02620234 $,2024-08-03T19:55:00Z,26.2,23.4,10+,29.89
KBKN,36.7431,-97.3479,VRB,3,3.4523399999999995,KBKN 031955Z AUTO VRB03KT 10SM CLR 35/15 A3004 RMK AO2,2024-08-03T19:55:00Z,35,15,10+,30.04
KBKD,32.7206,-98.8931,,,,KBKD 031955Z AUTO 7SM CLR 38/15 A2999 RMK AO2 T03810150,2024-08-03T19:55:00Z,38.1,15,7,29.99
KBJI,47.5076,-94.9279,120,6,6.904679999999999,KBJI 031955Z AUTO 12006G09KT 10SM CLR 23/18 A2994 RMK AO2 LTG DSNT NW THRU E T02300176,2024-08-03T19:55:00Z,23,17.6,10+,29.94
KBIX,30.415,-88.922,50,5,5.7539,KBIX 031955Z 05005KT 10SM VCTS FEW180 FEW210 32/22 A2987 RMK AO2A TSB15E50 SLP118 T03150222,2024-08-03T19:55:00Z,31.5,22.2,10+,29.87
KBIJ,31.4,-84.8939,200,6,6.904679999999999,KBIJ 031955Z AUTO 20006KT 10SM CLR 33/23 A2991 RMK AO2 LTG DSNT S AND NW,2024-08-03T19:55:00Z,33,23,10+,29.91
KBIF,31.861,-106.369,130,6,6.904679999999999,KBIF 031955Z COR 13006KT 10SM SCT100 BKN140 BKN250 36/09 A3012 RMK AO2 SLP120 T03580093 $ COR 1957,2024-08-03T19:55:00Z,35.8,9.3,10+,30.12
KBIE,40.3005,-96.7517,170,6,6.904679999999999,KBIE 031955Z AUTO 17006KT 10SM CLR 34/13 A3005 RMK AO2 T03420129,2024-08-03T19:55:00Z,34.2,12.9,10+,30.05
KBHC,31.712,-82.3902,190,7,8.05546,KBHC 031955Z AUTO 19007KT 10SM CLR 33/20 A2991 RMK AO2 LTG DSNT SE,2024-08-03T19:55:00Z,33,20,10+,29.91
KBGF,35.174,-86.0678,VRB,6,6.904679999999999,KBGF 031955Z AUTO VRB06G12KT 10SM FEW041 SCT050 SCT060 30/21 A2994 RMK A01,2024-08-03T19:55:00Z,30,21,10+,29.94
KBGE,30.9709,-84.6344,210,9,10.357019999999999,KBGE 031955Z AUTO 21009KT 10SM VCTS CLR 32/26 A2992 RMK AO2 LTG DSNT S THRU NW P0006 T03180261,2024-08-03T19:55:00Z,31.8,26.1,10+,29.92
KBFA,45.166,-84.924,320,10,11.5078,KBFA 031955Z AUTO 32010KT 10SM CLR 28/14 A2994 RMK AO2,2024-08-03T19:55:00Z,28,14,10+,29.94
KBEC,37.694,-97.215,0,0,0.0,KBEC 031955Z AUTO 00000KT 10SM CLR 32/16 A3007 RMK AO2 T03240156,2024-08-03T19:55:00Z,32.4,15.6,10+,30.07
KBDU,40.0377,-105.227,100,6,6.904679999999999,KBDU 031955Z AUTO 10006G14KT 10SM CLR 35/03 A3025 RMK AO2,2024-08-03T19:55:00Z,35,3,10+,30.25
KBDN,44.1006,-121.198,250,7,8.05546,KBDN 031955Z AUTO 25007KT 220V290 10SM CLR 31/09 A3010 RMK AO2,2024-08-03T19:55:00Z,31,9,10+,30.10
KBDH,45.1111,-95.1258,180,10,11.5078,KBDH 031955Z AUTO 18010G16KT 10SM CLR 30/23 A2993 RMK AO2,2024-08-03T19:55:00Z,30,23,10+,29.93
KBDG,37.587,-109.481,170,7,8.05546,KBDG 031955Z AUTO 17007KT 10SM CLR 32/10 A3028 RMK AO2 T03190095 $,2024-08-03T19:55:00Z,31.9,9.5,10+,30.28
KBCK,44.2499,-90.85,0,0,0.0,KBCK 031955Z AUTO 00000KT 10SM CLR 29/14 A3000 RMK AO2 T02930139,2024-08-03T19:55:00Z,29.3,13.9,10+,30.00
KBCB,37.208,-80.4127,0,0,0.0,KBCB 031955Z AUTO 00000KT 10SM CLR 25/23 A2997 RMK AO2 LTG DSNT SE P0001 T02450233,2024-08-03T19:55:00Z,24.5,23.3,10+,29.97
KBBD,31.1766,-99.3229,VRB,7,8.05546,KBBD 031955Z AUTO VRB07KT 10SM CLR 35/17 A3002 RMK AO2,2024-08-03T19:55:00Z,35,17,10+,30.02
KBAX,43.7774,-82.9828,350,15,17.261699999999998,KBAX 031955Z AUTO 35015G22KT 10SM CLR 28/19 A2990 RMK AO2 T02830194,2024-08-03T19:55:00Z,28.3,19.4,10+,29.90
KBAM,40.6048,-116.872,240,10,11.5078,KBAM 031955Z AUTO 24010G14KT 10SM CLR 36/08 A3011 RMK AO1,2024-08-03T19:55:00Z,36,8,10+,30.11
KBAK,39.2664,-85.8926,330,8,9.20624,KBAK 031955Z 33008KT 10SM SCT045 29/22 A2993,2024-08-03T19:55:00Z,29,22,10+,29.93
KBAD,32.488,-93.658,40,3,3.4523399999999995,KBAD 031955Z AUTO 04003KT 10SM CLR 34/21 A2991 RMK AO2 DZB1857E1858DZB06E07DZB27E35 SLP130 P0000 T03440214,2024-08-03T19:55:00Z,34.4,21.4,10+,29.91
KBAC,46.9419,-98.0179,20,15,17.261699999999998,KBAC 031955Z AUTO 02015G22KT 9SM SCT026 SCT032 BKN042 28/24 A2992 RMK AO2,2024-08-03T19:55:00Z,28,24,9,29.92
KBAB,39.145,-121.436,10,6,6.904679999999999,KBAB 031955Z AUTO 01006KT 10SM FEW150 34/13 A2990 RMK AO2 SLP127 T03430126 $,2024-08-03T19:55:00Z,34.3,12.6,10+,29.90
KAZE,31.8792,-82.6454,170,6,6.904679999999999,KAZE 031955Z AUTO 17006KT 10SM CLR 32/24 A2990 RMK AO2 T03210240,2024-08-03T19:55:00Z,32.1,24,10+,29.90
KAZC,36.959,-113.013,320,5,5.7539,KAZC 031955Z AUTO 32005KT 10SM SCT090 39/16 A3022 RMK AO2,2024-08-03T19:55:00Z,39,16,10+,30.22
KAYS,31.2466,-82.4014,190,8,9.20624,KAYS 031955Z AUTO 19008KT SCT050 35/22 A2992 RMK AO2 LTG DSNT SE T03460224 PWINO,2024-08-03T19:55:00Z,34.6,22.4,,29.92
KAXX,36.422,-105.29,270,15,17.261699999999998,KAXX 031955Z AUTO 27015G21KT 10SM -RA OVC100 17/07 A3052 RMK AO2 T01690072,2024-08-03T19:55:00Z,16.9,7.2,10+,30.52
KAXV,40.4959,-84.2929,340,8,9.20624,KAXV 031955Z AUTO 34008KT 10SM SCT035 28/21 A2992 RMK AO2,2024-08-03T19:55:00Z,28,21,10+,29.92
KAXS,34.6963,-99.3402,130,8,9.20624,KAXS 031955Z AUTO 13008G14KT 10SM CLR 37/14 A3002 RMK AO2,2024-08-03T19:55:00Z,37,14,10+,30.02
KAXA,43.0796,-94.2723,160,5,5.7539,KAXA 031955Z AUTO 16005KT 10SM CLR 30/20 A3000 RMK A01,2024-08-03T19:55:00Z,30,20,10+,30.00
KAWG,41.2749,-91.6746,VRB,6,6.904679999999999,KAWG 031955Z AUTO VRB06KT 10SM CLR 30/19 A2998 RMK AO2,2024-08-03T19:55:00Z,30,19,10+,29.98
KAVQ,32.4112,-111.216,0,0,0.0,KAVQ 031955Z AUTO 00000KT 10SM CLR 40/13 A2994 RMK AO2,2024-08-03T19:55:00Z,40,13,10+,29.94
KAVK,36.7765,-98.6724,300,3,3.4523399999999995,KAVK 031955Z AUTO 30003KT 10SM CLR 35/15 A3006 RMK AO2,2024-08-03T19:55:00Z,35,15,10+,30.06
KAVC,36.6854,-78.0523,280,8,9.20624,KAVC 031955Z AUTO 28008KT 4SM TS BKN033 BKN045 OVC070 28/25 A2991 RMK AO2 LTG DSNT ALQS P0009 T02750253,2024-08-03T19:55:00Z,27.5,25.3,4,29.91
KAUN,38.9553,-121.087,VRB,4,4.60312,KAUN 031955Z AUTO VRB04G11KT 10SM CLR 34/13 A3000 RMK A01,2024-08-03T19:55:00Z,34,13,10+,30.00
KAUH,40.8966,-97.9974,180,10,11.5078,KAUH 031955Z AUTO 18010KT 10SM CLR 32/20 A3007 RMK AO2 T03160204,2024-08-03T19:55:00Z,31.6,20.4,10+,30.07
KATS,32.8524,-104.464,VRB,3,3.4523399999999995,KATS 031955Z AUTO VRB03KT 10SM CLR 33/13 A3016 RMK AO2,2024-08-03T19:55:00Z,33,13,10+,30.16
KATA,33.1017,-94.1937,80,7,8.05546,KATA 031955Z AUTO 08007KT 10SM FEW050 33/24 A2992 RMK AO2 SLP032 T03290239 $,2024-08-03T19:55:00Z,32.9,23.9,10+,29.92
KASW,41.274,-85.842,0,0,0.0,KASW 031955Z AUTO 00000KT 10SM BKN047 30/19 A2994 RMK AO2 T03010193,2024-08-03T19:55:00Z,30.1,19.3,10+,29.94
KAST,46.157,-123.883,270,7,8.05546,KAST 031955Z AUTO 27007KT 10SM SCT016 19/14 A3009 RMK AO2 SLP189 T01940144,2024-08-03T19:55:00Z,19.4,14.4,10+,30.09
KASN,33.569,-86.0519,VRB,4,4.60312,KASN 031955Z AUTO VRB04KT 10SM FEW075 32/22 A2990 RMK AO2,2024-08-03T19:55:00Z,32,22,10+,29.90
KASL,32.5207,-94.3066,340,3,3.4523399999999995,KASL 031955Z AUTO 34003KT 10SM FEW340 35/24 A2992 RMK AO2 T03470240 $,2024-08-03T19:55:00Z,34.7,24,10+,29.92
KARW,32.4104,-80.6335,200,10,11.5078,KARW 031955Z AUTO 20010G19KT 10SM CLR 31/25 A2993 RMK AO2 LTG DSNT S,2024-08-03T19:55:00Z,31,25,10+,29.93
KARM,29.2515,-96.1508,0,0,0.0,KARM 031955Z AUTO 00000KT 10SM CLR 35/23 A2995 RMK AO2 T03470234 TSNO,2024-08-03T19:55:00Z,34.7,23.4,10+,29.95
KAQX,32.9941,-81.271,150,13,14.960139999999999,KAQX 031955Z AUTO 15013KT 10SM FEW038 SCT049 BKN095 33/24 A2989 RMK AO2 TSNO,2024-08-03T19:55:00Z,33,24,10+,29.89
KAQO,30.7873,-98.6608,0,0,0.0,KAQO 031955Z AUTO 00000KT 10SM CLR 35/20 A2998 RMK AO2,2024-08-03T19:55:00Z,35,20,10+,29.98
KAPY,26.969,-99.249,30,4,4.60312,KAPY 031955Z AUTO 03004KT 10SM SCT060 36/21 A2995 RMK AO2 T03630211 TSNO,2024-08-03T19:55:00Z,36.3,21.1,10+,29.95
KANW,42.5748,-99.9984,0,0,0.0,KANW 031955Z AUTO 00000KT 10SM CLR 37/14 A3003 RMK AO2 T03660143,2024-08-03T19:55:00Z,36.6,14.3,10+,30.03
KANQ,41.6404,-85.0852,VRB,5,5.7539,KANQ 031955Z AUTO VRB05G10KT 10SM FEW043 FEW050 30/21 A2994 RMK AO2,2024-08-03T19:55:00Z,30,21,10+,29.94
KANK,38.538,-106.049,VRB,5,5.7539,KANK 031955Z AUTO VRB05KT 10SM FEW120 31/01 A3038 RMK AO2 T03130014 $,2024-08-03T19:55:00Z,31.3,1.4,10+,30.38
KANJ,46.48,-84.3581,310,10,11.5078,KANJ 031955Z AUTO 31010G16KT 10SM CLR 28/14 A2992 RMK AO2 SLP128 T02780139,2024-08-03T19:55:00Z,27.8,13.9,10+,29.92
KAMN,43.3209,-84.6871,350,10,11.5078,KAMN 031955Z AUTO 35010KT 10SM CLR 30/15 A2992 RMK AO2,2024-08-03T19:55:00Z,30,15,10+,29.92
KALX,32.916,-85.964,270,6,6.904679999999999,KALX 031955Z AUTO 27006KT 10SM CLR 34/20 A2991 RMK AO2 LTG DSNT S AND SW T03350204,2024-08-03T19:55:00Z,33.5,20.4,10+,29.91
KALM,32.8351,-105.994,0,0,0.0,KALM 031955Z AUTO 00000KT 10SM CLR 32/08 A3018 RMK AO2,2024-08-03T19:55:00Z,32,8,10+,30.18
KAJR,34.5006,-83.5519,220,8,9.20624,KAJR 031955Z AUTO 22008G17KT 200V260 10SM SCT042 SCT048 30/19 A2993 RMK AO2 T02950190,2024-08-03T19:55:00Z,29.5,19,10+,29.93
KAJG,38.6093,-87.7251,280,4,4.60312,KAJG 031955Z AUTO 28004KT 10SM SCT041 SCT050 31/22 A2996 RMK AO2 T03060222,2024-08-03T19:55:00Z,30.6,22.2,10+,29.96
KAIT,46.5483,-93.6754,100,4,4.60312,KAIT 031955Z AUTO 10004KT 10SM SCT046 SCT100 24/17 A2997 RMK AO2 LTG DSNT NW THRU E,2024-08-03T19:55:00Z,24,17,10+,29.97
KAIO,41.4059,-95.0465,240,6,6.904679999999999,KAIO 031955Z AUTO 24006KT 10SM CLR 32/22 A3001 RMK AO2,2024-08-03T19:55:00Z,32,22,10+,30.01
KAIG,45.1566,-89.1115,0,0,0.0,KAIG 031955Z AUTO 00000KT 10SM CLR 27/15 A3002 RMK AO2 T02740152,2024-08-03T19:55:00Z,27.4,15.2,10+,30.02
KAHQ,41.241,-96.594,200,6,6.904679999999999,KAHQ 031955Z AUTO 20006KT 10SM CLR 32/19 A3004 RMK AO2 T03210188,2024-08-03T19:55:00Z,32.1,18.8,10+,30.04
KAGO,33.2266,-93.2154,VRB,4,4.60312,KAGO 031955Z AUTO VRB04KT 10SM FEW055 33/22 A2993 RMK A01,2024-08-03T19:55:00Z,33,22,10+,29.93
KAGI,27.5461,-92.4434,0,0,0.0,KAGI 031955Z AUTO 00000KT 10SM SCT024 37/24 A2995 RMK AO2 T03750241,2024-08-03T19:55:00Z,37.5,24.1,10+,29.95
KAFO,42.7139,-110.944,200,3,3.4523399999999995,KAFO 031955Z AUTO 20003KT 10SM CLR 29/12 A3025 RMK AO2,2024-08-03T19:55:00Z,29,12,10+,30.25
KAFK,40.6065,-95.8635,0,0,0.0,KAFK 031955Z AUTO 00000KT 10SM CLR 33/20 A3004 RMK AO2 T03250198,2024-08-03T19:55:00Z,32.5,19.8,10+,30.04
KAFF,38.971,-104.816,340,13,14.960139999999999,KAFF 031955Z AUTO 34013G18KT 10SM CLR 32/M02 A3033 RMK AO2 SLP162 T03231019,2024-08-03T19:55:00Z,32.3,-1.9,10+,30.33
KAEL,43.6823,-93.3722,0,0,0.0,KAEL 031955Z AUTO 00000KT 10SM CLR 28/17 A3001 RMK AO2,2024-08-03T19:55:00Z,28,17,10+,30.01
KAEJ,38.8116,-106.121,,,,KAEJ 031955Z AUTO 10SM SCT110 29/M01 A3044 RMK AO2 T02901007,2024-08-03T19:55:00Z,29,-0.7,10+,30.44
KADW,38.8215,-76.8654,200,13,14.960139999999999,KADW 031955Z AUTO 20013G20KT 10SM CLR 34/22 A2977 RMK AO2 SLP085 T03370218 $,2024-08-03T19:55:00Z,33.7,21.8,10+,29.77
KADU,41.6993,-94.9204,280,4,4.60312,KADU 031955Z AUTO 28004KT 10SM SCT041 BKN075 OVC085 32/21 A3003 RMK AO2,2024-08-03T19:55:00Z,32,21,10+,30.03
KADH,34.8021,-96.6701,30,9,10.357019999999999,KADH 031955Z AUTO 03009KT 350V050 10SM CLR 35/18 A3002 RMK AO2,2024-08-03T19:55:00Z,35,18,10+,30.02
KADC,46.4502,-95.2135,190,8,9.20624,KADC 031955Z AUTO 19008KT 10SM CLR 30/20 A2990 RMK AO2,2024-08-03T19:55:00Z,30,20,10+,29.90
KACQ,44.0702,-93.5535,0,0,0.0,KACQ 031955Z AUTO 00000KT 10SM CLR 27/18 A3002 RMK AO2,2024-08-03T19:55:00Z,27,18,10+,30.02
KACP,30.7469,-92.687,40,4,4.60312,KACP 031955Z AUTO 04004KT 10SM SCT046 SCT120 34/22 A2991 RMK AO2,2024-08-03T19:55:00Z,34,22,10+,29.91
KACJ,32.1106,-84.1841,230,6,6.904679999999999,KACJ 031955Z AUTO 23006KT 10SM FEW042 33/24 A2989 RMK AO2 LTG DSNT N - E AND W T03310240 $,2024-08-03T19:55:00Z,33.1,24,10+,29.89
KACB,44.9867,-85.2022,320,6,6.904679999999999,KACB 031955Z AUTO 32006KT 10SM CLR 29/14 A2995 RMK AO2 T02850140,2024-08-03T19:55:00Z,28.5,14,10+,29.95
KABH,38.7587,-104.299,40,11,12.658579999999999,KABH 031955Z AUTO 04011KT 10SM CLR 33/06 A3031 RMK AO2 SLP174 T03290062,2024-08-03T19:55:00Z,32.9,6.2,10+,30.31
KAAT,41.4836,-120.561,310,13,14.960139999999999,KAAT 031955Z AUTO 31013G21KT 10SM SCT090 32/08 A3015 RMK AO2 SLP150 T03220078,2024-08-03T19:55:00Z,32.2,7.8,10+,30.15
KAAS,37.3569,-85.3151,340,5,5.7539,KAAS 031955Z AUTO 34005KT 10SM SCT029 SCT034 SCT044 28/21 A2993 RMK AO1,2024-08-03T19:55:00Z,28,21,10+,29.93
KAAA,40.1584,-89.339,310,3,3.4523399999999995,KAAA 031955Z AUTO 31003KT 10SM CLR 32/22 A2997 RMK AO2 T03150222,2024-08-03T19:55:00Z,31.5,22.2,10+,29.97
KA39,32.9875,-111.922,0,0,0.0,KA39 031955Z AUTO 00000KT 10SM BKN100 BKN120 41/14 A2992 RMK AO2,2024-08-03T19:55:00Z,41,14,10+,29.92
K9Y1,47.3941,-102.773,30,11,12.658579999999999,K9Y1 031955Z AUTO 03011G17KT 10SM CLR 28/14 A3008 RMK AO2,2024-08-03T19:55:00Z,28,14,10+,30.08
K9V9,43.7653,-99.3163,190,9,10.357019999999999,K9V9 031955Z AUTO 19009KT 10SM CLR 35/21 A2993 RMK AO2 T03540210,2024-08-03T19:55:00Z,35.4,21,10+,29.93
K9S9,45.4551,-119.686,290,10,11.5078,K9S9 031955Z AUTO 29010KT 10SM CLR 32/08 A3001 RMK AO2,2024-08-03T19:55:00Z,32,8,10+,30.01
K9MN,44.0198,-92.4829,130,3,3.4523399999999995,K9MN 031955Z AUTO 13003KT 10SM CLR 28/10 A3002 RMK AO1 T02830103,2024-08-03T19:55:00Z,28.3,10.3,10+,30.02
K9L2,34.996,-117.857,140,6,6.904679999999999,K9L2 031955Z AUTO 14006KT 8SM FEW340 39/05 A2999 RMK AO2 SLP125 T03880054 $,2024-08-03T19:55:00Z,38.8,5.4,8,29.99
K9D7,48.4816,-99.2346,,,,K9D7 031955Z AUTO 5SM HZ CLR 24/14 A3007 RMK AO2,2024-08-03T19:55:00Z,24,14,5,30.07
K9A5,34.6846,-85.2899,0,0,0.0,K9A5 031955Z AUTO 00000KT 7SM SCT075 SCT085 SCT120 30/19 A2993 RMK AO2 T02960186,2024-08-03T19:55:00Z,29.6,18.6,7,29.93
K96D,48.9402,-97.9053,360,17,19.56326,K96D 031955Z AUTO 36017KT 9SM CLR 24/15 A3002 RMK AO2,2024-08-03T19:55:00Z,24,15,9,30.02
K8V7,37.4547,-102.619,VRB,4,4.60312,K8V7 031955Z AUTO VRB04KT 10SM FEW070 32/13 A3018 RMK AO2,2024-08-03T19:55:00Z,32,13,10+,30.18
K8T6,28.3656,-98.1174,VRB,6,6.904679999999999,K8T6 031955Z AUTO VRB06G12KT 10SM FEW055 36/22 A2994 RMK AO2,2024-08-03T19:55:00Z,36,22,10+,29.94
K8B0,44.99,-70.6624,VRB,6,6.904679999999999,K8B0 031955Z AUTO VRB06G12KT 200V270 10SM FEW100 28/21 A2983 RMK AO2,2024-08-03T19:55:00Z,28,21,10+,29.83
K8A3,36.4164,-85.3061,300,7,8.05546,K8A3 031955Z AUTO 30007G13KT 10SM SCT034 SCT043 28/20 A2995 RMK A01,2024-08-03T19:55:00Z,28,20,10+,29.95
K8A0,34.2316,-86.2481,VRB,6,6.904679999999999,K8A0 031955Z AUTO VRB06KT 10SM FEW048 SCT060 BKN070 30/20 A2994 RMK AO2,2024-08-03T19:55:00Z,30,20,10+,29.94
K82V,41.151,-104.129,90,7,8.05546,K82V 031955Z AUTO 09007KT 10SM 33/06 A3024 RMK AO2,2024-08-03T19:55:00Z,33,6,10+,30.24
K82C,43.8385,-90.1345,0,0,0.0,K82C 031955Z AUTO 00000KT 10SM CLR 30/16 A2999 RMK AO2 T02960157,2024-08-03T19:55:00Z,29.6,15.7,10+,29.99
K81R,31.2321,-98.7154,240,3,3.4523399999999995,K81R 031955Z AUTO 24003KT 10SM CLR 35/19 A3001 RMK AO2 T03520191,2024-08-03T19:55:00Z,35.2,19.1,10+,30.01
K7W4,37.9667,-77.7453,210,8,9.20624,K7W4 031955Z AUTO 21008G14KT 170V240 10SM SCT033 32/23 A2984 RMK AO1 T03150229,2024-08-03T19:55:00Z,31.5,22.9,10+,29.84
K7L2,46.219,-100.245,360,16,18.41248,K7L2 031955Z AUTO 36016G22KT 9SM CLR 30/23 A2999 RMK AO2,2024-08-03T19:55:00Z,30,23,9,29.99
K7BM,38.799,-106.219,70,3,3.4523399999999995,K7BM 031955Z AUTO 07003KT 10SM CLR 26/01 A3062 RMK AO2,2024-08-03T19:55:00Z,26,1,10+,30.62
K79S,47.845,-110.636,100,10,11.5078,K79S 031955Z AUTO 10010KT 10SM CLR 36/09 A2996 RMK AO2 T03590090,2024-08-03T19:55:00Z,35.9,9,10+,29.96
K77S,43.9324,-123.006,VRB,4,4.60312,K77S 031955Z AUTO VRB04KT 10SM CLR 24/16 A3002 RMK A01,2024-08-03T19:55:00Z,24,16,10+,30.02
K74V,40.2799,-110.05,VRB,5,5.7539,K74V 031955Z AUTO VRB05KT 6SM HZ CLR 34/02 A3018 RMK AO2,2024-08-03T19:55:00Z,34,2,6,30.18
K6S0,45.8063,-109.974,80,11,12.658579999999999,K6S0 031955Z AUTO 08011KT 10SM CLR 33/07 A3015 RMK A01,2024-08-03T19:55:00Z,33,7,10+,30.15
K6R3,30.358,-95.007,280,3,3.4523399999999995,K6R3 031955Z AUTO 28003KT 10SM BKN044 BKN050 36/25 A2994 RMK AO2 T03550247,2024-08-03T19:55:00Z,35.5,24.7,10+,29.94
K6P9,32.4294,-98.5959,10,5,5.7539,K6P9 031955Z AUTO 01005G08KT 10SM CLR A3002 RMK AO2,2024-08-03T19:55:00Z,,,10+,30.02
K6L4,37.8553,-81.915,VRB,4,4.60312,K6L4 031955Z AUTO VRB04KT 8SM FEW032 SCT120 28/19 A2992 RMK AO2 LTG DSNT S AND W,2024-08-03T19:55:00Z,28,19,8,29.92
K6I2,37.6352,-85.2418,310,7,8.05546,K6I2 031955Z AUTO 31007KT 10SM FEW031 30/22 A2994 RMK AO2,2024-08-03T19:55:00Z,30,22,10+,29.94
K6B9,42.9141,-76.4428,0,0,0.0,K6B9 031955Z AUTO 00000KT 10SM CLR 25/23 A2986 RMK AO2,2024-08-03T19:55:00Z,25,23,10+,29.86
K6B0,43.9888,-73.0952,0,0,0.0,K6B0 031955Z AUTO 00000KT 10SM SCT032 SCT040 SCT060 29/21 A2979 RMK AO2 T02910213 TSNO,2024-08-03T19:55:00Z,29.1,21.3,10+,29.79
K6A2,33.227,-84.275,260,5,5.7539,K6A2 031955Z AUTO 26005KT 10SM CLR 32/20 A2992 RMK AO2 LTG DSNT S,2024-08-03T19:55:00Z,32,20,10+,29.92
K6A1,32.5733,-84.247,20,3,3.4523399999999995,K6A1 031955Z AUTO 02003KT 10SM SCT022 SCT030 SCT037 25/23 A2995 RMK AO2 LTG DSNT ALQDS T02470229,2024-08-03T19:55:00Z,24.7,22.9,10+,29.95
K66R,29.6382,-96.5137,130,3,3.4523399999999995,K66R 031955Z AUTO 13003KT 10SM SCT047 34/24 A2995 RMK AO2 T03400238,2024-08-03T19:55:00Z,34,23.8,10+,29.95
K65S,48.7255,-116.293,0,0,0.0,K65S 031955Z AUTO 00000KT 10SM CLR 26/13 A3000 RMK AO2,2024-08-03T19:55:00Z,26,13,10+,30.00
K63S,48.544,-117.884,210,3,3.4523399999999995,K63S 031955Z AUTO 21003KT 10SM CLR 28/12 A2995 RMK A01,2024-08-03T19:55:00Z,28,12,10+,29.95
K60R,30.368,-96.113,350,4,4.60312,K60R 031955Z AUTO 35004KT 10SM FEW300 34/27 A2991 RMK AO2 SLP047 T03440270 $,2024-08-03T19:55:00Z,34.4,27,10+,29.91
K5T9,28.8568,-100.516,170,8,9.20624,K5T9 031955Z AUTO 17008KT 150V210 6SM HZ SCT080 38/19 A2993 RMK A01,2024-08-03T19:55:00Z,38,19,6,29.93
K5SM,39.426,-107.38,0,0,0.0,K5SM 031955Z AUTO 00000KT 10SM SCT090 20/01 A3074 RMK AO2,2024-08-03T19:55:00Z,20,1,10+,30.74
K5R8,30.4368,-93.4696,0,0,0.0,K5R8 031955Z AUTO 00000KT 10SM BKN049 35/24 A2991 RMK AO2 T03500235,2024-08-03T19:55:00Z,35,23.5,10+,29.91
K5H4,47.7906,-99.9346,30,17,19.56326,K5H4 031955Z AUTO 03017KT 9SM CLR 26/16 A3006 RMK AO2,2024-08-03T19:55:00Z,26,16,9,30.06
K5C1,29.7267,-98.6964,150,5,5.7539,K5C1 031955Z AUTO 15005KT 10SM CLR 34/19 A3001 RMK AO1,2024-08-03T19:55:00Z,34,19,10+,30.01
K57C,42.7971,-88.3655,90,6,6.904679999999999,K57C 031955Z AUTO 09006KT 10SM SCT075 29/21 A2996 RMK AO2 T02920205,2024-08-03T19:55:00Z,29.2,20.5,10+,29.96
K54J,30.7312,-86.1542,180,4,4.60312,K54J 031955Z AUTO 18004KT 10SM CLR 33/22 A2991 RMK AO2 LTG DSNT NW T03270224,2024-08-03T19:55:00Z,32.7,22.4,10+,29.91
K54A,26.8601,-82.2468,80,8,9.20624,K54A 031955Z AUTO 08008G15KT 3/4SM -RA BR BKN003 BKN032 OVC049 25/25 A2987 RMK AO2 LTG DSNT ALQDS P0022,2024-08-03T19:55:00Z,25,25,0.75,29.87
K4V1,37.6941,-104.788,70,7,8.05546,K4V1 031955Z AUTO 07007G20KT 10SM CLR 33/07 A3029 RMK AO2,2024-08-03T19:55:00Z,33,7,10+,30.29
K4V0,40.0956,-108.762,40,4,4.60312,K4V0 031955Z AUTO 04004KT 10SM CLR 36/04 A3018 RMK AO2 T03610044,2024-08-03T19:55:00Z,36.1,4.4,10+,30.18
K4S2,45.6746,-121.535,300,7,8.05546,K4S2 031955Z AUTO 30007KT 10SM CLR 30/12 A2996 RMK AO2,2024-08-03T19:55:00Z,30,12,10+,29.96
K4S1,42.4161,-124.426,,,,K4S1 031955Z AUTO 4SM BR BKN014 15/13 A3004 RMK AO2,2024-08-03T19:55:00Z,15,13,4,30.04
K4R5,46.7887,-90.7559,30,3,3.4523399999999995,K4R5 031955Z AUTO 03003KT 10SM -RA SCT080 BKN100 OVC120 23/18 A2999 RMK AO2 T02270176,2024-08-03T19:55:00Z,22.7,17.6,10+,29.99
K4O4,33.9133,-94.8546,VRB,4,4.60312,K4O4 031955Z AUTO VRB04KT 10SM CLR 34/21 A2997 RMK AO2,2024-08-03T19:55:00Z,34,21,10+,29.97
K4MR,34.29,-103.791,150,8,9.20624,K4MR 031955Z AUTO 15008KT 10SM CLR 32/17 A3016 RMK AO2 SLP118 T03160167 $,2024-08-03T19:55:00Z,31.6,16.7,10+,30.16
K4M9,36.404,-90.647,300,4,4.60312,K4M9 031955Z AUTO 30004KT 10SM CLR 33/26 A2998 RMK A01,2024-08-03T19:55:00Z,33,26,10+,29.98
K4I3,40.3268,-82.5201,280,5,5.7539,K4I3 031955Z AUTO 28005KT 10SM CLR 21/21 A2992 RMK AO2,2024-08-03T19:55:00Z,21,21,10+,29.92
K4F2,32.18,-94.2976,360,6,6.904679999999999,K4F2 031955Z AUTO 36006KT 10SM CLR 34/21 A2992 RMK AO2 T03450213,2024-08-03T19:55:00Z,34.5,21.3,10+,29.92
K4BM,39.05,-105.514,50,5,5.7539,K4BM 031955Z AUTO 05005KT 10SM SCT075 22/M01 A3079 RMK AO2,2024-08-03T19:55:00Z,22,-1,10+,30.79
K4B8,41.69,-72.865,210,6,6.904679999999999,K4B8 031955Z AUTO 21006KT 10SM SCT050 32/22 A2978 RMK AO2 T03200219,2024-08-03T19:55:00Z,32,21.9,10+,29.78
K4A9,34.4759,-85.717,300,6,6.904679999999999,K4A9 031955Z AUTO 30006KT 10SM SCT080 29/20 A2993 RMK AO2 T02920197,2024-08-03T19:55:00Z,29.2,19.7,10+,29.93
K4A6,34.688,-86.006,260,5,5.7539,K4A6 031955Z AUTO 26005KT 10SM CLR 31/21 A2993 RMK AO2,2024-08-03T19:55:00Z,31,21,10+,29.93
K49A,34.6301,-84.5271,VRB,6,6.904679999999999,K49A 031955Z AUTO VRB06G12KT 10SM FEW035 29/22 A2996 RMK AO2,2024-08-03T19:55:00Z,29,22,10+,29.96
K48I,38.684,-80.649,120,3,3.4523399999999995,K48I 031955Z AUTO 12003KT 10SM SCT013 SCT027 BKN095 24/22 A2991 RMK AO2,2024-08-03T19:55:00Z,24,22,10+,29.91
K48A,32.3993,-83.2785,200,7,8.05546,K48A 031955Z AUTO 20007KT 10SM SCT030 SCT055 SCT100 32/25 A2990 RMK AO2 LTG DSNT SW T03240249,2024-08-03T19:55:00Z,32.4,24.9,10+,29.90
K46U,43.181,-111.037,0,0,0.0,K46U 031955Z AUTO 00000KT 6SM HZ CLR 32/11 A3021 RMK A01,2024-08-03T19:55:00Z,32,11,6,30.21
K46D,47.4509,-99.1479,30,15,17.261699999999998,K46D 031955Z AUTO 03015G21KT 10SM FEW011 27/19 A3000 RMK A01,2024-08-03T19:55:00Z,27,19,10+,30.00
K42J,29.844,-82.05,0,0,0.0,K42J 031955Z AUTO 00000KT 10SM CLR 28/25 A2997 RMK A01 P0002,2024-08-03T19:55:00Z,28,25,10+,29.97
K42A,36.0713,-91.8287,VRB,3,3.4523399999999995,K42A 031955Z AUTO VRB03KT 10SM FEW045 SCT055 31/22 A3001 RMK AO2,2024-08-03T19:55:00Z,31,22,10+,30.01
K40U,40.986,-109.678,70,9,10.357019999999999,K40U 031955Z AUTO 07009KT 10SM CLR 35/M01 A3024 RMK AO2 T03501012,2024-08-03T19:55:00Z,35,-1.2,10+,30.24
K3W7,47.9219,-119.077,340,5,5.7539,K3W7 031955Z AUTO 34005KT 10SM CLR 32/14 A2991 RMK AO2,2024-08-03T19:55:00Z,32,14,10+,29.91
K3T5,29.9064,-96.9478,0,0,0.0,K3T5 031955Z AUTO 00000KT 10SM FEW380 35/24 A2993 RMK AO2 T03470240 $,2024-08-03T19:55:00Z,34.7,24,10+,29.93
K3S8,42.51,-123.388,0,0,0.0,K3S8 031955Z AUTO 00000KT 10SM CLR 30/16 A3001 RMK AO2,2024-08-03T19:55:00Z,30,16,10+,30.01
K3R7,30.2426,-92.6759,10,4,4.60312,K3R7 031955Z AUTO 01004KT 10SM SCT045 35/23 A2991 RMK AO2 LTG DSNT SE T03510234,2024-08-03T19:55:00Z,35.1,23.4,10+,29.91
K3N8,47.26,-95.928,290,9,10.357019999999999,K3N8 031955Z AUTO 29009KT 10SM OVC040 28/21 A2989 RMK AO2 LTG DSNT N AND NE T02780210,2024-08-03T19:55:00Z,27.8,21,10+,29.89
K3LF,39.1605,-89.6742,300,4,4.60312,K3LF 031955Z AUTO 30004KT 10SM SCT040 30/19 A3000 RMK AO2 T03000193,2024-08-03T19:55:00Z,30,19.3,10+,30.00
K3L4,29.8,-92.804,360,8,9.20624,K3L4 031955Z AUTO 36008KT 10SM CLR 35/26 A2990 RMK A01,2024-08-03T19:55:00Z,35,26,10+,29.90
K3K7,38.4566,-101.353,140,17,19.56326,K3K7 031955Z AUTO 14017G22KT 10SM CLR 32/16 A3014 RMK AO2,2024-08-03T19:55:00Z,32,16,10+,30.14
K3K3,37.9988,-101.75,120,7,8.05546,K3K3 031955Z AUTO 12007KT 100V160 10SM 37/15 A3012 RMK AO2,2024-08-03T19:55:00Z,37,15,10+,30.12
K3F3,32.0718,-93.7641,50,8,9.20624,K3F3 031955Z AUTO 05008KT CLR 34/22 A2996 RMK AO2 LTG DSNT SE T03440219 PWINO,2024-08-03T19:55:00Z,34.4,21.9,,29.96
K3D2,45.1348,-87.1881,0,0,0.0,K3D2 031955Z AUTO 00000KT 10SM CLR 28/13 A2997 RMK AO2 T02810130,2024-08-03T19:55:00Z,28.1,13,10+,29.97
K36K,37.9707,-101.255,120,16,18.41248,K36K 031955Z AUTO 12016KT 10SM CLR 33/19 A3016 RMK AO2,2024-08-03T19:55:00Z,33,19,10+,30.16
K35A,34.6849,-81.6421,200,5,5.7539,K35A 031955Z AUTO 20005KT 10SM BKN023 BKN055 BKN085 25/23 A2996 RMK A02 LTG DSNT N THRU SE P0008 T02520231,2024-08-03T19:55:00Z,25.2,23.1,10+,29.96
K33N,39.218,-75.597,230,12,13.809359999999998,K33N 031955Z AUTO 23012G18KT 10SM FEW032 SCT038 33/25 A2979 RMK A01,2024-08-03T19:55:00Z,33,25,10+,29.79
K2V5,40.1,-102.241,300,3,3.4523399999999995,K2V5 031955Z AUTO 30003KT 10SM CLR 35/10 A3014 RMK AO2,2024-08-03T19:55:00Z,35,10,10+,30.14
K2R9,28.8267,-97.8676,130,5,5.7539,K2R9 031955Z AUTO 13005KT 10SM SCT050 36/23 A2996 RMK AO2 T03550228,2024-08-03T19:55:00Z,35.5,22.8,10+,29.96
K2R2,39.7511,-86.4732,310,8,9.20624,K2R2 031955Z AUTO 31008KT 10SM FEW040 29/22 A2996 RMK AO2 T02950217 $,2024-08-03T19:55:00Z,29.5,21.7,10+,29.96
K2P2,45.388,-86.924,220,3,3.4523399999999995,K2P2 031955Z AUTO 22003KT 10SM CLR 28/15 A2997 RMK AO2 T02750145,2024-08-03T19:55:00Z,27.5,14.5,10+,29.97
K2M8,35.276,-89.931,VRB,5,5.7539,K2M8 031955Z AUTO VRB05KT 10SM BKN041 OVC050 32/22 A2995 RMK AO2 T03160223 $,2024-08-03T19:55:00Z,31.6,22.3,10+,29.95
K2M2,35.2372,-87.2611,,,,K2M2 031955Z AUTO 9SM FEW048 FEW055 30/20 A2995 RMK A01,2024-08-03T19:55:00Z,30,20,9,29.95
K2J9,30.5987,-84.555,300,8,9.20624,K2J9 031955Z AUTO 30008KT 10SM TS CLR 28/24 A2994 RMK AO2 LTG DSNT W-N,2024-08-03T19:55:00Z,28,24,10+,29.94
K2J5,32.8913,-81.9664,140,9,10.357019999999999,K2J5 031955Z AUTO 14009KT 10SM SCT041 33/24 A2990 RMK AO2 LTG DSNT N AND NW T03330243,2024-08-03T19:55:00Z,33.3,24.3,10+,29.90
K2IS,26.739,-81.0528,180,10,11.5078,K2IS 031955Z AUTO 18010KT 10SM VCTS SCT017 SCT033 BKN055 26/23 A2993 RMK AO2 LTG DSNT S THRU NW T02580232,2024-08-03T19:55:00Z,25.8,23.2,10+,29.93
K2I0,37.3582,-87.3977,350,5,5.7539,K2I0 031955Z AUTO 35005KT 10SM SCT037 SCT043 BKN050 30/20 A2996 RMK AO2 T02970196,2024-08-03T19:55:00Z,29.7,19.6,10+,29.96
K2G9,40.0401,-79.0158,300,10,11.5078,K2G9 031955Z AUTO 30010KT 7SM -RA BKN022 OVC034 21/19 A2994 RMK AO2 P0001,2024-08-03T19:55:00Z,21,19,7,29.94
K2G2,40.359,-80.7,340,7,8.05546,K2G2 031955Z AUTO 34007KT 310V010 10SM SCT037 BKN048 29/19 A2987 RMK A01,2024-08-03T19:55:00Z,29,19,10+,29.87
K2DP,35.672,-75.892,210,14,16.11092,K2DP 031955Z AUTO 21014G23KT 10SM FEW025 SCT032 31/25 A2995 RMK AO2 LTG DSNT W RAE11RAB44E54 TSB02E21 SLP149 P0000 T03140250 $,2024-08-03T19:55:00Z,31.4,25,10+,29.95
K2D5,46.1739,-98.083,330,8,9.20624,K2D5 031955Z AUTO 33008KT 3SM BR CLR 33/33 A2988 RMK AO2,2024-08-03T19:55:00Z,33,33,3,29.88
K28J,29.6602,-81.6918,180,8,9.20624,K28J 031955Z AUTO 18008KT 7SM -RA FEW033 SCT039 SCT044 27/25 A3000 RMK AO2 LTG DSNT E AND SE,2024-08-03T19:55:00Z,27,25,7,30.00
K24J,30.299,-83.0226,130,5,5.7539,K24J 031955Z AUTO 13005KT 10SM CLR 32/24 A2992 RMK A01,2024-08-03T19:55:00Z,32,24,10+,29.92
K22N,40.8116,-75.7647,50,4,4.60312,K22N 031955Z AUTO 05004KT 10SM SCT038 SCT050 BKN070 25/20 A2983 RMK AO2 LTG DSNT W THRU E,2024-08-03T19:55:00Z,25,20,10+,29.83
K21D,45.0002,-92.8549,170,10,11.5078,K21D 031955Z AUTO 17010KT 10SM CLR 27/16 A2999 RMK AO2,2024-08-03T19:55:00Z,27,16,10+,29.99
K20V,40.0563,-106.374,0,0,0.0,K20V 031955Z AUTO 00000KT 10SM CLR 31/00 A3041 RMK AO2,2024-08-03T19:55:00Z,31,0,10+,30.41
K1YT,46.668,-120.457,180,9,10.357019999999999,K1YT 031955Z AUTO 18009KT 10SM SCT150 34/10 A2989 RMK AO2 SLP111 T03370103 $,2024-08-03T19:55:00Z,33.7,10.3,10+,29.89
K1V6,38.4256,-105.105,50,7,8.05546,K1V6 031955Z AUTO 05007KT 031V101 7SM SCT120 36/05 A3023 RMK AO2,2024-08-03T19:55:00Z,36,5,7,30.23
K1U7,42.252,-111.337,0,0,0.0,K1U7 031955Z AUTO 00000KT 10SM CLR 31/06 A3024 RMK A01,2024-08-03T19:55:00Z,31,6,10+,30.24
K1R8,30.8691,-87.8184,310,5,5.7539,K1R8 031955Z AUTO 31005KT 10SM SCT050 SCT065 35/22 A2988 RMK AO2,2024-08-03T19:55:00Z,35,22,10+,29.88
K1R7,31.6057,-90.4072,0,0,0.0,K1R7 031955Z AUTO 00000KT 10SM FEW046 34/23 A2993 RMK A01 TSNO,2024-08-03T19:55:00Z,34,23,10+,29.93
K1P1,43.7771,-71.756,290,7,8.05546,K1P1 031955Z AUTO 29007KT 10SM BKN080 31/20 A2977 RMK AO2 T03100204,2024-08-03T19:55:00Z,31,20.4,10+,29.77
K1OW,40.885,-103.999,90,15,17.261699999999998,K1OW 031955Z AUTO 09015KT 10SM CLR 34/06 A3035 RMK AO2 SLP201 T03430057 PNO $,2024-08-03T19:55:00Z,34.3,5.7,10+,30.35
K1ON,48.82,-101.28,,,,K1ON 031955Z AUTO M M M M M M RMK AO2 SLPNO RVRNO $,2024-08-03T19:55:00Z,,,,
K1OM,47.328,-108.927,130,17,19.56326,K1OM 031955Z AUTO 13017KT 10SM CLR 34/09 A3002 RMK AO2 PK WND 15026/42 SLP112 T03420094 $,2024-08-03T19:55:00Z,34.2,9.4,10+,30.02
K1NW,40.632,-103.836,130,7,8.05546,K1NW 031955Z AUTO 13007KT 10SM CLR 34/08 A3019 RMK AO2 SLP151 T03390078 $,2024-08-03T19:55:00Z,33.9,7.8,10+,30.19
K1NN,48.76,-101.59,60,8,9.20624,K1NN 031955Z AUTO 06008KT 10SM CLR 25/14 M RMK AO2 SLPNO T02500141 $,2024-08-03T19:55:00Z,25,14.1,10+,
K1NM,47.059,-109.031,140,7,8.05546,K1NM 031955Z AUTO 14007G16KT 10SM CLR 35/08 A3002 RMK AO2 SLP124 T03460076 $,2024-08-03T19:55:00Z,34.6,7.6,10+,30.02
K1MN,48.67,-101.88,70,11,12.658579999999999,K1MN 031955Z AUTO 07011KT M M CLR 24/15 A3007 RMK AO2 SLP179 T02430152 RVRNO PWINO TSNO $,2024-08-03T19:55:00Z,24.3,15.2,,30.07
K1MM,47.014,-109.63,190,18,20.714039999999997,K1MM 031955Z AUTO 19018G26KT 10SM CLR 34/07 A3005 RMK AO2 PK WND 19026/44 SLP122 T03440066 $,2024-08-03T19:55:00Z,34.4,6.6,10+,30.05
K1M5,36.5956,-86.478,VRB,6,6.904679999999999,K1M5 031955Z AUTO VRB06G11KT 10SM CLR 30/21 A2994 RMK A01,2024-08-03T19:55:00Z,30,21,10+,29.94
K1LN,48.79,-102.27,70,12,13.809359999999998,K1LN 031955Z AUTO 07012G18KT 10SM CLR 26/14 A3009 RMK AO2 SLP185 T02550137 $,2024-08-03T19:55:00Z,25.5,13.7,10+,30.09
K1LM,46.694,-109.74,180,10,11.5078,K1LM 031955Z AUTO 18010KT 10SM CLR 31/08 A3013 RMK AO2 SLP145 T03080079 $,2024-08-03T19:55:00Z,30.8,7.9,10+,30.13
K1KW,41.137,-103.488,140,5,5.7539,K1KW 031955Z AUTO 14005KT 10SM CLR 34/06 A3018 RMK AO2 SLP152 T03420056 $,2024-08-03T19:55:00Z,34.2,5.6,10+,30.18
K1KN,48.55,-102.12,40,12,13.809359999999998,K1KN 031955Z AUTO 04012KT 10SM CLR 24/15 A3011 RMK AO2 SLP189 T02400147 $,2024-08-03T19:55:00Z,24,14.7,10+,30.11
K1KM,46.444,-109.801,130,12,13.809359999999998,K1KM 031955Z AUTO 13012G17KT 10SM CLR 32/08 A3011 RMK AO2 SLP139 T03190082,2024-08-03T19:55:00Z,31.9,8.2,10+,30.11
K1K8,36.543,-95.012,VRB,4,4.60312,K1K8 031955Z AUTO VRB04G10KT 10SM CLR 34/18 A3001 RMK AO2,2024-08-03T19:55:00Z,34,18,10+,30.01
K1JW,40.961,-103.199,120,8,9.20624,K1JW 031955Z AUTO 12008KT 10SM CLR 33/08 A3016 RMK AO2 SLP150 T03300084 $,2024-08-03T19:55:00Z,33,8.4,10+,30.16
K1JN,48.41,-101.89,30,11,12.658579999999999,K1JN 031955Z AUTO 03011G17KT 10SM CLR 24/15 A3009 RMK AO2 SLP183 T02430147 $,2024-08-03T19:55:00Z,24.3,14.7,10+,30.09
K1JM,47.751,-111.547,0,0,0.0,K1JM 031955Z AUTO 00000KT 10SM CLR 34/05 A3000 RMK AO2 SLP113 T03430048,2024-08-03T19:55:00Z,34.3,4.8,10+,30.00
K1IW,41.046,-102.865,160,6,6.904679999999999,K1IW 031955Z AUTO 16006KT 10SM CLR 33/11 A3015 RMK AO2 SLP154 T03330112 $,2024-08-03T19:55:00Z,33.3,11.2,10+,30.15
K1IM,47.312,-111.473,330,4,4.60312,K1IM 031955Z AUTO 33004KT 10SM CLR 37/06 A2995 RMK AO2 SLP095 T03710061,2024-08-03T19:55:00Z,37.1,6.1,10+,29.95
K1HM,47.698,-111.943,210,5,5.7539,K1HM 031955Z AUTO 21005KT 10SM CLR 33/08 A3000 RMK AO2 SLP111 T03290077,2024-08-03T19:55:00Z,32.9,7.7,10+,30.00
K1H2,39.0712,-88.5293,260,5,5.7539,K1H2 031955Z AUTO 26005KT 10SM BKN049 BKN060 32/20 A2998 RMK AO2 T03220202,2024-08-03T19:55:00Z,32.2,20.2,10+,29.98
K1GW,41.208,-103.097,60,4,4.60312,K1GW 031955Z AUTO 06004KT 10SM CLR 35/08 A3016 RMK AO2 SLP151 T03450082 $,2024-08-03T19:55:00Z,34.5,8.2,10+,30.16
K1GN,48.12,-101.96,40,9,10.357019999999999,K1GN 031955Z AUTO 04009KT 10SM CLR 26/16 A3006 RMK AO2 SLP175 T02560159 $,2024-08-03T19:55:00Z,25.6,15.9,10+,30.06
K1GM,47.325,-112.093,180,14,16.11092,K1GM 031955Z AUTO 18014KT 10SM CLR 36/03 A2998 RMK AO2 SLP088 T03600032,2024-08-03T19:55:00Z,36,3.2,10+,29.98
K1FW,41.364,-103.489,110,7,8.05546,K1FW 031955Z AUTO 11007KT 10SM CLR 34/10 A3018 RMK AO2 SLP151 T03350095 $,2024-08-03T19:55:00Z,33.5,9.5,10+,30.18
K1FN,47.9,-101.67,40,11,12.658579999999999,K1FN 031955Z AUTO 04011KT M M CLR M A2997 RMK AO2 SLPNO ALSTG ESTMD RVRNO $,2024-08-03T19:55:00Z,,,,29.97
K1F0,34.1508,-97.1242,10,4,4.60312,K1F0 031955Z AUTO 01004G16KT 10SM CLR 36/13 A2999 RMK AO2 T03570133,2024-08-03T19:55:00Z,35.7,13.3,10+,29.99
K1EW,41.103,-103.983,130,4,4.60312,K1EW 031955Z AUTO 13004KT 10SM CLR 33/07 A3022 RMK AO2 SLP162 T03260074 $,2024-08-03T19:55:00Z,32.6,7.4,10+,30.22
K1EM,47.454,-109.416,180,6,6.904679999999999,K1EM 031955Z AUTO 18006KT 10SM FEW240 36/08 A3002 RMK AO2 SLP112 T03560084 $,2024-08-03T19:55:00Z,35.6,8.4,10+,30.02
K1DW,41.361,-103.794,160,3,3.4523399999999995,K1DW 031955Z AUTO 16003KT 10SM CLR 33/07 A3025 RMK AO2 SLP176 T03330073 $,2024-08-03T19:55:00Z,33.3,7.3,10+,30.25
K1DM,47.376,-109.814,160,16,18.41248,K1DM 031955Z AUTO 16016KT 10SM CLR 35/07 A3001 RMK AO2 PK WND 16026/1855 SLP112 T03540066 $,2024-08-03T19:55:00Z,35.4,6.6,10+,30.01
K1D8,44.86,-98.529,230,12,13.809359999999998,K1D8 031955Z AUTO 23012KT 10SM CLR 36/22 A2988 RMK AO2,2024-08-03T19:55:00Z,36,22,10+,29.88
K1D1,45.231,-96.566,190,7,8.05546,K1D1 031955Z AUTO 19007G14KT 10SM CLR 33/23 A2988 RMK AO2,2024-08-03T19:55:00Z,33,23,10+,29.88
K1CW,41.581,-103.573,120,3,3.4523399999999995,K1CW 031955Z AUTO 12003KT 10SM CLR 36/07 A3017 RMK AO2 SLP148 T03580069 $,2024-08-03T19:55:00Z,35.8,6.9,10+,30.17
K1BM,47.285,-110.359,0,0,0.0,K1BM 031955Z AUTO 00000KT 10SM CLR 36/05 A3003 RMK AO2 SLP103 T03580051,2024-08-03T19:55:00Z,35.8,5.1,10+,30.03
K1B9,42,-71.197,250,8,9.20624,K1B9 031955Z AUTO 25008G18KT 10SM FEW045 SCT055 33/21 A2977 RMK AO2 T03310214 $,2024-08-03T19:55:00Z,33.1,21.4,10+,29.77
K1AW,41.329,-104.265,90,8,9.20624,K1AW 031955Z AUTO 09008KT 10SM CLR 33/03 A3025 RMK AO2 SLP164 T03330031 $,2024-08-03T19:55:00Z,33.3,3.1,10+,30.25
K1AM,47.281,-110.801,0,0,0.0,K1AM 031955Z AUTO 00000KT 10SM CLR 35/05 A3001 RMK AO2 SLP098 T03500054,2024-08-03T19:55:00Z,35,5.4,10+,30.01
K1A9,32.4374,-86.5098,0,0,0.0,K1A9 031955Z AUTO 00000KT 10SM SCT055 SCT090 33/20 A2989 RMK AO2 T03260202,2024-08-03T19:55:00Z,32.6,20.2,10+,29.89
K1A6,36.6087,-83.7369,0,0,0.0,K1A6 031955Z AUTO 00000KT 10SM SCT050 SCT055 BKN120 23/22 A2995 RMK AO2 LTG DSNT NE P0006 T02320216,2024-08-03T19:55:00Z,23.2,21.6,10+,29.95
K19S,37.496,-100.834,110,16,18.41248,K19S 031955Z AUTO 11016G21KT 7SM SCT060 27/18 A3017 RMK AO2 T02730182,2024-08-03T19:55:00Z,27.3,18.2,7,30.17
K18H,26.1283,-92.0333,30,8,9.20624,K18H 031955Z AUTO 03008G13KT 10SM CLR 32/25 A2992 RMK A01,2024-08-03T19:55:00Z,32,25,10+,29.92
K18A,34.3418,-83.1316,280,5,5.7539,K18A 031955Z AUTO 28005KT 10SM SCT045 32/22 A2991 RMK AO2 T03170215,2024-08-03T19:55:00Z,31.7,21.5,10+,29.91
K17J,31.0038,-84.8794,200,6,6.904679999999999,K17J 031955Z AUTO 20006KT 7SM VCTS SCT043 SCT060 SCT120 33/22 A2991 RMK AO2 LTG DSNT N SE AND NW,2024-08-03T19:55:00Z,33,22,7,29.91
K15M,34.7745,-88.1676,0,0,0.0,K15M 031955Z AUTO 00000KT 5SM HZ FEW044 31/21 A2995 RMK AO2 T03070212 $,2024-08-03T19:55:00Z,30.7,21.2,5,29.95
K13K,37.8519,-96.2929,340,4,4.60312,K13K 031955Z AUTO 34004KT 10SM CLR 32/16 A3007 RMK AO2 T03220163,2024-08-03T19:55:00Z,32.2,16.3,10+,30.07
K11R,30.2232,-96.3734,90,3,3.4523399999999995,K11R 031955Z AUTO 09003KT 10SM CLR 35/24 A2995 RMK AO2 T03510240,2024-08-03T19:55:00Z,35.1,24,10+,29.95
K10U,41.953,-116.182,0,0,0.0,K10U 031955Z AUTO 00000G12KT 10SM CLR 32/03 A3017 RMK AO2,2024-08-03T19:55:00Z,32,3,10+,30.17
K10G,40.5357,-81.9531,0,0,0.0,K10G 031955Z AUTO 00000KT 10SM SCT023 SCT028 SCT120 23/21 A2992 RMK AO2,2024-08-03T19:55:00Z,23,21,10+,29.92
K0VG,36.6576,-83.2147,190,5,5.7539,K0VG 031955Z AUTO 19005KT 10SM CLR 23/21 A2996 RMK AO2,2024-08-03T19:55:00Z,23,21,10+,29.96
K0V4,37.1399,-79.0171,180,6,6.904679999999999,K0V4 031955Z AUTO 18006G16KT 10SM BKN034 BKN041 BKN049 30/23 A2984 RMK AO1,2024-08-03T19:55:00Z,30,23,10+,29.84
K0S9,48.0554,-122.812,220,7,8.05546,K0S9 031955Z AUTO 22007KT 10SM CLR 21/15 A3004 RMK AO2,2024-08-03T19:55:00Z,21,15,10+,30.04
K0R4,31.5637,-91.5098,50,7,8.05546,K0R4 031955Z AUTO 05007KT 10SM SCT048 35/24 A2993 RMK AO2 T03520241,2024-08-03T19:55:00Z,35.2,24.1,10+,29.93
K0E0,34.9837,-105.996,170,3,3.4523399999999995,K0E0 031955Z AUTO 17003KT 10SM CLR 32/08 A3033 RMK AO2 T03210082,2024-08-03T19:55:00Z,32.1,8.2,10+,30.33
K0D8,44.989,-99.954,270,4,4.60312,K0D8 031955Z AUTO 27004KT 5SM HZ CLR 36/19 A2994 RMK A01,2024-08-03T19:55:00Z,36,19,5,29.94
K0CO,39.794,-105.764,140,12,13.809359999999998,K0CO 031955Z AUTO 14012G21KT 101V171 SCT080 15/M01 A3087 RMK AO2 PWINO,2024-08-03T19:55:00Z,15,-1,,30.87
K0A9,36.3711,-82.1768,270,9,10.357019999999999,K0A9 031955Z AUTO 27009G14KT 240V300 10SM CLR 27/19 A2993 RMK AO2,2024-08-03T19:55:00Z,27,19,10+,29.93
K0A0,32.99,-106.967,190,10,11.5078,K0A0 031955Z AUTO 19010G16KT 160V230 10SM CLR 35/06 A3020 RMK AO2,2024-08-03T19:55:00Z,35,6,10+,30.20
K06D,48.8821,-99.6217,50,15,17.261699999999998,K06D 031955Z AUTO 05015G22KT 10SM FEW041 23/13 A3008 RMK AO2,2024-08-03T19:55:00Z,23,13,10+,30.08
K06C,41.9924,-88.1091,210,4,4.60312,K06C 031955Z AUTO 21004KT 10SM BKN065 OVC080 33/18 A2994 RMK AO2 T03260175,2024-08-03T19:55:00Z,32.6,17.5,10+,29.94
K05U,39.6015,-116.006,210,13,14.960139999999999,K05U 031955Z AUTO 21013KT 10SM FEW110 32/06 A3023 RMK A01,2024-08-03T19:55:00Z,32,6,10+,30.23
K04W,46.0244,-92.8991,130,4,4.60312,K04W 031955Z AUTO 13004KT 10SM CLR 28/17 A2998 RMK AO2 LTG DSNT NE AND NW,2024-08-03T19:55:00Z,28,17,10+,29.98
K04V,38.099,-106.17,190,8,9.20624,K04V 031955Z AUTO 19008G14KT 10SM SCT095 30/05 A3045 RMK AO2 PWINO,2024-08-03T19:55:00Z,30,5,10+,30.45
K00U,45.7453,-107.661,120,6,6.904679999999999,K00U 031955Z AUTO 12006KT 10SM CLR 35/07 A3005 RMK A01,2024-08-03T19:55:00Z,35,7,10+,30.05
FJDG,-7.313,72.411,160,4,4.60312,FJDG 031955Z 16004KT 9999 FEW022 SCT100 SCT230 26/25 A2991 RMK SLP125 T02620250,2024-08-03T19:55:00Z,26.2,25,6+,29.91
ETOU,50.048,8.329,340,4,4.60312,ETOU 031955Z AUTO 34004KT 9999 BKN034 OVC110 21/17 A2992 RMK AO2 SLP133 T02130171,2024-08-03T19:55:00Z,21.3,17.1,6+,29.92
ETIK,49.472,10.39,240,3,3.4523399999999995,ETIK 031955Z AUTO 24003KT 9999 CLR 21/18 A2992 RMK AO2 LTG DSNT NW SLP129 T02080178,2024-08-03T19:55:00Z,20.8,17.8,6+,29.92
ETIC,49.696,11.941,0,0,0.0,ETIC 031955Z AUTO 00000KT 9999 FEW120 18/17 A2990 RMK AO2 SLP125 T01780165 $,2024-08-03T19:55:00Z,17.8,16.5,6+,29.90
ETEB,49.308,10.639,270,5,5.7539,ETEB 031955Z AUTO 27005KT 9999 CLR 21/16 A2993 RMK AO2 SLP141 T02100155 $,2024-08-03T19:55:00Z,21,15.5,6+,29.93
ETAR,49.437,7.6,230,4,4.60312,ETAR 031955Z AUTO 23004KT 9999 SCT130 20/14 A2994 RMK AO2 SLP140 T01980139,2024-08-03T19:55:00Z,19.8,13.9,6+,29.94
EHVK,51.658,5.707,230,4,4.60312,EHVK 031955Z AUTO 23004KT 9999 FEW029 OVC170 18/16 Q1012 BLU,2024-08-03T19:55:00Z,18,16,6+,29.88
EHSC,51.926,3.67,230,21,24.166379999999997,EHSC 031955Z AUTO 23021KT 9999 ///////// 20/18 Q1012 W20/H13,2024-08-03T19:55:00Z,20,18,6+,29.88
EHSA,51.998,3.275,300,15,17.261699999999998,EHSA 031955Z AUTO 30015KT 9999 ///////// 18/17 Q1011 W19/H16,2024-08-03T19:55:00Z,18,17,6+,29.85
EHRD,51.954,4.444,240,13,14.960139999999999,EHRD 031955Z AUTO 24013KT 200V270 9999 FEW022 BKN025 20/17 Q1011 NOSIG,2024-08-03T19:55:00Z,20,17,6+,29.85
EHPG,52.36,3.342,320,12,13.809359999999998,EHPG 031955Z AUTO 32012KT 270V020 9999 BKN003 OVC005 17/16 Q1012,2024-08-03T19:55:00Z,17,16,6+,29.88
EHMG,53.614,4.96,250,8,9.20624,EHMG 031955Z AUTO 25008KT 9999 FEW002 SCT004 BKN008 19/18 Q1011,2024-08-03T19:55:00Z,19,18,6+,29.85
EHMA,53.492,5.942,240,8,9.20624,EHMA 031955Z AUTO 24008KT //// // FEW018 SCT021 BKN028 19/17 Q1010 RE//,2024-08-03T19:55:00Z,19,17,,29.82
EHLE,52.456,5.522,250,6,6.904679999999999,EHLE 031955Z AUTO 25006KT 9999 SCT020/// BKN023/// 18/16 Q1011 NOSIG,2024-08-03T19:55:00Z,18,16,6+,29.85
EHKV,53.269,3.628,330,21,24.166379999999997,EHKV 031955Z AUTO 33021KT 9999 FEW004 BKN006 BKN007 16/14 Q1010,2024-08-03T19:55:00Z,16,14,6+,29.82
EHKD,52.927,4.781,230,11,12.658579999999999,EHKD 031955Z AUTO 23011KT 200V260 9999 FEW009 SCT036 BKN043 19/17 Q1010 BLU,2024-08-03T19:55:00Z,19,17,6+,29.82
EHJR,53.218,3.22,350,19,21.864819999999998,EHJR 031955Z AUTO 35019KT //// // ///////// 15/14 Q1011 RE// W18/H10,2024-08-03T19:55:00Z,15,14,,29.85
EHJA,53.824,2.945,10,8,9.20624,EHJA 031955Z AUTO 01008KT 9999 SCT024/// SCT028/// BKN032/// 15/12 Q1011,2024-08-03T19:55:00Z,15,12,6+,29.85
EHHW,54.037,6.042,220,8,9.20624,EHHW 031955Z AUTO 22008KT 190V250 9999 -RA FEW007/// SCT009/// BKN033/// 19/17 Q1010 RERA REDZ,2024-08-03T19:55:00Z,19,17,6+,29.82
EHGR,51.565,4.935,250,5,5.7539,EHGR 031955Z AUTO 25005KT 220V290 9999 -RA FEW026 SCT037 BKN044 20/17 Q1012 BLU,2024-08-03T19:55:00Z,20,17,6+,29.88
EHGG,53.12,6.579,250,3,3.4523399999999995,EHGG 031955Z AUTO 25003KT 9999 SCT014 OVC040 19/17 Q1010 TEMPO 6000 SHRA FEW020CB,2024-08-03T19:55:00Z,19,17,6+,29.82
EHFS,51.441,3.596,210,15,17.261699999999998,EHFS 031955Z AUTO 21015KT 3800 SHRA FEW004/// SCT008/// BKN010/// 19/18 Q1012 REDZ,2024-08-03T19:55:00Z,19,18,2.36,29.88
EHFD,54.854,4.696,310,15,17.261699999999998,EHFD 031955Z AUTO 31015KT 9999 FEW008/// SCT009/// BKN014/// 17/14 Q1009,2024-08-03T19:55:00Z,17,14,6+,29.79
EHDV,54.326,2.936,320,13,14.960139999999999,EHDV 031955Z AUTO 32013KT 9999 FEW034/// BKN040/// BKN046/// 16/11 Q1010,2024-08-03T19:55:00Z,16,11,6+,29.82
EHDL,52.061,5.887,190,3,3.4523399999999995,EHDL 031955Z AUTO 19003KT 9999 FEW021 SCT071 OVC160 18/18 Q1012 BLACKBLU,2024-08-03T19:55:00Z,18,18,6+,29.88
EHBK,50.905,5.762,210,8,9.20624,EHBK 031955Z AUTO 21008KT 9999 NSC 18/17 Q1013 TEMPO 6000 RA SHRA BKN030 FEW030CB,2024-08-03T19:55:00Z,18,17,6+,29.91
EHAM,52.315,4.79,240,13,14.960139999999999,EHAM 031955Z 24013KT 210V270 9999 FEW012 BKN016 20/17 Q1011 NOSIG,2024-08-03T19:55:00Z,20,17,6+,29.85
EHAK,55.399,3.81,320,16,18.41248,EHAK 031955Z AUTO 32016KT //// // NSC 16/11 Q1010 RE//,2024-08-03T19:55:00Z,16,11,,29.82
EGVA,51.682,-1.79,320,5,5.7539,EGVA 031955Z AUTO 32005KT 9999 BKN050 18/09 A2990 RMK AO2 SLP128 T01820087 $,2024-08-03T19:55:00Z,18.2,8.7,6+,29.90
EGUN,52.362,0.486,320,4,4.60312,EGUN 031955Z 32004KT 9999 SCT055 BKN200 19/10 A2987 RMK AO2A SLP118 T01850098 $,2024-08-03T19:55:00Z,18.5,9.8,6+,29.87
EGUL,52.409,0.561,300,3,3.4523399999999995,EGUL 031955Z AUTO 30003KT 9999 CLR 18/10 A2987 RMK AO2 SLP118 T01780097 FZRANO $,2024-08-03T19:55:00Z,17.8,9.7,6+,29.87
EBLB,50.482,6.181,250,3,3.4523399999999995,EBLB 031955Z AUTO 25003KT 9999 FEW008/// OVC027/// 15/15 Q1015 BLU,2024-08-03T19:55:00Z,15,15,6+,29.97
EBFS,50.243,4.646,240,5,5.7539,EBFS 031955Z AUTO 24005KT 9999 SCT043/// BKN100/// BKN170/// 18/15 Q1014 BLU,2024-08-03T19:55:00Z,18,15,6+,29.94
EBDT,51.005,5.067,220,5,5.7539,EBDT 031955Z AUTO 22005KT 9999 OVC056/// 20/16 Q1013 BLU,2024-08-03T19:55:00Z,20,16,6+,29.91
EBCV,50.576,3.831,220,4,4.60312,EBCV 031955Z AUTO 22004KT 9999 SCT037/// OVC042/// 19/17 Q1013 BLU,2024-08-03T19:55:00Z,19,17,6+,29.91
EBBL,51.168,5.47,210,5,5.7539,EBBL 031955Z AUTO 21005KT 9999 FEW034/// SCT057/// BKN190/// 19/17 Q1013 BLU,2024-08-03T19:55:00Z,19,17,6+,29.91
EBBE,50.759,4.768,220,6,6.904679999999999,EBBE 031955Z AUTO 22006KT 9999 SCT049/// BKN150/// 19/16 Q1013 BLU,2024-08-03T19:55:00Z,19,16,6+,29.91
BGTL,76.527,-68.758,130,4,4.60312,BGTL 031955Z AUTO 13004KT 9999 FEW005 SCT025 SCT036 OVC049 06/04 A2990 RMK AO2 SLP107 T00630041 TSNO $,2024-08-03T19:55:00Z,6.3,4.1,6+,29.90
PTTP,6.96,158.21,150,4,4.60312,PTTP 031954Z 15004KT 15SM FEW018 SCT300 25/24 A2989 RMK SLP122 T02500235,2024-08-03T19:54:00Z,25,23.5,15,29.89
PHOG,20.8887,-156.435,30,14,16.11092,PHOG 031954Z 03014KT 7SM -RA FEW015 BKN034 24/23 A3009 RMK AO2 SLP195 P0000 T02440233,2024-08-03T19:54:00Z,24.4,23.3,7,30.09
PHMK,21.1545,-157.096,50,9,10.357019999999999,PHMK 031954Z COR 05009G18KT 020V090 10SM FEW018 SCT033 BKN039 27/21 A3012 RMK AO2 SLP200 T02670211,2024-08-03T19:54:00Z,26.7,21.1,10+,30.12
PAKN,58.683,-156.656,0,0,0.0,PAKN 031954Z 00000KT 10SM CLR 14/11 A3021 RMK AO2 SLP230 T01440106 $,2024-08-03T19:54:00Z,14.4,10.6,10+,30.21
PAHN,59.243,-135.511,150,5,5.7539,PAHN 031954Z AUTO 15005KT 10SM CLR 18/12 A3025 RMK AO2 SLP245 T01780122,2024-08-03T19:54:00Z,17.8,12.2,10+,30.25
KWLD,37.1649,-97.035,0,0,0.0,KWLD 031954Z AUTO 00000KT 10SM CLR 34/16 A3006 RMK AO2 SLP167 T03390161,2024-08-03T19:54:00Z,33.9,16.1,10+,30.06
KWAL,37.9372,-75.4662,190,17,19.56326,KWAL 031954Z AUTO 19017G26KT 9SM FEW047 31/26 A2985 RMK AO2 PK WND 18029/1928 SLP105 T03060256,2024-08-03T19:54:00Z,30.6,25.6,9,29.85
KVTA,40.0263,-82.4635,290,6,6.904679999999999,KVTA 031954Z AUTO 29006KT 10SM FEW017 SCT035 26/21 A2990 RMK AO2 LTG DSNT SE-W RAE24 SLP118 P0003 T02560206,2024-08-03T19:54:00Z,25.6,20.6,10+,29.90
KVSF,43.3421,-72.5213,0,0,0.0,KVSF 031954Z AUTO 00000KT 10SM CLR 30/20 A2980 RMK AO2 SLP086 T03000200,2024-08-03T19:54:00Z,30,20,10+,29.80
KVAY,39.9408,-74.8407,VRB,5,5.7539,KVAY 031954Z AUTO VRB05KT 10SM BKN044 BKN050 33/23 A2978 RMK AO2 SLP083 T03280228,2024-08-03T19:54:00Z,32.8,22.8,10+,29.78
KUZA,34.9836,-81.0562,240,12,13.809359999999998,KUZA 031954Z AUTO 24012G20KT 10SM -RA SCT060 SCT070 BKN090 26/21 A2993 RMK AO2 LTG DSNT ALQDS RAB54 SLP122 P0000 T02560211,2024-08-03T19:54:00Z,25.6,21.1,10+,29.93
KUIN,39.9371,-91.1966,260,5,5.7539,KUIN 031954Z AUTO 26005KT 10SM FEW060 32/21 A2998 RMK AO2 SLP144 T03220211 $,2024-08-03T19:54:00Z,32.2,21.1,10+,29.98
KTQE,41.763,-96.1797,230,10,11.5078,KTQE 031954Z AUTO 23010KT 10SM CLR 36/18 A3000 RMK AO2 SLP143 T03560178,2024-08-03T19:54:00Z,35.6,17.8,10+,30.00
KTAD,37.2618,-104.332,80,7,8.05546,KTAD 031954Z AUTO 08007KT 10SM CLR 34/09 A3025 RMK AO2 SLP142 T03390089,2024-08-03T19:54:00Z,33.9,8.9,10+,30.25
KSYR,43.1111,-76.1038,320,8,9.20624,KSYR 031954Z 32008KT 10SM SCT033 BKN140 BKN190 28/21 A2983 RMK AO2 SLP095 T02830211 $,2024-08-03T19:54:00Z,28.3,21.1,10+,29.83
KSUS,38.6575,-90.6557,180,3,3.4523399999999995,KSUS 031954Z 18003KT 10SM CLR 32/19 A2997 RMK AO2 SLP140 T03170194,2024-08-03T19:54:00Z,31.7,19.4,10+,29.97
KSLC,40.7707,-111.965,170,11,12.658579999999999,KSLC 031954Z 17011KT 10SM FEW110 BKN140 BKN170 BKN250 34/09 A3009 RMK AO2 SLP123 VIRGA T03440094,2024-08-03T19:54:00Z,34.4,9.4,10+,30.09
KSET,38.9304,-90.4329,260,6,6.904679999999999,KSET 031954Z AUTO 26006KT 10SM CLR 32/21 A2997 RMK AO2 SLP142 T03220206 $,2024-08-03T19:54:00Z,32.2,20.6,10+,29.97
KSBY,38.3409,-75.5132,200,12,13.809359999999998,KSBY 031954Z 20012G21KT 10SM SCT034 32/25 A2983 RMK AO2 SLP103 T03220250,2024-08-03T19:54:00Z,32.2,25,10+,29.83
KSBN,41.7072,-86.3163,310,4,4.60312,KSBN 031954Z 31004KT 10SM FEW050 SCT065 BKN080 32/19 A2994 RMK AO2 SLP132 T03170194,2024-08-03T19:54:00Z,31.7,19.4,10+,29.94
KRST,43.904,-92.4921,VRB,5,5.7539,KRST 031954Z VRB05KT 10SM CLR 27/16 A3002 RMK AO2 SLP160 T02720161,2024-08-03T19:54:00Z,27.2,16.1,10+,30.02
KRSP,39.646,-77.468,220,5,5.7539,KRSP 031954Z AUTO 22005KT 10SM SCT050 SCT075 BKN100 24/22 A2986 RMK AO2 SLP101 T02440222 PWINO $,2024-08-03T19:54:00Z,24.4,22.2,10+,29.86
KROC,43.1172,-77.6754,290,7,8.05546,KROC 031954Z 29007KT 10SM FEW013 SCT028 BKN110 26/22 A2985 RMK AO2 SLP107 T02610217,2024-08-03T19:54:00Z,26.1,21.7,10+,29.85
KROA,37.3172,-79.9737,260,7,8.05546,KROA 031954Z 26007KT 10SM FEW034 SCT049 28/20 A2990 RMK AO2 LTG DSNT NE AND E RAE33 TSE33 SLP110 P0001 T02830200,2024-08-03T19:54:00Z,28.3,20,10+,29.90
KRKS,41.5947,-109.053,190,13,14.960139999999999,KRKS 031954Z AUTO 19013G18KT 10SM CLR 34/M04 A3030 RMK AO2 SLP146 T03391039,2024-08-03T19:54:00Z,33.9,-3.9,10+,30.30
KRFD,42.1915,-89.0876,320,5,5.7539,KRFD 031954Z 32005KT 10SM FEW050 FEW070 SCT250 33/18 A2996 RMK AO2 SLP139 T03330183 $,2024-08-03T19:54:00Z,33.3,18.3,10+,29.96
KRDG,40.3734,-75.9593,210,7,8.05546,KRDG 031954Z 21007KT 10SM VCTS SCT040 BKN050 32/23 A2978 RMK AO2 LTG DSNT SW-NW SLP084 T03170228,2024-08-03T19:54:00Z,31.7,22.8,10+,29.78
KRBL,40.1519,-122.255,350,8,9.20624,KRBL 031954Z AUTO 35008KT 4SM HZ CLR 32/12 A2993 RMK AO2 SLP131 T03220117,2024-08-03T19:54:00Z,32.2,11.7,4,29.93
KPTW,40.238,-75.5549,180,9,10.357019999999999,KPTW 031954Z AUTO 18009G16KT 10SM FEW040 32/22 A2981 RMK AO2 LTG DSNT W AND NW SLP088 T03220222,2024-08-03T19:54:00Z,32.2,22.2,10+,29.81
KPSF,42.4268,-73.2891,VRB,3,3.4523399999999995,KPSF 031954Z AUTO VRB03KT 10SM FEW050 27/21 A2985 RMK AO2 SLP077 T02720211 $,2024-08-03T19:54:00Z,27.2,21.1,10+,29.85
KPNE,40.0789,-75.0133,210,14,16.11092,KPNE 031954Z 21014G20KT 10SM FEW045 33/22 A2979 RMK AO2 SLP086 T03330217,2024-08-03T19:54:00Z,33.3,21.7,10+,29.79
KPLN,45.5644,-84.7929,350,7,8.05546,KPLN 031954Z AUTO 35007KT 10SM CLR 31/14 A2994 RMK AO2 SLP135 T03060139,2024-08-03T19:54:00Z,30.6,13.9,10+,29.94
KPIA,40.6675,-89.6842,290,7,8.05546,KPIA 031954Z 29007KT 10SM CLR 31/21 A2996 RMK AO2 SLP139 T03060206,2024-08-03T19:54:00Z,30.6,20.6,10+,29.96
KPHL,39.8733,-75.2268,220,13,14.960139999999999,KPHL 031954Z 22013G16KT 10SM SCT040 33/23 A2979 RMK AO2 SLP086 T03330228 $,2024-08-03T19:54:00Z,33.3,22.8,10+,29.79
KPHF,37.1322,-76.494,200,15,17.261699999999998,KPHF 031954Z 20015KT 10SM FEW046 FEW055 32/24 A2986 RMK AO2 PK WND 20026/1938 SLP110 T03170239,2024-08-03T19:54:00Z,31.7,23.9,10+,29.86
KORH,42.2706,-71.8731,280,7,8.05546,KORH 031954Z 28007KT 10SM FEW029 BKN049 OVC060 29/22 A2984 RMK AO2 SLP096 T02890217 $,2024-08-03T19:54:00Z,28.9,21.7,10+,29.84
KOLS,31.4208,-110.847,190,7,8.05546,KOLS 031954Z AUTO 19007KT 10SM CLR 37/13 A3011 RMK AO2 LTG DSNT N AND NE SLP113 T03720133,2024-08-03T19:54:00Z,37.2,13.3,10+,30.11
KOLM,46.9737,-122.905,220,4,4.60312,KOLM 031954Z 22004KT 10SM CLR 24/14 A3006 RMK AO2 SLP179 T02390144,2024-08-03T19:54:00Z,23.9,14.4,10+,30.06
KOFP,37.7093,-77.4349,220,9,10.357019999999999,KOFP 031954Z AUTO 22009G18KT 8SM SCT040 32/23 A2985 RMK AO2 LTG DSNT S SLP104 T03170228,2024-08-03T19:54:00Z,31.7,22.8,8,29.85
KNFL,39.417,-118.705,0,0,0.0,KNFL 031954Z 00000KT 10SM SCT080 BKN120 BKN250 34/08 A3006 RMK AO2 SLP149 CB DSNT S-SW T03440083,2024-08-03T19:54:00Z,34.4,8.3,10+,30.06
KNAK,38.9913,-76.4891,160,15,17.261699999999998,KNAK 031954Z AUTO 16015G22KT 10SM CLR 32/24 A2979 RMK AO2 SLP089 T03170244 $,2024-08-03T19:54:00Z,31.7,24.4,10+,29.79
KN60,47.654,-101.436,60,8,9.20624,KN60 031954Z AUTO 06008G20KT 27/16 A3006 RMK AO1 SLP170 T02670161,2024-08-03T19:54:00Z,26.7,16.1,,30.06
KMVL,44.5328,-72.6152,0,0,0.0,KMVL 031954Z AUTO 00000KT 10SM BKN047 BKN060 31/19 A2978 RMK AO2 SLP081 T03110194,2024-08-03T19:54:00Z,31.1,19.4,10+,29.78
KMTP,41.073,-71.9235,200,7,8.05546,KMTP 031954Z AUTO 20007KT 180V250 29/24 A2984 RMK AO1 SLP102 T02890239,2024-08-03T19:54:00Z,28.9,23.9,,29.84
KMRY,36.5904,-121.849,320,9,10.357019999999999,KMRY 031954Z 32009KT 10SM FEW004 17/13 A3000 RMK AO2 SLP169 T01720128,2024-08-03T19:54:00Z,17.2,12.8,10+,30.00
KMOT,48.252,-101.269,20,11,12.658579999999999,KMOT 031954Z 02011G22KT 10SM CLR 27/15 A3006 RMK AO2 SLP169 T02670150,2024-08-03T19:54:00Z,26.7,15,10+,30.06
KMKC,39.1279,-94.5892,VRB,3,3.4523399999999995,KMKC 031954Z VRB03KT 10SM CLR 32/19 A3002 RMK AO2 SLP156 T03220189,2024-08-03T19:54:00Z,32.2,18.9,10+,30.02
KMIV,39.3662,-75.0778,VRB,6,6.904679999999999,KMIV 031954Z AUTO VRB06G19KT 10SM BKN033 31/23 A2981 RMK AO2 SLP091 T03110233,2024-08-03T19:54:00Z,31.1,23.3,10+,29.81
KMGJ,41.509,-74.2645,190,4,4.60312,KMGJ 031954Z AUTO 19004KT 10SM VCTS -RA FEW050 FEW070 BKN110 24/23 A2981 RMK AO2 LTG DSNT ALQDS RAB1856 TSB24E39 SLP090 T02440228 PNO $,2024-08-03T19:54:00Z,24.4,22.8,10+,29.81
KMFI,44.6379,-90.1875,0,0,0.0,KMFI 031954Z AUTO 00000KT 10SM CLR 29/17 A3001 RMK AO2 SLP152 T02890167,2024-08-03T19:54:00Z,28.9,16.7,10+,30.01
KMEM,35.0564,-89.9864,10,6,6.904679999999999,KMEM 031954Z 01006KT 10SM SCT050 SCT055 33/21 A2996 RMK AO2 SLP139 T03280206 $,2024-08-03T19:54:00Z,32.8,20.6,10+,29.96
KLYH,37.3213,-79.2065,200,10,11.5078,KLYH 031954Z 20010G19KT 10SM BKN031 BKN041 BKN048 31/23 A2986 RMK AO2 LTG DSNT W-N SLP100 T03060228,2024-08-03T19:54:00Z,30.6,22.8,10+,29.86
KLWT,47.0544,-109.457,80,7,8.05546,KLWT 031954Z AUTO 08007KT 10SM CLR 34/08 A3009 RMK AO2 SLP139 T03390083,2024-08-03T19:54:00Z,33.9,8.3,10+,30.09
KLWM,42.7125,-71.1256,230,8,9.20624,KLWM 031954Z 23008KT 10SM FEW070 SCT080 29/22 A2979 RMK AO2 RAE1856 SLP087 P0000 T02940217 $,2024-08-03T19:54:00Z,29.4,21.7,10+,29.79
KLNK,40.8478,-96.7647,260,7,8.05546,KLNK 031954Z 26007KT 8SM CLR 34/17 A3004 RMK AO2 SLP158 T03440167,2024-08-03T19:54:00Z,34.4,16.7,8,30.04
KLEX,38.0339,-84.6114,310,7,8.05546,KLEX 031954Z 31007KT 10SM SCT035 BKN047 29/21 A2993 RMK AO2 SLP124 T02940211,2024-08-03T19:54:00Z,29.4,21.1,10+,29.93
KLAF,40.4124,-86.9474,340,8,9.20624,KLAF 031954Z AUTO 34008KT 10SM FEW047 31/20 A2994 RMK AO2 SLP133 T03110200,2024-08-03T19:54:00Z,31.1,20,10+,29.94
KJAN,32.3198,-90.0778,30,8,9.20624,KJAN 031954Z 03008KT 360V070 10SM SCT055 35/21 A2992 RMK AO2 SLP127 T03500206,2024-08-03T19:54:00Z,35,20.6,10+,29.92
KIZG,43.9899,-70.9501,VRB,4,4.60312,KIZG 031954Z AUTO VRB04KT 10SM FEW026 29/23 A2977 RMK AO2 SLP077 T02940228,2024-08-03T19:54:00Z,29.4,22.8,10+,29.77
KIWA,33.3008,-111.644,VRB,4,4.60312,KIWA 031954Z VRB04KT 10SM FEW070 41/14 A2991 RMK TCU DSNT NW,2024-08-03T19:54:00Z,41,14,10+,29.91
KISW,44.3591,-89.837,0,0,0.0,KISW 031954Z AUTO 00000KT 10SM CLR 30/13 A3000 RMK AO2 SLP152 T03000133,2024-08-03T19:54:00Z,30,13.3,10+,30.00
KINT,36.1335,-80.2244,210,8,9.20624,KINT 031954Z 21008G18KT 10SM BKN043 BKN080 31/21 A2987 RMK AO2 LTG DSNT E SLP102 T03110206 $,2024-08-03T19:54:00Z,31.1,20.6,10+,29.87
KINL,48.5594,-93.3955,VRB,4,4.60312,KINL 031954Z AUTO VRB04KT 10SM 20/17 A2998 RMK AO2 LTG DSNT SE AND S RAE1858 SLP154 P0000 T02000172 $,2024-08-03T19:54:00Z,20,17.2,10+,29.98
KIND,39.7252,-86.2816,320,8,9.20624,KIND 031954Z 32008KT 10SM SCT050 31/19 A2994 RMK AO2 SLP131 T03110189 $,2024-08-03T19:54:00Z,31.1,18.9,10+,29.94
KIMT,45.8134,-88.1129,VRB,3,3.4523399999999995,KIMT 031954Z AUTO VRB03KT 10SM CLR 29/12 A2998 RMK AO2 SLP146 T02940122,2024-08-03T19:54:00Z,29.4,12.2,10+,29.98
KILN,39.4308,-83.777,30,5,5.7539,KILN 031954Z AUTO 03005KT 10SM FEW026 29/21 A2991 RMK AO2 LTG DSNT NE SLP116 T02890211,2024-08-03T19:54:00Z,28.9,21.1,10+,29.91
KHWD,37.6589,-122.121,270,8,9.20624,KHWD 031954Z 27008KT 10SM CLR 27/14 A2995 RMK AO2 SLP151 T02670144,2024-08-03T19:54:00Z,26.7,14.4,10+,29.95
KGSO,36.0969,-79.9432,200,6,6.904679999999999,KGSO 031954Z 20006KT 10SM BKN036TCU BKN080 28/23 A2987 RMK AO2 RAE22 TSE25 SLP103 TCU NE-E CB DSNT NE-SW P0004 T02830233,2024-08-03T19:54:00Z,28.3,23.3,10+,29.87
KGED,38.6898,-75.3625,230,16,18.41248,KGED 031954Z AUTO 23016G21KT 10SM CLR 33/23 A2982 RMK AO2 SLP098 T03280233,2024-08-03T19:54:00Z,32.8,23.3,10+,29.82
KGCN,35.9458,-112.155,230,7,8.05546,KGCN 031954Z 23007KT 10SM FEW120 29/09 A3035 RMK AO2 LTG DSNT E AND S AND W SLP167 T02890089,2024-08-03T19:54:00Z,28.9,8.9,10+,30.35
KGCK,37.9221,-100.723,140,18,20.714039999999997,KGCK 031954Z 14018G27KT 10SM CLR 28/14 A3013 RMK AO2 PK WND 12029/1920 SLP171 T02830144,2024-08-03T19:54:00Z,28.3,14.4,10+,30.13
KFWA,40.9725,-85.2064,350,5,5.7539,KFWA 031954Z 35005KT 10SM SCT060 30/20 A2994 RMK AO2 SLP132 T03000200,2024-08-03T19:54:00Z,30,20,10+,29.94
KFIG,41.0465,-78.4112,60,3,3.4523399999999995,KFIG 031954Z AUTO 06003KT 10SM -RA FEW041 OVC080 23/21 A2991 RMK AO2 SLP117 P0003 T02280206,2024-08-03T19:54:00Z,22.8,20.6,10+,29.91
KFFZ,33.4659,-111.721,VRB,3,3.4523399999999995,KFFZ 031954Z VRB03KT 10SM CLR 42/15 A2988 RMK AO2 SLP088 T04220150,2024-08-03T19:54:00Z,42.2,15,10+,29.88
KEVV,38.0502,-87.5147,330,6,6.904679999999999,KEVV 031954Z 33006KT 10SM BKN042 32/21 A2995 RMK AO2 SLP136 T03170206 $,2024-08-03T19:54:00Z,31.7,20.6,10+,29.95
KEUG,44.1331,-123.216,350,6,6.904679999999999,KEUG 031954Z 35006KT 10SM FEW100 SCT180 BKN250 27/16 A3003 RMK AO2 SLP167 HZ FEW100 ACC DSNT E T02670156,2024-08-03T19:54:00Z,26.7,15.6,10+,30.03
KEFD,29.606,-95.16,0,0,0.0,KEFD 031954Z 00000KT 9SM SCT055 36/22 A2991,2024-08-03T19:54:00Z,36,22,9,29.91
KECG,36.2571,-76.1716,210,15,17.261699999999998,KECG 031954Z 21015G27KT 10SM CLR 31/23 A2992 RMK AO2 PK WND 20033/1944 SLP131 T03110233,2024-08-03T19:54:00Z,31.1,23.3,10+,29.92
KDYL,40.3302,-75.1228,200,8,9.20624,KDYL 031954Z AUTO 20008G18KT 10SM SCT044 33/22 A2978 RMK AO2 RAB1856E09 SLP078 P0001 T03280222 $,2024-08-03T19:54:00Z,32.8,22.2,10+,29.78
KDSV,42.5699,-77.7142,340,4,4.60312,KDSV 031954Z AUTO 34004KT 10SM BKN085 27/21 A2986 RMK AO2 SLP115 T02670211,2024-08-03T19:54:00Z,26.7,21.1,10+,29.86
KDSM,41.534,-93.6531,290,11,12.658579999999999,KDSM 031954Z 29011KT 10SM FEW090 FEW250 33/19 A3000 RMK AO2 SLP151 T03330194,2024-08-03T19:54:00Z,33.3,19.4,10+,30.00
KDEC,39.8308,-88.8719,350,8,9.20624,KDEC 031954Z 35008KT 10SM SCT048 32/22 A2997 RMK AO2 SLP140 T03170217,2024-08-03T19:54:00Z,31.7,21.7,10+,29.97
KDDH,42.8935,-73.2488,200,5,5.7539,KDDH 031954Z AUTO 20005KT 10SM FEW024 27/22 A2983 RMK AO2 SLP094 T02720217,2024-08-03T19:54:00Z,27.2,21.7,10+,29.83
KCRW,38.3795,-81.5911,VRB,3,3.4523399999999995,KCRW 031954Z VRB03KT 10SM BKN050 32/16 A2987 RMK AO2 SLP105 T03220161,2024-08-03T19:54:00Z,32.2,16.1,10+,29.87
KCOU,38.8171,-92.2148,0,0,0.0,KCOU 031954Z 00000KT 10SM FEW050 32/20 A3002 RMK AO2 SLP157 T03220200 $,2024-08-03T19:54:00Z,32.2,20,10+,30.02
KCOS,38.8095,-104.689,0,0,0.0,KCOS 031954Z 00000KT 10SM SCT100 BKN250 33/03 A3031 RMK AO2 SLP159 T03280028,2024-08-03T19:54:00Z,32.8,2.8,10+,30.31
KCEU,34.6722,-82.8814,220,7,8.05546,KCEU 031954Z AUTO 22007KT 180V260 10SM FEW050 31/21 A2989 RMK AO2 SLP111 T03110211,2024-08-03T19:54:00Z,31.1,21.1,10+,29.89
KCAR,46.8705,-68.0172,210,7,8.05546,KCAR 031954Z AUTO 21007KT 10SM FEW047 31/20 A2967 RMK AO2 LTG DSNT W-N SLP046 T03110200,2024-08-03T19:54:00Z,31.1,20,10+,29.67
KC99,39.869,-105.553,30,5,5.7539,KC99 031954Z AUTO 03005KT 10SM CLR 21/M01 A3075 RMK AO2,2024-08-03T19:54:00Z,21,-1,10+,30.75
KBWI,39.1733,-76.684,220,13,14.960139999999999,KBWI 031954Z 22013G23KT 10SM SCT055TCU SCT090 SCT250 34/22 A2976 RMK AO2 LTG DSNT W AND NW SLP076 CB DSNT NW MOV NE TCU SW AND W-NW T03440217,2024-08-03T19:54:00Z,34.4,21.7,10+,29.76
KBUY,36.0475,-79.4737,90,4,4.60312,KBUY 031954Z AUTO 09004KT 10SM VCTS FEW038 SCT065 28/24 A2986 RMK AO2 LTG DSNT S-NW SLP105 T02780239,2024-08-03T19:54:00Z,27.8,23.9,10+,29.86
KBUF,42.94,-78.7361,170,4,4.60312,KBUF 031954Z 17004KT 10SM -RA FEW020 BKN110 OVC130 23/21 A2986 RMK AO2 SLP107 P0000 T02280206,2024-08-03T19:54:00Z,22.8,20.6,10+,29.86
KBTV,44.4683,-73.1499,200,4,4.60312,KBTV 031954Z 20004KT 10SM FEW050 BKN230 32/21 A2976 RMK AO2 SLP076 T03170206,2024-08-03T19:54:00Z,31.7,20.6,10+,29.76
KBOS,42.3606,-71.0097,30,6,6.904679999999999,KBOS 031954Z 03006G16KT 10SM BKN048 BKN070 32/22 A2977 RMK AO2 SLP081 T03170222,2024-08-03T19:54:00Z,31.7,22.2,10+,29.77
KBFL,35.4342,-119.055,300,6,6.904679999999999,KBFL 031954Z 30006KT 10SM CLR 37/12 A2992 RMK AO2 SLP122 T03670122,2024-08-03T19:54:00Z,36.7,12.2,10+,29.92
KAVP,41.3335,-75.7227,0,0,0.0,KAVP 031954Z 00000KT 10SM FEW038 FEW060 BKN085 23/21 A2986 RMK AO2 LTG DSNT E-S RAE30B38E49 SLP104 P0001 T02280206,2024-08-03T19:54:00Z,22.8,20.6,10+,29.86
KAUW,44.9265,-89.6248,90,4,4.60312,KAUW 031954Z AUTO 09004KT 10SM CLR 28/13 A2998 RMK AO2 SLP150 T02830133,2024-08-03T19:54:00Z,28.3,13.3,10+,29.98
KAPN,45.0716,-83.5645,320,10,11.5078,KAPN 031954Z AUTO 32010G19KT 10SM CLR 30/10 A2991 RMK AO2 SLP126 T03000100 $,2024-08-03T19:54:00Z,30,10,10+,29.91
KAPC,38.2075,-122.28,190,6,6.904679999999999,KAPC 031954Z 19006KT 10SM CLR 25/14 A2994 RMK AO2 SLP132 T02500144,2024-08-03T19:54:00Z,25,14.4,10+,29.94
KALO,42.5544,-92.4013,VRB,3,3.4523399999999995,KALO 031954Z VRB03KT 10SM CLR 31/13 A3000 RMK AO2 SLP151 T03110133,2024-08-03T19:54:00Z,31.1,13.3,10+,30.00
KAKR,41.0373,-81.4634,0,0,0.0,KAKR 031954Z AUTO 00000KT 10SM SCT010 24/21 A2990 RMK AO2 SLP115 T02440211 $,2024-08-03T19:54:00Z,24.4,21.1,10+,29.90
KAKQ,36.9827,-77.0014,210,6,6.904679999999999,KAKQ 031954Z AUTO 21006G14KT 7SM FEW044 33/25 A2985 RMK AO2 LTG DSNT NW SLP107 T03280250 $,2024-08-03T19:54:00Z,32.8,25,7,29.85
KAKH,35.1968,-81.1555,200,7,8.05546,KAKH 031954Z AUTO 20007KT 10SM TS FEW060 24/23 A2990 RMK AO2 LTG DSNT ALQDS RAE32 TSB54 SLP119 P0020 T02440228,2024-08-03T19:54:00Z,24.4,22.8,10+,29.90
KACY,39.452,-74.567,190,11,12.658579999999999,KACY 031954Z 19011G24KT 10SM CLR 31/24 A2981 RMK AO2 SLP095 T03110239 $,2024-08-03T19:54:00Z,31.1,23.9,10+,29.81
KAAO,37.7496,-97.2191,,,,KAAO 031954Z AUTO 10SM CLR 34/16 A3006 RMK AO2 SLP165 T03440156,2024-08-03T19:54:00Z,34.4,15.6,10+,30.06
K1V4,44.42,-72.019,,,,K1V4 031954Z AUTO 30/21 A2976 RMK AO1 SLP063 T03000211,2024-08-03T19:54:00Z,30,21.1,,29.76
K12N,41.0093,-74.7363,,,,K12N 031954Z AUTO A2983 RMK AO1 SLPNO PNO $,2024-08-03T19:54:00Z,,,,29.83
TJNR,18.253,-65.638,50,5,5.7539,TJNR 031953Z AUTO 05005KT 9SM CLR 30/24 A2999 RMK AO2 SLP155 T03000244,2024-08-03T19:53:00Z,30,24.4,9,29.99
TISX,17.6997,-64.8126,100,16,18.41248,TISX 031953Z 10016KT 10SM CLR 32/24 A2997 RMK AO2 SLP146 T03220244 $,2024-08-03T19:53:00Z,32.2,24.4,10+,29.97
PHTO,19.7191,-155.049,VRB,3,3.4523399999999995,PHTO 031953Z VRB03KT 10SM FEW015 SCT020 OVC027 26/23 A3012 RMK AO2 SLP197 T02610233,2024-08-03T19:53:00Z,26.1,23.3,10+,30.12
PHNL,21.3151,-157.924,60,11,12.658579999999999,PHNL 031953Z 06011KT 10SM FEW025 FEW045 29/20 A3010 RMK AO2 SLP191 T02940200 $,2024-08-03T19:53:00Z,29.4,20,10+,30.10
PHLI,21.9805,-159.339,70,11,12.658579999999999,PHLI 031953Z 07011KT 10SM FEW011 FEW032 SCT047 27/22 A3013 RMK AO2 SLP200 T02720222 $,2024-08-03T19:53:00Z,27.2,22.2,10+,30.13
PHKO,19.7378,-156.048,210,10,11.5078,PHKO 031953Z 21010KT 10SM CLR 28/21 A3006 RMK AO2 SLP177 T02830206,2024-08-03T19:53:00Z,28.3,20.6,10+,30.06
PHJR,21.312,-158.07,,,,PHJR 031953Z 10SM SCT035 BKN045 31/21 A3011 RMK AO2 SLP201 T03060206,2024-08-03T19:53:00Z,30.6,20.6,10+,30.11
PAYA,59.512,-139.671,270,5,5.7539,PAYA 031953Z AUTO 27005KT 10SM FEW022 17/12 A3033 RMK AO2 SLP270 T01720122 TSNO,2024-08-03T19:53:00Z,17.2,12.2,10+,30.33
PAWD,60.129,-149.418,170,7,8.05546,PAWD 031953Z AUTO 17007KT 10SM OVC032 13/09 A3034 RMK AO2 SLP274 T01330094 TSNO,2024-08-03T19:53:00Z,13.3,9.4,10+,30.34
PAVL,67.731,-164.548,150,14,16.11092,PAVL 031953Z AUTO 15014KT 8SM OVC030 09/09 A2980 RMK AO2 SLP091 T00940089 TSNO,2024-08-03T19:53:00Z,9.4,8.9,8,29.80
PATO,60.783,-148.843,VRB,4,4.60312,PATO 031953Z AUTO VRB04KT 10SM CLR 14/10 A3034 RMK AO2 SLP275 T01390100 TSNO,2024-08-03T19:53:00Z,13.9,10,10+,30.34
PATK,62.319,-150.097,,,,PATK 031953Z 10SM SCT022 BKN046 OVC080 14/09 A3033 RMK AO2 SLP273 T01390094,2024-08-03T19:53:00Z,13.9,9.4,10+,30.33
PASO,59.443,-151.702,180,10,11.5078,PASO 031953Z AUTO 18010G20KT 10SM CLR A3032 RMK AO2 SLP269 TSNO,2024-08-03T19:53:00Z,,,10+,30.32
PASI,57.047,-135.364,310,8,9.20624,PASI 031953Z 31008KT 10SM SCT039 18/11 A3028 RMK AO2 SLP252 T01780106,2024-08-03T19:53:00Z,17.8,10.6,10+,30.28
PASC,70.191,-148.48,150,13,14.960139999999999,PASC 031953Z 15013KT 10SM CLR 14/03 A2999 RMK AO2 SLP156 T01390028 PNO $,2024-08-03T19:53:00Z,13.9,2.8,10+,29.99
PAQT,70.213,-150.994,170,11,12.658579999999999,PAQT 031953Z AUTO 17011KT 10SM BKN050 12/05 A2999 RMK AO2 SLP156 T01220050 TSNO $,2024-08-03T19:53:00Z,12.2,5,10+,29.99
PAOT,66.886,-162.607,160,17,19.56326,PAOT 031953Z 16017KT 10SM FEW023 BKN036 OVC045 10/09 A2985 RMK AO2 SLP109 T01000094 $,2024-08-03T19:53:00Z,10,9.4,10+,29.85
PAOR,62.962,-141.938,210,3,3.4523399999999995,PAOR 031953Z 21003KT 10SM SCT080 BKN120 16/08 A3027 RMK AO2 SLP255 T01560078 $,2024-08-03T19:53:00Z,15.6,7.8,10+,30.27
PANC,61.1691,-150.028,270,9,10.357019999999999,PANC 031953Z 27009G16KT 210V320 10SM OVC110 14/10 A3033 RMK AO2 SLP270 T01440100,2024-08-03T19:53:00Z,14.4,10,10+,30.33
PAMR,61.215,-149.85,300,5,5.7539,PAMR 031953Z 30005KT 10SM SCT095 BKN120 14/10 A3033 RMK AO2 SLP270 T01440100,2024-08-03T19:53:00Z,14.4,10,10+,30.33
PAMC,62.957,-155.61,220,5,5.7539,PAMC 031953Z 22005KT 10SM FEW100 12/10 A3019 RMK AO2 SLP228 T01220100,2024-08-03T19:53:00Z,12.2,10,10+,30.19
PALH,61.179,-149.962,310,7,8.05546,PALH 031953Z AUTO 31007KT 10SM FEW016 OVC110 14/11 A3033 RMK AO2 SLP272 T01390106 TSNO,2024-08-03T19:53:00Z,13.9,10.6,10+,30.33
PAKW,55.582,-133.075,VRB,5,5.7539,PAKW 031953Z AUTO VRB05KT 10SM CLR 21/12 A3021 RMK AO2 SLP228 T02060122 TSNO,2024-08-03T19:53:00Z,20.6,12.2,10+,30.21
PAKV,64.321,-158.732,210,7,8.05546,PAKV 031953Z AUTO 21007KT 180V250 10SM OVC012 11/08 A3011 RMK AO2 SLP199 T01060083 TSNO $,2024-08-03T19:53:00Z,10.6,8.3,10+,30.11
PAKT,55.3592,-131.722,330,11,12.658579999999999,PAKT 031953Z 33011KT 10SM CLR 22/10 A3018 RMK AO2 SLP218 HARBOR WIND VRB04KT T02220100,2024-08-03T19:53:00Z,22.2,10,10+,30.18
PAJN,58.354,-134.556,290,8,9.20624,PAJN 031953Z 29008KT 10SM FEW023 BKN036 BKN130 16/11 A3027 RMK AO2 SLP250 T01560106 $,2024-08-03T19:53:00Z,15.6,10.6,10+,30.27
PAIL,59.7492,-154.909,110,5,5.7539,PAIL 031953Z 11005KT 10SM CLR 14/10 A3028 RMK AO2 SLP257 T01440100,2024-08-03T19:53:00Z,14.4,10,10+,30.28
PAHO,59.642,-151.491,240,9,10.357019999999999,PAHO 031953Z 24009KT 10SM CLR 17/08 A3033 RMK AO2 SLP269 T01670083,2024-08-03T19:53:00Z,16.7,8.3,10+,30.33
PAGY,59.457,-135.322,250,4,4.60312,PAGY 031953Z AUTO 25004KT 10SM CLR 14/10 A3023 RMK AO2 SLP237 T01390100 TSNO,2024-08-03T19:53:00Z,13.9,10,10+,30.23
PAGK,62.1592,-145.459,VRB,3,3.4523399999999995,PAGK 031953Z AUTO VRB03KT 10SM OVC080 14/07 A3032 RMK AO2 SLP271 T01390067 TSNO,2024-08-03T19:53:00Z,13.9,6.7,10+,30.32
PAFA,64.8031,-147.876,120,3,3.4523399999999995,PAFA 031953Z 12003KT 5SM -RA BR BKN006 BKN024 OVC050 12/10 A3026 RMK AO2 SLP251 VIS LWR S-W P0002 T01170100 $,2024-08-03T19:53:00Z,11.7,10,5,30.26
PAEG,64.7761,-141.164,0,0,0.0,PAEG 031953Z AUTO 00000KT 10SM FEW044 14/06 A3026 RMK AO2 SLP251 T01440061 TSNO,2024-08-03T19:53:00Z,14.4,6.1,10+,30.26
PADQ,57.7507,-152.488,150,9,10.357019999999999,PADQ 031953Z 15009KT 10SM OVC023 14/08 A3033 RMK AO2 SLP269 T01390083,2024-08-03T19:53:00Z,13.9,8.3,10+,30.33
PADE,66.0695,-162.761,170,12,13.809359999999998,PADE 031953Z AUTO 17012G22KT 10SM SCT028 BKN033 OVC045 12/08 A2985 RMK AO2 PK WND 17026/1930 SLP107 T01220083 TSNO,2024-08-03T19:53:00Z,12.2,8.3,10+,29.85
PACV,60.486,-145.445,280,4,4.60312,PACV 031953Z 28004KT 10SM BKN031 18/09 A3032 RMK AO2 SLP267 T01830094,2024-08-03T19:53:00Z,18.3,9.4,10+,30.32
PACD,55.2207,-162.732,140,13,14.960139999999999,PACD 031953Z 14013KT 10SM SCT060 OVC100 14/09 A3003 RMK AO2 PK WND 16026/1858 SLP171 T01390089 $,2024-08-03T19:53:00Z,13.9,8.9,10+,30.03
PABT,66.9176,-151.519,140,5,5.7539,PABT 031953Z 14005KT 1SM -RA BR FEW007 BKN015 OVC024 10/09 A3016 RMK AO2 SLP222 P0002 T01000094 $,2024-08-03T19:53:00Z,10,9.4,1,30.16
PABR,71.2837,-156.784,170,9,10.357019999999999,PABR 031953Z 17009KT 10SM CLR 08/04 A2987,2024-08-03T19:53:00Z,8,4,10+,29.87
PABI,63.9931,-145.721,50,6,6.904679999999999,PABI 031953Z 05006KT 10SM -RA BKN008 BKN055 OVC075 11/10 A3030 RMK AO2 SLP270 P0000 T01110100,2024-08-03T19:53:00Z,11.1,10,10+,30.30
PABE,60.785,-161.829,180,15,17.261699999999998,PABE 031953Z 18015KT 10SM SCT019 12/08 A3013 RMK AO2 SLP204 T01220083,2024-08-03T19:53:00Z,12.2,8.3,10+,30.13
PAAQ,61.5951,-149.092,0,0,0.0,PAAQ 031953Z 00000KT 10SM CLR 14/10 A3031 RMK AO2 SLP267 T01440100,2024-08-03T19:53:00Z,14.4,10,10+,30.31
MMUN,21.038,-86.855,360,17,19.56326,MMUN 031953Z 36017KT 3SM TSRA BKN010CB OVC080 25/24 A2988 RMK 8/96/ TSRAB50 VRB COND,2024-08-03T19:53:00Z,25,24,3,29.88
KZZV,39.9461,-81.8932,300,6,6.904679999999999,KZZV 031953Z AUTO 30006KT 10SM -RA SCT026 SCT031 BKN050 26/21 A2989 RMK AO2 LTG DSNT SW RAB51 SLP112 P0000 T02610206,2024-08-03T19:53:00Z,26.1,20.6,10+,29.89
KYKM,46.564,-120.535,160,8,9.20624,KYKM 031953Z 16008KT 10SM CLR 33/12 A2992 RMK AO2 SLP122 T03280117,2024-08-03T19:53:00Z,32.8,11.7,10+,29.92
KYIP,42.242,-83.5214,320,9,10.357019999999999,KYIP 031953Z 32009KT 10SM FEW049 31/18 A2991 RMK AO2 SLP121 T03060183,2024-08-03T19:53:00Z,30.6,18.3,10+,29.91
KXNA,36.2897,-94.3115,0,0,0.0,KXNA 031953Z 00000KT 10SM FEW060 33/17 A3004 RMK AO2 SLP156 T03280167,2024-08-03T19:53:00Z,32.8,16.7,10+,30.04
KWVI,36.9394,-121.79,190,7,8.05546,KWVI 031953Z AUTO 19007KT 10SM CLR 24/16 A2997 RMK AO2 SLP147 T02440156,2024-08-03T19:53:00Z,24.4,15.6,10+,29.97
KWST,41.3509,-71.8055,200,10,11.5078,KWST 031953Z AUTO 20010KT 10SM CLR 29/23 A2982 RMK AO2 SLP096 T02940228 $,2024-08-03T19:53:00Z,29.4,22.8,10+,29.82
KWRL,43.9654,-107.95,10,4,4.60312,KWRL 031953Z AUTO 01004KT 10SM CLR 34/04 A3011 RMK AO2 SLP146 T03440039,2024-08-03T19:53:00Z,34.4,3.9,10+,30.11
KVRB,27.6553,-80.4142,50,5,5.7539,KVRB 031953Z 05005KT 10SM FEW029 28/26 A2996 RMK AO2 SLP145 T02780256,2024-08-03T19:53:00Z,27.8,25.6,10+,29.96
KVLD,30.7763,-83.2739,200,7,8.05546,KVLD 031953Z 20007KT 10SM FEW046 34/23 A2991 RMK AO2 SLP134 T03440228,2024-08-03T19:53:00Z,34.4,22.8,10+,29.91
KVGT,36.2121,-115.194,160,10,11.5078,KVGT 031953Z 16010G17KT 140V220 10SM CLR 41/13 A2994 RMK AO2 SLP120 T04060133,2024-08-03T19:53:00Z,40.6,13.3,10+,29.94
KVEL,40.4429,-109.513,VRB,4,4.60312,KVEL 031953Z AUTO VRB04KT 10SM CLR 34/03 A3019 RMK AO2 SLP142 T03440033,2024-08-03T19:53:00Z,34.4,3.3,10+,30.19
KVCB,38.3775,-121.959,VRB,3,3.4523399999999995,KVCB 031953Z AUTO VRB03KT 10SM CLR 36/13 A2992 RMK AO2 SLP130 T03610133,2024-08-03T19:53:00Z,36.1,13.3,10+,29.92
KUUU,41.5299,-71.2833,200,11,12.658579999999999,KUUU 031953Z AUTO 20011G19KT 10SM CLR 27/23 A2981 RMK AO2 SLP093 T02670228,2024-08-03T19:53:00Z,26.7,22.8,10+,29.81
KUNV,40.8534,-77.8401,VRB,3,3.4523399999999995,KUNV 031953Z VRB03KT 4SM RA BR BKN010 22/22 A2991,2024-08-03T19:53:00Z,22,22,4,29.91
KUNO,36.8791,-91.9052,VRB,3,3.4523399999999995,KUNO 031953Z AUTO VRB03KT 10SM SCT049 31/18 A3005 RMK AO2 SLP160 T03060183,2024-08-03T19:53:00Z,30.6,18.3,10+,30.05
KUIL,47.937,-124.558,230,5,5.7539,KUIL 031953Z AUTO 23005KT 10SM OVC011 18/14 A3010 RMK AO2 SLP193 T01830139,2024-08-03T19:53:00Z,18.3,13.9,10+,30.10
KUAO,45.2466,-122.771,360,5,5.7539,KUAO 031953Z 36005KT 10SM CLR 27/09 A3004 RMK AO2 SLP170 T02670094,2024-08-03T19:53:00Z,26.7,9.4,10+,30.04
KTYS,35.818,-83.9857,240,10,11.5078,KTYS 031953Z 24010G14KT 10SM SCT037 SCT100 SCT250 29/19 A2991 RMK AO2 SLP117 T02940194,2024-08-03T19:53:00Z,29.4,19.4,10+,29.91
KTYR,32.3587,-95.404,360,3,3.4523399999999995,KTYR 031953Z 36003KT 10SM CLR 36/19 A2995 RMK AO2 SLP131 T03610189,2024-08-03T19:53:00Z,36.1,18.9,10+,29.95
KTXK,33.4561,-93.9878,80,4,4.60312,KTXK 031953Z 08004KT 10SM FEW049 SCT065 36/21 A2996 RMK AO2 SLP137 T03610206,2024-08-03T19:53:00Z,36.1,20.6,10+,29.96
KTWF,42.4785,-114.477,60,5,5.7539,KTWF 031953Z 06005KT 10SM FU CLR 33/11 A3005 RMK AO2 SLP109 T03330106,2024-08-03T19:53:00Z,33.3,10.6,10+,30.05
KTVR,32.3481,-91.0299,30,8,9.20624,KTVR 031953Z AUTO 03008KT 10SM FEW060 35/22 A2992 RMK AO2 SLP136 T03500217,2024-08-03T19:53:00Z,35,21.7,10+,29.92
KTVL,38.8984,-119.996,,,,KTVL 031953Z AUTO 10SM FEW080 BKN120 23/10 A3030 RMK AO2 LTG DSNT NE SLP195 T02330100,2024-08-03T19:53:00Z,23.3,10,10+,30.30
KTVC,44.739,-85.5694,30,10,11.5078,KTVC 031953Z 03010KT 9SM SCT050 30/12 A2994 RMK AO2 SLP135 T03000122,2024-08-03T19:53:00Z,30,12.2,9,29.94
KTUS,32.1315,-110.956,50,4,4.60312,KTUS 031953Z 05004KT 10SM CLR 39/12 A3001 RMK AO2 LTG DSNT S SLP103 T03940122,2024-08-03T19:53:00Z,39.4,12.2,10+,30.01
KTUP,34.2622,-88.7713,350,14,16.11092,KTUP 031953Z 35014KT 10SM CLR 33/21 A2994 RMK AO2 SLP134 T03280206,2024-08-03T19:53:00Z,32.8,20.6,10+,29.94
KTUL,36.1985,-95.8783,10,6,6.904679999999999,KTUL 031953Z 01006KT 10SM FEW075 FEW250 34/16 A3001 RMK AO2 SLP154 T03440161 $,2024-08-03T19:53:00Z,34.4,16.1,10+,30.01
KTTN,40.2768,-74.8159,220,12,13.809359999999998,KTTN 031953Z 22012G22KT 10SM CLR 33/23 A2977 RMK AO2 SLP074 T03280228 $,2024-08-03T19:53:00Z,32.8,22.8,10+,29.77
KTTD,45.551,-122.41,,,,KTTD 031953Z AUTO 10SM CLR 27/16 A3003 RMK AO2 SLP169 T02670156,2024-08-03T19:53:00Z,26.7,15.6,10+,30.03
KTRL,32.7131,-96.2688,0,0,0.0,KTRL 031953Z AUTO 00000KT 10SM CLR 37/13 A2994 RMK AO2 SLP131 T03720133,2024-08-03T19:53:00Z,37.2,13.3,10+,29.94
KTRI,36.4797,-82.3989,230,6,6.904679999999999,KTRI 031953Z 23006KT 10SM FEW060 BKN090 BKN110 24/21 A2994 RMK AO2 LTG DSNT W RAE35 SLP113 P0000 T02440206,2024-08-03T19:53:00Z,24.4,20.6,10+,29.94
KTPA,27.9633,-82.54,30,7,8.05546,KTPA 031953Z 03007KT 10SM FEW025 SCT090 BKN150 OVC250 29/24 A2995 RMK AO2 SLP141 T02890244,2024-08-03T19:53:00Z,28.9,24.4,10+,29.95
KTOR,42.0613,-104.158,VRB,4,4.60312,KTOR 031953Z AUTO VRB04KT 10SM CLR 36/06 A3013 RMK AO2 SLP142 T03610061,2024-08-03T19:53:00Z,36.1,6.1,10+,30.13
KTOP,39.0724,-95.626,VRB,3,3.4523399999999995,KTOP 031953Z VRB03KT 10SM CLR 33/20 A3004 RMK AO2 SLP163 T03330200,2024-08-03T19:53:00Z,33.3,20,10+,30.04
KTLH,30.3935,-84.3513,160,7,8.05546,KTLH 031953Z 16007KT 10SM TS SCT035CB BKN150 BKN250 33/23 A2990 RMK AO2 TSB51 SLP122 OCNL LTGIC NW TS NW MOV N T03280228 $,2024-08-03T19:53:00Z,32.8,22.8,10+,29.90
KTKI,33.1828,-96.5899,20,7,8.05546,KTKI 031953Z 02007KT 10SM CLR 37/13 A2996 RMK AO2 SLP136 T03720133,2024-08-03T19:53:00Z,37.2,13.3,10+,29.96
KTIW,47.2674,-122.576,280,5,5.7539,KTIW 031953Z 28005KT 10SM CLR 22/14 A3007 RMK AO2 SLP181 T02220139,2024-08-03T19:53:00Z,22.2,13.9,10+,30.07
KTDZ,41.5633,-83.4767,VRB,4,4.60312,KTDZ 031953Z AUTO VRB04KT 10SM FEW048 SCT070 32/21 A2990 RMK AO2 SLP118 T03220206,2024-08-03T19:53:00Z,32.2,20.6,10+,29.90
KTCS,33.2369,-107.268,210,8,9.20624,KTCS 031953Z AUTO 21008KT 10SM CLR 33/09 A3021 RMK AO2 LTG DSNT W SLP132 T03280094,2024-08-03T19:53:00Z,32.8,9.4,10+,30.21
KTCL,33.2122,-87.6155,300,6,6.904679999999999,KTCL 031953Z 30006KT 10SM SCT055 BKN075 31/22 A2991 RMK AO2 SLP124 T03110217,2024-08-03T19:53:00Z,31.1,21.7,10+,29.91
KTCC,35.1805,-103.601,170,11,12.658579999999999,KTCC 031953Z AUTO 17011G17KT 10SM CLR 33/16 A3014 RMK AO2 SLP139 T03280156,2024-08-03T19:53:00Z,32.8,15.6,10+,30.14
KSWO,36.1624,-97.0832,0,0,0.0,KSWO 031953Z 00000KT 10SM CLR 36/17 A3003 RMK AO2 SLP153 T03560167,2024-08-03T19:53:00Z,35.6,16.7,10+,30.03
KSTS,38.5037,-122.811,210,4,4.60312,KSTS 031953Z COR 21004KT 10SM CLR 32/14 A2993 RMK AO2 SLP129 T03170139,2024-08-03T19:53:00Z,31.7,13.9,10+,29.93
KSTP,44.9324,-93.0559,160,8,9.20624,KSTP 031953Z 16008KT 10SM CLR 29/17 A2997 RMK AO2 SLP143 T02890167,2024-08-03T19:53:00Z,28.9,16.7,10+,29.97
KSTJ,39.7683,-94.9095,240,4,4.60312,KSTJ 031953Z 24004KT 10SM CLR 33/21 A3003 RMK AO2 SLP160 T03280206,2024-08-03T19:53:00Z,32.8,20.6,10+,30.03
KSTC,45.5442,-94.0517,160,9,10.357019999999999,KSTC 031953Z 16009KT 10SM CLR 29/18 A2995 RMK AO2 SLP145 T02940183,2024-08-03T19:53:00Z,29.4,18.3,10+,29.95
KSSF,29.339,-98.472,180,6,6.904679999999999,KSSF 031953Z 18006KT 10SM CLR 37/19 A2993 RMK AO2 SLP121 T03670194 $,2024-08-03T19:53:00Z,36.7,19.4,10+,29.93
KSRQ,27.4015,-82.5596,40,8,9.20624,KSRQ 031953Z 04008KT 10SM CLR 31/25 A2990 RMK AO2 SLP124 T03060250,2024-08-03T19:53:00Z,30.6,25,10+,29.90
KSPW,43.1682,-95.2101,230,9,10.357019999999999,KSPW 031953Z AUTO 23009KT 10SM CLR 34/20 A3000 RMK AO2 SLP146 T03390200,2024-08-03T19:53:00Z,33.9,20,10+,30.00
KSPG,27.7685,-82.6257,50,11,12.658579999999999,KSPG 031953Z 05011KT 10SM CLR 29/25 A2992 RMK AO2 SLP130 T02890250,2024-08-03T19:53:00Z,28.9,25,10+,29.92
KSPB,45.7691,-122.864,30,4,4.60312,KSPB 031953Z AUTO 03004KT 10SM CLR A3004 RMK AO2 SLPNO,2024-08-03T19:53:00Z,,,10+,30.04
KSNY,41.0993,-102.986,130,8,9.20624,KSNY 031953Z AUTO 13008KT 100V160 10SM CLR 35/09 A3016 RMK AO2 SLP156 T03500094,2024-08-03T19:53:00Z,35,9.4,10+,30.16
KSNS,36.6635,-121.609,300,13,14.960139999999999,KSNS 031953Z 30013KT 10SM CLR 22/14 A2997 RMK AO2 SLP156 T02170139,2024-08-03T19:53:00Z,21.7,13.9,10+,29.97
KSNA,33.6798,-117.867,220,9,10.357019999999999,KSNA 031953Z 22009KT 10SM FEW065 29/16 A2992 RMK AO2 SLP130 T02890156 $,2024-08-03T19:53:00Z,28.9,15.6,10+,29.92
KSMQ,40.6241,-74.669,180,10,11.5078,KSMQ 031953Z AUTO 18010G22KT 10SM FEW055 34/23 A2975 RMK AO2 LTG DSNT N AND NW RAB1854E04 SLP072 P0000 T03390228,2024-08-03T19:53:00Z,33.9,22.8,10+,29.75
KSMF,38.7007,-121.595,280,6,6.904679999999999,KSMF 031953Z 28006KT 10SM FEW150 36/13 A2990 RMK AO2 SLP125 T03560133,2024-08-03T19:53:00Z,35.6,13.3,10+,29.90
KSLN,38.78,-97.6446,180,3,3.4523399999999995,KSLN 031953Z 18003KT 10SM SCT100 33/16 A3006 RMK AO2 SLP164 T03330156,2024-08-03T19:53:00Z,33.3,15.6,10+,30.06
KSJC,37.3594,-121.924,330,6,6.904679999999999,KSJC 031953Z 33006KT 10SM FEW060 FEW080 FEW140 29/15 A2994 RMK AO2 SLP139 T02890150,2024-08-03T19:53:00Z,28.9,15,10+,29.94
KSIY,41.7737,-122.468,10,6,6.904679999999999,KSIY 031953Z AUTO 01006KT 10SM BKN100 OVC120 23/18 A3011 RMK AO2 RAE13 SLP179 P0000 T02280183,2024-08-03T19:53:00Z,22.8,18.3,10+,30.11
KSHR,44.7603,-106.974,80,6,6.904679999999999,KSHR 031953Z AUTO 08006KT 10SM CLR 36/07 A3013 RMK AO2 SLP154 T03610072,2024-08-03T19:53:00Z,36.1,7.2,10+,30.13
KSHN,47.2384,-123.142,240,12,13.809359999999998,KSHN 031953Z AUTO 24012KT 10SM CLR 20/14 A3005 RMK AO2 SLP176 T02000139,2024-08-03T19:53:00Z,20,13.9,10+,30.05
KSGR,29.6197,-95.6575,0,0,0.0,KSGR 031953Z 00000KT 10SM CLR 36/24 A2993 RMK AO2 SLP134 T03610244,2024-08-03T19:53:00Z,36.1,24.4,10+,29.93
KSFF,47.6857,-117.321,VRB,6,6.904679999999999,KSFF 031953Z VRB06KT 7SM CLR 29/15 A2998 RMK AO2 SLP134 T02890150,2024-08-03T19:53:00Z,28.9,15,7,29.98
KSEA,47.4447,-122.314,VRB,5,5.7539,KSEA 031953Z VRB05KT 10SM BKN250 22/12 A3007 RMK AO2 SLP186 T02220117,2024-08-03T19:53:00Z,22.2,11.7,10+,30.07
KSDM,32.5758,-116.994,280,7,8.05546,KSDM 031953Z 28007KT 10SM CLR 29/17 A2993 RMK AO2 SLP129 T02890167 $,2024-08-03T19:53:00Z,28.9,16.7,10+,29.93
KSDL,33.6124,-111.923,180,7,8.05546,KSDL 031953Z 18007KT 10SM CLR 42/14 A2990 RMK AO2 LTG DSNT N SLP092 T04170144,2024-08-03T19:53:00Z,41.7,14.4,10+,29.90
KSBM,43.7748,-87.849,80,7,8.05546,KSBM 031953Z AUTO 08007KT 10SM CLR 29/16 A2998 RMK AO2 SLP145 T02940161,2024-08-03T19:53:00Z,29.4,16.1,10+,29.98
KSBA,34.4241,-119.842,220,6,6.904679999999999,KSBA 031953Z 22006KT 9SM CLR 23/16 A2995 RMK AO2 SLP140 T02280156 $,2024-08-03T19:53:00Z,22.8,15.6,9,29.95
KSAV,32.1313,-81.2023,160,15,17.261699999999998,KSAV 031953Z 16015KT 10SM FEW034 SCT045 SCT250 33/24 A2992 RMK AO2 SLP130 T03280239,2024-08-03T19:53:00Z,32.8,23.9,10+,29.92
KSAF,35.611,-106.096,VRB,4,4.60312,KSAF 031953Z VRB04KT 10SM CLR 32/09 A3031 RMK AO2 SLP145 T03170089,2024-08-03T19:53:00Z,31.7,8.9,10+,30.31
KSAC,38.5066,-121.496,0,0,0.0,KSAC 031953Z 00000KT 10SM CLR 34/11 A2990 RMK AO2 SLP126 T03390106,2024-08-03T19:53:00Z,33.9,10.6,10+,29.90
KRXE,43.8321,-111.808,220,10,11.5078,KRXE 031953Z AUTO 22010KT 10SM CLR 34/07 A3010 RMK AO2 SLP139 T03390067,2024-08-03T19:53:00Z,33.9,6.7,10+,30.10
KRWL,41.8065,-107.195,,,,KRWL 031953Z AUTO 10SM CLR 34/M02 A3034 RMK AO2 SLP158 T03391022,2024-08-03T19:53:00Z,33.9,-2.2,10+,30.34
KRWI,35.8502,-77.8951,170,11,12.658579999999999,KRWI 031953Z AUTO 17011G32KT 7SM -RA FEW022 BKN047 OVC095 25/21 A2991 RMK AO2 PK WND 19040/1940 LTG DSNT NE AND S AND W RAB33 SLP127 P0000 T02500211,2024-08-03T19:53:00Z,25,21.1,7,29.91
KRWF,44.5483,-95.0804,170,10,11.5078,KRWF 031953Z AUTO 17010KT 10SM CLR 31/23 A2994 RMK AO2 SLP132 T03110228,2024-08-03T19:53:00Z,31.1,22.8,10+,29.94
KRVS,36.0424,-95.9902,VRB,3,3.4523399999999995,KRVS 031953Z VRB03KT 10SM CLR 35/14 A3001 RMK AO2 SLP163 T03500144,2024-08-03T19:53:00Z,35,14.4,10+,30.01
KRUE,35.2573,-93.095,180,6,6.904679999999999,KRUE 031953Z AUTO 18006KT 10SM BKN060 33/19 A2997 RMK AO2 SLP141 T03330194 $,2024-08-03T19:53:00Z,33.3,19.4,10+,29.97
KRTN,36.7418,-104.508,220,9,10.357019999999999,KRTN 031953Z AUTO 22009G17KT 10SM CLR 31/09 A3030 RMK AO2 SLP161 T03110089 $,2024-08-03T19:53:00Z,31.1,8.9,10+,30.30
KRSW,26.538,-81.7567,150,13,14.960139999999999,KRSW 031953Z 15013G18KT 10SM -RA FEW032 BKN049 OVC055 27/24 A2993 RMK AO2 PK WND 12031/1903 LTG DSNT ALQDS RAB09 SLP131 P0000 T02720244,2024-08-03T19:53:00Z,27.2,24.4,10+,29.93
KRSL,38.8725,-98.8093,200,11,12.658579999999999,KRSL 031953Z AUTO 20011G17KT 10SM CLR 34/14 A3006 RMK AO2 SLP159 T03390144,2024-08-03T19:53:00Z,33.9,14.4,10+,30.06
KRQE,35.6571,-109.06,40,6,6.904679999999999,KRQE 031953Z AUTO 04006KT 10SM SCT100 31/09 A3035 RMK AO2 LTG DSNT N SLP135 T03060089,2024-08-03T19:53:00Z,30.6,8.9,10+,30.35
KRNT,47.4951,-122.214,VRB,3,3.4523399999999995,KRNT 031953Z VRB03KT 10SM CLR 24/14 A3005 RMK AO2 SLP180 T02440144,2024-08-03T19:53:00Z,24.4,14.4,10+,30.05
KRNM,33.038,-116.916,300,9,10.357019999999999,KRNM 031953Z 30009KT 10SM CLR 38/14 A2995 RMK AO2 SLP123 T03780139,2024-08-03T19:53:00Z,37.8,13.9,10+,29.95
KRMG,34.3483,-85.1616,0,0,0.0,KRMG 031953Z AUTO 00000KT 10SM SCT045 SCT055 BKN080 31/19 A2991 RMK AO2 SLP117 T03060189,2024-08-03T19:53:00Z,30.6,18.9,10+,29.91
KRME,43.2242,-75.3956,270,8,9.20624,KRME 031953Z 27008KT 10SM CLR 28/21 A2983 RMK AO2 SLP097 T02780206,2024-08-03T19:53:00Z,27.8,20.6,10+,29.83
KRKP,28.0837,-97.0467,120,9,10.357019999999999,KRKP 031953Z AUTO 12009KT 8SM CLR 34/24 A2995 RMK AO2 SLP142 T03390244,2024-08-03T19:53:00Z,33.9,24.4,8,29.95
KRIW,43.0622,-108.447,VRB,6,6.904679999999999,KRIW 031953Z AUTO VRB06KT 10SM CLR 34/02 A3021 RMK AO2 SLP146 T03390022,2024-08-03T19:53:00Z,33.9,2.2,10+,30.21
KRIL,39.5279,-107.72,10,5,5.7539,KRIL 031953Z AUTO 01005KT 10SM CLR 36/06 A3021 RMK AO2 SLP140 T03610061,2024-08-03T19:53:00Z,36.1,6.1,10+,30.21
KRHI,45.6315,-89.4822,VRB,4,4.60312,KRHI 031953Z AUTO VRB04KT 10SM CLR 28/15 A3003 RMK AO2 SLP161 T02830150,2024-08-03T19:53:00Z,28.3,15,10+,30.03
KRDD,40.5146,-122.298,30,6,6.904679999999999,KRDD 031953Z 03006KT 6SM HZ FU CLR 32/14 A2993 RMK AO2 SLP127 T03220139,2024-08-03T19:53:00Z,32.2,13.9,6,29.93
KRBG,43.2337,-123.358,0,0,0.0,KRBG 031953Z AUTO 00000KT 10SM FEW043 24/15 A3002 RMK AO2 SLP162 T02440150,2024-08-03T19:53:00Z,24.4,15,10+,30.02
KRBD,32.6782,-96.8677,80,8,9.20624,KRBD 031953Z 08008KT 10SM CLR 37/16 A2995 RMK AO2 SLP131 T03720156,2024-08-03T19:53:00Z,37.2,15.6,10+,29.95
KRAL,33.9528,-117.435,280,8,9.20624,KRAL 031953Z 28008KT 10SM CLR 38/10 A2992 RMK AO2 SLP113 T03830100,2024-08-03T19:53:00Z,38.3,10,10+,29.92
KRAC,42.7586,-87.8178,60,6,6.904679999999999,KRAC 031953Z AUTO 06006KT 10SM CLR 28/21 A2999 RMK AO2 SLP149 T02830211,2024-08-03T19:53:00Z,28.3,21.1,10+,29.99
KPWA,35.5411,-97.6472,50,6,6.904679999999999,KPWA 031953Z 05006G15KT 10SM CLR 35/16 A3003 RMK AO2 SLP151 T03500156,2024-08-03T19:53:00Z,35,15.6,10+,30.03
KPUW,46.7438,-117.116,270,9,10.357019999999999,KPUW 031953Z AUTO 27009KT 9SM CLR 28/11 A3004 RMK AO2 SLP152 T02830111,2024-08-03T19:53:00Z,28.3,11.1,9,30.04
KPUC,39.6089,-110.755,160,5,5.7539,KPUC 031953Z AUTO 16005G14KT 10SM CLR 34/07 A3025 RMK AO2 LTG DSNT E SLP125 T03390067,2024-08-03T19:53:00Z,33.9,6.7,10+,30.25
KPUB,38.2887,-104.506,140,13,14.960139999999999,KPUB 031953Z 14013KT 10SM CLR 34/12 A3018 RMK AO2 SLP143 T03390122,2024-08-03T19:53:00Z,33.9,12.2,10+,30.18
KPTK,42.6632,-83.41,330,8,9.20624,KPTK 031953Z 33008G17KT 10SM FEW050 FEW250 29/15 A2990 RMK AO2 SLP118 T02940150,2024-08-03T19:53:00Z,29.4,15,10+,29.90
KPSX,28.7248,-96.2535,200,9,10.357019999999999,KPSX 031953Z AUTO 20009KT 10SM CLR 33/27 A2994 RMK AO2 SLP138 T03330267 $,2024-08-03T19:53:00Z,33.3,26.7,10+,29.94
KPSP,33.8222,-116.504,VRB,5,5.7539,KPSP 031953Z VRB05KT 10SM CLR 45/10 A2983 RMK AO2 SLP094 T04500100 $,2024-08-03T19:53:00Z,45,10,10+,29.83
KPSC,46.2695,-119.118,140,4,4.60312,KPSC 031953Z 14004KT 10SM CLR 34/16 A2989 RMK AO2 SLP117 T03390156,2024-08-03T19:53:00Z,33.9,15.6,10+,29.89
KPRC,34.6491,-112.422,180,13,14.960139999999999,KPRC 031953Z 18013KT 10SM VCTS -RA FEW075 26/14 A3024 RMK AO2 LTG DSNT ALQDS RAB46 SLP156 P0000 T02610144,2024-08-03T19:53:00Z,26.1,14.4,10+,30.24
KPRB,35.6693,-120.629,0,0,0.0,KPRB 031953Z AUTO 00000KT 10SM CLR 37/12 A2992 RMK AO2 SLP121 T03720117,2024-08-03T19:53:00Z,37.2,11.7,10+,29.92
KPOF,36.7697,-90.3224,30,3,3.4523399999999995,KPOF 031953Z AUTO 03003KT 10SM FEW044 33/21 A2997 RMK AO2 SLP142 T03280211 $,2024-08-03T19:53:00Z,32.8,21.1,10+,29.97
KPNS,30.478,-87.1869,190,11,12.658579999999999,KPNS 031953Z AUTO 19011KT 10SM CLR 31/23 A2989 RMK AO2 SLP121 T03060233,2024-08-03T19:53:00Z,30.6,23.3,10+,29.89
KPNC,36.7369,-97.1024,110,7,8.05546,KPNC 031953Z AUTO 11007KT 10SM CLR 34/15 A3003 RMK AO2 SLP157 T03440150,2024-08-03T19:53:00Z,34.4,15,10+,30.03
KPMP,26.2464,-80.111,,,,KPMP 031953Z A2992 RMK AO2 SLP134 $,2024-08-03T19:53:00Z,,,,29.92
KPMD,34.6295,-118.083,250,9,10.357019999999999,KPMD 031953Z 25009G17KT 10SM CLR 38/04 A3002 RMK AO2 SLP129 T03830044 $,2024-08-03T19:53:00Z,38.3,4.4,10+,30.02
KPKD,46.8971,-95.0695,160,12,13.809359999999998,KPKD 031953Z AUTO 16012KT 10SM CLR 29/19 A2989 RMK AO2 SLP115 T02940189 $,2024-08-03T19:53:00Z,29.4,18.9,10+,29.89
KPKB,39.3395,-81.4438,290,7,8.05546,KPKB 031953Z 29007KT 10SM BKN029 28/20 A2989 RMK AO2 SLP114 T02780200 PNO $,2024-08-03T19:53:00Z,27.8,20,10+,29.89
KPIR,44.3819,-100.286,270,5,5.7539,KPIR 031953Z AUTO 27005KT 10SM CLR 38/16 A2991 RMK AO2 SLP105 T03780161,2024-08-03T19:53:00Z,37.8,16.1,10+,29.91
KPIL,26.1597,-97.3378,110,8,9.20624,KPIL 031953Z AUTO 11008KT 10SM CLR 33/24 A2996 RMK AO2 SLP144 T03280239,2024-08-03T19:53:00Z,32.8,23.9,10+,29.96
KPIH,42.9197,-112.572,300,8,9.20624,KPIH 031953Z 30008KT 10SM CLR 34/09 A3010 RMK AO2 SLP135 T03440094,2024-08-03T19:53:00Z,34.4,9.4,10+,30.10
KPIE,27.9126,-82.6855,50,7,8.05546,KPIE 031953Z 05007KT 10SM FEW090 28/24 A2993 RMK AO2 RAE29 SLP136 P0001 T02830239,2024-08-03T19:53:00Z,28.3,23.9,10+,29.93
KPHD,40.4703,-81.4218,330,10,11.5078,KPHD 031953Z AUTO 33010G16KT 10SM SCT025 BKN036 BKN055 26/21 A2989 RMK AO2 SLP114 T02560211,2024-08-03T19:53:00Z,25.6,21.1,10+,29.89
KPGA,36.9211,-111.449,340,7,8.05546,KPGA 031953Z AUTO 34007G17KT 10SM CLR 36/11 A3015 RMK AO2 LTG DSNT W SLP127 T03560106 $,2024-08-03T19:53:00Z,35.6,10.6,10+,30.15
KPEO,42.6441,-77.0528,0,0,0.0,KPEO 031953Z AUTO 00000KT 10SM FEW013 SCT046 BKN120 24/21 A2986 RMK AO2 RAE44 SLP106 P0002 T02440206,2024-08-03T19:53:00Z,24.4,20.6,10+,29.86
KPDX,45.5958,-122.609,300,8,9.20624,KPDX 031953Z 30008KT 10SM FEW150 BKN210 BKN250 26/09 A3004 RMK AO2 SLP170 T02560094,2024-08-03T19:53:00Z,25.6,9.4,10+,30.04
KPDT,45.6975,-118.834,270,9,10.357019999999999,KPDT 031953Z 27009KT 10SM CLR 33/12 A2997 RMK AO2 SLP128 T03330122,2024-08-03T19:53:00Z,33.3,12.2,10+,29.97
KPDK,33.8783,-84.298,VRB,6,6.904679999999999,KPDK 031953Z VRB06G16KT 10SM FEW047 FEW060 31/20 A2992 RMK AO2 SLP111 T03110200,2024-08-03T19:53:00Z,31.1,20,10+,29.92
KPBI,26.6851,-80.0992,120,16,18.41248,KPBI 031953Z 12016KT 10SM SCT023 BKN170 OVC250 32/26 A2993 RMK AO2 SLP136 CB DSNT NW T03170256 $,2024-08-03T19:53:00Z,31.7,25.6,10+,29.93
KPBG,44.6392,-73.4631,VRB,3,3.4523399999999995,KPBG 031953Z AUTO VRB03KT 10SM FEW050 33/21 A2974 RMK AO2 SLP070 T03280206,2024-08-03T19:53:00Z,32.8,20.6,10+,29.74
KPBF,34.1798,-91.9344,VRB,6,6.904679999999999,KPBF 031953Z AUTO VRB06KT 10SM CLR 33/ A2996 RMK AO2 SLP142 T0333 $,2024-08-03T19:53:00Z,33.3,,10+,29.96
KPAH,37.0652,-88.7793,0,0,0.0,KPAH 031953Z 00000KT 10SM FEW050 32/21 A2995 RMK AO2 SLP136 T03220211,2024-08-03T19:53:00Z,32.2,21.1,10+,29.95
KPAE,47.9232,-122.283,240,7,8.05546,KPAE 031953Z 24007KT 10SM CLR 24/14 A3007 RMK AO2 SLP179 T02390144,2024-08-03T19:53:00Z,23.9,14.4,10+,30.07
KP68,39.602,-116.006,200,16,18.41248,KP68 031953Z AUTO 20016G20KT 32/07 A3020 RMK AO1 WSHFT 1902 SLP120 T03170067,2024-08-03T19:53:00Z,31.7,6.7,,30.20
KOXB,38.3091,-75.1234,200,9,10.357019999999999,KOXB 031953Z AUTO 20009G18KT 10SM CLR 27/23 A2985 RMK AO2 SLP107 T02720233 PWINO,2024-08-03T19:53:00Z,27.2,23.3,10+,29.85
KOWD,42.1912,-71.1732,260,8,9.20624,KOWD 031953Z 26008G19KT 10SM SCT060 33/23 A2977 RMK AO2 SLP081 T03330233,2024-08-03T19:53:00Z,33.3,23.3,10+,29.77
KOVS,43.1561,-90.6775,320,4,4.60312,KOVS 031953Z AUTO 32004KT 10SM CLR 32/17 A2998 RMK AO2 SLP147 T03220172,2024-08-03T19:53:00Z,32.2,17.2,10+,29.98
KOVE,39.4943,-121.622,280,3,3.4523399999999995,KOVE 031953Z AUTO 28003KT 10SM CLR 34/14 A2993 RMK AO2 SLP134 T03440144,2024-08-03T19:53:00Z,34.4,14.4,10+,29.93
KOTM,41.1008,-92.4445,340,8,9.20624,KOTM 031953Z AUTO 34008KT 300V010 10SM CLR 31/22 A2997 RMK AO2 PRESFR SLP141 T03060217,2024-08-03T19:53:00Z,30.6,21.7,10+,29.97
KOSU,40.0784,-83.0782,70,3,3.4523399999999995,KOSU 031953Z 07003KT 10SM SCT100 23/20 A2991 RMK AO2 PK WND 32026/1904 LTG DSNT SE-SW RAB06E43 TSB1854E1855E24E43 SLP120 P0058 T02330200,2024-08-03T19:53:00Z,23.3,20,10+,29.91
KOSH,43.9669,-88.5582,70,4,4.60312,KOSH 031953Z 07004KT 10SM CLR 29/17 A2998 RMK AO2 SLP136 T02890172,2024-08-03T19:53:00Z,28.9,17.2,10+,29.98
KORL,28.5465,-81.3354,140,11,12.658579999999999,KORL 031953Z 14011KT 10SM FEW038 FEW110 28/23 A2997 RMK AO1 LTG DSNT NE SLP152 T02830233,2024-08-03T19:53:00Z,28.3,23.3,10+,29.97
KOPF,25.9102,-80.2828,120,18,20.714039999999997,KOPF 031953Z 12018G26KT 10SM FEW027 SCT033 BKN080 30/24 A2991 RMK AO2 PK WND 13030/1933 LTG DSNT SW AND W SLP129 T03000244,2024-08-03T19:53:00Z,30,24.4,10+,29.91
KONT,34.0531,-117.577,VRB,6,6.904679999999999,KONT 031953Z VRB06KT 10SM FEW080 37/02 A2993 RMK AO2 SLP113 T03670022,2024-08-03T19:53:00Z,36.7,2.2,10+,29.93
KONO,44.0143,-117.008,90,4,4.60312,KONO 031953Z AUTO 09004KT 6SM HZ CLR 36/13 A2993 RMK AO2 SLP113 T03610128,2024-08-03T19:53:00Z,36.1,12.8,6,29.93
KOMK,48.4611,-119.521,VRB,3,3.4523399999999995,KOMK 031953Z AUTO VRB03KT 10SM CLR 39/08 A2986 RMK AO2 SLP099 T03890078,2024-08-03T19:53:00Z,38.9,7.8,10+,29.86
KOLF,48.0942,-105.578,VRB,4,4.60312,KOLF 031953Z AUTO VRB04G15KT 10SM CLR 30/10 A3008 RMK AO2 SLP173 T03000100,2024-08-03T19:53:00Z,30,10,10+,30.08
KOJC,38.85,-94.7395,40,3,3.4523399999999995,KOJC 031953Z 04003KT 10SM CLR 32/18 A3004 RMK AO2 SLP160 T03220178 $,2024-08-03T19:53:00Z,32.2,17.8,10+,30.04
KOGD,41.1941,-112.017,230,7,8.05546,KOGD 031953Z 23007KT 10SM CLR 36/09 A3011 RMK AO2 SLP120 T03610094,2024-08-03T19:53:00Z,36.1,9.4,10+,30.11
KOGB,33.4637,-80.8534,190,12,13.809359999999998,KOGB 031953Z AUTO 19012G20KT 10SM SCT041 SCT070 33/24 A2990 RMK AO2 SLP124 P0001 T03280244 $,2024-08-03T19:53:00Z,32.8,24.4,10+,29.90
KOAK,37.7178,-122.233,300,10,11.5078,KOAK 031953Z 30010KT 10SM FEW010 FEW170 23/14 A2996 RMK AO2 SLP145 T02330144,2024-08-03T19:53:00Z,23.3,14.4,10+,29.96
KNUW,48.355,-122.664,300,5,5.7539,KNUW 031953Z 30005KT 10SM FEW003 FEW050 SCT250 15/12 A3007 RMK AO2 SLP187 T01500122,2024-08-03T19:53:00Z,15,12.2,10+,30.07
KNUI,38.152,-76.432,210,13,14.960139999999999,KNUI 031953Z AUTO 21013G19KT 10SM CLR 32/26 A2982 RMK AO2 SLP095 T03170256,2024-08-03T19:53:00Z,31.7,25.6,10+,29.82
KNSI,33.2337,-119.456,90,5,5.7539,KNSI 031953Z AUTO 09005KT 10SM CLR 23/ A2998 RMK AO2 SLP145 T0233 $,2024-08-03T19:53:00Z,23.3,,10+,29.98
KNRS,32.563,-117.111,310,12,13.809359999999998,KNRS 031953Z AUTO 31012KT 10SM CLR A2994 RMK AO2 SLP139 $,2024-08-03T19:53:00Z,,,10+,29.94
KNQX,24.5801,-81.6829,130,23,26.46794,KNQX 031953Z COR 13023G35KT 5SM -RA SCT020 BKN046 28/26 A2980 RMK AO2 PK WND 15039/1859 SLP089 T2 SET P0022 T02830261 $,2024-08-03T19:53:00Z,28.3,26.1,5,29.80
KNIP,30.2346,-81.6746,160,12,13.809359999999998,KNIP 031953Z 16012KT 10SM FEW030 BKN046 BKN060 BKN250 32/24 A2995 RMK AO2 RAB07E16 TSE24 SLP137 T2 SET P0000 T03170239 $,2024-08-03T19:53:00Z,31.7,23.9,10+,29.95
KNEW,30.0494,-90.029,250,10,11.5078,KNEW 031953Z 25010KT 10SM CLR 32/22 A2992 RMK AO2 PK WND 28026/1858 LTG DSNT ALQDS SLP124 T03170222,2024-08-03T19:53:00Z,31.7,22.2,10+,29.92
KMYV,39.102,-121.569,VRB,3,3.4523399999999995,KMYV 031953Z AUTO VRB03KT 10SM CLR 36/14 A2991 RMK AO2 SLP131 T03560139,2024-08-03T19:53:00Z,35.6,13.9,10+,29.91
KMYF,32.8145,-117.137,290,7,8.05546,KMYF 031953Z 29007KT 10SM CLR 29/17 A2993 RMK AO2 SLP129 T02940172,2024-08-03T19:53:00Z,29.4,17.2,10+,29.93
KMWT,34.5466,-93.5779,90,5,5.7539,KMWT 031953Z AUTO 09005KT 10SM CLR 34/18 A2997 RMK AO2 SLP134 T03440178,2024-08-03T19:53:00Z,34.4,17.8,10+,29.97
KMWL,32.7816,-98.0602,0,0,0.0,KMWL 031953Z AUTO 00000KT 10SM CLR 37/14 A2996 RMK AO2 SLP129 T03720144,2024-08-03T19:53:00Z,37.2,14.4,10+,29.96
KMVY,41.393,-70.6159,220,13,14.960139999999999,KMVY 031953Z 22013G22KT 10SM CLR 27/23 A2983 RMK AO2 SLP099 T02720233,2024-08-03T19:53:00Z,27.2,23.3,10+,29.83
KMTO,39.4744,-88.2724,320,5,5.7539,KMTO 031953Z AUTO 32005KT 10SM FEW055 31/22 A2996 RMK AO2 SLP138 T03110222 $,2024-08-03T19:53:00Z,31.1,22.2,10+,29.96
KMTN,39.3214,-76.4065,140,15,17.261699999999998,KMTN 031953Z 14015G23KT 10SM SCT055 31/25 A2980,2024-08-03T19:53:00Z,31,25,10+,29.80
KMTH,24.7262,-81.0477,130,17,19.56326,KMTH 031953Z AUTO 13017G32KT 10SM SCT027 31/24 A2983 RMK AO2 PK WND 13039/1855 RAB1857E06B28E38 SLP100 P0000 T03060244,2024-08-03T19:53:00Z,30.6,24.4,10+,29.83
KMSY,29.9974,-90.2777,270,3,3.4523399999999995,KMSY 031953Z 27003KT 10SM FEW035 BKN200 BKN270 29/21 A2990 RMK AO2 TSE03 SLP129 CB DSNT ALQDS T02890211,2024-08-03T19:53:00Z,28.9,21.1,10+,29.90
KMSS,44.9334,-74.8484,220,11,12.658579999999999,KMSS 031953Z AUTO 22011KT 10SM CLR 29/22 A2976 RMK AO2 SLP075 T02940217,2024-08-03T19:53:00Z,29.4,21.7,10+,29.76
KMSP,44.8852,-93.2313,140,11,12.658579999999999,KMSP 031953Z 14011KT 10SM FEW250 28/16 A2997 RMK AO2 SLP142 T02830156,2024-08-03T19:53:00Z,28.3,15.6,10+,29.97
KMSO,46.9208,-114.094,250,5,5.7539,KMSO 031953Z 25005KT 10SM CLR 31/09 A3001 RMK AO2 SLP135 T03060094,2024-08-03T19:53:00Z,30.6,9.4,10+,30.01
KMSN,43.1407,-89.3452,40,9,10.357019999999999,KMSN 031953Z 04009KT 10SM SCT039 31/20 A2997 RMK AO2 SLP141 T03060200,2024-08-03T19:53:00Z,30.6,20,10+,29.97
KMSL,34.7439,-87.5997,40,4,4.60312,KMSL 031953Z AUTO 04004KT 10SM FEW049 32/19 A2994 RMK AO2 SLP129 T03220194,2024-08-03T19:53:00Z,32.2,19.4,10+,29.94
KMRB,39.4037,-77.975,150,5,5.7539,KMRB 031953Z AUTO 15005KT 10SM FEW031 SCT048 SCT090 26/21 A2980 RMK AO2 LTG DSNT E-S RAB26E52 SLP086 P0000 T02610211,2024-08-03T19:53:00Z,26.1,21.1,10+,29.80
KMOD,37.6254,-120.955,0,0,0.0,KMOD 031953Z 00000KT 10SM CLR 37/12 A2990 RMK AO2 SLP123 T03670117,2024-08-03T19:53:00Z,36.7,11.7,10+,29.90
KMNN,40.6158,-83.0673,50,5,5.7539,KMNN 031953Z AUTO 05005KT 9SM CLR 29/22 A2990 RMK AO2 SLP120 T02940217,2024-08-03T19:53:00Z,29.4,21.7,9,29.90
KMMV,45.1957,-123.134,0,0,0.0,KMMV 031953Z AUTO 00000KT 10SM CLR 26/14 A3003 RMK AO2 SLP166 T02610144,2024-08-03T19:53:00Z,26.1,14.4,10+,30.03
KMMK,41.5097,-72.8278,290,5,5.7539,KMMK 031953Z AUTO 29005KT 10SM FEW060 32/21 A2979 RMK AO2 SLP084 T03220211,2024-08-03T19:53:00Z,32.2,21.1,10+,29.79
KMLU,32.5155,-92.03,40,4,4.60312,KMLU 031953Z 04004KT 10SM CLR 36/21 A2993 RMK AO2 SLP133 T03610211,2024-08-03T19:53:00Z,36.1,21.1,10+,29.93
KMLT,45.6478,-68.6925,,,,KMLT 031953Z AUTO 10SM FEW030 28/22 A2973 RMK AO2 SLP069 T02830217,2024-08-03T19:53:00Z,28.3,21.7,10+,29.73
KMLS,46.4265,-105.883,70,8,9.20624,KMLS 031953Z AUTO 07008KT 10SM CLR 33/09 A3007 RMK AO2 SLP155 T03330094,2024-08-03T19:53:00Z,33.3,9.4,10+,30.07
KMLP,47.4548,-115.671,0,0,0.0,KMLP 031953Z AUTO 00000KT 10SM CLR 23/10 A3026 RMK AO2 SLP124 T02330100,2024-08-03T19:53:00Z,23.3,10,10+,30.26
KMLC,34.8824,-95.7815,340,5,5.7539,KMLC 031953Z AUTO 34005KT 10SM CLR 36/17 A3000 RMK AO2 SLP149 T03560172,2024-08-03T19:53:00Z,35.6,17.2,10+,30.00
KMLB,28.0997,-80.6356,100,8,9.20624,KMLB 031953Z 10008KT 6SM -RA BR FEW011 FEW045 BKN100 26/24 A2996 RMK AO2 RAB17 SLP144 P0005 T02610244,2024-08-03T19:53:00Z,26.1,24.4,6,29.96
KMKO,35.6576,-95.3658,,,,KMKO 031953Z AUTO 10SM CLR 36/17 A3001 RMK AO2 SLP155 T03560172,2024-08-03T19:53:00Z,35.6,17.2,10+,30.01
KMKL,35.5933,-88.917,VRB,4,4.60312,KMKL 031953Z VRB04KT 10SM SCT047 SCT055 31/21 A2997 RMK AO2 SLP141 T03110211,2024-08-03T19:53:00Z,31.1,21.1,10+,29.97
KMIW,42.1106,-92.9163,320,5,5.7539,KMIW 031953Z AUTO 32005KT 10SM CLR 31/19 A3001 RMK AO2 SLP154 T03060189,2024-08-03T19:53:00Z,30.6,18.9,10+,30.01
KMIE,40.2345,-85.3936,350,8,9.20624,KMIE 031953Z 35008KT 10SM FEW046 30/20 A2994 RMK AO2 SLP126 T03000200,2024-08-03T19:53:00Z,30,20,10+,29.94
KMIC,45.0623,-93.3511,150,11,12.658579999999999,KMIC 031953Z 15011KT 10SM CLR 29/16 A2995 RMK AO2 SLP136 T02940161,2024-08-03T19:53:00Z,29.4,16.1,10+,29.95
KMIA,25.7881,-80.3169,120,10,11.5078,KMIA 031953Z 12010G27KT 9SM -RA SCT025CB BKN032 BKN043 OVC250 29/26 A2990 RMK AO2 PK WND 13032/1919 RAB45 SLP126 CB SE-SW MOV NW P0001 T02890256 $,2024-08-03T19:53:00Z,28.9,25.6,9,29.90
KMHT,42.9245,-71.4377,250,3,3.4523399999999995,KMHT 031953Z 25003KT 10SM BKN035 BKN200 31/21 A2977 RMK AO2 SLP088 T03060211,2024-08-03T19:53:00Z,30.6,21.1,10+,29.77
KMHE,43.7743,-98.0384,200,14,16.11092,KMHE 031953Z AUTO 20014G22KT 10SM CLR 35/20 A2992 RMK AO2 SLP118 T03500200,2024-08-03T19:53:00Z,35,20,10+,29.92
KMGY,39.5918,-84.2263,320,9,10.357019999999999,KMGY 031953Z AUTO 32009KT 10SM SCT041 BKN050 BKN060 29/19 A2990 RMK AO2 SLP117 T02940194,2024-08-03T19:53:00Z,29.4,19.4,10+,29.90
KMGM,32.2997,-86.4074,290,4,4.60312,KMGM 031953Z 29004KT 10SM CLR 34/19 A2989 RMK AO2 LTG DSNT SE SLP117 T03440194,2024-08-03T19:53:00Z,34.4,19.4,10+,29.89
KMFR,42.375,-122.877,0,0,0.0,KMFR 031953Z 00000KT 9SM FU CLR 28/16 A2999 RMK AO2 SLP142 T02830161 $,2024-08-03T19:53:00Z,28.3,16.1,9,29.99
KMFE,26.1791,-98.2445,60,9,10.357019999999999,KMFE 031953Z 06009G15KT 030V100 10SM CLR 37/23 A2994 RMK AO2 SLP137 T03720228,2024-08-03T19:53:00Z,37.2,22.8,10+,29.94
KMDW,41.7841,-87.7551,100,8,9.20624,KMDW 031953Z 10008KT 10SM SCT060 31/20 A2993 RMK AO2 SLP123 T03110200,2024-08-03T19:53:00Z,31.1,20,10+,29.93
KMCW,43.1543,-93.3262,0,0,0.0,KMCW 031953Z AUTO 00000KT 10SM CLR 29/17 A3003 RMK AO2 SLP156 T02940167,2024-08-03T19:53:00Z,29.4,16.7,10+,30.03
KMCO,28.4182,-81.3241,130,9,10.357019999999999,KMCO 031953Z COR 13009KT 10SM -RA FEW038 SCT100 BKN140 BKN180 BKN250 28/23 A2997 RMK AO2 RAB45 SLP147 CB DSNT NE P0000 T02780233,2024-08-03T19:53:00Z,27.8,23.3,10+,29.97
KMCN,32.6889,-83.6529,320,4,4.60312,KMCN 031953Z 32004KT 10SM VCTS SCT028 BKN075 OVC100 25/23 A2990 RMK AO2 LTG DSNT ALQDS TSB05E32 SLP120 T02500233 $,2024-08-03T19:53:00Z,25,23.3,10+,29.90
KMCK,40.204,-100.59,160,4,4.60312,KMCK 031953Z AUTO 16004KT 10SM CLR 34/16 A3008 RMK AO2 SLP156 T03440156,2024-08-03T19:53:00Z,34.4,15.6,10+,30.08
KMCI,39.2975,-94.7309,0,0,0.0,KMCI 031953Z 00000KT 10SM FEW050 OVC250 32/21 A3004 RMK AO2 SLP160 T03170206 $,2024-08-03T19:53:00Z,31.7,20.6,10+,30.04
KMCE,37.286,-120.518,VRB,4,4.60312,KMCE 031953Z AUTO VRB04KT 10SM CLR 36/15 A2990 RMK AO2 SLP124 T03560150,2024-08-03T19:53:00Z,35.6,15,10+,29.90
KMCB,31.1823,-90.4721,320,3,3.4523399999999995,KMCB 031953Z AUTO 32003KT 10SM CLR 31/22 A2992 RMK AO2 LTG DSNT S SLP126 T03060222,2024-08-03T19:53:00Z,30.6,22.2,10+,29.92
KMBS,43.5281,-84.0813,VRB,4,4.60312,KMBS 031953Z VRB04KT 10SM CLR 31/16 A2992 RMK AO2 SLP126 T03060161,2024-08-03T19:53:00Z,30.6,16.1,10+,29.92
KMAF,31.9475,-102.209,0,0,0.0,KMAF 031953Z 00000KT 10SM FEW110 36/14 A3007 RMK AO2 SLP127 T03560144 $,2024-08-03T19:53:00Z,35.6,14.4,10+,30.07
KMAE,36.9851,-120.111,300,6,6.904679999999999,KMAE 031953Z AUTO 30006KT 10SM SCT110 37/16 A2992 RMK AO2 SLP127 T03670156 $,2024-08-03T19:53:00Z,36.7,15.6,10+,29.92
KLXV,39.228,-106.316,290,7,8.05546,KLXV 031953Z AUTO 29007KT 10SM SCT100 26/M03 A3059 RMK AO2 SLP148 T02611028,2024-08-03T19:53:00Z,26.1,-2.8,10+,30.59
KLXT,38.9577,-94.3712,20,5,5.7539,KLXT 031953Z AUTO 02005KT 10SM CLR 35/18 A3004 RMK AO2 SLP162 T03500183,2024-08-03T19:53:00Z,35,18.3,10+,30.04
KLWV,38.7604,-87.599,,,,KLWV 031953Z AUTO 10SM FEW050 32/22 A2995 RMK AO2 SLP135 T03170217,2024-08-03T19:53:00Z,31.7,21.7,10+,29.95
KLWD,40.6306,-93.9005,280,7,8.05546,KLWD 031953Z AUTO 28007KT 10SM FEW065 33/20 A3002 RMK AO2 SLP155 T03280200,2024-08-03T19:53:00Z,32.8,20,10+,30.02
KLVS,35.6558,-105.139,200,8,9.20624,KLVS 031953Z AUTO 20008G15KT 170V260 10SM CLR 29/10 A3037 RMK AO2 LTG DSNT NW SLP164 T02890100,2024-08-03T19:53:00Z,28.9,10,10+,30.37
KLVM,45.6984,-110.442,90,10,11.5078,KLVM 031953Z AUTO 09010KT 10SM CLR 33/08 A3013 RMK AO2 SLP142 T03330083,2024-08-03T19:53:00Z,33.3,8.3,10+,30.13
KLVK,37.6931,-121.815,250,7,8.05546,KLVK 031953Z 25007KT 10SM CLR 34/12 A2992 RMK AO2 SLP127 T03440117 $,2024-08-03T19:53:00Z,34.4,11.7,10+,29.92
KLVJ,29.5192,-95.2423,VRB,3,3.4523399999999995,KLVJ 031953Z AUTO VRB03KT 10SM FEW050 36/23 A2994 RMK AO2 SLP136 T03560233,2024-08-03T19:53:00Z,35.6,23.3,10+,29.94
KLUK,39.106,-84.4161,340,8,9.20624,KLUK 031953Z 34008KT 10SM FEW043 SCT060 SCT080 32/21 A2989 RMK AO2 SLP116 T03170211,2024-08-03T19:53:00Z,31.7,21.1,10+,29.89
KLSE,43.8792,-91.253,300,7,8.05546,KLSE 031953Z 30007KT 10SM CLR 31/13 A2998 RMK AO2 SLP141 T03060133,2024-08-03T19:53:00Z,30.6,13.3,10+,29.98
KLPR,41.3463,-82.1788,340,7,8.05546,KLPR 031953Z AUTO 34007KT 10SM FEW024 28/22 A2990 RMK AO2 SLP119 T02830222,2024-08-03T19:53:00Z,28.3,22.2,10+,29.90
KLOZ,37.0896,-84.0688,350,9,10.357019999999999,KLOZ 031953Z AUTO 35009G18KT 4SM RA SCT034 BKN048 OVC080 24/21 A2994 RMK AO2 LTG DSNT E AND W RAB44 SLP125 P0003 T02390211,2024-08-03T19:53:00Z,23.9,21.1,4,29.94
KLOU,38.2302,-85.6629,VRB,4,4.60312,KLOU 031953Z VRB04KT 10SM FEW040 31/22 A2991 RMK AO2 SLP124 T03060217,2024-08-03T19:53:00Z,30.6,21.7,10+,29.91
KLOL,40.0685,-118.57,180,12,13.809359999999998,KLOL 031953Z AUTO 18012G20KT 10SM CLR 36/07 A3005 RMK AO2 SLP116 T03610067,2024-08-03T19:53:00Z,36.1,6.7,10+,30.05
KLNS,40.1206,-76.2944,VRB,4,4.60312,KLNS 031953Z COR VRB04KT 10SM TS SCT040 BKN050 BKN065 31/23 A2981 RMK AO2 TS W MOV E LTG DSNT SW-N TSB52 SLP088 T03060228,2024-08-03T19:53:00Z,30.6,22.8,10+,29.81
KLND,42.8154,-108.726,0,0,0.0,KLND 031953Z AUTO 00000KT 10SM CLR 35/01 A3019 RMK AO2 SLP133 T03500006,2024-08-03T19:53:00Z,35,0.6,10+,30.19
KLMT,42.147,-121.726,230,7,8.05546,KLMT 031953Z 23007KT 10SM CLR 29/11 A3015 RMK AO2 SLP155 T02890106,2024-08-03T19:53:00Z,28.9,10.6,10+,30.15
KLLQ,33.636,-91.7555,VRB,5,5.7539,KLLQ 031953Z AUTO VRB05KT 10SM CLR 34/21 A2994 RMK AO2 SLP135 T03440211,2024-08-03T19:53:00Z,34.4,21.1,10+,29.94
KLKV,42.1538,-120.403,80,4,4.60312,KLKV 031953Z AUTO 08004KT 10SM CLR 31/10 A3017 RMK AO2 SLP164 T03110100,2024-08-03T19:53:00Z,31.1,10,10+,30.17
KLIT,34.7273,-92.2358,100,7,8.05546,KLIT 031953Z 10007G14KT 10SM FEW041 34/20 A2997 RMK AO2 SLP149 T03440200,2024-08-03T19:53:00Z,34.4,20,10+,29.97
KLHX,38.0495,-103.513,90,9,10.357019999999999,KLHX 031953Z AUTO 09009G17KT 10SM CLR 33/13 A3018 RMK AO2 SLP148 T03280133,2024-08-03T19:53:00Z,32.8,13.3,10+,30.18
KLGB,33.8118,-118.147,170,8,9.20624,KLGB 031953Z 17008KT 10SM CLR 30/16 A2992 RMK AO2 SLP130 T03000156,2024-08-03T19:53:00Z,30,15.6,10+,29.92
KLFT,30.1986,-91.9896,350,8,9.20624,KLFT 031953Z 35008G14KT 10SM FEW049 37/23 A2990 RMK AO2 LTG DSNT SE-SW SLP123 T03720233,2024-08-03T19:53:00Z,37.2,23.3,10+,29.90
KLFK,31.2359,-94.7546,270,5,5.7539,KLFK 031953Z AUTO 27005KT 10SM CLR 36/25 A2992 RMK AO2 SLP128 T03560250,2024-08-03T19:53:00Z,35.6,25,10+,29.92
KLEE,28.8214,-81.8006,0,0,0.0,KLEE 031953Z 00000KT 10SM FEW029 SCT100 29/24 A2998 RMK AO2 LTG DSNT W AND NW SLP152 T02890244,2024-08-03T19:53:00Z,28.9,24.4,10+,29.98
KLEB,43.6271,-72.3054,220,5,5.7539,KLEB 031953Z 22005KT 10SM SCT080 30/21 A2979 RMK AO2 SLP075 T03000211,2024-08-03T19:53:00Z,30,21.1,10+,29.79
KLCH,30.1255,-93.2277,VRB,3,3.4523399999999995,KLCH 031953Z VRB03KT 10SM FEW055 SCT070 36/23 A2990 RMK AO2 SLP134 T03610233,2024-08-03T19:53:00Z,36.1,23.3,10+,29.90
KLBX,29.1154,-95.4632,30,3,3.4523399999999995,KLBX 031953Z AUTO 03003KT 10SM FEW048 SCT065 36/26 A2993 RMK AO2 SLP135 T03560261 $,2024-08-03T19:53:00Z,35.6,26.1,10+,29.93
KLBF,41.122,-100.669,VRB,3,3.4523399999999995,KLBF 031953Z AUTO VRB03KT 10SM CLR 35/16 A3008 RMK AO2 SLP152 T03500161 $,2024-08-03T19:53:00Z,35,16.1,10+,30.08
KLBB,33.6658,-101.823,110,11,12.658579999999999,KLBB 031953Z 11011G15KT 10SM FEW070 SCT250 36/15 A3014 RMK AO2 SLP141 T03610150,2024-08-03T19:53:00Z,36.1,15,10+,30.14
KLAX,33.9382,-118.387,270,11,12.658579999999999,KLAX 031953Z 27011KT 10SM FEW005 23/16 A2994 RMK AO2 SLP137 T02330156 $,2024-08-03T19:53:00Z,23.3,15.6,10+,29.94
KLAW,34.5577,-98.4172,20,7,8.05546,KLAW 031953Z 02007G19KT 10SM CLR 38/13 A3001 RMK AO2 SLP145 T03830133,2024-08-03T19:53:00Z,38.3,13.3,10+,30.01
KLAR,41.3165,-105.673,VRB,5,5.7539,KLAR 031953Z AUTO VRB05KT 10SM CLR 33/M02 A3039 RMK AO2 SLP149 T03281017,2024-08-03T19:53:00Z,32.8,-1.7,10+,30.39
KLAN,42.7761,-84.5997,300,10,11.5078,KLAN 031953Z 30010KT 10SM FEW050 30/19 A2992 RMK AO2 SLP127 T03000189,2024-08-03T19:53:00Z,30,18.9,10+,29.92
KLAA,38.0718,-102.687,100,6,6.904679999999999,KLAA 031953Z AUTO 10006KT 10SM CLR 34/14 A3013 RMK AO2 SLP144 T03390139,2024-08-03T19:53:00Z,33.9,13.9,10+,30.13
KJLN,37.1522,-94.4952,40,5,5.7539,KJLN 031953Z 04005KT 10SM FEW040 34/17 A3004 RMK AO2 SLP160 T03390167,2024-08-03T19:53:00Z,33.9,16.7,10+,30.04
KJKL,37.5913,-83.3137,320,4,4.60312,KJKL 031953Z AUTO 32004KT 4SM RA FEW023 SCT055 BKN070 23/20 A2994 RMK AO2 LTG DSNT S RAE03B47 SLP124 P0000 T02280200,2024-08-03T19:53:00Z,22.8,20,4,29.94
KJER,42.7274,-114.455,160,6,6.904679999999999,KJER 031953Z AUTO 16006KT 10SM CLR 34/09 A3005 RMK AO2 SLP120 T03440094 $,2024-08-03T19:53:00Z,34.4,9.4,10+,30.05
KJEF,38.5945,-92.1567,0,0,0.0,KJEF 031953Z 00000KT 10SM CLR 32/19 A3000 RMK AO2 SLP144 T03220194,2024-08-03T19:53:00Z,32.2,19.4,10+,30.00
KJBR,35.8357,-90.6442,,,,KJBR 031953Z AUTO 10SM BKN045 32/21 A2997 RMK AO2 SLP146 T03170211 $,2024-08-03T19:53:00Z,31.7,21.1,10+,29.97
KIXD,38.8221,-94.8902,0,0,0.0,KIXD 031953Z 00000KT 10SM CLR 33/18 A3005 RMK AO2 SLP164 T03280183,2024-08-03T19:53:00Z,32.8,18.3,10+,30.05
KIWI,43.9639,-69.7114,250,4,4.60312,KIWI 031953Z AUTO 25004KT 10SM SCT021 28/22 A2976 RMK AO2 SLP078 T02830222,2024-08-03T19:53:00Z,28.3,22.2,10+,29.76
KITR,39.2415,-102.282,130,8,9.20624,KITR 031953Z AUTO 13008KT 10SM CLR 31/ A3020 RMK AO2 SLP163 T0311 $,2024-08-03T19:53:00Z,31.1,,10+,30.20
KIPL,32.8346,-115.577,,,,KIPL 031953Z AUTO 10SM FEW100 FEW120 44/ A2977 RMK AO2 SLP083 T0439 PWINO $,2024-08-03T19:53:00Z,43.9,,10+,29.77
KIML,40.5106,-101.624,VRB,5,5.7539,KIML 031953Z AUTO VRB05KT 10SM CLR 34/13 A3012 RMK AO2 SLP159 T03440128,2024-08-03T19:53:00Z,34.4,12.8,10+,30.12
KILM,34.2668,-77.8999,200,15,17.261699999999998,KILM 031953Z 20015G25KT 10SM SCT038 32/24 A2996 RMK AO2 PK WND 20028/1925 SLP144 T03220239,2024-08-03T19:53:00Z,32.2,23.9,10+,29.96
KIDA,43.5204,-112.068,230,10,11.5078,KIDA 031953Z 23010KT 10SM CLR 35/07 A3013 RMK AO2 SLP146 T03500067,2024-08-03T19:53:00Z,35,6.7,10+,30.13
KICT,37.6475,-97.43,140,4,4.60312,KICT 031953Z 14004KT 10SM FEW095 SCT180 BKN240 33/17 A3006 RMK AO2 SLP162 T03330167,2024-08-03T19:53:00Z,33.3,16.7,10+,30.06
KICR,43.391,-99.8462,180,13,14.960139999999999,KICR 031953Z AUTO 18013KT 10SM CLR 37/15 A2996 RMK AO2 SLP119 T03720150,2024-08-03T19:53:00Z,37.2,15,10+,29.96
KIAH,29.9844,-95.3607,300,5,5.7539,KIAH 031953Z 30005KT 10SM SCT050 SCT250 36/21 A2992 RMK AO2 SLP131 T03610211,2024-08-03T19:53:00Z,36.1,21.1,10+,29.92
KIAG,43.1083,-78.9382,220,5,5.7539,KIAG 031953Z 22005KT 10SM CLR 24/20 A2985 RMK AO2 SLP103 T02440200,2024-08-03T19:53:00Z,24.4,20,10+,29.85
KHZY,41.7794,-80.6968,360,5,5.7539,KHZY 031953Z AUTO 36005KT 10SM FEW021 FEW120 27/21 A2988 RMK AO2 SLP112 T02670211 $,2024-08-03T19:53:00Z,26.7,21.1,10+,29.88
KHYR,46.0303,-91.4426,80,3,3.4523399999999995,KHYR 031953Z AUTO 08003KT 10SM CLR 28/15 A3001 RMK AO2 SLP161 T02780150,2024-08-03T19:53:00Z,27.8,15,10+,30.01
KHWO,25.9996,-80.2412,,,,KHWO 031953Z AUTO 10SM FEW028 SCT034 32/23 RMK AO2 LTG DSNT W SLPNO T03220233 $,2024-08-03T19:53:00Z,32.2,23.3,10+,
KHVR,48.5425,-109.764,100,14,16.11092,KHVR 031953Z AUTO 10014KT 10SM CLR 34/08 A2998 RMK AO2 SLP129 T03440083,2024-08-03T19:53:00Z,34.4,8.3,10+,29.98
KHVN,41.259,-72.8891,190,9,10.357019999999999,KHVN 031953Z 19009KT 10SM FEW055 33/24 A2979 RMK AO2 SLP086 T03280244,2024-08-03T19:53:00Z,32.8,24.4,10+,29.79
KHUL,46.1185,-67.7929,210,7,8.05546,KHUL 031953Z AUTO 21007KT 10SM FEW028 29/22 A2969 RMK AO2 SLP052 T02890217,2024-08-03T19:53:00Z,28.9,21.7,10+,29.69
KHUF,39.4429,-87.3221,20,5,5.7539,KHUF 031953Z 02005KT 10SM FEW044 FEW055 32/23 A2995 RMK AO2 SLP135 T03170228 $,2024-08-03T19:53:00Z,31.7,22.8,10+,29.95
KHTL,44.359,-84.6739,10,8,9.20624,KHTL 031953Z AUTO 01008KT 10SM CLR 29/15 A2995 RMK AO2 SLP136 T02940150,2024-08-03T19:53:00Z,29.4,15,10+,29.95
KHSV,34.6441,-86.7861,350,3,3.4523399999999995,KHSV 031953Z 35003KT 10SM SCT049 BKN070 31/22 A2993 RMK AO2 SLP127 T03110222 $,2024-08-03T19:53:00Z,31.1,22.2,10+,29.93
KHSI,40.6002,-98.4264,220,7,8.05546,KHSI 031953Z AUTO 22007KT 10SM CLR 33/20 A3007 RMK AO2 SLP161 T03330200,2024-08-03T19:53:00Z,33.3,20,10+,30.07
KHRO,36.2673,-93.1566,360,4,4.60312,KHRO 031953Z AUTO 36004KT 10SM CLR 31/19 A3006 RMK AO2 SLP161 T03060189 $,2024-08-03T19:53:00Z,30.6,18.9,10+,30.06
KHRI,45.8259,-119.261,260,9,10.357019999999999,KHRI 031953Z AUTO 26009KT 10SM CLR 33/13 A2991 RMK AO2 SLP121 T03330133,2024-08-03T19:53:00Z,33.3,13.3,10+,29.91
KHQM,46.9729,-123.931,220,7,8.05546,KHQM 031953Z AUTO 22007KT 10SM OVC016 17/15 A3010 RMK AO2 SLP196 T01720150,2024-08-03T19:53:00Z,17.2,15,10+,30.10
KHOU,29.6458,-95.2821,340,6,6.904679999999999,KHOU 031953Z 34006KT 10SM FEW055 SCT250 36/22 A2991 RMK AO2 SLP133 T03610222,2024-08-03T19:53:00Z,36.1,22.2,10+,29.91
KHOT,34.4755,-93.1041,VRB,5,5.7539,KHOT 031953Z AUTO VRB05KT 10SM BKN065 36/18 A2998 RMK AO2 SLP143 T03560183,2024-08-03T19:53:00Z,35.6,18.3,10+,29.98
KHLN,46.6045,-111.989,10,4,4.60312,KHLN 031953Z 01004KT 10SM CLR 33/12 A3004 RMK AO2 SLP139 T03330122,2024-08-03T19:53:00Z,33.3,12.2,10+,30.04
KHLG,40.1699,-80.6441,360,3,3.4523399999999995,KHLG 031953Z 36003KT 10SM BKN034 BKN046 OVC085 27/19 A2988 RMK AO2 RAB42E52 SLP110 P0000 T02670194,2024-08-03T19:53:00Z,26.7,19.4,10+,29.88
KHLC,39.3741,-99.8299,190,9,10.357019999999999,KHLC 031953Z AUTO 19009KT 10SM CLR 34/ A3010 RMK AO2 SLP164 T0344 $,2024-08-03T19:53:00Z,34.4,,10+,30.10
KHKY,35.742,-81.3822,230,8,9.20624,KHKY 031953Z 23008KT 10SM CLR 31/22 A2987 RMK AO2 SLP091 T03110222,2024-08-03T19:53:00Z,31.1,22.2,10+,29.87
KHKS,32.3376,-90.2214,10,6,6.904679999999999,KHKS 031953Z 01006KT 10SM FEW050 35/21 A2993 RMK AO2 SLP126 T03500211,2024-08-03T19:53:00Z,35,21.1,10+,29.93
KHKA,35.9378,-89.8332,120,4,4.60312,KHKA 031953Z AUTO 12004KT 10SM FEW043 SCT055 31/21 A2997 RMK AO2 SLP144 T03110206 $,2024-08-03T19:53:00Z,31.1,20.6,10+,29.97
KHJO,36.3114,-119.623,230,5,5.7539,KHJO 031953Z AUTO 23005KT 10SM CLR 37/16 A2992 RMK AO2 SLP130 T03670156,2024-08-03T19:53:00Z,36.7,15.6,10+,29.92
KHIO,45.5476,-122.956,350,4,4.60312,KHIO 031953Z 35004KT 10SM CLR 27/09 A3004 RMK AO2 SLP167 T02670094,2024-08-03T19:53:00Z,26.7,9.4,10+,30.04
KHIB,47.3804,-92.8325,110,8,9.20624,KHIB 031953Z AUTO 11008KT 10SM CLR 18/17 A2996 RMK AO2 LTG DSNT N AND SE AND S RAE38 TSB01E16 SLP148 P0001 T01830172,2024-08-03T19:53:00Z,18.3,17.2,10+,29.96
KHHR,33.9235,-118.333,260,9,10.357019999999999,KHHR 031953Z 26009KT 10SM CLR 26/15 A2993 RMK AO2 SLP135 T02610150 $,2024-08-03T19:53:00Z,26.1,15,10+,29.93
KHGR,39.7062,-77.7304,280,6,6.904679999999999,KHGR 031953Z 28006KT 10SM CLR 28/22 A2981 RMK AO2 LTG DSNT SE RAE30 TSB1859E14 SLP098 P0010 T02780222,2024-08-03T19:53:00Z,27.8,22.2,10+,29.81
KHFD,41.7352,-72.6512,230,6,6.904679999999999,KHFD 031953Z 23006KT 10SM SCT055 32/21 A2978 RMK AO2 SLP083 T03220211,2024-08-03T19:53:00Z,32.2,21.1,10+,29.78
KHEI,46.0108,-102.652,360,13,14.960139999999999,KHEI 031953Z AUTO 36013G21KT 10SM CLR 34/11 A3007 RMK AO2 SLP154 T03390111,2024-08-03T19:53:00Z,33.9,11.1,10+,30.07
KHBR,34.9891,-99.0528,,,,KHBR 031953Z AUTO 10SM CLR 37/15 A3004 RMK AO2 SLP150 T03720150,2024-08-03T19:53:00Z,37.2,15,10+,30.04
KHBG,31.2648,-89.2561,180,4,4.60312,KHBG 031953Z AUTO 18004KT 10SM FEW055 34/25 A2989 RMK AO2 PRESFR SLP117 T03440250,2024-08-03T19:53:00Z,34.4,25,10+,29.89
KHAO,39.3612,-84.5206,340,11,12.658579999999999,KHAO 031953Z AUTO 34011KT 10SM FEW041 FEW055 31/21 A2991 RMK AO2 SLP122 T03060211,2024-08-03T19:53:00Z,30.6,21.1,10+,29.91
KGZH,31.4191,-87.0484,340,4,4.60312,KGZH 031953Z AUTO 34004KT 10SM FEW055 FEW075 SCT090 35/23 A2988 RMK AO2 LTG DSNT SE AND S SLP114 T03500233,2024-08-03T19:53:00Z,35,23.3,10+,29.88
KGWO,33.4961,-90.0894,350,7,8.05546,KGWO 031953Z AUTO 35007KT 10SM 34/21 A2993 RMK AO2 SLP132 T03390211 $,2024-08-03T19:53:00Z,33.9,21.1,10+,29.93
KGVL,34.2721,-83.8305,290,10,11.5078,KGVL 031953Z AUTO 29010G17KT 10SM CLR 31/19 A2994 RMK AO2 SLP122 T03110189,2024-08-03T19:53:00Z,31.1,18.9,10+,29.94
KGUP,35.5086,-108.793,260,10,11.5078,KGUP 031953Z AUTO 26010G18KT 10SM CLR 33/05 A3032 RMK AO2 SLP066 T03280050,2024-08-03T19:53:00Z,32.8,5,10+,30.32
KGTF,47.4733,-111.383,50,8,9.20624,KGTF 031953Z 05008KT 10SM CLR 36/09 A3001 RMK AO2 SLP117 T03610094,2024-08-03T19:53:00Z,36.1,9.4,10+,30.01
KGSP,34.8842,-82.2209,230,13,14.960139999999999,KGSP 031953Z 23013G20KT 10SM FEW055 SCT070 33/19 A2988 RMK AO2 SLP105 T03280194,2024-08-03T19:53:00Z,32.8,19.4,10+,29.88
KGSH,41.5265,-85.7872,70,4,4.60312,KGSH 031953Z AUTO 07004KT 10SM FEW055 29/19 A2993 RMK AO2 SLP131 T02940194,2024-08-03T19:53:00Z,29.4,19.4,10+,29.93
KGRR,42.8821,-85.523,330,12,13.809359999999998,KGRR 031953Z 33012KT 10SM SCT050 SCT250 31/18 A2993 RMK AO2 SLP129 T03110178,2024-08-03T19:53:00Z,31.1,17.8,10+,29.93
KGRI,40.9615,-98.313,200,12,13.809359999999998,KGRI 031953Z 20012G20KT 10SM CLR 34/19 A3006 RMK AO2 SLP164 T03390194 $,2024-08-03T19:53:00Z,33.9,19.4,10+,30.06
KGRB,44.4796,-88.137,VRB,3,3.4523399999999995,KGRB 031953Z AUTO VRB03KT 10SM CLR 30/16 A2997 RMK AO2 SLP145 T03000161,2024-08-03T19:53:00Z,30,16.1,10+,29.97
KGPT,30.4121,-89.0809,VRB,4,4.60312,KGPT 031953Z VRB04KT 10SM CLR 34/21 A2989 RMK AO2 WSHFT 1851 LTG DSNT NE AND E TSB14E34 SLP119 T03390211,2024-08-03T19:53:00Z,33.9,21.1,10+,29.89
KGOK,35.8517,-97.4142,50,7,8.05546,KGOK 031953Z AUTO 05007G15KT 360V070 10SM CLR 36/15 A3002 RMK AO2 SLP154 T03560150 $,2024-08-03T19:53:00Z,35.6,15,10+,30.02
KGNV,29.6917,-82.276,100,3,3.4523399999999995,KGNV 031953Z 10003KT 10SM SCT055 BKN075 BKN095 25/23 A3001 RMK AO2 PK WND 15031/1905 LTG DSNT N AND S AND SW RAB26E48 TSB14E29 SLP158 P0003 T02500233,2024-08-03T19:53:00Z,25,23.3,10+,30.01
KGMU,34.8487,-82.3501,230,12,13.809359999999998,KGMU 031953Z 23012KT 10SM SCT050 BKN070 32/19 A2989 RMK AO2 SLP109 T03170194 $,2024-08-03T19:53:00Z,31.7,19.4,10+,29.89
KGLR,45.0166,-84.6894,330,8,9.20624,KGLR 031953Z AUTO 33008G14KT 8SM CLR 28/12 A2997 RMK AO2 SLP141 T02830122,2024-08-03T19:53:00Z,28.3,12.2,8,29.97
KGLH,33.4772,-90.9847,10,9,10.357019999999999,KGLH 031953Z 01009KT 10SM CLR 33/23 A2993 RMK AO2 SLP139 T03330233,2024-08-03T19:53:00Z,33.3,23.3,10+,29.93
KGLD,39.3673,-101.693,,,,KGLD 031953Z AUTO 10SM CLR 32/13 A3016 RMK AO2 SLP162 T03220128,2024-08-03T19:53:00Z,32.2,12.8,10+,30.16
KGKY,32.6583,-97.0951,20,3,3.4523399999999995,KGKY 031953Z 02003G15KT 10SM CLR 37/14 A2995 RMK AO2 SLP131 T03720139,2024-08-03T19:53:00Z,37.2,13.9,10+,29.95
KGKJ,41.6258,-80.2123,260,3,3.4523399999999995,KGKJ 031953Z AUTO 26003KT 10SM SCT029 BKN041 BKN050 23/22 A2989 RMK AO2 RAE24 SLP114 P0000 T02330217,2024-08-03T19:53:00Z,23.3,21.7,10+,29.89
KGJT,39.1344,-108.541,250,9,10.357019999999999,KGJT 031953Z 25009KT 10SM CLR 37/08 A3015 RMK AO2 LTG DSNT S AND SW SLP120 T03670078,2024-08-03T19:53:00Z,36.7,7.8,10+,30.15
KGIF,28.0614,-81.7568,80,7,8.05546,KGIF 031953Z AUTO 08007KT 10SM CLR 27/24 A2997 RMK AO2 RAB02E32 SLP147 P0001 T02720244,2024-08-03T19:53:00Z,27.2,24.4,10+,29.97
KGGW,48.2142,-106.621,100,9,10.357019999999999,KGGW 031953Z AUTO 10009KT 10SM CLR 32/07 A3006 RMK AO2 SLP163 T03170067,2024-08-03T19:53:00Z,31.7,6.7,10+,30.06
KGGG,32.3909,-94.714,VRB,3,3.4523399999999995,KGGG 031953Z VRB03KT 10SM CLR 35/21 A2993 RMK AO2 SLP125 T03500206,2024-08-03T19:53:00Z,35,20.6,10+,29.93
KGFL,43.3385,-73.6102,160,5,5.7539,KGFL 031953Z AUTO 16005KT 10SM CLR 28/22 A2979 RMK AO2 SLP084 T02830222,2024-08-03T19:53:00Z,28.3,22.2,10+,29.79
KGFK,47.9428,-97.1829,360,17,19.56326,KGFK 031953Z 36017KT 10SM BKN029 BKN120 26/19 A2991 RMK AO2 LTG DSNT E RAB09E22 SLP126 P0004 T02610189 $,2024-08-03T19:53:00Z,26.1,18.9,10+,29.91
KGEZ,39.5854,-85.7998,340,8,9.20624,KGEZ 031953Z AUTO 34008KT 10SM CLR 32/21 A2993 RMK AO2 SLP126 T03170206,2024-08-03T19:53:00Z,31.7,20.6,10+,29.93
KGEY,44.5173,-108.075,120,6,6.904679999999999,KGEY 031953Z AUTO 12006KT 10SM CLR 36/04 A3008 RMK AO2 SLP138 T03560039,2024-08-03T19:53:00Z,35.6,3.9,10+,30.08
KGEG,47.6217,-117.528,200,11,12.658579999999999,KGEG 031953Z 20011KT 6SM HZ FEW110 SCT140 BKN190 OVC250 30/14 A3000 RMK AO2 SLP134 VIRGA T03000139,2024-08-03T19:53:00Z,30,13.9,6,30.00
KGCC,44.3398,-105.542,VRB,4,4.60312,KGCC 031953Z AUTO VRB04G15KT 10SM CLR 34/06 A3017 RMK AO2 SLP159 T03440056,2024-08-03T19:53:00Z,34.4,5.6,10+,30.17
KGAG,36.2966,-99.7686,140,5,5.7539,KGAG 031953Z AUTO 14005KT 10SM CLR 36/13 A3008 RMK AO2 LTG DSNT NW SLP156 T03560133,2024-08-03T19:53:00Z,35.6,13.3,10+,30.08
KFYV,36.0103,-94.1624,VRB,3,3.4523399999999995,KFYV 031953Z VRB03KT 10SM FEW060 33/18 A3004 RMK AO2 SLP157 T03280178,2024-08-03T19:53:00Z,32.8,17.8,10+,30.04
KFXE,26.199,-80.1776,110,16,18.41248,KFXE 031953Z 11016G26KT 10SM FEW029 32/25 A2991 RMK AO2 PK WND 12027/1902 SLP131 T03170250,2024-08-03T19:53:00Z,31.7,25,10+,29.91
KFVE,47.2852,-68.3072,320,8,9.20624,KFVE 031953Z AUTO 32008KT 10SM TS CLR 28/21 A2968 RMK AO2 LTG DSNT SW RAB15E43 TSB32E51B53 SLP043 P0005 T02830211,2024-08-03T19:53:00Z,28.3,21.1,10+,29.68
KFUL,33.8715,-117.986,0,0,0.0,KFUL 031953Z 00000KT 10SM CLR 33/15 A2990 RMK AO2 SLP125 T03280150,2024-08-03T19:53:00Z,32.8,15,10+,29.90
KFTY,33.7776,-84.5247,330,6,6.904679999999999,KFTY 031953Z 33006KT 10SM SCT047 32/20 A2991 RMK AO2 SLP117 T03170200,2024-08-03T19:53:00Z,31.7,20,10+,29.91
KFTW,32.8248,-97.364,VRB,4,4.60312,KFTW 031953Z VRB04G14KT 10SM CLR 38/15 A2995 RMK AO2 SLP128 T03830150,2024-08-03T19:53:00Z,38.3,15,10+,29.95
KFST,30.9119,-102.917,120,9,10.357019999999999,KFST 031953Z AUTO 12009KT 10SM CLR 38/09 A3007 RMK AO2 SLP126 T03780094,2024-08-03T19:53:00Z,37.8,9.4,10+,30.07
KFSM,35.3335,-94.3653,110,5,5.7539,KFSM 031953Z 11005KT 10SM CLR 34/19 A2998 RMK AO2 SLP145 T03440194,2024-08-03T19:53:00Z,34.4,19.4,10+,29.98
KFRG,40.7344,-73.4164,190,14,16.11092,KFRG 031953Z 19014G19KT 10SM CLR 30/24 A2981 RMK AO2 LTG DSNT NW SLP092 T03000239,2024-08-03T19:53:00Z,30,23.9,10+,29.81
KFPR,27.4981,-80.3763,110,8,9.20624,KFPR 031953Z 11008KT 10SM VCTS CLR 29/24 A2995 RMK AO2 RAE07 SLP142 P0000 T02940244,2024-08-03T19:53:00Z,29.4,24.4,10+,29.95
KFOK,40.8506,-72.6193,210,10,11.5078,KFOK 031953Z 21010KT 10SM CLR 28/23 A2983 RMK AO2 SLP101 T02780233 $,2024-08-03T19:53:00Z,27.8,23.3,10+,29.83
KFOE,38.9414,-95.6513,190,3,3.4523399999999995,KFOE 031953Z 19003KT 10SM CLR 33/15 A3005 RMK AO2 SLP163 T03330150 $,2024-08-03T19:53:00Z,33.3,15,10+,30.05
KFNT,42.9669,-83.75,310,9,10.357019999999999,KFNT 031953Z 31009G15KT 10SM CLR 31/16 A2991 RMK AO2 SLP122 T03110161,2024-08-03T19:53:00Z,31.1,16.1,10+,29.91
KFNB,40.0791,-95.5893,220,4,4.60312,KFNB 031953Z AUTO 22004KT 10SM CLR 33/19 A3003 RMK AO2 SLP158 T03330194,2024-08-03T19:53:00Z,33.3,19.4,10+,30.03
KFMY,26.584,-81.8615,160,7,8.05546,KFMY 031953Z AUTO 16007KT 10SM BKN043 BKN100 28/24 A2990 RMK AO2 PK WND 13027/1918 LTG DSNT N AND NE AND S RAB20E39 SLP127 P0000 T02780239 $,2024-08-03T19:53:00Z,27.8,23.9,10+,29.90
KFMN,36.7435,-108.229,280,7,8.05546,KFMN 031953Z 28007KT 10SM CLR 33/07 A3024 RMK AO2 SLP161 T03280067,2024-08-03T19:53:00Z,32.8,6.7,10+,30.24
KFLO,34.1877,-79.7308,180,17,19.56326,KFLO 031953Z 18017G25KT 10SM FEW049 33/24 A2990 RMK AO2 LTG DSNT S SLP122 T03330244,2024-08-03T19:53:00Z,33.3,24.4,10+,29.90
KFLL,26.0787,-80.1622,120,18,20.714039999999997,KFLL 031953Z 12018KT 10SM FEW027 SCT045 SCT180 BKN250 31/24 A2991 RMK AO2 PK WND 12029/1927 SLP125 T03060244,2024-08-03T19:53:00Z,30.6,24.4,10+,29.91
KFLD,43.7695,-88.4907,10,8,9.20624,KFLD 031953Z AUTO 01008KT 10SM CLR 29/16 A2998 RMK AO2 SLP148 T02940156,2024-08-03T19:53:00Z,29.4,15.6,10+,29.98
KFHR,48.52,-123.026,120,6,6.904679999999999,KFHR 031953Z AUTO 12006KT 10SM CLR 20/12 A3007 RMK AO2 SLP183 T02000122,2024-08-03T19:53:00Z,20,12.2,10+,30.07
KFFT,38.1846,-84.9039,320,9,10.357019999999999,KFFT 031953Z AUTO 32009KT 10SM SCT037 30/21 A2992 RMK AO2 SLP121 T03000211,2024-08-03T19:53:00Z,30,21.1,10+,29.92
KFFC,33.3543,-84.5689,310,3,3.4523399999999995,KFFC 031953Z AUTO 31003KT 10SM SCT046 BKN070 BKN095 31/21 A2992 RMK AO2 SLP123 T03110206,2024-08-03T19:53:00Z,31.1,20.6,10+,29.92
KFDY,41.0137,-83.6681,10,7,8.05546,KFDY 031953Z AUTO 01007KT 320V060 10SM FEW046 32/19 A2990 RMK AO2 SLP114 T03220194,2024-08-03T19:53:00Z,32.2,19.4,10+,29.90
KFDR,34.3531,-98.9876,310,6,6.904679999999999,KFDR 031953Z AUTO 31006KT 10SM CLR 38/15 A2999 RMK AO2 SLP135 T03780150,2024-08-03T19:53:00Z,37.8,15,10+,29.99
KFCM,44.8321,-93.4705,180,12,13.809359999999998,KFCM 031953Z 18012G17KT 10SM CLR 30/17 A2995 RMK AO2 SLP137 T03000172,2024-08-03T19:53:00Z,30,17.2,10+,29.95
KFAY,34.9895,-78.8801,160,19,21.864819999999998,KFAY 031953Z 16019G27KT 10SM CLR 33/23 A2988 RMK AO2 PK WND 16027/1953 WSHFT 1840 LTG DSNT N AND NW SLP112 T03280228,2024-08-03T19:53:00Z,32.8,22.8,10+,29.88
KFAT,36.78,-119.72,200,4,4.60312,KFAT 031953Z 20004KT 10SM FEW120 FEW200 36/13 A2991 RMK AO2 SLP125 T03610128,2024-08-03T19:53:00Z,36.1,12.8,10+,29.91
KFAR,46.9242,-96.8119,320,15,17.261699999999998,KFAR 031953Z 32015G20KT 10SM SCT043 32/22 A2985 RMK AO2 SLP101 T03220222,2024-08-03T19:53:00Z,32.2,22.2,10+,29.85
KEYW,24.5571,-81.7554,130,20,23.0156,KEYW 031953Z 13020G30KT 10SM FEW018 SCT038 BKN049 28/25 A2980 RMK AO2 PK WND 14034/1901 RAE33 SLP096 P0031 T02830250 $,2024-08-03T19:53:00Z,28.3,25,10+,29.80
KEYE,39.8248,-86.2958,340,7,8.05546,KEYE 031953Z AUTO 34007KT 10SM FEW044 31/20 A2993 RMK AO2 SLP128 T03110200,2024-08-03T19:53:00Z,31.1,20,10+,29.93
KEWB,41.6791,-70.9591,230,13,14.960139999999999,KEWB 031953Z 23013G22KT 10SM CLR 31/23 A2979 RMK AO2 SLP087 T03110233,2024-08-03T19:53:00Z,31.1,23.3,10+,29.79
KEVW,41.2727,-111.031,230,14,16.11092,KEVW 031953Z AUTO 23014G24KT 10SM CLR 34/03 A3034 RMK AO2 SLP146 T03390028,2024-08-03T19:53:00Z,33.9,2.8,10+,30.34
KESF,31.3963,-92.2828,300,7,8.05546,KESF 031953Z AUTO 30007KT 10SM SCT060 32/26 A2991 RMK AO2 SLP125 T03220256,2024-08-03T19:53:00Z,32.2,25.6,10+,29.91
KEQY,35.0147,-80.6242,200,5,5.7539,KEQY 031953Z AUTO 20005KT 10SM FEW044 FEW055 SCT095 26/24 A2991 RMK AO2 LTG DSNT ALQDS RAE13 TSE17 SLP126 P0006 T02610239,2024-08-03T19:53:00Z,26.1,23.9,10+,29.91
KEPH,47.3078,-119.516,170,12,13.809359999999998,KEPH 031953Z AUTO 17012KT 10SM CLR 34/15 A2991 RMK AO2 SLP114 T03390150,2024-08-03T19:53:00Z,33.9,15,10+,29.91
KENW,42.5953,-87.9383,70,9,10.357019999999999,KENW 031953Z 07009KT 10SM CLR 29/19 A2997 RMK AO2 SLP143 T02940189 $,2024-08-03T19:53:00Z,29.4,18.9,10+,29.97
KEMP,38.3291,-96.1945,280,5,5.7539,KEMP 031953Z AUTO 28005KT 10SM CLR 34/13 A3006 RMK AO2 SLP167 T03390128,2024-08-03T19:53:00Z,33.9,12.8,10+,30.06
KELY,39.2954,-114.847,0,0,0.0,KELY 031953Z AUTO 00000KT 10SM FEW110 31/08 A3026 RMK AO2 LTG DSNT NE SLP124 T03110083,2024-08-03T19:53:00Z,31.1,8.3,10+,30.26
KELN,47.0338,-120.531,310,16,18.41248,KELN 031953Z AUTO 31016KT 10SM CLR 36/09 A2994 RMK AO2 SLP119 T03610094,2024-08-03T19:53:00Z,36.1,9.4,10+,29.94
KELM,42.1601,-76.89,270,4,4.60312,KELM 031953Z 27004KT 10SM -RA FEW019 BKN037 OVC049 25/22 A2986 RMK AO2 LTG DSNT SE SLP102 P0009 T02500222,2024-08-03T19:53:00Z,25,22.2,10+,29.86
KELD,33.2207,-92.814,320,4,4.60312,KELD 031953Z AUTO 32004KT 10SM CLR 34/21 A2994 RMK AO2 SLP135 T03440211,2024-08-03T19:53:00Z,34.4,21.1,10+,29.94
KEET,33.1783,-86.7818,330,4,4.60312,KEET 031953Z AUTO 33004KT 10SM SCT050 30/21 A2991 RMK AO2 SLP121 T03000211,2024-08-03T19:53:00Z,30,21.1,10+,29.91
KEEO,40.0444,-107.888,,,,KEEO 031953Z AUTO 10SM CLR 33/M02 A3029 RMK AO2 SLP155 T03331017,2024-08-03T19:53:00Z,33.3,-1.7,10+,30.29
KECP,30.3487,-85.7884,160,8,9.20624,KECP 031953Z 16008KT 10SM FEW029 32/26 A2990 RMK AO1 LTG DSNT E SLP134 T03220256 $,2024-08-03T19:53:00Z,32.2,25.6,10+,29.90
KDWH,30.068,-95.5563,VRB,3,3.4523399999999995,KDWH 031953Z VRB03KT 10SM FEW045 36/23 A2993 RMK AO2 SLP131 T03560233,2024-08-03T19:53:00Z,35.6,23.3,10+,29.93
KDVT,33.6902,-112.066,190,4,4.60312,KDVT 031953Z 19004KT 10SM CLR 42/16 A2989 RMK AO2 LTG DSNT N SLP090 T04170156,2024-08-03T19:53:00Z,41.7,15.6,10+,29.89
KDTW,42.2311,-83.3312,320,9,10.357019999999999,KDTW 031953Z 32009G18KT 10SM BKN055 32/18 A2990 RMK AO2 SLP118 T03220183,2024-08-03T19:53:00Z,32.2,18.3,10+,29.90
KDTS,30.3933,-86.4674,170,5,5.7539,KDTS 031953Z 17005KT 10SM CLR 32/24 A2990 RMK AO2 SLP123 T03220244,2024-08-03T19:53:00Z,32.2,24.4,10+,29.90
KDTO,33.2088,-97.1992,70,8,9.20624,KDTO 031953Z 07008G14KT 10SM CLR 37/15 A2997 RMK AO2 SLP138 T03670150,2024-08-03T19:53:00Z,36.7,15,10+,29.97
KDTN,32.5429,-93.745,60,7,8.05546,KDTN 031953Z 06007KT 10SM SCT060 36/21 A2992 RMK AO2 SLP130 T03560211,2024-08-03T19:53:00Z,35.6,21.1,10+,29.92
KDRT,29.3784,-100.927,100,7,8.05546,KDRT 031953Z AUTO 10007G18KT 060V160 10SM FEW080 40/17 A2995 RMK AO2 SLP126 T04000167 $,2024-08-03T19:53:00Z,40,16.7,10+,29.95
KDRO,37.1431,-107.76,270,7,8.05546,KDRO 031953Z AUTO 27007G15KT 10SM CLR 32/08 A3032 RMK AO2 SLP162 T03170078,2024-08-03T19:53:00Z,31.7,7.8,10+,30.32
KDRA,36.621,-116.029,210,14,16.11092,KDRA 031953Z AUTO 21014G30KT 10SM CLR 38/11 A3003 RMK AO2 PK WND 22030/1947 SLP109 T03830106,2024-08-03T19:53:00Z,38.3,10.6,10+,30.03
KDNL,33.4668,-82.0385,0,0,0.0,KDNL 031953Z AUTO 00000KT 10SM -TSRA FEW007 24/21 A2993 RMK AO2 PK WND 30031/1920 LTG DSNT ALQDS RAB18 TSE02B10 SLP128 P0025 T02390206 $,2024-08-03T19:53:00Z,23.9,20.6,10+,29.93
KDMO,38.712,-93.1747,330,6,6.904679999999999,KDMO 031953Z AUTO 33006KT 10SM CLR 31/21 A3005 RMK AO2 SLP164 T03110211,2024-08-03T19:53:00Z,31.1,21.1,10+,30.05
KDMN,32.2592,-107.721,180,9,10.357019999999999,KDMN 031953Z AUTO 18009G14KT 10SM CLR 37/08 A3017 RMK AO2 SLP123 T03670083,2024-08-03T19:53:00Z,36.7,8.3,10+,30.17
KDMH,39.281,-76.611,,,,KDMH 031953Z AUTO 36/22 A2977 RMK AO1 SLP082 T03560222,2024-08-03T19:53:00Z,35.6,22.2,,29.77
KDLS,45.619,-121.166,300,13,14.960139999999999,KDLS 031953Z AUTO 30013G20KT 10SM FEW090 FEW120 29/13 A2991 RMK AO2 SLP127 T02890133 $,2024-08-03T19:53:00Z,28.9,13.3,10+,29.91
KDLN,45.2584,-112.555,40,7,8.05546,KDLN 031953Z AUTO 04007KT 10SM CLR 30/02 A3015 RMK AO2 SLP143 T03000022,2024-08-03T19:53:00Z,30,2.2,10+,30.15
KDKK,42.4932,-79.2762,320,7,8.05546,KDKK 031953Z AUTO 32007KT 10SM FEW017 27/22 A2987 RMK AO2 RAE03 SLP111 P0000 T02720217 $,2024-08-03T19:53:00Z,27.2,21.7,10+,29.87
KDHT,36.0252,-102.549,190,12,13.809359999999998,KDHT 031953Z AUTO 19012G19KT 10SM CLR 34/14 A3017 RMK AO2 SLP147 T03440139,2024-08-03T19:53:00Z,34.4,13.9,10+,30.17
KDHN,31.3177,-85.4432,200,8,9.20624,KDHN 031953Z 20008KT 10SM FEW041 33/24 A2994 RMK AO2 LTG DSNT W AND NW SLP131 T03330239 $,2024-08-03T19:53:00Z,33.3,23.9,10+,29.94
KDGW,42.796,-105.38,VRB,3,3.4523399999999995,KDGW 031953Z AUTO VRB03KT 10SM CLR 36/02 A3017 RMK AO2 SLP140 T03610022,2024-08-03T19:53:00Z,36.1,2.2,10+,30.17
KDFW,32.8974,-97.0219,0,0,0.0,KDFW 031953Z 00000KT 10SM FEW060 FEW250 36/17 A2995 RMK AO2 SLP130 T03610172,2024-08-03T19:53:00Z,36.1,17.2,10+,29.95
KDFI,41.3357,-84.4285,0,0,0.0,KDFI 031953Z AUTO 00000KT 10SM CLR 31/19 A2991 RMK AO2 SLP124 T03110194,2024-08-03T19:53:00Z,31.1,19.4,10+,29.91
KDEW,47.9742,-117.429,190,3,3.4523399999999995,KDEW 031953Z AUTO 19003KT 10SM CLR 29/14 A2999 RMK AO2 SLP140 T02940144,2024-08-03T19:53:00Z,29.4,14.4,10+,29.99
KDET,42.4072,-83.009,330,9,10.357019999999999,KDET 031953Z 33009KT 10SM CLR 33/14 A2989 RMK AO2 SLP116 T03280144,2024-08-03T19:53:00Z,32.8,14.4,10+,29.89
KDEQ,34.048,-94.4016,120,8,9.20624,KDEQ 031953Z AUTO 12008KT 10SM FEW070 35/20 A2994 RMK AO2 SLP132 T03500200,2024-08-03T19:53:00Z,35,20,10+,29.94
KDEN,39.8466,-104.656,30,9,10.357019999999999,KDEN 031953Z 03009KT 10SM FEW110 FEW220 34/06 A3026 RMK AO2 SLP150 T03390061,2024-08-03T19:53:00Z,33.9,6.1,10+,30.26
KDCU,34.658,-86.9434,260,3,3.4523399999999995,KDCU 031953Z AUTO 26003KT 10SM SCT043 SCT055 BKN070 31/21 A2994 RMK AO2 SLP130 T03060206,2024-08-03T19:53:00Z,30.6,20.6,10+,29.94
KDBQ,42.3984,-90.7092,,,,KDBQ 031953Z 10SM CLR 31/16 A2999 RMK AO2 SLP148 T03110161,2024-08-03T19:53:00Z,31.1,16.1,10+,29.99
KDAN,36.5729,-79.335,,,,KDAN 031953Z AUTO 10SM FEW032 29/22 A2984 RMK AO2 LTG DSNT SW SLP093 T02940222,2024-08-03T19:53:00Z,29.4,22.2,10+,29.84
KDAL,32.8384,-96.8358,90,5,5.7539,KDAL 031953Z 09005KT 10SM FEW060 FEW120 FEW250 38/16 A2994 RMK AO2 SLP131 T03780156,2024-08-03T19:53:00Z,37.8,15.6,10+,29.94
KDAB,29.1735,-81.0719,160,8,9.20624,KDAB 031953Z COR 16008KT 10SM TS SCT042CB SCT080 BKN100 29/24 A2998 RMK AO2 LTG DSNT S AND NW OCNL LTGCG S NW TS S NW MOV N SLP151 T02940239,2024-08-03T19:53:00Z,29.4,23.9,10+,29.98
KCYS,41.1579,-104.808,100,8,9.20624,KCYS 031953Z 10008KT 10SM CLR 34/01 A3030 RMK AO2 SLP157 T03390011,2024-08-03T19:53:00Z,33.9,1.1,10+,30.30
KCXO,30.3611,-95.4176,0,0,0.0,KCXO 031953Z 00000KT 10SM FEW041 34/25 A2994 RMK AO2 SLP135 T03440250,2024-08-03T19:53:00Z,34.4,25,10+,29.94
KCUT,43.7331,-103.615,70,8,9.20624,KCUT 031953Z AUTO 07008G15KT 10SM CLR 34/04 A3025 RMK AO2 SLP155 T03390044,2024-08-03T19:53:00Z,33.9,4.4,10+,30.25
KCUB,33.972,-80.9939,20,5,5.7539,KCUB 031953Z AUTO 02005KT 10SM VCTS FEW055 BKN070 29/23 A2990 RMK AO2 LTG DSNT NW-NE RAE1855 TSB14E38 SLP122 P0000 T02890228,2024-08-03T19:53:00Z,28.9,22.8,10+,29.90
KCSM,35.3568,-99.2041,,,,KCSM 031953Z AUTO 10SM CLR 37/14 A3006 RMK AO2 SLP151 T03670139,2024-08-03T19:53:00Z,36.7,13.9,10+,30.06
KCRS,32.0316,-96.3994,340,6,6.904679999999999,KCRS 031953Z AUTO 34006KT 10SM CLR 37/20 A2996 RMK AO2 SLP138 T03670200,2024-08-03T19:53:00Z,36.7,20,10+,29.96
KCRQ,33.1299,-117.277,280,5,5.7539,KCRQ 031953Z AUTO 28005KT 10SM CLR 25/17 A2993 RMK AO2 SLP130 T02500167,2024-08-03T19:53:00Z,25,16.7,10+,29.93
KCRG,30.3371,-81.5128,150,14,16.11092,KCRG 031953Z 15014G22KT 10SM TS FEW035 32/25 A2995 RMK AO2 TSE1855B1856 SLP142 T03220250,2024-08-03T19:53:00Z,32.2,25,10+,29.95
KCRE,33.8162,-78.7204,210,14,16.11092,KCRE 031953Z 21014KT 10SM CLR 29/26 A2995 RMK AO1 RAE28 SLP142 P0000 T02940261,2024-08-03T19:53:00Z,29.4,26.1,10+,29.95
KCQC,35.003,-105.663,180,7,8.05546,KCQC 031953Z AUTO 18007KT 140V210 10SM CLR 28/12 A3040 RMK AO2 SLP190 T02780122 $,2024-08-03T19:53:00Z,27.8,12.2,10+,30.40
KCPS,38.57,-90.156,VRB,3,3.4523399999999995,KCPS 031953Z VRB03KT 10SM CLR 33/19 A2997 RMK AO2 SLP144 T03330189 PNO,2024-08-03T19:53:00Z,33.3,18.9,10+,29.97
KCPR,42.8978,-106.474,140,7,8.05546,KCPR 031953Z 14007KT 10SM CLR 36/02 A3021 RMK AO2 SLP147 T03610017,2024-08-03T19:53:00Z,36.1,1.7,10+,30.21
KCOT,28.4585,-99.2228,120,8,9.20624,KCOT 031953Z AUTO 12008G18KT 090V160 10SM CLR 39/18 A2994 RMK AO2 SLP129 T03890183,2024-08-03T19:53:00Z,38.9,18.3,10+,29.94
KCNY,38.7501,-109.763,0,0,0.0,KCNY 031953Z AUTO 00000KT 10SM CLR 37/09 A3011 RMK AO2 SLP119 T03670089,2024-08-03T19:53:00Z,36.7,8.9,10+,30.11
KCNO,33.9756,-117.625,280,6,6.904679999999999,KCNO 031953Z 28006KT 10SM CLR 37/14 A2993 RMK AO2 SLP126 T03720139 $,2024-08-03T19:53:00Z,37.2,13.9,10+,29.93
KCNM,32.3335,-104.258,VRB,4,4.60312,KCNM 031953Z AUTO VRB04KT 10SM FEW120 34/12 A3012 RMK AO2 SLP134 T03390122,2024-08-03T19:53:00Z,33.9,12.2,10+,30.12
KCMX,47.1705,-88.4854,290,9,10.357019999999999,KCMX 031953Z AUTO 29009KT 10SM CLR 25/14 A2998 RMK AO2 RAB15E24 SLP149 P0000 T02500139,2024-08-03T19:53:00Z,25,13.9,10+,29.98
KCMI,40.0324,-88.2755,290,5,5.7539,KCMI 031953Z 29005KT 10SM FEW038 31/23 A2997 RMK AO2 SLP141 T03110228,2024-08-03T19:53:00Z,31.1,22.8,10+,29.97
KCLM,48.1219,-123.507,320,9,10.357019999999999,KCLM 031953Z AUTO 32009KT 10SM CLR 19/13 A3008 RMK AO2 SLP185 T01940133,2024-08-03T19:53:00Z,19.4,13.3,10+,30.08
KCLL,30.5912,-96.3631,0,0,0.0,KCLL 031953Z 00000KT 10SM CLR 35/24 A2994 RMK AO2 SLP134 T03500244,2024-08-03T19:53:00Z,35,24.4,10+,29.94
KCHA,35.0336,-85.2004,VRB,3,3.4523399999999995,KCHA 031953Z COR VRB03KT 10SM SCT045 BKN065 32/19 A2992 RMK AO2 SLP122 T03170194,2024-08-03T19:53:00Z,31.7,19.4,10+,29.92
KCGI,37.2254,-89.5785,VRB,4,4.60312,KCGI 031953Z VRB04KT 10SM BKN060 33/21 A2996 RMK AO2 SLP142 T03330211 PNO $,2024-08-03T19:53:00Z,33.3,21.1,10+,29.96
KCEZ,37.3071,-108.626,200,12,13.809359999999998,KCEZ 031953Z AUTO 20012KT 10SM CLR 33/11 A3027 RMK AO2 SLP154 T03280106 $,2024-08-03T19:53:00Z,32.8,10.6,10+,30.27
KCEW,30.7771,-86.5194,200,6,6.904679999999999,KCEW 031953Z AUTO 20006KT 10SM FEW055 34/24 A2991 RMK AO2 LTG DSNT N AND NW SLP124 T03390239,2024-08-03T19:53:00Z,33.9,23.9,10+,29.91
KCDW,40.8764,-74.2829,60,5,5.7539,KCDW 031953Z 06005KT 10SM VCTS -RA SCT045 BKN060 OVC100 26/21 A2979 RMK AO2 LTG DSNT ALQDS RAE1854B27 TSB11E26 SLP092 P0000 T02610211 $,2024-08-03T19:53:00Z,26.1,21.1,10+,29.79
KCDS,34.4275,-100.284,150,11,12.658579999999999,KCDS 031953Z AUTO 15011G16KT 10SM CLR 37/12 A3005 RMK AO2 SLP142 T03670122,2024-08-03T19:53:00Z,36.7,12.2,10+,30.05
KCDR,42.8374,-103.098,110,8,9.20624,KCDR 031953Z AUTO 11008KT 10SM CLR 38/08 A3004 RMK AO2 SLP132 T03830078 $,2024-08-03T19:53:00Z,38.3,7.8,10+,30.04
KCDD,48.2601,-92.4748,0,0,0.0,KCDD 031953Z AUTO 00000KT 7SM SCT100 17/16 A3001 RMK AO2 LTG DSNT SE THRU W,2024-08-03T19:53:00Z,17,16,7,30.01
KCDC,37.7067,-113.097,260,9,10.357019999999999,KCDC 031953Z AUTO 26009G20KT 220V280 10SM CLR 32/11 A3023 RMK AO2 LTG DSNT E SLP142 T03170111 $,2024-08-03T19:53:00Z,31.7,11.1,10+,30.23
KCCR,37.9916,-122.053,310,10,11.5078,KCCR 031953Z 31010KT 10SM CLR 32/13 A2992 RMK AO2 SLP119 T03170128,2024-08-03T19:53:00Z,31.7,12.8,10+,29.92
KCAG,40.493,-107.524,,,,KCAG 031953Z AUTO A3028 RMK AO2 SLPNO PWINO $,2024-08-03T19:53:00Z,,,,30.28
KBYI,42.5452,-113.769,VRB,4,4.60312,KBYI 031953Z AUTO VRB04KT 10SM CLR 33/12 A3005 RMK AO2 SLP123 T03330122,2024-08-03T19:53:00Z,33.3,12.2,10+,30.05
KBYG,44.3812,-106.719,VRB,5,5.7539,KBYG 031953Z AUTO VRB05KT 10SM CLR 33/07 A3021 RMK AO2 SLP155 T03280067,2024-08-03T19:53:00Z,32.8,6.7,10+,30.21
KBWG,36.9647,-86.4238,290,9,10.357019999999999,KBWG 031953Z AUTO 29009G17KT 10SM FEW038 31/21 A2994 RMK AO2 SLP131 T03060206,2024-08-03T19:53:00Z,30.6,20.6,10+,29.94
KBVY,42.5841,-70.9153,290,8,9.20624,KBVY 031953Z 29008KT 10SM OVC070 29/22 A2977 RMK AO2 SLP075 T02940222,2024-08-03T19:53:00Z,29.4,22.2,10+,29.77
KBVO,36.7664,-96.0129,VRB,5,5.7539,KBVO 031953Z AUTO VRB05KT 10SM CLR 35/17 A3003 RMK AO2 SLP157 T03500172,2024-08-03T19:53:00Z,35,17.2,10+,30.03
KBUR,34.1996,-118.365,130,6,6.904679999999999,KBUR 031953Z 13006KT 10SM CLR 34/14 A2993 RMK AO2 SLP120 T03440139,2024-08-03T19:53:00Z,34.4,13.9,10+,29.93
KBTR,30.5378,-91.1468,240,7,8.05546,KBTR 031953Z 24007KT 10SM BKN047 36/25 A2989 RMK AO2 LTG DSNT N-E SLP118 T03610250,2024-08-03T19:53:00Z,36.1,25,10+,29.89
KBTM,45.9644,-112.501,110,7,8.05546,KBTM 031953Z AUTO 11007G15KT 10SM CLR 33/02 A3018 RMK AO2 SLP151 T03280017,2024-08-03T19:53:00Z,32.8,1.7,10+,30.18
KBTL,42.3119,-85.2415,340,4,4.60312,KBTL 031953Z 34004KT 10SM FEW055 SCT070 29/19 A2994 RMK AO2 SLP130 T02940194,2024-08-03T19:53:00Z,29.4,19.4,10+,29.94
KBRO,25.9146,-97.4231,90,9,10.357019999999999,KBRO 031953Z 09009KT 10SM CLR 34/23 A2995 RMK AO2 SLP139 T03440233,2024-08-03T19:53:00Z,34.4,23.3,10+,29.95
KBRL,40.7729,-91.1255,300,5,5.7539,KBRL 031953Z AUTO 30005KT 10SM FEW065 31/21 A2997 RMK AO2 SLP143 T03110206,2024-08-03T19:53:00Z,31.1,20.6,10+,29.97
KBRD,46.4021,-94.1273,70,5,5.7539,KBRD 031953Z AUTO 07005KT 10SM CLR 28/17 A2995 RMK AO2 LTG DSNT N SLP137 T02780172,2024-08-03T19:53:00Z,27.8,17.2,10+,29.95
KBPT,29.9521,-94.0262,220,6,6.904679999999999,KBPT 031953Z 22006KT 10SM CLR 37/24 A2990 RMK AO2 SLP126 T03670239,2024-08-03T19:53:00Z,36.7,23.9,10+,29.90
KBPK,36.3705,-92.4719,VRB,3,3.4523399999999995,KBPK 031953Z AUTO VRB03KT 10SM FEW050 32/18 A3002 RMK AO2 SLP154 T03220183 $,2024-08-03T19:53:00Z,32.2,18.3,10+,30.02
KBOI,43.567,-116.241,10,7,8.05546,KBOI 031953Z 01007KT 10SM CLR 35/09 A2995 RMK AO2 SLP102 T03500094,2024-08-03T19:53:00Z,35,9.4,10+,29.95
KBNO,43.5949,-118.958,280,4,4.60312,KBNO 031953Z AUTO 28004KT 4SM HZ CLR 33/09 A3010 RMK AO2 SLP138 T03280089,2024-08-03T19:53:00Z,32.8,8.9,4,30.10
KBNA,36.1105,-86.6881,310,8,9.20624,KBNA 031953Z 31008KT 10SM SCT045TCU BKN060 32/19 A2994 RMK AO2 SLP132 TCU ALQDS T03220189 $,2024-08-03T19:53:00Z,32.2,18.9,10+,29.94
KBMQ,30.7407,-98.2354,50,4,4.60312,KBMQ 031953Z AUTO 05004KT 10SM FEW055 FEW070 35/22 A3001 RMK AO2 SLP142 T03500217,2024-08-03T19:53:00Z,35,21.7,10+,30.01
KBMG,39.1432,-86.6168,350,4,4.60312,KBMG 031953Z 35004KT 10SM FEW044 31/21 A2994 RMK AO2 SLP131 T03110211,2024-08-03T19:53:00Z,31.1,21.1,10+,29.94
KBLI,48.7991,-122.541,190,9,10.357019999999999,KBLI 031953Z 19009KT 10SM CLR 19/14 A3005 RMK AO2 SLP180 T01940139,2024-08-03T19:53:00Z,19.4,13.9,10+,30.05
KBKL,41.5173,-81.6832,360,6,6.904679999999999,KBKL 031953Z 36006KT 10SM SCT025 27/23 A2988 RMK AO2 SLP114 T02720228,2024-08-03T19:53:00Z,27.2,22.8,10+,29.88
KBKE,44.843,-117.81,330,8,9.20624,KBKE 031953Z AUTO 33008KT 10SM CLR 36/10 A3004 RMK AO2 SLP133 T03560100,2024-08-03T19:53:00Z,35.6,10,10+,30.04
KBIV,42.7463,-86.0968,300,8,9.20624,KBIV 031953Z AUTO 30008KT 10SM CLR 30/19 A2995 RMK AO2 SLP137 T03000189 $,2024-08-03T19:53:00Z,30,18.9,10+,29.95
KBIL,45.8072,-108.546,130,12,13.809359999999998,KBIL 031953Z 13012G17KT 10SM SCT200 BKN250 33/08 A3010 RMK AO2 SLP149 T03330078,2024-08-03T19:53:00Z,33.3,7.8,10+,30.10
KBHM,33.5655,-86.7449,20,6,6.904679999999999,KBHM 031953Z 02006KT 10SM FEW045 BKN075 31/21 A2994 RMK AO2 SLP130 T03060211 $,2024-08-03T19:53:00Z,30.6,21.1,10+,29.94
KBGR,44.7979,-68.8195,170,7,8.05546,KBGR 031953Z 17007KT 10SM SCT025 BKN120 BKN220 28/22 A2974 RMK AO2 SLP066 T02780217 $,2024-08-03T19:53:00Z,27.8,21.7,10+,29.74
KBGM,42.2068,-75.9799,30,4,4.60312,KBGM 031953Z 03004KT 10SM BKN110 25/19 A2989 RMK AO2 RAE01 SLP109 P0000 T02500194,2024-08-03T19:53:00Z,25,19.4,10+,29.89
KBFM,30.6147,-88.063,150,9,10.357019999999999,KBFM 031953Z 15009KT 10SM CLR 35/23 A2989 RMK AO2 SLP120 T03500233 $,2024-08-03T19:53:00Z,35,23.3,10+,29.89
KBFI,47.5455,-122.315,210,6,6.904679999999999,KBFI 031953Z 21006KT 10SM CLR 24/14 A3005 RMK AO2 SLP176 T02390139 $,2024-08-03T19:53:00Z,23.9,13.9,10+,30.05
KBFF,41.8747,-103.601,110,7,8.05546,KBFF 031953Z AUTO 11007KT 10SM CLR 37/08 A3013 RMK AO2 SLP147 T03720083,2024-08-03T19:53:00Z,37.2,8.3,10+,30.13
KBFD,41.7984,-78.6354,0,0,0.0,KBFD 031953Z AUTO 00000KT 10SM -RA BKN100 OVC120 23/21 A2992 RMK AO2 RAB14 SLP116 P0002 T02280211,2024-08-03T19:53:00Z,22.8,21.1,10+,29.92
KBEH,42.129,-86.4152,VRB,6,6.904679999999999,KBEH 031953Z AUTO VRB06KT 10SM CLR 28/22 A2995 RMK AO2 SLP136 T02780217 $,2024-08-03T19:53:00Z,27.8,21.7,10+,29.95
KBDE,48.7261,-94.6122,130,9,10.357019999999999,KBDE 031953Z AUTO 13009KT 10SM SCT070 23/18 A2997 RMK AO2 SLP148 T02330178,2024-08-03T19:53:00Z,23.3,17.8,10+,29.97
KBCT,26.379,-80.106,140,15,17.261699999999998,KBCT 031953Z 14015G25KT 10SM VCTS SCT030 33/25 A2993 RMK LTG DSNT ALQDS.,2024-08-03T19:53:00Z,33,25,10+,29.93
KBCE,37.7013,-112.149,,,,KBCE 031953Z AUTO 10SM VCTS FEW120 27/11 A3042 RMK AO2 LTG DSNT ALQDS SLP160 T02720106,2024-08-03T19:53:00Z,27.2,10.6,10+,30.42
KBBW,41.4365,-99.6385,,,,KBBW 031953Z AUTO 10SM CLR 34/17 A3006 RMK AO2 SLP152 T03390172 $,2024-08-03T19:53:00Z,33.9,17.2,10+,30.06
KBAF,42.16,-72.7124,260,7,8.05546,KBAF 031953Z 26007KT 10SM BKN040 32/22 A2979 RMK AO2 SLP083 T03170217,2024-08-03T19:53:00Z,31.7,21.7,10+,29.79
KAZO,42.2283,-85.546,340,7,8.05546,KAZO 031953Z AUTO 34007KT 10SM FEW060 SCT075 32/19 A2994 RMK AO2 SLP130 T03220189 $,2024-08-03T19:53:00Z,32.2,18.9,10+,29.94
KAXN,45.868,-95.394,180,15,17.261699999999998,KAXN 031953Z AUTO 18015G23KT 10SM CLR 31/21 A2992 RMK AO2 SLP124 T03060211 $,2024-08-03T19:53:00Z,30.6,21.1,10+,29.92
KAWM,35.1401,-90.2359,50,6,6.904679999999999,KAWM 031953Z AUTO 05006KT 10SM FEW044 32/21 A2995 RMK AO2 SLP138 T03220211,2024-08-03T19:53:00Z,32.2,21.1,10+,29.95
KAUS,30.2099,-97.6806,90,7,8.05546,KAUS 031953Z 09007KT 10SM SCT050 BKN300 BKN350 36/24 A2995 RMK AO2 SLP129 T03610239 $,2024-08-03T19:53:00Z,36.1,23.9,10+,29.95
KAUG,44.3161,-69.797,0,0,0.0,KAUG 031953Z AUTO 00000KT 10SM CLR 28/21 A2976 RMK AO2 SLP076 T02830211,2024-08-03T19:53:00Z,28.3,21.1,10+,29.76
KATY,44.9045,-97.1496,210,15,17.261699999999998,KATY 031953Z AUTO 21015KT 10SM CLR 33/19 A2992 RMK AO2 SLP117 T03330194,2024-08-03T19:53:00Z,33.3,19.4,10+,29.92
KASX,46.5468,-90.9184,50,7,8.05546,KASX 031953Z AUTO 05007KT 10SM CLR 26/17 A3001 RMK AO2 SLP160 T02560172,2024-08-03T19:53:00Z,25.6,17.2,10+,30.01
KASE,39.2299,-106.871,VRB,4,4.60312,KASE 031953Z VRB04KT 10SM SCT110 28/01 A3042 RMK AO2 SLP154 T02830006,2024-08-03T19:53:00Z,28.3,0.6,10+,30.42
KARB,42.2239,-83.7398,330,10,11.5078,KARB 031953Z 33010G18KT 10SM SCT050 31/18 A2991 RMK AO2 SLP120 T03060183,2024-08-03T19:53:00Z,30.6,18.3,10+,29.91
KAPF,26.155,-81.7751,50,10,11.5078,KAPF 031953Z AUTO 05010KT 8SM -TSRA FEW012 SCT045 BKN110 24/ A2989 RMK AO2 WSHFT 1913 LTG DSNT E AND SE AND NW TSB37 SLP121 P0008 T0244,2024-08-03T19:53:00Z,24.4,,8,29.89
KAPA,39.5599,-104.848,20,9,10.357019999999999,KAPA 031953Z 02009G17KT 350V070 10SM FEW120 FEW180 SCT240 33/04 A3029 RMK AO2 SLP168 T03330044,2024-08-03T19:53:00Z,33.3,4.4,10+,30.29
KAOH,40.7081,-84.0214,,,,KAOH 031953Z AUTO 29/22 A2992 RMK AO2 SLP124 T02940217 PWINO $,2024-08-03T19:53:00Z,29.4,21.7,,29.92
KANB,33.5904,-85.8479,290,4,4.60312,KANB 031953Z AUTO 29004KT 10SM FEW070 31/21 A2992 RMK AO2 SLP122 T03110206,2024-08-03T19:53:00Z,31.1,20.6,10+,29.92
KAMW,41.9905,-93.6185,0,0,0.0,KAMW 031953Z AUTO 00000KT 10SM CLR 31/22 A3001 RMK AO2 SLP150 T03110217,2024-08-03T19:53:00Z,31.1,21.7,10+,30.01
KAMG,31.5401,-82.5074,180,10,11.5078,KAMG 031953Z AUTO 18010KT 10SM CLR 34/22 A2990 RMK AO2 SLP123 T03440217 $,2024-08-03T19:53:00Z,34.4,21.7,10+,29.90
KAMA,35.2203,-101.717,130,10,11.5078,KAMA 031953Z 13010G16KT 10SM FEW085 36/11 A3014 RMK AO2 SLP141 T03560106 $,2024-08-03T19:53:00Z,35.6,10.6,10+,30.14
KALW,46.0946,-118.286,240,6,6.904679999999999,KALW 031953Z 24006KT 10SM FEW110 30/13 A2995 RMK AO2 SLP132 T03000128,2024-08-03T19:53:00Z,30,12.8,10+,29.95
KALI,27.7413,-98.0251,150,9,10.357019999999999,KALI 031953Z AUTO 15009KT 120V190 10SM CLR 36/23 A2994 RMK AO2 SLP134 T03610228 $,2024-08-03T19:53:00Z,36.1,22.8,10+,29.94
KAKO,40.1743,-103.215,110,8,9.20624,KAKO 031953Z AUTO 11008KT 10SM CLR 32/11 A3022 RMK AO2 SLP164 T03220106,2024-08-03T19:53:00Z,32.2,10.6,10+,30.22
KAGS,33.3652,-81.9635,260,9,10.357019999999999,KAGS 031953Z 26009G27KT 3/4SM +TSRA BR BKN032 BKN041 OVC065 24/23 A2992 RMK AO2 PK WND 27031/1922 WSHFT 1917 LTG DSNT ALQDS RAB37 TSB35 SLP129 P0018 T02390228,2024-08-03T19:53:00Z,23.9,22.8,0.75,29.92
KAGC,40.3551,-79.9215,VRB,5,5.7539,KAGC 031953Z VRB05KT 10SM FEW030 FEW043 OVC085 23/20 A2989 RMK AO2 LTG DSNT SE RAE1859B20E52 SLP116 P0003 T02280200,2024-08-03T19:53:00Z,22.8,20,10+,29.89
KAFW,32.99,-97.32,40,11,12.658579999999999,KAFW 031953Z 04011G17KT 10SM FEW250 38/12 A2996 RMK AO2 SLP124 T03830117,2024-08-03T19:53:00Z,38.3,11.7,10+,29.96
KAEX,31.3346,-92.5585,280,6,6.904679999999999,KAEX 031953Z 28006KT 10SM CLR 28/23 A2992 RMK AO2 LTG DSNT SW AND W SLP134 T02830233 $,2024-08-03T19:53:00Z,28.3,23.3,10+,29.92
KACV,40.9784,-124.105,260,6,6.904679999999999,KACV 031953Z AUTO 26006KT 10SM OVC008 16/13 A3003 RMK AO2 SLP175 T01610133,2024-08-03T19:53:00Z,16.1,13.3,10+,30.03
KACK,41.2541,-70.0589,230,15,17.261699999999998,KACK 031953Z 23015KT 8SM CLR 26/23 A2983 RMK AO2 SLP102 T02610233,2024-08-03T19:53:00Z,26.1,23.3,8,29.83
KABY,31.5364,-84.1958,190,7,8.05546,KABY 031953Z 19007G14KT 10SM FEW050 34/24 A2991 RMK AO2 RAE1855 SLP126 P0000 T03390239,2024-08-03T19:53:00Z,33.9,23.9,10+,29.91
KABR,45.4436,-98.4138,230,11,12.658579999999999,KABR 031953Z AUTO 23011KT 10SM CLR 35/21 A2988 RMK AO2 SLP104 T03500211,2024-08-03T19:53:00Z,35,21.1,10+,29.88
KAAF,29.7268,-85.0248,180,8,9.20624,KAAF 031953Z AUTO 18008KT 10SM CLR 32/26 A2990 RMK AO2 SLP125 T03220256 $,2024-08-03T19:53:00Z,32.2,25.6,10+,29.90
PABA,70.135,-143.585,60,12,13.809359999999998,PABA 031952Z AUTO 06012KT 10SM CLR 07/05 A3006 RMK AO2 SLP187 T00720050,2024-08-03T19:52:00Z,7.2,5,10+,30.06
KVTN,42.8585,-100.551,VRB,6,6.904679999999999,KVTN 031952Z AUTO VRB06G17KT 10SM CLR 38/11 A3000 RMK AO2 SLP129 T03830106,2024-08-03T19:52:00Z,38.3,10.6,10+,30.00
KTRM,33.6317,-116.164,140,6,6.904679999999999,KTRM 031952Z AUTO 14006KT 10SM CLR 46/14 A2976 RMK AO2 SLP081 T04560139,2024-08-03T19:52:00Z,45.6,13.9,10+,29.76
KTOL,41.5871,-83.8054,,,,KTOL 031952Z AUTO A2990 RMK AO2 SLPNO PWINO $,2024-08-03T19:52:00Z,,,,29.90
KTAN,41.8756,-71.0208,220,9,10.357019999999999,KTAN 031952Z AUTO 22009KT 10SM BKN055 32/23 A2978 RMK AO2 SLP084 T03220228,2024-08-03T19:52:00Z,32.2,22.8,10+,29.78
KSUX,42.3917,-96.3795,210,8,9.20624,KSUX 031952Z 21008KT 10SM CLR 34/21 A2999 RMK AO2 SLP146 T03390206,2024-08-03T19:52:00Z,33.9,20.6,10+,29.99
KSPS,33.9785,-98.493,VRB,4,4.60312,KSPS 031952Z AUTO VRB04KT 10SM CLR 37/15 A2999 RMK AO2 SLP139 T03670150,2024-08-03T19:52:00Z,36.7,15,10+,29.99
KSPI,39.8453,-89.684,VRB,3,3.4523399999999995,KSPI 031952Z VRB03KT 10SM CLR 32/23 A2997 RMK AO2 SLP143 T03170228,2024-08-03T19:52:00Z,31.7,22.8,10+,29.97
KSGF,37.2398,-93.39,0,0,0.0,KSGF 031952Z 00000KT 10SM FEW055 31/19 A3004 RMK AO2 SLP160 T03110194,2024-08-03T19:52:00Z,31.1,19.4,10+,30.04
KREO,42.5902,-117.865,VRB,5,5.7539,KREO 031952Z AUTO VRB05KT 34/07 A3004 RMK AO1 SLP114 T03440067,2024-08-03T19:52:00Z,34.4,6.7,,30.04
KRAP,44.0458,-103.054,350,14,16.11092,KRAP 031952Z 35014G24KT 10SM CLR 39/09 A3006 RMK AO2 PK WND 35027/1915 SLP136 T03940094,2024-08-03T19:52:00Z,39.4,9.4,10+,30.06
KPYM,41.9085,-70.7278,240,11,12.658579999999999,KPYM 031952Z AUTO 24011KT 10SM SCT036 BKN045 34/23 A2978 RMK AO2 SLP085 T03390228,2024-08-03T19:52:00Z,33.9,22.8,10+,29.78
KPWK,42.1208,-87.9048,90,7,8.05546,KPWK 031952Z 09007KT 10SM FEW090 31/21 A2995 RMK AO2 SLP137 T03060206 $,2024-08-03T19:52:00Z,30.6,20.6,10+,29.95
KPPF,37.3281,-95.5044,VRB,4,4.60312,KPPF 031952Z AUTO VRB04KT 10SM CLR 36/14 A3004 RMK AO2 SLP160 T03560139,2024-08-03T19:52:00Z,35.6,13.9,10+,30.04
KP69,46.144,-115.597,0,0,0.0,KP69 031952Z AUTO 00000KT 31/17 A2993 RMK AO1 SLP106 T03110167 $,2024-08-03T19:52:00Z,31.1,16.7,,29.93
KORE,42.57,-72.287,230,8,9.20624,KORE 031952Z AUTO 23008KT 10SM FEW060 29/21 A2982 RMK AO2 SLP093 T02940211,2024-08-03T19:52:00Z,29.4,21.1,10+,29.82
KOMA,41.3119,-95.9018,250,6,6.904679999999999,KOMA 031952Z 25006KT 10SM FEW250 34/17 A3001 RMK AO2 SLP149 T03440167,2024-08-03T19:52:00Z,34.4,16.7,10+,30.01
KOKC,35.3843,-97.6003,VRB,4,4.60312,KOKC 031952Z VRB04KT 10SM SCT250 34/13 A3004 RMK AO2 SLP153 T03440128,2024-08-03T19:52:00Z,34.4,12.8,10+,30.04
KOKB,33.2195,-117.35,240,9,10.357019999999999,KOKB 031952Z AUTO 24009KT 6SM HZ CLR 27/18 A2991 RMK AO2 SLP129 T02670183,2024-08-03T19:52:00Z,26.7,18.3,6,29.91
KNZY,32.6922,-117.21,320,14,16.11092,KNZY 031952Z 32014KT 10SM FEW006 FEW010 24/19 A2991 RMK AO2 SLP129 T02440194 $,2024-08-03T19:52:00Z,24.4,19.4,10+,29.91
KNRB,30.396,-81.423,140,13,14.960139999999999,KNRB 031952Z AUTO 14013KT 10SM CLR 34/27 A2996 RMK AO2 TSB1855B1856E15 SLP144 T03390267,2024-08-03T19:52:00Z,33.9,26.7,10+,29.96
KNHK,38.284,-76.408,180,7,8.05546,KNHK 031952Z 18007G20KT 140V220 10SM BKN035 34/24 A2981 RMK AO2 SLP096 T03390239 PNO $,2024-08-03T19:52:00Z,33.9,23.9,10+,29.81
KNFW,32.781,-97.436,20,5,5.7539,KNFW 031952Z 02005KT 10SM FEW030 FEW250 38/13 A2996 RMK AO2 SLP127 T03830128 $,2024-08-03T19:52:00Z,38.3,12.8,10+,29.96
KMWN,44.271,-71.304,300,11,12.658579999999999,KMWN 031952Z 30011KT 1/4SM PRFG FEW/// BKN000 BKN080 BKN200 15/13 RMK VIS NE-E 5 PRFG BKN000 BKN000 V SCT BBLO FEW NE-E PRFG INTMT INTMT FG,2024-08-03T19:52:00Z,15,13,0.25,
KMWH,47.193,-119.315,180,8,9.20624,KMWH 031952Z 18008KT 10SM CLR 30/17 A2993 RMK AO2 SLP124 T03000167,2024-08-03T19:52:00Z,30,16.7,10+,29.93
KMMU,40.7989,-74.4164,360,4,4.60312,KMMU 031952Z 36004G11KT 7SM BKN050 26/23 A2980,2024-08-03T19:52:00Z,26,23,7,29.80
KMLI,41.4482,-90.5237,290,9,10.357019999999999,KMLI 031952Z 29009KT 10SM CLR 31/18 A2995 RMK AO2 SLP138 T03110183,2024-08-03T19:52:00Z,31.1,18.3,10+,29.95
KMLF,38.4225,-113.011,190,12,13.809359999999998,KMLF 031952Z AUTO 19012G22KT 10SM CLR 35/14 A3017 RMK AO2 LTG DSNT E SLP133 T03500139,2024-08-03T19:52:00Z,35,13.9,10+,30.17
KMKE,42.9549,-87.9045,60,8,9.20624,KMKE 031952Z 06008KT 10SM FEW038 28/17 A2996 RMK AO2 SLP140 T02780167 $,2024-08-03T19:52:00Z,27.8,16.7,10+,29.96
KMHK,39.1346,-96.6789,0,0,0.0,KMHK 031952Z 00000KT 10SM CLR 33/18 A3006 RMK AO2 SLP168 T03280183,2024-08-03T19:52:00Z,32.8,18.3,10+,30.06
KMFD,40.8204,-82.5177,290,3,3.4523399999999995,KMFD 031952Z 29003KT 10SM CLR 27/21 A2992 RMK AO2 SLP124 T02670211,2024-08-03T19:52:00Z,26.7,21.1,10+,29.92
KMEB,34.7913,-79.3683,190,14,16.11092,KMEB 031952Z AUTO 19014G25KT 10SM FEW040 SCT050 SCT080 32/25 A2989 RMK AO2 LTG DSNT N SLP117 T03170250,2024-08-03T19:52:00Z,31.7,25,10+,29.89
KMDH,37.7833,-89.2453,320,7,8.05546,KMDH 031952Z 32007KT 10SM SCT049 32/21 A2997 RMK AO2 SLP143 T03170211,2024-08-03T19:52:00Z,31.7,21.1,10+,29.97
KMBG,45.543,-100.404,360,17,19.56326,KMBG 031952Z AUTO 36017G23KT 10SM CLR 35/19 A2992 RMK AO2 SLP115 T03500194,2024-08-03T19:52:00Z,35,19.4,10+,29.92
KLWC,39.0078,-95.2115,310,3,3.4523399999999995,KLWC 031952Z AUTO 31003KT 10SM CLR 33/22 A3004 RMK AO1 SLP162 T03330222,2024-08-03T19:52:00Z,33.3,22.2,10+,30.04
KIOW,41.6394,-91.5445,300,12,13.809359999999998,KIOW 031952Z AUTO 30012KT 10SM CLR 31/13 A2999 RMK AO2 SLP150 T03110128,2024-08-03T19:52:00Z,31.1,12.8,10+,29.99
KIJD,41.7425,-72.1825,VRB,6,6.904679999999999,KIJD 031952Z AUTO VRB06KT 10SM FEW060 32/22 A2980 RMK AO2 SLP088 T03170217,2024-08-03T19:52:00Z,31.7,21.7,10+,29.80
KIEN,43.0261,-102.52,0,0,0.0,KIEN 031952Z AUTO 00000KT 10SM CLR 39/06 A3005 RMK AO2 SLP129 T03940061 $,2024-08-03T19:52:00Z,39.4,6.1,10+,30.05
KIAD,38.9348,-77.4473,190,15,17.261699999999998,KIAD 031952Z 19015G23KT 10SM SCT055CB SCT070 BKN090 BKN130 BKN250 36/21 A2977 RMK AO2 LTG DSNT W-NE SLP078 CB N-NE AND W-NW AND OHD MOV NE T03560206 $,2024-08-03T19:52:00Z,35.6,20.6,10+,29.77
KHUT,38.0682,-97.8607,240,5,5.7539,KHUT 031952Z 24005KT 10SM SCT100 33/16 A3007 RMK AO2 SLP157 T03330156,2024-08-03T19:52:00Z,33.3,15.6,10+,30.07
KHRL,26.2303,-97.6556,110,7,8.05546,KHRL 031952Z 11007KT 10SM SCT050 34/24 A2994 RMK AO2 SLP138 T03440239,2024-08-03T19:52:00Z,34.4,23.9,10+,29.94
KHIE,44.3659,-71.5522,260,3,3.4523399999999995,KHIE 031952Z AUTO 26003KT 10SM SCT037 29/21 A2980 RMK AO2 SLP085 T02890206,2024-08-03T19:52:00Z,28.9,20.6,10+,29.80
KGLS,29.2704,-94.8642,170,8,9.20624,KGLS 031952Z 17008KT 10SM FEW032 33/27 A2994 RMK AO2 SLP138 T03330272,2024-08-03T19:52:00Z,33.3,27.2,10+,29.94
KGEU,33.528,-112.293,310,4,4.60312,KGEU 031952Z 31004KT 10SM FEW100 FEW180 42/13 A2983,2024-08-03T19:52:00Z,42,13,10+,29.83
KFWS,32.558,-97.308,40,6,6.904679999999999,KFWS 031952Z 04006KT 10SM CLR 37/17 A2997,2024-08-03T19:52:00Z,37,17,10+,29.97
KFIT,42.5549,-71.757,280,11,12.658579999999999,KFIT 031952Z AUTO 28011G19KT 250V310 10SM FEW031 FEW070 31/22 A2980 RMK AO2 SLP090 T03110222,2024-08-03T19:52:00Z,31.1,22.2,10+,29.80
KEST,43.4008,-94.7476,190,7,8.05546,KEST 031952Z AUTO 19007KT 10SM CLR 32/21 A2999 RMK AO2 SLP147 T03170211,2024-08-03T19:52:00Z,31.7,21.1,10+,29.99
KDVN,41.6133,-90.5948,280,7,8.05546,KDVN 031952Z AUTO 28007KT 10SM CLR 30/20 A2998 RMK AO2 SLP142 T03000200,2024-08-03T19:52:00Z,30,20,10+,29.98
KDPA,41.8964,-88.2512,VRB,3,3.4523399999999995,KDPA 031952Z VRB03KT 10SM SCT060 32/17 A2993 RMK AO2 SLP130 T03220172,2024-08-03T19:52:00Z,32.2,17.2,10+,29.93
KDDC,37.7711,-99.9692,170,15,17.261699999999998,KDDC 031952Z AUTO 17015KT 9SM FEW100 28/17 A3014 RMK AO2 LTG DSNT SW RAB1856E11 PRESFR SLP174 P0001 T02830167,2024-08-03T19:52:00Z,28.3,16.7,9,30.14
KDCA,38.8472,-77.0345,180,16,18.41248,KDCA 031952Z 18016G24KT 10SM SCT055 SCT250 33/23 A2978 RMK AO2 LTG DSNT N AND NW SLP084 T03330233,2024-08-03T19:52:00Z,33.3,23.3,10+,29.78
KCVG,39.0444,-84.6724,310,5,5.7539,KCVG 031952Z 31005KT 10SM FEW033 29/22 A2991 RMK AO2 SLP118 T02940222,2024-08-03T19:52:00Z,29.4,22.2,10+,29.91
KCQX,41.6878,-69.9932,230,9,10.357019999999999,KCQX 031952Z AUTO 23009G23KT 190V250 10SM CLR 28/24 A2982 RMK AO2 SLP098 T02780239,2024-08-03T19:52:00Z,27.8,23.9,10+,29.82
KCNU,37.6705,-95.4846,20,4,4.60312,KCNU 031952Z AUTO 02004KT 10SM CLR 34/16 A3004 RMK AO2 SLP160 T03440156,2024-08-03T19:52:00Z,34.4,15.6,10+,30.04
KCLT,35.2225,-80.9543,230,4,4.60312,KCLT 031952Z 23004G20KT 5SM R18C/4500VP6000FT +TSRA BR SCT027 BKN030CB BKN060 OVC250 24/22 A2992 RMK AO2 WSHFT 1927 RAB39 TSB1858 SLP137 FRQ LTGICCCCG OHD-N-NE TS OHD-N-NE MOV NE P0007 T02390217,2024-08-03T19:52:00Z,23.9,21.7,5,29.92
KCKV,36.6169,-87.4118,VRB,4,4.60312,KCKV 031952Z AUTO VRB04KT 10SM SCT043 31/20 A2995 RMK AO2 SLP136 T03060200,2024-08-03T19:52:00Z,30.6,20,10+,29.95
KCID,41.8829,-91.7246,310,8,9.20624,KCID 031952Z 31008KT 10SM CLR 29/18 A2998 RMK AO2 SLP146 T02940178,2024-08-03T19:52:00Z,29.4,17.8,10+,29.98
KCFV,37.0912,-95.5726,100,4,4.60312,KCFV 031952Z AUTO 10004KT 10SM CLR 35/14 A3001 RMK AO2 SLP152 T03500139,2024-08-03T19:52:00Z,35,13.9,10+,30.01
KBML,44.576,-71.1782,0,0,0.0,KBML 031952Z AUTO 00000KT 10SM CLR 30/19 A2979 RMK AO2 SLP081 T03000194,2024-08-03T19:52:00Z,30,19.4,10+,29.79
KBLU,39.2762,-120.709,VRB,4,4.60312,KBLU 031952Z AUTO VRB04KT 10SM CLR 26/11 A3026 RMK AO2 SLP126 T02610111 TSNO,2024-08-03T19:52:00Z,26.1,11.1,10+,30.26
KBLH,33.6188,-114.715,170,8,9.20624,KBLH 031952Z AUTO 17008KT 10SM BKN110 45/14 A2981 RMK AO2 SLP085 T04500144,2024-08-03T19:52:00Z,45,14.4,10+,29.81
KBLF,37.2978,-81.2036,VRB,5,5.7539,KBLF 031952Z AUTO VRB05KT 10SM FEW032 BKN070 BKN110 24/18 A2998 RMK AO2 LTG DSNT SW SLP115 T02440178,2024-08-03T19:52:00Z,24.4,17.8,10+,29.98
KBIS,46.7823,-100.757,20,14,16.11092,KBIS 031952Z AUTO 02014G22KT 10SM SCT035 29/19 A3001 RMK AO2 PK WND 02027/1904 SLP150 T02940194,2024-08-03T19:52:00Z,29.4,19.4,10+,30.01
KBDR,41.1642,-73.1266,180,10,11.5078,KBDR 031952Z 18010KT 10SM CLR 32/23 A2978 RMK AO2 LTG DSNT W RAB15E24 SLP085 P0000 T03170233,2024-08-03T19:52:00Z,31.7,23.3,10+,29.78
KBAN,38.355,-119.522,,,,KBAN 031952Z AUTO 10SM BKN110 24/09 A3029 RMK AO2 SLP143 T02440089 $,2024-08-03T19:52:00Z,24.4,8.9,10+,30.29
KATL,33.6297,-84.4422,320,9,10.357019999999999,KATL 031952Z 32009KT 10SM SCT042TCU SCT200 32/21 A2992 RMK AO2 SLP120 TCU SW MDT CU ALQDS T03220211 $,2024-08-03T19:52:00Z,32.2,21.1,10+,29.92
KARR,41.7713,-88.4815,240,5,5.7539,KARR 031952Z 24005KT 9SM CLR 32/22 A2994 RMK AO2 SLP134 T03170217,2024-08-03T19:52:00Z,31.7,21.7,9,29.94
KAQW,42.6973,-73.1696,250,7,8.05546,KAQW 031952Z AUTO 25007KT 10SM BKN034 BKN043 BKN075 27/22 A2982 RMK AO2 SLP095 T02720217,2024-08-03T19:52:00Z,27.2,21.7,10+,29.82
KALS,37.4393,-105.862,0,0,0.0,KALS 031952Z AUTO 00000KT 10SM CLR 30/07 A3039 RMK AO2 SLP173 T03000067,2024-08-03T19:52:00Z,30,6.7,10+,30.39
KAFN,42.8067,-72.0013,0,0,0.0,KAFN 031952Z AUTO 00000KT 10SM FEW049 A2984 RMK AO2 SLPNO PNO $,2024-08-03T19:52:00Z,,,10+,29.84
KABQ,35.0419,-106.615,300,5,5.7539,KABQ 031952Z 30005KT 10SM FEW110 SCT250 32/11 A3025 RMK AO2 SLP144 CB DSNT N AND SW T03220111,2024-08-03T19:52:00Z,32.2,11.1,10+,30.25
KABI,32.4106,-99.6821,50,11,12.658579999999999,KABI 031952Z 05011G20KT 10SM CLR 38/17 A3001 RMK AO2 LTG DSNT SE AND S SLP130 T03780172 $,2024-08-03T19:52:00Z,37.8,17.2,10+,30.01
PHBK,22.034,-159.783,260,5,5.7539,PHBK 031951Z AUTO 26005KT 10SM CLR 30/22 A3010 RMK AO2 SLP193 T03000217 $,2024-08-03T19:51:00Z,30,21.7,10+,30.10
MUGM,19.909,-75.206,120,9,10.357019999999999,MUGM 031951Z 12009KT 10SM FEW030 FEW250 32/26 A2993 RMK AO2 SLP135 T03220256 $,2024-08-03T19:51:00Z,32.2,25.6,10+,29.93
MMLT,25.993,-111.35,160,7,8.05546,MMLT 031951Z 16007KT 9SM FEW060 37/23 A2982 RMK 8/100 HZY,2024-08-03T19:51:00Z,37,23,9,29.82
MMGL,20.523,-103.312,0,0,0.0,MMGL 031951Z 00000KT 7SM SCT025TCU BKN100 26/16 A3019 RMK 8/230 HZY,2024-08-03T19:51:00Z,26,16,7,30.19
KYNG,41.2548,-80.6736,270,6,6.904679999999999,KYNG 031951Z 27006KT 10SM SCT007 BKN040 BKN140 BKN170 23/21 A2989 RMK AO2 SLP115 T02330211 $,2024-08-03T19:51:00Z,23.3,21.1,10+,29.89
KXWA,48.2542,-103.747,40,10,11.5078,KXWA 031951Z AUTO 04010G16KT 10SM CLR 28/13 A3011 RMK AO2 SLP186 T02830128,2024-08-03T19:51:00Z,28.3,12.8,10+,30.11
KVNY,34.2121,-118.491,150,4,4.60312,KVNY 031951Z COR 15004KT 10SM CLR 37/14 A2992 RMK AO2 SLP121 T03670139,2024-08-03T19:51:00Z,36.7,13.9,10+,29.92
KVCT,28.8624,-96.9301,0,0,0.0,KVCT 031951Z 00000KT 10SM CLR 36/24 A2995 RMK AO2 SLP139 T03560239,2024-08-03T19:51:00Z,35.6,23.9,10+,29.95
KUGN,42.4255,-87.8634,50,7,8.05546,KUGN 031951Z 05007KT 10SM CLR 28/20 A2996 RMK AO2 SLP131 T02830200,2024-08-03T19:51:00Z,28.3,20,10+,29.96
KTPL,31.157,-97.4094,VRB,4,4.60312,KTPL 031951Z AUTO VRB04KT 10SM CLR 34/23 A2998 RMK AO2 SLP139 T03440233,2024-08-03T19:51:00Z,34.4,23.3,10+,29.98
KTEB,40.859,-74.0562,VRB,5,5.7539,KTEB 031951Z VRB05KT 10SM VCTS SCT070 SCT080 32/23 A2976 RMK AO2 LTG DSNT NW-NE SLP078 T03170228 $,2024-08-03T19:51:00Z,31.7,22.8,10+,29.76
KSTL,38.7524,-90.3734,320,6,6.904679999999999,KSTL 031951Z 32006KT 10SM FEW045 SCT250 33/20 A2999 RMK AO2 SLP141 T03330200 $,2024-08-03T19:51:00Z,33.3,20,10+,29.99
KSNT,44.1708,-114.927,360,6,6.904679999999999,KSNT 031951Z AUTO 36006KT 31/08 A3024 RMK AO1 SLP124 T03060078,2024-08-03T19:51:00Z,30.6,7.8,,30.24
KSMX,34.894,-120.452,290,8,9.20624,KSMX 031951Z 29008KT 10SM CLR 23/16 A2997 RMK AO2 SLP151 T02280156 $,2024-08-03T19:51:00Z,22.8,15.6,10+,29.97
KSMO,34.021,-118.447,VRB,6,6.904679999999999,KSMO 031951Z VRB06KT 10SM CLR 24/17 A2994 RMK AO2 SLP137 T02440167,2024-08-03T19:51:00Z,24.4,16.7,10+,29.94
KSLK,44.3928,-74.2029,VRB,5,5.7539,KSLK 031951Z AUTO VRB05KT 10SM CLR 27/19 A2984 RMK AO2 SLP093 T02670189,2024-08-03T19:51:00Z,26.7,18.9,10+,29.84
KSJT,31.3517,-100.495,180,3,3.4523399999999995,KSJT 031951Z 18003KT 10SM CLR 37/16 A3001 RMK AO2 LTG DSNT W SLP133 T03670161,2024-08-03T19:51:00Z,36.7,16.1,10+,30.01
KSDB,34.7433,-118.725,160,10,11.5078,KSDB 031951Z AUTO 16010G22KT 10SM CLR 32/13 A3019 RMK AO2 SLP156 T03220133,2024-08-03T19:51:00Z,32.2,13.3,10+,30.19
KSBD,34.09,-117.247,220,4,4.60312,KSBD 031951Z 22004KT 7SM CLR 36/06 A2994,2024-08-03T19:51:00Z,36,6,7,29.94
KSAT,29.5443,-98.4839,VRB,5,5.7539,KSAT 031951Z VRB05KT 10SM CLR 36/19 A2997 RMK AO2 SLP128 T03610194,2024-08-03T19:51:00Z,36.1,19.4,10+,29.97
KSAN,32.7365,-117.197,310,9,10.357019999999999,KSAN 031951Z 31009KT 10SM FEW008 FEW050 26/19 A2994 RMK AO2 SLP137 T02610189 $,2024-08-03T19:51:00Z,26.1,18.9,10+,29.94
KSAD,32.8565,-109.636,170,7,8.05546,KSAD 031951Z AUTO 17007KT 10SM CLR 39/12 A3003 RMK AO2 LTG DSNT W SLP103 T03890122 $,2024-08-03T19:51:00Z,38.9,12.2,10+,30.03
KROW,33.3074,-104.508,0,0,0.0,KROW 031951Z 00000KT 10SM CLR 33/14 A3015 RMK AO2 SLP135 T03330144 $,2024-08-03T19:51:00Z,33.3,14.4,10+,30.15
KPWM,43.6424,-70.3044,300,5,5.7539,KPWM 031951Z 30005KT 10SM SCT026 28/22 A2977 RMK AO2 SLP079 T02830222 $,2024-08-03T19:51:00Z,28.3,22.2,10+,29.77
KPVD,41.7225,-71.4325,230,9,10.357019999999999,KPVD 031951Z 23009KT 10SM BKN043 BKN220 31/23 A2979 RMK AO2 RAB42E48 SLP088 P0000 T03060233,2024-08-03T19:51:00Z,30.6,23.3,10+,29.79
KPIT,40.4814,-80.2083,30,6,6.904679999999999,KPIT 031951Z 03006KT 10SM SCT033 SCT055 BKN160 24/20 A2989 RMK AO2 SLP118 T02440200 $,2024-08-03T19:51:00Z,24.4,20,10+,29.89
KPHX,33.4278,-112.004,VRB,3,3.4523399999999995,KPHX 031951Z VRB03KT 10SM FEW090 FEW180 FEW250 42/13 A2985 RMK AO2 SLP083 CB DSNT N T04220128 $,2024-08-03T19:51:00Z,42.2,12.8,10+,29.85
KP59,47.467,-87.875,340,10,11.5078,KP59 031951Z AUTO 34010KT 25/14 A2994 RMK AO1 SLP132 T02500144,2024-08-03T19:51:00Z,25,14.4,,29.94
KOXR,34.2001,-119.204,270,10,11.5078,KOXR 031951Z 27010KT 10SM CLR 21/16 A2995 RMK AO2 SLP142 T02060156 $,2024-08-03T19:51:00Z,20.6,15.6,10+,29.95
KORF,36.9037,-76.1927,200,17,19.56326,KORF 031951Z 20017G24KT 10SM SCT046 SCT055 34/23 A2986 RMK AO2 PK WND 21028/1859 RAB11E33 SLP112 P0000 T03440233,2024-08-03T19:51:00Z,34.4,23.3,10+,29.86
KORD,41.9602,-87.9316,60,7,8.05546,KORD 031951Z 06007KT 10SM SCT065 SCT100 31/20 A2993 RMK AO2 SLP128 T03110200 $,2024-08-03T19:51:00Z,31.1,20,10+,29.93
KOCF,29.1636,-82.221,0,0,0.0,KOCF 031951Z COR 00000KT 10SM -RA SCT038 BKN075 26/23 A2999 RMK AO2 LTG DSNT ALQDS TSE19 SLP154 P0000 T02560233,2024-08-03T19:51:00Z,25.6,23.3,10+,29.99
KNYC,40.779,-73.9692,VRB,5,5.7539,KNYC 031951Z AUTO VRB05KT 10SM CLR 31/22 A2981 RMK AO2 SLP083 T03110222 $,2024-08-03T19:51:00Z,31.1,22.2,10+,29.81
KNBT,35.022,-76.463,210,12,13.809359999999998,KNBT 031951Z AUTO 21012G26KT 10SM FEW026 FEW120 33/27 A2998 RMK AO2 PK WND 22030/1919 RAB34E44 TSE04 SLP156 P0000 T03330272,2024-08-03T19:51:00Z,33.3,27.2,10+,29.98
KMYL,44.8943,-116.1,VRB,3,3.4523399999999995,KMYL 031951Z AUTO VRB03KT 10SM CLR 31/08 A3014 RMK AO2 SLP148 T03060083,2024-08-03T19:51:00Z,30.6,8.3,10+,30.14
KMPV,44.205,-72.5655,360,4,4.60312,KMPV 031951Z AUTO 36004KT 10SM SCT038 BKN049 29/20 A2985 RMK AO2 SLP099 T02940200,2024-08-03T19:51:00Z,29.4,20,10+,29.85
KLWB,37.8633,-80.3923,330,8,9.20624,KLWB 031951Z 33008KT 10SM SCT041 SCT055 27/19 A2994,2024-08-03T19:51:00Z,27,19,10+,29.94
KLGA,40.7794,-73.8803,170,14,16.11092,KLGA 031951Z 17014G23KT 10SM SCT038CB SCT050 SCT080 SCT180 BKN250 31/22 A2977 RMK AO2 SLP081 CB SW-N MOV NE T03110222,2024-08-03T19:51:00Z,31.1,22.2,10+,29.77
KJFK,40.6392,-73.7639,180,18,20.714039999999997,KJFK 031951Z 18018G26KT 10SM SCT040 SCT250 30/24 A2981 RMK AO2 PK WND 18026/1951 SLP093 CB DSNT NW-N T03000239 $,2024-08-03T19:51:00Z,30,23.9,10+,29.81
KJCT,30.5105,-99.7665,90,5,5.7539,KJCT 031951Z AUTO 09005KT 10SM CLR 36/21 A3002 RMK AO2 SLP126 T03560211,2024-08-03T19:51:00Z,35.6,21.1,10+,30.02
KILG,39.6744,-75.6057,200,11,12.658579999999999,KILG 031951Z 20011KT 10SM SCT036 BKN045 32/23 A2980 RMK AO2 SLP089 T03170233,2024-08-03T19:51:00Z,31.7,23.3,10+,29.80
KHTS,38.3653,-82.5548,,,,KHTS 031951Z 10SM FEW039 SCT065 29/18 A2989 RMK AO2 SLP113 T02890183,2024-08-03T19:51:00Z,28.9,18.3,10+,29.89
KHSE,35.2324,-75.6223,220,11,12.658579999999999,KHSE 031951Z AUTO 22011G22KT 9SM CLR 29/26 A2999 RMK AO2 PK WND 20026/1905 SLP155 T02890256,2024-08-03T19:51:00Z,28.9,25.6,9,29.99
KHDO,29.3601,-99.1742,60,8,9.20624,KHDO 031951Z AUTO 06008KT 350V090 10SM CLR 38/19 A2997 RMK AO2 SLP128 T03830194,2024-08-03T19:51:00Z,38.3,19.4,10+,29.97
KEWR,40.6828,-74.1692,140,10,11.5078,KEWR 031951Z 14010G18KT 10SM SCT045CB SCT070 BKN110 BKN140 BKN250 32/23 A2976 RMK AO2 SLP078 CB N-NE MOV NE T03220228 $,2024-08-03T19:51:00Z,32.2,22.8,10+,29.76
KERI,42.0803,-80.1824,20,7,8.05546,KERI 031951Z 02007KT 10SM BKN065 27/20 A2987 RMK AO2 SLP111 T02720200,2024-08-03T19:51:00Z,27.2,20,10+,29.87
KELP,31.8123,-106.377,50,8,9.20624,KELP 031951Z 05008KT 10SM SCT100 BKN150 BKN250 37/09 A3013 RMK AO2 SLP113 CB DSNT NE T03720089,2024-08-03T19:51:00Z,37.2,8.9,10+,30.13
KEKN,38.8899,-79.8554,VRB,3,3.4523399999999995,KEKN 031951Z AUTO VRB03KT 10SM SCT032 BKN039 BKN080 25/21 A2994 RMK AO2 SLP126 T02500206,2024-08-03T19:51:00Z,25,20.6,10+,29.94
KDAW,43.2794,-70.9243,VRB,3,3.4523399999999995,KDAW 031951Z AUTO VRB03KT 10SM SCT027 31/23 A2978 RMK AO2 SLP079 T03110228,2024-08-03T19:51:00Z,31.1,22.8,10+,29.78
KCSG,32.5163,-84.9422,120,5,5.7539,KCSG 031951Z 12005KT 10SM FEW090 27/21 A2994 RMK AO2 PK WND 20029/1908 LTG DSNT E AND SE TSB18E33 SLP132 T02670206,2024-08-03T19:51:00Z,26.7,20.6,10+,29.94
KCRP,27.7733,-97.513,120,6,6.904679999999999,KCRP 031951Z 12006KT 10SM SCT042 SCT046 34/25 A2994 RMK AO2 SLP138 T03440250,2024-08-03T19:51:00Z,34.4,25,10+,29.94
KCON,43.2049,-71.5026,0,0,0.0,KCON 031951Z AUTO 00000KT 10SM CLR 29/21 A2978 RMK AO2 SLP082 T02940211,2024-08-03T19:51:00Z,29.4,21.1,10+,29.78
KCLE,41.4057,-81.8519,360,9,10.357019999999999,KCLE 031951Z 36009KT 10SM FEW021 BKN250 28/20 A2988 RMK AO2 SLP128 T02830200,2024-08-03T19:51:00Z,28.3,20,10+,29.88
KCFO,39.7948,-104.54,330,9,10.357019999999999,KCFO 031951Z 33009G15KT 10SM CLR 34/00 A3028,2024-08-03T19:51:00Z,34,0,10+,30.28
KCDJ,39.8198,-93.577,200,4,4.60312,KCDJ 031951Z AUTO 20004KT 32/23 A3002 RMK AO1 SLP152 T03170228,2024-08-03T19:51:00Z,31.7,22.8,,30.02
KCAK,40.9181,-81.4434,VRB,3,3.4523399999999995,KCAK 031951Z VRB03KT 10SM SCT032 BKN085 BKN180 24/21 A2990 RMK AO2 RAE1856 SLP118 P0000 T02390206 $,2024-08-03T19:51:00Z,23.9,20.6,10+,29.90
KBKW,37.7836,-81.1228,300,7,8.05546,KBKW 031951Z AUTO 30007KT 10SM FEW036 FEW060 27/18 A2995 RMK AO2 SLP104 T02670178,2024-08-03T19:51:00Z,26.7,17.8,10+,29.95
KBHK,46.3521,-104.261,,,,KBHK 031951Z AUTO 10SM CLR 33/04 A3011 RMK AO2 SLP164 T03330039,2024-08-03T19:51:00Z,33.3,3.9,10+,30.11
KBGD,35.695,-101.396,200,10,11.5078,KBGD 031951Z AUTO 20010G16KT 10SM FEW090 36/12 A3013 RMK AO2 SLP149 T03560117,2024-08-03T19:51:00Z,35.6,11.7,10+,30.13
KBED,42.4681,-71.2946,310,9,10.357019999999999,KBED 031951Z 31009KT 10SM CLR 31/22 A2977 RMK AO2 SLP091 T03110217,2024-08-03T19:51:00Z,31.1,21.7,10+,29.77
KBDL,41.9374,-72.682,260,7,8.05546,KBDL 031951Z 26007KT 10SM FEW038 SCT055 SCT140 BKN200 33/22 A2979 RMK AO2 SLP086 T03330222 $,2024-08-03T19:51:00Z,33.3,22.2,10+,29.79
KBAZ,29.7089,-98.0459,110,7,8.05546,KBAZ 031951Z 11007KT 10SM CLR 38/22 A2994,2024-08-03T19:51:00Z,38,22,10+,29.94
KAVX,33.4042,-118.415,280,5,5.7539,KAVX 031951Z AUTO 28005KT 10SM CLR 32/11 A3002 RMK AO2 SLP125 T03170106 $,2024-08-03T19:51:00Z,31.7,10.6,10+,30.02
KATT,30.3208,-97.7604,VRB,3,3.4523399999999995,KATT 031951Z AUTO VRB03KT 10SM SCT070 36/21 A2997 RMK AO2 SLP132 T03610206,2024-08-03T19:51:00Z,36.1,20.6,10+,29.97
KALB,42.7473,-73.7991,160,3,3.4523399999999995,KALB 031951Z 16003KT 10SM FEW037 SCT150 BKN250 29/20 A2981 RMK AO2 SLP091 T02890200,2024-08-03T19:51:00Z,28.9,20,10+,29.81
KAHN,33.9477,-83.3274,290,9,10.357019999999999,KAHN 031951Z 29009KT 10SM FEW049 32/21 A2990 RMK AO2 SLP116 T03170206,2024-08-03T19:51:00Z,31.7,20.6,10+,29.90
KACT,31.618,-97.2283,190,6,6.904679999999999,KACT 031951Z COR 19006KT 10SM CLR 34/21 A2996 RMK AO2 SLP136 T03440211,2024-08-03T19:51:00Z,34.4,21.1,10+,29.96
KABE,40.658,-75.4347,240,13,14.960139999999999,KABE 031951Z 24013G19KT 10SM FEW041 SCT060 32/21 A2978 RMK AO2 LTG DSNT NW-E SLP081 T03220211 $,2024-08-03T19:51:00Z,32.2,21.1,10+,29.78
K6R6,30.0482,-102.213,100,11,12.658579999999999,K6R6 031951Z AUTO 10011G19KT 37/14 A3004 RMK AO1 SLP130 T03720139,2024-08-03T19:51:00Z,37.2,13.9,,30.04
TJBQ,18.494,-67.128,140,4,4.60312,TJBQ 031950Z 14004KT 10SM VCTS BKN025 BKN031 27/23 A2999 RMK LTG DSNT SE THRU SW,2024-08-03T19:50:00Z,27,23,10+,29.99
PTRO,7.367,134.544,240,4,4.60312,PTRO 031950Z 24004KT 15SM SCT016 SCT120 BKN290 27/24 A2982 ,2024-08-03T19:50:00Z,27,24,15,29.82
OOSH,24.388,56.624,190,4,4.60312,OOSH 031950Z AUTO 19004KT //// ////// 34/28 Q0995,2024-08-03T19:50:00Z,34,28,,29.38
OOSA,17.044,54.102,220,5,5.7539,OOSA 031950Z 22005KT 7000 SCT015 BKN030 26/24 Q1005 NOSIG,2024-08-03T19:50:00Z,26,24,4.35,29.68
OOMS,23.595,58.298,40,6,6.904679999999999,OOMS 031950Z 04006KT 8000 NSC 32/27 Q0996 NOSIG,2024-08-03T19:50:00Z,32,27,4.97,29.41
OOKB,26.168,56.239,160,4,4.60312,OOKB 031950Z AUTO 16004KT 120V180 CAVOK 38/27 Q0994 NOSIG,2024-08-03T19:50:00Z,38,27,6+,29.35
OODQ,19.511,57.657,210,29,33.37262,OODQ 031950Z AUTO 21029KT //// R22///// OVC007 24/22 Q0998 NOSIG,2024-08-03T19:50:00Z,24,22,,29.47
OOAD,22.5,57.37,240,6,6.904679999999999,OOAD 031950Z AUTO 24006KT 9999 // NCD 39/15 Q0998 NOSIG,2024-08-03T19:50:00Z,39,15,6+,29.47
MUVR,23.033,-81.435,160,7,8.05546,MUVR 031950Z 16007KT 120V210 9000 SCT020 OVC060 25/XX Q1010,2024-08-03T19:50:00Z,25,,5.59,29.82
MUHG,20.786,-76.316,110,8,9.20624,MUHG 031950Z 11008KT 090V150 7000 -TSRA FEW018CB SCT030 BKN070 29/23 Q1013,2024-08-03T19:50:00Z,29,23,4.35,29.91
MUHA,22.991,-82.41,VRB,3,3.4523399999999995,MUHA 031950Z VRB03KT 8000 FEW015TCU SCT016 BKN090 26/24 Q1009,2024-08-03T19:50:00Z,26,24,4.97,29.79
MUCU,19.971,-75.837,140,9,10.357019999999999,MUCU 031950Z 14009KT 110V180 9000 FEW020 31/25 Q1013,2024-08-03T19:50:00Z,31,25,5.59,29.91
MUCM,21.42,-77.85,160,9,10.357019999999999,MUCM 031950Z 16009KT 110V190 9000 SCT020 34/23 Q1013,2024-08-03T19:50:00Z,34,23,5.59,29.91
MUCL,21.621,-81.552,180,13,14.960139999999999,MUCL 031950Z 18013KT 5000 RA SCT015 OVC050 26/25 Q1011,2024-08-03T19:50:00Z,26,25,3.11,29.85
MMPQ,17.534,-92.017,0,0,0.0,MMPQ 031950Z 00000KT 6SM BKN040 32/26 A2980 RMK 8/500,2024-08-03T19:50:00Z,32,26,6,29.80
LXGB,36.151,-5.35,80,7,8.05546,LXGB 031950Z AUTO 08007KT 9999 NCD 24/22 Q1013,2024-08-03T19:50:00Z,24,22,6+,29.91
LWSK,41.952,21.627,30,9,10.357019999999999,LWSK 031950Z 03009KT 9999 FEW060 24/14 Q1010 NOSIG,2024-08-03T19:50:00Z,24,14,6+,29.82
LTFO,41.179,40.845,120,4,4.60312,LTFO 031950Z 12004KT 9999 SCT035 BKN080 25/20 Q1007,2024-08-03T19:50:00Z,25,20,6+,29.73
LTFM,41.262,28.74,110,7,8.05546,LTFM 031950Z 11007KT CAVOK 25/20 Q1007 NOSIG RMK RWY17L 09006KT 320V120 RWY34L 10006KT 340V120 RWY16R 32012G22KT 290V010 RWY36 11008KT RWY18 11006KT 070V130,2024-08-03T19:50:00Z,25,20,6+,29.73
LTFJ,40.899,29.309,30,6,6.904679999999999,LTFJ 031950Z 03006KT 330V060 CAVOK 25/19 Q1006 NOSIG RMK RWY24R 03006KT 360V060 RWY06R 03007KT RWY24L 03006KT,2024-08-03T19:50:00Z,25,19,6+,29.70
LTFH,41.255,36.567,0,0,0.0,LTFH 031950Z 00000KT CAVOK 21/19 Q1006 NOSIG,2024-08-03T19:50:00Z,21,19,6+,29.70
LTFG,36.299,32.3,230,4,4.60312,LTFG 031950Z 23004KT 9999 SCT025 29/25 Q1004,2024-08-03T19:50:00Z,29,25,6+,29.65
LTFE,37.245,27.673,110,4,4.60312,LTFE 031950Z 11004KT CAVOK 23/16 Q1005 NOSIG RMK RWY10 04003KT,2024-08-03T19:50:00Z,23,16,6+,29.68
LTFD,39.559,27.025,60,2,2.30156,LTFD 031950Z 06002KT CAVOK 25/15 Q1005,2024-08-03T19:50:00Z,25,15,6+,29.68
LTFC,37.855,30.368,VRB,3,3.4523399999999995,LTFC 031950Z VRB03KT CAVOK 28/06 Q1010 RMK RWY23 00000KT,2024-08-03T19:50:00Z,28,6,6+,29.82
LTDA,36.361,36.283,210,6,6.904679999999999,LTDA 031950Z 21006KT 120V260 CAVOK 28/21 Q1004 NOSIG,2024-08-03T19:50:00Z,28,21,6+,29.65
LTCW,37.55,44.238,250,3,3.4523399999999995,LTCW 031950Z 25003KT 9999 FEW040 SCT100 18/08 Q1015,2024-08-03T19:50:00Z,18,8,6+,29.97
LTCV,37.365,42.06,280,7,8.05546,LTCV 031950Z 28007KT CAVOK 31/04 Q1002,2024-08-03T19:50:00Z,31,4,6+,29.59
LTCT,39.977,43.878,360,9,10.357019999999999,LTCT 031950Z 36009KT 320V040 9999 FEW035 SCT100 25/11 Q1009,2024-08-03T19:50:00Z,25,11,6+,29.79
LTCS,37.445,38.904,350,8,9.20624,LTCS 031950Z 35008KT CAVOK 28/M04 Q1005 RMK RWY22 30005KT SKC,2024-08-03T19:50:00Z,28,-4,6+,29.68
LTCN,37.539,36.953,290,10,11.5078,LTCN 031950Z 29010KT 250V320 CAVOK 28/20 Q1006,2024-08-03T19:50:00Z,28,20,6+,29.70
LTCJ,37.93,41.117,180,3,3.4523399999999995,LTCJ 031950Z 18003KT 120V220 CAVOK 26/13 Q1001 NOSIG RMK RWY20 15004KT SKC,2024-08-03T19:50:00Z,26,13,6+,29.56
LTCI,38.469,43.337,VRB,2,2.30156,LTCI 031950Z VRB02KT 9999 FEW040 SCT100 23/09 Q1012 NOSIG,2024-08-03T19:50:00Z,23,9,6+,29.88
LTCG,40.995,39.782,200,5,5.7539,LTCG 031950Z 20005KT 150V220 9999 FEW035 BKN080 24/19 Q1007 NOSIG RMK RWY29 18003KT 140V210,2024-08-03T19:50:00Z,24,19,6+,29.73
LTCF,40.562,43.115,60,12,13.809359999999998,LTCF 031950Z 06012KT 9999 -TSRA FEW025CB SCT035 16/13 Q1018 NOSIG,2024-08-03T19:50:00Z,16,13,6+,30.06
LTCE,39.956,41.17,60,4,4.60312,LTCE 031950Z 06004KT 030V120 9999 SCT040 14/09 Q1015 NOSIG RMK RWY08R 35003KT 300V040 RWY26R 04006KT RWY08L 02003KT 3CU040,2024-08-03T19:50:00Z,14,9,6+,29.97
LTCD,39.71,39.527,270,13,14.960139999999999,LTCD 031950Z 27013KT CAVOK 23/05 Q1009 NOSIG,2024-08-03T19:50:00Z,23,5,6+,29.79
LTCC,37.894,40.201,300,6,6.904679999999999,LTCC 031950Z 30006KT CAVOK 27/03 Q1003 NOSIG RMK RWY16 29008KT 270V350 SKC,2024-08-03T19:50:00Z,27,3,6+,29.62
LTCB,40.967,38.081,150,5,5.7539,LTCB 031950Z 15005KT 9999 FEW035 24/20 Q1007 NOSIG,2024-08-03T19:50:00Z,24,20,6+,29.73
LTCA,38.607,39.291,230,6,6.904679999999999,LTCA 031950Z 23006KT CAVOK 23/M01 Q1006 NOSIG,2024-08-03T19:50:00Z,23,-1,6+,29.70
LTBY,39.81,30.519,280,6,6.904679999999999,LTBY 031950Z 28006KT CAVOK 21/11 Q1010,2024-08-03T19:50:00Z,21,11,6+,29.82
LTBU,41.139,27.919,350,11,12.658579999999999,LTBU 031950Z 35011KT CAVOK 25/15 Q1007 RMK RWY22 35009KT,2024-08-03T19:50:00Z,25,15,6+,29.73
LTBS,36.713,28.793,0,0,0.0,LTBS 031950Z 00000KT CAVOK 27/23 Q1004 NOSIG RMK RWY19 01003KT SKC,2024-08-03T19:50:00Z,27,23,6+,29.65
LTBR,40.255,29.562,340,4,4.60312,LTBR 031950Z 34004KT CAVOK 21/14 Q1007 NOSIG RMK RWY07 33003KT 300V010,2024-08-03T19:50:00Z,21,14,6+,29.73
LTBQ,40.735,30.083,VRB,2,2.30156,LTBQ 031950Z VRB02KT CAVOK 18/17 Q1006 NOSIG,2024-08-03T19:50:00Z,18,17,6+,29.70
LTBJ,38.285,27.155,190,3,3.4523399999999995,LTBJ 031950Z 19003KT 110V230 CAVOK 26/15 Q1005 NOSIG RMK RWY16 06008KT,2024-08-03T19:50:00Z,26,15,6+,29.68
LTBH,40.14,26.425,VRB,1,1.15078,LTBH 031950Z VRB01KT CAVOK 26/13 Q1006,2024-08-03T19:50:00Z,26,13,6+,29.70
LTBF,39.619,27.926,0,0,0.0,LTBF 031950Z 00000KT CAVOK 23/09 Q1006 NOSIG,2024-08-03T19:50:00Z,23,9,6+,29.70
LTBD,37.816,27.886,200,6,6.904679999999999,LTBD 031950Z 20006KT CAVOK 25/12 Q1005,2024-08-03T19:50:00Z,25,12,6+,29.68
LTBA,40.982,28.821,70,6,6.904679999999999,LTBA 031950Z 07006KT CAVOK 27/17 Q1006 RMK RWY23 07006KT,2024-08-03T19:50:00Z,27,17,6+,29.70
LTAZ,38.771,34.521,200,5,5.7539,LTAZ 031950Z 20005KT CAVOK 24/04 Q1009 RMK RWY29 32003KT 270V060,2024-08-03T19:50:00Z,24,4,6+,29.79
LTAY,37.785,29.701,0,0,0.0,LTAY 031950Z 00000KT CAVOK 23/06 Q1011 NOSIG,2024-08-03T19:50:00Z,23,6,6+,29.85
LTAU,38.77,35.495,60,6,6.904679999999999,LTAU 031950Z 06006KT CAVOK 19/07 Q1010 NOSIG RMK RWY07 07004KT 050V110,2024-08-03T19:50:00Z,19,7,6+,29.82
LTAT,38.435,38.092,310,17,19.56326,LTAT 031950Z 31017KT CAVOK 30/02 Q1006 NOSIG RMK RWY03 31014KT,2024-08-03T19:50:00Z,30,2,6+,29.70
LTAR,39.798,36.894,40,4,4.60312,LTAR 031950Z 04004KT 350V110 CAVOK 15/07 Q1015,2024-08-03T19:50:00Z,15,7,6+,29.97
LTAP,40.826,35.52,20,7,8.05546,LTAP 031950Z 02007KT CAVOK 23/07 Q1007 NOSIG RMK RWY23 03010KT,2024-08-03T19:50:00Z,23,7,6+,29.73
LTAN,37.979,32.562,290,3,3.4523399999999995,LTAN 031950Z 29003KT 260V320 CAVOK 26/07 Q1010 NOSIG,2024-08-03T19:50:00Z,26,7,6+,29.82
LTAJ,36.947,37.479,300,10,11.5078,LTAJ 031950Z 30010KT 250V320 CAVOK 29/16 Q1005 NOSIG RMK RWY10 30015KT SKC,2024-08-03T19:50:00Z,29,16,6+,29.68
LTAI,36.9,30.798,90,4,4.60312,LTAI 031950Z 09004KT 9999 FEW025 29/26 Q1004 NOSIG RMK RWY18C 07004KT 360V120 RWY36R 06003KT RWY18L 06002KT,2024-08-03T19:50:00Z,29,26,6+,29.65
LTAG,37.002,35.426,150,5,5.7539,LTAG 031950Z 15005KT 9999 SCT035 28/22 Q1004 NOSIG RMK 4CU035,2024-08-03T19:50:00Z,28,22,6+,29.65
LTAF,36.989,35.293,140,3,3.4523399999999995,LTAF 031950Z 14003KT 120V180 9999 SCT025 28/25 Q1004 NOSIG RMK RWY23 21004KT 3CU025,2024-08-03T19:50:00Z,28,25,6+,29.65
LTAE,40.079,32.566,VRB,2,2.30156,LTAE 031950Z VRB02KT CAVOK 24/10 Q1009 NOSIG RMK RWY21 02008KT,2024-08-03T19:50:00Z,24,10,6+,29.79
LTAC,40.128,32.995,0,0,0.0,LTAC 031950Z 00000KT CAVOK 24/06 Q1009 NOSIG RMK RWY21L 00000KT RWY03L 00000KT RWY21R VRB01KT,2024-08-03T19:50:00Z,24,6,6+,29.79
LSZS,46.526,9.879,180,3,3.4523399999999995,LSZS 031950Z AUTO 18003KT 140V230 9999 NCD 11/08 Q1020,2024-08-03T19:50:00Z,11,8,6+,30.12
LSZR,47.485,9.561,190,3,3.4523399999999995,LSZR 031950Z AUTO 19003KT 9999 //////TCU 21/18 Q1015,2024-08-03T19:50:00Z,21,18,6+,29.97
LSZH,47.48,8.536,30,3,3.4523399999999995,LSZH 031950Z 03003KT 9999 FEW070 20/15 Q1015 NOSIG,2024-08-03T19:50:00Z,20,15,6+,29.97
LSZG,47.179,7.415,190,5,5.7539,LSZG 031950Z AUTO 19005KT 160V230 9999 NCD 22/15 Q1015,2024-08-03T19:50:00Z,22,15,6+,29.97
LSZC,46.972,8.392,270,4,4.60312,LSZC 031950Z AUTO 27004KT 230V310 9999 BKN050 22/17 Q1016,2024-08-03T19:50:00Z,22,17,6+,30.00
LSZB,46.914,7.497,320,4,4.60312,LSZB 031950Z 32004KT 9999 FEW055 SCT065 22/14 Q1016,2024-08-03T19:50:00Z,22,14,6+,30.00
LSZA,46.004,8.91,VRB,1,1.15078,LSZA 031950Z AUTO VRB01KT 9999 NCD 25/17 Q1011,2024-08-03T19:50:00Z,25,17,6+,29.85
LSMP,46.844,6.916,350,3,3.4523399999999995,LSMP 031950Z AUTO 35003KT 330V030 9999NDV FEW059 22/15 Q1016 RMK,2024-08-03T19:50:00Z,22,15,,30.00
LSMM,46.743,8.11,VRB,2,2.30156,LSMM 031950Z AUTO VRB02KT 9999NDV FEW058 SCT067 20/17 Q1016 RMK,2024-08-03T19:50:00Z,20,17,,30.00
LSME,47.092,8.305,0,0,0.0,LSME 031950Z AUTO 00000KT 9999NDV BKN050 BKN058 22/17 Q1015 RMK,2024-08-03T19:50:00Z,22,17,,29.97
LSMD,47.399,8.648,130,3,3.4523399999999995,LSMD 031950Z AUTO 13003KT 9999NDV -SHRA BR SCT062 20/16 Q1015 RMK,2024-08-03T19:50:00Z,20,16,,29.97
LSMA,46.943,8.286,250,4,4.60312,LSMA 031950Z AUTO 25004KT 210V280 9999NDV -SHRA BKN052 22/18 Q1015 RMK,2024-08-03T19:50:00Z,22,18,,29.97
LSGS,46.219,7.33,230,6,6.904679999999999,LSGS 031950Z AUTO 23006KT 190V270 9999 NCD 24/14 Q1014,2024-08-03T19:50:00Z,24,14,6+,29.94
LSGG,46.248,6.128,350,5,5.7539,LSGG 031950Z AUTO 35005KT 270V060 CAVOK 23/13 Q1015 NOSIG,2024-08-03T19:50:00Z,23,13,6+,29.97
LSGC,47.083,6.792,320,1,1.15078,LSGC 031950Z AUTO 32001KT 9999 FEW027 15/13 Q1019,2024-08-03T19:50:00Z,15,13,6+,30.09
LOXZ,47.203,14.744,VRB,1,1.15078,LOXZ 031950Z VRB01KT 9999 FEW060 SCT080 BKN100 18/15 Q1015,2024-08-03T19:50:00Z,18,15,6+,29.97
LOWW,48.117,16.582,360,4,4.60312,LOWW 031950Z 36004KT CAVOK 21/15 Q1012 NOSIG,2024-08-03T19:50:00Z,21,15,6+,29.88
LOWS,47.789,13.009,170,8,9.20624,LOWS 031950Z AUTO 17008KT 9999 FEW042 18/17 Q1015 NOSIG,2024-08-03T19:50:00Z,18,17,6+,29.97
LOWL,48.233,14.188,230,8,9.20624,LOWL 031950Z AUTO 23008KT 9999 NCD 20/14 Q1014 NOSIG,2024-08-03T19:50:00Z,20,14,6+,29.94
LOWK,46.648,14.318,VRB,2,2.30156,LOWK 031950Z AUTO VRB02KT 9999 NCD 19/16 Q1014 NOSIG,2024-08-03T19:50:00Z,19,16,6+,29.94
LOWI,47.26,11.344,40,3,3.4523399999999995,LOWI 031950Z AUTO 04003KT 360V080 9999 FEW120 19/15 Q1016 NOSIG,2024-08-03T19:50:00Z,19,15,6+,30.00
LOWG,46.997,15.447,VRB,1,1.15078,LOWG 031950Z AUTO VRB01KT 9999 NCD 20/17 Q1013 NOSIG,2024-08-03T19:50:00Z,20,17,6+,29.91
LLER,29.722,35.012,20,8,9.20624,LLER 031950Z 02008KT CAVOK 34/06 Q1005,2024-08-03T19:50:00Z,34,6,6+,29.68
LLBG,32.011,34.887,360,5,5.7539,LLBG 031950Z 36005KT CAVOK 28/23 Q1006 NOSIG,2024-08-03T19:50:00Z,28,23,6+,29.70
LIRZ,43.097,12.51,VRB,2,2.30156,LIRZ 031950Z AUTO VRB02KT 9999 NCD 23/20 Q1010,2024-08-03T19:50:00Z,23,20,6+,29.82
LIRQ,43.81,11.205,110,5,5.7539,LIRQ 031950Z 11005KT CAVOK 27/18 Q1009,2024-08-03T19:50:00Z,27,18,6+,29.79
LIRN,40.885,14.292,VRB,4,4.60312,LIRN 031950Z VRB04KT 9999 FEW060 30/20 Q1009 NOSIG,2024-08-03T19:50:00Z,30,20,6+,29.79
LIRI,40.62,14.911,40,5,5.7539,LIRI 031950Z 04005KT 270V080 CAVOK 31/18 Q1008,2024-08-03T19:50:00Z,31,18,6+,29.76
LIRF,41.8,12.239,140,4,4.60312,LIRF 031950Z 14004KT 090V180 CAVOK 28/26 Q1008 NOSIG,2024-08-03T19:50:00Z,28,26,6+,29.76
LIRA,41.808,12.585,290,3,3.4523399999999995,LIRA 031950Z 29003KT CAVOK 28/24 Q1009,2024-08-03T19:50:00Z,28,24,6+,29.79
LIPZ,45.505,12.352,250,2,2.30156,LIPZ 031950Z 25002KT CAVOK 26/20 Q1009 NOSIG,2024-08-03T19:50:00Z,26,20,6+,29.79
LIPY,43.617,13.36,VRB,2,2.30156,LIPY 031950Z AUTO VRB02KT 9999 NCD 24/20 Q1010,2024-08-03T19:50:00Z,24,20,6+,29.82
LIPX,45.387,10.872,VRB,2,2.30156,LIPX 031950Z VRB02KT CAVOK 24/23 Q1010,2024-08-03T19:50:00Z,24,23,6+,29.82
LIPR,44.02,12.612,210,3,3.4523399999999995,LIPR 031950Z 21003KT CAVOK 23/21 Q1009,2024-08-03T19:50:00Z,23,21,6+,29.79
LIPQ,45.828,13.472,VRB,1,1.15078,LIPQ 031950Z AUTO VRB01KT 9999 NCD 25/19 Q1010,2024-08-03T19:50:00Z,25,19,6+,29.82
LIPO,45.429,10.331,80,3,3.4523399999999995,LIPO 031950Z AUTO 08003KT 9999 NCD 26/22 Q1010,2024-08-03T19:50:00Z,26,22,6+,29.82
LIPK,44.196,12.07,VRB,2,2.30156,LIPK 031950Z VRB02KT CAVOK 23/19 Q1010,2024-08-03T19:50:00Z,23,19,6+,29.82
LIPH,45.648,12.194,300,3,3.4523399999999995,LIPH 031950Z 30003KT 260V330 CAVOK 26/19 Q1010,2024-08-03T19:50:00Z,26,19,6+,29.82
LIPE,44.531,11.297,80,3,3.4523399999999995,LIPE 031950Z 08003KT CAVOK 25/20 Q1010,2024-08-03T19:50:00Z,25,20,6+,29.82
LIPB,46.46,11.326,160,3,3.4523399999999995,LIPB 031950Z 16003KT 9999 FEW100 26/16 Q1010,2024-08-03T19:50:00Z,26,16,6+,29.82
LIMZ,44.547,7.623,340,2,2.30156,LIMZ 031950Z AUTO 34002KT 9999 SCT092/// 25/19 Q1011,2024-08-03T19:50:00Z,25,19,6+,29.85
LIMP,44.825,10.296,80,6,6.904679999999999,LIMP 031950Z 08006KT CAVOK 27/19 Q1009,2024-08-03T19:50:00Z,27,19,6+,29.79
LIML,45.461,9.263,70,5,5.7539,LIML 031950Z 07005KT 040V100 CAVOK 27/22 Q1010 NOSIG,2024-08-03T19:50:00Z,27,22,6+,29.82
LIMJ,44.413,8.838,230,3,3.4523399999999995,LIMJ 031950Z AUTO 23003KT 9999 NCD 28/24 Q1008,2024-08-03T19:50:00Z,28,24,6+,29.76
LIMF,45.203,7.649,340,5,5.7539,LIMF 031950Z 34005KT 9999 FEW090 26/16 Q1010,2024-08-03T19:50:00Z,26,16,6+,29.82
LIME,45.674,9.704,10,5,5.7539,LIME 031950Z 01005KT CAVOK 24/19 Q1011 NOSIG,2024-08-03T19:50:00Z,24,19,6+,29.85
LIMC,45.631,8.728,90,6,6.904679999999999,LIMC 031950Z 09006KT CAVOK 26/20 Q1010 NOSIG,2024-08-03T19:50:00Z,26,20,6+,29.82
LIEO,40.899,9.518,300,5,5.7539,LIEO 031950Z 30005KT 250V010 CAVOK 30/20 Q1008,2024-08-03T19:50:00Z,30,20,6+,29.76
LIEE,39.243,9.06,360,16,18.41248,LIEE 031950Z 36016KT CAVOK 27/22 Q1009,2024-08-03T19:50:00Z,27,22,6+,29.79
LIEA,40.631,8.289,310,3,3.4523399999999995,LIEA 031950Z 31003KT 240V010 CAVOK 25/22 Q1010,2024-08-03T19:50:00Z,25,22,6+,29.82
LICR,38.072,15.654,40,9,10.357019999999999,LICR 031950Z AUTO 04009KT 9999 BKN160/// 33/10 Q1008,2024-08-03T19:50:00Z,33,10,6+,29.76
LICJ,38.176,13.091,310,5,5.7539,LICJ 031950Z 31005KT CAVOK 28/26 Q1009,2024-08-03T19:50:00Z,28,26,6+,29.79
LICD,35.498,12.618,360,14,16.11092,LICD 031950Z 36014KT CAVOK 28/27 Q1009,2024-08-03T19:50:00Z,28,27,6+,29.79
LICC,37.467,15.064,90,3,3.4523399999999995,LICC 031950Z 09003KT 040V130 CAVOK 32/17 Q1008,2024-08-03T19:50:00Z,32,17,6+,29.76
LICB,36.994,14.606,280,7,8.05546,LICB 031950Z AUTO 28007KT 9999 FEW140/// SCT180/// BKN200/// 29/19 Q1009,2024-08-03T19:50:00Z,29,19,6+,29.79
LICA,38.908,16.242,140,3,3.4523399999999995,LICA 031950Z AUTO 14003KT 110V170 9999 FEW210/// 27/22 Q1009,2024-08-03T19:50:00Z,27,22,6+,29.79
LIBR,40.658,17.951,330,12,13.809359999999998,LIBR 031950Z 33012KT 8000 SCT010 28/25 Q1009,2024-08-03T19:50:00Z,28,25,4.97,29.79
LIBP,42.432,14.181,240,5,5.7539,LIBP 031950Z AUTO 24005KT 9999 FEW160/// 23/20 Q1009,2024-08-03T19:50:00Z,23,20,6+,29.79
LIBF,41.433,15.535,290,9,10.357019999999999,LIBF 031950Z 29009KT 9999 BKN050CB 24/21 Q1011 RERA,2024-08-03T19:50:00Z,24,21,6+,29.85
LIBD,41.138,16.765,280,4,4.60312,LIBD 031950Z 28004KT 240V310 9999 FEW040 24/21 Q1010,2024-08-03T19:50:00Z,24,21,6+,29.82
LGZA,37.751,20.884,130,4,4.60312,LGZA 031950Z 13004KT CAVOK 28/13 Q1007,2024-08-03T19:50:00Z,28,13,6+,29.73
LGTS,40.52,22.971,110,4,4.60312,LGTS 031950Z 11004KT 9999 FEW030 28/18 Q1005 NOSIG,2024-08-03T19:50:00Z,28,18,6+,29.68
LGSR,36.399,25.479,240,7,8.05546,LGSR 031950Z 24007KT CAVOK 28/13 Q1006,2024-08-03T19:50:00Z,28,13,6+,29.70
LGSO,37.422,24.95,280,9,10.357019999999999,LGSO 031950Z AUTO 28009KT //// // ////// 28/18 Q1006 RE//,2024-08-03T19:50:00Z,28,18,,29.70
LGSM,37.69,26.912,0,0,0.0,LGSM 031950Z 00000KT CAVOK 26/17 Q1005,2024-08-03T19:50:00Z,26,17,6+,29.68
LGSA,35.54,24.141,280,8,9.20624,LGSA 031950Z 28008KT CAVOK 26/22 Q1007,2024-08-03T19:50:00Z,26,22,6+,29.73
LGRX,38.151,21.426,0,0,0.0,LGRX 031950Z 00000KT CAVOK 27/21 Q1007,2024-08-03T19:50:00Z,27,21,6+,29.73
LGRP,36.405,28.086,230,9,10.357019999999999,LGRP 031950Z 23009KT CAVOK 27/20 Q1004 NOSIG,2024-08-03T19:50:00Z,27,20,6+,29.65
LGPZ,38.921,20.761,260,6,6.904679999999999,LGPZ 031950Z 26006KT CAVOK 27/22 Q1007,2024-08-03T19:50:00Z,27,22,6+,29.73
LGPA,37.022,25.114,40,5,5.7539,LGPA 031950Z AUTO 04005KT //// // ////// 26/14 Q1006 RE//,2024-08-03T19:50:00Z,26,14,,29.70
LGMT,39.054,26.604,VRB,2,2.30156,LGMT 031950Z VRB02KT CAVOK 26/14 Q1005,2024-08-03T19:50:00Z,26,14,6+,29.68
LGMK,37.435,25.348,VRB,3,3.4523399999999995,LGMK 031950Z VRB03KT CAVOK 27/16 Q1006,2024-08-03T19:50:00Z,27,16,6+,29.70
LGLM,39.917,25.236,0,0,0.0,LGLM 031950Z 00000KT CAVOK 25/21 Q1005,2024-08-03T19:50:00Z,25,21,6+,29.68
LGKZ,40.288,21.842,VRB,2,2.30156,LGKZ 031950Z AUTO VRB02KT //// // ////// 23/10 Q1010 RE//,2024-08-03T19:50:00Z,23,10,,29.82
LGKV,40.915,24.622,30,5,5.7539,LGKV 031950Z 03005KT 9999 FEW030 23/21 Q1005,2024-08-03T19:50:00Z,23,21,6+,29.68
LGKR,39.61,19.913,VRB,2,2.30156,LGKR 031950Z VRB02KT 9999 FEW030 29/20 Q1006 NOSIG,2024-08-03T19:50:00Z,29,20,6+,29.70
LGKO,36.801,27.091,300,8,9.20624,LGKO 031950Z 30008KT CAVOK 23/20 Q1005,2024-08-03T19:50:00Z,23,20,6+,29.68
LGKL,37.068,22.026,320,4,4.60312,LGKL 031950Z AUTO 32004KT //// // ////// 26/19 Q1007 RE//,2024-08-03T19:50:00Z,26,19,,29.73
LGKF,38.12,20.5,VRB,3,3.4523399999999995,LGKF 031950Z VRB03KT CAVOK 26/19 Q1007,2024-08-03T19:50:00Z,26,19,6+,29.73
LGKC,36.274,23.017,270,12,13.809359999999998,LGKC 031950Z 27012KT 9999 FEW012 25/24 Q1008,2024-08-03T19:50:00Z,25,24,6+,29.76
LGIR,35.337,25.173,VRB,2,2.30156,LGIR 031950Z VRB02KT CAVOK 26/23 Q1007 NOSIG,2024-08-03T19:50:00Z,26,23,6+,29.73
LGIO,39.696,20.823,VRB,3,3.4523399999999995,LGIO 031950Z VRB03KT 9999 FEW050 25/15 Q1010,2024-08-03T19:50:00Z,25,15,6+,29.82
LGHI,38.343,26.141,VRB,1,1.15078,LGHI 031950Z VRB01KT CAVOK 25/14 Q1004,2024-08-03T19:50:00Z,25,14,6+,29.65
LGEL,38.064,23.556,0,0,0.0,LGEL 031950Z 00000KT CAVOK 30/12 Q1006,2024-08-03T19:50:00Z,30,12,6+,29.70
LGBL,39.22,22.794,0,0,0.0,LGBL 031950Z 00000KT 9999 FEW035 BKN080 28/17 Q1005,2024-08-03T19:50:00Z,28,17,6+,29.68
LGAV,37.936,23.945,VRB,1,1.15078,LGAV 031950Z VRB01KT CAVOK 29/06 Q1006 NOSIG,2024-08-03T19:50:00Z,29,6,6+,29.70
LGAL,40.856,25.945,100,5,5.7539,LGAL 031950Z 10005KT CAVOK 27/18 Q1005,2024-08-03T19:50:00Z,27,18,6+,29.68
LGAD,37.923,21.287,0,0,0.0,LGAD 031950Z 00000KT CAVOK 25/21 Q1007,2024-08-03T19:50:00Z,25,21,6+,29.73
LCRA,34.59,32.988,250,12,13.809359999999998,LCRA 031950Z 25012KT CAVOK 26/23 Q1004 NOSIG,2024-08-03T19:50:00Z,26,23,6+,29.65
LCEN,35.155,33.496,240,5,5.7539,LCEN 031950Z 24005KT 9999 FEW020 27/22 Q1005 NOSIG RMK RWY11R 30009KT RWY29R 30011KT RWY11L 31008KT,2024-08-03T19:50:00Z,27,22,6+,29.68
LATI,41.419,19.716,VRB,1,1.15078,LATI 031950Z VRB01KT CAVOK 25/18 Q1008 NOSIG,2024-08-03T19:50:00Z,25,18,6+,29.76
KWWR,36.4374,-99.5234,40,5,5.7539,KWWR 031950Z AUTO 04005KT 10SM BKN110 33/13 A3013 RMK AO2 LTG DSNT W,2024-08-03T19:50:00Z,33,13,10+,30.13
KVQQ,30.2035,-81.8725,120,8,9.20624,KVQQ 031950Z 12008G13KT 10SM BKN046 34/23 A2994,2024-08-03T19:50:00Z,34,23,10+,29.94
KUCY,36.3778,-88.9878,350,5,5.7539,KUCY 031950Z AUTO 35005KT 9SM FEW042 FEW049 31/22 A2994 RMK A01,2024-08-03T19:50:00Z,31,22,9,29.94
KTQK,38.4782,-100.882,170,20,23.0156,KTQK 031950Z AUTO 17020G24KT 10SM CLR 32/14 A3015 RMK AO2 T03220136,2024-08-03T19:50:00Z,32.2,13.6,10+,30.15
KTOA,33.803,-118.336,280,15,17.261699999999998,KTOA 031950Z 28015KT 10SM FEW005 23/16 A2993,2024-08-03T19:50:00Z,23,16,10+,29.93
KSYI,35.5594,-86.4406,310,7,8.05546,KSYI 031950Z AUTO 31007KT 10SM FEW044 31/20 A2994 RMK A01,2024-08-03T19:50:00Z,31,20,10+,29.94
KSXU,34.9355,-104.637,160,9,10.357019999999999,KSXU 031950Z AUTO 16009KT 10SM CLR 30/16 A3023 RMK AO2 T03000159,2024-08-03T19:50:00Z,30,15.9,10+,30.23
KRYY,34.0146,-84.5964,330,10,11.5078,KRYY 031950Z 33010KT 10SM SCT030 30/20 A2995 RMK AO2 SLPNO T03000200 $,2024-08-03T19:50:00Z,30,20,10+,29.95
KRNH,45.1476,-92.5335,150,5,5.7539,KRNH 031950Z AUTO 15005KT 10SM CLR 27/17 A2999 RMK AO2 T02740173,2024-08-03T19:50:00Z,27.4,17.3,10+,29.99
KOZA,30.7312,-101.203,180,6,6.904679999999999,KOZA 031950Z AUTO 18006KT 10SM CLR 37/11 A3008 RMK AO2,2024-08-03T19:50:00Z,37,11,10+,30.08
KOQU,41.5995,-71.4111,210,14,16.11092,KOQU 031950Z AUTO 21014KT 10SM SCT045TCU 31/24 A2980,2024-08-03T19:50:00Z,31,24,10+,29.80
KOPL,30.5643,-92.1021,350,7,8.05546,KOPL 031950Z AUTO 35007KT 10SM CLR 34/24 A2990 RMK AO2 LTG DSNT SE T03390243,2024-08-03T19:50:00Z,33.9,24.3,10+,29.90
KOMN,29.3009,-81.111,210,4,4.60312,KOMN 031950Z 21004KT 7SM SCT024 30/26 A3000,2024-08-03T19:50:00Z,30,26,7,30.00
KOLV,34.9808,-89.7851,50,7,8.05546,KOLV 031950Z 05007KT 10SM SCT045 32/20 A2996,2024-08-03T19:50:00Z,32,20,10+,29.96
KNUQ,37.4059,-122.049,330,8,9.20624,KNUQ 031950Z AUTO 33008KT 10SM CLR 24/15 A2995 RMK AO2,2024-08-03T19:50:00Z,24,15,10+,29.95
KNQA,35.3619,-89.8612,330,3,3.4523399999999995,KNQA 031950Z 33003KT 10SM BKN040 BKN055 31/22 A2996,2024-08-03T19:50:00Z,31,22,10+,29.96
KMKQ,27.5197,-90.0981,0,0,0.0,KMKQ 031950Z AUTO 00000KT 10SM CLR 31/24 A2993 RMK A01,2024-08-03T19:50:00Z,31,24,10+,29.93
KM54,36.1932,-86.3139,290,5,5.7539,KM54 031950Z AUTO 29005KT 10SM SCT043 SCT050 BKN075 31/22 A2992 RMK A01,2024-08-03T19:50:00Z,31,22,10+,29.92
KM04,35.5819,-89.5858,VRB,4,4.60312,KM04 031950Z AUTO VRB04KT 10SM FEW042 SCT047 BKN060 32/22 A2996 RMK A01,2024-08-03T19:50:00Z,32,22,10+,29.96
KLAL,27.9866,-82.0193,100,7,8.05546,KLAL 031950Z 10007KT 10SM FEW030 28/26 A2996,2024-08-03T19:50:00Z,28,26,10+,29.96
KJWN,36.1852,-86.8833,350,6,6.904679999999999,KJWN 031950Z 35006G11KT 10SM CLR 31/21 A2993,2024-08-03T19:50:00Z,31,21,10+,29.93
KJQF,35.3896,-80.7074,240,19,21.864819999999998,KJQF 031950Z 24019G29KT 1SM TSRA+ BKN028 OVC040 29/23 A2994,2024-08-03T19:50:00Z,29,23,1,29.94
KIFP,35.1487,-114.561,,,,KIFP 031950Z 2008G13KT 10SM CLR 43/12 A2983,2024-08-03T19:50:00Z,43,12,10+,29.83
KHXD,32.2263,-80.6949,190,13,14.960139999999999,KHXD 031950Z 19013G21KT 10SM CLR 31/25 A2995,2024-08-03T19:50:00Z,31,25,10+,29.95
KHQZ,32.7514,-96.5291,10,5,5.7539,KHQZ 031950Z 01005KT 10SM CLR 38/12 A2996,2024-08-03T19:50:00Z,38,12,10+,29.96
KHOB,32.6797,-103.222,100,11,12.658579999999999,KHOB 031950Z 10011G18KT 10SM OVC080 30/13 A3017,2024-08-03T19:50:00Z,30,13,10+,30.17
KHBV,27.3516,-98.7415,90,7,8.05546,KHBV 031950Z AUTO 09007KT 10SM SCT060 SCT070 35/21 A2998 RMK AO2 T03500209,2024-08-03T19:50:00Z,35,20.9,10+,29.98
KGZS,35.1533,-87.0543,340,7,8.05546,KGZS 031950Z AUTO 34007KT 300V360 10SM FEW047 31/21 A2994 RMK A01,2024-08-03T19:50:00Z,31,21,10+,29.94
KGRY,27.6247,-90.4411,350,4,4.60312,KGRY 031950Z AUTO 35004KT 10SM CLR 30/21 A2994 RMK A01,2024-08-03T19:50:00Z,30,21,10+,29.94
KGLX,28.2347,-88.9843,60,4,4.60312,KGLX 031950Z AUTO 06004KT 10SM CLR A2994 RMK A01,2024-08-03T19:50:00Z,,,10+,29.94
KFOA,38.6673,-88.4527,320,5,5.7539,KFOA 031950Z AUTO 32005KT 10SM SCT044 31/22 A2997 RMK AO2,2024-08-03T19:50:00Z,31,22,10+,29.97
KFIN,29.467,-81.207,230,6,6.904679999999999,KFIN 031950Z 23006KT 10SM SCT025 BKN034 OVC090 26/24 A2999,2024-08-03T19:50:00Z,26,24,10+,29.99
KF45,26.8419,-80.224,130,11,12.658579999999999,KF45 031950Z AUTO 13011G16KT 10SM FEW025 SCT031 BKN036 30/25 A2992 RMK AO2 LTG DSNT SW,2024-08-03T19:50:00Z,30,25,10+,29.92
KEHA,37.0011,-101.88,200,10,11.5078,KEHA 031950Z AUTO 20010G18KT 10SM SCT075 33/16 A3015 RMK AO2 T03280161,2024-08-03T19:50:00Z,32.8,16.1,10+,30.15
KDWA,38.5803,-121.854,0,0,0.0,KDWA 031950Z AUTO 00000KT 10SM -RA CLR 34/09 A2992 RMK AO2,2024-08-03T19:50:00Z,34,9,10+,29.92
KDVK,37.5764,-84.7641,330,8,9.20624,KDVK 031950Z AUTO 33008KT 10SM SCT034 SCT041 SCT050 29/20 A2994 RMK AO2,2024-08-03T19:50:00Z,29,20,10+,29.94
KDKX,35.9658,-83.8717,210,7,8.05546,KDKX 031950Z AUTO 21007G13KT 10SM CLR 29/22 A2991 RMK A01,2024-08-03T19:50:00Z,29,22,10+,29.91
KDED,29.075,-81.286,90,3,3.4523399999999995,KDED 031950Z AUTO 09003KT 10SM VCTS SCT100 29/24 A2999 RMK AO2 LTG DSNT ALQDS T02940241,2024-08-03T19:50:00Z,29.4,24.1,10+,29.99
KDAG,34.8537,-116.787,,,,KDAG 031950Z AUTO 10SM CLR 39/10 A2996 RMK AO2 SLP112 T03890100,2024-08-03T19:50:00Z,38.9,10,10+,29.96
KCZT,28.5204,-99.8192,150,7,8.05546,KCZT 031950Z AUTO 15007KT 10SM CLR 40/19 A2993 RMK AO2,2024-08-03T19:50:00Z,40,19,10+,29.93
KC08,38.0138,-105.373,30,10,11.5078,KC08 031950Z AUTO 03010KT 10SM BKN100 27/00 A3048 RMK AO2,2024-08-03T19:50:00Z,27,0,10+,30.48
KALN,38.8897,-90.0316,VRB,5,5.7539,KALN 031950Z VRB05KT 10SM FEW045 31/20 A2998,2024-08-03T19:50:00Z,31,20,10+,29.98
KAFP,35.0194,-80.0784,180,4,4.60312,KAFP 031950Z AUTO 18004KT 10SM SCT048 SCT060 31/22 A2986 RMK AO2 T03130221,2024-08-03T19:50:00Z,31.3,22.1,10+,29.86
KADM,34.3007,-97.0089,50,8,9.20624,KADM 031950Z 05008G13KT 10SM CLR 36/11 A2998,2024-08-03T19:50:00Z,36,11,10+,29.98
K49B,44.4284,-103.38,330,11,12.658579999999999,K49B 031950Z AUTO 33011G20KT 10SM CLR 36/10 A3007 RMK AO2,2024-08-03T19:50:00Z,36,10,10+,30.07
EYVI,54.634,25.286,0,0,0.0,EYVI 031950Z 00000KT CAVOK 17/10 Q1009 NOSIG,2024-08-03T19:50:00Z,17,10,6+,29.79
EYSA,55.894,23.395,230,5,5.7539,EYSA 031950Z 23005KT CAVOK 15/14 Q1009 NOSIG,2024-08-03T19:50:00Z,15,14,6+,29.79
EYPA,55.973,21.092,VRB,1,1.15078,EYPA 031950Z VRB01KT 9999 FEW010 16/15 Q1009,2024-08-03T19:50:00Z,16,15,6+,29.79
EYKA,54.962,24.069,290,3,3.4523399999999995,EYKA 031950Z 29003KT 260V330 9999 FEW044 19/13 Q1009,2024-08-03T19:50:00Z,19,13,6+,29.79
EVVA,57.361,21.545,180,1,1.15078,EVVA 031950Z AUTO 18001KT 0550 FG NSC 15/14 Q1007,2024-08-03T19:50:00Z,15,14,0.34,29.73
EVRA,56.924,23.968,190,3,3.4523399999999995,EVRA 031950Z 19003KT CAVOK 15/15 Q1007 NOSIG,2024-08-03T19:50:00Z,15,15,6+,29.73
EVLA,56.517,21.097,VRB,1,1.15078,EVLA 031950Z AUTO VRB01KT CAVOK 15/15 Q1008,2024-08-03T19:50:00Z,15,15,6+,29.76
EVGA,56.778,24.854,180,1,1.15078,EVGA 031950Z 18001KT CAVOK 14/14 Q1007 NOSIG,2024-08-03T19:50:00Z,14,14,6+,29.73
ESUT,65.806,15.083,160,10,11.5078,ESUT 031950Z AUTO 16010KT 8000 -RA FEW022/// OVC033/// 14/14 Q1010 REDZ,2024-08-03T19:50:00Z,14,14,4.97,29.82
ESUP,67.246,23.069,60,4,4.60312,ESUP 031950Z AUTO 06004KT 9999 NCD 16/14 Q1011,2024-08-03T19:50:00Z,16,14,6+,29.85
ESTL,56.083,13.213,0,0,0.0,ESTL 031950Z AUTO 00000KT 9999 NCD 15/15 Q1009,2024-08-03T19:50:00Z,15,15,6+,29.79
ESTA,56.294,12.848,0,0,0.0,ESTA 031950Z AUTO 00000KT 8000 FEW072/// OVC170/// 17/14 Q1009,2024-08-03T19:50:00Z,17,14,4.97,29.79
ESSV,57.662,18.348,230,9,10.357019999999999,ESSV 031950Z AUTO 23009KT 9999 FEW070/// OVC100/// 20/14 Q1008,2024-08-03T19:50:00Z,20,14,6+,29.76
ESST,60.158,12.992,VRB,1,1.15078,ESST 031950Z AUTO VRB01KT 6000 FEW003/// BKN094/// OVC110/// 16/15 Q1007,2024-08-03T19:50:00Z,16,15,3.73,29.73
ESSP,58.584,16.255,0,0,0.0,ESSP 031950Z AUTO 00000KT 9999 NCD 16/14 Q1007,2024-08-03T19:50:00Z,16,14,6+,29.73
ESSL,58.406,15.681,VRB,3,3.4523399999999995,ESSL 031950Z AUTO VRB03KT 9999 NCD 17/13 Q1007,2024-08-03T19:50:00Z,17,13,6+,29.73
ESSD,60.422,15.515,100,5,5.7539,ESSD 031950Z AUTO 10005KT 9999 OVC092/// 18/14 Q1007,2024-08-03T19:50:00Z,18,14,6+,29.73
ESSB,59.356,17.933,140,2,2.30156,ESSB 031950Z AUTO 14002KT 9999 FEW084/// 17/15 Q1007,2024-08-03T19:50:00Z,17,15,6+,29.73
ESSA,59.664,17.92,50,3,3.4523399999999995,ESSA 031950Z 05003KT CAVOK 16/15 Q1006 NOSIG,2024-08-03T19:50:00Z,16,15,6+,29.70
ESPA,65.541,22.126,30,4,4.60312,ESPA 031950Z AUTO 03004KT 9999 OVC034/// 18/14 Q1009,2024-08-03T19:50:00Z,18,14,6+,29.79
ESOW,59.595,16.638,0,0,0.0,ESOW 031950Z AUTO 00000KT 9999 SCT062/// BKN100/// 17/13 Q1007,2024-08-03T19:50:00Z,17,13,6+,29.73
ESOK,59.442,13.342,230,4,4.60312,ESOK 031950Z AUTO 23004KT 9999 NCD 17/14 Q1007,2024-08-03T19:50:00Z,17,14,6+,29.73
ESOH,60.02,13.579,0,0,0.0,ESOH 031950Z AUTO 00000KT 9999 OVC094/// 16/15 Q1007,2024-08-03T19:50:00Z,16,15,6+,29.73
ESOE,59.229,15.046,220,4,4.60312,ESOE 031950Z AUTO 22004KT 2200 NCD 17/15 Q1007,2024-08-03T19:50:00Z,17,15,1.37,29.73
ESNZ,63.199,14.489,100,4,4.60312,ESNZ 031950Z AUTO 10004KT 9999 SCT096/// 15/13 Q1008,2024-08-03T19:50:00Z,15,13,6+,29.76
ESNX,65.592,19.283,70,4,4.60312,ESNX 031950Z AUTO 07004KT 9999 FEW025/// OVC041/// 15/14 Q1010,2024-08-03T19:50:00Z,15,14,6+,29.82
ESNV,64.579,16.839,0,0,0.0,ESNV 031950Z AUTO 00000KT 9999 SCT050/// BKN062/// ///// Q1009,2024-08-03T19:50:00Z,,,6+,29.79
ESNU,63.789,20.285,20,6,6.904679999999999,ESNU 031950Z 02006KT 9999 BKN012 18/16 Q1007,2024-08-03T19:50:00Z,18,16,6+,29.73
ESNS,64.625,21.077,20,6,6.904679999999999,ESNS 031950Z AUTO 02006KT 350V050 9999 SCT022/// OVC031/// 17/17 Q1009,2024-08-03T19:50:00Z,17,17,6+,29.79
ESNQ,67.823,20.34,0,0,0.0,ESNQ 031950Z AUTO 00000KT 9999 BKN051/// OVC088/// 15/10 Q1013,2024-08-03T19:50:00Z,15,10,6+,29.91
ESNO,63.412,18.98,VRB,3,3.4523399999999995,ESNO 031950Z AUTO VRB03KT 9999 R12///// R30/P2000N BKN036/// OVC045/// 15/15 Q1008,2024-08-03T19:50:00Z,15,15,6+,29.76
ESNN,62.532,17.436,VRB,2,2.30156,ESNN 031950Z VRB02KT 0750 R16/P2000N R34/P2000N BCFG FEW016 15/14 Q1008,2024-08-03T19:50:00Z,15,14,0.47,29.76
ESNL,64.552,18.711,50,4,4.60312,ESNL 031950Z AUTO 05004KT 010V090 9000 RA FEW016/// SCT018/// BKN021/// 16/14 Q1009 REDZ,2024-08-03T19:50:00Z,16,14,5.59,29.79
ESNK,63.047,17.766,340,3,3.4523399999999995,ESNK 031950Z AUTO 34003KT 9999 R17///// R35///// FEW020/// SCT027/// 15/15 Q1008,2024-08-03T19:50:00Z,15,15,6+,29.76
ESNG,67.133,20.81,60,3,3.4523399999999995,ESNG 031950Z AUTO 06003KT 030V110 9999 BKN044/// 17/12 Q1012,2024-08-03T19:50:00Z,17,12,6+,29.88
ESND,62.047,14.416,0,0,0.0,ESND 031950Z AUTO 00000KT 9999 BKN034/// 14/12 Q1008,2024-08-03T19:50:00Z,14,12,6+,29.76
ESMX,56.927,14.73,260,5,5.7539,ESMX 031950Z AUTO 26005KT 9999 FEW190/// 18/14 Q1009,2024-08-03T19:50:00Z,18,14,6+,29.79
ESMV,57.29,14.134,230,4,4.60312,ESMV 031950Z AUTO 23004KT 9999 FEW190/// 16/13 Q1009,2024-08-03T19:50:00Z,16,13,6+,29.79
ESMT,56.691,12.82,0,0,0.0,ESMT 031950Z AUTO 00000KT 4300 NCD 17/14 Q1009,2024-08-03T19:50:00Z,17,14,2.67,29.79
ESMS,55.539,13.373,190,3,3.4523399999999995,ESMS 031950Z 19003KT CAVOK 16/13 Q1009,2024-08-03T19:50:00Z,16,13,6+,29.79
ESMQ,56.685,16.284,210,5,5.7539,ESMQ 031950Z AUTO 21005KT 9999 BKN083/// 20/13 Q1008,2024-08-03T19:50:00Z,20,13,6+,29.76
ESMK,55.922,14.085,280,3,3.4523399999999995,ESMK 031950Z AUTO 28003KT 9999 SCT200/// 18/14 Q1009,2024-08-03T19:50:00Z,18,14,6+,29.79
ESKS,61.165,12.834,60,3,3.4523399999999995,ESKS 031950Z AUTO 06003KT 9999 OVC069/// 16/13 Q1007,2024-08-03T19:50:00Z,16,13,6+,29.73
ESKN,58.786,16.918,250,2,2.30156,ESKN 031950Z 25002KT CAVOK 19/14 Q1007,2024-08-03T19:50:00Z,19,14,6+,29.73
ESKM,60.96,14.507,70,3,3.4523399999999995,ESKM 031950Z AUTO 07003KT 9999 BKN088/// BKN100/// 17/16 Q1007,2024-08-03T19:50:00Z,17,16,6+,29.73
ESIB,58.431,12.71,250,8,9.20624,ESIB 031950Z AUTO 25008KT 9999 OVC140/// 18/13 Q1008,2024-08-03T19:50:00Z,18,13,6+,29.76
ESIA,58.514,14.507,VRB,2,2.30156,ESIA 031950Z AUTO VRB02KT 9999 BKN080/// 19/15 Q1008,2024-08-03T19:50:00Z,19,15,6+,29.76
ESGT,58.314,12.347,140,5,5.7539,ESGT 031950Z AUTO 14005KT 3700 SCT150/// BKN190/// OVC220/// 16/13 Q1008,2024-08-03T19:50:00Z,16,13,2.3,29.76
ESGP,57.781,11.869,160,2,2.30156,ESGP 031950Z AUTO 16002KT 9999 -RA FEW170/// 17/14 Q1008,2024-08-03T19:50:00Z,17,14,6+,29.76
ESGJ,57.752,14.069,230,4,4.60312,ESGJ 031950Z AUTO 23004KT 2000 BR BKN059/// 17/16 Q1009,2024-08-03T19:50:00Z,17,16,1.24,29.79
ESGG,57.667,12.285,220,4,4.60312,ESGG 031950Z 22004KT CAVOK 15/13 Q1009,2024-08-03T19:50:00Z,15,13,6+,29.79
ESDF,56.266,15.267,280,4,4.60312,ESDF 031950Z AUTO 28004KT 9999 NCD 18/13 Q1008,2024-08-03T19:50:00Z,18,13,6+,29.76
ESCM,59.899,17.589,10,2,2.30156,ESCM 031950Z AUTO 01002KT 9999 NCD 17/15 Q1007,2024-08-03T19:50:00Z,17,15,6+,29.73
ESCF,58.398,15.526,290,3,3.4523399999999995,ESCF 031950Z AUTO 29003KT 200V310 9999 NCD 19/13 Q1007,2024-08-03T19:50:00Z,19,13,6+,29.73
ENZV,58.884,5.637,210,3,3.4523399999999995,ENZV 031950Z 21003KT 7000 VV007 16/16 Q1006 REDZ TEMPO 2500 DZRA BR,2024-08-03T19:50:00Z,16,16,4.35,29.70
ENWV,56.278,3.395,300,16,18.41248,ENWV 031950Z AUTO 30016KT 9999NDV FEW013/// SCT034/// 15/13 Q1008 W///S3,2024-08-03T19:50:00Z,15,13,,29.76
ENVD,70.065,29.835,60,10,11.5078,ENVD 031950Z AUTO 06010KT 9999 BKN006/// OVC008/// 10/08 Q1017,2024-08-03T19:50:00Z,10,8,6+,30.03
ENVA,63.46,10.931,140,7,8.05546,ENVA 031950Z 14007KT 100V180 9999 FEW051 SCT075CB 20/14 Q1005 RMK WIND 670FT 18014KT,2024-08-03T19:50:00Z,20,14,6+,29.68
ENUN,-99.99,-99.99,100,9,10.357019999999999,ENUN 031950Z AUTO 10009KT CAVOK 17/17 Q1015 W15/S3,2024-08-03T19:50:00Z,17,17,6+,29.97
ENUG,71.305,22.253,80,22,25.317159999999998,ENUG 031950Z AUTO 08022KT 9999NDV FEW003/// 11/10 Q1013 W///S3,2024-08-03T19:50:00Z,11,10,,29.91
ENTO,59.184,10.255,210,8,9.20624,ENTO 031950Z 21008KT 9999 -DZ FEW016 SCT080 18/16 Q1007 NOSIG,2024-08-03T19:50:00Z,18,16,6+,29.73
ENTC,69.675,18.916,40,2,2.30156,ENTC 031950Z 04002KT CAVOK 19/09 Q1011 RMK WIND 2600FT 12003KT,2024-08-03T19:50:00Z,19,9,6+,29.85
ENST,65.961,12.472,60,5,5.7539,ENST 031950Z 06005KT 360V120 9999 FEW040 21/12 Q1007 RMK WIND 300FT 10009KT,2024-08-03T19:50:00Z,21,12,6+,29.73
ENSS,70.355,31.044,80,4,4.60312,ENSS 031950Z AUTO 08004KT 050V110 9999 OVC007/// 10/09 Q1017 RMK WIND 0500FT 08010KT,2024-08-03T19:50:00Z,10,9,6+,30.03
ENSR,69.789,20.955,VRB,2,2.30156,ENSR 031950Z AUTO VRB02KT 9999 NCD 16/11 Q1012 RMK WIND RWY 32 16004KT WIND 1119FT 13008KT,2024-08-03T19:50:00Z,16,11,6+,29.88
ENSL,58.367,1.907,300,13,14.960139999999999,ENSL 031950Z AUTO 30013KT 9999 SCT019/// 15/10 Q1008 W14/S3,2024-08-03T19:50:00Z,15,10,6+,29.76
ENSK,68.58,15.029,70,6,6.904679999999999,ENSK 031950Z AUTO 07006KT 9999 NCD 19/12 Q1009,2024-08-03T19:50:00Z,19,12,6+,29.79
ENSH,68.245,14.669,110,6,6.904679999999999,ENSH 031950Z AUTO 11006KT 9999 NCD 20/12 Q1009 RMK WIND 0150FT /////KT,2024-08-03T19:50:00Z,20,12,6+,29.79
ENSG,61.158,7.141,0,0,0.0,ENSG 031950Z AUTO 00000KT 9999 SCT059/// OVC086/// 15/12 Q1006 RMK WIND 3806FT 07003KT,2024-08-03T19:50:00Z,15,12,6+,29.70
ENSF,61.25,1.85,310,11,12.658579999999999,ENSF 031950Z AUTO 31011KT 9999 FEW015/// 16/09 Q1007 W///S3,2024-08-03T19:50:00Z,16,9,6+,29.73
ENSE,61.45,2.15,310,8,9.20624,ENSE 031950Z AUTO 31008KT 9999 FEW014/// 13/09 Q1006 W///S4,2024-08-03T19:50:00Z,13,9,6+,29.70
ENSD,61.829,6.104,60,3,3.4523399999999995,ENSD 031950Z AUTO 06003KT 9999 -RA FEW021/// SCT038/// BKN051/// 17/15 Q1005 REDZ RMK WIND RWY 26 00000KT WIND 1140FT 32006KT,2024-08-03T19:50:00Z,17,15,6+,29.68
ENSB,78.246,15.466,290,7,8.05546,ENSB 031950Z 29007KT 9999 SCT005 BKN008 11/10 Q1018 RMK WIND 1400FT 00000KT,2024-08-03T19:50:00Z,11,10,6+,30.06
ENRY,59.381,10.783,180,7,8.05546,ENRY 031950Z AUTO 18007KT 9999 FEW014/// SCT019/// 18/15 Q1007,2024-08-03T19:50:00Z,18,15,6+,29.73
ENRS,67.527,12.104,90,5,5.7539,ENRS 031950Z AUTO 09005KT 9999 BKN108/// 16/14 Q1008,2024-08-03T19:50:00Z,16,14,6+,29.76
ENRO,62.578,11.342,VRB,2,2.30156,ENRO 031950Z AUTO VRB02KT 9999 BKN082/// OVC137/// 14/10 Q1007,2024-08-03T19:50:00Z,14,10,6+,29.73
ENRM,64.835,11.141,90,3,3.4523399999999995,ENRM 031950Z AUTO 09003KT 050V130 9999 NCD 19/13 Q1005,2024-08-03T19:50:00Z,19,13,6+,29.68
ENRA,66.364,14.302,100,4,4.60312,ENRA 031950Z AUTO 10004KT 9999 BKN074/// 18/14 Q1009,2024-08-03T19:50:00Z,18,14,6+,29.79
ENQR,61.53,2.22,290,12,13.809359999999998,ENQR 031950Z AUTO 29012KT 9999 FEW013/// 13/10 Q1006 W25/S4,2024-08-03T19:50:00Z,13,10,6+,29.70
ENQC,60.886,3.61,310,18,20.714039999999997,ENQC 031950Z AUTO 31018KT 9999 SCT013/// BKN075/// 16/11 Q1006 W///S3,2024-08-03T19:50:00Z,16,11,6+,29.70
ENQA,60.645,3.725,320,19,21.864819999999998,ENQA 031950Z AUTO 32019KT CAVOK 13/11 Q1006 W///S3,2024-08-03T19:50:00Z,13,11,6+,29.70
ENOV,62.18,6.078,VRB,1,1.15078,ENOV 031950Z AUTO VRB01KT 9999 -RA FEW031/// SCT053/// BKN066/// 15/14 Q1005 REDZ RMK WIND RWY 24 VRB02KT WIND 2090FT 11003KT,2024-08-03T19:50:00Z,15,14,6+,29.68
ENOL,63.703,9.609,300,5,5.7539,ENOL 031950Z 30005KT 9999 FEW040TCU 16/14 Q1005 TEMPO FEW040CB,2024-08-03T19:50:00Z,16,14,6+,29.68
ENOA,60.492,2.827,330,16,18.41248,ENOA 031950Z 33016KT 9999 FEW015 SCT070 14/10 Q1006 W///S3,2024-08-03T19:50:00Z,14,10,6+,29.70
ENNM,64.471,11.57,80,10,11.5078,ENNM 031950Z AUTO 08010KT 9999 NCD 21/13 Q1005,2024-08-03T19:50:00Z,21,13,6+,29.68
ENNE,66.03,8.08,90,16,18.41248,ENNE 031950Z AUTO 09016KT CAVOK 17/15 Q1006 W///S3,2024-08-03T19:50:00Z,17,15,6+,29.70
ENNA,70.059,24.971,360,6,6.904679999999999,ENNA 031950Z AUTO 36006KT 9999 NCD 13/11 Q1015 RMK WIND 1800FT 15011KT,2024-08-03T19:50:00Z,13,11,6+,29.97
ENMS,65.784,13.218,170,5,5.7539,ENMS 031950Z AUTO 17005KT 080V240 9999 NCD 21/12 Q1007 RMK WIND 412FT 17002KT,2024-08-03T19:50:00Z,21,12,6+,29.73
ENML,62.744,7.262,10,6,6.904679999999999,ENML 031950Z AUTO 01006KT 9999NDV SCT110/// BKN150/// 19/15 Q1005,2024-08-03T19:50:00Z,19,15,,29.68
ENMH,71.029,27.829,100,4,4.60312,ENMH 031950Z AUTO 10004KT 070V130 9999 FEW009/// 10/09 Q1017,2024-08-03T19:50:00Z,10,9,6+,30.03
ENLE,56.535,3.205,280,18,20.714039999999997,ENLE 031950Z 28018KT 9999 SCT012TCU 15/12 Q1008 W17/S3,2024-08-03T19:50:00Z,15,12,6+,29.76
ENLA,57.111,2.846,290,16,18.41248,ENLA 031950Z AUTO 29016KT 9999NDV FEW016/// BKN025/// BKN050/// 15/12 Q1008 W///S3,2024-08-03T19:50:00Z,15,12,,29.76
ENKB,63.109,7.816,10,4,4.60312,ENKB 031950Z AUTO 01004KT 350V040 9999 FEW062/// BKN110/// 17/12 Q1005 RMK WIND 745FT 07006KT,2024-08-03T19:50:00Z,17,12,6+,29.68
ENJS,58.835,2.545,310,14,16.11092,ENJS 031950Z 31014KT 9999 FEW015 BKN050 14/11 Q1007 W15/S3,2024-08-03T19:50:00Z,14,11,6+,29.73
ENHV,71.009,25.982,10,8,9.20624,ENHV 031950Z AUTO 01008KT 9999 OVC005/// 11/10 Q1016,2024-08-03T19:50:00Z,11,10,6+,30.00
ENHK,70.487,22.14,90,9,10.357019999999999,ENHK 031950Z AUTO 09009KT 9999 NCD 19/10 Q1012,2024-08-03T19:50:00Z,19,10,6+,29.88
ENHF,70.681,23.677,60,8,9.20624,ENHF 031950Z AUTO 06008KT 9999 NCD 16/11 Q1013 RMK WIND 1254FT 10010KT,2024-08-03T19:50:00Z,16,11,6+,29.91
ENHE,65.325,2.327,VRB,1,1.15078,ENHE 031950Z VRB01KT CAVOK 18/15 Q1006 W///S3,2024-08-03T19:50:00Z,18,15,6+,29.70
ENHD,59.341,5.22,300,6,6.904679999999999,ENHD 031950Z AUTO 30006KT 8000 -DZ VV004 16/15 Q1005 RESHRA,2024-08-03T19:50:00Z,16,15,4.97,29.68
ENGM,60.201,11.08,200,6,6.904679999999999,ENGM 031950Z 20006KT CAVOK 17/13 Q1007 NOSIG,2024-08-03T19:50:00Z,17,13,6+,29.73
ENGC,61.033,2.033,320,13,14.960139999999999,ENGC 031950Z 32013KT 9999 FEW015 13/10 Q1007 W12/S4,2024-08-03T19:50:00Z,13,10,6+,29.73
ENFL,61.582,5.02,VRB,2,2.30156,ENFL 031950Z AUTO VRB02KT 9999NDV FEW005/// BKN017/// 16/15 Q1005,2024-08-03T19:50:00Z,16,15,,29.68
ENFB,61.206,1.829,290,10,11.5078,ENFB 031950Z AUTO 29010KT 9999 FEW016/// 14/10 Q1006 W///S3,2024-08-03T19:50:00Z,14,10,6+,29.70
ENEV,68.491,16.683,150,6,6.904679999999999,ENEV 031950Z 15006KT 100V190 CAVOK 20/13 Q1010 RMK WIND 1400FT 10013KT,2024-08-03T19:50:00Z,20,13,6+,29.82
ENDU,69.058,18.544,140,5,5.7539,ENDU 031950Z 14005KT CAVOK 19/10 Q1011 RMK WIND 1100FT 11009KT WIND 2200FT 14014KT,2024-08-03T19:50:00Z,19,10,6+,29.85
ENCN,58.2,8.077,130,3,3.4523399999999995,ENCN 031950Z 13003KT 090V180 9999 -DZRA BKN008 18/17 Q1007,2024-08-03T19:50:00Z,18,17,6+,29.73
ENBV,70.871,29.032,100,11,12.658579999999999,ENBV 031950Z AUTO 10011KT 9999 OVC008/// 10/08 Q1017,2024-08-03T19:50:00Z,10,8,6+,30.03
ENBS,70.601,29.698,200,7,8.05546,ENBS 031950Z AUTO 20007KT 9999 NCD 09/09 Q1016,2024-08-03T19:50:00Z,9,9,6+,30.00
ENBR,60.29,5.222,350,3,3.4523399999999995,ENBR 031950Z 35003KT 310V010 9999 -DZRA SCT007 BKN012 16/16 Q1005 RMK WIND 1200FT 09002KT,2024-08-03T19:50:00Z,16,16,6+,29.68
ENBO,67.267,14.359,90,14,16.11092,ENBO 031950Z 09014KT CAVOK 20/13 Q1008,2024-08-03T19:50:00Z,20,13,6+,29.76
ENBN,65.458,12.216,120,10,11.5078,ENBN 031950Z 12010KT CAVOK 20/14 Q1006,2024-08-03T19:50:00Z,20,14,6+,29.70
ENBL,61.391,5.76,320,1,1.15078,ENBL 031950Z AUTO 32001KT 4700 SCT003/// BKN010/// OVC034/// 15/15 Q1006,2024-08-03T19:50:00Z,15,15,2.92,29.70
ENAT,69.978,23.358,140,10,11.5078,ENAT 031950Z AUTO 14010KT 120V190 9999 NCD 20/09 Q1013 RMK WIND 700FT 14016KT,2024-08-03T19:50:00Z,20,9,6+,29.91
ENAN,69.307,16.131,140,2,2.30156,ENAN 031950Z AUTO 14002KT 9999 NCD 17/13 Q1010,2024-08-03T19:50:00Z,17,13,6+,29.82
ENAL,62.562,6.115,60,7,8.05546,ENAL 031950Z 06007KT CAVOK 16/13 Q1005,2024-08-03T19:50:00Z,16,13,6+,29.68
ELLX,49.626,6.204,260,8,9.20624,ELLX 031950Z 26008KT 9999 SCT040 19/15 Q1015 NOSIG,2024-08-03T19:50:00Z,19,15,6+,29.97
EKYT,57.093,9.879,120,2,2.30156,EKYT 031950Z AUTO 12002KT 9999 BKN033/// OVC080/// 19/17 Q1008,2024-08-03T19:50:00Z,19,17,6+,29.76
EKVJ,55.991,8.354,240,5,5.7539,EKVJ 031950Z AUTO 24005KT 210V290 5000 FEW011/// OVC035/// 18/17 Q1008,2024-08-03T19:50:00Z,18,17,3.11,29.76
EKVG,62.065,-7.282,170,10,11.5078,EKVG 031950Z AUTO 17010KT 9999 BKN004/// 11/11 Q1004 RMK BKN003/// WIND SKEID 16009KT 130V190,2024-08-03T19:50:00Z,11,11,6+,29.65
EKVD,55.436,9.329,250,6,6.904679999999999,EKVD 031950Z AUTO 25006KT //// ///////// 18/17 Q1009,2024-08-03T19:50:00Z,18,17,,29.79
EKSP,55.225,9.263,250,7,8.05546,EKSP 031950Z 25007KT 4000 BR FEW009 SCT015TCU BKN200 18/17 Q1009,2024-08-03T19:50:00Z,18,17,2.49,29.79
EKSB,54.962,9.787,220,4,4.60312,EKSB 031950Z AUTO 22004KT 190V260 9000 SCT140/// SCT210/// BKN240/// 18/17 Q1009,2024-08-03T19:50:00Z,18,17,5.59,29.79
EKRS,55.426,11.807,200,2,2.30156,EKRS 031950Z AUTO 20002KT 9999 NCD 19/16 Q1009,2024-08-03T19:50:00Z,19,16,6+,29.79
EKRN,55.068,14.749,270,10,11.5078,EKRN 031950Z AUTO 27010KT 9999 NCD 19/17 Q1010,2024-08-03T19:50:00Z,19,17,6+,29.82
EKRK,55.587,12.136,180,1,1.15078,EKRK 031950Z 18001KT CAVOK 19/14 Q1010,2024-08-03T19:50:00Z,19,14,6+,29.82
EKKA,56.293,9.114,190,3,3.4523399999999995,EKKA 031950Z AUTO 19003KT 9999 SCT019/// BKN048/// BKN077/// 19/16 Q1008,2024-08-03T19:50:00Z,19,16,6+,29.76
EKEB,55.528,8.563,230,8,9.20624,EKEB 031950Z AUTO 23008KT 6000 -RA FEW007/// BKN049/// BKN062/// 18/18 Q1009,2024-08-03T19:50:00Z,18,18,3.73,29.79
EKCH,55.618,12.656,160,4,4.60312,EKCH 031950Z AUTO 16004KT 9999 FEW062/// BKN140/// 19/16 Q1010 NOSIG,2024-08-03T19:50:00Z,19,16,6+,29.82
EKBI,55.74,9.152,160,3,3.4523399999999995,EKBI 031950Z AUTO 16003KT 5000 OVC006/// 18/17 Q1009,2024-08-03T19:50:00Z,18,17,3.11,29.79
EKAH,56.3,10.619,160,1,1.15078,EKAH 031950Z AUTO 16001KT 2200 -RA FEW066/// BKN100/// 19/17 Q1009,2024-08-03T19:50:00Z,19,17,1.37,29.79
EGYP,-51.82,-58.448,180,24,27.618719999999996,EGYP 031950Z 18024KT 9999 FEW012 SCT045 01/M01 Q0987,2024-08-03T19:50:00Z,1,-1,6+,29.14
EGYM,52.648,0.567,300,8,9.20624,EGYM 031950Z AUTO 30008KT 9999 FEW056/// 18/09 Q1012,2024-08-03T19:50:00Z,18,9,6+,29.88
EGYH,52.873,0.139,320,9,10.357019999999999,EGYH 031950Z AUTO 32009KT 9999 BKN058/// 17/09 Q1012,2024-08-03T19:50:00Z,17,9,6+,29.88
EGYE,52.962,-0.562,290,7,8.05546,EGYE 031950Z AUTO 29007KT //// BKN056/// SCT190/// 16/09 Q1013,2024-08-03T19:50:00Z,16,9,,29.91
EGYD,53.031,-0.503,300,6,6.904679999999999,EGYD 031950Z AUTO 30006KT 9999 OVC059/// 17/08 Q1012,2024-08-03T19:50:00Z,17,8,6+,29.88
EGXZ,54.205,-1.39,250,5,5.7539,EGXZ 031950Z AUTO 25005KT 9999 NCD 16/09 Q1012,2024-08-03T19:50:00Z,16,9,6+,29.88
EGXW,53.175,-0.523,310,4,4.60312,EGXW 031950Z AUTO 31004KT 9999 SCT057/// 17/08 Q1012,2024-08-03T19:50:00Z,17,8,6+,29.88
EGXV,53.876,-0.435,260,6,6.904679999999999,EGXV 031950Z AUTO 26006KT 9999 FEW230/// 16/08 Q1011,2024-08-03T19:50:00Z,16,8,6+,29.85
EGXT,52.611,-0.461,320,6,6.904679999999999,EGXT 031950Z AUTO 32006KT 9999 BKN180/// 17/09 Q1012,2024-08-03T19:50:00Z,17,9,6+,29.88
EGXS,53.475,0.152,150,5,5.7539,EGXS 031950Z AUTO 15005KT 9999 OVC200/// 15/12 Q1012,2024-08-03T19:50:00Z,15,12,6+,29.88
EGXE,54.297,-1.533,260,8,9.20624,EGXE 031950Z AUTO 26008KT 9999 FEW077/// 15/10 Q1011,2024-08-03T19:50:00Z,15,10,6+,29.85
EGXC,53.094,-0.173,320,7,8.05546,EGXC 031950Z 32007KT CAVOK 18/08 Q1012 RMK BLU,2024-08-03T19:50:00Z,18,8,6+,29.88
EGWU,51.549,-0.417,320,5,5.7539,EGWU 031950Z AUTO 32005KT 9999 FEW051/// 19/10 Q1012,2024-08-03T19:50:00Z,19,10,6+,29.88
EGWC,52.64,-2.311,270,5,5.7539,EGWC 031950Z AUTO 27005KT //// ///////// ///// Q////,2024-08-03T19:50:00Z,,,,
EGVP,51.139,-1.569,280,8,9.20624,EGVP 031950Z AUTO 28008KT 9999 NCD 16/10 Q1014,2024-08-03T19:50:00Z,16,10,6+,29.94
EGVO,51.239,-0.945,260,7,8.05546,EGVO 031950Z AUTO 26007KT 9999 NCD 18/09 Q1013,2024-08-03T19:50:00Z,18,9,6+,29.91
EGVN,51.758,-1.578,310,6,6.904679999999999,EGVN 031950Z 31006KT CAVOK 18/08 Q1013 NOSIG RMK BLU BLU,2024-08-03T19:50:00Z,18,8,6+,29.91
EGUW,52.124,0.957,350,4,4.60312,EGUW 031950Z AUTO 35004KT 9999 SCT050/// 17/12 Q1012,2024-08-03T19:50:00Z,17,12,6+,29.88
EGUB,51.62,-1.099,270,4,4.60312,EGUB 031950Z AUTO 27004KT 9999 NCD 18/09 Q1013,2024-08-03T19:50:00Z,18,9,6+,29.91
EGTK,51.838,-1.317,300,5,5.7539,EGTK 031950Z 30005KT CAVOK 17/09 Q1013,2024-08-03T19:50:00Z,17,9,6+,29.91
EGTE,50.737,-3.406,300,5,5.7539,EGTE 031950Z 30005KT 270V330 CAVOK 16/10 Q1015,2024-08-03T19:50:00Z,16,10,6+,29.97
EGSY,51.406,-3.434,280,10,11.5078,EGSY 031950Z AUTO 28010KT 9999 BKN049/// 16/10 Q1015,2024-08-03T19:50:00Z,16,10,6+,29.97
EGSS,51.881,0.223,310,4,4.60312,EGSS 031950Z AUTO 31004KT 9999 NCD 18/09 Q1012,2024-08-03T19:50:00Z,18,9,6+,29.88
EGSH,52.676,1.283,110,4,4.60312,EGSH 031950Z 11004KT 9999 FEW045 15/13 Q1012 NOSIG,2024-08-03T19:50:00Z,15,13,6+,29.88
EGQS,57.711,-3.324,240,8,9.20624,EGQS 031950Z 24008KT 9999 FEW030 14/10 Q1008 RMK BLU,2024-08-03T19:50:00Z,14,10,6+,29.76
EGQM,55.421,-1.601,250,8,9.20624,EGQM 031950Z AUTO 25008KT 9999 SCT086/// 16/09 Q1010,2024-08-03T19:50:00Z,16,9,6+,29.82
EGQL,56.377,-2.862,270,8,9.20624,EGQL 031950Z 27008KT 9999 FEW043 BKN080 15/08 Q1009 RMK BLU,2024-08-03T19:50:00Z,15,8,6+,29.79
EGQK,57.646,-3.563,250,6,6.904679999999999,EGQK 031950Z AUTO 25006KT 9999 // FEW048/// BKN066/// 14/10 Q1008,2024-08-03T19:50:00Z,14,10,6+,29.76
EGQA,57.825,-3.955,180,6,6.904679999999999,EGQA 031950Z AUTO 18006KT 9999 OVC051/// 14/11 Q1007,2024-08-03T19:50:00Z,14,11,6+,29.73
EGPO,58.215,-6.329,190,8,9.20624,EGPO 031950Z AUTO 19008KT 9999 BKN037/// BKN043/// 13/11 Q1006,2024-08-03T19:50:00Z,13,11,6+,29.70
EGPL,57.475,-7.364,230,10,11.5078,EGPL 031950Z 23010KT 9999 FEW020 14/11 Q1007,2024-08-03T19:50:00Z,14,11,6+,29.73
EGPK,55.509,-4.587,230,8,9.20624,EGPK 031950Z 23008KT 9999 SCT030 15/12 Q1010,2024-08-03T19:50:00Z,15,12,6+,29.82
EGPI,55.681,-6.25,240,4,4.60312,EGPI 031950Z 24004KT 9999 FEW016 SCT025 BKN042 14/11 Q1010,2024-08-03T19:50:00Z,14,11,6+,29.82
EGPH,55.952,-3.36,250,6,6.904679999999999,EGPH 031950Z 25006KT 9999 FEW034 15/09 Q1010,2024-08-03T19:50:00Z,15,9,6+,29.82
EGPF,55.867,-4.433,220,7,8.05546,EGPF 031950Z AUTO 22007KT 9999 SCT041 15/12 Q1010,2024-08-03T19:50:00Z,15,12,6+,29.82
EGPE,57.538,-4.053,230,6,6.904679999999999,EGPE 031950Z 23006KT 9999 FEW034 13/11 Q1008,2024-08-03T19:50:00Z,13,11,6+,29.76
EGPD,57.205,-2.205,350,3,3.4523399999999995,EGPD 031950Z AUTO 35003KT 9999 NCD 14/11 Q1008 NOSIG,2024-08-03T19:50:00Z,14,11,6+,29.76
EGPC,58.459,-3.093,0,0,0.0,EGPC 031950Z AUTO 00000KT 9999 OVC049/// 13/11 Q1007,2024-08-03T19:50:00Z,13,11,6+,29.73
EGPB,59.88,-1.296,240,4,4.60312,EGPB 031950Z 24004KT CAVOK 13/11 Q1007 NOSIG,2024-08-03T19:50:00Z,13,11,6+,29.73
EGPA,58.958,-2.905,170,3,3.4523399999999995,EGPA 031950Z 17003KT 9999 SCT032 13/11 Q1007,2024-08-03T19:50:00Z,13,11,6+,29.73
EGOV,53.252,-4.536,230,12,13.809359999999998,EGOV 031950Z AUTO 23012KT 9999 BKN039/// BKN066/// 16/14 Q1013,2024-08-03T19:50:00Z,16,14,6+,29.91
EGOS,52.795,-2.665,250,8,9.20624,EGOS 031950Z AUTO 25008KT 9999 NCD 15/09 Q1013,2024-08-03T19:50:00Z,15,9,6+,29.91
EGOP,51.714,-4.367,280,13,14.960139999999999,EGOP 031950Z AUTO 28013KT 9999 NCD 17/11 Q1014,2024-08-03T19:50:00Z,17,11,6+,29.94
EGOM,55.05,-2.554,260,9,10.357019999999999,EGOM 031950Z AUTO 26009KT 9999 OVC013/// 13/11 Q1011,2024-08-03T19:50:00Z,13,11,6+,29.85
EGNX,52.833,-1.333,270,6,6.904679999999999,EGNX 031950Z 27006KT CAVOK 15/08 Q1013,2024-08-03T19:50:00Z,15,8,6+,29.91
EGNV,54.511,-1.418,250,8,9.20624,EGNV 031950Z 25008KT 9999 FEW046 16/09 Q1011,2024-08-03T19:50:00Z,16,9,6+,29.85
EGNT,55.037,-1.702,280,5,5.7539,EGNT 031950Z 28005KT CAVOK 14/09 Q1011,2024-08-03T19:50:00Z,14,9,6+,29.85
EGNS,54.085,-4.632,240,8,9.20624,EGNS 031950Z 24008KT CAVOK 15/13 Q1011 NOSIG,2024-08-03T19:50:00Z,15,13,6+,29.85
EGNM,53.862,-1.665,260,8,9.20624,EGNM 031950Z 26008KT 9999 FEW041 14/08 Q1012,2024-08-03T19:50:00Z,14,8,6+,29.88
EGNJ,53.58,-0.341,290,4,4.60312,EGNJ 031950Z 29004KT CAVOK 17/09 Q1012,2024-08-03T19:50:00Z,17,9,6+,29.88
EGNH,53.774,-3.039,270,16,18.41248,EGNH 031950Z 27016KT 9999 FEW039 17/11 Q1012,2024-08-03T19:50:00Z,17,11,6+,29.88
EGMD,50.956,0.939,250,8,9.20624,EGMD 031950Z AUTO 25008KT 9999 BKN035/// 17/16 Q1013,2024-08-03T19:50:00Z,17,16,6+,29.91
EGMC,51.571,0.696,240,3,3.4523399999999995,EGMC 031950Z 24003KT CAVOK 21/11 Q1012,2024-08-03T19:50:00Z,21,11,6+,29.88
EGLL,51.477,-0.461,310,5,5.7539,EGLL 031950Z AUTO 31005KT 9999 NCD 20/10 Q1012 NOSIG,2024-08-03T19:50:00Z,20,10,6+,29.88
EGLF,51.28,-0.773,270,4,4.60312,EGLF 031950Z AUTO 27004KT 240V300 9999 NCD 20/09 Q1013,2024-08-03T19:50:00Z,20,9,6+,29.91
EGLC,51.505,0.055,310,8,9.20624,EGLC 031950Z AUTO 31008KT 9999 NCD 22/11 Q1012,2024-08-03T19:50:00Z,22,11,6+,29.88
EGKK,51.148,-0.19,220,5,5.7539,EGKK 031950Z 22005KT CAVOK 18/15 Q1012,2024-08-03T19:50:00Z,18,15,6+,29.88
EGKB,51.33,0.033,230,5,5.7539,EGKB 031950Z 23005KT CAVOK 17/10 Q1013,2024-08-03T19:50:00Z,17,10,6+,29.91
EGJJ,49.21,-2.194,300,9,10.357019999999999,EGJJ 031950Z 30009KT 270V330 9999 FEW040 16/13 Q1016,2024-08-03T19:50:00Z,16,13,6+,30.00
EGJB,49.433,-2.598,290,6,6.904679999999999,EGJB 031950Z 29006KT CAVOK 16/13 Q1016,2024-08-03T19:50:00Z,16,13,6+,30.00
EGJA,49.706,-2.215,280,7,8.05546,EGJA 031950Z 280007KT CAVOK 15/13 Q1015,2024-08-03T19:50:00Z,15,13,6+,29.97
EGHQ,50.438,-4.998,270,8,9.20624,EGHQ 031950Z AUTO 27008KT 9999 FEW027/// SCT044/// 15/11 Q1016,2024-08-03T19:50:00Z,15,11,6+,30.00
EGHI,50.944,-1.358,270,7,8.05546,EGHI 031950Z 27007KT 240V300 CAVOK 18/10 Q1014,2024-08-03T19:50:00Z,18,10,6+,29.94
EGHH,50.779,-1.836,330,7,8.05546,EGHH 031950Z 33007KT CAVOK 16/09 Q1014,2024-08-03T19:50:00Z,16,9,6+,29.94
EGGW,51.875,-0.368,320,6,6.904679999999999,EGGW 031950Z AUTO 32006KT 290V010 9999 NCD 18/09 Q1013,2024-08-03T19:50:00Z,18,9,6+,29.91
EGGP,53.334,-2.85,250,8,9.20624,EGGP 031950Z 25008KT 9999 FEW045 16/10 Q1013,2024-08-03T19:50:00Z,16,10,6+,29.91
EGGD,51.383,-2.719,270,11,12.658579999999999,EGGD 031950Z AUTO 27011KT 9999 SCT044 15/12 Q1014,2024-08-03T19:50:00Z,15,12,6+,29.94
EGFF,51.397,-3.343,280,9,10.357019999999999,EGFF 031950Z AUTO 28009KT 9999 BKN046 16/11 Q1015,2024-08-03T19:50:00Z,16,11,6+,29.97
EGDY,51.006,-2.643,310,6,6.904679999999999,EGDY 031950Z AUTO 31006KT 9999 NCD 16/09 Q1014,2024-08-03T19:50:00Z,16,9,6+,29.94
EGDR,50.084,-5.257,290,5,5.7539,EGDR 031950Z AUTO 29005KT 9999 NCD 16/10 Q1016,2024-08-03T19:50:00Z,16,10,6+,30.00
EGDM,51.153,-1.75,280,8,9.20624,EGDM 031950Z AUTO 28008KT 9999 NCD 16/10 Q1014,2024-08-03T19:50:00Z,16,10,6+,29.94
EGCK,53.104,-4.34,220,11,12.658579999999999,EGCK 031950Z AUTO 22011KT 9999 FEW047/// 16/13 Q1013,2024-08-03T19:50:00Z,16,13,6+,29.91
EGCC,53.354,-2.275,300,5,5.7539,EGCC 031950Z AUTO 30005KT 9999 FEW044 17/08 Q1013 NOSIG,2024-08-03T19:50:00Z,17,8,6+,29.91
EGBB,52.46,-1.758,280,7,8.05546,EGBB 031950Z 28007KT CAVOK 17/08 Q1013,2024-08-03T19:50:00Z,17,8,6+,29.91
EGAC,54.614,-5.873,260,3,3.4523399999999995,EGAC 031950Z AUTO 26003KT 220V330 9999 FEW033 SCT044 16/11 Q1011,2024-08-03T19:50:00Z,16,11,6+,29.85
EGAA,54.654,-6.225,260,5,5.7539,EGAA 031950Z AUTO 26005KT 9999 BKN048 14/11 Q1011,2024-08-03T19:50:00Z,14,11,6+,29.85
EFVA,63.051,21.762,10,2,2.30156,EFVA 031950Z AUTO 01002KT 2700 BCFG NSC 17/17 Q1006,2024-08-03T19:50:00Z,17,17,1.68,29.70
EFUT,60.896,26.938,60,4,4.60312,EFUT 031950Z AUTO 06004KT 4700 BR VV001 15/15 Q1005,2024-08-03T19:50:00Z,15,15,2.92,29.68
EFTU,60.514,22.263,360,2,2.30156,EFTU 031950Z AUTO 36002KT 9999 FEW022 15/14 Q1006,2024-08-03T19:50:00Z,15,14,6+,29.70
EFTP,61.419,23.616,VRB,1,1.15078,EFTP 031950Z AUTO VRB01KT 9999 -SHRA NSC 16/15 Q1006,2024-08-03T19:50:00Z,16,15,6+,29.70
EFSI,62.693,22.83,VRB,2,2.30156,EFSI 031950Z AUTO VRB02KT 0450 R14/1800 FG FEW002 15/15 Q1006,2024-08-03T19:50:00Z,15,15,0.28,29.70
EFSA,61.943,28.945,60,5,5.7539,EFSA 031950Z AUTO 06005KT 9999 FEW018 SCT037 18/15 Q1006,2024-08-03T19:50:00Z,18,15,6+,29.70
EFRO,66.562,25.829,70,6,6.904679999999999,EFRO 031950Z AUTO 07006KT CAVOK 18/11 Q1011,2024-08-03T19:50:00Z,18,11,6+,29.85
EFPO,61.462,21.8,240,2,2.30156,EFPO 031950Z AUTO 24002KT CAVOK 15/14 Q1006,2024-08-03T19:50:00Z,15,14,6+,29.70
EFOU,64.93,25.355,40,4,4.60312,EFOU 031950Z AUTO 04004KT 9999 FEW036 BKN046 18/15 Q1009,2024-08-03T19:50:00Z,18,15,6+,29.79
EFMI,61.687,27.201,VRB,1,1.15078,EFMI 031950Z AUTO VRB01KT CAVOK 16/16 Q1006,2024-08-03T19:50:00Z,16,16,6+,29.70
EFMA,60.125,19.903,310,1,1.15078,EFMA 031950Z AUTO 31001KT CAVOK 15/15 Q1006,2024-08-03T19:50:00Z,15,15,6+,29.70
EFLP,61.044,28.151,360,2,2.30156,EFLP 031950Z AUTO 36002KT CAVOK 15/15 Q1006,2024-08-03T19:50:00Z,15,15,6+,29.70
EFKU,63.008,27.799,70,4,4.60312,EFKU 031950Z AUTO 07004KT 040V100 9999 FEW018 BKN030 17/15 Q1007,2024-08-03T19:50:00Z,17,15,6+,29.73
EFKT,67.701,24.847,50,4,4.60312,EFKT 031950Z AUTO 05004KT CAVOK 17/10 Q1012,2024-08-03T19:50:00Z,17,10,6+,29.88
EFKS,65.992,29.236,50,3,3.4523399999999995,EFKS 031950Z AUTO 05003KT 010V090 9999 OVC039 17/10 Q1010,2024-08-03T19:50:00Z,17,10,6+,29.82
EFKK,63.721,23.143,40,4,4.60312,EFKK 031950Z AUTO 04004KT CAVOK 16/16 Q1007,2024-08-03T19:50:00Z,16,16,6+,29.73
EFKI,64.283,27.673,70,5,5.7539,EFKI 031950Z AUTO 07005KT 9999 FEW042 15/13 Q1009,2024-08-03T19:50:00Z,15,13,6+,29.79
EFKE,65.784,24.579,VRB,2,2.30156,EFKE 031950Z AUTO VRB02KT CAVOK 16/16 Q1010,2024-08-03T19:50:00Z,16,16,6+,29.82
EFJY,62.404,25.675,240,3,3.4523399999999995,EFJY 031950Z AUTO 24003KT 9999 BKN041 17/15 Q1007,2024-08-03T19:50:00Z,17,15,6+,29.73
EFJO,62.66,29.611,60,5,5.7539,EFJO 031950Z AUTO 06005KT 010V100 9999 OVC015 17/15 Q1007,2024-08-03T19:50:00Z,17,15,6+,29.73
EFIV,68.607,27.405,50,7,8.05546,EFIV 031950Z AUTO 05007KT CAVOK 15/10 Q1013,2024-08-03T19:50:00Z,15,10,6+,29.91
EFHK,60.327,24.957,350,5,5.7539,EFHK 031950Z 35005KT 290V030 9999 FEW025 16/16 Q1005 NOSIG,2024-08-03T19:50:00Z,16,16,6+,29.68
EFHA,61.855,24.805,VRB,1,1.15078,EFHA 031950Z AUTO VRB01KT CAVOK 15/15 Q1006,2024-08-03T19:50:00Z,15,15,6+,29.70
EFET,68.363,23.424,50,6,6.904679999999999,EFET 031950Z AUTO 05006KT CAVOK 16/11 Q1013,2024-08-03T19:50:00Z,16,11,6+,29.91
EETU,58.307,26.691,220,4,4.60312,EETU 031950Z AUTO 22004KT 9999 FEW018/// BKN022/// BKN190/// 17/15 Q1005,2024-08-03T19:50:00Z,17,15,6+,29.68
EETN,59.413,24.801,250,4,4.60312,EETN 031950Z 25004KT 9999 FEW020CB 17/14 Q1005 NOSIG,2024-08-03T19:50:00Z,17,14,6+,29.68
EEPU,58.419,24.473,250,5,5.7539,EEPU 031950Z AUTO 25005KT 9999 FEW033/// BKN052/// 16/16 Q1006,2024-08-03T19:50:00Z,16,16,6+,29.70
EEKE,58.23,22.509,280,3,3.4523399999999995,EEKE 031950Z AUTO 28003KT 240V320 9999 BKN036/// 17/14 Q1007,2024-08-03T19:50:00Z,17,14,6+,29.73
EEEI,59.26,24.209,240,4,4.60312,EEEI 031950Z AUTO 24004KT 9999 FEW012/// SCT015/// 17/16 Q1005,2024-08-03T19:50:00Z,17,16,6+,29.68
EDVK,51.421,9.388,140,3,3.4523399999999995,EDVK 031950Z AUTO 14003KT 090V170 9000 // FEW110/// 18/17 Q1012,2024-08-03T19:50:00Z,18,17,5.59,29.88
EDVE,52.319,10.558,280,5,5.7539,EDVE 031950Z AUTO 28005KT 9999 BKN120/// 22/16 Q1011,2024-08-03T19:50:00Z,22,16,6+,29.85
EDTY,49.118,9.784,260,7,8.05546,EDTY 031950Z AUTO 26007KT 9999 // BKN190/// 22/15 Q1014,2024-08-03T19:50:00Z,22,15,6+,29.94
EDTL,48.369,7.828,10,5,5.7539,EDTL 031950Z 01005KT CAVOK 21/16 Q1015,2024-08-03T19:50:00Z,21,16,6+,29.97
EDSB,48.779,8.081,290,6,6.904679999999999,EDSB 031950Z 29006KT 250V330 CAVOK 21/15 Q1014,2024-08-03T19:50:00Z,21,15,6+,29.94
EDQM,50.289,11.86,180,3,3.4523399999999995,EDQM 031950Z AUTO 18003KT 9999 // BKN100/// 18/16 Q1014,2024-08-03T19:50:00Z,18,16,6+,29.94
EDNY,47.671,9.511,0,0,0.0,EDNY 031950Z 00000KT CAVOK 19/19 Q1015,2024-08-03T19:50:00Z,19,19,6+,29.97
EDMO,48.081,11.283,200,4,4.60312,EDMO 031950Z AUTO 20004KT 9999 // BKN091/// OVC110/// 19/17 Q1015,2024-08-03T19:50:00Z,19,17,6+,29.97
EDMA,48.425,10.932,0,0,0.0,EDMA 031950Z AUTO 00000KT 9999 // BKN110/// 18/17 Q1015,2024-08-03T19:50:00Z,18,17,6+,29.97
EDLW,51.518,7.612,230,7,8.05546,EDLW 031950Z 23007KT 9999 FEW025 20/17 Q1012,2024-08-03T19:50:00Z,20,17,6+,29.88
EDLV,51.602,6.142,VRB,2,2.30156,EDLV 031950Z VRB02KT 9000 SCT031 19/18 Q1012,2024-08-03T19:50:00Z,19,18,5.59,29.88
EDLP,51.614,8.616,260,3,3.4523399999999995,EDLP 031950Z 26003KT 220V310 9999 FEW026 20/16 Q1012,2024-08-03T19:50:00Z,20,16,6+,29.88
EDLN,51.23,6.504,230,5,5.7539,EDLN 031950Z AUTO 23005KT 200V310 9999 // BKN050/// BKN063/// BKN100/// 21/16 Q////,2024-08-03T19:50:00Z,21,16,6+,
EDJA,47.989,10.239,140,3,3.4523399999999995,EDJA 031950Z 14003KT CAVOK 18/16 Q1015,2024-08-03T19:50:00Z,18,16,6+,29.97
EDHL,53.805,10.719,VRB,1,1.15078,EDHL 031950Z AUTO VRB01KT 9999 // SCT110/// BKN180/// 17/16 Q1010,2024-08-03T19:50:00Z,17,16,6+,29.82
EDHK,54.376,10.143,220,5,5.7539,EDHK 031950Z AUTO 22005KT 9999 // BKN130/// 18/15 Q1010,2024-08-03T19:50:00Z,18,15,6+,29.82
EDHI,53.536,9.837,VRB,1,1.15078,EDHI 031950Z AUTO VRB01KT 9999 1800 // BKN130/// 19/18 Q1010,2024-08-03T19:50:00Z,19,18,6+,29.82
EDGS,50.708,8.083,290,10,11.5078,EDGS 031950Z AUTO 29010KT 9999 // FEW046/// SCT098/// BKN180/// 17/14 Q1014,2024-08-03T19:50:00Z,17,14,6+,29.94
EDFM,49.474,8.515,260,9,10.357019999999999,EDFM 031950Z AUTO 26009KT 220V290 9999 // FEW120/// SCT140/// OVC190/// 23/15 Q1013,2024-08-03T19:50:00Z,23,15,6+,29.91
EDFH,49.946,7.265,270,8,9.20624,EDFH 031950Z 27008KT CAVOK 18/14 Q1015,2024-08-03T19:50:00Z,18,14,6+,29.97
EDDW,53.047,8.787,240,3,3.4523399999999995,EDDW 031950Z AUTO 24003KT 200V280 9999 -SHRA FEW026 FEW///TCU 20/18 Q1010 TEMPO 27015G30KT 2000 TSRA BKN013CB,2024-08-03T19:50:00Z,20,18,6+,29.82
EDDV,52.466,9.68,230,3,3.4523399999999995,EDDV 031950Z AUTO 23003KT 180V270 3900 BR NSC 20/18 Q1011 TEMPO 9999,2024-08-03T19:50:00Z,20,18,2.42,29.85
EDDS,48.69,9.222,280,8,9.20624,EDDS 031950Z AUTO 28008KT CAVOK 21/14 Q1015 NOSIG,2024-08-03T19:50:00Z,21,14,6+,29.97
EDDR,49.213,7.108,240,5,5.7539,EDDR 031950Z AUTO 24005KT CAVOK 18/14 Q1015 NOSIG,2024-08-03T19:50:00Z,18,14,6+,29.97
EDDP,51.435,12.24,110,7,8.05546,EDDP 031950Z AUTO 11007KT 070V140 CAVOK 20/16 Q1011 NOSIG,2024-08-03T19:50:00Z,20,16,6+,29.85
EDDN,49.503,11.055,290,4,4.60312,EDDN 031950Z AUTO 29004KT CAVOK 22/17 Q1013 TEMPO 28010KT SHRA BKN025CB,2024-08-03T19:50:00Z,22,17,6+,29.91
EDDM,48.348,11.813,270,4,4.60312,EDDM 031950Z AUTO 27004KT CAVOK 20/15 Q1014 NOSIG,2024-08-03T19:50:00Z,20,15,6+,29.94
EDDL,51.296,6.769,240,6,6.904679999999999,EDDL 031950Z AUTO 24006KT 9999 SCT043 21/16 Q1013 NOSIG,2024-08-03T19:50:00Z,21,16,6+,29.91
EDDK,50.865,7.157,250,11,12.658579999999999,EDDK 031950Z AUTO 25011KT 9999 -SHRA SCT030 BKN044 FEW///TCU 21/16 Q1013 NOSIG,2024-08-03T19:50:00Z,21,16,6+,29.91
EDDH,53.633,9.988,0,0,0.0,EDDH 031950Z AUTO 00000KT 6000 2100 BR NSC 17/17 Q1010 TEMPO 2500,2024-08-03T19:50:00Z,17,17,3.73,29.82
EDDG,52.135,7.697,250,4,4.60312,EDDG 031950Z AUTO 25004KT 9999 -SHRA FEW024 BKN048 FEW///TCU 20/17 Q1012 TEMPO SHRA,2024-08-03T19:50:00Z,20,17,6+,29.88
EDDF,50.045,8.598,210,3,3.4523399999999995,EDDF 031950Z AUTO 21003KT 160V270 9999 SCT045 21/18 Q1012 NOSIG,2024-08-03T19:50:00Z,21,18,6+,29.88
EDDE,50.983,10.961,190,8,9.20624,EDDE 031950Z AUTO 19008KT 160V220 9999 SHRA VCTS FEW///CB 20/16 Q1012 TEMPO 22015KT 4000 TSRA,2024-08-03T19:50:00Z,20,16,6+,29.88
EDDC,51.128,13.7543,150,1,1.15078,EDDC 031950Z AUTO 15001KT CAVOK 22/14 Q1012 NOSIG,2024-08-03T19:50:00Z,22,14,6+,29.88
EDDB,52.3807,13.5306,170,4,4.60312,EDDB 031950Z AUTO 17004KT 090V190 CAVOK 20/14 Q1011 NOSIG,2024-08-03T19:50:00Z,20,14,6+,29.85
EDBC,51.856,11.42,VRB,1,1.15078,EDBC 031950Z AUTO VRB01KT 9999 // SCT052/// BKN078/// BKN100/// 24/14 Q1012,2024-08-03T19:50:00Z,24,14,6+,29.88
EDAH,53.879,14.152,60,4,4.60312,EDAH 031950Z AUTO 06004KT 9999 // NCD 17/16 Q1010,2024-08-03T19:50:00Z,17,16,6+,29.82
EDAC,50.982,12.506,150,4,4.60312,EDAC 031950Z AUTO 15004KT 9999 // BKN180/// BKN230/// 19/16 Q1011,2024-08-03T19:50:00Z,19,16,6+,29.85
EBOS,51.199,2.862,230,9,10.357019999999999,EBOS 031950Z 23009KT 9999 -RA SCT012 BKN014 BKN024 18/17 Q1013 TEMPO 4500 RADZ,2024-08-03T19:50:00Z,18,17,6+,29.91
EBLG,50.637,5.443,230,9,10.357019999999999,EBLG 031950Z 23009KT 9999 -RA SCT035 19/16 Q1014 TEMPO 3500 SHRA,2024-08-03T19:50:00Z,19,16,6+,29.94
EBCI,50.459,4.454,240,7,8.05546,EBCI 031950Z 24007KT 9999 FEW045 18/16 Q1014 TEMPO 3500 SHRA,2024-08-03T19:50:00Z,18,16,6+,29.94
EBBR,50.896,4.526,230,8,9.20624,EBBR 031950Z 23008KT 9999 SCT025 21/16 Q1013 NOSIG,2024-08-03T19:50:00Z,21,16,6+,29.91
EBAW,51.189,4.46,230,7,8.05546,EBAW 031950Z 23007KT 9999 BKN038 21/17 Q1013 NOSIG,2024-08-03T19:50:00Z,21,17,6+,29.91
BGSF,67.013,-50.718,230,8,9.20624,BGSF 031950Z AUTO 23008KT 9999NDV NCD 16/06 Q1008,2024-08-03T19:50:00Z,16,6,,29.76
BGKK,65.575,-37.133,250,2,2.30156,BGKK 031950Z 25002KT 9999 FEW040 BKN080 09/06 Q1011,2024-08-03T19:50:00Z,9,6,6+,29.85
BGJN,69.24,-51.064,290,6,6.904679999999999,BGJN 031950Z 29006KT 9999 FEW220 13/02 Q1008,2024-08-03T19:50:00Z,13,2,6+,29.76
BGGH,64.191,-51.677,210,7,8.05546,BGGH 031950Z 21007KT 9999 FEW008 04/02 Q1012,2024-08-03T19:50:00Z,4,2,6+,29.88
BGBW,61.164,-45.42,230,6,6.904679999999999,BGBW 031950Z 23006KT 9999 FEW050 BKN230 16/06 Q1009,2024-08-03T19:50:00Z,16,6,6+,29.79
MMVR,19.144,-96.189,360,10,11.5078,MMVR 031949Z 36010KT 7SM FEW015TCU BKN250 31/24 A2995 RMK 8/208 HZY,2024-08-03T19:49:00Z,31,24,7,29.95
MMEP,21.418,-104.842,90,4,4.60312,MMEP 031949Z 09004KT 10SM FEW025 FEW120 SCT250 31/19 A3005 RMK 8/138,2024-08-03T19:49:00Z,31,19,10+,30.05
MMAA,16.758,-99.754,250,8,9.20624,MMAA 031949Z 25008KT 6SM FEW015TCU SCT090 BKN300 30/25 A2985 RMK 8/232 HZY DSNT CB NE S,2024-08-03T19:49:00Z,30,25,6,29.85
KBKB,31.022,-92.911,VRB,3,3.4523399999999995,KBKB 031949Z AUTO VRB03KT 10SM FEW039 BKN048 OVC060 29/22 A2992 RMK AO2 SLP155 T02890222 $,2024-08-03T19:49:00Z,28.9,22.2,10+,29.92
MMVA,17.998,-92.817,30,10,11.5078,MMVA 031948Z 03010KT 6SM SCT018TCU BKN070 30/25 A2989 RMK 8/260 HZY,2024-08-03T19:48:00Z,30,25,6,29.89
MMSD,23.157,-109.72,150,14,16.11092,MMSD 031948Z 15014KT 10SM FEW040TCU 35/17 A2986 RMK 8/200 CI,2024-08-03T19:48:00Z,35,17,10+,29.86
KJDN,47.3259,-106.949,VRB,5,5.7539,KJDN 031948Z AUTO VRB05G16KT 33/06 A3007 RMK AO1 SLP158 T03330056,2024-08-03T19:48:00Z,33.3,5.6,,30.07
KASG,36.1802,-94.1176,30,8,9.20624,KASG 031948Z 03008KT 10SM CLR 33/22 A3005,2024-08-03T19:48:00Z,33,22,10+,30.05
MMPS,15.876,-97.093,180,6,6.904679999999999,MMPS 031947Z 18006KT 10SM BKN020CB BKN100 31/26 A2988 RMK 8/360 HZY MSGTX MMMX,2024-08-03T19:47:00Z,31,26,10+,29.88
KTIX,28.508,-80.798,150,4,4.60312,KTIX 031947Z 15004KT 7SM SCT120 28/25 A2999,2024-08-03T19:47:00Z,28,25,7,29.99
KSUN,43.4969,-114.292,130,5,5.7539,KSUN 031947Z 13005KT 10SM CLR 31/12 A3019,2024-08-03T19:47:00Z,31,12,10+,30.19
KSUA,27.1815,-80.2252,60,8,9.20624,KSUA 031947Z 06008KT 5SM SCT015 BKN020 30/27 A2994,2024-08-03T19:47:00Z,30,27,5,29.94
KSQL,37.5119,-122.248,360,10,11.5078,KSQL 031947Z 36010KT 10SM CLR 24/15 A2996,2024-08-03T19:47:00Z,24,15,10+,29.96
KSEE,32.8273,-116.974,280,11,12.658579999999999,KSEE 031947Z 28011KT 10SM SKC 34/15 A2990,2024-08-03T19:47:00Z,34,15,10+,29.90
KSAW,46.341,-87.395,40,8,9.20624,KSAW 031947Z 04008KT 10SM CLR 28/15 A2998,2024-08-03T19:47:00Z,28,15,10+,29.98
KRHV,37.3331,-121.82,350,6,6.904679999999999,KRHV 031947Z 35006KT 10SM FEW140 29/16 A2995,2024-08-03T19:47:00Z,29,16,10+,29.95
KPOC,34.0928,-117.779,262,6,6.904679999999999,KPOC 031947Z 262006KT 10SM CLR 35/13 A2996,2024-08-03T19:47:00Z,35,13,10+,29.96
KPAO,37.458,-122.112,330,9,10.357019999999999,KPAO 031947Z 33009KT 10SM SKC 22/16 A2996,2024-08-03T19:47:00Z,22,16,10+,29.96
KHSA,30.3765,-89.4554,70,9,10.357019999999999,KHSA 031947Z 07009KT 10SM BKN030 34/24 A2990,2024-08-03T19:47:00Z,34,24,10+,29.90
KGYR,33.428,-112.368,VRB,4,4.60312,KGYR 031947Z VRB04KT 10SM FEW180 SCT250 42/16 A2987,2024-08-03T19:47:00Z,42,16,10+,29.87
KGYH,34.763,-82.375,220,13,14.960139999999999,KGYH 031947Z 22013G22KT 10SM SCT049 32/21 A2989,2024-08-03T19:47:00Z,32,21,10+,29.89
KFDK,39.4177,-77.3696,250,17,19.56326,KFDK 031947Z COR 25017G26KT 2 1/2SM TSRA SCT055 BKN070 OVC090 28/25 A2983,2024-08-03T19:47:00Z,28,25,2.5,29.83
KEVB,29.0568,-80.9491,180,10,11.5078,KEVB 031947Z 18010KT 10SM SCT020 BKN040 30/25 A2998,2024-08-03T19:47:00Z,30,25,10+,29.98
KCWA,44.7795,-89.671,110,5,5.7539,KCWA 031947Z 11005KT 10SM CLR 28/14 A3000,2024-08-03T19:47:00Z,28,14,10+,30.00
KCHD,33.2669,-111.809,150,4,4.60312,KCHD 031947Z 15004KT 10SM CLR 42/13 A2988,2024-08-03T19:47:00Z,42,13,10+,29.88
KBJC,39.9008,-105.104,60,12,13.809359999999998,KBJC 031947Z 06012G20KT 10SM FEW100 34/03 A3029,2024-08-03T19:47:00Z,34,3,10+,30.29
KAEG,35.15,-106.793,260,8,9.20624,KAEG 031947Z 26008KT 10SM CLR 33/09 A3029,2024-08-03T19:47:00Z,33,9,10+,30.29
KADS,32.9634,-96.8354,70,9,10.357019999999999,KADS 031947Z 07009G16KT 10SM SKC 37/13 A2998,2024-08-03T19:47:00Z,37,13,10+,29.98
MMTG,16.571,-93.03,300,6,6.904679999999999,MMTG 031946Z 30006KT 7SM BKN040TCU BKN300 32/19 A2995 RMK 8/201 CBS FRMG,2024-08-03T19:46:00Z,32,19,7,29.95
MMSM,19.763,-99.002,320,10,11.5078,MMSM 031946Z 32010KT 8SM SCT020 22/12 A3033 RMK 8/200 HZY CI TCU FRMG E,2024-08-03T19:46:00Z,22,12,8,30.33
MMMV,26.956,-101.47,40,11,12.658579999999999,MMMV 031946Z 04011KT 10SM BKN050 34/17 A3001 RMK 8/100 HZY,2024-08-03T19:46:00Z,34,17,10+,30.01
MMCB,18.83,-99.265,210,4,4.60312,MMCB 031946Z 21004G15KT 9SM FEW020 BKN200 28/18 A3011 RMK 8/108 DSNT TCU N HZY,2024-08-03T19:46:00Z,28,18,9,30.11
EQYS,37.4,14.92,110,3,3.4523399999999995,EQYS 031946Z AUTO 11003KT 10SM -RA FEW055 SCT090 SCT110 32/18 A2973 RMK AO2 RAB28 TSE1848 SLP068 P0000 T03220178 $ ,2024-08-03T19:46:00Z,32.2,17.8,10+,29.73
TJIG,18.457,-66.094,100,13,14.960139999999999,TJIG 031945Z 10013KT 10SM SCT030 BKN070 31/26 A2997,2024-08-03T19:45:00Z,31,26,10+,29.97
PALP,70.348,-150.928,180,11,12.658579999999999,PALP 031945Z 18011KT 10SM BKN065 12/04 A2998,2024-08-03T19:45:00Z,12,4,10+,29.98
MMPA,20.601,-97.459,0,0,0.0,MMPA 031945Z 00000KT 7SM FEW020 34/24 A2994 RMK 8/100 MSGTX MMMX,2024-08-03T19:45:00Z,34,24,7,29.94
MMMX,19.436,-99.072,60,3,3.4523399999999995,MMMX 031945Z 06003KT 6SM SCT020 SCT220 23/11 A3032 NOSIG RMK 8/202 HZY,2024-08-03T19:45:00Z,23,11,6,30.32
MMLP,24.077,-110.364,360,10,11.5078,MMLP 031945Z 36010KT 10SM FEW220 37/13 A2988 RMK 8/008 DSNT TCU SE ISOL AC,2024-08-03T19:45:00Z,37,13,10+,29.88
MMLO,20.997,-101.481,140,7,8.05546,MMLO 031945Z 14007KT 10SM SCT030 BKN250 26/10 A3022 RMK 8/508,2024-08-03T19:45:00Z,26,10,10+,30.22
LMML,35.858,14.477,280,6,6.904679999999999,LMML 031945Z 28006KT 240V320 CAVOK 28/23 Q1009 NOSIG,2024-08-03T19:45:00Z,28,23,6+,29.79
LIRP,43.684,10.393,100,5,5.7539,LIRP 031945Z 10005KT CAVOK 28/23 Q1008 NOSIG,2024-08-03T19:45:00Z,28,23,6+,29.76
LHSN,47.123,20.235,30,5,5.7539,LHSN 031945Z 03005KT 360V060 CAVOK 19/14 Q1011 NOSIG RMK BLU,2024-08-03T19:45:00Z,19,14,6+,29.85
LHSM,46.689,17.161,VRB,3,3.4523399999999995,LHSM 031945Z AUTO VRB03KT CAVOK 20/14 Q1012,2024-08-03T19:45:00Z,20,14,6+,29.88
LHPR,47.627,17.808,0,0,0.0,LHPR 031945Z AUTO 00000KT CAVOK 18/13 Q1012,2024-08-03T19:45:00Z,18,13,6+,29.88
LHPP,45.991,18.241,340,4,4.60312,LHPP 031945Z AUTO 34004KT CAVOK 21/10 Q1012,2024-08-03T19:45:00Z,21,10,6+,29.88
LHPA,47.362,17.494,20,3,3.4523399999999995,LHPA 031945Z 02003KT CAVOK 19/12 Q1012 NOSIG RMK BLU,2024-08-03T19:45:00Z,19,12,6+,29.88
LHNY,47.985,21.692,340,6,6.904679999999999,LHNY 031945Z AUTO 34006KT 320V020 9999 ////// 16/13 Q1010,2024-08-03T19:45:00Z,16,13,6+,29.82
LHKE,46.917,19.749,80,1,1.15078,LHKE 031945Z 08001KT CAVOK 17/13 Q1012 NOSIG RMK BLU,2024-08-03T19:45:00Z,17,13,6+,29.88
LHDC,47.489,21.615,340,7,8.05546,LHDC 031945Z AUTO 34007KT CAVOK 16/15 Q1010 NOSIG,2024-08-03T19:45:00Z,16,15,6+,29.82
KWDG,36.3781,-97.7888,20,10,11.5078,KWDG 031945Z 02010KT 10SM SCT200 36/16 A3004,2024-08-03T19:45:00Z,36,16,10+,30.04
KUES,43.0425,-88.2465,70,6,6.904679999999999,KUES 031945Z 07006KT 10SM CLR 28/16 A2999,2024-08-03T19:45:00Z,28,16,10+,29.99
KSWF,41.5045,-74.0999,290,15,17.261699999999998,KSWF 031945Z 29015KT 5SM VCTS BKN030 27/23 A2982 RMK FRQ LTGICCG TS W MOV E,2024-08-03T19:45:00Z,27,23,5,29.82
KRYN,32.1418,-111.177,310,3,3.4523399999999995,KRYN 031945Z 31003KT 10SM CLR 39/11 A2996,2024-08-03T19:45:00Z,39,11,10+,29.96
KOUN,35.2436,-97.4713,60,9,10.357019999999999,KOUN 031945Z 06009KT 10SM CLR 34/15 A3002,2024-08-03T19:45:00Z,34,15,10+,30.02
KMWC,43.1095,-88.0343,90,6,6.904679999999999,KMWC 031945Z 09006KT 10SM CLR 28/14 A2999,2024-08-03T19:45:00Z,28,14,10+,29.99
KMWA,37.7544,-89.0118,10,6,6.904679999999999,KMWA 031945Z 01006KT 10SM BKN049 31/19 A2997,2024-08-03T19:45:00Z,31,19,10+,29.97
KLOT,41.6031,-88.1017,VRB,6,6.904679999999999,KLOT 031945Z VRB06KT 10SM SCT048 33/21 A2994,2024-08-03T19:45:00Z,33,21,10+,29.94
KLBE,40.2767,-79.4039,320,11,12.658579999999999,KLBE 031945Z 32011KT 10SM -DZ SCT018 BKN034 BKN060 24/21 A2990,2024-08-03T19:45:00Z,24,21,10+,29.90
KJVL,42.6213,-89.0419,VRB,5,5.7539,KJVL 031945Z VRB05KT 10SM SCT048 BKN060 BKN070 31/22 A2996,2024-08-03T19:45:00Z,31,22,10+,29.96
KGYY,41.6121,-87.4091,10,3,3.4523399999999995,KGYY 031945Z 01003KT 10SM CLR 31/23 A2994,2024-08-03T19:45:00Z,31,23,10+,29.94
KFMH,41.6608,-70.5221,230,20,23.0156,KFMH 031945Z 23020KT 10SM CLR 30/23 A2983,2024-08-03T19:45:00Z,30,23,10+,29.83
KESN,38.804,-76.069,210,13,14.960139999999999,KESN 031945Z 21013G20KT 10SM SCT034 33/25 A2981,2024-08-03T19:45:00Z,33,25,10+,29.81
KEMT,34.0882,-118.034,210,6,6.904679999999999,KEMT 031945Z 21006KT 10SM CLR 34/14 A2992,2024-08-03T19:45:00Z,34,14,10+,29.92
KCGF,41.566,-81.4827,330,6,6.904679999999999,KCGF 031945Z 33006KT 10SM BKN080 26/21 A2991,2024-08-03T19:45:00Z,26,21,10+,29.91
KBOW,27.9471,-81.7811,100,10,11.5078,KBOW 031945Z 10010G15KT 10SM SKC 27/24 A2996 RMK LTG DSNT ALQDS.,2024-08-03T19:45:00Z,27,24,10+,29.96
KBBG,36.5259,-93.1969,60,6,6.904679999999999,KBBG 031945Z 06006KT 10SM SCT050 31/18 A3004,2024-08-03T19:45:00Z,31,18,10+,30.04
KATW,44.2519,-88.526,0,0,0.0,KATW 031945Z 00000KT 10SM SCT070 30/14 A3000,2024-08-03T19:45:00Z,30,14,10+,30.00
KANE,45.1426,-93.2127,160,9,10.357019999999999,KANE 031945Z 16009G14KT 10SM CLR 29/16 A2996,2024-08-03T19:45:00Z,29,16,10+,29.96
MMTO,19.343,-99.568,210,3,3.4523399999999995,MMTO 031944Z 21003KT 7SM BKN015TCU 21/10 A3039 RMK 8/200 HZY AC,2024-08-03T19:44:00Z,21,10,7,30.39
MMTM,22.29,-97.863,50,4,4.60312,MMTM 031944Z 05004KT 10SM SCT020 33/25 A2994 RMK 8/100,2024-08-03T19:44:00Z,33,25,10+,29.94
MMTL,20.1725,-87.6622,300,5,5.7539,MMTL 031944Z 30005KT 7SM BKN020TCU BKN220 33/21 A2987 RMK 8/208 VC CB,2024-08-03T19:44:00Z,33,21,7,29.87
MMPR,20.68,-105.25,210,8,9.20624,MMPR 031944Z 21008KT 13SM FEW028TCU BKN250 31/24 A2986 RMK 8/203 CB 2ND QUAD,2024-08-03T19:44:00Z,31,24,13,29.86
MMPG,28.63,-100.541,120,5,5.7539,MMPG 031944Z 12005KT 10SM SCT030 38/19 A2998 RMK 8/500,2024-08-03T19:44:00Z,38,19,10+,29.98
MMML,32.631,-115.238,20,2,2.30156,MMML 031944Z 02002KT 10SM SKC 43/10 A2981,2024-08-03T19:44:00Z,43,10,10+,29.81
MMMD,20.936,-89.659,360,14,16.11092,MMMD 031944Z 36014KT 7SM BKN020TCU BKN300 32/23 A2987 RMK 8/203 HZY CB VC,2024-08-03T19:44:00Z,32,23,7,29.87
MMCT,20.641,-88.446,10,6,6.904679999999999,MMCT 031944Z 01006KT 7SM SCT020 BKN300 33/24 A2986 RMK 8/108 HZY MDT CU FRMG TCU E,2024-08-03T19:44:00Z,33,24,7,29.86
MMCL,24.766,-107.476,0,0,0.0,MMCL 031944Z 00000KT 10SM FEW030 SCT130 BKN250 34/23 A2987 RMK 8/138 HZY,2024-08-03T19:44:00Z,34,23,10+,29.87
MMSP,22.256,-100.93,30,14,16.11092,MMSP 031943Z 03014KT 10SM SCT250 24/13 A3029 RMK 8/001 ISOL CU,2024-08-03T19:43:00Z,24,13,10+,30.29
MMPB,19.17,-98.371,120,7,8.05546,MMPB 031943Z 12007KT 12SM SCT020 SCT220 24/07 A3032 RMK 8/102,2024-08-03T19:43:00Z,24,7,12,30.32
MMMZ,23.161,-106.271,280,9,10.357019999999999,MMMZ 031943Z 28009KT 14SM FEW024 BKN100 BKN240 31/25 A2988 RMK 8/172,2024-08-03T19:43:00Z,31,25,14,29.88
MMMM,19.844,-101.037,360,5,5.7539,MMMM 031943Z 36005KT 8SM SCT030 BKN300 24/15 A3025 RMK 8/508 TCU/SE,2024-08-03T19:43:00Z,24,15,8,30.25
MMCM,18.504,-88.326,0,0,0.0,MMCM 031943Z 00000KT 7SM SCT020 BKN100 32/25 A2986 RMK 8/520,2024-08-03T19:43:00Z,32,25,7,29.86
MMZH,17.605,-101.464,220,9,10.357019999999999,MMZH 031942Z 22009KT 7SM SCT015 BKN250 33/24 A2988 RMK 8/108 HZY DSNT TCU NE,2024-08-03T19:42:00Z,33,24,7,29.88
MMPN,19.396,-102.041,190,6,6.904679999999999,MMPN 031941Z 19006KT 8SM BKN030CB OVC120 23/20 A3018 RMK 8/33/ HZY BINOVC,2024-08-03T19:41:00Z,23,20,8,30.18
MMLM,25.688,-109.085,240,11,12.658579999999999,MMLM 031941Z 24011KT 8SM BKN030 34/22 A2987 RMK 8/500,2024-08-03T19:41:00Z,34,22,8,29.87
MMCU,28.701,-105.965,100,5,5.7539,MMCU 031941Z 10005KT 10SM SCT030 33/05 A3021 RMK 8/100,2024-08-03T19:41:00Z,33,5,10+,30.21
MMCP,19.817,-90.502,320,6,6.904679999999999,MMCP 031941Z 32006KT 7SM FEW030TCU BKN300 31/25 A2988 RMK 8/201 DSNT CB NE,2024-08-03T19:41:00Z,31,25,7,29.88
MMCN,27.395,-109.837,280,13,14.960139999999999,MMCN 031941Z 28013KT 10SM BKN030 36/20 A2984 RMK 8/100 ISOL CI HZY,2024-08-03T19:41:00Z,36,20,10+,29.84
MMCE,18.651,-91.8,0,0,0.0,MMCE 031941Z 00000KT 7SM BKN015CB 31/27 A2992 RMK 8/300 HZY,2024-08-03T19:41:00Z,31,27,7,29.92
MMBT,15.775,-96.26,90,10,11.5078,MMBT 031941Z 09010KT 8SM FEW020 SCT150 BKN200 32/24 A2987 RMK 8/111,2024-08-03T19:41:00Z,32,24,8,29.87
MMZO,19.147,-104.565,180,6,6.904679999999999,MMZO 031940Z 18006KT 12SM FEW025TCU SCT100 BKN200 31/25 A2986 RMK 8/211 HZY DSTN CB N NE,2024-08-03T19:40:00Z,31,25,12,29.86
MMZC,22.904,-102.68,30,10,11.5078,MMZC 031940Z E03010KT 8SM FEW040 SCT100 23/11 A3033 RMK 8/180 HZY,2024-08-03T19:40:00Z,23,11,8,30.33
MMTP,14.795,-92.371,230,10,11.5078,MMTP 031940Z 23010KT 8SM FEW015TCU BKN200 32/25 A2985 RMK 8/202 DSNT CB N,2024-08-03T19:40:00Z,32,25,8,29.85
MMTJ,32.544,-116.982,250,11,12.658579999999999,MMTJ 031940Z 25011KT 8SM SKC 28/18 A2995 RMK HZY,2024-08-03T19:40:00Z,28,18,8,29.95
MMTC,25.564,-103.408,130,8,9.20624,MMTC 031940Z 13008KT 10SM FEW030 FEW200 34/13 A3011 RMK 8/102,2024-08-03T19:40:00Z,34,13,10+,30.11
MMSL,22.948,-109.936,240,14,16.11092,MMSL 031940Z 24014KT 10SM SKC 35/21 A2986 RMK CU,2024-08-03T19:40:00Z,35,21,10+,29.86
MMRX,26.01,-98.232,210,5,5.7539,MMRX 031940Z 21005KT 8SM SCT030 36/20 A2994 RMK 8/100,2024-08-03T19:40:00Z,36,20,8,29.94
MMQT,20.617,-100.194,150,7,8.05546,MMQT 031940Z 15007KT 10SM SCT030 SCT300 24/13 A3032 RMK 8/104,2024-08-03T19:40:00Z,24,13,10+,30.32
MMPE,31.354,-113.519,150,11,12.658579999999999,MMPE 031940Z 15011KT 10SM FEW200 39/10 A2981 RMK 8/001,2024-08-03T19:40:00Z,39,10,10+,29.81
MMOX,17.002,-96.724,320,4,4.60312,MMOX 031940Z 32004KT 10SM BKN030TCU BKN200 25/14 A3020 RMK 8/202 HZY,2024-08-03T19:40:00Z,25,14,10+,30.20
MMNL,27.448,-99.574,80,6,6.904679999999999,MMNL 031940Z 08006KT 10SM BKN020 38/20 A2994 RMK 8/100 ISOL CI,2024-08-03T19:40:00Z,38,20,10+,29.94
MMMY,25.774,-100.104,100,9,10.357019999999999,MMMY 031940Z 10009KT 12SM FEW030 34/19 A3002 RMK 8/100 ISOL CI,2024-08-03T19:40:00Z,34,19,12,30.02
MMMT,18.098,-94.583,360,9,10.357019999999999,MMMT 031940Z 36009KT 7SM SCT025TCU BKN100 BKN250 31/25 A2994 RMK 8/238 DSNT CB 3RD QUAD,2024-08-03T19:40:00Z,31,25,7,29.94
MMMA,25.77,-97.523,110,6,6.904679999999999,MMMA 031940Z 11006KT 10SM SCT020 34/23 A2996 RMK 8/100 ISOL CI,2024-08-03T19:40:00Z,34,23,10+,29.96
MMIA,19.276,-103.576,250,10,11.5078,MMIA 031940Z 25010KT 4SM BKN020TCU OVC200 27/24 A2999 RMK 8/201 HZY,2024-08-03T19:40:00Z,27,24,4,29.99
MMHO,29.097,-111.051,100,2,2.30156,MMHO 031940Z 10002KT 10SM SKC 40/21 A2986 RMK HZY,2024-08-03T19:40:00Z,40,21,10+,29.86
MMGM,27.964,-110.928,180,11,12.658579999999999,MMGM 031940Z 18011KT 10SM FEW020 35/27 A2982 RMK 8/100,2024-08-03T19:40:00Z,35,27,10+,29.82
MMGA,-99.99,-99.99,100,7,8.05546,MMGA 031940Z E10007KT 10SM FEW015 ///// A//// RMK 8/100,2024-08-03T19:40:00Z,,,10+,
MMCV,23.706,-98.959,0,0,0.0,MMCV 031940Z 00000KT 8SM SKC 35/21 A2998 RMK HZY,2024-08-03T19:40:00Z,35,21,8,29.98
MMCS,31.636,-106.427,50,9,10.357019999999999,MMCS 031940Z 05009KT 10SM FEW050 SCT090 SCT250 36/09 A3015 RMK 8/131,2024-08-03T19:40:00Z,36,9,10+,30.15
MMAS,21.702,-102.318,60,10,11.5078,MMAS 031940Z 06010KT 9SM FEW040 SCT200 25/12 A3029 RMK 8/108,2024-08-03T19:40:00Z,25,12,9,30.29
MMAN,25.865,-100.239,50,3,3.4523399999999995,MMAN 031940Z 05003G13KT 12SM SCT035 33/21 A3003 RMK 8/100,2024-08-03T19:40:00Z,33,21,12,30.03
KMHV,35.0626,-118.157,VRB,4,4.60312,KMHV 031940Z AUTO VRB04G11KT 10SM CLR 36/04 A3005 RMK AO2,2024-08-03T19:40:00Z,36,4,10+,30.05
KGZN,32.3682,-99.026,60,9,10.357019999999999,KGZN 031940Z AUTO 06009G16KT 10SM 36/17 A3000 RMK AO2,2024-08-03T19:40:00Z,36,17,10+,30.00
KMNV,35.5429,-84.3808,250,8,9.20624,KMNV 031935Z AUTO 25008KT 10SM FEW037 FEW060 SCT085 30/22 A2994 RMK A01,2024-08-03T19:35:00Z,30,22,10+,29.94
KMFV,37.646,-75.763,210,12,13.809359999999998,KMFV 031935Z AUTO 21012G19KT 180V250 10SM CLR 32/24 A2986 RMK AO2 T03180236,2024-08-03T19:35:00Z,31.8,23.6,10+,29.86
KLRO,32.8982,-79.7796,170,15,17.261699999999998,KLRO 031935Z AUTO 17015G21KT 5SM HZ FEW024 FEW031 31/28 A2995 RMK AO2,2024-08-03T19:35:00Z,31,28,5,29.95
KCLW,27.9741,-82.7563,80,6,6.904679999999999,KCLW 031935Z AUTO 08006KT 10SM -DZ SCT035 SCT043 BKN049 26/22 A2995 RMK AO2,2024-08-03T19:35:00Z,26,22,10+,29.95
KAIK,33.651,-81.6821,300,8,9.20624,KAIK 031935Z AUTO 30008KT 10SM TS SCT055 SCT075 BKN120 30/24 A2994 RMK AO2 LTG DSNT ALQDS T02950241,2024-08-03T19:35:00Z,29.5,24.1,10+,29.94
K6S2,43.9838,-124.11,330,14,16.11092,K6S2 031935Z AUTO 33014G22KT 10SM CLR 18/15 A3005 RMK AO2,2024-08-03T19:35:00Z,18,15,10+,30.05
VVPQ,10.169,103.995,300,4,4.60312,VVPQ 031930Z 30004KT 9000 SCT015 26/25 Q1009 NOSIG,2024-08-03T19:30:00Z,26,25,5.59,29.79
VVCT,10.085,105.712,VRB,2,2.30156,VVCT 031930Z VRB02KT 9999 FEW015 SCT050 26/26 Q1009 NOSIG,2024-08-03T19:30:00Z,26,26,6+,29.79
VOML,12.961,74.89,VRB,2,2.30156,VOML 031930Z VRB02KT 3000 -RA BR FEW004 SCT012 OVC080 24/23 Q1011 NOSIG,2024-08-03T19:30:00Z,24,23,1.86,29.85
VILK,26.761,80.889,70,15,17.261699999999998,VILK 031930Z 07015KT 4000 BR SCT020 BKN100 29/24 Q0999 NOSIG,2024-08-03T19:30:00Z,29,24,2.49,29.50
VEBS,20.244,85.818,180,5,5.7539,VEBS 031930Z 18005KT 4000 HZ SCT018 BKN100 28/25 Q1005 NOSIG,2024-08-03T19:30:00Z,28,25,2.49,29.68
OPMT,30.203,71.419,130,6,6.904679999999999,OPMT 031930Z 13006KT 4000 FU SCT040 31/26 Q0998 NOSIG,2024-08-03T19:30:00Z,31,26,2.49,29.47
LFLX,46.87,1.741,240,6,6.904679999999999,LFLX 031930Z AUTO 24006KT CAVOK 20/14 Q1016 NOSIG,2024-08-03T19:30:00Z,20,14,6+,30.00
HUEN,0.036,32.437,0,0,0.0,HUEN 031930Z 00000KT CAVOK 23/19 Q1018,2024-08-03T19:30:00Z,23,19,6+,30.06
HKMO,-4.015,39.606,150,8,9.20624,HKMO 031930Z 15008KT 9999 FEW022 25/20 Q1017 NOSIG,2024-08-03T19:30:00Z,25,20,6+,30.03
GQNO,18.31,-15.97,270,11,12.658579999999999,GQNO 031930Z 27011KT 8000 NSC 29/24 Q1009 NOSIG,2024-08-03T19:30:00Z,29,24,4.97,29.79
FOOG,-0.712,8.754,180,6,6.904679999999999,FOOG 031930Z 18006KT 9000 FEW009 24/21 Q1015,2024-08-03T19:30:00Z,24,21,5.59,29.97
LSZL,46.164,8.878,270,4,4.60312,LSZL 031920Z AUTO 27004KT 240V320 1800NDV SCT100 25/18 Q1010 RMK,2024-08-03T19:20:00Z,25,18,,29.82
LIMW,45.735,7.351,360,4,4.60312,LIMW 031920Z 36004KT 330V110 CAVOK 26/13 Q1012,2024-08-03T19:20:00Z,26,13,6+,29.88
LGSK,39.177,23.504,VRB,2,2.30156,LGSK 031920Z VRB02KT 9999 FEW030 29/22 Q1005,2024-08-03T19:20:00Z,29,22,6+,29.68
ETWM,52.725,7.33,VRB,2,2.30156,ETWM 031920Z AUTO VRB02KT //// // ////// 19/18 Q1011 ///,2024-08-03T19:20:00Z,19,18,,29.85
ETSN,48.71,11.21,250,3,3.4523399999999995,ETSN 031920Z 25003KT 9999 FEW040 SCT120 BKN210 21/16 Q1013 BLU+,2024-08-03T19:20:00Z,21,16,6+,29.91
ETSL,48.185,10.861,210,4,4.60312,ETSL 031920Z AUTO 21004KT 9999 // ////// 20/16 Q1015 ///,2024-08-03T19:20:00Z,20,16,6+,29.97
ETSI,48.716,11.534,VRB,2,2.30156,ETSI 031920Z AUTO VRB02KT //// // ////// 22/16 Q1013 ///,2024-08-03T19:20:00Z,22,16,,29.91
ETSH,51.768,13.168,130,1,1.15078,ETSH 031920Z 13001KT 9999 FEW150 BKN300 19/15 Q1011 BLU+,2024-08-03T19:20:00Z,19,15,6+,29.85
ETSB,50.175,7.06,270,4,4.60312,ETSB 031920Z AUTO 27004KT //// // ////// 19/13 Q1014 ///,2024-08-03T19:20:00Z,19,13,,29.94
ETNW,52.457,9.427,250,4,4.60312,ETNW 031920Z 25004KT 9999 FEW045 BKN110 22/18 Q1010 BLU,2024-08-03T19:20:00Z,22,18,6+,29.82
ETNT,53.548,7.667,VRB,2,2.30156,ETNT 031920Z AUTO VRB02KT //// // ////// 20/17 Q1010 ///,2024-08-03T19:20:00Z,20,17,,29.82
ETNS,54.457,9.52,200,4,4.60312,ETNS 031920Z AUTO 20004KT //// // ////// 18/16 Q1009 ///,2024-08-03T19:20:00Z,18,16,,29.79
ETNN,50.829,6.66,240,8,9.20624,ETNN 031920Z AUTO 24008KT 2800 // ////// 20/16 Q1013 ///,2024-08-03T19:20:00Z,20,16,1.74,29.91
ETNL,53.916,12.279,240,6,6.904679999999999,ETNL 031920Z 24006G17KT 9999 VCSH FEW020CB BKN050 21/15 Q1010 BLU,2024-08-03T19:20:00Z,21,15,6+,29.82
ETNH,54.312,9.538,VRB,2,2.30156,ETNH 031920Z AUTO VRB02KT //// // ////// 19/17 Q1009 ///,2024-08-03T19:20:00Z,19,17,,29.79
ETMN,53.765,8.658,280,3,3.4523399999999995,ETMN 031920Z 28003KT 9999 FEW050 SCT100 BKN220 19/16 Q1010 BLU+,2024-08-03T19:20:00Z,19,16,6+,29.82
ETHS,52.918,10.184,280,4,4.60312,ETHS 031920Z AUTO 28004KT 9999 // ////// 22/14 Q1010 ///,2024-08-03T19:20:00Z,22,14,6+,29.82
ETHN,49.398,9.958,270,5,5.7539,ETHN 031920Z 27005KT 9999 SCT110 BKN160 21/16 Q1014 BLU,2024-08-03T19:20:00Z,21,16,6+,29.94
ETHL,48.218,9.91,210,3,3.4523399999999995,ETHL 031920Z AUTO 21003KT 4000 // ////// 20/16 Q1014 ///,2024-08-03T19:20:00Z,20,16,2.49,29.94
ETHF,51.114,9.286,150,2,2.30156,ETHF 031920Z AUTO 15002KT 3100 // ////// 18/17 Q1012 ///,2024-08-03T19:20:00Z,18,17,1.93,29.88
ETHC,52.591,10.022,280,2,2.30156,ETHC 031920Z AUTO 28002KT 3900 // ////// 22/16 Q1010 ///,2024-08-03T19:20:00Z,22,16,2.42,29.82
ETHB,52.279,9.082,170,3,3.4523399999999995,ETHB 031920Z AUTO 17003KT 6000 // ////// 19/18 Q1011 ///,2024-08-03T19:20:00Z,19,18,3.73,29.85
ETHA,47.834,10.867,290,2,2.30156,ETHA 031920Z AUTO 29002KT 9999 // ////// 18/15 Q1016 ///,2024-08-03T19:20:00Z,18,15,6+,30.00
ETGG,54.827,9.506,220,8,9.20624,ETGG 031920Z AUTO 22008KT 6000 // ////// 19/18 Q1009 ///,2024-08-03T19:20:00Z,19,18,3.73,29.79
ENKR,69.725,29.898,80,11,12.658579999999999,ENKR 031920Z 08011KT 9999 BKN007 10/09 Q1016 RMK WIND 731FT 07012KT,2024-08-03T19:20:00Z,10,9,6+,30.00
K40B,46.616,-69.533,0,0,0.0,K40B 031916Z AUTO 00000KT 30/20 A2972 RMK AO1 SLP049 T03040197 57013,2024-08-03T19:16:00Z,30.4,19.7,,29.72
KHZR,30.718,-91.48,90,5,5.7539,KHZR 031915Z AUTO 09005KT 10SM SCT060 34/26 A2993 RMK AO2 T03410258,2024-08-03T19:15:00Z,34.1,25.8,10+,29.93
KGPH,39.3248,-94.3082,0,0,0.0,KGPH 031915Z AUTO 00000KT 10SM CLR 32/17 A3004 RMK AO2,2024-08-03T19:15:00Z,32,17,10+,30.04
VCBI,7.181,79.884,190,6,6.904679999999999,VCBI 031910Z 19006KT 9999 FEW016 28/24 Q1011 NOSIG,2024-08-03T19:10:00Z,28,24,6+,29.85
