station_id,latitude,longitude,wind_dir_degrees,wind_speed_kt,wind_speed_mph,raw_text,observation_time,temp_c,dewpoint_c,visibility_statute_mi,altim_in_hg
UWKE,55.566,52.1,10,2,2.3,UWKE 080143Z 01001MPS 0100 R21/0150N FG VV000 16/16 Q1007 R21/090070 NOSIG RMK QBB020 OBST OBSC QFE739/0985,2024-08-08T01:43:00Z,16,16,0.06,29.73
ULLI,59.798,30.267,240,2,2.3,ULLI 080143Z 24001MPS 4100 0150NE R10R/0650D PRFG BR SCT002 12/12 Q1013 R10R/090060 NOSIG RMK QBB070 OBST OBSC,2024-08-08T01:43:00Z,12,12,2.55,29.91
KSFY,42.0454,-90.1101,30,3,3.45,KSFY 080143Z AUTO 03003KT 10SM CLR 20/16 A2994 RMK AO2,2024-08-08T01:43:00Z,20,16,10+,29.94
UWUU,54.57,55.87,10,4,4.6,UWUU 080142Z 01002MPS 2500 BR SCT003 13/13 Q1006 R32L/0///60 NOSIG RMK QBB090,2024-08-08T01:42:00Z,13,13,1.55,29.70
PASL,61.697,-157.167,140,5,5.75,PASL 080142Z AUTO 14005KT 10SM FEW017 SCT025 BKN060 14/12 A2986 RMK AO2,2024-08-08T01:42:00Z,14,12,10+,29.86
CYKP,51.659,-85.901,160,3,3.45,CYKP 080142Z AUTO 16003KT 6SM RA BR OVC086 15/15 A2994 RMK PCPN 1.0MM PAST HR SLP138 DENSITY ALT 800FT,2024-08-08T01:42:00Z,15,15,6,29.94
ULOO,57.79,28.397,0,0,0.0,ULOO 080141Z 00000MPS 0450 0300S R01/0500D PRFG NSC 12/12 Q1013 NOSIG RMK QFE755,2024-08-08T01:41:00Z,12,12,0.28,29.91
PAMY,60.376,-166.262,190,9,10.36,PAMY 080141Z AUTO 19009KT 10SM FEW013 SCT027 OVC036 12/09 A2970 RMK AO2 TSNO PNO $,2024-08-08T01:41:00Z,12,9,10+,29.70
PALH,61.179,-149.962,20,3,3.45,PALH 080141Z AUTO 02003KT 8SM -RA FEW008 BKN012 OVC029 16/15 A2996 RMK AO2 P0007 T01560150 TSNO,2024-08-08T01:41:00Z,15.6,15,8,29.96
KMEB,34.7913,-79.3683,50,16,18.41,KMEB 080141Z AUTO 05016G28KT 5SM RA BR FEW012 BKN018 OVC110 24/24 A2964 RMK AO2 PK WND 06030/0102 LTG DSNT SE P0014 T02440244,2024-08-08T01:41:00Z,24.4,24.4,5,29.64
KCHO,38.1374,-78.4551,150,5,5.75,KCHO 080141Z 15005KT 2SM -RA BR SCT016 BKN025 OVC047 24/23 A2989 RMK AO2 RAB34 P0000 T02440228 $,2024-08-08T01:41:00Z,24.4,22.8,2,29.89
PKWA,8.72,167.724,0,0,0.0,PKWA 080140Z AUTO 00000KT 10SM CLR 29/25 A2984 RMK AO2 T02940245,2024-08-08T01:40:00Z,29.4,24.5,10+,29.84
MMCV,23.706,-98.959,70,8,9.21,MMCV 080140Z 07008KT 10SM FEW020 SCT200 32/23 A2982 RMK 8/408,2024-08-08T01:40:00Z,32,23,10+,29.82
KXNX,36.3745,-86.41,310,5,5.75,KXNX 080140Z AUTO 31005KT 7SM BKN041 BKN048 OVC055 25/24 A2983 RMK A01,2024-08-08T01:40:00Z,25,24,7,29.83
KTTN,40.2768,-74.8159,80,9,10.36,KTTN 080140Z 08009KT 8SM BKN008 OVC014 19/18 A3002 RMK AO2 RAB16E25 CIG 006V010 P0000 T01890183 $,2024-08-08T01:40:00Z,18.9,18.3,8,30.02
KSPD,37.2834,-102.614,250,15,17.26,KSPD 080140Z AUTO 25015G32KT A2996 RMK AO1 PK WND 15032/0112 WSHFT 0120 $ ,2024-08-08T01:40:00Z,,,,29.96
KSEM,32.3367,-86.9836,250,4,4.6,KSEM 080140Z AUTO 25004KT 10SM CLR 29/26 A2970 RMK AO2,2024-08-08T01:40:00Z,29,26,10+,29.70
KQFX,-99.99,-99.99,210,1,1.15,KQFX 080140Z AUTO 21001KT 9999 FEW014 SCT033 BKN230 29/24 A2970 RMK A02 TSNO,2024-08-08T01:40:00Z,29,24,6+,29.70
KQFV,-99.99,-99.99,240,2,2.3,KQFV 080140Z AUTO 24002KT 9999 BKN210 29/22 A2975 RMK A02 TSNO,2024-08-08T01:40:00Z,29,22,6+,29.75
KQFU,-99.99,-99.99,220,2,2.3,KQFU 080140Z AUTO 22002KT 9999 FEW190 FEW210 SCT230 30/23 A2974 RMK A02 TSNO,2024-08-08T01:40:00Z,30,23,6+,29.74
KQFT,-99.99,-99.99,190,4,4.6,KQFT 080140Z AUTO 19004KT 9999 BKN210 29/25 A2969 RMK A02 TSNO,2024-08-08T01:40:00Z,29,25,6+,29.69
KQFB,-99.99,-99.99,280,2,2.3,KQFB 080140Z AUTO 28002KT 9999 CLR 34/24 A2974 RMK A02 TSNO,2024-08-08T01:40:00Z,34,24,6+,29.74
KQEX,-99.99,-99.99,360,5,5.75,KQEX 080140Z AUTO 36005G10KT 9999 FEW037 32/24 A2962 RMK A02 TSNO,2024-08-08T01:40:00Z,32,24,6+,29.62
KQEW,-99.99,-99.99,350,1,1.15,KQEW 080140Z AUTO 35001KT / // SCT026 31/27 A2969 RMK A02 TSNO,2024-08-08T01:40:00Z,31,27,,29.69
KQEV,-99.99,-99.99,250,3,3.45,KQEV 080140Z AUTO 25003KT 9999 FEW033 SCT190 29/25 A2968 RMK A02 TSNO,2024-08-08T01:40:00Z,29,25,6+,29.68
KQEQ,-99.99,-99.99,350,1,1.15,KQEQ 080140Z AUTO 35001KT 9999 FEW022 SCT190 SCT240 29/25 A2972 RMK A02 TSNO,2024-08-08T01:40:00Z,29,25,6+,29.72
KQEP,-99.99,-99.99,180,2,2.3,KQEP 080140Z AUTO 18002KT 9999 BKN017 BKN041 29/25 A2972 RMK A02 TSNO,2024-08-08T01:40:00Z,29,25,6+,29.72
KQEJ,-99.99,-99.99,310,2,2.3,KQEJ 080140Z AUTO 31002KT 9999 FEW017 FEW037 BKN190 28/23 A2969 RMK A02 TSNO,2024-08-08T01:40:00Z,28,23,6+,29.69
KPTW,40.238,-75.5549,70,4,4.6,KPTW 080140Z AUTO 07004KT 2 1/2SM BR OVC006 19/18 A3003 RMK AO2 RAB07E18 CIG 004V009 P0000 T01890183,2024-08-08T01:40:00Z,18.9,18.3,2.5,30.03
KPMU,34.3656,-89.8904,0,0,0.0,KPMU 080140Z AUTO 00000KT 10SM BKN035 24/20 A2981 RMK AO2,2024-08-08T01:40:00Z,24,20,10+,29.81
KPHD,40.4703,-81.4218,VRB,3,3.45,KPHD 080140Z AUTO VRB03KT 10SM OVC031 23/19 A2990 RMK AO2 T02330194,2024-08-08T01:40:00Z,23.3,19.4,10+,29.90
KONX,36.399,-76.014,110,6,6.9,KONX 080140Z AUTO 11006KT 10SM -DZ SCT008 SCT023 SCT034 25/24 A2985 RMK AO2 T02500240,2024-08-08T01:40:00Z,25,24,10+,29.85
KMPO,41.1368,-75.3771,70,7,8.06,KMPO 080140Z AUTO 07007G15KT 040V100 3SM BR OVC003 15/14 A3008 RMK AO2 RAE31 P0003 T01500144,2024-08-08T01:40:00Z,15,14.4,3,30.08
KLOT,41.6031,-88.1017,60,5,5.75,KLOT 080140Z AUTO 06005KT 10SM CLR 20/16 A2995 RMK AO2,2024-08-08T01:40:00Z,20,16,10+,29.95
KIKT,28.5208,-88.2889,VRB,5,5.75,KIKT 080140Z AUTO VRB05KT 10SM CLR 31/26 A2978 RMK A01,2024-08-08T01:40:00Z,31,26,10+,29.78
KGUL,27.3039,-93.5383,0,0,0.0,KGUL 080140Z AUTO 00000KT 10SM CLR 31/24 A2982 RMK A01,2024-08-08T01:40:00Z,31,24,10+,29.82
KEDU,38.53,-121.788,200,9,10.36,KEDU 080140Z AUTO 20009KT 10SM CLR 32/12 A2981 RMK AO1,2024-08-08T01:40:00Z,32,12,10+,29.81
KDSF,28.3426,-88.2649,0,0,0.0,KDSF 080140Z AUTO 00000KT 10SM CLR 32/26 A2977 RMK A01,2024-08-08T01:40:00Z,32,26,10+,29.77
KAIA,42.0573,-102.802,30,16,18.41,KAIA 080140Z AUTO 03016G26KT 10SM -RA FEW043 BKN100 19/17 A3010 RMK AO2 PK WND 03026/0135 LTG DSNT ALQDS TSB0058E21 T01940167 PNO $,2024-08-08T01:40:00Z,19.4,16.7,10+,30.10
KADW,38.8215,-76.8654,110,6,6.9,KADW 080140Z AUTO 11006KT 10SM FEW021 FEW027 SCT060 SCT100 25/23 A2988 RMK AO2 SLP123 $,2024-08-08T01:40:00Z,25,23,10+,29.88
K0F2,33.6011,-97.7735,140,3,3.45,K0F2 080140Z AUTO 14003KT 10SM CLR 34/17 A2982 RMK AO2 T03380174,2024-08-08T01:40:00Z,33.8,17.4,10+,29.82
CYIV,53.857,-94.655,20,6,6.9,CYIV 080140Z AUTO 02006KT 9SM OVC066 12/11 A3000 RMK SLP169,2024-08-08T01:40:00Z,12,11,9,30.00
UMMS,53.883,28.031,360,6,6.9,UMMS 080139Z 36003MPS 1300 0250N PRFG NSC 13/13 Q1013 NOSIG,2024-08-08T01:39:00Z,13,13,0.81,29.91
PFCL,58.837,-158.526,210,12,13.81,PFCL 080139Z AUTO 21012KT 10SM SCT012 OVC075 13/10 A2983 RMK AO2,2024-08-08T01:39:00Z,13,10,10+,29.83
KXNO,33.612,-81.07,340,11,12.66,KXNO 080139Z AUTO 34011G18KT 9SM -RA FEW006 SCT023 OVC030 25/23 A2959 RMK AO2 RAE0056DZB0056E0057RAB0057 SLP020 $,2024-08-08T01:39:00Z,25,23,9,29.59
KCRG,30.3371,-81.5128,360,15,17.26,KCRG 080139Z 36015G32KT 3/4SM +TSRA BR SCT015 BKN042 BKN055 25/24 A2966 RMK AO2 PK WND 01032/0134 LTG DSNT NE AND E RAB11 TSB31 P0033 T02500244,2024-08-08T01:39:00Z,25,24.4,0.75,29.66
KBWI,39.1733,-76.684,90,9,10.36,KBWI 080139Z 09009KT 10SM SCT013 BKN018 BKN049 BKN150 26/23 A2992 RMK AO2 T02560233,2024-08-08T01:39:00Z,25.6,23.3,10+,29.92
KATY,44.9045,-97.1496,350,19,21.86,KATY 080139Z AUTO 35019G24KT 10SM -RA BKN016 BKN041 OVC055 18/16 A2998 RMK AO2 RAB31 P0000 T01830161,2024-08-08T01:39:00Z,18.3,16.1,10+,29.98
K2V6,40.1047,-102.713,300,3,3.45,K2V6 080139Z AUTO 30003KT 10SM VCTS SCT120 24/10 A3006 RMK AO2 LTG DSNT SE THRU SW,2024-08-08T01:39:00Z,24,10,10+,30.06
CYCA,53.683,-57.042,60,6,6.9,CYCA 080139Z AUTO 06006KT 9SM FEW007 BKN010 OVC029 09/09 A2972 RMK SLP068,2024-08-08T01:39:00Z,9,9,9,29.72
UMKK,54.885,20.583,0,0,0.0,UMKK 080138Z 00000MPS 0200 0150E R24/0500D PRFG SCT001 13/13 Q1013 R24/CLRD95 NOSIG RMK QBB050 OBST OBSC QFE758/1011,2024-08-08T01:38:00Z,13,13,0.12,29.91
UATT,50.248,57.203,VRB,2,2.3,UATT 080138Z VRB01MPS 2900 BR NSC 16/16 Q1004 TEMPO 0300 FG VV002 RMK QFE733/0978,2024-08-08T01:38:00Z,16,16,1.8,29.65
RCSS,25.069,121.552,310,9,10.36,RCSS 080138Z 31009KT 280V350 9999 VCSH FEW018 FEW025TCU SCT028 33/27 Q1006 NOSIG RMK 31011KT/R10 TCU W-NW A2973,2024-08-08T01:38:00Z,33,27,6+,29.70
PAVA,61.537,-165.604,230,8,9.21,PAVA 080138Z AUTO 23008KT 4SM BR SCT009 BKN012 OVC016 11/09 A2972 RMK AO2 RAE23 PNO $,2024-08-08T01:38:00Z,11,9,4,29.72
KEQY,35.0147,-80.6242,30,18,20.71,KEQY 080138Z AUTO 03018G31KT 10SM BKN025 BKN055 26/22 A2971 RMK AO2 PK WND 02031/0138 T02610222,2024-08-08T01:38:00Z,26.1,22.2,10+,29.71
KCPS,38.57,-90.156,340,4,4.6,KCPS 080138Z 34004KT 10SM BKN027 OVC042 24/19 A2990 RMK AO2 T02390189,2024-08-08T01:38:00Z,23.9,18.9,10+,29.90
KCDC,37.7067,-113.097,160,11,12.66,KCDC 080138Z AUTO 16011KT 10SM -TSRA OVC100 22/15 A3018 RMK AO2 WSHFT 0118 LTG DSNT SE AND S RAE03B19 TSB00E15B24 P0004 T02220150,2024-08-08T01:38:00Z,22.2,15,10+,30.18
KBFF,41.8747,-103.601,90,14,16.11,KBFF 080138Z AUTO 09014G20KT 3/4SM VCTS +RA BKN015 BKN044 OVC080 18/ A3012 RMK AO2 PK WND 03038/0127 WSHFT 0124 LTG DSNT E TSE36 P0103 T0183 $,2024-08-08T01:38:00Z,18.3,,0.75,30.12
CZUM,53.562,-64.107,330,9,10.36,CZUM 080138Z AUTO 33009KT 8SM -RA FEW013 SCT024 BKN038 OVC045 10/08 A2980 RMK SLP107,2024-08-08T01:38:00Z,10,8,8,29.80
CYRL,51.067,-93.799,350,3,3.45,CYRL 080138Z 35003KT 310V070 5SM SHRA BR BKN005 OVC015 15/15 A2984 RMK FG1SF6SC1 CIG RAG CVCTV CLD EMBD SLP112 DENSITY ALT 1700FT,2024-08-08T01:38:00Z,15,15,5,29.84
PATL,62.893,-155.977,VRB,4,4.6,PATL 080137Z AUTO VRB04KT 10SM BKN018 14/13 A2988 RMK AO2 SLP115,2024-08-08T01:37:00Z,14,13,10+,29.88
PAKH,56.94,-154.181,130,3,3.45,PAKH 080137Z AUTO 13003KT 10SM BKN028 OVC041 13/11 A2992 RMK AO2 PNO $,2024-08-08T01:37:00Z,13,11,10+,29.92
KPHF,37.1322,-76.494,80,8,9.21,KPHF 080137Z 08008KT 7SM -RA BKN009 OVC016 24/23 A2987 RMK AO2 RAB14 CIG 007V012 P0001 T02390228,2024-08-08T01:37:00Z,23.9,22.8,7,29.87
KDOV,39.13,-75.465,100,8,9.21,KDOV 080137Z AUTO 10008KT 10SM FEW007 BKN013 OVC040 25/23 A2993 RMK AO2 CIG 012 RWY01 CIG 012 RWY32 SLP139,2024-08-08T01:37:00Z,25,23,10+,29.93
KBRD,46.4021,-94.1273,0,0,0.0,KBRD 080137Z AUTO 00000KT 2SM -RA BR FEW008 SCT014 OVC030 17/16 A2993 RMK AO2 P0005 T01720161,2024-08-08T01:37:00Z,17.2,16.1,2,29.93
CYHU,45.516,-73.415,110,4,4.6,CYHU 080137Z AUTO 11004KT 4SM HZ CLR 19/12 A3005 RMK SLP179 DENSITY ALT 500FT,2024-08-08T01:37:00Z,19,12,4,30.05
SESA,-2.205,-80.989,210,11,12.66,SESA 080136Z 21011KT 4000 DZ SCT003 BKN006 BKN011 22/21 Q1013 RMK A2992,2024-08-08T01:36:00Z,22,21,2.49,29.91
KPOV,41.209,-81.2479,60,5,5.75,KPOV 080136Z AUTO 06005KT 10SM SCT027 OVC035 21/17 A2994 RMK AO2 T02060170 PWINO,2024-08-08T01:36:00Z,20.6,17,10+,29.94
KMTJ,38.5054,-107.898,330,20,23.02,KMTJ 080136Z AUTO 33020G29KT 9SM -RA SCT110 27/09 A3016 RMK AO2 PK WND 36032/0105 LTG DSNT NE RAB36 P0000 T02670089,2024-08-08T01:36:00Z,26.7,8.9,9,30.16
KMNN,40.6158,-83.0673,20,7,8.06,KMNN 080136Z AUTO 02007KT 10SM SCT029 BKN034 21/18 A2991 RMK AO2 T02060178,2024-08-08T01:36:00Z,20.6,17.8,10+,29.91
KLYH,37.3213,-79.2065,VRB,4,4.6,KLYH 080136Z VRB04KT 10SM SCT010 BKN015 24/23 A2988 RMK AO2 T02440228,2024-08-08T01:36:00Z,24.4,22.8,10+,29.88
KI69,39.078,-84.21,30,5,5.75,KI69 080136Z AUTO 03005KT 10SM CLR 24/20 A2987 RMK AO1 T02400196,2024-08-08T01:36:00Z,24,19.6,10+,29.87
KFPK,42.5764,-84.8125,60,1,1.15,KFPK 080136Z AUTO 06001KT 10SM CLR 19/13 A2997 RMK AO2,2024-08-08T01:36:00Z,19,13,10+,29.97
KFMN,36.7435,-108.229,50,16,18.41,KFMN 080136Z 05016G27KT 10SM -TSRA OVC110 25/14 A3007 RMK AO2 PK WND 06027/0136 LTG DSNT N AND NW RAB05 TSB30 P0003 T02500139,2024-08-08T01:36:00Z,25,13.9,10+,30.07
KFAY,34.9895,-78.8801,40,12,13.81,KFAY 080136Z 04012G25KT 6SM -RA BR SCT013 BKN027 OVC080 25/24 A2965 RMK AO2 PK WND 03027/0114 LTG DSNT SE AND S P0014 T02500239,2024-08-08T01:36:00Z,25,23.9,6,29.65
KBAF,42.16,-72.7124,0,0,0.0,KBAF 080136Z 00000KT 1 3/4SM BR CLR 17/17 A3007 RMK AO2 VIS 3/4V5 T01720167,2024-08-08T01:36:00Z,17.2,16.7,1.75,30.07
KAMN,43.3209,-84.6871,50,4,4.6,KAMN 080136Z AUTO 05004KT 10SM CLR 17/14 A2998 RMK AO2,2024-08-08T01:36:00Z,17,14,10+,29.98
KAEL,43.6823,-93.3722,0,0,0.0,KAEL 080136Z AUTO 00000KT 10SM BKN050 OVC070 22/17 A2995 RMK AO2,2024-08-08T01:36:00Z,22,17,10+,29.95
UNNT,55.013,82.651,230,4,4.6,UNNT 080135Z 23002MPS 200V270 9999 FEW007 BKN033 18/17 Q1003 R25/090070 R16/090070 NOSIG RMK QFE742/0990,2024-08-08T01:35:00Z,18,17,6+,29.62
TJPS,18.011,-66.567,0,0,0.0,TJPS 080135Z AUTO 00000KT 10SM CLR 27/24 A2992 RMK AO2 PWINO,2024-08-08T01:35:00Z,27,24,10+,29.92
PWAK,19.287,166.623,110,6,6.9,PWAK 080135Z AUTO 11006KT 5SM HZ SCT019 BKN160 BKN340 33/26 A2992 RMK AO2 SLP134,2024-08-08T01:35:00Z,33,26,5,29.92
PFKT,65.33,-166.479,230,8,9.21,PFKT 080135Z AUTO 23008KT 10SM OVC011 11/11 A2968 RMK AO2,2024-08-08T01:35:00Z,11,11,10+,29.68
PAUT,54.145,-165.604,330,5,5.75,PAUT 080135Z AUTO 33005KT 10SM OVC029 09/09 A2988 RMK AO2,2024-08-08T01:35:00Z,9,9,10+,29.88
PAFR,61.263,-149.66,10,4,4.6,PAFR 080135Z AUTO 01004KT 4SM RA BR OVC006 16/15 A2995 RMK AO2 OVC V BKN SLP144 $,2024-08-08T01:35:00Z,16,15,4,29.95
PAAD,70.136,-146.29,340,3,3.45,PAAD 080135Z AUTO 34003KT 10SM BKN120 16/11 A2974 RMK AO2 T01640105,2024-08-08T01:35:00Z,16.4,10.5,10+,29.74
KZPH,28.2268,-82.1564,210,4,4.6,KZPH 080135Z AUTO 21004KT 10SM CLR 28/24 A2974 RMK A02 LTG DSNT NE T02810244,2024-08-08T01:35:00Z,28.1,24.4,10+,29.74
KZER,40.7072,-76.371,110,16,18.41,KZER 080135Z AUTO 11016KT 1/2SM RA OVC002 16/16 A3004 RMK AO2,2024-08-08T01:35:00Z,16,16,0.5,30.04
KY63,45.9891,-95.9946,360,8,9.21,KY63 080135Z AUTO 36008G17KT 10SM BKN016 BKN023 OVC050 18/17 A2996 RMK AO2 T01800170,2024-08-08T01:35:00Z,18,17,10+,29.96
KY51,43.5814,-90.8997,170,3,3.45,KY51 080135Z AUTO 17003KT 10SM BKN120 21/16 A2997 RMK AO2 T02060156,2024-08-08T01:35:00Z,20.6,15.6,10+,29.97
KY49,47.1599,-94.6433,290,5,5.75,KY49 080135Z AUTO 29005KT 10SM SCT038 SCT044 OVC060 16/16 A2994 RMK AO2 T01600160,2024-08-08T01:35:00Z,16,16,10+,29.94
KY31,44.2434,-84.18,0,0,0.0,KY31 080135Z AUTO 00000KT 10SM CLR 14/13 A3000 RMK AO2 T01410129,2024-08-08T01:35:00Z,14.1,12.9,10+,30.00
KY23,45.311,-91.638,0,0,0.0,KY23 080135Z AUTO 00000KT 10SM -RA OVC100 20/17 A2996 RMK AO2 T01950165,2024-08-08T01:35:00Z,19.5,16.5,10+,29.96
KY19,46.7648,-100.894,330,7,8.06,KY19 080135Z AUTO 33007KT 10SM SCT110 17/12 A3011 RMK AO2,2024-08-08T01:35:00Z,17,12,10+,30.11
KXSA,37.8606,-76.9016,100,4,4.6,KXSA 080135Z AUTO 10004KT 10SM OVC012 25/25 A2989 RMK AO2 T02470247,2024-08-08T01:35:00Z,24.7,24.7,10+,29.89
KXLL,40.5704,-75.4894,50,5,5.75,KXLL 080135Z AUTO 05005KT 5SM -RA OVC007 18/17 A3004 RMK AO2,2024-08-08T01:35:00Z,18,17,5,30.04
KX60,29.3524,-82.4743,230,5,5.75,KX60 080135Z AUTO 23005KT 10SM CLR 28/25 A2968 RMK AO2 LTG DSNT E T02780250,2024-08-08T01:35:00Z,27.8,25,10+,29.68
KX26,27.813,-80.497,210,7,8.06,KX26 080135Z AUTO 21007KT 10SM CLR 28/25 A2974 RMK AO2 T02820251,2024-08-08T01:35:00Z,28.2,25.1,10+,29.74
KX07,27.8934,-81.6167,230,5,5.75,KX07 080135Z AUTO 23005KT 28/27 A2973 RMK A01,2024-08-08T01:35:00Z,28,27,,29.73
KWYS,44.6811,-111.124,60,13,14.96,KWYS 080135Z AUTO 06013G18KT 10SM BKN090 OVC110 21/08 A3021 RMK AO2,2024-08-08T01:35:00Z,21,8,10+,30.21
KWWR,36.4374,-99.5234,150,8,9.21,KWWR 080135Z AUTO 15008KT 10SM CLR 34/12 A2984 RMK AO2,2024-08-08T01:35:00Z,34,12,10+,29.84
KWDR,33.981,-83.667,90,4,4.6,KWDR 080135Z AUTO 09004KT 10SM BKN055 BKN065 OVC120 28/22 A2975 RMK AO2 LTG DSNT SE AND NW,2024-08-08T01:35:00Z,28,22,10+,29.75
KW99,38.9947,-79.1421,310,3,3.45,KW99 080135Z AUTO 31003KT 10SM FEW025 BKN038 OVC047 23/22 A2989 RMK AO2 T02320223,2024-08-08T01:35:00Z,23.2,22.3,10+,29.89
KW96,37.5027,-77.126,90,5,5.75,KW96 080135Z AUTO 09005KT 10SM OVC013 25/23 A2987 RMK AO1 T02450231,2024-08-08T01:35:00Z,24.5,23.1,10+,29.87
KW81,37.1813,-78.0977,0,0,0.0,KW81 080135Z AUTO 00000KT 10SM BKN011 BKN014 24/23 A2986 RMK AO1 T02420226,2024-08-08T01:35:00Z,24.2,22.6,10+,29.86
KW78,36.7087,-78.846,60,4,4.6,KW78 080135Z AUTO 06004KT 10SM SCT012 BKN021 OVC060 25/23 A2983 RMK AO1 T02450230,2024-08-08T01:35:00Z,24.5,23,10+,29.83
KW75,37.6024,-76.4477,130,7,8.06,KW75 080135Z AUTO 13007KT 090V160 10SM OVC010 A2988 RMK AO1,2024-08-08T01:35:00Z,,,10+,29.88
KW63,36.6008,-78.5559,60,5,5.75,KW63 080135Z AUTO 06005KT 10SM OVC011 25/23 A2982 RMK AO1,2024-08-08T01:35:00Z,25,23,10+,29.82
KW43,44.6607,-104.568,30,5,5.75,KW43 080135Z AUTO 03005KT 10SM -RA SCT027 SCT050 BKN070 16/11 A3024 RMK AO2,2024-08-08T01:35:00Z,16,11,10+,30.24
KW31,36.9599,-78.1838,60,3,3.45,KW31 080135Z AUTO 06003KT 10SM SCT008 OVC026 25/24 A2985 RMK AO1 T02510240,2024-08-08T01:35:00Z,25.1,24,10+,29.85
KW22,39.001,-80.2712,90,3,3.45,KW22 080135Z AUTO 09003KT 10SM OVC110 23/23 A2988 RMK AO2,2024-08-08T01:35:00Z,23,23,10+,29.88
KW13,38.077,-78.944,130,5,5.75,KW13 080135Z AUTO 13005KT 10SM BKN011 BKN024 OVC090 24/22 A2991 RMK AO1 T02360218,2024-08-08T01:35:00Z,23.6,21.8,10+,29.91
KVYS,41.3517,-89.1496,20,4,4.6,KVYS 080135Z AUTO 02004KT 10SM CLR 19/15 A2993 RMK AO2 T01920145,2024-08-08T01:35:00Z,19.2,14.5,10+,29.93
KVWU,48.1502,-94.512,310,7,8.06,KVWU 080135Z AUTO 31007KT 10SM BKN060 20/14 A2991 RMK AO2,2024-08-08T01:35:00Z,20,14,10+,29.91
KVVV,45.2994,-96.4256,350,14,16.11,KVVV 080135Z AUTO 35014G24KT 7SM -DZ OVC012 18/18 A2996 RMK AO2,2024-08-08T01:35:00Z,18,18,7,29.96
KVVS,39.9581,-79.6575,60,9,10.36,KVVS 080135Z AUTO 06009KT 10SM SCT050 24/20 A2990 RMK AO2 T02420201,2024-08-08T01:35:00Z,24.2,20.1,10+,29.90
KVTP,37.512,-105.171,300,4,4.6,KVTP 080135Z AUTO 30004KT 10SM BKN080 BKN110 13/06 A3063 RMK AO2,2024-08-08T01:35:00Z,13,6,10+,30.63
KVTI,42.2176,-92.0248,130,3,3.45,KVTI 080135Z AUTO 13003KT 10SM CLR 21/18 A2995 RMK AO2 T02110177,2024-08-08T01:35:00Z,21.1,17.7,10+,29.95
KVPC,34.1158,-84.8507,0,0,0.0,KVPC 080135Z AUTO 00000KT 10SM FEW045 29/21 A2973 RMK AO2,2024-08-08T01:35:00Z,29,21,10+,29.73
KVNC,27.0728,-82.44,260,8,9.21,KVNC 080135Z AUTO 26008KT 10SM FEW017 30/30 A2977 RMK AO2,2024-08-08T01:35:00Z,30,30,10+,29.77
KVLL,42.543,-83.178,40,7,8.06,KVLL 080135Z AUTO 04007KT 10SM CLR 22/14 A2999 RMK AO2 T02150140,2024-08-08T01:35:00Z,21.5,14,10+,29.99
KVKS,32.2359,-90.9269,10,11,12.66,KVKS 080135Z AUTO 01011KT 10SM CLR 31/27 A2975 RMK A01,2024-08-08T01:35:00Z,31,27,10+,29.75
KVJI,36.6871,-82.037,130,5,5.75,KVJI 080135Z AUTO 13005KT 10SM CLR 25/20 A2985 RMK AO2 T02510196,2024-08-08T01:35:00Z,25.1,19.6,10+,29.85
KVHN,31.0602,-104.783,0,0,0.0,KVHN 080135Z AUTO 00000KT 10SM CLR 35/09 A3000 RMK AO2 T03470089,2024-08-08T01:35:00Z,34.7,8.9,10+,30.00
KVGC,42.8444,-75.5637,160,3,3.45,KVGC 080135Z AUTO 16003KT 10SM OVC050 18/14 A3007 RMK AO2,2024-08-08T01:35:00Z,18,14,10+,30.07
KVES,40.2056,-84.5346,50,4,4.6,KVES 080135Z AUTO 05004KT 10SM OVC026 20/17 A2991 RMK AO2,2024-08-08T01:35:00Z,20,17,10+,29.91
KVER,38.9496,-92.6842,0,0,0.0,KVER 080135Z AUTO 00000KT 10SM CLR 24/19 A2992 RMK AO2 T02430191 TSNO,2024-08-08T01:35:00Z,24.3,19.1,10+,29.92
KVDI,32.1933,-82.3642,310,5,5.75,KVDI 080135Z AUTO 31005KT 10SM SCT065 BKN080 27/23 A2965 RMK AO2,2024-08-08T01:35:00Z,27,23,10+,29.65
KVDF,28.0198,-82.3415,,,,KVDF 080135Z AUTO 10SM CLR 28/26 A2974 RMK AO2,2024-08-08T01:35:00Z,28,26,10+,29.74
KVCV,34.5933,-117.389,170,16,18.41,KVCV 080135Z AUTO 17016KT 10SM CLR 35/M03 A2998 RMK AO2,2024-08-08T01:35:00Z,35,-3,10+,29.98
KVBW,38.366,-78.968,0,0,0.0,KVBW 080135Z AUTO 00000KT 10SM SCT050 SCT075 BKN085 23/23 A2990 RMK AO1 P0001 T02300230,2024-08-08T01:35:00Z,23,23,10+,29.90
KVAF,27.3536,-94.6253,0,0,0.0,KVAF 080135Z AUTO 00000KT 7SM CLR 30/23 A2983 RMK A01,2024-08-08T01:35:00Z,30,23,7,29.83
KUYF,39.9312,-83.465,10,6,6.9,KUYF 080135Z AUTO 01006KT 10SM 22/20 A2991 RMK AO2,2024-08-08T01:35:00Z,22,20,10+,29.91
KUXL,30.135,-93.3767,230,4,4.6,KUXL 080135Z AUTO 23004KT 10SM BKN065 31/26 A2979 RMK AO2 T03050257,2024-08-08T01:35:00Z,30.5,25.7,10+,29.79
KUWL,39.8752,-85.3313,40,7,8.06,KUWL 080135Z AUTO 04007KT 10SM CLR 21/20 A2991 RMK A01,2024-08-08T01:35:00Z,21,20,10+,29.91
KUVA,29.2135,-99.743,110,4,4.6,KUVA 080135Z AUTO 11004KT 10SM CLR 36/16 A2978 RMK AO2 T03600161,2024-08-08T01:35:00Z,36,16.1,10+,29.78
KUUV,38.2335,-91.1609,0,0,0.0,KUUV 080135Z AUTO 00000KT 10SM OVC034 21/17 A2994 RMK AO2,2024-08-08T01:35:00Z,21,17,10+,29.94
KUTA,34.6766,-90.344,360,6,6.9,KUTA 080135Z AUTO 36006KT 10SM CLR 22/21 A2982 RMK AO2 T02240205 $,2024-08-08T01:35:00Z,22.4,20.5,10+,29.82
KUSE,41.6118,-84.1275,,,,KUSE 080135Z AUTO 10SM 20/17 A2994 RMK AO2,2024-08-08T01:35:00Z,20,17,10+,29.94
KUOX,34.3851,-89.5435,340,4,4.6,KUOX 080135Z AUTO 34004KT 10SM CLR 23/18 A2983 RMK AO2 PWINO,2024-08-08T01:35:00Z,23,18,10+,29.83
KUNU,43.4285,-88.7017,100,4,4.6,KUNU 080135Z AUTO 10004KT 10SM CLR 19/11 A2998 RMK AO2 T01880109,2024-08-08T01:35:00Z,18.8,10.9,10+,29.98
KUNI,39.2129,-82.2204,10,6,6.9,KUNI 080135Z AUTO 01006KT 10SM CLR 25/20 A2985 RMK AO2 T02480196,2024-08-08T01:35:00Z,24.8,19.6,10+,29.85
KUMP,39.936,-86.0478,50,6,6.9,KUMP 080135Z AUTO 05006KT 10SM CLR 22/19 A2991 RMK AO2 T02210187,2024-08-08T01:35:00Z,22.1,18.7,10+,29.91
KULS,37.6037,-101.377,130,10,11.51,KULS 080135Z AUTO 13010KT 10SM FEW040 FEW070 FEW080 34/10 A2983 RMK AO2,2024-08-08T01:35:00Z,34,10,10+,29.83
KULM,44.3228,-94.5024,90,3,3.45,KULM 080135Z AUTO 09003KT 10SM OVC040 21/17 A2991 RMK AO2,2024-08-08T01:35:00Z,21,17,10+,29.91
KUKT,40.4368,-75.3802,VRB,5,5.75,KUKT 080135Z AUTO VRB05KT 4SM BR OVC006 18/18 A3004 RMK AO2,2024-08-08T01:35:00Z,18,18,4,30.04
KUKL,38.3041,-95.7217,90,5,5.75,KUKL 080135Z AUTO 09005KT 10SM CLR 25/18 A2988 RMK AO2 T02510178,2024-08-08T01:35:00Z,25.1,17.8,10+,29.88
KUBE,45.5046,-91.978,210,6,6.9,KUBE 080135Z AUTO 21006KT 10SM RA SCT042 OVC100 20/17 A2996 RMK AO2,2024-08-08T01:35:00Z,20,17,10+,29.96
KU68,44.9113,-108.447,20,22,25.32,KU68 080135Z AUTO 02022G32KT 10SM OVC100 18/10 A3020 RMK AO2 LTG DSNT E THRU SW,2024-08-08T01:35:00Z,18,10,10+,30.20
KU64,37.9333,-109.34,330,10,11.51,KU64 080135Z AUTO 33010KT 10SM FEW100 28/08 A3025 RMK AO2 T02850079 $,2024-08-08T01:35:00Z,28.5,7.9,10+,30.25
KU52,38.232,-112.672,150,7,8.06,KU52 080135Z AUTO 15007KT 10SM FEW120 28/07 A3012 RMK AO2 PWINO,2024-08-08T01:35:00Z,28,7,10+,30.12
KU42,40.6196,-111.99,330,6,6.9,KU42 080135Z AUTO 33006KT 10SM CLR 34/M05 A3003 RMK AO1 T03381049,2024-08-08T01:35:00Z,33.8,-4.9,10+,30.03
KTZR,39.8988,-83.1357,50,5,5.75,KTZR 080135Z AUTO 05005KT 10SM CLR 22/19 A2989 RMK AO2 T02230190,2024-08-08T01:35:00Z,22.3,19,10+,29.89
KTYQ,40.0345,-86.2488,40,5,5.75,KTYQ 080135Z AUTO 04005KT 10SM CLR 19/18 A2992 RMK AO2 T01940180,2024-08-08T01:35:00Z,19.4,18,10+,29.92
KTYL,34.4577,-110.112,220,14,16.11,KTYL 080135Z AUTO 22014G20KT 10SM VCTS SCT095 25/10 A3020 RMK AO2 LTG DSNT NW-E,2024-08-08T01:35:00Z,25,10,10+,30.20
KTXW,26.1824,-97.9742,130,8,9.21,KTXW 080135Z AUTO 13008KT 10SM CLR 32/22 A2978 RMK AO2 T03200221,2024-08-08T01:35:00Z,32,22.1,10+,29.78
KTWT,37.5432,-87.9568,330,6,6.9,KTWT 080135Z AUTO 33006KT 10SM OVC020 23/21 A2985 RMK AO2,2024-08-08T01:35:00Z,23,21,10+,29.85
KTWM,47.0192,-91.7447,270,6,6.9,KTWM 080135Z AUTO 27006KT 10SM DZ OVC042 15/15 A2992 RMK AO2,2024-08-08T01:35:00Z,15,15,10+,29.92
KTVY,40.6127,-112.354,30,6,6.9,KTVY 080135Z AUTO 03006KT 10SM CLR 33/00 A2999 RMK AO2,2024-08-08T01:35:00Z,33,0,10+,29.99
KTVK,40.6832,-92.8984,0,0,0.0,KTVK 080135Z AUTO 00000KT 20/18 A2995 RMK A01,2024-08-08T01:35:00Z,20,18,,29.95
KTVI,30.9026,-83.8826,270,4,4.6,KTVI 080135Z AUTO 27004KT 10SM CLR 28/23 A2969 RMK AO2,2024-08-08T01:35:00Z,28,23,10+,29.69
KTTF,41.9371,-83.4332,20,4,4.6,KTTF 080135Z AUTO 02004KT 10SM CLR 20/14 A2994 RMK AO2 T02010141,2024-08-08T01:35:00Z,20.1,14.1,10+,29.94
KTSP,35.1387,-118.442,290,15,17.26,KTSP 080135Z AUTO 29015G22KT 10SM CLR 32/03 A3009 RMK AO2,2024-08-08T01:35:00Z,32,3,10+,30.09
KTQV,36.007,-78.937,60,11,12.66,KTQV 080135Z AUTO 06011G17KT 6SM BR SCT011 BKN025 OVC055 25/23 A2978 RMK A01,2024-08-08T01:35:00Z,25,23,6,29.78
KTQH,35.9304,-95.0025,0,0,0.0,KTQH 080135Z AUTO 00000KT 7SM CLR 29/15 A2983 RMK AO2,2024-08-08T01:35:00Z,29,15,7,29.83
KTPF,27.9153,-82.4518,260,3,3.45,KTPF 080135Z AUTO 26003KT 10SM CLR 30/25 A2974 RMK AO2,2024-08-08T01:35:00Z,30,25,10+,29.74
KTOC,34.588,-83.2974,280,4,4.6,KTOC 080135Z AUTO 28004KT 10SM SCT090 OVC110 25/24 A2976 RMK AO2 T02470238,2024-08-08T01:35:00Z,24.7,23.8,10+,29.76
KTOB,44.0202,-92.8295,0,0,0.0,KTOB 080135Z AUTO 00000KT 10SM OVC090 19/18 A2996 RMK AO2,2024-08-08T01:35:00Z,19,18,10+,29.96
KTNU,41.6701,-93.019,130,5,5.75,KTNU 080135Z AUTO 13005KT 10SM CLR 21/21 A2994 RMK A01,2024-08-08T01:35:00Z,21,21,10+,29.94
KTNB,36.1988,-81.6515,0,0,0.0,KTNB 080135Z AUTO 00000KT 10SM SCT017 21/21 A2977 RMK AO2 T02070207,2024-08-08T01:35:00Z,20.7,20.7,10+,29.77
KTMT,39.4643,-117.197,340,11,12.66,KTMT 080135Z AUTO 34011KT 10SM CLR 32/02 A3015 RMK AO2 T03180020,2024-08-08T01:35:00Z,31.8,2,10+,30.15
KTMK,45.421,-123.814,270,6,6.9,KTMK 080135Z AUTO 27006KT 10SM CLR 20/20 A3002 RMK AO2,2024-08-08T01:35:00Z,20,20,10+,30.02
KTME,29.806,-95.903,0,0,0.0,KTME 080135Z AUTO 00000KT 10SM CLR 31/25 A2979 RMK AO2,2024-08-08T01:35:00Z,31,25,10+,29.79
KTMA,31.4229,-83.4859,290,5,5.75,KTMA 080135Z AUTO 29005KT 10SM FEW080 30/24 A2968 RMK AO2 T02960244,2024-08-08T01:35:00Z,29.6,24.4,10+,29.68
KTKX,36.2226,-90.0367,340,6,6.9,KTKX 080135Z AUTO 34006KT 6SM HZ CLR 23/20 A2984 RMK AO2,2024-08-08T01:35:00Z,23,20,6,29.84
KTKV,45.469,-89.805,0,0,0.0,KTKV 080135Z AUTO 00000KT 10SM SCT110 18/15 A2996 RMK AO2 T01760146 PWINO,2024-08-08T01:35:00Z,17.6,14.6,10+,29.96
KTKC,44.25,-95.612,320,4,4.6,KTKC 080135Z AUTO 32004KT 10SM BKN040 OVC060 20/20 A2993 RMK AO2,2024-08-08T01:35:00Z,20,20,10+,29.93
KTIP,40.291,-88.146,40,4,4.6,KTIP 080135Z AUTO 04004KT 10SM OVC049 22/18 A2991 RMK AO2 T02210184,2024-08-08T01:35:00Z,22.1,18.4,10+,29.91
KTIF,41.9646,-100.569,30,14,16.11,KTIF 080135Z AUTO 03014G19KT 10SM OVC060 27/14 A3000 RMK AO2 LTG DSNT S AND SW T02710140,2024-08-08T01:35:00Z,27.1,14,10+,30.00
KTHA,35.3804,-86.2419,340,7,8.06,KTHA 080135Z AUTO 34007KT 10SM FEW013 FEW043 25/23 A2978 RMK A01,2024-08-08T01:35:00Z,25,23,10+,29.78
KTGI,37.8279,-75.9964,110,9,10.36,KTGI 080135Z AUTO 11009KT 10SM SCT011 SCT120 25/24 A2989 RMK AO1 T02520236,2024-08-08T01:35:00Z,25.2,23.6,10+,29.89
KTFP,27.9132,-97.2132,180,9,10.36,KTFP 080135Z AUTO 18009KT 10SM CLR 30/25 A2977 RMK AO1 T03000246,2024-08-08T01:35:00Z,30,24.6,10+,29.77
KTEX,37.954,-107.909,0,0,0.0,KTEX 080135Z AUTO 00000KT 10SM CLR 18/07 A3043 RMK AO2,2024-08-08T01:35:00Z,18,7,10+,30.43
KTEW,42.5636,-84.4222,0,0,0.0,KTEW 080135Z AUTO 00000KT 10SM CLR 18/12 A2998 RMK AO2 T01790124,2024-08-08T01:35:00Z,17.9,12.4,10+,29.98
KTCY,37.6919,-121.444,300,12,13.81,KTCY 080135Z AUTO 30012G25KT 10SM CLR 37/03 A2981 RMK A01,2024-08-08T01:35:00Z,37,3,10+,29.81
KTBR,32.48,-81.738,340,8,9.21,KTBR 080135Z AUTO 34008KT 10SM SCT090 26/22 A2961 RMK AO2 T02590224,2024-08-08T01:35:00Z,25.9,22.4,10+,29.61
KTAZ,39.535,-89.3294,280,3,3.45,KTAZ 080135Z AUTO 28003KT 10SM BKN036 OVC050 22/20 A2991 RMK AO2 T02190204,2024-08-08T01:35:00Z,21.9,20.4,10+,29.91
KT89,29.2774,-103.691,90,9,10.36,KT89 080135Z AUTO 09009KT 10SM CLR 36/05 A2985 RMK A01,2024-08-08T01:35:00Z,36,5,10+,29.85
KT82,30.239,-98.904,110,3,3.45,KT82 080135Z AUTO 11003KT 10SM CLR 33/17 A2983 RMK AO2 T03310170,2024-08-08T01:35:00Z,33.1,17,10+,29.83
KT78,30.0754,-94.6996,0,0,0.0,KT78 080135Z AUTO 00000KT 2 1/2SM HZ CLR 29/25 A2978 RMK AO2 VIS 1 1/4V5,2024-08-08T01:35:00Z,29,25,2.5,29.78
KT74,30.5704,-97.4447,120,6,6.9,KT74 080135Z AUTO 12006KT 10SM CLR 32/22 A2980 RMK AO2 T03240216,2024-08-08T01:35:00Z,32.4,21.6,10+,29.80
KT69,28.0418,-97.541,160,8,9.21,KT69 080135Z AUTO 16008KT 10SM CLR 30/26 A2977 RMK A01,2024-08-08T01:35:00Z,30,26,10+,29.77
KT41,29.6709,-95.0644,190,6,6.9,KT41 080135Z AUTO 19006KT 10SM BKN065 31/25 A2979 RMK AO2 T03110249,2024-08-08T01:35:00Z,31.1,24.9,10+,29.79
KT35,30.8789,-96.9704,140,3,3.45,KT35 080135Z AUTO 14003KT 10SM CLR 32/23 A2979 RMK AO2 T03170229,2024-08-08T01:35:00Z,31.7,22.9,10+,29.79
KT20,29.5301,-97.463,150,5,5.75,KT20 080135Z AUTO 15005KT 10SM SCT002 32/22 A2977 RMK AO2 T03230220,2024-08-08T01:35:00Z,32.3,22,10+,29.77
KSZY,35.2064,-88.5012,330,3,3.45,KSZY 080135Z AUTO 33003KT 10SM CLR 23/20 A2980 RMK A01,2024-08-08T01:35:00Z,23,20,10+,29.80
KSZT,48.2945,-116.567,20,3,3.45,KSZT 080135Z AUTO 02003KT 10SM CLR 26/07 A3006 RMK AO2,2024-08-08T01:35:00Z,26,7,10+,30.06
KSYN,44.474,-93.014,0,0,0.0,KSYN 080135Z AUTO 00000KT 10SM OVC080 20/19 A2994 RMK AO2 T02020191,2024-08-08T01:35:00Z,20.2,19.1,10+,29.94
KSYM,38.2199,-83.5835,360,5,5.75,KSYM 080135Z AUTO 36005KT 10SM BKN039 OVC100 26/23 A2983 RMK AO2,2024-08-08T01:35:00Z,26,23,10+,29.83
KSYI,35.5594,-86.4406,340,8,9.21,KSYI 080135Z AUTO 34008KT 10SM OVC021 25/23 A2979 RMK A01,2024-08-08T01:35:00Z,25,23,10+,29.79
KSYF,39.7583,-101.793,40,14,16.11,KSYF 080135Z AUTO 04014KT 10SM CLR 29/16 A2998 RMK AO2 PRESRR,2024-08-08T01:35:00Z,29,16,10+,29.98
KSXK,42.9895,-96.1645,150,6,6.9,KSXK 080135Z AUTO 15006KT 10SM CLR 23/20 A2988 RMK AO2,2024-08-08T01:35:00Z,23,20,10+,29.88
KSWW,32.4688,-100.467,90,6,6.9,KSWW 080135Z AUTO 09006KT 10SM 37/06 A2988 RMK AO2 T03680060,2024-08-08T01:35:00Z,36.8,6,10+,29.88
KSVC,32.631,-108.147,320,7,8.06,KSVC 080135Z AUTO 32007KT 10SM CLR 24/12 A3012 RMK AO2 LTG DSNT S T02430121,2024-08-08T01:35:00Z,24.3,12.1,10+,30.12
KSUZ,34.5862,-92.4802,70,5,5.75,KSUZ 080135Z AUTO 07005KT 10SM CLR 27/23 A2983 RMK A01,2024-08-08T01:35:00Z,27,23,10+,29.83
KSUW,46.6833,-92.0926,210,3,3.45,KSUW 080135Z AUTO 21003KT 10SM RA BKN042 OVC050 16/15 A2994 RMK AO2 T01550147,2024-08-08T01:35:00Z,15.5,14.7,10+,29.94
KSTK,40.6133,-103.261,180,4,4.6,KSTK 080135Z AUTO 18004KT 10SM CLR 22/16 A3002 RMK AO2 LTG DSNT SE,2024-08-08T01:35:00Z,22,16,10+,30.02
KSTF,33.4326,-88.8506,VRB,4,4.6,KSTF 080135Z AUTO VRB04KT 10SM BKN031 BKN045 BKN050 27/23 A2976 RMK AO2,2024-08-08T01:35:00Z,27,23,10+,29.76
KSTE,44.5437,-89.5347,150,4,4.6,KSTE 080135Z AUTO 15004KT 10SM CLR 22/15 A2996 RMK AO2 T02170154,2024-08-08T01:35:00Z,21.7,15.4,10+,29.96
KSSI,31.1527,-81.3905,280,4,4.6,KSSI 080135Z AUTO 28004KT 10SM FEW049 FEW055 FEW100 26/25 A2960 RMK AO2 LTG DSNT S AND SW,2024-08-08T01:35:00Z,26,25,10+,29.60
KSRR,33.4667,-105.528,210,10,11.51,KSRR 080135Z AUTO 21010KT 10SM BKN110 27/08 A3022 RMK AO2,2024-08-08T01:35:00Z,27,8,10+,30.22
KSRE,35.271,-96.675,80,3,3.45,KSRE 080135Z AUTO 08003KT 10SM CLR 31/20 A2981 RMK AO2,2024-08-08T01:35:00Z,31,20,10+,29.81
KSPF,44.4811,-103.788,340,8,9.21,KSPF 080135Z AUTO 34008KT 10SM OVC029 18/13 A3021 RMK AO2,2024-08-08T01:35:00Z,18,13,10+,30.21
KSPA,34.9106,-81.9589,30,11,12.66,KSPA 080135Z AUTO 03011G15KT 10SM SCT100 26/21 A2974 RMK AO2,2024-08-08T01:35:00Z,26,21,10+,29.74
KSOW,34.2686,-110.002,200,14,16.11,KSOW 080135Z AUTO 20014KT 10SM CLR 22/11 A3026 RMK AO2 LTG DSNT E AND NW,2024-08-08T01:35:00Z,22,11,10+,30.26
KSOA,30.5853,-100.651,180,3,3.45,KSOA 080135Z AUTO 18003KT 10SM CLR 34/15 A2989 RMK AO2,2024-08-08T01:35:00Z,34,15,10+,29.89
KSNL,35.3611,-96.9445,100,6,6.9,KSNL 080135Z AUTO 10006KT 10SM CLR 34/17 A2982 RMK AO2 T03400170,2024-08-08T01:35:00Z,34,17,10+,29.82
KSNK,32.6917,-100.951,110,7,8.06,KSNK 080135Z AUTO 11007KT 10SM CLR 38/06 A2986 RMK AO2 T03750060,2024-08-08T01:35:00Z,37.5,6,10+,29.86
KSNH,35.1731,-88.2146,0,0,0.0,KSNH 080135Z AUTO 00000KT 10SM 22/22 A2978 RMK A01,2024-08-08T01:35:00Z,22,22,10+,29.78
KSNC,41.383,-72.506,0,0,0.0,KSNC 080135Z AUTO 00000KT 10SM -RA FEW100 18/18 A3008 RMK AO2,2024-08-08T01:35:00Z,18,18,10+,30.08
KSMS,34.0003,-80.3582,360,9,10.36,KSMS 080135Z AUTO 36009G15KT 5SM BR SCT010 OVC015 25/24 A2959 RMK AO2,2024-08-08T01:35:00Z,25,24,5,29.59
KSME,37.0529,-84.6141,60,5,5.75,KSME 080135Z AUTO 06005KT 10SM OVC110 27/25 A2978 RMK AO2,2024-08-08T01:35:00Z,27,25,10+,29.78
KSMD,41.144,-85.1492,80,3,3.45,KSMD 080135Z AUTO 08003KT 8SM OVC049 21/17 A2995 RMK A01,2024-08-08T01:35:00Z,21,17,8,29.95
KSLR,33.1615,-95.6189,180,5,5.75,KSLR 080135Z AUTO 18005KT 10SM CLR 33/21 A2980 RMK AO2 T03300205,2024-08-08T01:35:00Z,33,20.5,10+,29.80
KSLO,38.6446,-88.9612,0,0,0.0,KSLO 080135Z AUTO 00000KT 10SM OVC040 22/20 A2989 RMK AO2 T02230201,2024-08-08T01:35:00Z,22.3,20.1,10+,29.89
KSLH,45.6523,-84.5202,150,5,5.75,KSLH 080135Z AUTO 15005KT 10SM CLR 20/12 A2998 RMK AO2,2024-08-08T01:35:00Z,20,12,10+,29.98
KSLB,42.5972,-95.2399,180,4,4.6,KSLB 080135Z AUTO 18004KT CLR 22/19 A2994 RMK AO2,2024-08-08T01:35:00Z,22,19,,29.94
KSJX,45.6928,-85.5662,0,0,0.0,KSJX 080135Z AUTO 00000KT 10SM CLR 17/15 A3000 RMK AO2 T01730147,2024-08-08T01:35:00Z,17.3,14.7,10+,30.00
KSJS,37.7489,-82.6413,60,3,3.45,KSJS 080135Z AUTO 06003KT 10SM CLR 26/21 A2982 RMK AO2 T02570213,2024-08-08T01:35:00Z,25.7,21.3,10+,29.82
KSIK,36.9027,-89.5577,360,8,9.21,KSIK 080135Z AUTO 36008KT 10SM OVC050 24/19 A2985 RMK AO2 T02370191,2024-08-08T01:35:00Z,23.7,19.1,10+,29.85
KSHL,43.2082,-95.8354,160,5,5.75,KSHL 080135Z AUTO 16005KT 10SM FEW037 22/20 A2990 RMK AO2,2024-08-08T01:35:00Z,22,20,10+,29.90
KSHD,38.2601,-78.9013,,,,KSHD 080135Z AUTO 10SM SCT024 SCT055 BKN120 23/22 A2993 RMK AO2 T02300218,2024-08-08T01:35:00Z,23,21.8,10+,29.93
KSGS,44.8601,-93.0321,0,0,0.0,KSGS 080135Z AUTO 00000KT 10SM SCT039 BKN075 OVC080 22/15 A2994 RMK AO2 T02160145,2024-08-08T01:35:00Z,21.6,14.5,10+,29.94
KSFQ,36.6825,-76.6013,90,6,6.9,KSFQ 080135Z AUTO 09006KT 10SM -RA 25/24 A2985 RMK AO2 P0005 T02450243,2024-08-08T01:35:00Z,24.5,24.3,10+,29.85
KSEZ,34.8467,-111.788,150,10,11.51,KSEZ 080135Z AUTO 15010KT 10SM CLR 28/13 A3011 RMK AO2 LTG DSNT SW AND NW,2024-08-08T01:35:00Z,28,13,10+,30.11
KSEP,32.215,-98.1793,100,4,4.6,KSEP 080135Z AUTO 10004KT 10SM CLR 31/16 A2987 RMK AO2 T03090160,2024-08-08T01:35:00Z,30.9,16,10+,29.87
KSEF,27.4553,-81.3415,230,7,8.06,KSEF 080135Z AUTO 23007KT 10SM CLR 29/26 A2976 RMK AO2 T02890260,2024-08-08T01:35:00Z,28.9,26,10+,29.76
KSDA,40.7533,-95.4112,0,0,0.0,KSDA 080135Z AUTO 00000KT 10SM CLR 24/20 A2989 RMK AO2,2024-08-08T01:35:00Z,24,20,10+,29.89
KSCX,36.4553,-84.584,320,3,3.45,KSCX 080135Z AUTO 32003KT 10SM FEW050 25/24 A2981 RMK A01,2024-08-08T01:35:00Z,25,24,10+,29.81
KSCD,33.1732,-86.2933,0,0,0.0,KSCD 080135Z AUTO 00000KT 10SM SCT070 BKN090 OVC120 28/25 A2974 RMK AO2 T02810246,2024-08-08T01:35:00Z,28.1,24.6,10+,29.74
KSBX,48.541,-111.871,50,8,9.21,KSBX 080135Z AUTO 05008KT 10SM FEW085 17/10 A3033 RMK AO2,2024-08-08T01:35:00Z,17,10,10+,30.33
KSBS,40.5153,-106.868,260,9,10.36,KSBS 080135Z AUTO 26009KT 10SM CLR 20/10 A3027 RMK AO1 T01950097,2024-08-08T01:35:00Z,19.5,9.7,10+,30.27
KSBO,32.6111,-82.3702,340,4,4.6,KSBO 080135Z AUTO 34004KT 10SM SCT120 27/22 A2966 RMK AO2,2024-08-08T01:35:00Z,27,22,10+,29.66
KSAZ,46.3785,-94.8017,0,0,0.0,KSAZ 080135Z AUTO 00000KT 2 1/2SM +RA SCT005 BKN010 OVC015 18/17 A2994 RMK AO2 P0003,2024-08-08T01:35:00Z,18,17,2.5,29.94
KSAR,38.1463,-89.7025,20,3,3.45,KSAR 080135Z AUTO 02003KT 10SM OVC029 22/20 A2991 RMK AO2 T02200195,2024-08-08T01:35:00Z,22,19.5,10+,29.91
KSAA,41.447,-106.815,0,0,0.0,KSAA 080135Z AUTO 00000KT 10SM CLR 27/M01 A3018 RMK AO2,2024-08-08T01:35:00Z,27,-1,10+,30.18
KS52,48.4282,-120.15,160,9,10.36,KS52 080135Z AUTO 16009KT 10SM CLR 32/05 A2999 RMK AO2 T03170054,2024-08-08T01:35:00Z,31.7,5.4,10+,29.99
KS39,44.2858,-120.901,350,10,11.51,KS39 080135Z AUTO 35010KT 10SM CLR 31/M03 A3004 RMK AO2,2024-08-08T01:35:00Z,31,-3,10+,30.04
KS34,47.4718,-114.901,80,10,11.51,KS34 080135Z AUTO 08010G19KT 10SM FEW065 26/12 A3008 RMK AO2,2024-08-08T01:35:00Z,26,12,10+,30.08
KS33,44.6653,-121.157,350,8,9.21,KS33 080135Z AUTO 35008KT 10SM CLR 30/02 A3003 RMK AO2,2024-08-08T01:35:00Z,30,2,10+,30.03
KS32,47.424,-98.11,330,10,11.51,KS32 080135Z AUTO 33010KT 10SM 18/12 A3003 RMK AO2 TSNO,2024-08-08T01:35:00Z,18,12,10+,30.03
KS25,47.7954,-103.257,10,10,11.51,KS25 080135Z AUTO 01010KT 10SM CLR 18/05 A3017 RMK AO2,2024-08-08T01:35:00Z,18,5,10+,30.17
KS24,41.296,-83.037,60,7,8.06,KS24 080135Z AUTO 06007KT 10SM OVC043 22/19 A2992 RMK AO2,2024-08-08T01:35:00Z,22,19,10+,29.92
KS21,43.8801,-121.454,20,9,10.36,KS21 080135Z AUTO 02009G15KT 8SM CLR 26/02 A3014 RMK AO2,2024-08-08T01:35:00Z,26,2,8,30.14
KS12,44.6394,-123.058,360,7,8.06,KS12 080135Z 36007G13KT 10SM CLR 30/13 A2993 RMK AO2 CAUTION: LG BIRDS IN VICINITY OF AIRPORT,2024-08-08T01:35:00Z,30,13,10+,29.93
KRZT,39.4402,-83.0209,20,6,6.9,KRZT 080135Z AUTO 02006KT 10SM CLR 22/18 A2988 RMK AO2 PWINO,2024-08-08T01:35:00Z,22,18,10+,29.88
KRZR,35.207,-84.8005,0,0,0.0,KRZR 080135Z AUTO 00000KT 10SM SCT120 26/24 A2973 RMK A01,2024-08-08T01:35:00Z,26,24,10+,29.73
KRZL,40.9488,-87.1851,360,5,5.75,KRZL 080135Z AUTO 36005KT 10SM OVC049 21/17 A2994 RMK AO2,2024-08-08T01:35:00Z,21,17,10+,29.94
KRYW,30.498,-97.969,100,5,5.75,KRYW 080135Z AUTO 10005KT CLR 32/20 A2985 RMK AO2 T03230204 PWINO,2024-08-08T01:35:00Z,32.3,20.4,,29.85
KRWV,30.5161,-96.7051,120,4,4.6,KRWV 080135Z AUTO 12004KT 10SM CLR 31/22 A2980 RMK AO2 T03090220,2024-08-08T01:35:00Z,30.9,22,10+,29.80
KRVL,40.6768,-77.6251,0,0,0.0,KRVL 080135Z AUTO 00000G10KT 5SM BR SCT001 OVC009 20/19 A2999 RMK AO2,2024-08-08T01:35:00Z,20,19,5,29.99
KRVJ,32.059,-82.153,0,0,0.0,KRVJ 080135Z AUTO 00000KT 10SM SCT095 24/ A2963 RMK AO2 P0001 T0245////,2024-08-08T01:35:00Z,24.5,,10+,29.63
KRVF,45.534,-112.303,10,22,25.32,KRVF 080135Z AUTO 01022G28KT 10SM CLR 23/07 A3015 RMK AO2,2024-08-08T01:35:00Z,23,7,10+,30.15
KRTS,39.6658,-119.873,270,13,14.96,KRTS 080135Z AUTO 27013G21KT 10SM CLR 32/01 A3015 RMK AO2,2024-08-08T01:35:00Z,32,1,10+,30.15
KRSN,32.5159,-92.5899,0,0,0.0,KRSN 080135Z AUTO 00000KT 8SM 28/25 A2977 RMK AO2 T02840253 $,2024-08-08T01:35:00Z,28.4,25.3,8,29.77
KRRT,48.9318,-95.3405,290,6,6.9,KRRT 080135Z AUTO 29006KT 10SM SCT048 17/13 A2993 RMK AO2,2024-08-08T01:35:00Z,17,13,10+,29.93
KRQB,43.722,-85.498,0,0,0.0,KRQB 080135Z AUTO 00000KT 10SM CLR 18/13 A3000 RMK AO2 T01750134,2024-08-08T01:35:00Z,17.5,13.4,10+,30.00
KRPJ,41.8906,-89.0817,40,5,5.75,KRPJ 080135Z AUTO 04005KT 10SM CLR 19/12 A2996 RMK AO2 T01870118,2024-08-08T01:35:00Z,18.7,11.8,10+,29.96
KRPH,33.1096,-98.5537,120,5,5.75,KRPH 080135Z AUTO 12005KT 10SM CLR 34/15 A2979 RMK AO2 T03440153,2024-08-08T01:35:00Z,34.4,15.3,10+,29.79
KRPD,45.4186,-91.7764,200,5,5.75,KRPD 080135Z AUTO 20005KT 10SM -RA OVC100 19/15 A2997 RMK AO2 T01920150,2024-08-08T01:35:00Z,19.2,15,10+,29.97
KROX,48.856,-95.6949,310,11,12.66,KROX 080135Z AUTO 31011KT 10SM CLR 17/11 A2994 RMK AO2,2024-08-08T01:35:00Z,17,11,10+,29.94
KROS,45.6962,-92.9543,0,0,0.0,KROS 080135Z AUTO 00000KT 10SM RA SCT025 SCT049 OVC080 16/14 A2994 RMK AO2 P0003 T01600142,2024-08-08T01:35:00Z,16,14.2,10+,29.94
KRNV,33.762,-90.759,360,7,8.06,KRNV 080135Z AUTO 36007KT 10SM CLR 24/21 A2981 RMK AO2 T02370214 $,2024-08-08T01:35:00Z,23.7,21.4,10+,29.81
KRNP,42.9937,-84.1347,0,0,0.0,KRNP 080135Z AUTO 00000KT 10SM CLR 17/13 A2999 RMK AO2 T01700134,2024-08-08T01:35:00Z,17,13.4,10+,29.99
KRNC,35.6991,-85.8402,340,5,5.75,KRNC 080135Z AUTO 34005KT 8SM 25/23 A2979 RMK A01,2024-08-08T01:35:00Z,25,23,8,29.79
KRMY,42.2524,-84.9526,0,0,0.0,KRMY 080135Z AUTO 00000KT 5SM HZ CLR 18/13 A2997 RMK AO2 T01780134,2024-08-08T01:35:00Z,17.8,13.4,5,29.97
KRMN,38.3941,-77.4523,110,4,4.6,KRMN 080135Z AUTO 11004KT 10SM SCT017 26/22 A2989 RMK AO2 T02560221,2024-08-08T01:35:00Z,25.6,22.1,10+,29.89
KRLD,46.3086,-119.306,40,6,6.9,KRLD 080135Z AUTO 04006KT 10SM CLR 35/07 A2992 RMK AO2 T03490071,2024-08-08T01:35:00Z,34.9,7.1,10+,29.92
KRKR,35.0187,-94.6202,0,0,0.0,KRKR 080135Z AUTO 00000KT 10SM CLR 31/21 A2978 RMK AO2,2024-08-08T01:35:00Z,31,21,10+,29.78
KRGK,44.5927,-92.4844,0,0,0.0,KRGK 080135Z AUTO 00000KT 10SM BKN080 OVC095 21/19 A2993 RMK AO2,2024-08-08T01:35:00Z,21,19,10+,29.93
KRGA,37.6305,-84.329,0,0,0.0,KRGA 080135Z AUTO 00000KT 10SM BKN110 25/23 A2982 RMK AO2,2024-08-08T01:35:00Z,25,23,10+,29.82
KRFI,32.1441,-94.8539,0,0,0.0,KRFI 080135Z AUTO 00000KT 10SM CLR 30/24 A2980 RMK AO2 T03000239 PWINO,2024-08-08T01:35:00Z,30,23.9,10+,29.80
KREG,30.1756,-90.9397,0,0,0.0,KREG 080135Z AUTO 00000KT 10SM CLR 30/24 A2977 RMK AO2 T03020240,2024-08-08T01:35:00Z,30.2,24,10+,29.77
KRDK,41.0107,-95.2622,0,0,0.0,KRDK 080135Z AUTO 00000KT 10SM CLR 23/20 A2991 RMK AO2,2024-08-08T01:35:00Z,23,20,10+,29.91
KRCX,45.4935,-90.9985,190,3,3.45,KRCX 080135Z AUTO 19003KT 10SM OVC110 19/16 A2997 RMK AO2 T01900158,2024-08-08T01:35:00Z,19,15.8,10+,29.97
KRCV,37.7092,-106.355,320,12,13.81,KRCV 080135Z AUTO 32012KT 10SM -RA BKN065 BKN075 OVC090 16/13 A3040 RMK AO2 LTG DSNT W T01600128,2024-08-08T01:35:00Z,16,12.8,10+,30.40
KRCR,41.0651,-86.1864,0,0,0.0,KRCR 080135Z AUTO 00000KT 10SM OVC047 22/21 A2994 RMK AO2,2024-08-08T01:35:00Z,22,21,10+,29.94
KRCM,38.7855,-93.8058,40,3,3.45,KRCM 080135Z AUTO 04003KT 10SM CLR 23/17 A2990 RMK AO2,2024-08-08T01:35:00Z,23,17,10+,29.90
KRCE,35.4971,-97.8255,140,7,8.06,KRCE 080135Z AUTO 14007KT 10SM CLR 33/18 A2981 RMK AO2 TSNO,2024-08-08T01:35:00Z,33,18,10+,29.81
KRBW,32.921,-80.64,320,11,12.66,KRBW 080135Z AUTO 32011G18KT 10SM -RA BKN008 BKN019 OVC025 23/23 A2952 RMK AO2 LTG DSNT NE,2024-08-08T01:35:00Z,23,23,10+,29.52
KRBO,27.7781,-97.6878,150,12,13.81,KRBO 080135Z AUTO 15012KT 10SM CLR 30/26 A2978 RMK AO2 T03010258,2024-08-08T01:35:00Z,30.1,25.8,10+,29.78
KRAW,38.3484,-93.3436,80,4,4.6,KRAW 080135Z AUTO 08004KT 10SM CLR 23/17 A2992 RMK AO2,2024-08-08T01:35:00Z,23,17,10+,29.92
KRAS,27.8083,-97.0853,150,9,10.36,KRAS 080135Z AUTO 15009KT 10SM CLR 30/25 A2980 RMK AO2 T03010254,2024-08-08T01:35:00Z,30.1,25.4,10+,29.80
KPZZ,28.4344,-91.0344,280,13,14.96,KPZZ 080135Z AUTO 28013KT 10SM CLR 31/26 A2980 RMK A01,2024-08-08T01:35:00Z,31,26,10+,29.80
KPZQ,45.4085,-83.812,150,5,5.75,KPZQ 080135Z AUTO 15005KT 10SM CLR 19/11 A3001 RMK AO2 T01900112,2024-08-08T01:35:00Z,19,11.2,10+,30.01
KPYX,36.4103,-100.751,150,8,9.21,KPYX 080135Z AUTO 15008KT 10SM CLR A2984 RMK AO2,2024-08-08T01:35:00Z,,,10+,29.84
KPXE,32.5072,-83.7656,0,0,0.0,KPXE 080135Z AUTO 00000KT 10SM SCT060 SCT070 SCT100 27/26 A2968 RMK AO2 T02740261,2024-08-08T01:35:00Z,27.4,26.1,10+,29.68
KPWD,48.7912,-104.525,360,13,14.96,KPWD 080135Z AUTO 36013G18KT 10SM CLR 18/00 A3020 RMK AO2,2024-08-08T01:35:00Z,18,0,10+,30.20
KPWC,46.7266,-94.3849,300,4,4.6,KPWC 080135Z AUTO 30004KT 3SM BR 17/16 A2997 RMK AO2,2024-08-08T01:35:00Z,17,16,3,29.97
KPVW,34.169,-101.723,200,5,5.75,KPVW 080135Z AUTO 20005KT 10SM CLR 33/08 A2993 RMK AO2 T03270078,2024-08-08T01:35:00Z,32.7,7.8,10+,29.93
KPVJ,34.7041,-97.2211,0,0,0.0,KPVJ 080135Z AUTO 00000KT 10SM CLR 33/19 A2980 RMK AO2 T03330187,2024-08-08T01:35:00Z,33.3,18.7,10+,29.80
KPVE,35.6592,-88.1929,330,4,4.6,KPVE 080135Z AUTO 33004KT 10SM CLR 23/20 A2980 RMK A01,2024-08-08T01:35:00Z,23,20,10+,29.80
KPVB,42.6909,-90.4413,0,0,0.0,KPVB 080135Z AUTO 00000KT 10SM CLR 22/16 A2997 RMK AO1 T02160155,2024-08-08T01:35:00Z,21.6,15.5,10+,29.97
KPUJ,33.9085,-84.9369,340,7,8.06,KPUJ 080135Z AUTO 34007KT 10SM CLR 27/19 A2976 RMK AO2,2024-08-08T01:35:00Z,27,19,10+,29.76
KPTT,37.7069,-98.7453,110,5,5.75,KPTT 080135Z AUTO 11005KT 10SM CLR 33/18 A2984 RMK AO2 T03280180,2024-08-08T01:35:00Z,32.8,18,10+,29.84
KPTS,37.4512,-94.7322,90,5,5.75,KPTS 080135Z AUTO 09005KT 10SM CLR 27/18 A2986 RMK AO2 T02710175 PWINO,2024-08-08T01:35:00Z,27.1,17.5,10+,29.86
KPTD,44.6757,-74.9469,100,3,3.45,KPTD 080135Z AUTO 10003KT 10SM FEW043 SCT050 17/14 A3006 RMK AO2,2024-08-08T01:35:00Z,17,14,10+,30.06
KPTB,37.1803,-77.5081,90,6,6.9,KPTB 080135Z AUTO 09006KT 10SM OVC010 25/23 A2987 RMK AO2 T02460230,2024-08-08T01:35:00Z,24.6,23,10+,29.87
KPSO,37.291,-107.056,200,3,3.45,KPSO 080135Z AUTO 20003KT 10SM SCT100 SCT120 22/10 A3030 RMK AO2 LTG DSNT N T02210095,2024-08-08T01:35:00Z,22.1,9.5,10+,30.30
KPSN,31.7784,-95.7048,0,0,0.0,KPSN 080135Z AUTO 00000KT 9SM CLR 28/25 A2978 RMK AO2,2024-08-08T01:35:00Z,28,25,9,29.78
KPSK,37.1337,-80.6789,110,6,6.9,KPSK 080135Z AUTO 11006KT 10SM SCT080 23/20 A2990 RMK AO2 T02280204,2024-08-08T01:35:00Z,22.8,20.4,10+,29.90
KPRS,29.6346,-104.358,0,0,0.0,KPRS 080135Z AUTO 00000KT 10SM CLR 36/10 A2988 RMK AO2 T03620097,2024-08-08T01:35:00Z,36.2,9.7,10+,29.88
KPRG,39.6982,-87.6669,20,3,3.45,KPRG 080135Z AUTO 02003KT 10SM SCT050 21/19 A2990 RMK AO2 T02100186,2024-08-08T01:35:00Z,21,18.6,10+,29.90
KPPQ,39.6391,-90.7818,0,0,0.0,KPPQ 080135Z AUTO 00000KT 10SM SCT037 22/20 A2994 RMK AO2 T02180196,2024-08-08T01:35:00Z,21.8,19.6,10+,29.94
KPPO,41.5705,-86.7333,40,3,3.45,KPPO 080135Z AUTO 04003KT 10SM SCT046 21/17 A2994 RMK AO2,2024-08-08T01:35:00Z,21,17,10+,29.94
KPPA,35.6139,-100.997,150,11,12.66,KPPA 080135Z AUTO 15011KT 10SM CLR 35/12 A2991 RMK AO2 T03470117,2024-08-08T01:35:00Z,34.7,11.7,10+,29.91
KPOY,44.8641,-108.79,340,21,24.17,KPOY 080135Z AUTO 34021G28KT 10SM VCTS SCT090 16/07 A3024 RMK AO2 LTG DSNT E THRU SW,2024-08-08T01:35:00Z,16,7,10+,30.24
KPO1,48.134,-105.162,10,9,10.36,KPO1 080135Z AUTO 01009KT 10SM CLR 19/06 A3020 RMK AO2,2024-08-08T01:35:00Z,19,6,10+,30.20
KPNT,40.9233,-88.6213,50,3,3.45,KPNT 080135Z AUTO 05003KT 10SM CLR 19/19 A2993 RMK AO2 T01920187,2024-08-08T01:35:00Z,19.2,18.7,10+,29.93
KPNM,45.556,-93.608,0,0,0.0,KPNM 080135Z AUTO 00000KT 10SM OVC060 17/16 A2994 RMK AO2,2024-08-08T01:35:00Z,17,16,10+,29.94
KPNA,42.7929,-109.805,280,8,9.21,KPNA 080135Z AUTO 28008KT 10SM CLR 23/M03 A3026 RMK AO2,2024-08-08T01:35:00Z,23,-3,10+,30.26
KPMV,40.9446,-95.9124,130,3,3.45,KPMV 080135Z AUTO 13003KT 10SM CLR 24/19 A2991 RMK AO2 T02410185,2024-08-08T01:35:00Z,24.1,18.5,10+,29.91
KPLU,47.1005,-122.285,VRB,4,4.6,KPLU 080135Z AUTO VRB04KT 10SM CLR 26/14 A3005 RMK AO2,2024-08-08T01:35:00Z,26,14,10+,30.05
KPLR,33.5608,-86.2463,0,0,0.0,KPLR 080135Z AUTO 00000KT 10SM FEW046 BKN055 OVC070 27/27 A2973 RMK A01,2024-08-08T01:35:00Z,27,27,10+,29.73
KPLD,40.4532,-84.9848,50,5,5.75,KPLD 080135Z AUTO 05005KT 10SM OVC026 21/16 A2991 RMK AO2,2024-08-08T01:35:00Z,21,16,10+,29.91
KPJC,40.8009,-80.1624,60,4,4.6,KPJC 080135Z AUTO 06004KT 10SM BKN020 OVC032 22/18 A2993 RMK AO2,2024-08-08T01:35:00Z,22,18,10+,29.93
KPIM,32.8421,-84.8766,270,1,1.15,KPIM 080135Z AUTO 27001KT 10SM CLR 26/24 A2973 RMK AO2,2024-08-08T01:35:00Z,26,24,10+,29.73
KPHT,36.3322,-88.3871,340,4,4.6,KPHT 080135Z AUTO 34004KT 10SM FEW050 23/21 A2981 RMK A01,2024-08-08T01:35:00Z,23,21,10+,29.81
KPHN,42.9103,-82.5332,0,0,0.0,KPHN 080135Z AUTO 00000KT 10SM 18/16 A2998 RMK AO2,2024-08-08T01:35:00Z,18,16,10+,29.98
KPEZ,28.9561,-98.5184,170,12,13.81,KPEZ 080135Z AUTO 17012G17KT 10SM CLR 35/19 A2978 RMK AO2 T03500192,2024-08-08T01:35:00Z,35,19.2,10+,29.78
KPEX,45.3725,-94.7388,0,0,0.0,KPEX 080135Z AUTO 00000KT 10SM OVC024 18/17 A2993 RMK AO2,2024-08-08T01:35:00Z,18,17,10+,29.93
KPEQ,31.382,-103.512,150,6,6.9,KPEQ 080135Z AUTO 15006KT 10SM CLR 37/07 A2986 RMK AO2 T03650065,2024-08-08T01:35:00Z,36.5,6.5,10+,29.86
KPEA,41.3989,-92.9431,100,3,3.45,KPEA 080135Z AUTO 10003KT 10SM CLR 22/17 A2994 RMK AO2 T02200174,2024-08-08T01:35:00Z,22,17.4,10+,29.94
KPDC,43.0194,-91.1212,0,0,0.0,KPDC 080135Z AUTO 00000KT 10SM SCT003 SCT008 22/16 A2995 RMK AO2 T02170164,2024-08-08T01:35:00Z,21.7,16.4,10+,29.95
KPCZ,44.3342,-89.0203,0,0,0.0,KPCZ 080135Z AUTO 00000KT 10SM CLR 21/17 A2997 RMK AO2 T02100166,2024-08-08T01:35:00Z,21,16.6,10+,29.97
KPCW,41.5188,-82.8692,90,13,14.96,KPCW 080135Z AUTO 09013G19KT 10SM FEW029 OVC037 23/17 A2992 RMK AO2,2024-08-08T01:35:00Z,23,17,10+,29.92
KPCM,28.0013,-82.1593,230,5,5.75,KPCM 080135Z AUTO 23005KT 10SM CLR 30/26 A2976 RMK AO2,2024-08-08T01:35:00Z,30,26,10+,29.76
KPCD,37.8749,-89.8582,0,0,0.0,KPCD 080135Z AUTO 00000KT 10SM BKN027 OVC038 23/20 A2988 RMK AO2 T02300200,2024-08-08T01:35:00Z,23,20,10+,29.88
KPBX,37.5587,-82.5674,20,7,8.06,KPBX 080135Z AUTO 02007KT 10SM CLR 26/21 A2983 RMK AO2 LTG DSNT E T02620207,2024-08-08T01:35:00Z,26.2,20.7,10+,29.83
KPBH,45.7064,-90.4052,0,0,0.0,KPBH 080135Z AUTO 00000KT 10SM BKN120 17/16 A2996 RMK AO2 T01740163,2024-08-08T01:35:00Z,17.4,16.3,10+,29.96
KPAN,34.2551,-111.338,330,5,5.75,KPAN 080135Z AUTO 33005KT 10SM FEW055 FEW070 23/13 A3018 RMK AO2 PWINO TSNO,2024-08-08T01:35:00Z,23,13,10+,30.18
KP52,34.7263,-112.034,230,16,18.41,KP52 080135Z AUTO 23016G22KT 10SM CLR 33/14 A2998 RMK AO2 LTG DSNT SW-N,2024-08-08T01:35:00Z,33,14,10+,29.98
KP08,32.9359,-111.427,30,3,3.45,KP08 080135Z AUTO 03003KT 10SM CLR 34/18 A2989 RMK AO2,2024-08-08T01:35:00Z,34,18,10+,29.89
KOZW,42.6327,-83.9854,0,0,0.0,KOZW 080135Z AUTO 00000KT 10SM CLR 19/13 A2998 RMK AO2 T01850132,2024-08-08T01:35:00Z,18.5,13.2,10+,29.98
KOZS,37.9745,-92.6897,80,3,3.45,KOZS 080135Z AUTO 08003KT 10SM CLR 22/16 A2992 RMK AO2,2024-08-08T01:35:00Z,22,16,10+,29.92
KOZA,30.7312,-101.203,180,6,6.9,KOZA 080135Z AUTO 18006KT 10SM CLR 35/11 A2988 RMK AO2,2024-08-08T01:35:00Z,35,11,10+,29.88
KOYM,41.4118,-78.5131,90,6,6.9,KOYM 080135Z AUTO 09006KT 10SM OVC008 18/17 A3005 RMK AO2 PWINO,2024-08-08T01:35:00Z,18,17,10+,30.05
KOYE,28.8669,-90.4911,220,12,13.81,KOYE 080135Z AUTO 22012G19KT 10SM CLR 32/26 A2977 RMK A01,2024-08-08T01:35:00Z,32,26,10+,29.77
KOXV,41.2984,-93.1114,VRB,3,3.45,KOXV 080135Z AUTO VRB03KT 10SM CLR 23/17 A2993 RMK AO2,2024-08-08T01:35:00Z,23,17,10+,29.93
KOXI,41.3275,-86.665,0,0,0.0,KOXI 080135Z AUTO 00000KT 10SM SCT050 18/16 A2993 RMK AO1,2024-08-08T01:35:00Z,18,16,10+,29.93
KOWP,36.1721,-96.1536,70,3,3.45,KOWP 080135Z AUTO 07003KT 10SM CLR 32/15 A2984 RMK AO2 T03220152,2024-08-08T01:35:00Z,32.2,15.2,10+,29.84
KOWI,38.5409,-95.2542,90,4,4.6,KOWI 080135Z AUTO 09004KT 10SM CLR 25/20 A2987 RMK AO2 PWINO,2024-08-08T01:35:00Z,25,20,10+,29.87
KOVL,44.7792,-95.0304,0,0,0.0,KOVL 080135Z AUTO 00000KT 10SM OVC030 20/17 A2992 RMK AO2,2024-08-08T01:35:00Z,20,17,10+,29.92
KOSC,44.453,-83.396,0,0,0.0,KOSC 080135Z AUTO 00000KT 10SM CLR 17/12 A3001 RMK AO2 T01670116,2024-08-08T01:35:00Z,16.7,11.6,10+,30.01
KOSA,33.0936,-94.9601,220,5,5.75,KOSA 080135Z AUTO 22005KT 10SM CLR 31/24 A2977 RMK AO2 T03110242,2024-08-08T01:35:00Z,31.1,24.2,10+,29.77
KORS,48.7081,-122.909,0,0,0.0,KORS 080135Z AUTO 00000KT 10SM CLR 23/15 A3003 RMK AO2,2024-08-08T01:35:00Z,23,15,10+,30.03
KORK,34.833,-92.2557,40,8,9.21,KORK 080135Z AUTO 04008KT 10SM CLR 21/17 A2985 RMK AO2,2024-08-08T01:35:00Z,21,17,10+,29.85
KORG,30.068,-93.8043,230,3,3.45,KORG 080135Z AUTO 23003KT 10SM SCT060 30/24 A2980 RMK AO2 T02980240,2024-08-08T01:35:00Z,29.8,24,10+,29.80
KOQN,39.9889,-75.5803,80,8,9.21,KOQN 080135Z AUTO 08008KT 5SM BR OVC007 19/18 A3002 RMK AO2,2024-08-08T01:35:00Z,19,18,5,30.02
KOPN,32.954,-84.2595,330,4,4.6,KOPN 080135Z AUTO 33004KT 10SM CLR 27/18 A2972 RMK AO2,2024-08-08T01:35:00Z,27,18,10+,29.72
KOOA,41.2273,-92.4919,100,4,4.6,KOOA 080135Z AUTO 10004KT 4SM CLR 22/18 A2995 RMK AO2 T02150177,2024-08-08T01:35:00Z,21.5,17.7,4,29.95
KONZ,42.0991,-83.161,70,5,5.75,KONZ 080135Z AUTO 07005KT 10SM CLR 21/14 A2995 RMK AO2 T02120140,2024-08-08T01:35:00Z,21.2,14,10+,29.95
KONP,44.5825,-124.057,350,11,12.66,KONP 080135Z AUTO 35011G17KT 10SM OVC005 15/13 A3004 RMK AO2,2024-08-08T01:35:00Z,15,13,10+,30.04
KONM,34.0263,-106.904,150,6,6.9,KONM 080135Z AUTO 15006KT 10SM CLR 34/03 A3000 RMK AO2 T03390032,2024-08-08T01:35:00Z,33.9,3.2,10+,30.00
KONL,42.4691,-98.6903,20,13,14.96,KONL 080135Z AUTO 02013G18KT 10SM OVC075 25/19 A2997 RMK AO2 T02500190,2024-08-08T01:35:00Z,25,19,10+,29.97
KONA,44.076,-91.707,0,0,0.0,KONA 080135Z AUTO 00000KT 10SM BKN100 BKN120 21/16 A2994 RMK AO2,2024-08-08T01:35:00Z,21,16,10+,29.94
KOMH,38.2487,-78.0454,0,0,0.0,KOMH 080135Z AUTO 00000KT 10SM SCT065 SCT090 SCT100 24/24 A2990 RMK AO2,2024-08-08T01:35:00Z,24,24,10+,29.90
KOLZ,42.6831,-91.976,130,5,5.75,KOLZ 080135Z AUTO 13005KT 10SM CLR 20/19 A2995 RMK A01,2024-08-08T01:35:00Z,20,19,10+,29.95
KOLY,38.7213,-88.1799,0,0,0.0,KOLY 080135Z AUTO 00000KT 10SM BKN032 OVC055 22/21 A2988 RMK AO2 T02170207,2024-08-08T01:35:00Z,21.7,20.7,10+,29.88
KOLG,46.3153,-91.8183,0,0,0.0,KOLG 080135Z AUTO 00000KT 10SM SCT037 BKN050 OVC085 14/13 A2994 RMK AO1 P0007,2024-08-08T01:35:00Z,14,13,10+,29.94
KOLE,42.2429,-78.3721,90,4,4.6,KOLE 080135Z AUTO 09004KT 10SM SCT020 SCT028 OVC047 17/15 A3005 RMK AO2,2024-08-08T01:35:00Z,17,15,10+,30.05
KOKZ,32.9651,-82.8387,0,0,0.0,KOKZ 080135Z AUTO 00000KT 10SM CLR 28/23 A2967 RMK AO2 T02800228,2024-08-08T01:35:00Z,28,22.8,10+,29.67
KOKV,39.1406,-78.1391,0,0,0.0,KOKV 080135Z AUTO 00000KT 7SM BKN014 BKN023 OVC110 22/22 A2990 RMK AO2,2024-08-08T01:35:00Z,22,22,7,29.90
KOKM,35.6713,-95.9514,0,0,0.0,KOKM 080135Z AUTO 00000KT 10SM CLR 30/18 A2981 RMK AO2 T02990179,2024-08-08T01:35:00Z,29.9,17.9,10+,29.81
KOJA,35.5484,-98.6702,160,8,9.21,KOJA 080135Z AUTO 16008KT 10SM CLR 35/16 A2982 RMK AO2 T03550156,2024-08-08T01:35:00Z,35.5,15.6,10+,29.82
KOIN,39.8298,-100.538,60,7,8.06,KOIN 080135Z AUTO 06007KT 10SM CLR 29/16 A2998 RMK AO1 T02850162,2024-08-08T01:35:00Z,28.5,16.2,10+,29.98
KOIC,42.5642,-75.5269,0,0,0.0,KOIC 080135Z AUTO 00000KT 10SM SCT055 OVC070 18/16 A3009 RMK AO2 T01820162,2024-08-08T01:35:00Z,18.2,16.2,10+,30.09
KOGS,44.68,-75.4641,0,0,0.0,KOGS 080135Z AUTO 00000KT 10SM CLR 15/14 A3003 RMK AO2,2024-08-08T01:35:00Z,15,14,10+,30.03
KOGA,41.1164,-101.768,0,0,0.0,KOGA 080135Z AUTO 00000KT 4SM HZ CLR 26/20 A3000 RMK AO2 LTG DSNT ALQDS T02550196,2024-08-08T01:35:00Z,25.5,19.6,4,30.00
KOEO,45.3108,-92.6948,0,0,0.0,KOEO 080135Z AUTO 00000KT 10SM SCT033 BKN048 OVC055 19/17 A2997 RMK AO2 P0001 T01880171 PWINO,2024-08-08T01:35:00Z,18.8,17.1,10+,29.97
KOEB,41.9308,-85.0544,350,1,1.15,KOEB 080135Z AUTO 35001KT 1/2SM HZ VV005 17/15 A2996 RMK AO2 VIS 1/4V2,2024-08-08T01:35:00Z,17,15,0.5,29.96
KOCQ,44.8749,-87.9084,0,0,0.0,KOCQ 080135Z AUTO 00000KT 10SM CLR 20/12 A2996 RMK AO1 T01960118,2024-08-08T01:35:00Z,19.6,11.8,10+,29.96
KOBE,27.2663,-80.8487,220,9,10.36,KOBE 080135Z AUTO 22009KT 10SM CLR 28/24 A2974 RMK AO2,2024-08-08T01:35:00Z,28,24,10+,29.74
KOAR,36.6815,-121.757,280,7,8.06,KOAR 080135Z AUTO 28007KT 10SM BKN005 09/07 A2996 RMK AO2,2024-08-08T01:35:00Z,9,7,10+,29.96
KO86,40.9845,-122.693,160,6,6.9,KO86 080135Z AUTO 16006KT 10SM CLR 36/02 A2992 RMK A01,2024-08-08T01:35:00Z,36,2,10+,29.92
KO69,38.2601,-122.607,VRB,3,3.45,KO69 080135Z AUTO VRB03G12KT 10SM CLR 17/11 A2991 RMK A01,2024-08-08T01:35:00Z,17,11,10+,29.91
KO54,40.746,-122.922,0,0,0.0,KO54 080135Z AUTO 00000KT 10SM CLR 36/01 A2992 RMK A01,2024-08-08T01:35:00Z,36,1,10+,29.92
KO32,36.6691,-119.453,290,6,6.9,KO32 080135Z AUTO 29006KT 10SM CLR 39/16 A2977 RMK AO2 T03910162 $,2024-08-08T01:35:00Z,39.1,16.2,10+,29.77
KO22,38.03,-120.415,290,6,6.9,KO22 080135Z AUTO 29006KT 10SM CLR 37/M00 A2994 RMK A01,2024-08-08T01:35:00Z,37,0,10+,29.94
KO05,40.2865,-121.243,190,10,11.51,KO05 080135Z AUTO 19010KT 10SM CLR 30/M09 A3013 RMK A01,2024-08-08T01:35:00Z,30,-9,10+,30.13
KNY0,42.999,-74.3292,140,3,3.45,KNY0 080135Z AUTO 14003KT 10SM CLR 18/15 A3007 RMK AO2 T01750146,2024-08-08T01:35:00Z,17.5,14.6,10+,30.07
KNUQ,37.4059,-122.049,330,9,10.36,KNUQ 080135Z AUTO 33009KT 9SM CLR 21/15 A2990 RMK AO2,2024-08-08T01:35:00Z,21,15,9,29.90
KNRN,39.8497,-99.8915,70,9,10.36,KNRN 080135Z AUTO 07009KT 10SM CLR 26/16 A2994 RMK AO2,2024-08-08T01:35:00Z,26,16,10+,29.94
KNOW,48.1394,-123.403,290,13,14.96,KNOW 080135Z AUTO 29013KT 10SM CLR 13/12 A3006 RMK AO2 T01310117,2024-08-08T01:35:00Z,13.1,11.7,10+,30.06
KN79,40.8371,-76.546,90,5,5.75,KN79 080135Z AUTO 09005KT 10SM BKN012 19/18 A3001 RMK AO2 T01860181,2024-08-08T01:35:00Z,18.6,18.1,10+,30.01
KN38,41.7287,-77.3958,VRB,3,3.45,KN38 080135Z AUTO VRB03KT 10SM BKN008 BKN013 OVC029 18/18 A3004 RMK AO2,2024-08-08T01:35:00Z,18,18,10+,30.04
KN03,42.5929,-76.2174,70,5,5.75,KN03 080135Z AUTO 07005KT 10SM OVC060 19/15 A3005 RMK AO2,2024-08-08T01:35:00Z,19,15,10+,30.05
KMZZ,40.4863,-85.6859,50,4,4.6,KMZZ 080135Z AUTO 05004KT 7SM CLR 19/18 A2994 RMK AO2 T01920177,2024-08-08T01:35:00Z,19.2,17.7,7,29.94
KMZJ,32.5147,-111.335,0,0,0.0,KMZJ 080135Z AUTO 00000KT 10SM CLR 34/17 A2993 RMK AO2 LTG DSNT S AND SW,2024-08-08T01:35:00Z,34,17,10+,29.93
KMZH,46.4163,-92.8049,0,0,0.0,KMZH 080135Z AUTO 00000KT 10SM RA BKN043 BKN070 OVC095 15/13 A2994 RMK AO2,2024-08-08T01:35:00Z,15,13,10+,29.94
KMYZ,39.8544,-96.6279,110,3,3.45,KMYZ 080135Z AUTO 11003KT 10SM CLR 25/16 A2990 RMK AO2,2024-08-08T01:35:00Z,25,16,10+,29.90
KMYP,38.4972,-106.32,230,4,4.6,KMYP 080135Z AUTO 23004KT 10SM SCT085 SCT120 09/05 A3078 RMK AO2,2024-08-08T01:35:00Z,9,5,10+,30.78
KMYJ,39.1561,-91.8129,40,3,3.45,KMYJ 080135Z AUTO 04003KT 10SM CLR 20/18 A2992 RMK AO2,2024-08-08T01:35:00Z,20,18,10+,29.92
KMWO,39.5324,-84.3973,30,7,8.06,KMWO 080135Z AUTO 03007KT 10SM CLR 23/18 A2989 RMK AO2 T02280185,2024-08-08T01:35:00Z,22.8,18.5,10+,29.89
KMWM,43.91,-95.1073,0,0,0.0,KMWM 080135Z AUTO 00000KT 10SM SCT075 22/18 A2990 RMK AO2,2024-08-08T01:35:00Z,22,18,10+,29.90
KMWA,37.7544,-89.0118,350,5,5.75,KMWA 080135Z AUTO 35005KT 10SM SCT018 OVC029 22/20 A2988 RMK AO2 T02200195,2024-08-08T01:35:00Z,22,19.5,10+,29.88
KMVH,46.838,-108.936,340,4,4.6,KMVH 080135Z AUTO 34004KT 10SM BKN009 BKN013 OVC022 12/11 A3031 RMK AO2,2024-08-08T01:35:00Z,12,11,10+,30.31
KMVE,44.9675,-95.7116,310,5,5.75,KMVE 080135Z AUTO 31005KT 7SM SCT022 BKN028 OVC034 20/19 A2993 RMK AO2,2024-08-08T01:35:00Z,20,19,7,29.93
KMUT,41.367,-91.1406,0,0,0.0,KMUT 080135Z AUTO 00000KT 10SM CLR 20/20 A2995 RMK AO2,2024-08-08T01:35:00Z,20,20,10+,29.95
KMTV,36.6272,-80.0134,30,4,4.6,KMTV 080135Z AUTO 03004KT 10SM BKN014 BKN055 24/22 A2987 RMK AO2 T02380215,2024-08-08T01:35:00Z,23.8,21.5,10+,29.87
KMTK,28.6967,-89.3958,290,13,14.96,KMTK 080135Z AUTO 29013KT 10SM CLR A2977 RMK A01,2024-08-08T01:35:00Z,,,10+,29.77
KMRT,40.2237,-83.3475,40,5,5.75,KMRT 080135Z AUTO 04005KT 10SM BKN026 OVC031 22/19 A2991 RMK AO2 T02160186,2024-08-08T01:35:00Z,21.6,18.6,10+,29.91
KMRJ,42.8875,-90.2315,0,0,0.0,KMRJ 080135Z AUTO 00000KT 10SM CLR 21/13 A3000 RMK AO2 PWINO,2024-08-08T01:35:00Z,21,13,10+,30.00
KMRC,35.5579,-87.1778,VRB,4,4.6,KMRC 080135Z AUTO VRB04KT 10SM CLR 25/22 A2978 RMK A01,2024-08-08T01:35:00Z,25,22,10+,29.78
KMQW,32.0942,-82.882,0,0,0.0,KMQW 080135Z AUTO 00000KT 10SM SCT070 SCT085 28/24 A2966 RMK AO2 T02780244,2024-08-08T01:35:00Z,27.8,24.4,10+,29.66
KMQS,39.9773,-75.8605,60,9,10.36,KMQS 080135Z AUTO 06009KT 2SM -RA OVC003 19/19 A3002 RMK AO2,2024-08-08T01:35:00Z,19,19,2,30.02
KMQJ,39.8402,-85.894,40,7,8.06,KMQJ 080135Z AUTO 04007KT 10SM CLR 20/19 A2991 RMK AO2 T01980189 $,2024-08-08T01:35:00Z,19.8,18.9,10+,29.91
KMQB,40.5176,-90.6481,10,3,3.45,KMQB 080135Z AUTO 01003KT 10SM CLR 20/19 A2996 RMK AO2 T01990186,2024-08-08T01:35:00Z,19.9,18.6,10+,29.96
KMPZ,40.9453,-91.5122,0,0,0.0,KMPZ 080135Z AUTO 00000KT 10SM CLR 21/17 A2995 RMK AO2,2024-08-08T01:35:00Z,21,17,10+,29.95
KMPR,38.3491,-97.6883,120,8,9.21,KMPR 080135Z AUTO 12008KT 5SM HZ CLR 32/17 A2984 RMK AO2 T03210170,2024-08-08T01:35:00Z,32.1,17,5,29.84
KMOX,45.5677,-95.9659,340,14,16.11,KMOX 080135Z AUTO 34014KT 9SM BKN010 OVC019 19/19 A2992 RMK AO2,2024-08-08T01:35:00Z,19,19,9,29.92
KMOR,36.1746,-83.3853,0,0,0.0,KMOR 080135Z AUTO 00000KT 10SM BKN050 BKN070 BKN080 28/24 A2977 RMK A01,2024-08-08T01:35:00Z,28,24,10+,29.77
KMOP,43.6229,-84.743,70,3,3.45,KMOP 080135Z AUTO 07003KT 10SM CLR 18/14 A2999 RMK AO2 T01790141,2024-08-08T01:35:00Z,17.9,14.1,10+,29.99
KMNZ,31.6697,-98.1462,0,0,0.0,KMNZ 080135Z AUTO 00000KT 10SM CLR 33/13 A2984 RMK AO2 T03310131 TSNO,2024-08-08T01:35:00Z,33.1,13.1,10+,29.84
KMNV,35.5429,-84.3808,340,4,4.6,KMNV 080135Z AUTO 34004KT 9SM SCT050 28/23 A2975 RMK A01,2024-08-08T01:35:00Z,28,23,9,29.75
KMNI,33.5882,-80.2059,20,10,11.51,KMNI 080135Z AUTO 02010G17KT 10SM BKN011 OVC014 23/23 A2952 RMK AO2 P0001,2024-08-08T01:35:00Z,23,23,10+,29.52
KMNH,39.2232,-104.642,20,12,13.81,KMNH 080135Z AUTO 02012G19KT 10SM SCT100 SCT120 18/11 A3032 RMK AO2 LTG DSNT E,2024-08-08T01:35:00Z,18,11,10+,30.32
KMNE,32.6433,-93.2972,0,0,0.0,KMNE 080135Z AUTO 00000KT 10SM CLR 30/22 A2978 RMK AO2,2024-08-08T01:35:00Z,30,22,10+,29.78
KMMI,35.3952,-84.5612,340,6,6.9,KMMI 080135Z AUTO 34006G11KT 10SM BKN050 OVC065 28/23 A2976 RMK A01,2024-08-08T01:35:00Z,28,23,10+,29.76
KMMH,37.6253,-118.838,290,16,18.41,KMMH 080135Z AUTO 29016G21KT 10SM CLR 28/02 A3030 RMK AO2 T02810020,2024-08-08T01:35:00Z,28.1,2,10+,30.30
KMLJ,33.153,-83.242,0,0,0.0,KMLJ 080135Z AUTO 00000KT 10SM FEW065 29/25 A2967 RMK AO2,2024-08-08T01:35:00Z,29,25,10+,29.67
KMLE,41.1981,-96.1131,130,3,3.45,KMLE 080135Z AUTO 13003KT 10SM SCT120 25/17 A2991 RMK AO2 T02540171,2024-08-08T01:35:00Z,25.4,17.1,10+,29.91
KMKS,33.1874,-80.0363,10,11,12.66,KMKS 080135Z AUTO 01011G18KT 10SM OVC007 25/24 A2945 RMK AO2 LTG DSNT E P0003,2024-08-08T01:35:00Z,25,24,10+,29.45
KMKQ,27.5197,-90.0981,0,0,0.0,KMKQ 080135Z AUTO 00000KT 10SM CLR 30/25 A2981 RMK A01,2024-08-08T01:35:00Z,30,25,10+,29.81
KMKN,31.924,-98.5978,90,4,4.6,KMKN 080135Z AUTO 09004KT CLR 33/14 A2984 RMK AO2 T03320137 PWINO,2024-08-08T01:35:00Z,33.2,13.7,,29.84
KMKJ,36.8944,-81.3449,90,5,5.75,KMKJ 080135Z AUTO 09005KT 10SM SCT032 BKN042 OVC070 23/20 A2994 RMK AO2 T02250202,2024-08-08T01:35:00Z,22.5,20.2,10+,29.94
KMJQ,43.6496,-94.9885,170,3,3.45,KMJQ 080135Z AUTO 17003KT 10SM OVC040 22/18 A2992 RMK AO2,2024-08-08T01:35:00Z,22,18,10+,29.92
KMJD,30.494,-89.6535,0,0,0.0,KMJD 080135Z AUTO 00000KT 1/2SM BR VV005 28/26 A2974 RMK AO2,2024-08-08T01:35:00Z,28,26,0.5,29.74
KMIO,36.9128,-94.8893,50,5,5.75,KMIO 080135Z AUTO 05005KT 10SM CLR 29/18 A2984 RMK AO2 PWINO,2024-08-08T01:35:00Z,29,18,10+,29.84
KMHR,38.56,-121.284,220,10,11.51,KMHR 080135Z AUTO 22010KT 10SM CLR 36/04 A2980 RMK A01,2024-08-08T01:35:00Z,36,4,10+,29.80
KMHP,32.374,-82.079,310,8,9.21,KMHP 080135Z AUTO 31008KT 10SM CLR 26/24 A2962 RMK AO2 T02580238,2024-08-08T01:35:00Z,25.8,23.8,10+,29.62
KMHL,39.093,-93.2024,0,0,0.0,KMHL 080135Z AUTO 00000KT 10SM CLR 22/18 A2992 RMK AO2,2024-08-08T01:35:00Z,22,18,10+,29.92
KMGR,31.0835,-83.8035,290,3,3.45,KMGR 080135Z AUTO 29003KT 9SM CLR 29/24 A2968 RMK AO2 T02910243 $,2024-08-08T01:35:00Z,29.1,24.3,9,29.68
KMGN,45.4241,-84.913,0,0,0.0,KMGN 080135Z AUTO 00000KT 10SM CLR 20/12 A2998 RMK AO2 T02030130,2024-08-08T01:35:00Z,20.3,13,10+,29.98
KMGG,45.2354,-93.9896,100,4,4.6,KMGG 080135Z AUTO 10004KT 10SM BKN048 OVC065 18/16 A2994 RMK AO2 T01820163,2024-08-08T01:35:00Z,18.2,16.3,10+,29.94
KMFV,37.646,-75.763,120,8,9.21,KMFV 080135Z AUTO 12008KT 10SM SCT044 22/20 A2990 RMK AO2 T02220203,2024-08-08T01:35:00Z,22.2,20.3,10+,29.90
KMEZ,34.5414,-94.1918,0,0,0.0,KMEZ 080135Z AUTO 00000KT 10SM CLR 29/20 A2981 RMK AO2 T02910205,2024-08-08T01:35:00Z,29.1,20.5,10+,29.81
KMEV,38.9963,-119.75,280,13,14.96,KMEV 080135Z AUTO 28013KT 10SM CLR 32/03 A3011 RMK AO2,2024-08-08T01:35:00Z,32,3,10+,30.11
KMDZ,45.1013,-90.3064,0,0,0.0,KMDZ 080135Z AUTO 00000KT 10SM SCT075 BKN110 18/18 A2996 RMK AO2 T01800175 PWINO,2024-08-08T01:35:00Z,18,17.5,10+,29.96
KMDS,44.0141,-97.0817,350,9,10.36,KMDS 080135Z AUTO 35009KT 10SM FEW040 BKN120 20/20 A2996 RMK AO2 TSNO,2024-08-08T01:35:00Z,20,20,10+,29.96
KMDQ,34.866,-86.559,350,9,10.36,KMDQ 080135Z AUTO 35009KT 10SM SCT032 BKN039 28/23 A2977 RMK A02 T02750232,2024-08-08T01:35:00Z,27.5,23.2,10+,29.77
KMDD,32.0359,-102.1,180,3,3.45,KMDD 080135Z AUTO 18003KT 10SM CLR 37/08 A2988 RMK AO2 T03680083,2024-08-08T01:35:00Z,36.8,8.3,10+,29.88
KMCX,40.7127,-86.7649,70,4,4.6,KMCX 080135Z AUTO 07004KT 10SM OVC050 21/17 A2992 RMK AO2 T02120172,2024-08-08T01:35:00Z,21.2,17.2,10+,29.92
KMCJ,29.7139,-95.3967,150,13,14.96,KMCJ 080135Z AUTO 15013G20KT SCT070 31/24 A2977 RMK A01,2024-08-08T01:35:00Z,31,24,,29.77
KMCD,45.866,-84.634,110,4,4.6,KMCD 080135Z AUTO 11004KT 10SM CLR 21/11 A3000 RMK AO2 T02080112,2024-08-08T01:35:00Z,20.8,11.2,10+,30.00
KMCC,38.678,-121.403,190,9,10.36,KMCC 080135Z AUTO 19009KT 10SM CLR 36/07 A2980 RMK AO2 PWINO,2024-08-08T01:35:00Z,36,7,10+,29.80
KMBY,39.464,-92.4244,70,3,3.45,KMBY 080135Z AUTO 07003KT 10SM CLR 21/17 A2993 RMK AO2,2024-08-08T01:35:00Z,21,17,10+,29.93
KMBT,35.8767,-86.3793,340,6,6.9,KMBT 080135Z AUTO 34006KT 10SM OVC025 26/23 A2978 RMK A01,2024-08-08T01:35:00Z,26,23,10+,29.78
KMAW,36.5945,-89.9865,340,6,6.9,KMAW 080135Z AUTO 34006KT 10SM SCT046 23/20 A2987 RMK AO1,2024-08-08T01:35:00Z,23,20,10+,29.87
KMAO,34.1852,-79.3341,20,18,20.71,KMAO 080135Z AUTO 02018G28KT 3SM +RA 23/23 A2955 RMK AO2 LTG DSNT N THRU SE P0001,2024-08-08T01:35:00Z,23,23,3,29.55
KMAN,43.582,-116.521,350,4,4.6,KMAN 080135Z AUTO 35004KT 9SM CLR 31/05 A2996 RMK A01,2024-08-08T01:35:00Z,31,5,9,29.96
KM91,36.5363,-86.919,0,0,0.0,KM91 080135Z AUTO 00000KT 10SM OVC044 24/22 A2981 RMK A01,2024-08-08T01:35:00Z,24,22,10+,29.81
KM75,48.3686,-107.919,150,6,6.9,KM75 080135Z AUTO 15006KT 2 1/2SM BR BKN038 BKN047 OVC065 13/13 A3025 RMK A01,2024-08-08T01:35:00Z,13,13,2.5,30.25
KM40,33.8755,-88.4872,350,6,6.9,KM40 080135Z AUTO 35006G12KT 10SM CLR 26/23 A2979 RMK AO2,2024-08-08T01:35:00Z,26,23,10+,29.79
KM30,37.1824,-88.7487,350,4,4.6,KM30 080135Z AUTO 35004KT 10SM CLR 22/21 A2986 RMK AO2 T02160210,2024-08-08T01:35:00Z,21.6,21,10+,29.86
KM21,37.2291,-87.1542,350,6,6.9,KM21 080135Z AUTO 35006KT 10SM SCT029 SCT036 24/21 A2983 RMK AO2 T02360212,2024-08-08T01:35:00Z,23.6,21.2,10+,29.83
KM08,35.2155,-89.0449,0,0,0.0,KM08 080135Z AUTO 00000KT 10SM CLR 22/21 A2980 RMK A01,2024-08-08T01:35:00Z,22,21,10+,29.80
KM04,35.5819,-89.5858,350,6,6.9,KM04 080135Z AUTO 35006KT 10SM SCT049 22/21 A2982 RMK A01,2024-08-08T01:35:00Z,22,21,10+,29.82
KM02,36.1289,-87.4283,340,3,3.45,KM02 080135Z AUTO 34003KT 10SM BKN028 OVC039 23/21 A2982 RMK A01,2024-08-08T01:35:00Z,23,21,10+,29.82
KM01,35.2004,-90.0548,10,4,4.6,KM01 080135Z AUTO 01004KT 10SM CLR 23/21 A2981 RMK AO2 T02300208 $,2024-08-08T01:35:00Z,23,20.8,10+,29.81
KLYV,43.6217,-96.214,10,5,5.75,KLYV 080135Z AUTO 01005KT 10SM SCT030 BKN037 23/18 A2993 RMK AO2,2024-08-08T01:35:00Z,23,18,10+,29.93
KLYO,38.343,-98.2266,80,8,9.21,KLYO 080135Z AUTO 08008KT 10SM CLR 31/18 A2985 RMK AO2 T03120176,2024-08-08T01:35:00Z,31.2,17.6,10+,29.85
KLXY,31.6446,-96.5122,,,,KLXY 080135Z AUTO 10SM CLR 31/20 A2981 RMK AO2 T03120200 TSNO,2024-08-08T01:35:00Z,31.2,20,10+,29.81
KLXN,40.7915,-99.775,110,5,5.75,KLXN 080135Z AUTO 11005KT 10SM CLR 26/19 A2995 RMK AO2 T02620185,2024-08-08T01:35:00Z,26.2,18.5,10+,29.95
KLXL,45.9509,-94.3441,0,0,0.0,KLXL 080135Z AUTO 00000KT 10SM SCT029 BKN042 OVC070 17/16 A2992 RMK AO2,2024-08-08T01:35:00Z,17,16,10+,29.92
KLWB,37.8633,-80.3923,0,0,0.0,KLWB 080135Z AUTO 00000KT 10SM SCT028 SCT037 BKN046 25/20 A2992 RMK AO2 T02510202,2024-08-08T01:35:00Z,25.1,20.2,10+,29.92
KLWA,42.3476,-86.2578,0,0,0.0,KLWA 080135Z AUTO 00000KT 10SM CLR 18/17 A2995 RMK AO2 T01750170,2024-08-08T01:35:00Z,17.5,17,10+,29.95
KLVN,44.6252,-93.2273,0,0,0.0,KLVN 080135Z AUTO 00000KT 10SM RA OVC080 19/18 A2994 RMK AO2,2024-08-08T01:35:00Z,19,18,10+,29.94
KLVL,36.7723,-77.7925,0,0,0.0,KLVL 080135Z AUTO 00000KT 7SM BKN010 OVC015 25/24 A2985 RMK AO1 P0001 T02510243,2024-08-08T01:35:00Z,25.1,24.3,7,29.85
KLUX,34.508,-81.949,20,8,9.21,KLUX 080135Z AUTO 02008KT 10SM CLR 26/22 A2971 RMK AO2,2024-08-08T01:35:00Z,26,22,10+,29.71
KLUV,32.7481,-101.913,230,4,4.6,KLUV 080135Z AUTO 23004KT 10SM BKN100 BKN120 35/11 A2990 RMK AO2,2024-08-08T01:35:00Z,35,11,10+,29.90
KLUM,44.8936,-91.8665,0,0,0.0,KLUM 080135Z AUTO 00000KT 10SM BKN040 BKN047 OVC090 21/15 A2996 RMK AO2 T02080150 PWINO,2024-08-08T01:35:00Z,20.8,15,10+,29.96
KLUL,31.6682,-89.1705,310,3,3.45,KLUL 080135Z AUTO 31003KT 10SM CLR 30/23 A2975 RMK A02 T02980232,2024-08-08T01:35:00Z,29.8,23.2,10+,29.75
KLUG,35.5082,-86.8055,340,6,6.9,KLUG 080135Z AUTO 34006KT 10SM FEW030 BKN038 OVC046 25/22 A2980 RMK A01,2024-08-08T01:35:00Z,25,22,10+,29.80
KLUD,33.2568,-97.5826,0,0,0.0,KLUD 080135Z AUTO 00000KT 7SM CLR 35/16 A2982 RMK AO2 T03540156,2024-08-08T01:35:00Z,35.4,15.6,7,29.82
KLUA,38.667,-78.501,0,0,0.0,KLUA 080135Z AUTO 00000KT 10SM 26/22 A2989 RMK AO2,2024-08-08T01:35:00Z,26,22,10+,29.89
KLRY,38.6074,-94.3453,0,0,0.0,KLRY 080135Z AUTO 00000KT 10SM CLR 26/17 A2992 RMK AO2,2024-08-08T01:35:00Z,26,17,10+,29.92
KLRU,32.2884,-106.913,250,6,6.9,KLRU 080135Z AUTO 25006KT 10SM CLR 34/08 A3001 RMK AO2 LTG DSNT SW T03410083,2024-08-08T01:35:00Z,34.1,8.3,10+,30.01
KLRO,32.8982,-79.7796,0,0,0.0,KLRO 080135Z AUTO 00000KT 1 1/2SM -DZ 25/25 A2943 RMK AO2 LTG DSNT NE,2024-08-08T01:35:00Z,25,25,1.5,29.43
KLRJ,42.7771,-96.195,150,6,6.9,KLRJ 080135Z AUTO 15006KT 10SM CLR 24/23 A2988 RMK AO2,2024-08-08T01:35:00Z,24,23,10+,29.88
KLQK,34.8069,-82.7047,40,5,5.75,KLQK 080135Z AUTO 04005KT 10SM CLR 28/24 A2975 RMK AO2 T02760236,2024-08-08T01:35:00Z,27.6,23.6,10+,29.75
KLOM,40.1376,-75.2684,80,8,9.21,KLOM 080135Z AUTO 08008KT 7SM -DZ BR OVC006 19/19 A3003 RMK AO2 T01880187,2024-08-08T01:35:00Z,18.8,18.7,7,30.03
KLNP,36.9884,-82.524,0,0,0.0,KLNP 080135Z AUTO 00000KT 10SM SCT047 SCT060 BKN065 22/20 A2991 RMK AO2,2024-08-08T01:35:00Z,22,20,10+,29.91
KLNL,46.1515,-89.2108,340,3,3.45,KLNL 080135Z AUTO 34003KT 10SM -RA SCT048 BKN065 OVC110 17/17 A2999 RMK AO2 P0001 T01650165,2024-08-08T01:35:00Z,16.5,16.5,10+,29.99
KLNC,32.5832,-96.7209,0,0,0.0,KLNC 080135Z AUTO 00000KT 10SM CLR 30/21 A2980 RMK AO2 T03040207,2024-08-08T01:35:00Z,30.4,20.7,10+,29.80
KLNA,26.5925,-80.0848,170,3,3.45,KLNA 080135Z AUTO 17003KT 10SM OVC110 29/25 A2978 RMK AO2 T02850253,2024-08-08T01:35:00Z,28.5,25.3,10+,29.78
KLMS,33.15,-89.063,340,5,5.75,KLMS 080135Z AUTO 34005KT 10SM CLR 28/24 A2980 RMK AO2,2024-08-08T01:35:00Z,28,24,10+,29.80
KLMO,40.1612,-105.16,150,8,9.21,KLMO 080135Z AUTO 15008KT 7SM CLR 26/10 A3009 RMK AO2 T02600095,2024-08-08T01:35:00Z,26,9.5,7,30.09
KLLN,33.556,-102.375,140,6,6.9,KLLN 080135Z AUTO 14006KT 10SM CLR 33/09 A2995 RMK AO2,2024-08-08T01:35:00Z,33,9,10+,29.95
KLKU,38.0085,-77.9681,100,4,4.6,KLKU 080135Z AUTO 10004KT 10SM SCT085 BKN120 25/23 A2989 RMK AO2 T02490230,2024-08-08T01:35:00Z,24.9,23,10+,29.89
KLKR,34.7266,-80.8532,20,8,9.21,KLKR 080135Z AUTO 02008G15KT 10SM FEW025 SCT030 SCT041 26/22 A2968 RMK AO2,2024-08-08T01:35:00Z,26,22,10+,29.68
KLJF,45.0948,-94.5084,160,3,3.45,KLJF 080135Z AUTO 16003KT 10SM OVC032 19/14 A2992 RMK AO2,2024-08-08T01:35:00Z,19,14,10+,29.92
KLHM,38.9148,-121.352,190,6,6.9,KLHM 080135Z AUTO 19006KT 10SM CLR 38/M02 A2980 RMK AO1,2024-08-08T01:35:00Z,38,-2,10+,29.80
KLHB,30.8693,-96.6207,0,0,0.0,KLHB 080135Z AUTO 00000KT CLR 33/23 A2979 RMK AO2 T03250228 PWINO,2024-08-08T01:35:00Z,32.5,22.8,,29.79
KLGC,33.0093,-85.0717,0,0,0.0,KLGC 080135Z AUTO 00000KT 10SM CLR 26/23 A2972 RMK AO2 T02600230,2024-08-08T01:35:00Z,26,23,10+,29.72
KLDM,43.9614,-86.4107,40,3,3.45,KLDM 080135Z AUTO 04003KT 7SM CLR 18/13 A2997 RMK AO2 T01830130,2024-08-08T01:35:00Z,18.3,13,7,29.97
KLCQ,30.1838,-82.5684,260,4,4.6,KLCQ 080135Z AUTO 26004KT 10SM CLR 27/25 A2966 RMK AO2 LTG DSNT E,2024-08-08T01:35:00Z,27,25,10+,29.66
KLCG,42.2423,-96.983,150,3,3.45,KLCG 080135Z AUTO 15003KT 10SM BKN110 25/21 A2991 RMK AO2 T02460210,2024-08-08T01:35:00Z,24.6,21,10+,29.91
KLBO,37.6449,-92.6544,70,6,6.9,KLBO 080135Z AUTO 07006KT 10SM CLR 22/18 A2993 RMK AO2,2024-08-08T01:35:00Z,22,18,10+,29.93
KLAM,35.8789,-106.262,50,11,12.66,KLAM 080135Z AUTO 05011G19KT 330V080 10SM VCTS BKN090 25/09 A3024 RMK AO2 TSE0104B0112E0127 T02490085 $,2024-08-08T01:35:00Z,24.9,8.5,10+,30.24
KL35,34.2626,-116.855,260,6,6.9,KL35 080135Z AUTO 26006KT 10SM CLR 23/06 A3030 RMK AO2,2024-08-08T01:35:00Z,23,6,10+,30.30
KL18,33.3551,-117.249,250,5,5.75,KL18 080135Z AUTO 25005KT 10SM CLR 23/18 A2996 RMK AO2,2024-08-08T01:35:00Z,23,18,10+,29.96
KL08,33.2604,-116.323,110,8,9.21,KL08 080135Z AUTO 11008KT 10SM CLR 39/16 A2976 RMK AO2,2024-08-08T01:35:00Z,39,16,10+,29.76
KKY8,37.953,-86.8592,0,0,0.0,KKY8 080135Z AUTO 00000KT 10SM BKN033 BKN042 BKN047 24/22 A2983 RMK A01,2024-08-08T01:35:00Z,24,22,10+,29.83
KKNB,37.0078,-112.53,0,0,0.0,KKNB 080135Z AUTO 00000KT 10SM CLR 32/16 A3010 RMK A01,2024-08-08T01:35:00Z,32,16,10+,30.10
KK88,37.8692,-95.384,80,7,8.06,KK88 080135Z AUTO 08007KT 9SM CLR 26/19 A2986 RMK AO2,2024-08-08T01:35:00Z,26,19,9,29.86
KK83,39.9053,-95.7747,100,5,5.75,KK83 080135Z AUTO 10005KT 10SM CLR 24/17 A2993 RMK AO2 T02400167,2024-08-08T01:35:00Z,24,16.7,10+,29.93
KK82,39.7606,-98.7957,70,8,9.21,KK82 080135Z AUTO 07008KT 10SM CLR 27/18 A2989 RMK AO2 T02720179,2024-08-08T01:35:00Z,27.2,17.9,10+,29.89
KK70,25.322,-80.277,210,5,5.75,KK70 080135Z AUTO 21005G11KT 10SM BKN120 29/26 A2978 RMK AO2,2024-08-08T01:35:00Z,29,26,10+,29.78
KK62,38.7018,-84.3964,30,5,5.75,KK62 080135Z AUTO 03005KT 10SM CLR 23/20 A2985 RMK AO2,2024-08-08T01:35:00Z,23,20,10+,29.85
KJZP,34.4542,-84.4597,320,6,6.9,KJZP 080135Z AUTO 32006KT 10SM CLR 27/22 A2978 RMK AO2 T02690215,2024-08-08T01:35:00Z,26.9,21.5,10+,29.78
KJZI,32.7025,-80.0058,320,6,6.9,KJZI 080135Z AUTO 32006KT OVC009 25/25 A2944 RMK AO2,2024-08-08T01:35:00Z,25,25,,29.44
KJYR,40.8942,-97.6258,0,0,0.0,KJYR 080135Z AUTO 00000KT 10SM CLR 23/18 A2993 RMK AO2,2024-08-08T01:35:00Z,23,18,10+,29.93
KJYO,39.0826,-77.5605,60,4,4.6,KJYO 080135Z AUTO 06004KT 10SM -RA SCT007 BKN020 OVC029 24/24 A2991 RMK AO2 LTG DSNT NE AND E,2024-08-08T01:35:00Z,24,24,10+,29.91
KJYM,41.9197,-84.5853,80,2,2.3,KJYM 080135Z AUTO 08002KT 10SM CLR 17/14 A2997 RMK AO2,2024-08-08T01:35:00Z,17,14,10+,29.97
KJYL,32.6459,-81.5894,360,7,8.06,KJYL 080135Z AUTO 36007G14KT 27/25 A2961 RMK AO2 T02680252,2024-08-08T01:35:00Z,26.8,25.2,,29.61
KJYG,43.9855,-94.5527,150,5,5.75,KJYG 080135Z AUTO 15005KT 10SM BKN044 BKN055 OVC080 21/20 A2989 RMK AO2,2024-08-08T01:35:00Z,21,20,10+,29.89
KJXI,32.7036,-94.9471,0,0,0.0,KJXI 080135Z AUTO 00000KT 10SM CLR 32/21 A2978 RMK AO2 T03160205,2024-08-08T01:35:00Z,31.6,20.5,10+,29.78
KJWY,32.456,-96.914,170,3,3.45,KJWY 080135Z AUTO 17003KT 10SM CLR 32/19 A2982 RMK AO2 T03160193 TSNO $,2024-08-08T01:35:00Z,31.6,19.3,10+,29.82
KJWG,35.863,-98.423,140,8,9.21,KJWG 080135Z AUTO 14008KT 10SM CLR 35/16 A2983 RMK AO2 T03510161,2024-08-08T01:35:00Z,35.1,16.1,10+,29.83
KJVY,38.3692,-85.7366,10,7,8.06,KJVY 080135Z 01007G13KT 10SM OVC065 M40/ A2981 RMK AO2 TEMP/DEW PT/DENSITY ALT UNRELIABLE. RWY 18 PREFERRED CALM WIND,2024-08-08T01:35:00Z,-40,,10+,29.81
KJVW,32.3069,-90.412,0,0,0.0,KJVW 080135Z AUTO 00000KT 10SM SCT070 30/25 A2978 RMK AO2,2024-08-08T01:35:00Z,30,25,10+,29.78
KJTC,34.1292,-109.309,350,9,10.36,KJTC 080135Z AUTO 35009KT 4SM -TSRA SCT033 BKN046 OVC075 19/12 A3032 RMK AO2,2024-08-08T01:35:00Z,19,12,4,30.32
KJSY,45.3556,-117.254,20,6,6.9,KJSY 080135Z AUTO 02006KT 10SM CLR 28/01 A3012 RMK AO2 T02800006,2024-08-08T01:35:00Z,28,0.6,10+,30.12
KJSV,35.4381,-94.8012,50,4,4.6,KJSV 080135Z AUTO 05004KT 10SM CLR 33/17 A2977 RMK AO2,2024-08-08T01:35:00Z,33,17,10+,29.77
KJSO,31.869,-95.2145,210,3,3.45,KJSO 080135Z AUTO 21003KT 10SM CLR 30/22 A2983 RMK AO2 T02950216,2024-08-08T01:35:00Z,29.5,21.6,10+,29.83
KJRO,38.9861,-82.5756,340,9,10.36,KJRO 080135Z AUTO 34009KT 10SM CLR 25/21 A2983 RMK AO2,2024-08-08T01:35:00Z,25,21,10+,29.83
KJPX,40.9605,-72.2511,70,3,3.45,KJPX 080135Z AUTO 07003KT 10SM OVC021 18/15 A3006 RMK AO2 P0001 T01820153,2024-08-08T01:35:00Z,18.2,15.3,10+,30.06
KJOT,41.5176,-88.179,80,6,6.9,KJOT 080135Z AUTO 08006KT 10SM CLR 22/15 A2994 RMK AO2 T02150147,2024-08-08T01:35:00Z,21.5,14.7,10+,29.94
KJMR,45.8885,-93.269,200,3,3.45,KJMR 080135Z AUTO 20003KT 10SM SCT023 SCT070 OVC100 17/16 A2997 RMK AO2,2024-08-08T01:35:00Z,17,16,10+,29.97
KJKJ,46.8404,-96.6545,300,3,3.45,KJKJ 080135Z AUTO 30003KT 10SM SCT050 OVC055 17/16 A2998 RMK AO2,2024-08-08T01:35:00Z,17,16,10+,29.98
KJKA,30.291,-87.661,260,4,4.6,KJKA 080135Z AUTO 26004KT 10SM CLR 30/26 A2972 RMK AO2,2024-08-08T01:35:00Z,30,26,10+,29.72
KJHN,37.5782,-101.73,130,6,6.9,KJHN 080135Z AUTO 13006KT 10SM CLR 31/11 A2986 RMK AO2 T03120113,2024-08-08T01:35:00Z,31.2,11.3,10+,29.86
KJGG,37.24,-76.718,120,9,10.36,KJGG 080135Z AUTO 12009KT 10SM FEW011 BKN031 OVC240 25/23 A2986 RMK AO2 T02480234 $,2024-08-08T01:35:00Z,24.8,23.4,10+,29.86
KJFZ,37.0634,-81.7969,110,4,4.6,KJFZ 080135Z AUTO 11004KT 10SM SCT060 SCT080 26/20 A2991 RMK AO2 T02560198,2024-08-08T01:35:00Z,25.6,19.8,10+,29.91
KJFX,33.9008,-87.3092,320,4,4.6,KJFX 080135Z AUTO 32004KT 10SM CLR 28/24 A2976 RMK AO2,2024-08-08T01:35:00Z,28,24,10+,29.76
KJES,31.5521,-81.8896,280,3,3.45,KJES 080135Z AUTO 28003KT 10SM SCT075 BKN085 25/23 A2965 RMK AO2 LTG DSNT S,2024-08-08T01:35:00Z,25,23,10+,29.65
KJDD,32.7403,-95.4945,0,0,0.0,KJDD 080135Z AUTO 00000KT 10SM CLR 30/24 A2978 RMK AO2,2024-08-08T01:35:00Z,30,24,10+,29.78
KJCA,34.1739,-83.5583,60,6,6.9,KJCA 080135Z AUTO 06006KT 10SM BKN060 BKN080 OVC095 25/24 A2975 RMK AO2 T02540243,2024-08-08T01:35:00Z,25.4,24.3,10+,29.75
KJAS,30.8904,-94.0332,0,0,0.0,KJAS 080135Z AUTO 00000KT 8SM 27/23 RMK AO2,2024-08-08T01:35:00Z,27,23,8,
KJAQ,38.3742,-120.794,310,8,9.21,KJAQ 080135Z AUTO 31008KT 10SM CLR 35/06 A2994 RMK AO1 T03500055,2024-08-08T01:35:00Z,35,5.5,10+,29.94
KIZA,34.6059,-120.076,280,10,11.51,KIZA 080135Z AUTO 28010KT 10SM CLR 28/15 A2992 RMK AO2,2024-08-08T01:35:00Z,28,15,10+,29.92
KIYA,29.976,-92.0826,0,0,0.0,KIYA 080135Z AUTO 00000KT 7SM CLR 29/25 A2977 RMK AO2 RAB0109E0119 P0000 T02930255 $,2024-08-08T01:35:00Z,29.3,25.5,7,29.77
KIXA,36.331,-77.6333,40,5,5.75,KIXA 080135Z AUTO 04005KT 10SM RA OVC005 23/23 A2981 RMK AO2 P0002,2024-08-08T01:35:00Z,23,23,10+,29.81
KISQ,45.9729,-86.1728,0,0,0.0,KISQ 080135Z AUTO 00000KT 10SM CLR 17/15 A2998 RMK AO2 T01690148,2024-08-08T01:35:00Z,16.9,14.8,10+,29.98
KIOB,38.0574,-83.9829,30,4,4.6,KIOB 080135Z AUTO 03004KT 10SM BKN110 26/22 A2984 RMK AO2 PWINO,2024-08-08T01:35:00Z,26,22,10+,29.84
KINJ,32.0844,-97.0959,110,4,4.6,KINJ 080135Z AUTO 11004KT 10SM CLR 32/19 A2980 RMK AO2 T03160190,2024-08-08T01:35:00Z,31.6,19,10+,29.80
KINF,28.8062,-82.319,210,3,3.45,KINF 080135Z AUTO 21003KT 10SM CLR 28/26 A2970 RMK AO2 LTG DSNT NE,2024-08-08T01:35:00Z,28,26,10+,29.70
KIMS,38.7515,-85.4689,10,3,3.45,KIMS 080135Z AUTO 01003KT 10SM CLR 23/21 A2988 RMK AO2,2024-08-08T01:35:00Z,23,21,10+,29.88
KIMM,26.4321,-81.4073,220,3,3.45,KIMM 080135Z AUTO 22003KT 10SM FEW036 28/26 A2977 RMK AO2,2024-08-08T01:35:00Z,28,26,10+,29.77
KIKW,43.6643,-84.2613,40,4,4.6,KIKW 080135Z AUTO 04004KT 10SM CLR 18/14 A2999 RMK AO2,2024-08-08T01:35:00Z,18,14,10+,29.99
KIKV,41.6878,-93.5695,120,3,3.45,KIKV 080135Z AUTO 12003KT CLR 22/17 A2993 RMK AO2,2024-08-08T01:35:00Z,22,17,,29.93
KIKK,41.0687,-87.8537,40,7,8.06,KIKK 080135Z AUTO 04007KT 10SM CLR 19/16 A2994 RMK AO2 T01920158,2024-08-08T01:35:00Z,19.2,15.8,10+,29.94
KIKG,27.5464,-98.0292,110,8,9.21,KIKG 080135Z AUTO 11008KT 10SM CLR 31/24 A2978 RMK AO2 T03070240,2024-08-08T01:35:00Z,30.7,24,10+,29.78
KIJX,39.774,-90.2419,320,4,4.6,KIJX 080135Z AUTO 32004KT 10SM OVC048 20/20 A2993 RMK AO2 T02000197,2024-08-08T01:35:00Z,20,19.7,10+,29.93
KIIY,33.7797,-82.8135,0,0,0.0,KIIY 080135Z AUTO 00000KT 10SM CLR 27/23 A2971 RMK AO2 T02690227,2024-08-08T01:35:00Z,26.9,22.7,10+,29.71
KIIB,42.4544,-91.9504,130,4,4.6,KIIB 080135Z AUTO 13004KT 10SM CLR 19/17 A2997 RMK AO2 T01940170,2024-08-08T01:35:00Z,19.4,17,10+,29.97
KIGQ,41.5412,-87.5282,50,4,4.6,KIGQ 080135Z AUTO 05004KT 10SM CLR 21/17 A2994 RMK AO2 T02080170,2024-08-08T01:35:00Z,20.8,17,10+,29.94
KIFP,35.1487,-114.561,210,9,10.36,KIFP 080135Z AUTO 21009G14KT 10SM CLR 39/17 A2976 RMK AO2,2024-08-08T01:35:00Z,39,17,10+,29.76
KIFA,42.4691,-93.2651,140,4,4.6,KIFA 080135Z AUTO 14004KT 10SM CLR 21/18 A2995 RMK AO2 T02080175,2024-08-08T01:35:00Z,20.8,17.5,10+,29.95
KIER,31.736,-93.1003,0,0,0.0,KIER 080135Z AUTO 00000KT 10SM CLR 28/27 A2978 RMK AO2 T02780266,2024-08-08T01:35:00Z,27.8,26.6,10+,29.78
KIDP,37.1566,-95.7792,100,6,6.9,KIDP 080135Z AUTO 10006KT 10SM CLR 29/17 A2983 RMK AO2,2024-08-08T01:35:00Z,29,17,10+,29.83
KIDI,40.6337,-79.1036,110,7,8.06,KIDI 080135Z AUTO 11007KT 10SM OVC010 21/20 A2999 RMK A01,2024-08-08T01:35:00Z,21,20,10+,29.99
KICL,40.7242,-95.0222,0,0,0.0,KICL 080135Z AUTO 00000KT 10SM CLR 23/22 A2992 RMK AO2,2024-08-08T01:35:00Z,23,22,10+,29.92
KIBM,41.1894,-103.671,90,4,4.6,KIBM 080135Z AUTO 09004KT 10SM SCT050 SCT090 SCT120 22/14 A3010 RMK AO2 LTG DSNT SE T02240140,2024-08-08T01:35:00Z,22.4,14,10+,30.10
KI95,40.6142,-83.6374,40,7,8.06,KI95 080135Z AUTO 04007KT 10SM OVC031 21/20 A2990 RMK A01,2024-08-08T01:35:00Z,21,20,10+,29.90
KI75,41.0472,-93.6876,90,3,3.45,KI75 080135Z AUTO 09003KT 7SM CLR 23/17 A2994 RMK AO2 T02290167,2024-08-08T01:35:00Z,22.9,16.7,7,29.94
KI74,40.1314,-83.757,20,4,4.6,KI74 080135Z AUTO 02004KT 10SM CLR 20/17 A2991 RMK AO2,2024-08-08T01:35:00Z,20,17,10+,29.91
KI68,39.4664,-84.2532,40,5,5.75,KI68 080135Z AUTO 04005KT 10SM FEW025 23/23 A2987 RMK AO2,2024-08-08T01:35:00Z,23,23,10+,29.87
KI67,39.2565,-84.7753,20,6,6.9,KI67 080135Z AUTO 02006KT 10SM CLR 23/18 A2986 RMK AO1,2024-08-08T01:35:00Z,23,18,10+,29.86
KI63,39.9883,-90.8023,0,0,0.0,KI63 080135Z AUTO 00000KT 7SM OVC040 21/19 A2993 RMK AO2 T02100187,2024-08-08T01:35:00Z,21,18.7,7,29.93
KI40,40.3101,-81.8544,0,0,0.0,KI40 080135Z AUTO 00000KT 10SM OVC022 22/19 A2992 RMK AO2,2024-08-08T01:35:00Z,22,19,10+,29.92
KI35,36.8577,-83.3586,0,0,0.0,KI35 080135Z AUTO 00000KT 10SM CLR 28/23 A2982 RMK AO2 T02770228,2024-08-08T01:35:00Z,27.7,22.8,10+,29.82
KI23,39.5697,-83.4239,10,4,4.6,KI23 080135Z AUTO 01004KT 10SM SCT029 SCT036 21/20 A2988 RMK AO1,2024-08-08T01:35:00Z,21,20,10+,29.88
KI16,37.5998,-81.5589,,,,KI16 080135Z AUTO 4SM BR BKN002 OVC048 24/23 A2990 RMK AO2 T02360233,2024-08-08T01:35:00Z,23.6,23.3,4,29.90
KHZX,46.6189,-93.3128,0,0,0.0,KHZX 080135Z AUTO 00000KT 10SM SCT002 BKN040 OVC048 15/15 A2993 RMK AO2 P0004,2024-08-08T01:35:00Z,15,15,10+,29.93
KHZL,40.9845,-75.9901,90,4,4.6,KHZL 080135Z AUTO 09004KT OVC006 17/16 A3008 RMK AO2 P0001 PWINO,2024-08-08T01:35:00Z,17,16,,30.08
KHZE,47.288,-101.577,340,6,6.9,KHZE 080135Z AUTO 34006KT 10SM 17/08 A3014 RMK AO2,2024-08-08T01:35:00Z,17,8,10+,30.14
KHZD,36.089,-88.4654,0,0,0.0,KHZD 080135Z AUTO 00000KT 10SM CLR 23/21 A2981 RMK A01,2024-08-08T01:35:00Z,23,21,10+,29.81
KHYX,43.4319,-83.8648,40,3,3.45,KHYX 080135Z AUTO 04003KT 10SM CLR 18/14 A2998 RMK AO2,2024-08-08T01:35:00Z,18,14,10+,29.98
KHYW,33.8256,-79.1259,50,7,8.06,KHYW 080135Z AUTO 05007G14KT 7SM -RA SCT007 SCT012 25/25 A2950 RMK AO2 LTG DSNT NE THRU SE P0001,2024-08-08T01:35:00Z,25,25,7,29.50
KHXD,32.2263,-80.6949,340,10,11.51,KHXD 080135Z AUTO 34010G21KT 290V060 10SM -DZ FEW009 BKN015 BKN023 25/24 A2953 RMK AO2,2024-08-08T01:35:00Z,25,24,10+,29.53
KHWY,38.5876,-77.715,0,0,0.0,KHWY 080135Z AUTO 00000KT 10SM SCT015 SCT050 26/24 A2989 RMK AO2 T02570236,2024-08-08T01:35:00Z,25.7,23.6,10+,29.89
KHVS,34.4065,-80.1198,30,13,14.96,KHVS 080135Z AUTO 03013G20KT 4SM +RA BKN021 OVC026 24/23 A2961 RMK AO2 LTG DSNT E,2024-08-08T01:35:00Z,24,23,4,29.61
KHVE,38.418,-110.704,260,5,5.75,KHVE 080135Z AUTO 26005KT 10SM CLR 36/03 A2996 RMK AO2,2024-08-08T01:35:00Z,36,3,10+,29.96
KHVC,36.8603,-87.4478,330,5,5.75,KHVC 080135Z AUTO 33005KT 10SM FEW023 FEW031 OVC045 24/23 A2983 RMK AO2,2024-08-08T01:35:00Z,24,23,10+,29.83
KHUM,29.5634,-90.6629,0,0,0.0,KHUM 080135Z AUTO 00000KT 7SM CLR 29/26 A2978 RMK AO2 T02940257 PWINO,2024-08-08T01:35:00Z,29.4,25.7,7,29.78
KHTH,38.5448,-118.631,310,6,6.9,KHTH 080135Z AUTO 31006KT 10SM CLR 35/M01 A3001 RMK A01,2024-08-08T01:35:00Z,35,-1,10+,30.01
KHSP,37.9531,-79.8285,90,9,10.36,KHSP 080135Z AUTO 09009G15KT 1/4SM FG 21/21 A3001 RMK AO2 T02130211,2024-08-08T01:35:00Z,21.3,21.1,0.25,30.01
KHSG,43.7178,-108.385,340,16,18.41,KHSG 080135Z AUTO 34016G23KT 10SM OVC060 19/10 A3021 RMK AO2 LTG DSNT NE AND NW T01920102,2024-08-08T01:35:00Z,19.2,10.2,10+,30.21
KHSB,37.8128,-88.5449,350,5,5.75,KHSB 080135Z AUTO 35005KT 10SM BKN014 OVC032 22/21 A2987 RMK AO2 T02200206,2024-08-08T01:35:00Z,22,20.6,10+,29.87
KHRX,34.8628,-102.32,180,8,9.21,KHRX 080135Z AUTO 18008KT 10SM CLR 34/02 A2995 RMK AO2 T03390021 TSNO,2024-08-08T01:35:00Z,33.9,2.1,10+,29.95
KHRF,46.2575,-114.127,360,14,16.11,KHRF 080135Z AUTO 36014G20KT 10SM CLR 23/12 A3010 RMK AO2,2024-08-08T01:35:00Z,23,12,10+,30.10
KHQU,33.5279,-82.518,10,4,4.6,KHQU 080135Z AUTO 01004KT 10SM CLR A2968 RMK AO2,2024-08-08T01:35:00Z,,,10+,29.68
KHQG,37.1647,-101.371,160,7,8.06,KHQG 080135Z AUTO 16007KT 10SM CLR 30/13 A2984 RMK AO2,2024-08-08T01:35:00Z,30,13,10+,29.84
KHPT,42.7175,-93.2244,0,0,0.0,KHPT 080135Z AUTO 00000KT 10SM CLR 19/17 A2994 RMK AO2,2024-08-08T01:35:00Z,19,17,10+,29.94
KHOE,31.0561,-82.7726,250,3,3.45,KHOE 080135Z AUTO 25003KT 10SM SCT065 SCT080 BKN085 27/23 A2966 RMK AO2 T02790239,2024-08-08T01:35:00Z,27.9,23.9,10+,29.66
KHOB,32.6797,-103.222,190,5,5.75,KHOB 080135Z AUTO 19005KT 10SM CLR 34/02 A2995 RMK AO2,2024-08-08T01:35:00Z,34,2,10+,29.95
KHNR,41.5841,-95.3358,0,0,0.0,KHNR 080135Z AUTO 00000KT 10SM CLR 22/19 A2992 RMK A01,2024-08-08T01:35:00Z,22,19,10+,29.92
KHMZ,40.0863,-78.5167,100,4,4.6,KHMZ 080135Z AUTO 10004KT 10SM OVC014 22/20 A2995 RMK AO2 T02190196,2024-08-08T01:35:00Z,21.9,19.6,10+,29.95
KHMT,33.7303,-117.027,220,12,13.81,KHMT 080135Z AUTO 22012KT 10SM CLR 28/15 A2996 RMK AO2,2024-08-08T01:35:00Z,28,15,10+,29.96
KHMP,33.3916,-84.3312,300,3,3.45,KHMP 080135Z AUTO 30003KT 10SM CLR 26/22 A2975 RMK AO2 T02550224,2024-08-08T01:35:00Z,25.5,22.4,10+,29.75
KHLX,36.7637,-80.8211,70,6,6.9,KHLX 080135Z AUTO 07006KT 10SM BKN070 22/18 A2992 RMK AO2,2024-08-08T01:35:00Z,22,18,10+,29.92
KHLB,39.3463,-85.2602,40,4,4.6,KHLB 080135Z AUTO 04004KT 10SM FEW025 21/21 A2989 RMK A01,2024-08-08T01:35:00Z,21,21,10+,29.89
KHJH,40.1493,-97.5872,70,5,5.75,KHJH 080135Z AUTO 07005KT 10SM CLR 26/17 A2991 RMK AO2 T02600170,2024-08-08T01:35:00Z,26,17,10+,29.91
KHII,34.5659,-114.352,VRB,5,5.75,KHII 080135Z AUTO VRB05KT 10SM CLR 39/19 A2977 RMK AO2,2024-08-08T01:35:00Z,39,19,10+,29.77
KHHW,34.0308,-95.5401,270,3,3.45,KHHW 080135Z AUTO 27003KT 10SM CLR 33/18 A2977 RMK AO2,2024-08-08T01:35:00Z,33,18,10+,29.77
KHHG,40.8543,-85.4543,40,3,3.45,KHHG 080135Z AUTO 04003KT 10SM OVC047 21/18 A2994 RMK AO2 T02100182,2024-08-08T01:35:00Z,21,18.2,10+,29.94
KHHF,35.8929,-100.405,170,11,12.66,KHHF 080135Z AUTO 17011KT 10SM CLR 37/11 A2982 RMK AO2 T03710110,2024-08-08T01:35:00Z,37.1,11,10+,29.82
KHFJ,36.9105,-94.0099,60,4,4.6,KHFJ 080135Z AUTO 06004KT 10SM CLR 25/17 A2989 RMK AO2,2024-08-08T01:35:00Z,25,17,10+,29.89
KHEQ,40.5715,-102.277,0,0,0.0,KHEQ 080135Z AUTO 00000KT 10SM CLR 26/18 A3004 RMK AO2 LTG DSNT S,2024-08-08T01:35:00Z,26,18,10+,30.04
KHEG,30.2771,-81.8087,240,7,8.06,KHEG 080135Z AUTO 24007KT 10SM SCT075 SCT120 29/24 A2965 RMK AO2 TSNO,2024-08-08T01:35:00Z,29,24,10+,29.65
KHDE,40.4496,-99.3363,60,6,6.9,KHDE 080135Z AUTO 06006KT 10SM CLR 24/20 A2994 RMK AO2 T02400197,2024-08-08T01:35:00Z,24,19.7,10+,29.94
KHDC,30.5237,-90.4176,310,3,3.45,KHDC 080135Z AUTO 31003KT 10SM CLR 30/24 A2977 RMK AO2 T02950238,2024-08-08T01:35:00Z,29.5,23.8,10+,29.77
KHCR,40.4774,-111.433,20,9,10.36,KHCR 080135Z AUTO 02009KT 10SM CLR 31/01 A3009 RMK AO2 T03090014,2024-08-08T01:35:00Z,30.9,1.4,10+,30.09
KHCO,48.7524,-96.9376,330,9,10.36,KHCO 080135Z AUTO 33009KT 10SM CLR 17/11 A2998 RMK AO2,2024-08-08T01:35:00Z,17,11,10+,29.98
KHCD,44.8597,-94.3855,0,0,0.0,KHCD 080135Z AUTO 00000KT 10SM OVC029 20/15 A2994 RMK AO2 T01960150 TSNO,2024-08-08T01:35:00Z,19.6,15,10+,29.94
KHAI,41.9591,-85.5933,0,0,0.0,KHAI 080135Z AUTO 00000KT 10SM +RA CLR 19/15 A2997 RMK AO2 T01930150,2024-08-08T01:35:00Z,19.3,15,10+,29.97
KHAF,37.5136,-122.5,250,5,5.75,KHAF 080135Z AUTO 25005KT 3SM BR BKN005 BKN008 14/14 A2997 RMK AO2,2024-08-08T01:35:00Z,14,14,3,29.97
KHAE,39.7262,-91.4425,0,0,0.0,KHAE 080135Z AUTO 00000KT 10SM CLR 21/17 A2993 RMK AO2,2024-08-08T01:35:00Z,21,17,10+,29.93
KGZS,35.1533,-87.0543,VRB,6,6.9,KGZS 080135Z AUTO VRB06G14KT 10SM FEW029 OVC039 26/25 A2978 RMK A01,2024-08-08T01:35:00Z,26,25,10+,29.78
KGZL,35.2913,-95.0956,0,0,0.0,KGZL 080135Z AUTO 00000KT 10SM CLR 32/18 A2988 RMK AO2,2024-08-08T01:35:00Z,32,18,10+,29.88
KGYL,44.7588,-94.0905,0,0,0.0,KGYL 080135Z AUTO 00000KT 10SM SCT033 BKN039 OVC044 20/17 A2992 RMK AO2 T01960168,2024-08-08T01:35:00Z,19.6,16.8,10+,29.92
KGYI,33.7231,-96.6714,0,0,0.0,KGYI 080135Z AUTO 00000KT 7SM CLR 33/20 A2981 RMK AO2 T03270204 TSNO,2024-08-08T01:35:00Z,32.7,20.4,7,29.81
KGYF,26.1292,-94.8981,260,4,4.6,KGYF 080135Z AUTO 26004KT 10SM CLR 33/24 A2982 RMK AO2 T03300244,2024-08-08T01:35:00Z,33,24.4,10+,29.82
KGWR,46.2185,-97.6396,320,5,5.75,KGWR 080135Z AUTO 32005KT 9SM OVC048 17/17 A3002 RMK A01,2024-08-08T01:35:00Z,17,17,9,30.02
KGWB,41.3061,-85.0585,0,0,0.0,KGWB 080135Z AUTO 00000KT 10SM BKN050 20/16 A2996 RMK AO2,2024-08-08T01:35:00Z,20,16,10+,29.96
KGVW,29.1303,-94.5466,VRB,3,3.45,KGVW 080135Z AUTO VRB03KT 10SM BKN060 30/25 A2981 RMK A01,2024-08-08T01:35:00Z,30,25,10+,29.81
KGVE,38.1569,-78.1656,0,0,0.0,KGVE 080135Z AUTO 00000KT 10SM SCT029 SCT036 BKN055 25/23 A2988 RMK AO1 T02500234,2024-08-08T01:35:00Z,25,23.4,10+,29.88
KGRN,42.8039,-102.181,30,14,16.11,KGRN 080135Z AUTO 03014G20KT 10SM SCT055 23/13 A3010 RMK AO2 LTG DSNT SW T02300128,2024-08-08T01:35:00Z,23,12.8,10+,30.10
KGPC,39.635,-86.816,10,7,8.06,KGPC 080135Z AUTO 01007KT 10SM CLR 21/19 A2990 RMK AO2 T02140189,2024-08-08T01:35:00Z,21.4,18.9,10+,29.90
KGOP,31.4208,-97.7951,90,4,4.6,KGOP 080135Z AUTO 09004KT 10SM CLR 34/15 A2981 RMK AO2,2024-08-08T01:35:00Z,34,15,10+,29.81
KGOO,39.224,-121.003,0,0,0.0,KGOO 080135Z AUTO 00000KT 10SM CLR 33/M02 A3004 RMK A01,2024-08-08T01:35:00Z,33,-2,10+,30.04
KGNT,35.1653,-107.902,340,14,16.11,KGNT 080135Z AUTO 34014G24KT 10SM VCTS SCT110 26/09 A3020 RMK AO2 LTG DSNT ALQDS T02600091,2024-08-08T01:35:00Z,26,9.1,10+,30.20
KGNG,42.9155,-114.765,260,9,10.36,KGNG 080135Z AUTO 26009KT 10SM CLR 28/M02 A3003 RMK AO2,2024-08-08T01:35:00Z,28,-2,10+,30.03
KGNC,32.678,-102.65,140,4,4.6,KGNC 080135Z AUTO 14004KT 10SM CLR 36/07 A2996 RMK AO2 T03550065,2024-08-08T01:35:00Z,35.5,6.5,10+,29.96
KGNB,40.0904,-105.911,210,11,12.66,KGNB 080135Z AUTO 21011G15KT 10SM SCT065 SCT100 SCT120 15/M11 A3041 RMK AO2 T01471108,2024-08-08T01:35:00Z,14.7,-10.8,10+,30.41
KGMJ,36.607,-94.7369,60,3,3.45,KGMJ 080135Z AUTO 06003KT 10SM CLR 28/18 A2983 RMK AO2 TSNO,2024-08-08T01:35:00Z,28,18,10+,29.83
KGLY,38.3572,-93.6774,0,0,0.0,KGLY 080135Z AUTO 00000KT 9SM CLR 24/18 A2989 RMK AO2,2024-08-08T01:35:00Z,24,18,9,29.89
KGLX,28.2347,-88.9843,260,8,9.21,KGLX 080135Z AUTO 26008G14KT 10SM CLR A2979 RMK A01,2024-08-08T01:35:00Z,,,10+,29.79
KGLW,37.0337,-85.9523,310,3,3.45,KGLW 080135Z AUTO 31003KT 10SM OVC033 26/23 A2981 RMK AO2 T02570232,2024-08-08T01:35:00Z,25.7,23.2,10+,29.81
KGKT,35.8568,-83.5333,0,0,0.0,KGKT 080135Z AUTO 00000KT 10SM CLR 27/23 A2975 RMK A01,2024-08-08T01:35:00Z,27,23,10+,29.75
KGHG,42.0961,-70.6769,0,0,0.0,KGHG 080135Z AUTO 00000KT 10SM BKN120 17/15 A3008 RMK AO2,2024-08-08T01:35:00Z,17,15,10+,30.08
KGGP,40.7127,-86.3673,50,3,3.45,KGGP 080135Z AUTO 05003KT 10SM OVC050 22/17 A2994 RMK AO2,2024-08-08T01:35:00Z,22,17,10+,29.94
KGGI,41.7097,-92.7332,0,0,0.0,KGGI 080135Z AUTO 00000KT 10SM CLR 23/18 A2996 RMK AO2 T02290175,2024-08-08T01:35:00Z,22.9,17.5,10+,29.96
KGGF,40.871,-101.734,330,3,3.45,KGGF 080135Z AUTO 33003KT 10SM CLR 27/21 A3000 RMK AO2 LTG DSNT S AND NW,2024-08-08T01:35:00Z,27,21,10+,30.00
KGGE,33.3138,-79.3187,70,6,6.9,KGGE 080135Z AUTO 07006KT 7SM BKN008 BKN015 OVC028 26/25 A2945 RMK AO2 LTG DSNT W,2024-08-08T01:35:00Z,26,25,7,29.45
KGDK,39.6935,-83.9896,VRB,3,3.45,KGDK 080135Z AUTO VRB03KT 10SM CLR 22/21 A2987 RMK AO2,2024-08-08T01:35:00Z,22,21,10+,29.87
KGDB,44.7521,-95.5591,320,4,4.6,KGDB 080135Z AUTO 32004KT 4SM RA SCT009 SCT016 OVC022 21/20 A2994 RMK AO2 P0001 T02110195,2024-08-08T01:35:00Z,21.1,19.5,4,29.94
KGDA,37.3344,-88.1095,350,4,4.6,KGDA 080135Z AUTO 35004KT 10SM BKN013 OVC050 22/19 A2986 RMK AO2 T02150193 PWINO,2024-08-08T01:35:00Z,21.5,19.3,10+,29.86
KGCY,36.1924,-82.8135,40,4,4.6,KGCY 080135Z AUTO 04004KT 10SM FEW055 FEW070 28/21 A2978 RMK A01,2024-08-08T01:35:00Z,28,21,10+,29.78
KGCM,36.2918,-95.4825,60,4,4.6,KGCM 080135Z AUTO 06004KT 10SM CLR 28/20 A2981 RMK AO2,2024-08-08T01:35:00Z,28,20,10+,29.81
KGCD,44.4029,-118.967,310,6,6.9,KGCD 080135Z AUTO 31006KT 7SM CLR 29/00 A3006 RMK AO2 T02931001,2024-08-08T01:35:00Z,29.3,-0.1,7,30.06
KGBK,27.2039,-92.2025,VRB,5,5.75,KGBK 080135Z AUTO VRB05KT 10SM SCT025 SCT032 32/25 A2981 RMK A01,2024-08-08T01:35:00Z,32,25,10+,29.81
KGBG,40.9329,-90.4334,0,0,0.0,KGBG 080135Z AUTO 00000KT 10SM CLR 20/16 A2995 RMK AO2 T02010157,2024-08-08T01:35:00Z,20.1,15.7,10+,29.95
KGAF,48.4081,-97.3694,340,10,11.51,KGAF 080135Z AUTO 34010KT 9SM CLR 18/09 A3000 RMK AO2,2024-08-08T01:35:00Z,18,9,9,30.00
KFZG,31.684,-83.2712,310,3,3.45,KFZG 080135Z AUTO 31003KT 10SM CLR 29/24 A2967 RMK AO2 T02870235,2024-08-08T01:35:00Z,28.7,23.5,10+,29.67
KFYM,35.0603,-86.5656,350,6,6.9,KFYM 080135Z AUTO 35006G15KT 10SM SCT001 OVC019 26/24 A2980 RMK A01,2024-08-08T01:35:00Z,26,24,10+,29.80
KFYJ,37.5224,-76.7663,0,0,0.0,KFYJ 080135Z AUTO 00000KT 10SM BKN013 24/23 A2988 RMK AO1 T02410231,2024-08-08T01:35:00Z,24.1,23.1,10+,29.88
KFYG,38.5877,-90.9915,0,0,0.0,KFYG 080135Z AUTO 00000KT 10SM 23/22 A2991 RMK AO2,2024-08-08T01:35:00Z,23,22,10+,29.91
KFYE,35.2061,-89.3929,320,5,5.75,KFYE 080135Z AUTO 32005KT 10SM FEW043 24/20 A2981 RMK A01,2024-08-08T01:35:00Z,24,20,10+,29.81
KFXY,43.2323,-93.6237,0,0,0.0,KFXY 080135Z AUTO 00000KT 10SM CLR 19/17 A2995 RMK AO2,2024-08-08T01:35:00Z,19,17,10+,29.95
KFWS,32.558,-97.308,140,4,4.6,KFWS 080135Z AUTO 14004KT 10SM CLR 32/18 A2982 RMK AO2 T03160182,2024-08-08T01:35:00Z,31.6,18.2,10+,29.82
KFWC,38.3796,-88.4135,330,3,3.45,KFWC 080135Z AUTO 33003KT 10SM OVC038 22/19 A2987 RMK AO2 T02180194,2024-08-08T01:35:00Z,21.8,19.4,10+,29.87
KFWB,36.6933,-93.4049,60,4,4.6,KFWB 080135Z AUTO 06004KT 10SM CLR 25/18 A2990 RMK AO2,2024-08-08T01:35:00Z,25,18,10+,29.90
KFVX,37.363,-78.4372,10,3,3.45,KFVX 080135Z AUTO 01003KT 10SM SCT007 BKN013 OVC018 25/25 A2985 RMK AO2 T02450245,2024-08-08T01:35:00Z,24.5,24.5,10+,29.85
KFTN,28.2111,-100.024,220,4,4.6,KFTN 080135Z AUTO 22004KT 10SM FEW110 37/16 A2977 RMK A01,2024-08-08T01:35:00Z,37,16,10+,29.77
KFSW,40.6615,-91.3267,40,2,2.3,KFSW 080135Z AUTO 04002KT 10SM CLR 20/18 A2993 RMK AO2,2024-08-08T01:35:00Z,20,18,10+,29.93
KFSK,37.796,-94.7676,60,5,5.75,KFSK 080135Z AUTO 06005KT 10SM CLR 26/18 A2987 RMK AO2 T02600181,2024-08-08T01:35:00Z,26,18.1,10+,29.87
KFSE,47.589,-95.773,310,6,6.9,KFSE 080135Z AUTO 31006KT 10SM CLR 16/12 A2997 RMK AO2,2024-08-08T01:35:00Z,16,12,10+,29.97
KFRR,38.9169,-78.2487,40,3,3.45,KFRR 080135Z AUTO 04003KT 10SM SCT004 SCT029 BKN075 23/22 A2990 RMK AO1,2024-08-08T01:35:00Z,23,22,10+,29.90
KFRH,38.5034,-86.6442,0,0,0.0,KFRH 080135Z AUTO 00000KT 10SM BKN030 OVC037 24/19 A2985 RMK AO1,2024-08-08T01:35:00Z,24,19,10+,29.85
KFPY,30.0719,-83.5731,0,0,0.0,KFPY 080135Z AUTO 00000KT 10SM CLR 30/24 A2968 RMK AO2 LTG DSNT E T02950240,2024-08-08T01:35:00Z,29.5,24,10+,29.68
KFOT,40.5529,-124.134,300,9,10.36,KFOT 080135Z AUTO 30009KT 5SM CLR 14/13 A2996 RMK AO1,2024-08-08T01:35:00Z,14,13,5,29.96
KFOM,38.9618,-112.36,,,,KFOM 080135Z AUTO 10SM CLR 36/M06 A3005 RMK AO1,2024-08-08T01:35:00Z,36,-6,10+,30.05
KFMM,40.3315,-103.807,180,12,13.81,KFMM 080135Z AUTO 18012KT 8SM -RA FEW060 FEW070 SCT080 22/15 A3002 RMK AO2 LTG DSNT SE AND S,2024-08-08T01:35:00Z,22,15,8,30.02
KFLY,38.9439,-104.568,20,14,16.11,KFLY 080135Z AUTO 02014G24KT 10SM CLR 20/11 A3027 RMK AO2 LTG DSNT E T02030113,2024-08-08T01:35:00Z,20.3,11.3,10+,30.27
KFKS,44.6246,-86.1985,0,0,0.0,KFKS 080135Z AUTO 00000KT 10SM CLR 18/14 A2999 RMK AO2 T01750137,2024-08-08T01:35:00Z,17.5,13.7,10+,29.99
KFKR,40.2748,-86.5644,30,6,6.9,KFKR 080135Z AUTO 03006KT 10SM OVC045 21/21 A2991 RMK AO2,2024-08-08T01:35:00Z,21,21,10+,29.91
KFKN,36.6984,-76.9032,60,7,8.06,KFKN 080135Z AUTO 06007KT 10SM -RA BKN008 OVC011 24/23 A2984 RMK AO2 P0002 T02400233,2024-08-08T01:35:00Z,24,23.3,10+,29.84
KFKA,43.677,-92.174,140,5,5.75,KFKA 080135Z AUTO 14005KT 10SM BKN090 20/20 A2994 RMK AO2,2024-08-08T01:35:00Z,20,20,10+,29.94
KFHB,30.6131,-81.4623,310,9,10.36,KFHB 080135Z AUTO 31009KT 10SM -VCTSRA SCT008 BKN070 OVC090 24/24 A2964 RMK AO2 LTG DSNT E THRU SW P0042,2024-08-08T01:35:00Z,24,24,10+,29.64
KFGX,38.5383,-83.7467,40,11,12.66,KFGX 080135Z AUTO 04011G16KT 10SM SCT043 26/20 A2985 RMK AO2 T02560200,2024-08-08T01:35:00Z,25.6,20,10+,29.85
KFFX,43.4417,-85.9936,0,0,0.0,KFFX 080135Z AUTO 00000KT 10SM CLR 19/13 A2998 RMK AO2 T01930134,2024-08-08T01:35:00Z,19.3,13.4,10+,29.98
KFFM,46.2865,-96.1534,340,7,8.06,KFFM 080135Z AUTO 34007KT 10SM OVC055 18/18 A2997 RMK AO2,2024-08-08T01:35:00Z,18,18,10+,29.97
KFFL,41.0521,-91.9834,0,0,0.0,KFFL 080135Z AUTO 00000KT 10SM CLR 20/18 A2994 RMK A01,2024-08-08T01:35:00Z,20,18,10+,29.94
KFET,41.4489,-96.5237,140,3,3.45,KFET 080135Z AUTO 14003KT 10SM SCT120 26/17 A2992 RMK AO2 T02550173,2024-08-08T01:35:00Z,25.5,17.3,10+,29.92
KFEP,42.2475,-89.581,80,3,3.45,KFEP 080135Z AUTO 08003KT 10SM CLR 20/15 A2998 RMK AO2 T01990154,2024-08-08T01:35:00Z,19.9,15.4,10+,29.98
KFDW,34.3151,-81.1119,10,8,9.21,KFDW 080135Z AUTO 01008G16KT 10SM SCT027 25/22 A2965 RMK AO1,2024-08-08T01:35:00Z,25,22,10+,29.65
KFCH,36.7338,-119.82,310,10,11.51,KFCH 080135Z AUTO 31010KT 10SM CLR 40/09 A2980 RMK A01,2024-08-08T01:35:00Z,40,9,10+,29.80
KFBR,41.3941,-110.406,330,14,16.11,KFBR 080135Z AUTO 33014G19KT 10SM CLR 28/M05 A3026 RMK AO2 T02831050,2024-08-08T01:35:00Z,28.3,-5,10+,30.26
KFBL,44.3298,-93.3119,100,3,3.45,KFBL 080135Z AUTO 10003KT 10SM BKN060 OVC070 21/17 A2994 RMK AO2,2024-08-08T01:35:00Z,21,17,10+,29.94
KFBG,35.131,-78.932,60,11,12.66,KFBG 080135Z AUTO 06011G22KT 2 1/2SM RA BR OVC024 25/24 A2966 RMK AO2 CIG 014V024 SLP044 $,2024-08-08T01:35:00Z,25,24,2.5,29.66
KF95,30.4881,-85.1148,110,3,3.45,KF95 080135Z AUTO 11003KT 10SM CLR 27/26 A2969 RMK AO2,2024-08-08T01:35:00Z,27,26,10+,29.69
KF70,33.577,-117.126,210,5,5.75,KF70 080135Z AUTO 21005KT 10SM CLR 26/14 A2996 RMK AO2,2024-08-08T01:35:00Z,26,14,10+,29.96
KF46,32.9322,-96.4349,190,6,6.9,KF46 080135Z AUTO 19006KT 10SM CLR 34/20 A2980 RMK AO2 T03370198,2024-08-08T01:35:00Z,33.7,19.8,10+,29.80
KF44,32.165,-95.829,0,0,0.0,KF44 080135Z AUTO 00000KT 10SM CLR 29/23 A2978 RMK AO2,2024-08-08T01:35:00Z,29,23,10+,29.78
KF17,31.8277,-94.154,0,0,0.0,KF17 080135Z AUTO 00000KT 10SM CLR 27/23 A2980 RMK AO2,2024-08-08T01:35:00Z,27,23,10+,29.80
KF05,34.2283,-99.2834,130,8,9.21,KF05 080135Z AUTO 13008KT 10SM CLR 38/12 A2980 RMK AO2 T03820117,2024-08-08T01:35:00Z,38.2,11.7,10+,29.80
KF00,33.6158,-96.1809,0,0,0.0,KF00 080135Z AUTO 00000KT 10SM CLR 31/21 A2979 RMK AO2 T03090211,2024-08-08T01:35:00Z,30.9,21.1,10+,29.79
KEZZ,39.729,-94.2785,100,5,5.75,KEZZ 080135Z AUTO 10005KT 10SM CLR 24/18 A2993 RMK AO2 T02370184,2024-08-08T01:35:00Z,23.7,18.4,10+,29.93
KEZS,44.787,-88.5639,0,0,0.0,KEZS 080135Z AUTO 00000KT 10SM CLR 22/17 A2996 RMK AO2 T02180172,2024-08-08T01:35:00Z,21.8,17.2,10+,29.96
KEZP,28.2198,-92.7944,280,5,5.75,KEZP 080135Z AUTO 28005KT 10SM CLR 30/25 A2982 RMK A01,2024-08-08T01:35:00Z,30,25,10+,29.82
KEZM,32.2136,-83.1321,0,0,0.0,KEZM 080135Z AUTO 00000KT 10SM CLR 25/24 A2969 RMK AO2,2024-08-08T01:35:00Z,25,24,10+,29.69
KEZF,38.2685,-77.448,110,3,3.45,KEZF 080135Z AUTO 11003KT 10SM BKN017 26/26 A2988 RMK AO2 T02550255,2024-08-08T01:35:00Z,25.5,25.5,10+,29.88
KEVU,40.3524,-94.9137,140,3,3.45,KEVU 080135Z AUTO 14003KT 10SM CLR 26/18 A2992 RMK AO2 T02590190,2024-08-08T01:35:00Z,25.9,19,10+,29.92
KEVM,47.4274,-92.4972,230,5,5.75,KEVM 080135Z AUTO 23005KT 10SM -DZ BKN008 BKN022 OVC026 15/15 A2993 RMK AO2 P0002 T01520148,2024-08-08T01:35:00Z,15.2,14.8,10+,29.93
KETO,28.0336,-89.1008,300,11,12.66,KETO 080135Z AUTO 30011KT 10SM CLR 31/25 A2978 RMK A01,2024-08-08T01:35:00Z,31,25,10+,29.78
KETN,32.4164,-98.8113,90,5,5.75,KETN 080135Z AUTO 09005KT 10SM CLR 33/14 A2984 RMK AO2 T03270142,2024-08-08T01:35:00Z,32.7,14.2,10+,29.84
KETB,43.4225,-88.1326,0,0,0.0,KETB 080135Z AUTO 00000KT 10SM CLR 17/12 A2998 RMK AO2,2024-08-08T01:35:00Z,17,12,10+,29.98
KERV,29.9779,-99.0872,110,4,4.6,KERV 080135Z AUTO 11004KT 10SM CLR 33/19 A2983 RMK AO2 T03320185,2024-08-08T01:35:00Z,33.2,18.5,10+,29.83
KEQA,37.7753,-96.8145,110,6,6.9,KEQA 080135Z AUTO 11006KT 10SM CLR 28/16 A2985 RMK AO2,2024-08-08T01:35:00Z,28,16,10+,29.85
KEOE,34.3062,-81.6413,340,11,12.66,KEOE 080135Z AUTO 34011G14KT 10SM CLR 26/25 A2970 RMK AO2 LTG DSNT E,2024-08-08T01:35:00Z,26,25,10+,29.70
KENL,38.5095,-89.09,350,3,3.45,KENL 080135Z AUTO 35003KT 10SM OVC037 22/20 A2989 RMK AO2 T02210203,2024-08-08T01:35:00Z,22.1,20.3,10+,29.89
KEMV,36.6858,-77.485,0,0,0.0,KEMV 080135Z AUTO 00000KT 10SM SCT015 BKN024 BKN029 24/23 A2984 RMK AO2 T02420232,2024-08-08T01:35:00Z,24.2,23.2,10+,29.84
KEMM,41.8224,-110.555,350,11,12.66,KEMM 080135Z AUTO 35011KT 10SM CLR 25/M04 A3027 RMK AO2,2024-08-08T01:35:00Z,25,-4,10+,30.27
KELO,47.8287,-91.8371,220,4,4.6,KELO 080135Z AUTO 22004KT 10SM -RA BKN009 OVC021 15/15 A2991 RMK AO2,2024-08-08T01:35:00Z,15,15,10+,29.91
KELK,35.4261,-99.3926,160,8,9.21,KELK 080135Z AUTO 16008KT 7SM CLR 36/14 A2982 RMK AO2 T03560137 $,2024-08-08T01:35:00Z,35.6,13.7,7,29.82
KELA,29.602,-96.3239,,,,KELA 080135Z AUTO 10SM CLR 28/19 A2978 RMK AO2 T02820193,2024-08-08T01:35:00Z,28.2,19.3,10+,29.78
KEKX,37.6924,-85.9204,0,0,0.0,KEKX 080135Z AUTO 00000KT 10SM CLR 25/22 A2981 RMK AO2 T02500215,2024-08-08T01:35:00Z,25,21.5,10+,29.81
KEKS,45.276,-111.65,340,23,26.47,KEKS 080135Z AUTO 34023G34KT 10SM CLR 21/07 A3022 RMK AO2,2024-08-08T01:35:00Z,21,7,10+,30.22
KEKM,41.7222,-86,50,7,8.06,KEKM 080135Z 05007KT 10SM OVC048 23/15 A2995 RMK AO2 T02300150 $,2024-08-08T01:35:00Z,23,15,10+,29.95
KEKE,28.4971,-91.5702,250,6,6.9,KEKE 080135Z AUTO 25006KT 10SM CLR 31/25 A2974 RMK A01,2024-08-08T01:35:00Z,31,25,10+,29.74
KEIK,40.0117,-105.05,180,12,13.81,KEIK 080135Z AUTO 18012KT 9SM FEW170 25/13 A3009 RMK AO2 RAE0053 P0000 T02520128,2024-08-08T01:35:00Z,25.2,12.8,9,30.09
KEHY,41.725,-106.459,80,13,14.96,KEHY 080135Z AUTO 08013G20KT 10SM 23/03 A3021 RMK AO2 PWINO,2024-08-08T01:35:00Z,23,3,10+,30.21
KEHA,37.0011,-101.88,170,9,10.36,KEHA 080135Z AUTO 17009KT 10SM CLR 29/11 A2990 RMK AO2 T02910115,2024-08-08T01:35:00Z,29.1,11.5,10+,29.90
KEGV,45.9309,-89.267,180,3,3.45,KEGV 080135Z AUTO 18003KT 10SM OVC110 18/12 A2996 RMK AO2 T01790122,2024-08-08T01:35:00Z,17.9,12.2,10+,29.96
KEGT,37.3251,-97.3901,100,8,9.21,KEGT 080135Z AUTO 10008KT 10SM CLR 30/18 A2982 RMK AO2 T03040183,2024-08-08T01:35:00Z,30.4,18.3,10+,29.82
KEFT,42.6196,-89.5931,90,3,3.45,KEFT 080135Z AUTO 09003KT 10SM CLR 20/15 A2996 RMK AO2 T02040151,2024-08-08T01:35:00Z,20.4,15.1,10+,29.96
KEFK,44.8886,-72.2296,0,0,0.0,KEFK 080135Z AUTO 00000KT 10SM CLR 16/10 A3011 RMK AO2 T01630104,2024-08-08T01:35:00Z,16.3,10.4,10+,30.11
KEDJ,40.3714,-83.8142,50,7,8.06,KEDJ 080135Z AUTO 05007KT 10SM OVC024 20/20 A2992 RMK A01,2024-08-08T01:35:00Z,20,20,10+,29.92
KEDC,30.3926,-97.5621,0,0,0.0,KEDC 080135Z AUTO 00000KT 8SM CLR 32/21 A2977 RMK AO2,2024-08-08T01:35:00Z,32,21,8,29.77
KECU,29.948,-100.174,0,0,0.0,KECU 080135Z AUTO 00000KT 10SM 33/14 A2991 RMK AO2,2024-08-08T01:35:00Z,33,14,10+,29.91
KECS,43.8845,-104.312,10,13,14.96,KECS 080135Z AUTO 01013KT 10SM OVC080 20/10 A3017 RMK AO2,2024-08-08T01:35:00Z,20,10,10+,30.17
KEBS,42.4372,-93.8725,130,4,4.6,KEBS 080135Z AUTO 13004KT 10SM CLR 21/17 A2992 RMK AO2,2024-08-08T01:35:00Z,21,17,10+,29.92
KEBA,34.0957,-82.8121,0,0,0.0,KEBA 080135Z AUTO 00000KT 10SM CLR 27/22 A2971 RMK AO2 T02740225,2024-08-08T01:35:00Z,27.4,22.5,10+,29.71
KEAN,42.0563,-104.939,120,13,14.96,KEAN 080135Z AUTO 12013G22KT 10SM OVC085 24/15 A3012 RMK AO2 T02380152,2024-08-08T01:35:00Z,23.8,15.2,10+,30.12
KE77,32.634,-110.647,280,9,10.36,KE77 080135Z AUTO 28009G14KT 10SM FEW070 SCT090 26/17 A3010 RMK AO2 LTG DSNT SE AND S,2024-08-08T01:35:00Z,26,17,10+,30.10
KE57,32.976,-102.843,180,5,5.75,KE57 080135Z AUTO 18005KT 10SM CLR 34/04 A2994 RMK AO2,2024-08-08T01:35:00Z,34,4,10+,29.94
KE42,36.2193,-101.194,160,9,10.36,KE42 080135Z AUTO 16009KT 10SM CLR 33/12 A2987 RMK AO2 T03260121,2024-08-08T01:35:00Z,32.6,12.1,10+,29.87
KE41,31.1945,-101.473,160,3,3.45,KE41 080135Z AUTO 16003KT 10SM CLR 36/10 A2989 RMK AO2 T03580099,2024-08-08T01:35:00Z,35.8,9.9,10+,29.89
KE38,30.3851,-103.68,130,4,4.6,KE38 080135Z AUTO 13004KT 10SM CLR 31/07 A3008 RMK AO2 T03130071,2024-08-08T01:35:00Z,31.3,7.1,10+,30.08
KE16,37.0797,-121.598,140,10,11.51,KE16 080135Z AUTO 14010KT 10SM CLR 27/12 A2992 RMK AO2,2024-08-08T01:35:00Z,27,12,10+,29.92
KE11,32.3281,-102.528,170,4,4.6,KE11 080135Z AUTO 17004KT 10SM CLR 35/07 A2992 RMK AO2 T03510068,2024-08-08T01:35:00Z,35.1,6.8,10+,29.92
KE01,31.5804,-102.908,140,5,5.75,KE01 080135Z AUTO 14005KT 10SM CLR 38/07 A2986 RMK AO2,2024-08-08T01:35:00Z,38,7,10+,29.86
KDZJ,34.8552,-84.0014,0,0,0.0,KDZJ 080135Z AUTO 00000KT 10SM CLR 25/21 A2981 RMK AO2 T02490213,2024-08-08T01:35:00Z,24.9,21.3,10+,29.81
KDZB,30.521,-98.3574,130,3,3.45,KDZB 080135Z AUTO 13003KT 10SM CLR 34/17 A2980 RMK AO2 T03350170,2024-08-08T01:35:00Z,33.5,17,10+,29.80
KDYT,46.7231,-92.0438,220,7,8.06,KDYT 080135Z AUTO 22007KT 3SM -RA BR FEW033 BKN039 OVC044 16/16 A2992 RMK AO2,2024-08-08T01:35:00Z,16,16,3,29.92
KDYB,33.062,-80.28,0,0,0.0,KDYB 080135Z AUTO 00000KT 3/4SM RA BR BKN004 OVC010 25/25 A2946 RMK AO2,2024-08-08T01:35:00Z,25,25,0.75,29.46
KDYA,32.4641,-87.9504,0,0,0.0,KDYA 080135Z AUTO 00000KT 7SM BKN075 OVC100 29/25 A2970 RMK AO2 T02850252,2024-08-08T01:35:00Z,28.5,25.2,7,29.70
KDXX,44.9839,-96.1789,320,12,13.81,KDXX 080135Z AUTO 32012KT 2 1/2SM +DZ SCT011 BKN017 OVC032 20/19 A2996 RMK AO2,2024-08-08T01:35:00Z,20,19,2.5,29.96
KDWX,41.037,-107.5,170,4,4.6,KDWX 080135Z AUTO 17004KT 10SM CLR 25/11 A3020 RMK AO2 T02460108,2024-08-08T01:35:00Z,24.6,10.8,10+,30.20
KDWA,38.5803,-121.854,160,10,11.51,KDWA 080135Z AUTO 16010KT 10SM CLR 33/13 A2981 RMK AO2,2024-08-08T01:35:00Z,33,13,10+,29.81
KDVO,38.1417,-122.555,350,9,10.36,KDVO 080135Z AUTO 35009KT 10SM CLR A2988 RMK AO2,2024-08-08T01:35:00Z,,,10+,29.88
KDUX,35.8608,-102.009,180,8,9.21,KDUX 080135Z AUTO 18008KT 10SM CLR 31/05 A2992 RMK AO2 T03070048,2024-08-08T01:35:00Z,30.7,4.8,10+,29.92
KDUH,41.7375,-83.6493,0,0,0.0,KDUH 080135Z AUTO 00000KT 10SM BKN041 21/15 A2994 RMK AO2 T02100147,2024-08-08T01:35:00Z,21,14.7,10+,29.94
KDUC,34.4778,-97.9616,140,6,6.9,KDUC 080135Z AUTO 14006KT 10SM CLR 34/17 A2981 RMK AO2,2024-08-08T01:35:00Z,34,17,10+,29.81
KDUA,33.9427,-96.3967,0,0,0.0,KDUA 080135Z AUTO 00000KT 10SM CLR 36/15 A2981 RMK AO2,2024-08-08T01:35:00Z,36,15,10+,29.81
KDTL,46.8286,-95.8857,320,5,5.75,KDTL 080135Z AUTO 32005KT 10SM OVC055 17/15 A2997 RMK AO2,2024-08-08T01:35:00Z,17,15,10+,29.97
KDTA,39.3879,-112.504,60,7,8.06,KDTA 080135Z AUTO 06007KT 10SM CLR 34/M02 A3000 RMK AO1,2024-08-08T01:35:00Z,34,-2,10+,30.00
KDRP,35.1213,-90.8246,350,6,6.9,KDRP 080135Z AUTO 35006KT 10SM BKN036 18/14 A2984 RMK AO2,2024-08-08T01:35:00Z,18,14,10+,29.84
KDRM,46.009,-83.743,160,3,3.45,KDRM 080135Z AUTO 16003KT 10SM CLR 19/13 A3000 RMK AO2 T01870126,2024-08-08T01:35:00Z,18.7,12.6,10+,30.00
KDRI,30.8344,-93.3359,0,0,0.0,KDRI 080135Z AUTO 00000KT 4SM -RA CLR 29/24 A2979 RMK AO2 RAB0129 P0000 T02930244,2024-08-08T01:35:00Z,29.3,24.4,4,29.79
KDQH,31.4739,-82.8609,0,0,0.0,KDQH 080135Z AUTO 00000KT 10SM SCT060 BKN090 29/23 A2967 RMK AO2 T02870231,2024-08-08T01:35:00Z,28.7,23.1,10+,29.67
KDNV,40.2032,-87.5897,20,5,5.75,KDNV 080135Z AUTO 02005KT 10SM CLR 21/19 A2990 RMK AO2 T02050185,2024-08-08T01:35:00Z,20.5,18.5,10+,29.90
KDNS,41.9842,-95.38,0,0,0.0,KDNS 080135Z AUTO 00000KT 8SM CLR 23/19 A2993 RMK AO2,2024-08-08T01:35:00Z,23,19,8,29.93
KDNN,34.727,-84.8733,0,0,0.0,KDNN 080135Z AUTO 00000KT 10SM CLR 26/24 A2972 RMK AO2 T02580239,2024-08-08T01:35:00Z,25.8,23.9,10+,29.72
KDNA,31.875,-106.694,220,5,5.75,KDNA 080135Z AUTO 22005KT 10SM CLR 34/09 A2999 RMK AO2 LTG DSNT SW,2024-08-08T01:35:00Z,34,9,10+,29.99
KDLZ,40.281,-83.114,40,4,4.6,KDLZ 080135Z AUTO 04004KT 10SM SCT026 OVC032 22/18 A2990 RMK AO2,2024-08-08T01:35:00Z,22,18,10+,29.90
KDLO,35.7449,-119.239,60,4,4.6,KDLO 080135Z AUTO 06004KT 10SM CLR 38/12 A2979 RMK AO2 T03780117,2024-08-08T01:35:00Z,37.8,11.7,10+,29.79
KDLL,43.5236,-89.7736,0,0,0.0,KDLL 080135Z AUTO 00000KT 10SM CLR 20/18 A2996 RMK AO2 T02020176,2024-08-08T01:35:00Z,20.2,17.6,10+,29.96
KDKX,35.9658,-83.8717,0,0,0.0,KDKX 080135Z AUTO 00000KT 10SM 25/24 A2975 RMK A01,2024-08-08T01:35:00Z,25,24,10+,29.75
KDKR,31.3097,-95.4039,0,0,0.0,KDKR 080135Z AUTO 00000KT 10SM CLR 28/27 A2979 RMK AO2,2024-08-08T01:35:00Z,28,27,10+,29.79
KDKB,41.9338,-88.7066,60,4,4.6,KDKB 080135Z AUTO 06004KT 10SM CLR 17/13 A2996 RMK AO2 T01740127,2024-08-08T01:35:00Z,17.4,12.7,10+,29.96
KDEH,43.2755,-91.7433,0,0,0.0,KDEH 080135Z AUTO 00000KT 10SM BKN120 21/19 A2994 RMK AO2,2024-08-08T01:35:00Z,21,19,10+,29.94
KDCY,38.6953,-87.1314,360,6,6.9,KDCY 080135Z AUTO 36006KT 10SM SCT036 SCT046 SCT060 23/19 A2985 RMK AO2 T02300190,2024-08-08T01:35:00Z,23,19,10+,29.85
KDCM,34.7908,-81.1987,360,10,11.51,KDCM 080135Z AUTO 36010G17KT 10SM SCT027 SCT035 25/23 A2971 RMK AO2 LTG DSNT E THRU SW,2024-08-08T01:35:00Z,25,23,10+,29.71
KD95,43.0675,-83.2702,350,6,6.9,KD95 080135Z AUTO 35006KT 5SM BR CLR 18/17 A3000 RMK AO2 T01820172,2024-08-08T01:35:00Z,18.2,17.2,5,30.00
KD73,33.7826,-83.6948,0,0,0.0,KD73 080135Z AUTO 00000KT 10SM BKN065 OVC110 27/26 A2972 RMK AO2 T02740263,2024-08-08T01:35:00Z,27.4,26.3,10+,29.72
KD60,48.3834,-102.898,350,11,12.66,KD60 080135Z AUTO 35011KT 10SM CLR 16/04 A3019 RMK AO2,2024-08-08T01:35:00Z,16,4,10+,30.19
KD57,46.814,-101.864,290,5,5.75,KD57 080135Z AUTO 29005KT 10SM OVC110 16/11 A3013 RMK AO2,2024-08-08T01:35:00Z,16,11,10+,30.13
KD50,48.9248,-103.296,360,8,9.21,KD50 080135Z AUTO 36008G16KT 10SM CLR 17/03 A3018 RMK AO2,2024-08-08T01:35:00Z,17,3,10+,30.18
KD39,45.7057,-94.9308,0,0,0.0,KD39 080135Z AUTO 00000KT 4SM DZ SCT017 16/16 A2993 RMK AO2 P0002 T01630163,2024-08-08T01:35:00Z,16.3,16.3,4,29.93
KD09,48.83,-100.417,320,8,9.21,KD09 080135Z AUTO 32008KT 10SM CLR 14/08 A3010 RMK AO2,2024-08-08T01:35:00Z,14,8,10+,30.10
KCZL,34.45,-84.936,0,0,0.0,KCZL 080135Z AUTO 00000KT 10SM 28/24 A2972 RMK AO2,2024-08-08T01:35:00Z,28,24,10+,29.72
KCYD,28.1694,-89.2228,310,8,9.21,KCYD 080135Z AUTO 31008KT 7SM CLR 31/26 A2980 RMK A02 T03110255,2024-08-08T01:35:00Z,31.1,25.5,7,29.80
KCXU,31.2141,-84.2358,0,0,0.0,KCXU 080135Z AUTO 00000KT 10SM CLR 28/26 A2968 RMK AO1 T02840257,2024-08-08T01:35:00Z,28.4,25.7,10+,29.68
KCXP,39.1905,-119.732,250,7,8.06,KCXP 080135Z AUTO 25007G14KT 200V290 10SM CLR 32/03 A3012 RMK AO2,2024-08-08T01:35:00Z,32,3,10+,30.12
KCXE,36.7923,-78.5027,80,3,3.45,KCXE 080135Z AUTO 08003KT 10SM SCT012 BKN018 BKN032 25/25 A2984 RMK AO1 T02460246,2024-08-08T01:35:00Z,24.6,24.6,10+,29.84
KCWV,32.193,-81.873,340,5,5.75,KCWV 080135Z AUTO 34005KT 10SM SCT080 BKN095 27/24 A2960 RMK AO2,2024-08-08T01:35:00Z,27,24,10+,29.60
KCWC,33.8629,-98.4914,130,6,6.9,KCWC 080135Z AUTO 13006KT 10SM CLR 37/16 A2980 RMK AO2 T03650158,2024-08-08T01:35:00Z,36.5,15.8,10+,29.80
KCVX,45.304,-85.2689,360,6,6.9,KCVX 080135Z AUTO 36006KT 10SM CLR 21/15 A2999 RMK AO2 T02050146,2024-08-08T01:35:00Z,20.5,14.6,10+,29.99
KCVH,36.8919,-121.41,260,11,12.66,KCVH 080135Z AUTO 26011G19KT 10SM CLR 24/12 A2993 RMK A01,2024-08-08T01:35:00Z,24,12,10+,29.93
KCVC,33.6312,-83.8482,0,0,0.0,KCVC 080135Z AUTO 00000KT 10SM BKN060 OVC070 29/24 A2970 RMK AO2,2024-08-08T01:35:00Z,29,24,10+,29.70
KCVB,29.343,-98.8497,130,3,3.45,KCVB 080135Z AUTO 13003KT 10SM SCT100 A2978 RMK AO2,2024-08-08T01:35:00Z,,,10+,29.78
KCUH,35.949,-96.768,160,4,4.6,KCUH 080135Z AUTO 16004KT 10SM CLR 33/19 A2980 RMK AO2 T03290185,2024-08-08T01:35:00Z,32.9,18.5,10+,29.80
KCTJ,33.6313,-85.1538,0,0,0.0,KCTJ 080135Z AUTO 00000KT 10SM CLR 27/22 A2979 RMK AO2 T02650218,2024-08-08T01:35:00Z,26.5,21.8,10+,29.79
KCSQ,41.0188,-94.361,90,6,6.9,KCSQ 080135Z AUTO 09006KT 10SM CLR 22/18 A2993 RMK AO2,2024-08-08T01:35:00Z,22,18,10+,29.93
KCSB,40.307,-100.162,60,9,10.36,KCSB 080135Z AUTO 06009KT 10SM CLR 26/18 A2993 RMK AO2,2024-08-08T01:35:00Z,26,18,10+,29.93
KCRX,34.9209,-88.6071,0,0,0.0,KCRX 080135Z AUTO 00000KT 10SM CLR 22/20 A2980 RMK AO2,2024-08-08T01:35:00Z,22,20,10+,29.80
KCRW,38.3795,-81.5911,130,7,8.06,KCRW 080135Z 13007KT 6SM BR BKN060 BKN085 OVC110 23/22 A2982 RMK AO2 RAE25 TSB11E33 TS MOV NE CB DSNT NE P0003 T02330222 $,2024-08-08T01:35:00Z,23.3,22.2,6,29.82
KCQW,34.7128,-79.9622,60,11,12.66,KCQW 080135Z AUTO 06011KT 10SM BKN035 BKN045 OVC050 25/23 A2964 RMK AO2,2024-08-08T01:35:00Z,25,23,10+,29.64
KCQM,47.8199,-92.6817,230,4,4.6,KCQM 080135Z AUTO 23004KT 10SM SCT006 OVC012 16/15 A2990 RMK AO2,2024-08-08T01:35:00Z,16,15,10+,29.90
KCQF,30.4618,-87.8749,0,0,0.0,KCQF 080135Z AUTO 00000KT 10SM CLR 27/23 A2973 RMK AO2,2024-08-08T01:35:00Z,27,23,10+,29.73
KCQB,35.7223,-96.8187,130,5,5.75,KCQB 080135Z AUTO 13005KT 10SM CLR 31/21 A2981 RMK AO2 T03100206,2024-08-08T01:35:00Z,31,20.6,10+,29.81
KCPW,37.464,-106.804,360,9,10.36,KCPW 080135Z AUTO 36009G15KT 10SM BKN060 OVC070 12/03 A3071 RMK AO2 LTG DSNT N,2024-08-08T01:35:00Z,12,3,10+,30.71
KCPU,38.1445,-120.645,300,10,11.51,KCPU 080135Z AUTO 30010KT 10SM CLR 36/04 A2991 RMK AO2 T03600035,2024-08-08T01:35:00Z,36,3.5,10+,29.91
KCPT,32.3526,-97.435,140,7,8.06,KCPT 080135Z AUTO 14007KT 10SM CLR 33/18 A2982 RMK A01,2024-08-08T01:35:00Z,33,18,10+,29.82
KCPP,33.5991,-83.1401,30,5,5.75,KCPP 080135Z AUTO 03005KT 10SM SCT075 BKN085 29/23 A2969 RMK AO2,2024-08-08T01:35:00Z,29,23,10+,29.69
KCPK,36.6631,-76.3264,100,7,8.06,KCPK 080135Z AUTO 10007KT 10SM -RA CLR 24/23 A2985 RMK AO2 P0002 T02390229,2024-08-08T01:35:00Z,23.9,22.9,10+,29.85
KCPF,37.3869,-83.2593,0,0,0.0,KCPF 080135Z AUTO 00000KT 10SM CLR 25/21 A2982 RMK AO2,2024-08-08T01:35:00Z,25,21,10+,29.82
KCOQ,46.6986,-92.5034,0,0,0.0,KCOQ 080135Z AUTO 00000KT 7SM RA OVC042 14/14 A2993 RMK AO2 TSNO,2024-08-08T01:35:00Z,14,14,7,29.93
KCOM,31.8415,-99.4058,100,8,9.21,KCOM 080135Z AUTO 10008KT 10SM CLR 35/12 A2983 RMK AO2 T03480115 PWINO,2024-08-08T01:35:00Z,34.8,11.5,10+,29.83
KCNI,34.31,-84.424,330,6,6.9,KCNI 080135Z AUTO 33006KT 10SM CLR 27/21 A2976 RMK AO2 LTG DSNT NW T02730212,2024-08-08T01:35:00Z,27.3,21.2,10+,29.76
KCNC,41.0185,-93.3608,120,3,3.45,KCNC 080135Z AUTO 12003KT 10SM CLR 22/18 A2993 RMK AO2,2024-08-08T01:35:00Z,22,18,10+,29.93
KCNB,44.7297,-96.2623,330,9,10.36,KCNB 080135Z AUTO 33009G15KT 280V350 10SM SCT015 BKN029 OVC039 20/18 A2996 RMK AO2 T02030177,2024-08-08T01:35:00Z,20.3,17.7,10+,29.96
KCMR,35.3016,-112.197,50,11,12.66,KCMR 080135Z AUTO 05011G22KT 8SM -RA BKN065 BKN075 OVC085 19/13 A3031 RMK AO2,2024-08-08T01:35:00Z,19,13,8,30.31
KCMD,34.2722,-86.8583,330,7,8.06,KCMD 080135Z AUTO 33007KT 310V010 10SM CLR 27/24 A2978 RMK AO2,2024-08-08T01:35:00Z,27,24,10+,29.78
KCMA,34.2114,-119.088,230,7,8.06,KCMA 080135Z 23007KT 8SM BKN009 23/18 A2993 RMK AO2 T02280183,2024-08-08T01:35:00Z,22.8,18.3,8,29.93
KCLW,27.9741,-82.7563,260,3,3.45,KCLW 080135Z AUTO 26003KT 10SM CLR 29/25 A2973 RMK AO2,2024-08-08T01:35:00Z,29,25,10+,29.73
KCLS,46.6774,-122.986,VRB,6,6.9,KCLS 080135Z AUTO VRB06G12KT 10SM CLR 27/14 A3002 RMK AO2,2024-08-08T01:35:00Z,27,14,10+,30.02
KCLK,35.5381,-98.9336,160,12,13.81,KCLK 080135Z AUTO 16012KT 10SM CLR 36/11 A2982 RMK AO2,2024-08-08T01:35:00Z,36,11,10+,29.82
KCLI,44.6152,-88.7313,0,0,0.0,KCLI 080135Z AUTO 00000KT 10SM CLR 20/17 A2997 RMK AO2 T02030165,2024-08-08T01:35:00Z,20.3,16.5,10+,29.97
KCKZ,40.3864,-75.2953,70,6,6.9,KCKZ 080135Z AUTO 07006KT 2SM BR OVC004 18/18 A3004 RMK AO2,2024-08-08T01:35:00Z,18,18,2,30.04
KCKP,42.7304,-95.5538,140,5,5.75,KCKP 080135Z AUTO 14005KT 10SM CLR 23/19 A2991 RMK AO2,2024-08-08T01:35:00Z,23,19,10+,29.91
KCKN,47.8404,-96.6201,340,9,10.36,KCKN 080135Z AUTO 34009KT 10SM CLR 18/09 A2998 RMK AO2,2024-08-08T01:35:00Z,18,9,10+,29.98
KCKM,34.2945,-90.5146,330,3,3.45,KCKM 080135Z AUTO 33003KT 10SM 23/ A2983 RMK A01,2024-08-08T01:35:00Z,23,,10+,29.83
KCKI,33.7187,-79.8567,20,4,4.6,KCKI 080135Z AUTO 02004G17KT 7SM -RA OVC008 23/23 A2951 RMK AO2 LTG DSNT E P0012,2024-08-08T01:35:00Z,23,23,7,29.51
KCKF,31.9889,-83.7739,0,0,0.0,KCKF 080135Z AUTO 00000KT 10SM CLR 28/25 A2969 RMK AO2 T02750245,2024-08-08T01:35:00Z,27.5,24.5,10+,29.69
KCKC,47.8366,-90.3864,230,3,3.45,KCKC 080135Z AUTO 23003KT 3SM +RA SCT009 BKN019 OVC060 14/13 A2993 RMK AO2 P0001,2024-08-08T01:35:00Z,14,13,3,29.93
KCJR,38.5261,-77.8574,0,0,0.0,KCJR 080135Z AUTO 00000KT 26/23 A2990 RMK AO2 T02570231 PWINO,2024-08-08T01:35:00Z,25.7,23.1,,29.90
KCIR,37.0639,-89.2232,20,4,4.6,KCIR 080135Z AUTO 02004KT 10SM CLR 23/20 A2986 RMK AO2 T02250201,2024-08-08T01:35:00Z,22.5,20.1,10+,29.86
KCIN,42.0444,-94.7888,150,4,4.6,KCIN 080135Z AUTO 15004KT 9SM CLR 22/19 A2992 RMK AO2,2024-08-08T01:35:00Z,22,19,9,29.92
KCHK,35.0927,-97.9709,130,7,8.06,KCHK 080135Z AUTO 13007KT 10SM CLR 34/17 A2978 RMK AO2 T03450172,2024-08-08T01:35:00Z,34.5,17.2,10+,29.78
KCGC,28.866,-82.5741,260,6,6.9,KCGC 080135Z AUTO 26006KT 10SM CLR 29/26 A2970 RMK AO2 LTG DSNT NE,2024-08-08T01:35:00Z,29,26,10+,29.70
KCFS,43.4624,-83.4428,0,0,0.0,KCFS 080135Z AUTO 00000KT 10SM CLR 18/14 A3000 RMK AO2 T01780141,2024-08-08T01:35:00Z,17.8,14.1,10+,30.00
KCFJ,39.9767,-86.9148,40,5,5.75,KCFJ 080135Z AUTO 04005KT 10SM CLR 19/14 A2991 RMK AO2 T01860141,2024-08-08T01:35:00Z,18.6,14.1,10+,29.91
KCFE,45.1601,-93.846,70,5,5.75,KCFE 080135Z AUTO 07005KT 10SM FEW035 BKN049 OVC060 18/18 A2993 RMK AO2,2024-08-08T01:35:00Z,18,18,10+,29.93
KCFD,30.7171,-96.3347,,,,KCFD 080135Z AUTO 10SM CLR 30/23 A2981 RMK AO2 T02950234,2024-08-08T01:35:00Z,29.5,23.4,10+,29.81
KCEY,36.664,-88.372,330,8,9.21,KCEY 080135Z AUTO 33008KT 10SM BKN017 BKN050 24/23 A2984 RMK A01,2024-08-08T01:35:00Z,24,23,10+,29.84
KCDN,34.2815,-80.5636,10,15,17.26,KCDN 080135Z AUTO 01015G22KT 10SM -DZ BKN036 BKN050 OVC080 24/24 A2962 RMK AO2,2024-08-08T01:35:00Z,24,24,10+,29.62
KCDI,39.976,-81.577,30,5,5.75,KCDI 080135Z AUTO 03005KT 10SM OVC022 24/20 A2988 RMK AO2 T02370204,2024-08-08T01:35:00Z,23.7,20.4,10+,29.88
KCDH,33.619,-92.765,40,4,4.6,KCDH 080135Z AUTO 04004KT 10SM CLR 30/24 A2978 RMK AO2,2024-08-08T01:35:00Z,30,24,10+,29.78
KCDA,44.5677,-72.0191,0,0,0.0,KCDA 080135Z AUTO 00000KT 10SM CLR 16/11 A3011 RMK AO2 T01620106,2024-08-08T01:35:00Z,16.2,10.6,10+,30.11
KCCY,43.073,-92.6132,180,4,4.6,KCCY 080135Z AUTO 18004KT 10SM CLR 20/19 A2995 RMK AO2,2024-08-08T01:35:00Z,20,19,10+,29.95
KCCU,39.475,-106.152,300,5,5.75,KCCU 080135Z AUTO 30005KT 10SM -RA SCT032 BKN040 OVC048 11/06 A3072 RMK AO2,2024-08-08T01:35:00Z,11,6,10+,30.72
KCCO,33.3107,-84.7713,320,5,5.75,KCCO 080135Z AUTO 32005KT 10SM CLR 30/20 A2975 RMK AO2 T02950195,2024-08-08T01:35:00Z,29.5,19.5,10+,29.75
KCCB,34.1118,-117.685,250,11,12.66,KCCB 080135Z AUTO 25011G17KT 10SM CLR 27/14 A2995 RMK AO2,2024-08-08T01:35:00Z,27,14,10+,29.95
KCCA,35.5946,-92.4455,0,0,0.0,KCCA 080135Z AUTO 00000KT 10SM CLR 24/19 A2987 RMK AO2,2024-08-08T01:35:00Z,24,19,10+,29.87
KCBK,39.4301,-101.051,50,9,10.36,KCBK 080135Z AUTO 05009KT 10SM CLR 29/16 A2995 RMK AO2 T02940161,2024-08-08T01:35:00Z,29.4,16.1,10+,29.95
KCBG,45.557,-93.264,0,0,0.0,KCBG 080135Z AUTO 00000KT 10SM BKN065 OVC070 16/14 A2993 RMK AO2 P0002,2024-08-08T01:35:00Z,16,14,10+,29.93
KCBF,41.2611,-95.7604,130,3,3.45,KCBF 080135Z AUTO 13003KT 10SM CLR 24/19 A2990 RMK AO2,2024-08-08T01:35:00Z,24,19,10+,29.90
KCAV,42.743,-93.7592,160,4,4.6,KCAV 080135Z AUTO 16004KT 10SM CLR 20/18 A2994 RMK A01,2024-08-08T01:35:00Z,20,18,10+,29.94
KCAD,44.2785,-85.4207,130,3,3.45,KCAD 080135Z AUTO 13003KT 10SM CLR 18/14 A2999 RMK AO2,2024-08-08T01:35:00Z,18,14,10+,29.99
KC83,37.8276,-121.624,240,22,25.32,KC83 080135Z AUTO 24022KT 10SM CLR 35/01 A2982 RMK AO2,2024-08-08T01:35:00Z,35,1,10+,29.82
KC75,41.0231,-89.3886,,,,KC75 080135Z AUTO 10SM CLR 19/16 A2992 RMK AO2 T01920162,2024-08-08T01:35:00Z,19.2,16.2,10+,29.92
KC65,41.3636,-86.2998,0,0,0.0,KC65 080135Z AUTO 00000KT 10SM OVC050 21/18 A2994 RMK A01,2024-08-08T01:35:00Z,21,18,10+,29.94
KC35,43.5261,-89.9809,0,0,0.0,KC35 080135Z AUTO 00000KT 10SM CLR 20/16 A2996 RMK AO2 T02030160 PWINO,2024-08-08T01:35:00Z,20.3,16,10+,29.96
KC29,43.1153,-89.5312,0,0,0.0,KC29 080135Z AUTO 00000KT 10SM CLR 20/17 A2997 RMK AO1 T02020171,2024-08-08T01:35:00Z,20.2,17.1,10+,29.97
KC09,41.4317,-88.4152,0,0,0.0,KC09 080135Z AUTO 00000KT 10SM CLR 19/17 A2993 RMK AO2 T01940166,2024-08-08T01:35:00Z,19.4,16.6,10+,29.93
KC08,38.0138,-105.373,360,8,9.21,KC08 080135Z AUTO 36008KT 10SM BKN085 OVC100 16/13 A3041 RMK AO2,2024-08-08T01:35:00Z,16,13,10+,30.41
KBYY,28.9717,-95.8584,180,4,4.6,KBYY 080135Z AUTO 18004KT 10SM CLR 28/25 A2980 RMK AO2 T02870251,2024-08-08T01:35:00Z,28.7,25.1,10+,29.80
KBYL,36.7954,-84.2013,0,0,0.0,KBYL 080135Z AUTO 00000KT 10SM CLR 24/22 A2981 RMK AO1,2024-08-08T01:35:00Z,24,22,10+,29.81
KBXK,33.4178,-112.688,170,8,9.21,KBXK 080135Z AUTO 17008KT 10SM CLR 38/17 A2982 RMK A01,2024-08-08T01:35:00Z,38,17,10+,29.82
KBXA,30.8104,-89.8627,0,0,0.0,KBXA 080135Z AUTO 00000KT 10SM CLR 29/M03 A2976 RMK AO2 T02881032,2024-08-08T01:35:00Z,28.8,-3.2,10+,29.76
KBWW,46.1656,-103.296,350,9,10.36,KBWW 080135Z AUTO 35009KT 10SM SCT050 OVC060 14/14 A3020 RMK AO2,2024-08-08T01:35:00Z,14,14,10+,30.20
KBWP,46.2444,-96.6046,340,8,9.21,KBWP 080135Z AUTO 34008KT 10SM OVC060 18/18 A2996 RMK AO2,2024-08-08T01:35:00Z,18,18,10+,29.96
KBVU,35.9489,-114.863,140,14,16.11,KBVU 080135Z AUTO 14014KT 10SM CLR 35/16 A2983 RMK AO2,2024-08-08T01:35:00Z,35,16,10+,29.83
KBVS,48.4696,-122.419,0,0,0.0,KBVS 080135Z AUTO 00000G11KT 10SM CLR 23/16 A3004 RMK A01,2024-08-08T01:35:00Z,23,16,10+,30.04
KBVN,41.7301,-98.0546,150,3,3.45,KBVN 080135Z AUTO 15003KT 10SM SCT060 BKN100 25/22 A2992 RMK AO2 T02490221,2024-08-08T01:35:00Z,24.9,22.1,10+,29.92
KBVI,40.7735,-80.3825,80,3,3.45,KBVI 080135Z AUTO 08003KT 10SM OVC017 23/19 A2994 RMK AO2 T02300185,2024-08-08T01:35:00Z,23,18.5,10+,29.94
KBUU,42.6908,-88.308,0,0,0.0,KBUU 080135Z AUTO 00000KT 10SM CLR 16/15 A2998 RMK AO2 T01590146 PWINO,2024-08-08T01:35:00Z,15.9,14.6,10+,29.98
KBTN,45.8186,-97.7457,350,6,6.9,KBTN 080135Z AUTO 35006KT 10SM BKN034 OVC049 16/16 A3001 RMK AO2,2024-08-08T01:35:00Z,16,16,10+,30.01
KBTA,41.415,-96.109,60,3,3.45,KBTA 080135Z AUTO 06003KT 10SM CLR 24/19 A2992 RMK AO2 T02380190,2024-08-08T01:35:00Z,23.8,19,10+,29.92
KBRY,37.8079,-85.5011,340,3,3.45,KBRY 080135Z AUTO 34003KT 10SM BKN055 BKN065 26/24 A2980 RMK AO2 T02650244 $,2024-08-08T01:35:00Z,26.5,24.4,10+,29.80
KBRG,34.6477,-106.833,160,6,6.9,KBRG 080135Z AUTO 16006KT 10SM CLR 34/00 A3003 RMK AO2 LTG DSNT W T03351001,2024-08-08T01:35:00Z,33.5,-0.1,10+,30.03
KBQP,32.7583,-91.8793,50,3,3.45,KBQP 080135Z AUTO 05003KT 10SM CLR 29/23 A2980 RMK AO2 T02870230,2024-08-08T01:35:00Z,28.7,23,10+,29.80
KBQK,31.2567,-81.4754,260,6,6.9,KBQK 080135Z AUTO 26006KT 10SM SCT110 25/23 A2961 RMK AO2 LTG DSNT S T02470234,2024-08-08T01:35:00Z,24.7,23.4,10+,29.61
KBPG,32.2097,-101.525,100,4,4.6,KBPG 080135Z AUTO 10004KT 10SM CLR 37/09 A2985 RMK AO2 T03700087,2024-08-08T01:35:00Z,37,8.7,10+,29.85
KBPC,35.8913,-101.027,,,,KBPC 080135Z AUTO 10SM CLR 35/08 A2985 RMK AO2,2024-08-08T01:35:00Z,35,8,10+,29.85
KBOW,27.9471,-81.7811,220,6,6.9,KBOW 080135Z AUTO 22006KT 10SM CLR 28/26 A2974 RMK AO2 PWINO,2024-08-08T01:35:00Z,28,26,10+,29.74
KBNW,42.0486,-93.8486,140,6,6.9,KBNW 080135Z AUTO 14006KT CLR 21/18 A2992 RMK AO2,2024-08-08T01:35:00Z,21,18,,29.92
KBNL,33.2601,-81.387,350,13,14.96,KBNL 080135Z AUTO 35013G21KT 10SM BKN045 BKN055 BKN075 27/22 A2960 RMK AO2,2024-08-08T01:35:00Z,27,22,10+,29.60
KBMT,30.0686,-94.2155,220,4,4.6,KBMT 080135Z AUTO 22004KT 10SM CLR 30/24 A2979 RMK AO2 T02950240,2024-08-08T01:35:00Z,29.5,24,10+,29.79
KBMC,41.5463,-112.06,110,4,4.6,KBMC 080135Z AUTO 11004KT 10SM CLR 34/M06 A3000 RMK AO1 T03361059,2024-08-08T01:35:00Z,33.6,-5.9,10+,30.00
KBKX,44.3075,-96.8183,340,7,8.06,KBKX 080135Z AUTO 34007KT 10SM FEW025 BKN031 21/18 A2997 RMK AO2,2024-08-08T01:35:00Z,21,18,10+,29.97
KBKS,27.2064,-98.1216,120,8,9.21,KBKS 080135Z AUTO 12008KT 10SM CLR 31/25 A2976 RMK AO2 SLP039 T03140250 $,2024-08-08T01:35:00Z,31.4,25,10+,29.76
KBKN,36.7431,-97.3479,100,7,8.06,KBKN 080135Z AUTO 10007KT 10SM CLR 32/19 A2979 RMK AO2,2024-08-08T01:35:00Z,32,19,10+,29.79
KBKD,32.7206,-98.8931,,,,KBKD 080135Z AUTO 10SM CLR 35/15 A2982 RMK AO2 T03540150,2024-08-08T01:35:00Z,35.4,15,10+,29.82
KBJJ,40.8732,-81.8886,40,5,5.75,KBJJ 080135Z AUTO 04005KT 10SM SCT023 OVC033 23/19 A2992 RMK AO2 T02280194,2024-08-08T01:35:00Z,22.8,19.4,10+,29.92
KBJI,47.5076,-94.9279,270,5,5.75,KBJI 080135Z AUTO 27005KT 10SM SCT060 BKN100 16/16 A2995 RMK AO2 T01630159,2024-08-08T01:35:00Z,16.3,15.9,10+,29.95
KBIJ,31.4,-84.8939,0,0,0.0,KBIJ 080135Z AUTO 00000KT 10SM CLR 26/23 A2969 RMK AO2,2024-08-08T01:35:00Z,26,23,10+,29.69
KBIE,40.3005,-96.7517,120,3,3.45,KBIE 080135Z AUTO 12003KT 10SM CLR 27/18 A2990 RMK AO2 T02710175,2024-08-08T01:35:00Z,27.1,17.5,10+,29.90
KBHC,31.712,-82.3902,0,0,0.0,KBHC 080135Z AUTO 00000KT 10SM SCT075 BKN090 25/23 A2964 RMK AO2 LTG DSNT SE,2024-08-08T01:35:00Z,25,23,10+,29.64
KBGF,35.174,-86.0678,350,5,5.75,KBGF 080135Z AUTO 35005KT 10SM SCT036 BKN044 27/24 A2978 RMK A01,2024-08-08T01:35:00Z,27,24,10+,29.78
KBGE,30.9709,-84.6344,270,5,5.75,KBGE 080135Z AUTO 27005KT 10SM CLR 28/24 A2968 RMK AO2 T02800238,2024-08-08T01:35:00Z,28,23.8,10+,29.68
KBFA,45.166,-84.924,0,0,0.0,KBFA 080135Z AUTO 00000KT 10SM CLR 19/17 A2997 RMK AO2,2024-08-08T01:35:00Z,19,17,10+,29.97
KBEC,37.694,-97.215,110,5,5.75,KBEC 080135Z AUTO 11005KT 10SM CLR 30/17 A2983 RMK AO2 T02990167,2024-08-08T01:35:00Z,29.9,16.7,10+,29.83
KBDU,40.0377,-105.227,180,8,9.21,KBDU 080135Z AUTO 18008G15KT 10SM CLR 27/08 A3010 RMK AO2,2024-08-08T01:35:00Z,27,8,10+,30.10
KBDN,44.1006,-121.198,350,8,9.21,KBDN 080135Z AUTO 35008KT 10SM CLR 30/M02 A3005 RMK AO2,2024-08-08T01:35:00Z,30,-2,10+,30.05
KBDH,45.1111,-95.1258,150,3,3.45,KBDH 080135Z AUTO 15003KT 10SM OVC022 20/19 A2991 RMK AO2,2024-08-08T01:35:00Z,20,19,10+,29.91
KBDG,37.587,-109.481,240,5,5.75,KBDG 080135Z AUTO 24005KT 5SM HZ 27/14 A3010 RMK AO2 T02650136 $,2024-08-08T01:35:00Z,26.5,13.6,5,30.10
KBCK,44.2499,-90.85,0,0,0.0,KBCK 080135Z AUTO 00000KT 10SM OVC110 20/19 A2994 RMK AO2 T02020188,2024-08-08T01:35:00Z,20.2,18.8,10+,29.94
KBCB,37.208,-80.4127,90,6,6.9,KBCB 080135Z AUTO 09006KT 10SM SCT008 A2993 RMK AO2,2024-08-08T01:35:00Z,,,10+,29.93
KBBP,34.6228,-79.7354,10,10,11.51,KBBP 080135Z AUTO 01010G17KT 5SM RA OVC013 24/24 A2962 RMK AO2 P0007 LTG DSNT E,2024-08-08T01:35:00Z,24,24,5,29.62
KBBD,31.1766,-99.3229,110,5,5.75,KBBD 080135Z AUTO 11005KT 10SM CLR 35/12 A2982 RMK AO2,2024-08-08T01:35:00Z,35,12,10+,29.82
KBBB,45.331,-95.6469,320,9,10.36,KBBB 080135Z AUTO 32009KT 10SM BKN011 BKN021 OVC032 19/18 A2993 RMK AO2,2024-08-08T01:35:00Z,19,18,10+,29.93
KBAX,43.7774,-82.9828,0,0,0.0,KBAX 080135Z AUTO 00000KT 10SM CLR 16/14 A3001 RMK AO2 T01630137,2024-08-08T01:35:00Z,16.3,13.7,10+,30.01
KBAM,40.6048,-116.872,360,7,8.06,KBAM 080135Z AUTO 36007KT 10SM CLR 33/03 A3005 RMK AO1,2024-08-08T01:35:00Z,33,3,10+,30.05
KBAC,46.9419,-98.0179,310,6,6.9,KBAC 080135Z AUTO 31006KT 7SM CLR 16/14 A3003 RMK AO2,2024-08-08T01:35:00Z,16,14,7,30.03
KAZE,31.8792,-82.6454,0,0,0.0,KAZE 080135Z AUTO 00000KT 10SM CLR 26/25 A2964 RMK AO2 T02560250,2024-08-08T01:35:00Z,25.6,25,10+,29.64
KAZC,36.959,-113.013,270,10,11.51,KAZC 080135Z AUTO 27010KT 10SM CLR 37/12 A3010 RMK AO2 LTG DSNT SE,2024-08-08T01:35:00Z,37,12,10+,30.10
KAYS,31.2466,-82.4014,0,0,0.0,KAYS 080135Z AUTO 00000KT 10SM SCT055 BKN075 BKN095 A2965 RMK AO2 LTG DSNT SE,2024-08-08T01:35:00Z,,,10+,29.65
KAXX,36.422,-105.29,350,5,5.75,KAXX 080135Z AUTO 35005KT 10SM CLR 16/10 A3037 RMK AO2 T01630097,2024-08-08T01:35:00Z,16.3,9.7,10+,30.37
KAXV,40.4959,-84.2929,40,6,6.9,KAXV 080135Z AUTO 04006KT 10SM OVC029 21/17 A2991 RMK AO2,2024-08-08T01:35:00Z,21,17,10+,29.91
KAXS,34.6963,-99.3402,130,9,10.36,KAXS 080135Z AUTO 13009KT 10SM CLR 37/13 A2980 RMK AO2,2024-08-08T01:35:00Z,37,13,10+,29.80
KAXA,43.0796,-94.2723,180,4,4.6,KAXA 080135Z AUTO 18004KT 8SM BKN039 22/19 A2993 RMK A01,2024-08-08T01:35:00Z,22,19,8,29.93
KAWG,41.2749,-91.6746,0,0,0.0,KAWG 080135Z AUTO 00000KT 10SM CLR 21/18 A2993 RMK AO2,2024-08-08T01:35:00Z,21,18,10+,29.93
KAVQ,32.4112,-111.216,320,5,5.75,KAVQ 080135Z AUTO 32005KT 10SM CLR 33/18 A2993 RMK AO2 LTG DSNT S AND SW,2024-08-08T01:35:00Z,33,18,10+,29.93
KAVK,36.7765,-98.6724,140,14,16.11,KAVK 080135Z AUTO 14014KT 10SM CLR 37/17 A2976 RMK AO2,2024-08-08T01:35:00Z,37,17,10+,29.76
KAVC,36.6854,-78.0523,0,0,0.0,KAVC 080135Z AUTO 00000KT 7SM SCT014 BKN022 BKN029 25/25 A2989 RMK AO2 T02480246,2024-08-08T01:35:00Z,24.8,24.6,7,29.89
KAUN,38.9553,-121.087,190,6,6.9,KAUN 080135Z AUTO 19006KT 10SM CLR 36/M03 A2992 RMK A01,2024-08-08T01:35:00Z,36,-3,10+,29.92
KAUM,43.6688,-92.9321,0,0,0.0,KAUM 080135Z AUTO 00000KT 10SM OVC100 21/18 A2995 RMK AO2,2024-08-08T01:35:00Z,21,18,10+,29.95
KAUH,40.8966,-97.9974,120,4,4.6,KAUH 080135Z AUTO 12004KT 10SM CLR 23/20 A2993 RMK AO2 T02270201,2024-08-08T01:35:00Z,22.7,20.1,10+,29.93
KATS,32.8524,-104.464,130,8,9.21,KATS 080135Z AUTO 13008KT 10SM CLR 35/05 A2993 RMK AO2,2024-08-08T01:35:00Z,35,5,10+,29.93
KATA,33.1017,-94.1937,0,0,0.0,KATA 080135Z AUTO 00000KT 10SM CLR 28/27 A2974 RMK AO2 SLP971 T02810266 $,2024-08-08T01:35:00Z,28.1,26.6,10+,29.74
KASW,41.274,-85.842,110,3,3.45,KASW 080135Z AUTO 11003KT 10SM OVC046 21/16 A2995 RMK AO2 T02140160,2024-08-08T01:35:00Z,21.4,16,10+,29.95
KASN,33.569,-86.0519,110,1,1.15,KASN 080135Z AUTO 11001KT 10SM FEW060 FEW110 28/26 A2971 RMK AO2,2024-08-08T01:35:00Z,28,26,10+,29.71
KASL,32.5207,-94.3066,0,0,0.0,KASL 080135Z AUTO 00000KT 8SM CLR 28/27 A2976 RMK AO2 T02840268 $,2024-08-08T01:35:00Z,28.4,26.8,8,29.76
KARW,32.4104,-80.6335,310,15,17.26,KARW 080135Z AUTO 31015G20KT 7SM BKN009 BKN016 OVC030 24/23 RMK AO2,2024-08-08T01:35:00Z,24,23,7,
KARM,29.2515,-96.1508,170,5,5.75,KARM 080135Z AUTO 17005KT 10SM CLR 30/25 A2979 RMK AO2 T02980248 TSNO,2024-08-08T01:35:00Z,29.8,24.8,10+,29.79
KAQX,32.9941,-81.271,330,8,9.21,KAQX 080135Z AUTO 33008KT 300V360 9SM FEW020 OVC029 26/23 A2958 RMK AO2 TSNO,2024-08-08T01:35:00Z,26,23,9,29.58
KAQO,30.7873,-98.6608,0,0,0.0,KAQO 080135Z AUTO 00000KT 10SM CLR 33/17 A2978 RMK AO2,2024-08-08T01:35:00Z,33,17,10+,29.78
KAPY,26.969,-99.249,100,5,5.75,KAPY 080135Z AUTO 10005KT 10SM CLR 34/16 A2977 RMK AO2 T03420163 TSNO,2024-08-08T01:35:00Z,34.2,16.3,10+,29.77
KANW,42.5748,-99.9984,20,13,14.96,KANW 080135Z AUTO 02013G19KT 10SM BKN085 25/17 A3003 RMK AO2 T02450173 PWINO,2024-08-08T01:35:00Z,24.5,17.3,10+,30.03
KANQ,41.6404,-85.0852,0,0,0.0,KANQ 080135Z AUTO 00000KT 10SM CLR 18/17 A2996 RMK AO2,2024-08-08T01:35:00Z,18,17,10+,29.96
KANK,38.538,-106.049,230,7,8.06,KANK 080135Z AUTO 23007KT 10SM SCT200 17/13 A3033 RMK AO2 T01710131 $,2024-08-08T01:35:00Z,17.1,13.1,10+,30.33
KALX,32.916,-85.964,270,3,3.45,KALX 080135Z AUTO 27003KT 10SM CLR 28/24 A2972 RMK AO2 T02800238,2024-08-08T01:35:00Z,28,23.8,10+,29.72
KALM,32.8351,-105.994,250,7,8.06,KALM 080135Z AUTO 25007KT 10SM CLR 35/06 A2996 RMK AO2,2024-08-08T01:35:00Z,35,6,10+,29.96
KAJR,34.5006,-83.5519,20,3,3.45,KAJR 080135Z AUTO 02003KT 10SM BKN050 OVC060 25/22 A2979 RMK AO2 T02520215,2024-08-08T01:35:00Z,25.2,21.5,10+,29.79
KAJG,38.6093,-87.7251,310,4,4.6,KAJG 080135Z AUTO 31004KT 10SM CLR 22/21 A2986 RMK AO2 T02210212,2024-08-08T01:35:00Z,22.1,21.2,10+,29.86
KAIT,46.5483,-93.6754,0,0,0.0,KAIT 080135Z AUTO 00000KT 10SM -DZ SCT020 OVC026 16/16 A2993 RMK AO2,2024-08-08T01:35:00Z,16,16,10+,29.93
KAIO,41.4059,-95.0465,0,0,0.0,KAIO 080135Z AUTO 00000KT 7SM CLR 23/21 A2991 RMK AO2,2024-08-08T01:35:00Z,23,21,7,29.91
KAIG,45.1566,-89.1115,140,3,3.45,KAIG 080135Z AUTO 14003KT 10SM SCT046 BKN050 18/15 A2998 RMK AO2 T01810147,2024-08-08T01:35:00Z,18.1,14.7,10+,29.98
KAHQ,41.241,-96.594,100,3,3.45,KAHQ 080135Z AUTO 10003KT 10SM BKN110 24/20 A2992 RMK AO2 T02350200,2024-08-08T01:35:00Z,23.5,20,10+,29.92
KAGO,33.2266,-93.2154,0,0,0.0,KAGO 080135Z AUTO 00000KT 10SM FEW055 28/26 A2976 RMK A01,2024-08-08T01:35:00Z,28,26,10+,29.76
KAGI,27.5461,-92.4434,320,5,5.75,KAGI 080135Z AUTO 32005KT 10SM CLR 31/23 A2982 RMK AO2 T03150233,2024-08-08T01:35:00Z,31.5,23.3,10+,29.82
KAFO,42.7139,-110.944,350,5,5.75,KAFO 080135Z AUTO 35005KT 10SM CLR 21/06 A3019 RMK AO2,2024-08-08T01:35:00Z,21,6,10+,30.19
KAFK,40.6065,-95.8635,120,3,3.45,KAFK 080135Z AUTO 12003KT 10SM CLR 24/18 A2992 RMK AO2 T02350180,2024-08-08T01:35:00Z,23.5,18,10+,29.92
KAEJ,38.8116,-106.121,,,,KAEJ 080135Z AUTO 10SM CLR 18/11 A3038 RMK AO2 LTG DSNT W AND NW T01750107,2024-08-08T01:35:00Z,17.5,10.7,10+,30.38
KADU,41.6993,-94.9204,0,0,0.0,KADU 080135Z AUTO 00000KT 10SM SCT045 SCT060 BKN070 22/19 A2993 RMK AO2 PWINO,2024-08-08T01:35:00Z,22,19,10+,29.93
KADT,39.8401,-101.045,70,10,11.51,KADT 080135Z AUTO 07010KT 10SM CLR 30/14 A2999 RMK AO2 LTG DSNT W T02980142,2024-08-08T01:35:00Z,29.8,14.2,10+,29.99
KADH,34.8021,-96.6701,60,3,3.45,KADH 080135Z AUTO 06003KT 10SM CLR 33/22 A2982 RMK AO2,2024-08-08T01:35:00Z,33,22,10+,29.82
KADC,46.4502,-95.2135,340,6,6.9,KADC 080135Z AUTO 34006KT 10SM OVC025 17/16 A2995 RMK AO2,2024-08-08T01:35:00Z,17,16,10+,29.95
KACQ,44.0702,-93.5535,0,0,0.0,KACQ 080135Z AUTO 00000KT 10SM OVC048 20/18 A2995 RMK AO2,2024-08-08T01:35:00Z,20,18,10+,29.95
KACP,30.7469,-92.687,0,0,0.0,KACP 080135Z AUTO 00000KT 10SM CLR 30/19 A2978 RMK AO2,2024-08-08T01:35:00Z,30,19,10+,29.78
KACJ,32.1106,-84.1841,0,0,0.0,KACJ 080135Z AUTO 00000KT 9SM CLR 29/24 A2967 RMK AO2 T02910236 $,2024-08-08T01:35:00Z,29.1,23.6,9,29.67
KACB,44.9867,-85.2022,0,0,0.0,KACB 080135Z AUTO 00000KT 10SM CLR 19/14 A2998 RMK AO2 T01900139,2024-08-08T01:35:00Z,19,13.9,10+,29.98
KAAS,37.3569,-85.3151,0,0,0.0,KAAS 080135Z AUTO 00000KT 10SM CLR 25/22 A2981 RMK AO1,2024-08-08T01:35:00Z,25,22,10+,29.81
KAAA,40.1584,-89.339,10,3,3.45,KAAA 080135Z AUTO 01003KT 10SM OVC050 22/20 A2992 RMK AO2 T02240198,2024-08-08T01:35:00Z,22.4,19.8,10+,29.92
KA39,32.9875,-111.922,0,0,0.0,KA39 080135Z AUTO 00000KT 10SM BKN100 OVC120 36/18 A2989 RMK AO2,2024-08-08T01:35:00Z,36,18,10+,29.89
K9Y1,47.3941,-102.773,350,6,6.9,K9Y1 080135Z AUTO 35006KT 10SM SCT110 17/07 A3016 RMK AO2,2024-08-08T01:35:00Z,17,7,10+,30.16
K9V9,43.7653,-99.3163,10,10,11.51,K9V9 080135Z AUTO 01010KT 10SM SCT035 SCT045 BKN110 23/18 A3002 RMK AO2 T02250178,2024-08-08T01:35:00Z,22.5,17.8,10+,30.02
K9S9,45.4551,-119.686,20,9,10.36,K9S9 080135Z AUTO 02009KT 10SM CLR 31/06 A3002 RMK AO2,2024-08-08T01:35:00Z,31,6,10+,30.02
K9MN,44.0198,-92.4829,120,3,3.45,K9MN 080135Z AUTO 12003KT 10SM OVC090 21/14 A2995 RMK AO1 T02100141,2024-08-08T01:35:00Z,21,14.1,10+,29.95
K9A5,34.6846,-85.2899,0,0,0.0,K9A5 080135Z AUTO 00000KT 10SM BKN110 28/22 A2975 RMK AO2 T02790221,2024-08-08T01:35:00Z,27.9,22.1,10+,29.75
K96D,48.9402,-97.9053,330,9,10.36,K96D 080135Z AUTO 33009G15KT 10SM CLR 16/07 A3001 RMK AO2,2024-08-08T01:35:00Z,16,7,10+,30.01
K8W2,38.6554,-78.7083,0,0,0.0,K8W2 080135Z AUTO 00000KT 10SM SCT032 OVC065 27/21 A2989 RMK AO1 T02700211,2024-08-08T01:35:00Z,27,21.1,10+,29.89
K8V7,37.4547,-102.619,280,16,18.41,K8V7 080135Z AUTO 28016KT 6SM HZ FEW049 SCT070 BKN120 33/08 A2996 RMK AO2 LTG DSNT SW-N,2024-08-08T01:35:00Z,33,8,6,29.96
K8T6,28.3656,-98.1174,130,11,12.66,K8T6 080135Z AUTO 13011G16KT 9SM CLR 33/23 A2975 RMK AO2,2024-08-08T01:35:00Z,33,23,9,29.75
K8B0,44.99,-70.6624,0,0,0.0,K8B0 080135Z AUTO 00000KT 10SM CLR 15/11 A3012 RMK AO2,2024-08-08T01:35:00Z,15,11,10+,30.12
K8A3,36.4164,-85.3061,340,4,4.6,K8A3 080135Z AUTO 34004KT 8SM FEW024 SCT030 BKN065 25/23 A2981 RMK A01,2024-08-08T01:35:00Z,25,23,8,29.81
K8A0,34.2316,-86.2481,330,5,5.75,K8A0 080135Z AUTO 33005KT 10SM CLR 29/23 A2976 RMK AO2,2024-08-08T01:35:00Z,29,23,10+,29.76
K82V,41.151,-104.129,70,4,4.6,K82V 080135Z AUTO 07004KT 10SM 20/13 A3012 RMK AO2,2024-08-08T01:35:00Z,20,13,10+,30.12
K82C,43.8385,-90.1345,0,0,0.0,K82C 080135Z AUTO 00000KT 10SM CLR 22/16 A2995 RMK AO2 T02150156,2024-08-08T01:35:00Z,21.5,15.6,10+,29.95
K81R,31.2321,-98.7154,90,7,8.06,K81R 080135Z AUTO 09007KT 10SM CLR 35/16 A2982 RMK AO2 T03460158,2024-08-08T01:35:00Z,34.6,15.8,10+,29.82
K7W4,37.9667,-77.7453,110,3,3.45,K7W4 080135Z AUTO 11003KT 10SM SCT012 BKN024 BKN030 25/23 A2988 RMK AO1 T02500233,2024-08-08T01:35:00Z,25,23.3,10+,29.88
K7L2,46.219,-100.245,330,5,5.75,K7L2 080135Z AUTO 33005KT 8SM FEW043 FEW050 OVC110 18/13 A3011 RMK AO2,2024-08-08T01:35:00Z,18,13,8,30.11
K7BM,38.799,-106.219,130,3,3.45,K7BM 080135Z AUTO 13003KT 10SM SCT120 15/07 A3051 RMK AO2 LTG DSNT N S AND NW,2024-08-08T01:35:00Z,15,7,10+,30.51
K79S,47.845,-110.636,140,5,5.75,K79S 080135Z AUTO 14005KT 10SM FEW035 SCT048 BKN060 17/14 A3025 RMK AO2 T01730135,2024-08-08T01:35:00Z,17.3,13.5,10+,30.25
K77S,43.9324,-123.006,340,12,13.81,K77S 080135Z AUTO 34012KT 10SM CLR 30/11 A2993 RMK A01,2024-08-08T01:35:00Z,30,11,10+,29.93
K74V,40.2799,-110.05,160,5,5.75,K74V 080135Z AUTO 16005KT 7SM CLR 31/10 A3006 RMK AO2,2024-08-08T01:35:00Z,31,10,7,30.06
K6S2,43.9838,-124.11,340,11,12.66,K6S2 080135Z AUTO 34011G17KT 10SM CLR 16/15 A2997 RMK AO2,2024-08-08T01:35:00Z,16,15,10+,29.97
K6S0,45.8063,-109.974,120,6,6.9,K6S0 080135Z AUTO 12006KT 10SM FEW013 BKN044 OVC050 16/13 A3029 RMK A01,2024-08-08T01:35:00Z,16,13,10+,30.29
K6R3,30.358,-95.007,0,0,0.0,K6R3 080135Z AUTO 00000KT 10SM CLR 29/26 A2980 RMK AO2 T02890261,2024-08-08T01:35:00Z,28.9,26.1,10+,29.80
K6P9,32.4294,-98.5959,100,6,6.9,K6P9 080135Z AUTO 10006KT 10SM CLR A2985 RMK AO2,2024-08-08T01:35:00Z,,,10+,29.85
K6L4,37.8553,-81.915,60,7,8.06,K6L4 080135Z AUTO 06007KT 030V100 10SM FEW044 FEW050 SCT090 26/21 A2983 RMK AO2,2024-08-08T01:35:00Z,26,21,10+,29.83
K6B9,42.9141,-76.4428,0,0,0.0,K6B9 080135Z AUTO 00000KT 10SM FEW060 17/17 A3004 RMK AO2,2024-08-08T01:35:00Z,17,17,10+,30.04
K6B0,43.9888,-73.0952,0,0,0.0,K6B0 080135Z AUTO 00000KT 10SM CLR 16/14 A3007 RMK AO2 T01590138 TSNO,2024-08-08T01:35:00Z,15.9,13.8,10+,30.07
K6A2,33.227,-84.275,320,5,5.75,K6A2 080135Z AUTO 32005KT 10SM CLR 28/20 A2972 RMK AO2,2024-08-08T01:35:00Z,28,20,10+,29.72
K6A1,32.5733,-84.247,70,5,5.75,K6A1 080135Z AUTO 07005KT 10SM CLR 29/22 A2971 RMK AO2 T02920217,2024-08-08T01:35:00Z,29.2,21.7,10+,29.71
K66R,29.6382,-96.5137,0,0,0.0,K66R 080135Z AUTO 00000KT 10SM CLR 30/24 A2979 RMK AO2 T03010238,2024-08-08T01:35:00Z,30.1,23.8,10+,29.79
K65S,48.7255,-116.293,0,0,0.0,K65S 080135Z AUTO 00000KT 10SM CLR 27/07 A3008 RMK AO2,2024-08-08T01:35:00Z,27,7,10+,30.08
K63S,48.544,-117.884,0,0,0.0,K63S 080135Z 00000KT 10SM CLR 29/02 A3002 RMK A01 EAST/WEST TURF RUNWAY CLOSED FOR FIRE FIGHTING HELICOPTER USE,2024-08-08T01:35:00Z,29,2,10+,30.02
K60R,30.368,-96.113,130,3,3.45,K60R 080135Z AUTO 13003KT 3SM -RA CLR 30/25 A2976 RMK AO2 RAB0110 SLP994 P0000 T03050247 $,2024-08-08T01:35:00Z,30.5,24.7,3,29.76
K5T9,28.8568,-100.516,80,3,3.45,K5T9 080135Z AUTO 08003KT 10SM CLR 37/15 A2973 RMK A01,2024-08-08T01:35:00Z,37,15,10+,29.73
K5SM,39.426,-107.38,110,3,3.45,K5SM 080135Z AUTO 11003KT 10SM SCT085 OVC095 11/05 A3063 RMK AO2 LTG DSNT SE AND S,2024-08-08T01:35:00Z,11,5,10+,30.63
K5R8,30.4368,-93.4696,0,0,0.0,K5R8 080135Z AUTO 00000KT 10SM CLR 28/23 A2979 RMK AO2 T02770233,2024-08-08T01:35:00Z,27.7,23.3,10+,29.79
K5H4,47.7906,-99.9346,340,9,10.36,K5H4 080135Z AUTO 34009G16KT 10SM CLR 16/07 A3010 RMK AO2,2024-08-08T01:35:00Z,16,7,10+,30.10
K5C1,29.7267,-98.6964,0,0,0.0,K5C1 080135Z AUTO 00000KT 10SM CLR 31/20 A2982 RMK AO1,2024-08-08T01:35:00Z,31,20,10+,29.82
K57C,42.7971,-88.3655,0,0,0.0,K57C 080135Z AUTO 00000KT 10SM CLR 17/14 A2997 RMK AO2 T01710136,2024-08-08T01:35:00Z,17.1,13.6,10+,29.97
K54J,30.7312,-86.1542,310,5,5.75,K54J 080135Z AUTO 31005KT 10SM CLR 29/22 A2973 RMK AO2 T02900224,2024-08-08T01:35:00Z,29,22.4,10+,29.73
K54A,26.8601,-82.2468,270,7,8.06,K54A 080135Z AUTO 27007KT 10SM BKN018 29/12 A2975 RMK AO2,2024-08-08T01:35:00Z,29,12,10+,29.75
K4V1,37.6941,-104.788,260,12,13.81,K4V1 080135Z AUTO 26012KT 10SM SCT120 25/10 A3018 RMK AO2,2024-08-08T01:35:00Z,25,10,10+,30.18
K4V0,40.0956,-108.762,180,13,14.96,K4V0 080135Z AUTO 18013KT 10SM CLR 27/09 A3007 RMK AO2 T02700088,2024-08-08T01:35:00Z,27,8.8,10+,30.07
K4S2,45.6746,-121.535,70,3,3.45,K4S2 080135Z AUTO 07003KT 10SM CLR 29/15 A2993 RMK AO2,2024-08-08T01:35:00Z,29,15,10+,29.93
K4S1,42.4161,-124.426,280,4,4.6,K4S1 080135Z AUTO 28004KT 3SM HZ CLR 13/11 A2991 RMK AO2,2024-08-08T01:35:00Z,13,11,3,29.91
K4R5,46.7887,-90.7559,270,4,4.6,K4R5 080135Z AUTO 27004KT 10SM -RA SCT048 SCT095 OVC120 17/15 A2993 RMK AO2 T01680151,2024-08-08T01:35:00Z,16.8,15.1,10+,29.93
K4O4,33.9133,-94.8546,0,0,0.0,K4O4 080135Z AUTO 00000KT 10SM CLR 32/23 A2977 RMK AO2,2024-08-08T01:35:00Z,32,23,10+,29.77
K4M9,36.404,-90.647,340,5,5.75,K4M9 080135Z AUTO 34005KT 10SM CLR 22/22 A2987 RMK A01,2024-08-08T01:35:00Z,22,22,10+,29.87
K4I3,40.3268,-82.5201,30,6,6.9,K4I3 080135Z AUTO 03006KT 10SM BKN024 22/19 A2992 RMK AO2,2024-08-08T01:35:00Z,22,19,10+,29.92
K4F2,32.18,-94.2976,0,0,0.0,K4F2 080135Z AUTO 00000KT 10SM CLR 28/25 A2978 RMK AO2 T02780248,2024-08-08T01:35:00Z,27.8,24.8,10+,29.78
K4BM,39.05,-105.514,200,3,3.45,K4BM 080135Z AUTO 20003KT 10SM VCTS SCT080 BKN110 13/05 A3065 RMK AO2 LTG DSNT N SE AND S,2024-08-08T01:35:00Z,13,5,10+,30.65
K4B8,41.69,-72.865,0,0,0.0,K4B8 080135Z AUTO 00000KT 10SM SCT110 BKN140 18/18 A3008 RMK AO2 T01810180,2024-08-08T01:35:00Z,18.1,18,10+,30.08
K4A9,34.4759,-85.717,0,0,0.0,K4A9 080135Z AUTO 00000KT 10SM CLR 26/23 A2974 RMK AO2 T02630235,2024-08-08T01:35:00Z,26.3,23.5,10+,29.74
K4A6,34.688,-86.006,VRB,3,3.45,K4A6 080135Z AUTO VRB03KT 10SM CLR 31/26 A2974 RMK AO2,2024-08-08T01:35:00Z,31,26,10+,29.74
K49B,44.4284,-103.38,330,9,10.36,K49B 080135Z AUTO 33009KT 10SM OVC036 20/13 A3016 RMK AO2,2024-08-08T01:35:00Z,20,13,10+,30.16
K49A,34.6301,-84.5271,340,3,3.45,K49A 080135Z AUTO 34003KT 10SM CLR 25/24 A2977 RMK AO2,2024-08-08T01:35:00Z,25,24,10+,29.77
K48I,38.684,-80.649,0,0,0.0,K48I 080135Z AUTO 00000KT 7SM -RA SCT090 OVC110 23/22 A2985 RMK AO2,2024-08-08T01:35:00Z,23,22,7,29.85
K48A,32.3993,-83.2785,0,0,0.0,K48A 080135Z AUTO 00000KT 10SM SCT075 SCT080 28/24 A2967 RMK AO2 T02810240,2024-08-08T01:35:00Z,28.1,24,10+,29.67
K46U,43.181,-111.037,250,4,4.6,K46U 080135Z AUTO 25004KT 6SM HZ CLR 25/03 A3015 RMK A01,2024-08-08T01:35:00Z,25,3,6,30.15
K46D,47.4509,-99.1479,310,10,11.51,K46D 080135Z AUTO 31010KT 10SM BKN016 OVC047 17/11 A3006 RMK A01,2024-08-08T01:35:00Z,17,11,10+,30.06
K42J,29.844,-82.05,240,6,6.9,K42J 080135Z AUTO 24006KT 10SM CLR 28/27 A2966 RMK A01,2024-08-08T01:35:00Z,28,27,10+,29.66
K42A,36.0713,-91.8287,30,3,3.45,K42A 080135Z AUTO 03003KT 9SM CLR 21/20 A2988 RMK AO2,2024-08-08T01:35:00Z,21,20,9,29.88
K41U,39.3323,-111.614,10,9,10.36,K41U 080135Z AUTO 01009KT 10SM CLR 30/08 A3008 RMK AO1 T02990079,2024-08-08T01:35:00Z,29.9,7.9,10+,30.08
K40U,40.986,-109.678,310,15,17.26,K40U 080135Z AUTO 31015KT 10SM CLR 28/01 A3016 RMK AO2 T02850012,2024-08-08T01:35:00Z,28.5,1.2,10+,30.16
K3W7,47.9219,-119.077,VRB,5,5.75,K3W7 080135Z AUTO VRB05KT 10SM CLR 32/06 A2997 RMK AO2,2024-08-08T01:35:00Z,32,6,10+,29.97
K3T5,29.9064,-96.9478,140,4,4.6,K3T5 080135Z AUTO 14004KT 10SM CLR 31/23 A2976 RMK AO2 T03110235 $,2024-08-08T01:35:00Z,31.1,23.5,10+,29.76
K3S8,42.51,-123.388,320,9,10.36,K3S8 080135Z AUTO 32009KT 2 1/2SM HZ CLR 32/06 A2993 RMK AO2,2024-08-08T01:35:00Z,32,6,2.5,29.93
K3R7,30.2426,-92.6759,0,0,0.0,K3R7 080135Z AUTO 00000KT 10SM CLR 30/23 A2979 RMK AO2 T02970233,2024-08-08T01:35:00Z,29.7,23.3,10+,29.79
K3N8,47.26,-95.928,300,4,4.6,K3N8 080135Z AUTO 30004KT 10SM OVC060 17/16 A2997 RMK AO2 T01660160,2024-08-08T01:35:00Z,16.6,16,10+,29.97
K3LF,39.1605,-89.6742,360,5,5.75,K3LF 080135Z AUTO 36005KT 10SM BKN020 OVC026 22/19 A2992 RMK AO2 T02190185,2024-08-08T01:35:00Z,21.9,18.5,10+,29.92
K3L4,29.8,-92.804,250,8,9.21,K3L4 080135Z AUTO 25008KT 10SM CLR 31/29 A2977 RMK A01,2024-08-08T01:35:00Z,31,29,10+,29.77
K3K7,38.4566,-101.353,90,8,9.21,K3K7 080135Z AUTO 09008KT 10SM CLR 31/17 A2988 RMK AO2,2024-08-08T01:35:00Z,31,17,10+,29.88
K3K3,37.9988,-101.75,100,7,8.06,K3K3 080135Z AUTO 10007KT 5SM HZ 33/07 A2985 RMK AO2,2024-08-08T01:35:00Z,33,7,5,29.85
K3F3,32.0718,-93.7641,0,0,0.0,K3F3 080135Z AUTO 00000KT 10SM CLR 30/25 A2982 RMK AO2 T02980250,2024-08-08T01:35:00Z,29.8,25,10+,29.82
K3D2,45.1348,-87.1881,160,3,3.45,K3D2 080135Z AUTO 16003KT 10SM CLR 18/10 A2996 RMK AO2 T01800096,2024-08-08T01:35:00Z,18,9.6,10+,29.96
K36K,37.9707,-101.255,90,9,10.36,K36K 080135Z AUTO 09009KT 10SM CLR 31/18 A2988 RMK AO2,2024-08-08T01:35:00Z,31,18,10+,29.88
K35A,34.6849,-81.6421,20,10,11.51,K35A 080135Z AUTO 02010G15KT 10SM CLR 27/22 A2974 RMK A02 T02670224,2024-08-08T01:35:00Z,26.7,22.4,10+,29.74
K33N,39.218,-75.597,50,7,8.06,K33N 080135Z AUTO 05007KT 4SM BR OVC005 23/23 A2994 RMK A01,2024-08-08T01:35:00Z,23,23,4,29.94
K2V5,40.1,-102.241,360,11,12.66,K2V5 080135Z AUTO 36011KT 10SM VCTS SCT120 27/18 A3003 RMK AO2 LTG DSNT S AND SW,2024-08-08T01:35:00Z,27,18,10+,30.03
K2R9,28.8267,-97.8676,120,8,9.21,K2R9 080135Z AUTO 12008KT 10SM CLR 32/22 A2978 RMK AO2 T03250218,2024-08-08T01:35:00Z,32.5,21.8,10+,29.78
K2R2,39.7511,-86.4732,30,6,6.9,K2R2 080135Z AUTO 03006KT 10SM CLR 22/19 A2990 RMK AO2 T02220193 $,2024-08-08T01:35:00Z,22.2,19.3,10+,29.90
K2P2,45.388,-86.924,0,0,0.0,K2P2 080135Z AUTO 00000KT 10SM CLR 16/16 A2996 RMK AO2 T01630155,2024-08-08T01:35:00Z,16.3,15.5,10+,29.96
K2M8,35.276,-89.931,320,3,3.45,K2M8 080135Z AUTO 32003KT 10SM CLR 23/20 A2982 RMK AO2 T02300198 $,2024-08-08T01:35:00Z,23,19.8,10+,29.82
K2M2,35.2372,-87.2611,,,,K2M2 080135Z AUTO 10SM FEW028 OVC034 25/21 A2980 RMK A01,2024-08-08T01:35:00Z,25,21,10+,29.80
K2J9,30.5987,-84.555,270,5,5.75,K2J9 080135Z AUTO 27005KT 10SM CLR 27/24 A2970 RMK AO2,2024-08-08T01:35:00Z,27,24,10+,29.70
K2J5,32.8913,-81.9664,280,5,5.75,K2J5 080135Z AUTO 28005KT 10SM CLR 26/23 A2963 RMK AO2 T02620234,2024-08-08T01:35:00Z,26.2,23.4,10+,29.63
K2IS,26.739,-81.0528,220,7,8.06,K2IS 080135Z AUTO 22007KT 10SM CLR 27/24 A2978 RMK AO2 T02690238,2024-08-08T01:35:00Z,26.9,23.8,10+,29.78
K2I0,37.3582,-87.3977,340,5,5.75,K2I0 080135Z AUTO 34005KT 10SM CLR 23/20 A2985 RMK AO2 T02270196,2024-08-08T01:35:00Z,22.7,19.6,10+,29.85
K2G9,40.0401,-79.0158,90,6,6.9,K2G9 080135Z AUTO 09006KT 10SM OVC005 20/18 A2998 RMK AO2,2024-08-08T01:35:00Z,20,18,10+,29.98
K2G2,40.359,-80.7,80,10,11.51,K2G2 080135Z AUTO 08010KT 10SM FEW036 BKN047 OVC070 22/20 A2989 RMK A01,2024-08-08T01:35:00Z,22,20,10+,29.89
K2D5,46.1739,-98.083,330,4,4.6,K2D5 080135Z AUTO 33004KT 4SM HZ OVC046 17/ A3004 RMK AO2,2024-08-08T01:35:00Z,17,,4,30.04
K2C8,48.7838,-97.6297,,,,K2C8 080135Z AUTO 7SM CLR 17/08 A2999 RMK AO2,2024-08-08T01:35:00Z,17,8,7,29.99
K2A0,35.4817,-84.9322,0,0,0.0,K2A0 080135Z AUTO 00000KT 8SM CLR 25/25 A2973 RMK A01,2024-08-08T01:35:00Z,25,25,8,29.73
K28J,29.6602,-81.6918,240,4,4.6,K28J 080135Z AUTO 24004KT 10SM CLR 28/25 A2966 RMK AO2 LTG DSNT NE,2024-08-08T01:35:00Z,28,25,10+,29.66
K27K,38.239,-84.4336,0,0,0.0,K27K 080135Z AUTO 00000KT 10SM CLR 25/21 A2983 RMK AO1,2024-08-08T01:35:00Z,25,21,10+,29.83
K24J,30.299,-83.0226,0,0,0.0,K24J 080135Z AUTO 00000KT 10SM BKN055 29/26 A2966 RMK A01,2024-08-08T01:35:00Z,29,26,10+,29.66
K22N,40.8116,-75.7647,0,0,0.0,K22N 080135Z AUTO 00000KT 5SM -DZ BKN014 OVC021 18/17 A3005 RMK AO2,2024-08-08T01:35:00Z,18,17,5,30.05
K21D,45.0002,-92.8549,0,0,0.0,K21D 080135Z AUTO 00000KT 10SM SCT043 BKN048 OVC070 20/16 A2995 RMK AO2,2024-08-08T01:35:00Z,20,16,10+,29.95
K20V,40.0563,-106.374,200,12,13.81,K20V 080135Z AUTO 20012G21KT 10SM SCT070 SCT080 SCT120 16/10 A3035 RMK AO2,2024-08-08T01:35:00Z,16,10,10+,30.35
K20U,46.9251,-103.985,320,6,6.9,K20U 080135Z AUTO 32006KT 7SM 15/12 A3021 RMK AO2,2024-08-08T01:35:00Z,15,12,7,30.21
K1V6,38.4256,-105.105,300,14,16.11,K1V6 080135Z AUTO 30014KT 10SM SCT120 27/12 A3013 RMK AO2,2024-08-08T01:35:00Z,27,12,10+,30.13
K1U7,42.252,-111.337,330,5,5.75,K1U7 080135Z AUTO 33005KT 9SM CLR 23/07 A3015 RMK A01,2024-08-08T01:35:00Z,23,7,9,30.15
K1S5,46.3288,-119.974,0,0,0.0,K1S5 080135Z AUTO 00000KT 10SM CLR 32/14 A2995 RMK AO2 T03160139,2024-08-08T01:35:00Z,31.6,13.9,10+,29.95
K1R8,30.8691,-87.8184,0,0,0.0,K1R8 080135Z AUTO 00000KT 10SM CLR 28/25 A2973 RMK AO2,2024-08-08T01:35:00Z,28,25,10+,29.73
K1R7,31.6057,-90.4072,0,0,0.0,K1R7 080135Z AUTO 00000KT 10SM CLR 28/23 A2980 RMK A01 TSNO,2024-08-08T01:35:00Z,28,23,10+,29.80
K1P1,43.7771,-71.756,0,0,0.0,K1P1 080135Z AUTO 00000KT 7SM CLR 16/15 A3007 RMK AO2 T01620152,2024-08-08T01:35:00Z,16.2,15.2,7,30.07
K1M5,36.5956,-86.478,340,4,4.6,K1M5 080135Z AUTO 34004KT 8SM BKN033 OVC044 24/23 A2981 RMK A01,2024-08-08T01:35:00Z,24,23,8,29.81
K1K8,36.543,-95.012,0,0,0.0,K1K8 080135Z AUTO 00000KT 10SM CLR 28/21 A2982 RMK AO2,2024-08-08T01:35:00Z,28,21,10+,29.82
K1H2,39.0712,-88.5293,310,3,3.45,K1H2 080135Z AUTO 31003KT 10SM SCT050 21/20 A2990 RMK AO2 T02100200,2024-08-08T01:35:00Z,21,20,10+,29.90
K1F0,34.1508,-97.1242,0,0,0.0,K1F0 080135Z AUTO 00000KT 10SM CLR 33/21 A2980 RMK AO2 T03290205,2024-08-08T01:35:00Z,32.9,20.5,10+,29.80
K1D8,44.86,-98.529,360,12,13.81,K1D8 080135Z AUTO 36012G17KT 10SM SCT043 BKN050 19/19 A3002 RMK AO2,2024-08-08T01:35:00Z,19,19,10+,30.02
K1D1,45.231,-96.566,340,16,18.41,K1D1 080135Z AUTO 34016G21KT 5SM BR SCT010 BKN014 OVC019 19/19 A2997 RMK AO2,2024-08-08T01:35:00Z,19,19,5,29.97
K1B9,42,-71.197,0,0,0.0,K1B9 080135Z AUTO 00000KT 10SM BKN120 17/16 A3007 RMK AO2 T01720162 $,2024-08-08T01:35:00Z,17.2,16.2,10+,30.07
K1A9,32.4374,-86.5098,0,0,0.0,K1A9 080135Z AUTO 00000KT 10SM SCT080 BKN090 29/25 A2970 RMK AO2 T02880253,2024-08-08T01:35:00Z,28.8,25.3,10+,29.70
K1A6,36.6087,-83.7369,0,0,0.0,K1A6 080135Z AUTO 00000KT 10SM SCT047 27/22 A2981 RMK AO2 T02690217,2024-08-08T01:35:00Z,26.9,21.7,10+,29.81
K19S,37.496,-100.834,110,8,9.21,K19S 080135Z AUTO 11008KT 10SM CLR 30/18 A2985 RMK AO2 T03050184,2024-08-08T01:35:00Z,30.5,18.4,10+,29.85
K18H,26.1283,-92.0333,320,7,8.06,K18H 080135Z AUTO 32007KT 10SM SCT026 32/25 A2981 RMK A01,2024-08-08T01:35:00Z,32,25,10+,29.81
K18A,34.3418,-83.1316,0,0,0.0,K18A 080135Z AUTO 00000KT 10SM BKN110 26/23 A2974 RMK AO2 T02630231,2024-08-08T01:35:00Z,26.3,23.1,10+,29.74
K17J,31.0038,-84.8794,0,0,0.0,K17J 080135Z AUTO 00000KT 10SM CLR 28/21 A2970 RMK AO2,2024-08-08T01:35:00Z,28,21,10+,29.70
K15M,34.7745,-88.1676,0,0,0.0,K15M 080135Z AUTO 00000KT 10SM CLR 23/21 A2980 RMK AO2 T02250213 $,2024-08-08T01:35:00Z,22.5,21.3,10+,29.80
K13K,37.8519,-96.2929,70,7,8.06,K13K 080135Z AUTO 07007KT 10SM CLR 27/17 A2987 RMK AO2 T02720172,2024-08-08T01:35:00Z,27.2,17.2,10+,29.87
K11R,30.2232,-96.3734,0,0,0.0,K11R 080135Z AUTO 00000KT 10SM CLR 32/24 A2979 RMK AO2 T03150237,2024-08-08T01:35:00Z,31.5,23.7,10+,29.79
K10U,41.953,-116.182,50,10,11.51,K10U 080135Z AUTO 05010G16KT 10SM CLR 27/00 A3013 RMK AO2,2024-08-08T01:35:00Z,27,0,10+,30.13
K10G,40.5357,-81.9531,60,5,5.75,K10G 080135Z AUTO 06005KT 10SM OVC024 21/20 A2992 RMK AO2,2024-08-08T01:35:00Z,21,20,10+,29.92
K0VG,36.6576,-83.2147,0,0,0.0,K0VG 080135Z AUTO 00000KT 10SM BKN048 BKN055 OVC075 26/24 A2981 RMK AO2,2024-08-08T01:35:00Z,26,24,10+,29.81
K0V4,37.1399,-79.0171,70,9,10.36,K0V4 080135Z AUTO 07009KT 10SM SCT007 BKN011 24/24 A2985 RMK AO1,2024-08-08T01:35:00Z,24,24,10+,29.85
K0S9,48.0554,-122.812,250,4,4.6,K0S9 080135Z AUTO 25004KT 10SM CLR 21/14 A3004 RMK AO2,2024-08-08T01:35:00Z,21,14,10+,30.04
K0R4,31.5637,-91.5098,0,0,0.0,K0R4 080135Z AUTO 00000KT 10SM CLR 28/25 A2980 RMK AO2 T02840247,2024-08-08T01:35:00Z,28.4,24.7,10+,29.80
K0E0,34.9837,-105.996,180,6,6.9,K0E0 080135Z AUTO 18006KT 10SM CLR 30/M01 A3013 RMK AO2 T03011011,2024-08-08T01:35:00Z,30.1,-1.1,10+,30.13
K0D8,44.989,-99.954,360,11,12.66,K0D8 080135Z AUTO 36011G16KT 10SM OVC040 18/15 A3008 RMK A01,2024-08-08T01:35:00Z,18,15,10+,30.08
K0CO,39.794,-105.764,320,8,9.21,K0CO 080135Z AUTO 32008G20KT 211V031 05/03 A3073 RMK AO2 PWINO,2024-08-08T01:35:00Z,5,3,,30.73
K0A9,36.3711,-82.1768,0,0,0.0,K0A9 080135Z AUTO 00000KT 10SM CLR 25/21 A2980 RMK AO2,2024-08-08T01:35:00Z,25,21,10+,29.80
K0A0,32.99,-106.967,220,9,10.36,K0A0 080135Z AUTO 22009KT 10SM CLR 33/09 A3000 RMK AO2,2024-08-08T01:35:00Z,33,9,10+,30.00
K08D,48.3018,-102.404,10,8,9.21,K08D 080135Z AUTO 01008KT 10SM CLR 15/07 A3017 RMK AO2,2024-08-08T01:35:00Z,15,7,10+,30.17
K06D,48.8821,-99.6217,320,8,9.21,K06D 080135Z AUTO 32008KT 10SM CLR 12/08 A3009 RMK AO2,2024-08-08T01:35:00Z,12,8,10+,30.09
K06C,41.9924,-88.1091,0,0,0.0,K06C 080135Z AUTO 00000KT 10SM CLR 20/14 A2995 RMK AO2 T02020142,2024-08-08T01:35:00Z,20.2,14.2,10+,29.95
K04W,46.0244,-92.8991,0,0,0.0,K04W 080135Z AUTO 00000KT 10SM SCT085 BKN110 16/16 A2994 RMK AO2,2024-08-08T01:35:00Z,16,16,10+,29.94
K04V,38.099,-106.17,260,5,5.75,K04V 080135Z AUTO 26005KT 10SM BKN095 OVC120 16/12 A3041 RMK AO2 LTG DSNT SW PWINO,2024-08-08T01:35:00Z,16,12,10+,30.41
K00U,45.7453,-107.661,10,13,14.96,K00U 080135Z AUTO 01013G18KT 10SM BKN041 OVC047 18/12 A3023 RMK A01,2024-08-08T01:35:00Z,18,12,10+,30.23
CYKL,54.803,-66.804,360,7,8.06,CYKL 080135Z AUTO 36007KT 320V030 9SM BKN021 BKN025 OVC031 09/07 A2984 RMK SLP124,2024-08-08T01:35:00Z,9,7,9,29.84
MMEP,21.418,-104.842,360,6,6.9,MMEP 080134Z 36006KT 8SM -RA SCT020 OVC250 21/20 A3005 RMK 8/407 -RA CONS,2024-08-08T01:34:00Z,21,20,8,30.05
KWWD,39.0108,-74.9079,50,8,9.21,KWWD 080134Z AUTO 05008KT 10SM SCT004 BKN009 OVC013 22/22 A2997 RMK AO2 CIG 008V012,2024-08-08T01:34:00Z,22,22,10+,29.97
KMVN,38.3284,-88.853,0,0,0.0,KMVN 080134Z AUTO 00000KT 10SM FEW015 OVC038 22/20 A2988 RMK AO2,2024-08-08T01:34:00Z,22,20,10+,29.88
KGVL,34.2721,-83.8305,30,7,8.06,KGVL 080134Z AUTO 03007KT 10SM TS BKN050 BKN090 OVC110 29/22 A2978 RMK AO2 LTG DSNT NE TSB28 T02890217,2024-08-08T01:34:00Z,28.9,21.7,10+,29.78
KCMY,43.9581,-90.7398,0,0,0.0,KCMY 080134Z AUTO 00000KT 9SM OVC120 19/19 A2993 RMK AO2 RAB20E34 SLP137,2024-08-08T01:34:00Z,19,19,9,29.93
CYLH,52.196,-87.936,110,6,6.9,CYLH 080134Z AUTO 11006KT 7SM -RA FEW008 SCT022 OVC130 15/14 A2990 RMK PCPN 1.5MM PAST HR SLP133 DENSITY ALT 1100FT,2024-08-08T01:34:00Z,15,14,7,29.90
PAPO,68.345,-166.807,310,4,4.6,PAPO 080133Z AUTO 31004KT 10SM SCT008 OVC018 06/03 A2968 RMK AO2 RAB14E32 P0000,2024-08-08T01:33:00Z,6,3,10+,29.68
KXVG,46.9942,-94.206,290,3,3.45,KXVG 080133Z AUTO 29003KT 4SM DZ SCT004 BKN009 OVC037 16/16 A2993 RMK AO2,2024-08-08T01:33:00Z,16,16,4,29.93
KUCP,41.0228,-80.4153,40,6,6.9,KUCP 080133Z AUTO 04006KT 10SM FEW021 OVC032 22/20 A2995 RMK AO2 PNO $,2024-08-08T01:33:00Z,22,20,10+,29.95
KPRC,34.6491,-112.422,210,9,10.36,KPRC 080133Z 21009KT 10SM CLR 24/14 A3013 RMK AO2 PK WND 19028/0058 LTG DSNT S AND SW TSE09 T02390139,2024-08-08T01:33:00Z,23.9,13.9,10+,30.13
KOWA,44.1191,-93.2569,120,4,4.6,KOWA 080133Z AUTO 12004KT 10SM OVC070 21/17 A2994 RMK AO2,2024-08-08T01:33:00Z,21,17,10+,29.94
KORB,48.0171,-92.8538,230,3,3.45,KORB 080133Z AUTO 23003KT 10SM 16/16 A2988 RMK AO2,2024-08-08T01:33:00Z,16,16,10+,29.88
KNYC,40.779,-73.9692,VRB,5,5.75,KNYC 080133Z AUTO VRB05KT 10SM FEW011 BKN022 OVC060 19/17 A3007 RMK AO2 T01940167 $,2024-08-08T01:33:00Z,19.4,16.7,10+,30.07
KILM,34.2668,-77.8999,110,16,18.41,KILM 080133Z 11016G30KT 5SM -RA BR FEW017 BKN041 OVC049 26/24 A2960 RMK AO2 PK WND 11030/0127 P0009 T02610239,2024-08-08T01:33:00Z,26.1,23.9,5,29.60
KFOZ,47.7832,-93.6533,270,3,3.45,KFOZ 080133Z AUTO 27003KT 10SM 18/17 A2996 RMK AO2,2024-08-08T01:33:00Z,18,17,10+,29.96
KETH,45.7828,-96.5461,350,10,11.51,KETH 080133Z AUTO 35010G18KT 10SM OVC050 18/16 A2998 RMK AO2,2024-08-08T01:33:00Z,18,16,10+,29.98
KDVP,43.9906,-95.781,340,5,5.75,KDVP 080133Z AUTO 34005KT 10SM OVC030 22/18 A2994 RMK AO2 T02160176,2024-08-08T01:33:00Z,21.6,17.6,10+,29.94
KCDD,48.2601,-92.4748,0,0,0.0,KCDD 080133Z AUTO 00000KT 10SM OVC041 17/16 A2991 RMK AO2,2024-08-08T01:33:00Z,17,16,10+,29.91
KAQP,45.2249,-96.0041,330,6,6.9,KAQP 080133Z AUTO 33006KT 10SM SCT012 OVC031 21/18 A2993 RMK AO2 TSNO,2024-08-08T01:33:00Z,21,18,10+,29.93
EHGR,51.565,4.935,210,4,4.6,EHGR 080133Z AUTO 21004KT 180V250 9999 SCT022 OVC100 16/12 Q1014 BLU,2024-08-08T01:33:00Z,16,12,6+,29.94
CYXL,50.114,-91.905,290,5,5.75,CYXL 080133Z 29005KT 15SM -SHRA SCT023TCU BKN250 19/15 A2980 RMK TCU4CI2 VIS 3 NW SLP097 DENSITY ALT 2200FT,2024-08-08T01:33:00Z,19,15,15,29.80
VIJP,26.824,75.812,250,6,6.9,VIJP 080132Z 25006KT 2500 DZ BR SCT015 BKN025 OVC100 26/25 Q1004 NOSIG,2024-08-08T01:32:00Z,26,25,1.55,29.65
PAGL,64.548,-163.013,170,9,10.36,PAGL 080132Z AUTO 17009KT 10SM FEW008 OVC017 14/12 A2973 RMK AO2 PNO $,2024-08-08T01:32:00Z,14,12,10+,29.73
PAEH,58.652,-162.062,10,11,12.66,PAEH 080132Z AUTO 01011KT 270V090 10SM -SHRA OVC003 09/08 A2979 RMK AO2 SLP090,2024-08-08T01:32:00Z,9,8,10+,29.79
KRSP,39.646,-77.468,VRB,4,4.6,KRSP 080132Z AUTO VRB04KT 2SM BR BKN004 OVC009 21/21 A2998 RMK AO2 T02060206 PWINO $,2024-08-08T01:32:00Z,20.6,20.6,2,29.98
KPAH,37.0652,-88.7793,340,4,4.6,KPAH 080132Z 34004KT 10SM FEW002 23/19 A2984 RMK AO2 T02280194,2024-08-08T01:32:00Z,22.8,19.4,10+,29.84
KNRB,30.396,-81.423,350,10,11.51,KNRB 080132Z 35010G20KT 2SM TSRA BR FEW008 BKN020CB OVC040 28/26 A2966 RMK AO2 CONS LTGICCG OHD TS OHD MOV SE T1 SET P0024 T02780256,2024-08-08T01:32:00Z,27.8,25.6,2,29.66
KGED,38.6898,-75.3625,90,8,9.21,KGED 080132Z AUTO 09008KT 10SM FEW005 OVC090 23/23 A2994 RMK AO2 T02330228 $,2024-08-08T01:32:00Z,23.3,22.8,10+,29.94
KCRE,33.8162,-78.7204,110,13,14.96,KCRE 080132Z AUTO 11013G27KT 3SM -RA BR BKN011 BKN014 OVC021 27/26 A2949 RMK AO1 PK WND 11031/0120 RAE0059B13 P0001 T02670256,2024-08-08T01:32:00Z,26.7,25.6,3,29.49
EHWO,51.448,4.342,220,6,6.9,EHWO 080132Z AUTO 22006KT 190V260 9999 BKN018 OVC060 17/13 Q1015 WHT,2024-08-08T01:32:00Z,17,13,6+,29.97
CYAT,52.927,-82.432,120,7,8.06,CYAT 080132Z AUTO 12007KT 9SM -RA OVC050 13/10 A3002 RMK SLP167,2024-08-08T01:32:00Z,13,10,9,30.02
RKTP,36.704,126.486,220,6,6.9,RKTP 080131Z 22006KT 9999 FEW010 BKN020 BKN200 29/24 A2971 RMK CIG020,2024-08-08T01:31:00Z,29,24,6+,29.71
PACZ,61.776,-166.043,220,2,2.3,PACZ 080131Z AUTO 22002KT 10SM -RA FEW005 BKN017 OVC029 09/08 A2969 RMK AO2 SLP055,2024-08-08T01:31:00Z,9,8,10+,29.69
KROA,37.3172,-79.9737,100,4,4.6,KROA 080131Z 10004KT 10SM SCT019 SCT032 BKN100 26/22 A2988 RMK AO2 T02560217,2024-08-08T01:31:00Z,25.6,21.7,10+,29.88
KNSI,33.2337,-119.456,60,4,4.6,KNSI 080131Z AUTO 06004KT 6SM HZ SCT007 18/ A2994 RMK AO2 T0178 $,2024-08-08T01:31:00Z,17.8,,6,29.94
KMXF,32.3877,-86.3724,290,3,3.45,KMXF 080131Z AUTO 29003KT 10SM FEW090 30/24 A2967 RMK AO2 RAE11DZB11E18DZB26E31 SLP047,2024-08-08T01:31:00Z,30,24,10+,29.67
KLBT,34.6082,-79.059,70,21,24.17,KLBT 080131Z AUTO 07021G38KT 1 1/2SM +TSRA BR SCT008 OVC014 25/24 A2959 RMK AO2 PK WND 04038/0131 LTG DSNT E AND SE TSB31 P0075 T02500244,2024-08-08T01:31:00Z,25,24.4,1.5,29.59
KLBF,41.122,-100.669,120,6,6.9,KLBF 080131Z AUTO 12006KT 10SM VCTS BKN060 OVC075 27/18 A2996 RMK AO2 LTG DSNT W-NE T02720183,2024-08-08T01:31:00Z,27.2,18.3,10+,29.96
KEHR,37.8066,-87.6824,330,4,4.6,KEHR 080131Z AUTO 33004KT 10SM BKN026 BKN033 22/20 A2985 RMK AO2,2024-08-08T01:31:00Z,22,20,10+,29.85
ZYTX,41.639,123.485,240,6,6.9,ZYTX 080130Z 24003MPS 210V270 9999 SCT020 29/24 Q1006 NOSIG,2024-08-08T01:30:00Z,29,24,6+,29.70
ZYTL,38.961,121.556,350,4,4.6,ZYTL 080130Z 35002MPS 310V050 9999 FEW026 30/24 Q1005 NOSIG,2024-08-08T01:30:00Z,30,24,6+,29.68
ZWWW,43.907,87.474,160,6,6.9,ZWWW 080130Z 16003MPS 130V200 CAVOK 27/08 Q1010 NOSIG,2024-08-08T01:30:00Z,27,8,6+,29.82
ZSSS,31.209,121.337,VRB,4,4.6,ZSSS 080130Z VRB02MPS CAVOK 34/26 Q1005 NOSIG,2024-08-08T01:30:00Z,34,26,6+,29.68
ZSPD,31.146,121.8,VRB,4,4.6,ZSPD 080130Z VRB02MPS CAVOK 33/27 Q1005 NOSIG,2024-08-08T01:30:00Z,33,27,6+,29.68
ZSHC,30.229,120.434,220,4,4.6,ZSHC 080130Z 22002MPS 170V260 CAVOK 34/25 Q1005 NOSIG,2024-08-08T01:30:00Z,34,25,6+,29.68
ZMCK,47.651,106.822,110,10,11.51,ZMCK 080130Z 11005MPS 9999 FEW030CB BKN033 18/15 Q1012 NOSIG RMK QFE644.3 79 MOP,2024-08-08T01:30:00Z,18,15,6+,29.88
ZGGG,23.392,113.307,200,6,6.9,ZGGG 080130Z 20003MPS 160V260 9999 FEW023 33/27 Q1007 NOSIG,2024-08-08T01:30:00Z,33,27,6+,29.73
ZBYN,37.747,112.628,340,4,4.6,ZBYN 080130Z 34002MPS 310V010 9999 BKN040 24/19 Q1010 NOSIG,2024-08-08T01:30:00Z,24,19,6+,29.82
ZBTJ,39.124,117.346,VRB,2,2.3,ZBTJ 080130Z VRB01MPS 8000 NSC 30/24 Q1005 NOSIG,2024-08-08T01:30:00Z,30,24,4.97,29.68
ZBAD,39.501,116.412,VRB,2,2.3,ZBAD 080130Z VRB01MPS 6000 FEW010 29/24 Q1006 NOSIG,2024-08-08T01:30:00Z,29,24,3.73,29.70
ZBAA,40.082,116.603,VRB,2,2.3,ZBAA 080130Z VRB01MPS CAVOK 29/23 Q1006 NOSIG,2024-08-08T01:30:00Z,29,23,6+,29.70
YWLM,-32.794,151.836,360,6,6.9,YWLM 080130Z 36006KT 9999 FEW032 18/11 Q1027,2024-08-08T01:30:00Z,18,11,6+,30.32
YSTW,-31.084,150.847,0,0,0.0,YSTW 080130Z AUTO 00000KT 9999 // NCD 17/07 Q1027 RF00.0/000.0,2024-08-08T01:30:00Z,17,7,6+,30.32
YSSY,-33.946,151.173,270,5,5.75,YSSY 080130Z 27005KT 230V320 9999 FEW040 17/08 Q1027 RF00.0/000.0 HZ,2024-08-08T01:30:00Z,17,8,6+,30.32
YSRI,-33.601,150.777,80,4,4.6,YSRI 080130Z AUTO 08004KT 9999 // NCD 16/12 Q1027 RF00.0/000.0,2024-08-08T01:30:00Z,16,12,6+,30.32
YSNF,-29.039,167.941,290,3,3.45,YSNF 080130Z 29003KT 9999 FEW022 SCT029 BKN130 19/12 Q1024 RF00.0/000.0,2024-08-08T01:30:00Z,19,12,6+,30.24
YSDU,-32.221,148.575,360,11,12.66,YSDU 080130Z AUTO 36011KT 9999 // SCT028 17/10 Q1026 RF00.0/000.0,2024-08-08T01:30:00Z,17,10,6+,30.30
YSCB,-35.309,149.2,290,5,5.75,YSCB 080130Z AUTO 29005KT 260V330 9999 // NCD 13/03 Q1026 RF00.0/000.0,2024-08-08T01:30:00Z,13,3,6+,30.30
YPXM,-10.453,105.688,100,13,14.96,YPXM 080130Z AUTO 10013KT 9999 // BKN014 25/22 Q1017 RF00.0/000.0,2024-08-08T01:30:00Z,25,22,6+,30.03
YPWR,-31.156,136.805,360,19,21.86,YPWR 080130Z AUTO 36019KT 9999 // NCD 18/05 Q1021 RF00.0/000.0,2024-08-08T01:30:00Z,18,5,6+,30.15
YPTN,-14.523,132.383,100,15,17.26,YPTN 080130Z AUTO 10015KT 9999 // NCD 28/07 Q1019 RF00.0/000.0,2024-08-08T01:30:00Z,28,7,6+,30.09
YPPH,-31.927,115.976,360,8,9.21,YPPH 080130Z 36008KT 9999 FEW028 BKN055 14/11 Q1022 RF00.0/000.0,2024-08-08T01:30:00Z,14,11,6+,30.18
YPPD,-20.372,118.632,120,10,11.51,YPPD 080130Z AUTO 12010KT 9999 // ////// 27/04 Q1020 RF00.0/000.0,2024-08-08T01:30:00Z,27,4,6+,30.12
YPLM,-22.241,114.097,140,8,9.21,YPLM 080130Z AUTO 14008KT 9999 // NCD 22/16 Q1022 RF00.0/000.0,2024-08-08T01:30:00Z,22,16,6+,30.18
YPKU,-15.781,128.71,120,9,10.36,YPKU 080130Z AUTO 12009KT 9999 // NCD 30/10 Q1018 RF00.0/000.0,2024-08-08T01:30:00Z,30,10,6+,30.06
YPKG,-30.785,121.453,250,4,4.6,YPKG 080130Z AUTO 25004KT 200V290 9999 // NCD 14/10 Q1023 RF00.0/000.0,2024-08-08T01:30:00Z,14,10,6+,30.21
YPJT,-32.101,115.879,10,10,11.51,YPJT 080130Z AUTO 01010KT 9999 // BKN060 15/11 Q1022 RF00.0/000.0,2024-08-08T01:30:00Z,15,11,6+,30.18
YPGV,-12.274,136.82,70,16,18.41,YPGV 080130Z AUTO 07016KT 9999 // NCD 29/17 Q1017 RF00.0/000.0,2024-08-08T01:30:00Z,29,17,6+,30.03
YPEA,-31.667,116.019,350,9,10.36,YPEA 080130Z 35009KT 9999 SCT045 BKN055 14/12 Q1022 RF00.0/000.0,2024-08-08T01:30:00Z,14,12,6+,30.18
YPDN,-12.424,130.893,110,13,14.96,YPDN 080130Z 11013KT CAVOK 30/14 Q1017,2024-08-08T01:30:00Z,30,14,6+,30.03
YPCC,-12.189,96.834,90,15,17.26,YPCC 080130Z AUTO 09015KT 9999 // FEW027 SCT032 27/22 Q1015,2024-08-08T01:30:00Z,27,22,6+,29.97
YPAD,-34.952,138.52,350,12,13.81,YPAD 080130Z 35012KT 9999 VCSH NSC 14/07 Q1020 RF00.0/000.0 BKN050 OVC070,2024-08-08T01:30:00Z,14,7,6+,30.12
YMML,-37.666,144.832,10,12,13.81,YMML 080130Z 01012KT 9999 FEW043 BKN260 10/05 Q1023 RF00.0/000.0,2024-08-08T01:30:00Z,10,5,6+,30.21
YMLT,-41.544,147.213,350,13,14.96,YMLT 080130Z AUTO 35013KT 9999 // BKN023 OVC030 12/08 Q1020,2024-08-08T01:30:00Z,12,8,6+,30.12
YMHB,-42.834,147.503,360,10,11.51,YMHB 080130Z 36010KT 9999 FEW050 BKN190 OVC210 14/06 Q1017 RF00.0/000.0,2024-08-08T01:30:00Z,14,6,6+,30.03
YMAV,-38.029,144.478,10,15,17.26,YMAV 080130Z AUTO 01015KT 9999 // NCD 14/05 Q1021 RF00.0/000.0,2024-08-08T01:30:00Z,14,5,6+,30.15
YLHI,-31.538,159.077,90,13,14.96,YLHI 080130Z 09013KT 9999 SCT033 BKN054 19/12 Q1027 RF00.0/000.0,2024-08-08T01:30:00Z,19,12,6+,30.32
YHID,-10.584,142.29,110,16,18.41,YHID 080130Z AUTO 11016KT 9999 // FEW020 28/21 Q1015 RF00.0/000.0,2024-08-08T01:30:00Z,28,21,6+,29.97
YGLA,-23.87,151.221,100,13,14.96,YGLA 080130Z AUTO 10013KT 9999 // BKN034 BKN044 23/13 Q1023,2024-08-08T01:30:00Z,23,13,6+,30.21
YGEL,-28.805,114.699,90,4,4.6,YGEL 080130Z AUTO 09004KT 9999 // OVC054 15/13 Q1023 RF00.0/000.0,2024-08-08T01:30:00Z,15,13,6+,30.21
YFRT,-30.848,128.114,190,8,9.21,YFRT 080130Z AUTO 19008KT 9999 // NCD 18/10 Q1022 RF00.0/000.0,2024-08-08T01:30:00Z,18,10,6+,30.18
YCIN,-17.574,123.831,180,3,3.45,YCIN 080130Z AUTO 18003KT 9999 // NCD 29/06 Q1017 RF00.0/000.0,2024-08-08T01:30:00Z,29,6,6+,30.03
YCFS,-30.317,153.119,170,7,8.06,YCFS 080130Z AUTO 17007KT 9999 // OVC064 18/11 Q1028 RF00.0/000.0,2024-08-08T01:30:00Z,18,11,6+,30.35
YBWW,-27.558,151.793,90,12,13.81,YBWW 080130Z AUTO 09012KT 9999 // NCD 19/06 Q1025 RF00.0/000.0,2024-08-08T01:30:00Z,19,6,6+,30.27
YBSU,-26.603,153.091,160,16,18.41,YBSU 080130Z AUTO 16016KT 9999 // NCD 21/14 Q1025 RF00.0/000.0,2024-08-08T01:30:00Z,21,14,6+,30.27
YBRM,-17.948,122.235,140,6,6.9,YBRM 080130Z AUTO 14006KT 9999 // NCD 27/06 Q1019 RF00.0/000.0,2024-08-08T01:30:00Z,27,6,6+,30.09
YBRK,-23.375,150.477,110,11,12.66,YBRK 080130Z AUTO 11011KT 9999 // FEW038 23/14 Q1023 RF00.0/000.0,2024-08-08T01:30:00Z,23,14,6+,30.21
YBMA,-20.678,139.488,120,7,8.06,YBMA 080130Z AUTO 12007KT 090V160 9999 // NCD 25/04 Q1021 RF00.0/000.0,2024-08-08T01:30:00Z,25,4,6+,30.15
YBLN,-33.688,115.402,70,5,5.75,YBLN 080130Z AUTO 07005KT 9999 // FEW048 OVC059 12/12 Q1020,2024-08-08T01:30:00Z,12,12,6+,30.12
YBHM,-20.357,148.949,150,18,20.71,YBHM 080130Z AUTO 15018KT 9999 // BKN021 OVC028 21/18 Q1021,2024-08-08T01:30:00Z,21,18,6+,30.15
YBCS,-16.874,145.745,,,,YBCS 080130Z AUTO /////KT 9999 // FEW024 BKN064 26/19 Q1019,2024-08-08T01:30:00Z,26,19,6+,30.09
YBCG,-28.168,153.505,180,8,9.21,YBCG 080130Z AUTO 18008KT 9999 // SCT038 BKN052 OVC067 19/12 Q1026,2024-08-08T01:30:00Z,19,12,6+,30.30
YBBN,-27.391,153.13,180,6,6.9,YBBN 080130Z 18006KT 9999 SCT037 SCT046 OVC053 17/13 Q1026 RF00/0/000/0 DIST/ SHOWERS IN AREA,2024-08-08T01:30:00Z,17,13,6+,30.30
YBAS,-23.795,133.889,60,4,4.6,YBAS 080130Z AUTO 06004KT 9999 // NCD 23/04 Q1023 RF00.0/000.0,2024-08-08T01:30:00Z,23,4,6+,30.21
WSSS,1.368,103.982,150,8,9.21,WSSS 080130Z 15008KT 9999 FEW018 FEW020TCU BKN300 29/25 Q1012 NOSIG,2024-08-08T01:30:00Z,29,25,6+,29.88
WMKP,5.297,100.277,180,5,5.75,WMKP 080130Z 18005KT 130V210 6000 FEW020 29/23 Q1011 NOSIG,2024-08-08T01:30:00Z,29,23,3.73,29.85
WMKK,2.747,101.714,0,0,0.0,WMKK 080130Z 00000KT 9000 FEW018 27/25 Q1012 NOSIG,2024-08-08T01:30:00Z,27,25,5.59,29.88
WIPP,-2.898,104.7,180,3,3.45,WIPP 080130Z 18003KT 140V220 9999 SCT012 28/24 Q1013 NOSIG,2024-08-08T01:30:00Z,28,24,6+,29.91
WIOO,-0.151,109.404,60,4,4.6,WIOO 080130Z 06004KT 9000 SCT009 25/25 Q1012 NOSIG,2024-08-08T01:30:00Z,25,25,5.59,29.88
WIMM,3.636,98.874,120,6,6.9,WIMM 080130Z 12006KT 080V140 8000 SCT017 27/26 Q1011 NOSIG,2024-08-08T01:30:00Z,27,26,4.97,29.85
WILL,-5.242,105.179,230,3,3.45,WILL 080130Z 23003KT 5000 SCT020 27/25 Q1013 NOSIG,2024-08-08T01:30:00Z,27,25,3.11,29.91
WIII,-6.125,106.659,VRB,4,4.6,WIII 080130Z VRB04KT 5000 HZ FEW020 28/22 Q1013 NOSIG,2024-08-08T01:30:00Z,28,22,3.11,29.91
WIHH,-6.267,106.891,230,3,3.45,WIHH 080130Z 23003KT 5000 HZ SCT018 28/22 Q1013 NOSIG METAR ,2024-08-08T01:30:00Z,28,22,3.11,29.91
WIEE,-0.783,100.283,VRB,1,1.15,WIEE 080130Z VRB01KT 9999 SCT025 29/24 Q1010 NOSIG,2024-08-08T01:30:00Z,29,24,6+,29.82
WIDN,0.923,104.532,120,4,4.6,WIDN 080130Z 12004KT 9999 FEW017 29/26 Q1012 NOSIG,2024-08-08T01:30:00Z,29,26,6+,29.88
WIDD,1.121,104.119,180,4,4.6,WIDD 080130Z 18004KT 9000 SCT014 28/26 Q1014 NOSIG,2024-08-08T01:30:00Z,28,26,5.59,29.94
WIBB,0.461,101.445,180,5,5.75,WIBB 080130Z 18005KT 6000 NSC 26/24 Q1011 NOSIG,2024-08-08T01:30:00Z,26,24,3.73,29.85
WBSB,4.944,114.928,190,6,6.9,WBSB 080130Z 19006KT 9999 FEW015 FEW016CB BKN300 30/23 Q1013 NOSIG,2024-08-08T01:30:00Z,30,23,6+,29.91
WBKK,5.937,116.051,220,5,5.75,WBKK 080130Z 22005KT 160V300 9999 FEW014 29/25 Q1012 NOSIG,2024-08-08T01:30:00Z,29,25,6+,29.88
WBGG,1.484,110.34,VRB,1,1.15,WBGG 080130Z VRB01KT 9999 FEW012 SCT020 26/24 Q1013 NOSIG,2024-08-08T01:30:00Z,26,24,6+,29.91
WAYY,-4.528,136.887,0,0,0.0,WAYY 080130Z 00000KT 4000 -RA BKN013 24/23 Q1016 NOSIG,2024-08-08T01:30:00Z,24,23,2.49,30.00
WATT,-10.172,123.671,100,13,14.96,WATT 080130Z 10013KT 9999 FEW020 31/21 Q1017 NOSIG,2024-08-08T01:30:00Z,31,21,6+,30.03
WARR,-7.38,112.787,90,6,6.9,WARR 080130Z 09006KT 9999 FEW020 30/23 Q1014 NOSIG METAR ,2024-08-08T01:30:00Z,30,23,6+,29.94
WAQQ,3.327,117.568,280,4,4.6,WAQQ 080130Z 28004KT 8000 -RA BKN015 25/25 Q1013 NOSIG,2024-08-08T01:30:00Z,25,25,4.97,29.91
WAPP,-3.71,128.089,160,7,8.06,WAPP 080130Z 16007KT 100V220 8000 SCT016 28/24 Q1014 RERA NOSIG,2024-08-08T01:30:00Z,28,24,4.97,29.94
WAOO,-3.44,114.759,200,4,4.6,WAOO 080130Z 20004KT 9999 FEW020 29/25 Q1013 NOSIG,2024-08-08T01:30:00Z,29,25,6+,29.91
WAMM,1.541,124.926,190,11,12.66,WAMM 080130Z 19011G21KT 150V230 9999 FEW019 30/22 Q1014 NOSIG METAR ,2024-08-08T01:30:00Z,30,22,6+,29.94
WALL,-1.268,116.894,250,6,6.9,WALL 080130Z 25006KT 9999 FEW020 28/23 Q1013 NOSIG,2024-08-08T01:30:00Z,28,23,6+,29.91
WAKK,-8.52,140.417,120,7,8.06,WAKK 080130Z 12007KT 9999 SCT016 27/23 Q1014 NOSIG,2024-08-08T01:30:00Z,27,23,6+,29.94
WAJJ,-2.573,140.514,120,3,3.45,WAJJ 080130Z 12003KT 080V150 9999 FEW012 28/25 Q1012 NOSIG,2024-08-08T01:30:00Z,28,25,6+,29.88
WAHS,-6.973,110.375,100,11,12.66,WAHS 080130Z 10011KT 6000 FEW014 30/22 Q1013 NOSIG,2024-08-08T01:30:00Z,30,22,3.73,29.91
WADL,-8.757,116.277,130,12,13.81,WADL 080130Z 13012KT 7000 SCT016 28/22 Q1016 NOSIG,2024-08-08T01:30:00Z,28,22,4.35,30.00
WADD,-8.748,115.167,120,11,12.66,WADD 080130Z 12011KT 9999 SCT017 28/25 Q1015 NOSIG,2024-08-08T01:30:00Z,28,25,6+,29.97
WABB,-1.19,136.108,170,4,4.6,WABB 080130Z 17004KT 040V170 9999 SCT015 30/25 Q1012 NOSIG,2024-08-08T01:30:00Z,30,25,6+,29.88
WAAA,-5.062,119.554,VRB,3,3.45,WAAA 080130Z VRB03KT 9999 FEW019 30/17 Q1013 NOSIG,2024-08-08T01:30:00Z,30,17,6+,29.91
VYYY,16.906,96.137,220,2,2.3,VYYY 080130Z 22002KT 6000 BKN020 FEW025CB BKN110 26/25 Q1010,2024-08-08T01:30:00Z,26,25,3.73,29.82
VVVD,21.118,107.414,200,8,9.21,VVVD 080130Z 20008KT 9999 FEW027 32/28 Q1008 NOSIG,2024-08-08T01:30:00Z,32,28,6+,29.76
VVTS,10.817,106.667,250,9,10.36,VVTS 080130Z 25009KT 9999 BKN015 30/26 Q1011 NOSIG,2024-08-08T01:30:00Z,30,26,6+,29.85
VVPQ,10.169,103.995,240,6,6.9,VVPQ 080130Z 24006KT 9999 FEW015 30/27 Q1011 NOSIG,2024-08-08T01:30:00Z,30,27,6+,29.85
VVPB,16.399,107.699,190,3,3.45,VVPB 080130Z 19003KT 9999 FEW017 SCT070 33/23 Q1009 NOSIG,2024-08-08T01:30:00Z,33,23,6+,29.79
VVNB,21.218,105.805,150,7,8.06,VVNB 080130Z 15007KT 120V190 9999 BKN013 31/28 Q1007 NOSIG,2024-08-08T01:30:00Z,31,28,6+,29.73
VVDN,16.044,108.199,VRB,2,2.3,VVDN 080130Z VRB02KT 9999 FEW017 32/24 Q1009 NOSIG,2024-08-08T01:30:00Z,32,24,6+,29.79
VVCT,10.085,105.712,220,5,5.75,VVCT 080130Z 22005KT 9999 FEW015 30/28 Q1011 NOSIG,2024-08-08T01:30:00Z,30,28,6+,29.85
VVCR,11.998,109.219,70,4,4.6,VVCR 080130Z 07004KT CAVOK 32/24 Q1010 NOSIG,2024-08-08T01:30:00Z,32,24,6+,29.82
VVCI,20.823,106.727,160,7,8.06,VVCI 080130Z 16007KT 9999 BKN016 BKN025 31/28 Q1007 NOSIG,2024-08-08T01:30:00Z,31,28,6+,29.73
VTSS,6.933,100.393,200,3,3.45,VTSS 080130Z 20003KT 150V250 9999 FEW020 SCT100 28/25 Q1010 NOSIG,2024-08-08T01:30:00Z,28,25,6+,29.82
VTSP,8.105,98.308,0,0,0.0,VTSP 080130Z 00000KT 9999 FEW020 29/26 Q1011 NOSIG,2024-08-08T01:30:00Z,29,26,6+,29.85
VTCC,18.771,98.963,VRB,2,2.3,VTCC 080130Z VRB02KT 9999 FEW015 SCT030 27/24 Q1011 NOSIG,2024-08-08T01:30:00Z,27,24,6+,29.85
VTBU,12.68,101.001,270,2,2.3,VTBU 080130Z 27002KT 9999 FEW020 30/28 Q1010 NOSIG,2024-08-08T01:30:00Z,30,28,6+,29.82
VTBS,13.686,100.767,VRB,3,3.45,VTBS 080130Z VRB03KT 9999 FEW020 28/25 Q1011 NOSIG,2024-08-08T01:30:00Z,28,25,6+,29.85
VTBD,13.913,100.607,VRB,1,1.15,VTBD 080130Z VRB01KT 9999 FEW020 28/25 Q1011 NOSIG,2024-08-08T01:30:00Z,28,25,6+,29.85
VQPR,27.403,89.425,VRB,2,2.3,VQPR 080130Z VRB02KT 6000 FEW010 SCT040 BKN070 18/16 Q1021,2024-08-08T01:30:00Z,18,16,3.73,30.15
VOVZ,17.722,83.228,260,9,10.36,VOVZ 080130Z 26009KT 4500 -DZ BR FEW012 SCT016 BKN090 27/26 Q1005 TEMPO -RA,2024-08-08T01:30:00Z,27,26,2.8,29.68
VOTV,8.484,76.919,350,8,9.21,VOTV 080130Z 35008KT 4000 BR SCT015 BKN080 26/24 Q1010 NOSIG,2024-08-08T01:30:00Z,26,24,2.49,29.82
VOTR,10.765,78.71,270,8,9.21,VOTR 080130Z 27008KT 4000 BR FEW016 BKN100 27/25 Q1009 NOSIG,2024-08-08T01:30:00Z,27,25,2.49,29.79
VOTP,13.633,79.543,VRB,2,2.3,VOTP 080130Z VRB02KT 6000 SCT020 SCT100 28/25 Q1008 NOSIG,2024-08-08T01:30:00Z,28,25,3.73,29.76
VOTK,8.722,78.028,0,0,0.0,VOTK 080130Z 00000KT 6000 FEW018 28/23 Q1009 NOSIG,2024-08-08T01:30:00Z,28,23,3.73,29.79
VORY,17.11,81.818,260,8,9.21,VORY 080130Z 26008KT 3000 -RA SCT010 SCT015 FEW030CB OVC080 24/23 Q1005 BECMG 4000 -RA,2024-08-08T01:30:00Z,24,23,1.86,29.68
VOPB,11.641,92.73,VRB,1,1.15,VOPB 080130Z VRB01KT 6000 FEW012 BKN080 28/26 Q1010 NOSIG,2024-08-08T01:30:00Z,28,26,3.73,29.82
VOMM,12.994,80.18,VRB,2,2.3,VOMM 080130Z VRB02KT 4000 -DZ SCT016 FEW025TCU BKN080 26/24 Q1008 TEMPO 3000 -RA,2024-08-08T01:30:00Z,26,24,2.49,29.76
VOML,12.961,74.89,140,2,2.3,VOML 080130Z 14002KT 1400 R24/2000 BR FEW001 SCT012 OVC080 23/22 Q1010 NOSIG,2024-08-08T01:30:00Z,23,22,0.87,29.82
VOKN,11.917,75.547,170,5,5.75,VOKN 080130Z 17005KT 1000 R25/2000 R07/2000 BR FEW002 SCT012 FEW025CB OVC080 24/23 Q1010 BECMG 1500 BR,2024-08-08T01:30:00Z,24,23,0.62,29.82
VOHS,17.233,78.429,270,10,11.51,VOHS 080130Z 27010KT 3000 DZ BKN010 BKN015 OVC080 22/21 Q1011 NOSIG,2024-08-08T01:30:00Z,22,21,1.86,29.85
VOHB,15.362,75.085,240,4,4.6,VOHB 080130Z 24004KT 5000 BR SCT008 SCT012 BKN080 22/21 Q1012,2024-08-08T01:30:00Z,22,21,3.11,29.88
VOGA,15.7426,73.8631,340,3,3.45,VOGA 080130Z 34003KT 2500 BR VCFG FEW007 SCT015 FEW020TCU BKN080 23/23 Q1009 NOSIG,2024-08-08T01:30:00Z,23,23,1.55,29.79
VOCL,11.137,75.955,320,5,5.75,VOCL 080130Z 32005KT 2500 BR FEW004 SCT012 BKN080 23/23 Q1011 BECMG 3000 BR,2024-08-08T01:30:00Z,23,23,1.55,29.85
VOCI,10.152,76.402,0,0,0.0,VOCI 080130Z 00000KT 4000 BR SCT012 BKN080 24/23 Q1010 NOSIG,2024-08-08T01:30:00Z,24,23,2.49,29.82
VOCB,11.03,77.043,210,4,4.6,VOCB 080130Z 21004KT 5000 BR FEW008 SCT012 BKN080 24/22 Q1012 NOSIG,2024-08-08T01:30:00Z,24,22,3.11,29.88
VOBZ,16.53,80.797,0,0,0.0,VOBZ 080130Z 00000KT 6000 SCT018 OVC080 26/25 Q1006 NOSIG,2024-08-08T01:30:00Z,26,25,3.73,29.70
VOBM,15.861,74.617,280,5,5.75,VOBM 080130Z 28005KT 4000 -RA BKN007 SCT012 BKN080 22/21 Q1013,2024-08-08T01:30:00Z,22,21,2.49,29.91
VOBL,13.205,77.704,270,6,6.9,VOBL 080130Z 27006KT 6000 SCT008 SCT012 21/19 Q1014 NOSIG,2024-08-08T01:30:00Z,21,19,3.73,29.94
VOBG,12.949,77.663,250,5,5.75,VOBG 080130Z 25005KT 6000 SCT008 SCT012 BKN080 22/21 Q1015 NOSIG,2024-08-08T01:30:00Z,22,21,3.73,29.97
VOAT,10.824,72.176,290,9,10.36,VOAT 080130Z 29009KT 5000 BR SCT012 BKN080 27/25 Q1009 NOSIG,2024-08-08T01:30:00Z,27,25,3.11,29.79
VNKT,27.697,85.359,VRB,2,2.3,VNKT 080130Z VRB02KT 6000 FEW008 SCT030 BKN100 22/22 Q1013 NOSIG,2024-08-08T01:30:00Z,22,22,3.73,29.91
VMMC,22.141,113.596,230,7,8.06,VMMC 080130Z 23007KT 200V270 9999 FEW015 32/27 Q1008 NOSIG,2024-08-08T01:30:00Z,32,27,6+,29.76
VLVT,17.987,102.564,0,0,0.0,VLVT 080130Z 00000KT 8000 SCT020 29/25 Q1010 NOSIG,2024-08-08T01:30:00Z,29,25,4.97,29.82
VISM,31.082,77.068,0,0,0.0,VISM 080130Z 00000KT 5000 FEW020 BKN060 21/20 Q1012,2024-08-08T01:30:00Z,21,20,3.11,29.88
VILK,26.761,80.889,120,6,6.9,VILK 080130Z 12006KT 4000 BR SCT020 BKN100 28/26 Q1003 NOSIG,2024-08-08T01:30:00Z,28,26,2.49,29.62
VIGG,32.165,76.263,0,0,0.0,VIGG 080130Z 00000KT 6000 SCT035 BKN080 24/23 Q1007,2024-08-08T01:30:00Z,24,23,3.73,29.73
VIDP,28.567,77.117,90,4,4.6,VIDP 080130Z 09004KT 2200 BR SCT030 FEW035CB BKN080 27/26 Q1003 NOSIG,2024-08-08T01:30:00Z,27,26,1.37,29.62
VIDN,30.19,78.18,280,3,3.45,VIDN 080130Z 28003KT 3000 BR FEW010 BKN020 OVC060 25/25 Q1006 NOSIG,2024-08-08T01:30:00Z,25,25,1.86,29.70
VIBR,31.876,77.154,0,0,0.0,VIBR 080130Z 00000KT 6000 FEW010 SCT030 23/21 Q1008,2024-08-08T01:30:00Z,23,21,3.73,29.76
VHHH,22.309,113.922,220,10,11.51,VHHH 080130Z 22010KT 150V240 9999 FEW015 31/26 Q1008 NOSIG,2024-08-08T01:30:00Z,31,26,6+,29.76
VGHS,23.846,90.4,140,10,11.51,VGHS 080130Z 14010KT 4000 HZ SCT012 BKN100 28/26 Q1005 NOSIG,2024-08-08T01:30:00Z,28,26,2.49,29.68
VERP,21.182,81.738,250,6,6.9,VERP 080130Z 25006KT 2000 BR SCT010 BKN018 OVC080 25/24 Q1005 NOSIG,2024-08-08T01:30:00Z,25,24,1.24,29.68
VERC,23.314,85.322,200,3,3.45,VERC 080130Z 20003KT 2500 BR SCT018 BKN090 25/24 Q1007 NOSIG,2024-08-08T01:30:00Z,25,24,1.55,29.73
VEPT,25.591,85.088,100,8,9.21,VEPT 080130Z 10008KT 2800 BR FEW010 SCT018 BKN100 29/29 Q1002 NOSIG,2024-08-08T01:30:00Z,29,29,1.74,29.59
VEMN,27.481,95.014,0,0,0.0,VEMN 080130Z 00000KT 5000 BR SCT018 OVC090 27/26 Q1006 NOSIG,2024-08-08T01:30:00Z,27,26,3.11,29.70
VEGT,26.107,91.587,350,3,3.45,VEGT 080130Z 35003KT 3000 BR FEW010 SCT016 FEW025CB BKN090 28/26 Q1005 NOSIG,2024-08-08T01:30:00Z,28,26,1.86,29.68
VEDG,23.623,87.243,140,7,8.06,VEDG 080130Z 14007KT 3600 HZ FEW012 SCT018 FEW025CB BKN090 28/26 Q1003 NOSIG,2024-08-08T01:30:00Z,28,26,2.24,29.62
VECC,22.651,88.445,150,6,6.9,VECC 080130Z 15006KT 3000 HZ SCT018 FEW030CB BKN100 29/27 Q1004 NOSIG,2024-08-08T01:30:00Z,29,27,1.86,29.65
VEBS,20.244,85.818,280,4,4.6,VEBS 080130Z 28004KT 3000 HZ SCT018 BKN100 26/25 Q1004 NOSIG,2024-08-08T01:30:00Z,26,25,1.86,29.65
VEBN,25.452,82.859,20,3,3.45,VEBN 080130Z 02003KT 2000 BR FEW100 28/28 Q1002 NOSIG,2024-08-08T01:30:00Z,28,28,1.24,29.59
VEAT,23.887,91.24,160,10,11.51,VEAT 080130Z 16010KT 3500 -RA SCT018 FEW030CB BKN100 27/25 Q1006 TEMPO 3000 -RA,2024-08-08T01:30:00Z,27,25,2.17,29.70
VDSV,10.582,103.637,210,3,3.45,VDSV 080130Z 21003KT 9999 SCT015 FEW017CB SCT040 30/27 Q1011 RMK CB:NW,2024-08-08T01:30:00Z,30,27,6+,29.85
VDSA,13.371,104.225,270,2,2.3,VDSA 080130Z 27002KT 190V320 9999 SCT015 29/25 Q1010,2024-08-08T01:30:00Z,29,25,6+,29.82
VDPP,11.547,104.844,190,4,4.6,VDPP 080130Z 19004KT 150V210 9999 FEW015 SCT040 30/27 Q1010,2024-08-08T01:30:00Z,30,27,6+,29.82
VAUD,24.618,73.896,210,4,4.6,VAUD 080130Z 21004KT 2500 BR SCT015 SCT025 BKN080 25/23 Q1006 NOSIG,2024-08-08T01:30:00Z,25,23,1.55,29.70
VASU,21.114,72.742,240,11,12.66,VASU 080130Z 24011KT 4000 BR FEW012 SCT020 OVC080 27/25 Q1005 NOSIG,2024-08-08T01:30:00Z,27,25,2.49,29.68
VANP,21.089,79.055,210,2,2.3,VANP 080130Z 21002KT 2500 -RA SCT010 SCT018 OVC080 26/25 Q1007 NOSIG,2024-08-08T01:30:00Z,26,25,1.55,29.73
VAJB,23.178,80.05,300,4,4.6,VAJB 080130Z 30004KT 2000 HZ SCT010 BKN020 OVC080 25/24 Q1006 TEMPO 1500 RA,2024-08-08T01:30:00Z,25,24,1.24,29.70
VABV,21.752,72.185,230,4,4.6,VABV 080130Z 23004KT 6000 FEW020 BKN080 26/24 Q1005 NOSIG,2024-08-08T01:30:00Z,26,24,3.73,29.68
VABO,22.333,73.225,230,5,5.75,VABO 080130Z 23005KT 3500 BR SCT020 BKN080 26/25 Q1005 NOSIG,2024-08-08T01:30:00Z,26,25,2.17,29.68
VABB,19.1,72.859,240,9,10.36,VABB 080130Z 24009KT 2500 HZ SCT018 FEW025 BKN090 27/24 Q1007 NOSIG,2024-08-08T01:30:00Z,27,24,1.55,29.73
VAAU,19.863,75.398,260,4,4.6,VAAU 080130Z 26004KT 3000 BR SCT020 BKN100 23/22 Q1009 NOSIG,2024-08-08T01:30:00Z,23,22,1.86,29.79
VAAH,23.077,72.635,190,6,6.9,VAAH 080130Z 19006KT 4000 HZ SCT020 BKN080 26/23 Q1004 TEMPO 3000 BR,2024-08-08T01:30:00Z,26,23,2.49,29.65
UWWW,53.509,50.163,250,4,4.6,UWWW 080130Z 25002MPS 220V290 CAVOK 15/14 Q1007 R33/CLRD63 NOSIG RMK QFE745/0993,2024-08-08T01:30:00Z,15,14,6+,29.73
UWSG,51.713,46.171,280,4,4.6,UWSG 080130Z 28002MPS CAVOK 16/15 Q1007 R26/CLRD70 NOSIG RMK QFE752/1003,2024-08-08T01:30:00Z,16,15,6+,29.73
UWPS,54.116,45.203,0,0,0.0,UWPS 080130Z 00000MPS CAVOK 15/14 Q1008 R20/CLRD60 TEMPO 0300 FG VV001 RMK QFE738,2024-08-08T01:30:00Z,15,14,6+,29.76
UWOO,51.795,55.457,360,8,9.21,UWOO 080130Z 36004MPS CAVOK 17/17 Q1004 R26/CLRD60 NOSIG RMK QFE743/0990,2024-08-08T01:30:00Z,17,17,6+,29.65
UWLL,54.274,48.236,0,0,0.0,UWLL 080130Z 00000MPS CAVOK 13/12 Q1008 R02/090065 NOSIG RMK QFE744/0992,2024-08-08T01:30:00Z,13,12,6+,29.76
UWKS,56.09,47.347,60,2,2.3,UWKS 080130Z 06001MPS 0150 R06/0350N FG VV002 16/16 Q1008 R06/090060 NOSIG RMK QBB060 QFE741,2024-08-08T01:30:00Z,16,16,0.09,29.76
UWKD,55.61,49.275,360,4,4.6,UWKD 080130Z 36002MPS CAVOK 16/15 Q1007 R29/70D TEMPO 0500 FG RMK QFE744/0993,2024-08-08T01:30:00Z,16,15,6+,29.73
UWGG,56.225,43.786,350,2,2.3,UWGG 080130Z 35001MPS 0150 0100SE R36R/0175N FG VV001 14/14 Q1009 R36R/090070 NOSIG RMK QBB040,2024-08-08T01:30:00Z,14,14,0.09,29.79
UUYY,61.647,50.845,40,6,6.9,UUYY 080130Z 04003MPS CAVOK 12/11 Q1014 R36/61D NOSIG RMK QFE751/1002,2024-08-08T01:30:00Z,12,11,6+,29.94
UUWW,55.592,37.261,340,6,6.9,UUWW 080130Z 34003MPS 9999 FEW043 17/15 Q1009 R01/190055 NOSIG,2024-08-08T01:30:00Z,17,15,6+,29.79
UUOO,51.814,39.228,270,6,6.9,UUOO 080130Z 27003MPS 9999 SCT///CB 18/16 Q1008 R30/010070 NOSIG RMK QFE743,2024-08-08T01:30:00Z,18,16,6+,29.76
UUOL,52.702,39.534,170,4,4.6,UUOL 080130Z AUTO 17002MPS 9999 NCD 16/16 Q1008,2024-08-08T01:30:00Z,16,16,6+,29.76
UUOK,51.751,36.297,280,6,6.9,UUOK 080130Z AUTO 28003MPS 9999 BCFG NCD 15/14 Q1010 RMK QFE738/0985,2024-08-08T01:30:00Z,15,14,6+,29.82
UUOB,50.644,36.59,270,4,4.6,UUOB 080130Z 27002MPS CAVOK 16/15 Q1011 R29/010070 NOSIG,2024-08-08T01:30:00Z,16,15,6+,29.85
UUEE,55.973,37.415,10,4,4.6,UUEE 080130Z 01002MPS CAVOK 15/14 Q1009 R24C/CLRD62 NOSIG,2024-08-08T01:30:00Z,15,14,6+,29.79
UUDL,57.561,40.157,60,2,2.3,UUDL 080130Z 06001MPS 0300 0200NE R23/0350D FG VV002 14/14 Q1010 R23/010060 NOSIG RMK QBB060 QFE749,2024-08-08T01:30:00Z,14,14,0.19,29.82
UUDD,55.409,37.906,340,4,4.6,UUDD 080130Z 34002MPS 310V010 9999 -RA FEW046 17/16 Q1009 R32L/290042 NOSIG,2024-08-08T01:30:00Z,17,16,6+,29.79
UUBW,55.553,38.15,330,4,4.6,UUBW 080130Z 33002MPS CAVOK 17/17 Q1008 R30/010060 TEMPO -TSRA BKN016CB RMK QFE746,2024-08-08T01:30:00Z,17,17,6+,29.76
UUBC,54.552,36.37,350,4,4.6,UUBC 080130Z 35002MPS CAVOK 15/15 Q1008 R31/190055 NOSIG RMK QFE739/0986,2024-08-08T01:30:00Z,15,15,6+,29.76
UTTT,41.258,69.281,60,6,6.9,UTTT 080130Z 06006KT CAVOK 27/11 Q1005 R08R/CLRD70 NOSIG,2024-08-08T01:30:00Z,27,11,6+,29.68
UTST,37.287,67.318,50,4,4.6,UTST 080130Z 05004KT CAVOK 23/15 Q1002 R25/CLRD70 NOSIG,2024-08-08T01:30:00Z,23,15,6+,29.59
UTSS,39.7,66.974,150,10,11.51,UTSS 080130Z 15010KT 9999 NSC 23/11 Q1006 R09/CLRD70 NOSIG,2024-08-08T01:30:00Z,23,11,6+,29.70
UTSK,38.804,65.773,40,2,2.3,UTSK 080130Z 04002KT CAVOK 25/11 Q1002 R16/CLRD70,2024-08-08T01:30:00Z,25,11,6+,29.59
UTSB,39.775,64.483,350,8,9.21,UTSB 080130Z 35008KT CAVOK 23/08 Q1003 R01/CLRD70 NOSIG,2024-08-08T01:30:00Z,23,8,6+,29.62
UTSA,40.116,65.167,90,6,6.9,UTSA 080130Z 09006KT 9999 NSC 22/08 Q1004 R07/CLRD70 NOSIG,2024-08-08T01:30:00Z,22,8,6+,29.65
UTNU,41.584,60.642,80,2,2.3,UTNU 080130Z 08002KT CAVOK 23/16 Q1004 R31/CLRD70 NOSIG,2024-08-08T01:30:00Z,23,16,6+,29.65
UTNN,42.488,59.623,100,4,4.6,UTNN 080130Z 10004KT CAVOK 27/08 Q1003 R33/CLRD60 NOSIG,2024-08-08T01:30:00Z,27,8,6+,29.62
UTFN,40.983,71.573,340,4,4.6,UTFN 080130Z 34004KT 9999 NSC 26/15 Q1006 R28/CLRD70 NOSIG,2024-08-08T01:30:00Z,26,15,6+,29.70
UTFF,40.356,71.745,170,8,9.21,UTFF 080130Z 17008KT 9999 NSC 27/09 Q1007 R18/CLRD70,2024-08-08T01:30:00Z,27,9,6+,29.73
UTDT,37.866,68.865,0,0,0.0,UTDT 080130Z 00000MPS 9999 FEW130 22/17 Q1003 R35/CLRD70 RMK QFE713/0951,2024-08-08T01:30:00Z,22,17,6+,29.62
UTDL,40.215,69.695,0,0,0.0,UTDL 080130Z 00000MPS 9999 NSC 24/12 Q1006 R26/CLRD70 NOSIG RMK QFE717/0956,2024-08-08T01:30:00Z,24,12,6+,29.70
UTDK,37.988,69.805,20,12,13.81,UTDK 080130Z 02006MPS 9999 NSC 26/08 Q1006 R01/09//70 RMK QFE697/0930,2024-08-08T01:30:00Z,26,8,6+,29.70
UTDD,38.543,68.825,110,4,4.6,UTDD 080130Z 11002MPS 9999 NSC 22/11 Q1007 R09/D NOSIG RMK QFE688/0917,2024-08-08T01:30:00Z,22,11,6+,29.73
USTR,57.19,65.324,20,6,6.9,USTR 080130Z 02003MPS 9999 FEW006 BKN033 11/11 Q1011 R30/090065 R21/090065 TEMPO SCT005 RMK QBB200,2024-08-08T01:30:00Z,11,11,6+,29.85
USSS,56.745,60.792,20,8,9.21,USSS 080130Z 02004MPS 9999 BKN030 13/12 Q1012 R08R/010060 NOSIG RMK QFE739/0985,2024-08-08T01:30:00Z,13,12,6+,29.88
USRR,61.342,73.422,20,4,4.6,USRR 080130Z 02002MPS 350V060 9999 BKN043 11/08 Q1011 R07/CLRD60 NOSIG RMK QFE754,2024-08-08T01:30:00Z,11,8,6+,29.85
USPP,57.914,56.021,100,10,11.51,USPP 080130Z 10005MPS 9999 BKN014CB 15/13 Q1010 R03/290250 TEMPO 2000 SHRA BKN011CB RMK QFE747,2024-08-08T01:30:00Z,15,13,6+,29.82
USNN,60.959,76.497,10,8,9.21,USNN 080130Z 01004MPS CAVOK 11/09 Q1009 R03/0///65 NOSIG RMK QFE753,2024-08-08T01:30:00Z,11,9,6+,29.79
USHH,61.029,69.086,40,4,4.6,USHH 080130Z 04002MPS 360V080 9999 FEW042 13/05 Q1013 R06/010060 NOSIG,2024-08-08T01:30:00Z,13,5,6+,29.91
USDA,71.216,72.05,20,2,2.3,USDA 080130Z 02001MPS 9999 BKN005 04/04 Q1018 R04/CLRD60 NOSIG RMK QBB150 QFE762/1016,2024-08-08T01:30:00Z,4,4,6+,30.06
USCM,53.393,58.756,20,8,9.21,USCM 080130Z 02004MPS 6000 -SHRA BKN004 OVC016CB 16/16 Q1006 R36/290352 TEMPO 1000 TSRA RMK QBB120 QFE716,2024-08-08T01:30:00Z,16,16,3.73,29.70
USCC,55.306,61.503,40,8,9.21,USCC 080130Z 04004MPS 9999 BKN022 15/15 Q1009 R09/290055 NOSIG RMK QFE736,2024-08-08T01:30:00Z,15,15,6+,29.79
URWW,48.788,44.336,VRB,2,2.3,URWW 080130Z VRB01MPS CAVOK 18/17 Q1008 R05/010070 TEMPO 0300 FG OVC002,2024-08-08T01:30:00Z,18,17,6+,29.76
URWI,46.374,44.331,280,12,13.81,URWI 080130Z AUTO 28006MPS 9999 // NSC 19/15 Q1009,2024-08-08T01:30:00Z,19,15,6+,29.79
URWA,46.286,47.995,250,8,9.21,URWA 080130Z 25004MPS CAVOK 22/18 Q1007 R27/010070 NOSIG RMK QFE757/1009,2024-08-08T01:30:00Z,22,18,6+,29.73
URSS,43.438,39.926,50,6,6.9,URSS 080130Z 05003MPS 9999 NSC 20/15 Q1011 R02/010070 R06/010070 NOSIG RMK R06/09005MPS QFE757,2024-08-08T01:30:00Z,20,15,6+,29.85
URRP,47.494,39.925,310,4,4.6,URRP 080130Z 31002MPS CAVOK 18/17 Q1009 R23/CLRD70 NOSIG RMK QFE749/0999,2024-08-08T01:30:00Z,18,17,6+,29.79
URMT,45.108,42.1,300,12,13.81,URMT 080130Z 30006MPS CAVOK 18/15 Q1013 R25/010070 NOSIG RMK QFE721,2024-08-08T01:30:00Z,18,15,6+,29.91
URMO,43.204,44.608,200,2,2.3,URMO 080130Z 20001MPS 9999 BKN/// 18/16 Q1014 R09/190060 TEMPO 0300 FG BKN002 RMK QFE717/0956,2024-08-08T01:30:00Z,18,16,6+,29.94
URMM,44.225,43.082,VRB,2,2.3,URMM 080130Z VRB01MPS 9999 NSC 17/15 Q1013 R29/090070 TEMPO 0300 FG BKN002 RMK QFE731/0975,2024-08-08T01:30:00Z,17,15,6+,29.91
URML,42.817,47.652,VRB,2,2.3,URML 080130Z VRB01MPS 9999 SCT///CB 23/18 Q1010 R32/01//70 NOSIG RMK QFE757/1009,2024-08-08T01:30:00Z,23,18,6+,29.82
URMG,43.387,45.702,300,4,4.6,URMG 080130Z 30002MPS 260V330 CAVOK 21/18 Q1012 R26/090070 TEMPO 0300 FG BKN002 RMK QFE744/0992,2024-08-08T01:30:00Z,21,18,6+,29.88
URKK,45.033,39.15,240,4,4.6,URKK 080130Z 24002MPS CAVOK 17/16 Q1011 R23L/CLRD70 NOSIG RMK QFE755,2024-08-08T01:30:00Z,17,16,6+,29.85
URKA,44.995,37.341,150,6,6.9,URKA 080130Z 15003MPS CAVOK 19/18 Q1011 R03/010070 TEMPO 0500 FG SCT003 RMK QFE754/1006,2024-08-08T01:30:00Z,19,18,6+,29.85
UOOO,69.308,87.322,20,21,24.17,UOOO 080130Z 02011MPS CAVOK 10/06 Q1007 R01/CLRD60 NOSIG RMK QFE741/0988,2024-08-08T01:30:00Z,10,6,6+,29.73
UNWW,53.811,86.878,170,4,4.6,UNWW 080130Z 17002MPS 9999 SCT040CB 18/17 Q1006 R19/210255 NOSIG RMK QFE728,2024-08-08T01:30:00Z,18,17,6+,29.70
UNTT,56.381,85.207,210,6,6.9,UNTT 080130Z 21003MPS 9000 BKN001 17/17 Q1003 R21/190055 NOSIG RMK QBB050 QFE737,2024-08-08T01:30:00Z,17,17,5.59,29.62
UNOO,54.964,73.32,350,8,9.21,UNOO 080130Z 35004MPS 9999 BKN007 BKN020CB 16/14 Q1006 R07/CLRD60 NOSIG RMK QFE746,2024-08-08T01:30:00Z,16,14,6+,29.70
UNKL,56.173,92.493,VRB,2,2.3,UNKL 080130Z VRB01MPS CAVOK 19/16 Q1006 R29/CLRD65 NOSIG RMK QFE729,2024-08-08T01:30:00Z,19,16,6+,29.70
UNEE,55.27,86.107,210,6,6.9,UNEE 080130Z 21003MPS 9999 BKN017 18/18 Q1004 R23/CLRD60 NOSIG RMK QFE730,2024-08-08T01:30:00Z,18,18,6+,29.65
UNBB,53.362,83.54,200,6,6.9,UNBB 080130Z 20003MPS 9999 -SHRA BKN030CB 18/16 Q1005 R24/290150 NOSIG RMK QFE732,2024-08-08T01:30:00Z,18,16,6+,29.68
UNAA,53.74,91.385,150,4,4.6,UNAA 080130Z 15002MPS 9999 -SHRA SCT038CB 18/16 Q1007 R02/290149 NOSIG RMK QFE733,2024-08-08T01:30:00Z,18,16,6+,29.73
UMIO,54.44,30.297,350,4,4.6,UMIO 080130Z 35002MPS 310V010 9999 SCT004 15/15 Q1012 NOSIG RMK QBB120 QFE741/0988,2024-08-08T01:30:00Z,15,15,6+,29.88
ULMM,68.781,32.749,0,0,0.0,ULMM 080130Z 00000MPS CAVOK 05/05 Q1017 R13/090070 NOSIG RMK QFE756,2024-08-08T01:30:00Z,5,5,6+,30.03
ULAA,64.599,40.712,90,4,4.6,ULAA 080130Z 09002MPS CAVOK 09/09 Q1016 R08/CLRD70 NOSIG RMK QFE761/1015,2024-08-08T01:30:00Z,9,9,6+,30.00
UIUU,51.808,107.443,90,4,4.6,UIUU 080130Z 09002MPS 050V140 9999 FEW006 19/15 Q1009 R08/CLRD60 NOSIG RMK QBB200 MT OBSC QFE712/0949,2024-08-08T01:30:00Z,19,15,6+,29.79
UIII,52.273,104.38,VRB,2,2.3,UIII 080130Z VRB01MPS CAVOK 18/16 Q1009 R12/60D NOSIG RMK QFE715/0953,2024-08-08T01:30:00Z,18,16,6+,29.79
UIBB,56.365,101.716,240,6,6.9,UIBB 080130Z 24003MPS 200V290 9999 FEW006 BKN016CB 17/15 Q1006 R30/210160 NOSIG RMK QBB200 MT OBSC QFE712/0949,2024-08-08T01:30:00Z,17,15,6+,29.70
UIAA,52.026,113.31,350,4,4.6,UIAA 080130Z 35002MPS 310V030 9999 FEW050CB 19/14 Q1009 R29/290158 NOSIG RMK QFE699/0932,2024-08-08T01:30:00Z,19,14,6+,29.79
UHWW,43.399,132.146,VRB,2,2.3,UHWW 080130Z VRB01MPS 9999 NSC 29/24 Q1004 R25L/0///70 NOSIG RMK QFE751,2024-08-08T01:30:00Z,29,24,6+,29.65
UHSS,46.887,142.719,360,8,9.21,UHSS 080130Z 36004MPS 9000 BKN009 OVC013CB 19/18 Q1003 R01/290060 NOSIG RMK MT OBSC QFE751/1001,2024-08-08T01:30:00Z,19,18,5.59,29.62
UHPP,53.175,158.444,340,16,18.41,UHPP 080130Z 34008MPS 9999 BKN050 27/14 Q1003 R34L/CLRD60 NOSIG RMK QFE749/0999,2024-08-08T01:30:00Z,27,14,6+,29.62
UHMM,59.911,150.725,220,6,6.9,UHMM 080130Z 22003MPS 170V250 9999 BKN028CB 18/12 Q1004 R10/70D NOSIG RMK QFE738 R28/24003MPS,2024-08-08T01:30:00Z,18,12,6+,29.65
UHMD,64.378,-173.243,360,2,2.3,UHMD 080130Z 36001MPS 9999 SCT010 BKN023 OVC070 06/05 Q1005 RMK QBB300 MT OBSC QFE753/1004,2024-08-08T01:30:00Z,6,5,6+,29.68
UHMA,64.733,177.739,200,8,9.21,UHMA 080130Z 20004MPS 170V230 9999 FEW021CB SCT036 10/05 Q1007 R20/60D NOSIG RMK MID 19004MPS END R20/18004MPS QFE750/1000,2024-08-08T01:30:00Z,10,5,6+,29.73
UHHH,48.527,135.184,VRB,2,2.3,UHHH 080130Z VRB01MPS 9999 SCT017CB 25/20 Q1002 R23R/090060 NOSIG RMK QFE746/0994,2024-08-08T01:30:00Z,25,20,6+,29.59
UHBB,50.425,127.412,180,4,4.6,UHBB 080130Z 18002MPS 140V230 9999 SCT020CB 21/18 Q1001 R36/090052 NOSIG RMK QFE733/0978,2024-08-08T01:30:00Z,21,18,6+,29.56
UGSB,41.61,41.6,130,8,9.21,UGSB 080130Z 13008KT 9999 SCT072 21/20 Q1012 NOSIG,2024-08-08T01:30:00Z,21,20,6+,29.88
UGMS,43.055,42.75,VRB,2,2.3,UGMS 080130Z AUTO VRB02KT //// ////// 11/11 Q1020,2024-08-08T01:30:00Z,11,11,,30.12
UGKO,42.177,42.483,VRB,2,2.3,UGKO 080130Z VRB02KT 9999 SCT021 20/20 Q1011 NOSIG,2024-08-08T01:30:00Z,20,20,6+,29.85
UGAM,42.527,43.135,VRB,2,2.3,UGAM 080130Z AUTO VRB02KT //// ////// 18/17 Q1014,2024-08-08T01:30:00Z,18,17,,29.94
UERR,62.538,114.056,VRB,2,2.3,UERR 080130Z VRB01MPS CAVOK 21/07 Q1007 R07/CLRD60 NOSIG RMK QFE725/0967,2024-08-08T01:30:00Z,21,7,6+,29.73
UERP,66.4,112.03,170,6,6.9,UERP 080130Z 17003MPS 9999 SCT020CB OVC100 15/10 Q1003 R36/090060 NOSIG RMK QFE708,2024-08-08T01:30:00Z,15,10,6+,29.62
UEEE,62.093,129.774,350,2,2.3,UEEE 080130Z 35001MPS CAVOK 19/09 Q1009 R23/09//60 NOSIG RMK QFE748,2024-08-08T01:30:00Z,19,9,6+,29.79
UDYZ,40.147,44.396,120,2,2.3,UDYZ 080130Z 12002KT 9999 NSC 21/12 Q1011 NOSIG,2024-08-08T01:30:00Z,21,12,6+,29.85
UDSG,40.75,43.859,40,5,5.75,UDSG 080130Z 04005KT 9999 NSC 13/11 Q1018 NOSIG,2024-08-08T01:30:00Z,13,11,6+,30.06
UCFO,40.61,72.791,170,8,9.21,UCFO 080130Z 17004MPS CAVOK 26/11 Q1009 NOSIG,2024-08-08T01:30:00Z,26,11,6+,29.79
UCFM,43.061,74.478,120,8,9.21,UCFM 080130Z 12004MPS 9000 NSC 23/10 Q1009 NOSIG,2024-08-08T01:30:00Z,23,10,5.59,29.79
UCFL,42.585,76.702,350,4,4.6,UCFL 080130Z 35002MPS 320V030 9999 FEW030CB 20/10 Q1019,2024-08-08T01:30:00Z,20,10,6+,30.09
UBBZ,39.094,46.734,60,12,13.81,UBBZ 080130Z AUTO 06012KT 9999 // ///050/// 27/19 Q1011,2024-08-08T01:30:00Z,27,19,6+,29.85
UBBN,39.189,45.458,230,8,9.21,UBBN 080130Z 23008KT 9999 FEW046 SCT100 26/14 Q1009 NOSIG RMK QFE682,2024-08-08T01:30:00Z,26,14,6+,29.79
UBBG,40.738,46.318,280,10,11.51,UBBG 080130Z 28010KT 9999 FEW050 BKN100 24/17 Q1009 NOSIG,2024-08-08T01:30:00Z,24,17,6+,29.79
UBBF,39.595,47.196,20,6,6.9,UBBF 080130Z AUTO 02006KT 9999 // ///087/// 25/19 Q1009,2024-08-08T01:30:00Z,25,19,6+,29.79
UBBB,40.469,50.061,330,24,27.62,UBBB 080130Z 33024G34KT 9999 SCT020 26/21 Q1007 NOSIG,2024-08-08T01:30:00Z,26,21,6+,29.73
UAUU,53.215,63.553,40,10,11.51,UAUU 080130Z 04005MPS 9999 SCT053CB 17/16 Q1005 NOSIG RMK QFE738/0984,2024-08-08T01:30:00Z,17,16,6+,29.68
UATG,47.122,51.829,180,6,6.9,UATG 080130Z 18003MPS 9999 SCT050CB 24/15 Q1004 NOSIG RMK QFE755/1006,2024-08-08T01:30:00Z,24,15,6+,29.65
UATE,43.86,51.092,10,10,11.51,UATE 080130Z 01005MPS 9999 FEW060CB 25/18 Q1006 NOSIG RMK QFE753/1004,2024-08-08T01:30:00Z,25,18,6+,29.70
UASS,50.352,80.228,10,8,9.21,UASS 080130Z 01004MPS CAVOK 23/14 Q1003 NOSIG RMK QFE734/0979,2024-08-08T01:30:00Z,23,14,6+,29.62
UASP,52.202,77.078,250,4,4.6,UASP 080130Z 25002MPS CAVOK 19/18 Q1004 NOSIG RMK QFE742/0990,2024-08-08T01:30:00Z,19,18,6+,29.65
UASK,50.027,82.5,120,6,6.9,UASK 080130Z 12003MPS 9999 BKN110 19/17 Q1005 NOSIG RMK QFE729/0972,2024-08-08T01:30:00Z,19,17,6+,29.68
UARR,51.151,51.541,340,6,6.9,UARR 080130Z 34003MPS CAVOK 16/14 Q1005 TEMPO 1000 BR RMK QFE750/1000,2024-08-08T01:30:00Z,16,14,6+,29.68
UAOO,44.707,65.593,230,4,4.6,UAOO 080130Z 23002MPS CAVOK 24/10 Q1004 NOSIG RMK QFE741/0989,2024-08-08T01:30:00Z,24,10,6+,29.65
UAKK,49.672,73.333,0,0,0.0,UAKK 080130Z 00000MPS 9999 VCSH BKN050CB 16/13 Q1007 TEMPO 5000 -TSRA RMK QFE709/0945,2024-08-08T01:30:00Z,16,13,6+,29.73
UAKD,47.711,67.739,220,6,6.9,UAKD 080130Z 22003MPS 9999 SCT049 25/14 Q1005 NOSIG RMK QFE720/0960,2024-08-08T01:30:00Z,25,14,6+,29.68
UAIT,43.311,68.55,60,8,9.21,UAIT 080130Z 06004MPS CAVOK 28/03 Q1006 NOSIG RMK QFE730/0973,2024-08-08T01:30:00Z,28,3,6+,29.70
UAII,42.366,69.476,280,2,2.3,UAII 080130Z 28001MPS CAVOK 21/11 Q1006 NOSIG RMK QFE717/0956,2024-08-08T01:30:00Z,21,11,6+,29.70
UADD,42.854,71.304,30,4,4.6,UADD 080130Z 03002MPS 9999 NSC 22/11 Q1009 NOSIG RMK QFE700/0933,2024-08-08T01:30:00Z,22,11,6+,29.79
UACP,54.775,69.183,40,6,6.9,UACP 080130Z 04003MPS 9999 OVC011 15/14 Q1007 NOSIG RMK QFE743/0991,2024-08-08T01:30:00Z,15,14,6+,29.73
UACK,53.332,69.594,80,8,9.21,UACK 080130Z 08004MPS 9999 OVC002 16/15 Q1006 NOSIG RMK QBB060 QFE731/0974,2024-08-08T01:30:00Z,16,15,6+,29.70
UACC,51.024,71.468,90,4,4.6,UACC 080130Z 09002MPS 040V170 6000 -SHRA BKN036CB 18/17 Q1006 NOSIG RMK QFE723/0965,2024-08-08T01:30:00Z,18,17,3.73,29.70
UAAA,43.35,77.027,120,4,4.6,UAAA 080130Z 12002MPS 070V150 9999 SCT100 21/11 Q1010 NOSIG,2024-08-08T01:30:00Z,21,11,6+,29.82
TFFR,16.265,-61.532,110,4,4.6,TFFR 080130Z AUTO 11004KT CAVOK 27/24 Q1013 TEMPO 4000 SHRA SCT015 BKN030TCU,2024-08-08T01:30:00Z,27,24,6+,29.91
TFFJ,17.904,-62.844,60,16,18.41,TFFJ 080130Z AUTO 06016KT 9999 FEW023 29/25 Q1013,2024-08-08T01:30:00Z,29,25,6+,29.91
TFFF,14.591,-61.003,60,4,4.6,TFFF 080130Z AUTO 06004KT 9999 FEW026/// BKN086/// ///TCU 27/24 Q1012 TEMPO 4000 SHRA,2024-08-08T01:30:00Z,27,24,6+,29.88
SPZO,-13.536,-71.939,300,5,5.75,SPZO 080130Z 30005KT 270V330 9999 NSC 12/M01 Q1029 NOSIG RMK BIRD HAZARD RWY 10/28,2024-08-08T01:30:00Z,12,-1,6+,30.38
SOCA,4.822,-52.365,110,4,4.6,SOCA 080130Z AUTO 11004KT CAVOK 27/25 Q1012 NOSIG,2024-08-08T01:30:00Z,27,25,6+,29.88
ROAH,26.196,127.646,90,7,8.06,ROAH 080130Z 09007KT 050V110 9999 VCSH SCT022 FEW025TCU 33/27 Q1005 RMK 3CU022 1TCU025 A2969 TCU W,2024-08-08T01:30:00Z,33,27,6+,29.68
RKSI,37.469,126.451,180,6,6.9,RKSI 080130Z 18006KT 9999 FEW010 BKN200 29/24 Q1005 NOSIG,2024-08-08T01:30:00Z,29,24,6+,29.68
RJTT,35.553,139.781,50,3,3.45,RJTT 080130Z 05003KT 020V090 9999 FEW020 30/26 Q1004 BECMG TL0200 10006KT RMK 1CU020 A2965,2024-08-08T01:30:00Z,30,26,6+,29.65
RJOB,34.757,133.855,270,4,4.6,RJOB 080130Z 27004KT 210V320 9999 FEW025 32/22 Q1006 RMK 1CU025 A2971,2024-08-08T01:30:00Z,32,22,6+,29.70
RJGG,34.858,136.805,240,6,6.9,RJGG 080130Z 24006KT 9999 FEW030 31/24 Q1003 NOSIG,2024-08-08T01:30:00Z,31,24,6+,29.62
RJFF,33.584,130.452,VRB,4,4.6,RJFF 080130Z VRB04KT 9999 FEW025 33/24 Q1004 BECMG 31011KT,2024-08-08T01:30:00Z,33,24,6+,29.65
RJCC,42.774,141.693,180,7,8.06,RJCC 080130Z 18007KT 150V210 9999 FEW006 SCT008 BKN010 26/23 Q1003 RMK 1ST006 4ST008 6ST010 A2962,2024-08-08T01:30:00Z,26,23,6+,29.62
RJBB,34.434,135.233,10,6,6.9,RJBB 080130Z 01006KT 9999 FEW025 30/23 Q1005 NOSIG,2024-08-08T01:30:00Z,30,23,6+,29.68
RJAA,35.765,140.386,70,5,5.75,RJAA 080130Z 07005KT 330V110 9999 -SHRA FEW020 BKN035 31/26 Q1004 NOSIG RMK 1CU020 7CU035 A2965,2024-08-08T01:30:00Z,31,26,6+,29.65
RCTP,25.078,121.233,320,10,11.51,RCTP 080130Z 32010KT 9999 VCSH SCT008 FEW015TCU BKN020 30/27 Q1007 NOSIG RMK TCU W A2975,2024-08-08T01:30:00Z,30,27,6+,29.73
RCNN,22.95,120.206,0,0,0.0,RCNN 080130Z 00000KT 9999 FEW012 SCT025 BKN100 32/26 Q1007 NOSIG RMK A2974,2024-08-08T01:30:00Z,32,26,6+,29.73
RCMQ,24.265,120.621,180,8,9.21,RCMQ 080130Z 18008KT 7000 VCSH FEW010 SCT025 BKN060 29/26 Q1009 NOSIG RMK A2980 VCSH SE-S,2024-08-08T01:30:00Z,29,26,4.35,29.79
RCKH,22.577,120.35,50,5,5.75,RCKH 080130Z 05005KT 9999 FEW022 SCT070 32/25 Q1006 NOSIG RMK A2973,2024-08-08T01:30:00Z,32,25,6+,29.70
RCFN,22.755,121.102,VRB,3,3.45,RCFN 080130Z VRB03KT 9999 FEW020 32/27 Q1007 NOSIG RMK A2974,2024-08-08T01:30:00Z,32,27,6+,29.73
PASM,62.057,-163.298,170,9,10.36,PASM 080130Z AUTO 17009KT 10SM -RA FEW013 BKN020 OVC065 14/12 A2973 RMK AO2 P0000,2024-08-08T01:30:00Z,14,12,10+,29.73
PAMO,62.095,-163.686,200,11,12.66,PAMO 080130Z AUTO 20011KT 8SM FEW010 SCT065 BKN080 13/11 A2972 RMK AO2 RAE0058 P0000,2024-08-08T01:30:00Z,13,11,8,29.72
OTBD,25.261,51.565,VRB,2,2.3,OTBD 080130Z AUTO VRB02KT CAVOK 35/20 Q0997 NOSIG,2024-08-08T01:30:00Z,35,20,6+,29.44
OPPS,33.996,71.515,50,10,11.51,OPPS 080130Z 05010KT 6000 TSRA FEW005 FEW025CB SCT020 OVC070 25/25 Q1003,2024-08-08T01:30:00Z,25,25,3.73,29.62
OPMT,30.203,71.419,0,0,0.0,OPMT 080130Z 00000KT 3000 FU NSC 31/27 Q0999 NOSIG,2024-08-08T01:30:00Z,31,27,1.86,29.50
OPKC,24.902,67.139,260,6,6.9,OPKC 080130Z 26006KT 5000 HZ SCT020 BKN030 OVC080 29/24 Q1002 NOSIG,2024-08-08T01:30:00Z,29,24,3.11,29.59
OPIS,33.551,72.827,90,10,11.51,OPIS 080130Z 09010KT 3000 -TSRA FEW030CB SCT040 OVC100 23/23 Q1004 TEMPO 13015G35KT 2000 TSRA FEW030CB,2024-08-08T01:30:00Z,23,23,1.86,29.65
OITT,38.13,46.24,0,0,0.0,OITT 080130Z 00000KT CAVOK 21/13 Q1013 A2993,2024-08-08T01:30:00Z,21,13,6+,29.91
OISS,29.539,52.59,0,0,0.0,OISS 080130Z 00000KT 8000 SCT040 25/10 Q1010 A2983,2024-08-08T01:30:00Z,25,10,4.97,29.82
OIMM,36.236,59.639,300,6,6.9,OIMM 080130Z 30006KT CAVOK 23/10 Q1011 A2986,2024-08-08T01:30:00Z,23,10,6+,29.85
OIII,35.686,51.304,270,4,4.6,OIII 080130Z 27004KT 9999 FEW040 SCT100 31/04 Q1007 A2976,2024-08-08T01:30:00Z,31,4,6+,29.73
OIFM,32.752,51.866,310,4,4.6,OIFM 080130Z 31004KT CAVOK 24/00 Q1012 A2990,2024-08-08T01:30:00Z,24,0,6+,29.88
OBBI,26.271,50.634,VRB,2,2.3,OBBI 080130Z VRB02KT CAVOK 34/25 Q0997 NOSIG,2024-08-08T01:30:00Z,34,25,6+,29.44
NZWN,-41.331,174.806,10,20,23.02,NZWN 080130Z AUTO 01020G30KT 9999 BKN021/// BKN028/// 11/08 Q1019,2024-08-08T01:30:00Z,11,8,6+,30.09
NZQN,-45.021,168.739,70,8,9.21,NZQN 080130Z AUTO 07008KT 030V100 9999 FEW010/// BKN020/// OVC075/// 07/05 Q1019,2024-08-08T01:30:00Z,7,5,6+,30.09
NZCH,-43.489,172.528,230,12,13.81,NZCH 080130Z AUTO 23012KT 9999 -RA FEW010/// OVC049/// 09/08 Q1017,2024-08-08T01:30:00Z,9,8,6+,30.03
NZAA,-37.008,174.792,360,13,14.96,NZAA 080130Z AUTO 36013KT 9999 OVC065/// 14/09 Q1022,2024-08-08T01:30:00Z,14,9,6+,30.18
NWWW,-22.015,166.213,20,3,3.45,NWWW 080130Z AUTO 02003KT 310V070 9999 -RA BKN034/// BKN050/// BKN070/// ///TCU 21/15 Q1018 TEMPO 3500 SHRA BECMG FEW040,2024-08-08T01:30:00Z,21,15,6+,30.06
NTAA,-17.554,-149.607,40,11,12.66,NTAA 080130Z 04011KT 9999 FEW021 BKN060 28/23 Q1013 NOSIG,2024-08-08T01:30:00Z,28,23,6+,29.91
NLWW,-13.238,-176.199,110,13,14.96,NLWW 080130Z 11013KT 080V140 9999 SCT032 29/21 Q1013 NOSIG,2024-08-08T01:30:00Z,29,21,6+,29.91
NIUE,-19.079,-169.926,130,15,17.26,NIUE 080130Z AUTO 13015KT 9999 SCT030/// SCT035/// 25/17 Q1016,2024-08-08T01:30:00Z,25,17,6+,30.00
NCRG,-21.203,-159.806,230,10,11.51,NCRG 080130Z AUTO 23010KT 170V310 9999 FEW031/// SCT045/// 24/17 Q1014,2024-08-08T01:30:00Z,24,17,6+,29.94
LYVR,45.147,21.31,VRB,1,1.15,LYVR 080130Z AUTO VRB01KT CAVOK 14/13 Q1013,2024-08-08T01:30:00Z,14,13,6+,29.91
LYTV,42.405,18.723,0,0,0.0,LYTV 080130Z AUTO 00000KT CAVOK 19/16 Q1011,2024-08-08T01:30:00Z,19,16,6+,29.85
LYPG,42.359,19.252,270,3,3.45,LYPG 080130Z AUTO 27003KT CAVOK 24/16 Q1011,2024-08-08T01:30:00Z,24,16,6+,29.85
LYNI,43.338,21.863,0,0,0.0,LYNI 080130Z 00000KT CAVOK 16/10 Q1015 NOSIG,2024-08-08T01:30:00Z,16,10,6+,29.97
LYKV,43.818,20.587,0,0,0.0,LYKV 080130Z 00000KT CAVOK 14/14 Q1014 NOSIG,2024-08-08T01:30:00Z,14,14,6+,29.94
LYBT,44.935,20.258,0,0,0.0,LYBT 080130Z 00000KT CAVOK 17/14 Q1013 NOSIG,2024-08-08T01:30:00Z,17,14,6+,29.91
LYBE,44.824,20.291,160,4,4.6,LYBE 080130Z 16004KT CAVOK 18/13 Q1013 NOSIG,2024-08-08T01:30:00Z,18,13,6+,29.91
LUKK,46.928,28.931,VRB,2,2.3,LUKK 080130Z VRB02KT CAVOK 18/15 Q1013 NOSIG,2024-08-08T01:30:00Z,18,15,6+,29.91
LRTR,45.811,21.333,80,4,4.6,LRTR 080130Z 08004KT CAVOK 16/10 Q1013,2024-08-08T01:30:00Z,16,10,6+,29.91
LRTM,46.468,24.421,90,5,5.75,LRTM 080130Z AUTO 09005KT 9999 NCD 15/14 Q1015,2024-08-08T01:30:00Z,15,14,6+,29.97
LRTC,45.065,28.716,0,0,0.0,LRTC 080130Z AUTO 00000KT 9999 NCD 17/17 Q1013,2024-08-08T01:30:00Z,17,17,6+,29.91
LRSV,47.686,26.354,0,0,0.0,LRSV 080130Z 00000KT CAVOK 17/14 Q1015,2024-08-08T01:30:00Z,17,14,6+,29.97
LRSM,47.703,22.886,0,0,0.0,LRSM 080130Z AUTO 00000KT 9999 NCD 15/13 Q1014,2024-08-08T01:30:00Z,15,13,6+,29.94
LRSB,45.789,24.091,0,0,0.0,LRSB 080130Z 00000KT CAVOK 13/13 Q1015 NOSIG,2024-08-08T01:30:00Z,13,13,6+,29.97
LROP,44.572,26.102,300,3,3.45,LROP 080130Z 30003KT 270V350 CAVOK 18/15 Q1014 NOSIG,2024-08-08T01:30:00Z,18,15,6+,29.94
LROD,47.036,21.896,100,7,8.06,LROD 080130Z AUTO 10007KT 9999 NCD 18/14 Q1013,2024-08-08T01:30:00Z,18,14,6+,29.91
LRIA,47.164,27.627,280,1,1.15,LRIA 080130Z 28001KT CAVOK 18/16 Q1014,2024-08-08T01:30:00Z,18,16,6+,29.94
LRCV,44.31,23.867,50,4,4.6,LRCV 080130Z 05004KT CAVOK 18/10 Q1014,2024-08-08T01:30:00Z,18,10,6+,29.94
LRCL,46.783,23.676,90,2,2.3,LRCL 080130Z AUTO 09002KT 9999 BKN220/// 14/13 Q1015,2024-08-08T01:30:00Z,14,13,6+,29.97
LRCK,44.362,28.488,300,5,5.75,LRCK 080130Z 30005KT 8000 NSC 18/17 Q1013 NOSIG,2024-08-08T01:30:00Z,18,17,4.97,29.91
LRBV,45.706,25.524,60,2,2.3,LRBV 080130Z AUTO 06002KT 9999 NCD 13/11 Q1017,2024-08-08T01:30:00Z,13,11,6+,30.03
LRBS,44.511,26.078,VRB,1,1.15,LRBS 080130Z VRB01KT CAVOK 18/16 Q1014 NOSIG,2024-08-08T01:30:00Z,18,16,6+,29.94
LRBM,47.658,23.47,VRB,1,1.15,LRBM 080130Z AUTO VRB01KT 9999 NCD 17/14 Q1014,2024-08-08T01:30:00Z,17,14,6+,29.94
LRBC,46.522,26.91,340,2,2.3,LRBC 080130Z 34002KT CAVOK 16/15 Q1014,2024-08-08T01:30:00Z,16,15,6+,29.94
LRAR,46.176,21.264,0,0,0.0,LRAR 080130Z AUTO 00000KT 9999 NCD 17/12 Q1013,2024-08-08T01:30:00Z,17,12,6+,29.91
LQTZ,44.461,18.728,VRB,2,2.3,LQTZ 080130Z VRB02KT CAVOK 14/14 Q1013,2024-08-08T01:30:00Z,14,14,6+,29.91
LQSA,43.825,18.331,VRB,1,1.15,LQSA 080130Z VRB01KT CAVOK 17/14 Q1015,2024-08-08T01:30:00Z,17,14,6+,29.97
LQMO,43.285,17.84,140,3,3.45,LQMO 080130Z 14003KT CAVOK 21/16 Q1011,2024-08-08T01:30:00Z,21,16,6+,29.85
LQBK,44.937,17.299,310,7,8.06,LQBK 080130Z 31007KT 9999 BKN047 19/16 Q1013 NOSIG,2024-08-08T01:30:00Z,19,16,6+,29.91
LPPT,38.781,-9.136,320,16,18.41,LPPT 080130Z 32016KT 9999 FEW010 18/16 Q1014,2024-08-08T01:30:00Z,18,16,6+,29.94
LPPS,33.073,-16.35,40,9,10.36,LPPS 080130Z 04009KT 360V060 9999 FEW014 22/17 Q1019,2024-08-08T01:30:00Z,22,17,6+,30.09
LPPR,41.235,-8.684,170,6,6.9,LPPR 080130Z 17006KT CAVOK 16/15 Q1013,2024-08-08T01:30:00Z,16,15,6+,29.91
LPPD,37.741,-25.698,350,5,5.75,LPPD 080130Z 35005KT 8000 -SHRA FEW006 BKN030 23/21 Q1022,2024-08-08T01:30:00Z,23,21,4.97,30.18
LPMA,32.698,-16.774,20,12,13.81,LPMA 080130Z 02012KT 340V050 9999 SCT015 23/18 Q1018,2024-08-08T01:30:00Z,23,18,6+,30.06
LPFR,37.014,-7.966,10,3,3.45,LPFR 080130Z 01003KT CAVOK 26/13 Q1011,2024-08-08T01:30:00Z,26,13,6+,29.85
LPAZ,36.971,-25.171,VRB,2,2.3,LPAZ 080130Z VRB02KT 9999 FEW016 23/21 Q1022,2024-08-08T01:30:00Z,23,21,6+,30.18
LKTB,49.151,16.694,0,0,0.0,LKTB 080130Z 00000KT CAVOK 21/15 Q1013 NOSIG,2024-08-08T01:30:00Z,21,15,6+,29.91
LKPR,50.101,14.26,VRB,1,1.15,LKPR 080130Z VRB01KT CAVOK 19/16 Q1014 NOSIG,2024-08-08T01:30:00Z,19,16,6+,29.94
LKPD,50.016,15.74,VRB,1,1.15,LKPD 080130Z VRB01KT CAVOK 19/18 Q1013 RMK BLU,2024-08-08T01:30:00Z,19,18,6+,29.91
LKNA,49.166,16.125,VRB,1,1.15,LKNA 080130Z VRB01KT CAVOK 20/14 Q1014 RMK BLACK,2024-08-08T01:30:00Z,20,14,6+,29.94
LKMT,49.696,18.111,220,3,3.45,LKMT 080130Z 22003KT 190V280 CAVOK 17/14 Q1013 NOSIG,2024-08-08T01:30:00Z,17,14,6+,29.91
LKCV,49.94,15.382,290,3,3.45,LKCV 080130Z 29003KT CAVOK 19/18 Q1013 NOSIG RMK BLU BLU,2024-08-08T01:30:00Z,19,18,6+,29.91
LJPZ,45.473,13.615,70,2,2.3,LJPZ 080130Z AUTO 07002KT 9999 NSC 23/19 Q1012,2024-08-08T01:30:00Z,23,19,6+,29.88
LJMB,46.48,15.682,VRB,1,1.15,LJMB 080130Z AUTO VRB01KT 9999 NSC 18/17 Q1015,2024-08-08T01:30:00Z,18,17,6+,29.97
LJLJ,46.218,14.477,VRB,2,2.3,LJLJ 080130Z VRB02KT 9999 FEW050 BKN110 19/18 Q1015 NOSIG,2024-08-08T01:30:00Z,19,18,6+,29.97
LJCE,45.899,15.523,260,3,3.45,LJCE 080130Z AUTO 26003KT 9999 FEW014/// BKN098/// 19/19 Q1015 RESHRA,2024-08-08T01:30:00Z,19,19,6+,29.97
LHBP,47.437,19.256,VRB,1,1.15,LHBP 080130Z VRB01KT CAVOK 18/11 Q1013 NOSIG,2024-08-08T01:30:00Z,18,11,6+,29.91
LFYR,47.32,1.688,0,0,0.0,LFYR 080130Z AUTO 00000KT 0900 FG NSC 12/12 Q1017,2024-08-08T01:30:00Z,12,12,0.56,30.03
LFVP,46.764,-56.169,260,8,9.21,LFVP 080130Z AUTO 26008KT CAVOK 17/16 Q1014,2024-08-08T01:30:00Z,17,16,6+,29.94
LFTW,43.757,4.416,10,4,4.6,LFTW 080130Z AUTO 01004KT CAVOK 24/18 Q1013,2024-08-08T01:30:00Z,24,18,6+,29.91
LFTH,43.094,6.146,330,3,3.45,LFTH 080130Z AUTO 33003KT 310V010 CAVOK 22/20 Q1012 NOSIG,2024-08-08T01:30:00Z,22,20,6+,29.88
LFSX,47.783,6.364,280,4,4.6,LFSX 080130Z AUTO 28004KT 9999 OVC038 19/17 Q1016,2024-08-08T01:30:00Z,19,17,6+,30.00
LFST,48.549,7.64,340,3,3.45,LFST 080130Z AUTO 34003KT 9999 BKN036 BKN044 OVC058 20/17 Q1016 TEMPO SHRA FEW040CB,2024-08-08T01:30:00Z,20,17,6+,30.00
LFSO,48.583,5.955,220,4,4.6,LFSO 080130Z AUTO 22004KT CAVOK 16/14 Q1017,2024-08-08T01:30:00Z,16,14,6+,30.03
LFSN,48.692,6.231,VRB,3,3.45,LFSN 080130Z AUTO VRB03KT CAVOK 18/15 Q1016,2024-08-08T01:30:00Z,18,15,6+,30.00
LFSL,45.04,1.486,0,0,0.0,LFSL 080130Z AUTO 00000KT CAVOK 15/12 Q1017,2024-08-08T01:30:00Z,15,12,6+,30.03
LFSI,48.631,4.904,140,3,3.45,LFSI 080130Z AUTO 14003KT CAVOK 16/14 Q1017,2024-08-08T01:30:00Z,16,14,6+,30.03
LFSD,47.269,5.09,310,5,5.75,LFSD 080130Z AUTO 31005KT CAVOK 18/15 Q1017,2024-08-08T01:30:00Z,18,15,6+,30.03
LFSB,47.614,7.51,250,5,5.75,LFSB 080130Z AUTO 25005KT 220V300 9999 FEW038 SCT049 19/17 Q1016 TEMPO SHRA SCT040TCU,2024-08-08T01:30:00Z,19,17,6+,30.00
LFRZ,47.312,-2.163,280,5,5.75,LFRZ 080130Z AUTO 28005KT CAVOK 16/13 Q1018 TEMPO 3000 BR,2024-08-08T01:30:00Z,16,13,6+,30.06
LFRV,47.722,-2.727,290,3,3.45,LFRV 080130Z AUTO 29003KT CAVOK 14/13 Q1018,2024-08-08T01:30:00Z,14,13,6+,30.06
LFRT,48.536,-2.853,180,4,4.6,LFRT 080130Z AUTO 18004KT CAVOK 15/12 Q1017,2024-08-08T01:30:00Z,15,12,6+,30.03
LFRS,47.15,-1.609,170,3,3.45,LFRS 080130Z AUTO 17003KT CAVOK 13/12 Q1018 NOSIG,2024-08-08T01:30:00Z,13,12,6+,30.06
LFRQ,47.975,-4.168,0,0,0.0,LFRQ 080130Z AUTO 00000KT 9999 FEW017 BKN120 13/13 Q1018,2024-08-08T01:30:00Z,13,13,6+,30.06
LFRN,48.069,-1.734,260,2,2.3,LFRN 080130Z AUTO 26002KT CAVOK 14/13 Q1018 NOSIG,2024-08-08T01:30:00Z,14,13,6+,30.06
LFRM,47.949,0.202,0,0,0.0,LFRM 080130Z AUTO 00000KT CAVOK 15/13 Q1017,2024-08-08T01:30:00Z,15,13,6+,30.03
LFRL,48.279,-4.439,210,8,9.21,LFRL 080130Z AUTO 21008KT CAVOK 15/14 Q1017,2024-08-08T01:30:00Z,15,14,6+,30.03
LFRK,49.18,-0.456,260,4,4.6,LFRK 080130Z AUTO 26004KT CAVOK 16/13 Q1017,2024-08-08T01:30:00Z,16,13,6+,30.03
LFRJ,48.527,-4.138,190,7,8.06,LFRJ 080130Z AUTO 19007KT CAVOK 15/14 Q1017,2024-08-08T01:30:00Z,15,14,6+,30.03
LFRI,46.702,-1.379,0,0,0.0,LFRI 080130Z AUTO 00000KT CAVOK 13/12 Q1018,2024-08-08T01:30:00Z,13,12,6+,30.06
LFRH,47.761,-3.44,240,2,2.3,LFRH 080130Z AUTO 24002KT CAVOK 14/13 Q1018 TEMPO 0500 FG,2024-08-08T01:30:00Z,14,13,6+,30.06
LFRG,49.365,0.154,240,5,5.75,LFRG 080130Z AUTO 24005KT CAVOK 15/12 Q1017,2024-08-08T01:30:00Z,15,12,6+,30.03
LFRD,48.589,-2.075,200,5,5.75,LFRD 080130Z AUTO 20005KT CAVOK 13/12 Q1018 NOSIG,2024-08-08T01:30:00Z,13,12,6+,30.06
LFRC,49.65,-1.47,220,5,5.75,LFRC 080130Z AUTO 22005KT CAVOK 15/14 Q1017,2024-08-08T01:30:00Z,15,14,6+,30.03
LFRB,48.444,-4.412,200,7,8.06,LFRB 080130Z AUTO 20007KT 9999 BKN021 BKN056 BKN086 16/15 Q1017 TEMPO BKN008,2024-08-08T01:30:00Z,16,15,6+,30.03
LFQQ,50.562,3.089,230,6,6.9,LFQQ 080130Z AUTO 23006KT CAVOK 17/13 Q1016 TEMPO BKN013 BKN070,2024-08-08T01:30:00Z,17,13,6+,30.00
LFQB,48.325,4.02,100,3,3.45,LFQB 080130Z AUTO 10003KT 0900 0750 // NSC 16/14 Q1017,2024-08-08T01:30:00Z,16,14,0.56,30.03
LFQA,49.21,4.155,160,1,1.15,LFQA 080130Z AUTO 16001KT CAVOK 17/14 Q1017,2024-08-08T01:30:00Z,17,14,6+,30.03
LFPV,48.77,2.205,320,4,4.6,LFPV 080130Z AUTO 32004KT CAVOK 17/11 Q1017 NOSIG,2024-08-08T01:30:00Z,17,11,6+,30.03
LFPT,49.097,2.041,0,0,0.0,LFPT 080130Z AUTO 00000KT CAVOK 15/14 Q1017,2024-08-08T01:30:00Z,15,14,6+,30.03
LFPO,48.717,2.384,300,4,4.6,LFPO 080130Z AUTO 30004KT CAVOK 16/11 Q1017 NOSIG,2024-08-08T01:30:00Z,16,11,6+,30.03
LFPN,48.752,2.114,0,0,0.0,LFPN 080130Z AUTO 00000KT CAVOK 16/12 Q1017,2024-08-08T01:30:00Z,16,12,6+,30.03
LFPM,48.611,2.68,310,2,2.3,LFPM 080130Z AUTO 31002KT CAVOK 16/13 Q1017,2024-08-08T01:30:00Z,16,13,6+,30.03
LFPG,49.015,2.534,300,3,3.45,LFPG 080130Z 30003KT CAVOK 18/12 Q1017 NOSIG,2024-08-08T01:30:00Z,18,12,6+,30.03
LFPB,48.967,2.428,0,0,0.0,LFPB 080130Z AUTO 00000KT CAVOK 18/12 Q1017 NOSIG,2024-08-08T01:30:00Z,18,12,6+,30.03
LFOZ,47.897,2.163,0,0,0.0,LFOZ 080130Z AUTO 00000KT CAVOK 13/12 Q1017,2024-08-08T01:30:00Z,13,12,6+,30.03
LFOV,48.031,-0.746,0,0,0.0,LFOV 080130Z AUTO 00000KT CAVOK 14/12 Q1017,2024-08-08T01:30:00Z,14,12,6+,30.03
LFOT,47.444,0.728,280,4,4.6,LFOT 080130Z AUTO 28004KT CAVOK 16/12 Q1017 NOSIG,2024-08-08T01:30:00Z,16,12,6+,30.03
LFOP,49.383,1.182,260,5,5.75,LFOP 080130Z AUTO 26005KT CAVOK 16/13 Q1017,2024-08-08T01:30:00Z,16,13,6+,30.03
LFOK,48.777,4.165,340,5,5.75,LFOK 080130Z AUTO 34005KT CAVOK 16/12 Q1017 NOSIG,2024-08-08T01:30:00Z,16,12,6+,30.03
LFOJ,47.985,1.754,0,0,0.0,LFOJ 080130Z AUTO 00000KT CAVOK 15/12 Q1017 NOSIG,2024-08-08T01:30:00Z,15,12,6+,30.03
LFOH,49.533,0.091,260,8,9.21,LFOH 080130Z AUTO 26008KT 9999 BKN016 OVC094 17/14 Q1017,2024-08-08T01:30:00Z,17,14,6+,30.03
LFOE,49.025,1.222,220,4,4.6,LFOE 080130Z AUTO 22004KT CAVOK 16/13 Q1017 NOSIG,2024-08-08T01:30:00Z,16,13,6+,30.03
LFOB,49.454,2.113,260,3,3.45,LFOB 080130Z AUTO 26003KT CAVOK 17/12 Q1017 NOSIG,2024-08-08T01:30:00Z,17,12,6+,30.03
LFOA,47.052,2.642,240,2,2.3,LFOA 080130Z AUTO 24002KT CAVOK 14/12 Q1018,2024-08-08T01:30:00Z,14,12,6+,30.06
LFMY,43.604,5.108,0,0,0.0,LFMY 080130Z AUTO 00000KT CAVOK 22/16 Q1013,2024-08-08T01:30:00Z,22,16,6+,29.91
LFMV,43.911,4.903,350,4,4.6,LFMV 080130Z AUTO 35004KT CAVOK 22/18 Q1013,2024-08-08T01:30:00Z,22,18,6+,29.91
LFMU,43.322,3.353,290,6,6.9,LFMU 080130Z AUTO 29006KT CAVOK 24/18 Q1014,2024-08-08T01:30:00Z,24,18,6+,29.94
LFMT,43.577,3.963,10,3,3.45,LFMT 080130Z AUTO 01003KT CAVOK 24/18 Q1013 NOSIG,2024-08-08T01:30:00Z,24,18,6+,29.91
LFMP,42.737,2.873,310,10,11.51,LFMP 080130Z AUTO 31010KT CAVOK 26/18 Q1014,2024-08-08T01:30:00Z,26,18,6+,29.94
LFMO,44.144,4.861,340,8,9.21,LFMO 080130Z AUTO 34008KT 310V010 CAVOK 25/19 Q1013 NOSIG,2024-08-08T01:30:00Z,25,19,6+,29.91
LFMN,43.658,7.216,330,6,6.9,LFMN 080130Z 33006KT 9999 BKN023 26/22 Q1012 NOSIG,2024-08-08T01:30:00Z,26,22,6+,29.88
LFML,43.438,5.216,VRB,2,2.3,LFML 080130Z AUTO VRB02KT CAVOK 25/17 Q1012 NOSIG,2024-08-08T01:30:00Z,25,17,6+,29.88
LFMK,43.214,2.31,270,8,9.21,LFMK 080130Z AUTO 27008KT 9999 FEW049 24/19 Q1016,2024-08-08T01:30:00Z,24,19,6+,30.00
LFMI,43.516,4.935,330,4,4.6,LFMI 080130Z AUTO 33004KT CAVOK 24/18 Q1012 NOSIG,2024-08-08T01:30:00Z,24,18,6+,29.88
LFMH,45.533,4.293,300,4,4.6,LFMH 080130Z AUTO 30004KT 9999 OVC023 20/16 Q1018,2024-08-08T01:30:00Z,20,16,6+,30.06
LFMD,43.544,6.953,VRB,2,2.3,LFMD 080130Z AUTO VRB02KT 9999 FEW019 24/22 Q1012,2024-08-08T01:30:00Z,24,22,6+,29.88
LFMC,43.383,6.386,0,0,0.0,LFMC 080130Z AUTO 00000KT 9999 ////// 23/21 Q1013,2024-08-08T01:30:00Z,23,21,6+,29.91
LFLY,45.726,4.938,340,7,8.06,LFLY 080130Z AUTO 34007KT CAVOK 22/17 Q1017 NOSIG,2024-08-08T01:30:00Z,22,17,6+,30.03
LFLX,46.87,1.741,0,0,0.0,LFLX 080130Z AUTO 00000KT CAVOK 13/11 Q1018 NOSIG,2024-08-08T01:30:00Z,13,11,6+,30.06
LFLW,44.899,2.421,120,3,3.45,LFLW 080130Z AUTO 12003KT CAVOK 15/15 Q1019,2024-08-08T01:30:00Z,15,15,6+,30.09
LFLS,45.363,5.329,350,4,4.6,LFLS 080130Z AUTO 35004KT 260V030 9999 SCT016 20/17 Q1017,2024-08-08T01:30:00Z,20,17,6+,30.03
LFLP,45.93,6.106,60,4,4.6,LFLP 080130Z AUTO 06004KT CAVOK 18/16 Q1017,2024-08-08T01:30:00Z,18,16,6+,30.03
LFLN,46.412,4.025,310,2,2.3,LFLN 080130Z AUTO 31002KT 9999 OVC046 17/16 Q1018,2024-08-08T01:30:00Z,17,16,6+,30.06
LFLL,45.726,5.078,340,8,9.21,LFLL 080130Z 34008KT 9999 FEW030 BKN073 22/18 Q1017 NOSIG,2024-08-08T01:30:00Z,22,18,6+,30.03
LFLC,45.787,3.169,350,4,4.6,LFLC 080130Z AUTO 35004KT 9999 BKN035 OVC046 20/14 Q1018 NOSIG,2024-08-08T01:30:00Z,20,14,6+,30.06
LFLB,45.637,5.883,VRB,2,2.3,LFLB 080130Z AUTO VRB02KT CAVOK 19/17 Q1016,2024-08-08T01:30:00Z,19,17,6+,30.00
LFKS,41.924,9.406,270,5,5.75,LFKS 080130Z AUTO 27005KT 240V300 9999 // NSC 26/21 Q1012,2024-08-08T01:30:00Z,26,21,6+,29.88
LFKJ,41.924,8.803,50,5,5.75,LFKJ 080130Z AUTO 05005KT CAVOK 23/19 Q1013 NOSIG,2024-08-08T01:30:00Z,23,19,6+,29.91
LFKF,41.501,9.098,40,3,3.45,LFKF 080130Z AUTO 04003KT CAVOK 18/16 Q1013,2024-08-08T01:30:00Z,18,16,6+,29.91
LFKC,42.531,8.793,160,4,4.6,LFKC 080130Z AUTO 16004KT CAVOK 22/19 Q1012,2024-08-08T01:30:00Z,22,19,6+,29.88
LFKB,42.553,9.484,200,4,4.6,LFKB 080130Z AUTO 20004KT 9999 BKN022 BKN027 25/23 Q1012 TEMPO BKN014,2024-08-08T01:30:00Z,25,23,6+,29.88
LFJR,47.562,-0.317,80,1,1.15,LFJR 080130Z AUTO 08001KT CAVOK 12/11 Q1018,2024-08-08T01:30:00Z,12,11,6+,30.06
LFJL,48.982,6.251,200,5,5.75,LFJL 080130Z AUTO 20005KT CAVOK 16/15 Q1017 NOSIG,2024-08-08T01:30:00Z,16,15,6+,30.03
LFGJ,47.044,5.427,330,4,4.6,LFGJ 080130Z AUTO 33004KT 300V360 9999 BKN037 OVC060 20/17 Q1017,2024-08-08T01:30:00Z,20,17,6+,30.03
LFCR,44.41,2.483,230,2,2.3,LFCR 080130Z AUTO 23002KT CAVOK 16/15 Q1018 NOSIG,2024-08-08T01:30:00Z,16,15,6+,30.06
LFCK,43.556,2.289,0,0,0.0,LFCK 080130Z AUTO 00000KT 9999 FEW038 SCT046 19/18 Q1018,2024-08-08T01:30:00Z,19,18,6+,30.06
LFBZ,43.469,-1.534,80,2,2.3,LFBZ 080130Z AUTO 08002KT 9999 OVC034/// 21/17 Q1018 TEMPO 35010KT,2024-08-08T01:30:00Z,21,17,6+,30.06
LFBY,43.69,-1.07,350,3,3.45,LFBY 080130Z AUTO 35003KT 320V020 9999 // ////// 20/16 Q1017,2024-08-08T01:30:00Z,20,16,6+,30.03
LFBX,45.196,0.815,0,0,0.0,LFBX 080130Z AUTO 00000KT CAVOK 13/12 Q1017,2024-08-08T01:30:00Z,13,12,6+,30.03
LFBU,45.728,0.22,300,4,4.6,LFBU 080130Z AUTO 30004KT CAVOK 15/13 Q1018,2024-08-08T01:30:00Z,15,13,6+,30.06
LFBT,43.189,,190,1,1.15,LFBT 080130Z AUTO 19001KT 9999 BKN027 OVC036 20/19 Q1018 TEMPO 4000 BR BKN010,2024-08-08T01:30:00Z,20,19,6+,30.06
LFBP,43.385,-0.416,330,4,4.6,LFBP 080130Z AUTO 33004KT 300V010 9999 OVC048/// 21/19 Q1017 NOSIG,2024-08-08T01:30:00Z,21,19,6+,30.03
LFBO,43.621,1.379,310,4,4.6,LFBO 080130Z AUTO 31004KT CAVOK 21/18 Q1017 NOSIG,2024-08-08T01:30:00Z,21,18,6+,30.03
LFBM,43.912,-0.507,VRB,2,2.3,LFBM 080130Z AUTO VRB02KT CAVOK 18/15 Q1017 NOSIG,2024-08-08T01:30:00Z,18,15,6+,30.03
LFBL,45.863,1.179,50,2,2.3,LFBL 080130Z AUTO 05002KT CAVOK 16/12 Q1018 NOSIG,2024-08-08T01:30:00Z,16,12,6+,30.06
LFBI,46.584,0.309,330,2,2.3,LFBI 080130Z AUTO 33002KT CAVOK 15/12 Q1018 NOSIG,2024-08-08T01:30:00Z,15,12,6+,30.06
LFBH,46.178,-1.193,40,4,4.6,LFBH 080130Z AUTO 04004KT CAVOK 15/13 Q1018 NOSIG,2024-08-08T01:30:00Z,15,13,6+,30.06
LFBG,45.665,-0.316,340,6,6.9,LFBG 080130Z AUTO 34006KT CAVOK 17/12 Q1018,2024-08-08T01:30:00Z,17,12,6+,30.06
LFBE,44.826,0.516,VRB,2,2.3,LFBE 080130Z AUTO VRB02KT CAVOK 15/14 Q1017 NOSIG,2024-08-08T01:30:00Z,15,14,6+,30.03
LFBD,44.831,-0.691,360,4,4.6,LFBD 080130Z AUTO 36004KT 350V050 CAVOK 18/14 Q1018 NOSIG,2024-08-08T01:30:00Z,18,14,6+,30.06
LFBC,44.533,-1.125,20,6,6.9,LFBC 080130Z AUTO 02006KT CAVOK 18/14 Q1018,2024-08-08T01:30:00Z,18,14,6+,30.06
LFAT,50.515,1.623,260,8,9.21,LFAT 080130Z AUTO 26008KT 230V300 9999 BKN014 BKN100 OVC120 17/14 Q1016,2024-08-08T01:30:00Z,17,14,6+,30.00
LFAQ,49.972,2.704,240,5,5.75,LFAQ 080130Z AUTO 24005KT CAVOK 16/13 Q1017,2024-08-08T01:30:00Z,16,13,6+,30.03
LEZL,37.418,-5.893,200,5,5.75,LEZL 080130Z AUTO 20005KT 170V250 CAVOK 24/19 Q1011,2024-08-08T01:30:00Z,24,19,6+,29.85
LEZG,41.661,-1.004,290,14,16.11,LEZG 080130Z 29014KT 250V320 CAVOK 23/18 Q1015 NOSIG,2024-08-08T01:30:00Z,23,18,6+,29.97
LEXJ,43.429,-3.831,0,0,0.0,LEXJ 080130Z AUTO 00000KT 8000 OVC022 20/18 Q1018,2024-08-08T01:30:00Z,20,18,4.97,30.06
LEVX,42.239,-8.624,VRB,2,2.3,LEVX 080130Z AUTO VRB02KT CAVOK 17/15 Q1014,2024-08-08T01:30:00Z,17,15,6+,29.94
LEVT,42.872,-2.733,10,6,6.9,LEVT 080130Z 01006KT 340V040 9999 BKN013 BKN021 19/17 Q1019,2024-08-08T01:30:00Z,19,17,6+,30.09
LEVS,40.371,-3.785,100,4,4.6,LEVS 080130Z AUTO 10004KT 020V140 CAVOK 26/13 Q1015,2024-08-08T01:30:00Z,26,13,6+,29.97
LEVD,41.706,-4.852,50,5,5.75,LEVD 080130Z AUTO 05005KT CAVOK 17/15 Q1017,2024-08-08T01:30:00Z,17,15,6+,30.03
LEVC,39.489,-0.482,300,3,3.45,LEVC 080130Z 30003KT CAVOK 24/17 Q1014 NOSIG,2024-08-08T01:30:00Z,24,17,6+,29.94
LETU,-99.99,-99.99,300,9,10.36,LETU 080130Z AUTO 30009KT 280V340 CAVOK 22/17 Q1017,2024-08-08T01:30:00Z,22,17,6+,30.03
LETO,40.489,-3.451,360,3,3.45,LETO 080130Z 36003KT 310V040 CAVOK 24/12 Q1015 NOSIG,2024-08-08T01:30:00Z,24,12,6+,29.97
LETL,40.404,-1.218,110,3,3.45,LETL 080130Z AUTO 11003KT CAVOK 19/12 Q1020,2024-08-08T01:30:00Z,19,12,6+,30.12
LEST,42.888,-8.411,20,7,8.06,LEST 080130Z 02007KT 330V050 9999 BKN013 16/15 Q1017 NOSIG,2024-08-08T01:30:00Z,16,15,6+,30.03
LESO,43.361,-1.787,0,0,0.0,LESO 080130Z AUTO 00000KT 9999 OVC021 21/20 Q1018,2024-08-08T01:30:00Z,21,20,6+,30.06
LESB,39.599,2.703,10,4,4.6,LESB 080130Z AUTO 01004KT CAVOK 25/15 Q1013,2024-08-08T01:30:00Z,25,15,6+,29.91
LESA,40.96,-5.498,VRB,1,1.15,LESA 080130Z AUTO VRB01KT CAVOK 17/15 Q1016,2024-08-08T01:30:00Z,17,15,6+,30.00
LERT,36.645,-6.349,170,6,6.9,LERT 080130Z 17006KT 140V200 CAVOK 23/23 Q1011 NOSIG,2024-08-08T01:30:00Z,23,23,6+,29.85
LERS,41.15,1.179,30,4,4.6,LERS 080130Z AUTO 03004KT CAVOK 23/18 Q1014,2024-08-08T01:30:00Z,23,18,6+,29.94
LEPP,42.777,-1.65,320,9,10.36,LEPP 080130Z AUTO 32009KT 9999 OVC017 19/17 Q1018,2024-08-08T01:30:00Z,19,17,6+,30.06
LEPA,39.561,2.737,10,3,3.45,LEPA 080130Z 01003KT 320V060 CAVOK 24/17 Q1013 NOSIG,2024-08-08T01:30:00Z,24,17,6+,29.91
LEMO,37.175,-5.616,190,6,6.9,LEMO 080130Z 19006KT CAVOK 26/13 Q1011 NOSIG,2024-08-08T01:30:00Z,26,13,6+,29.85
LEMI,37.803,-1.125,340,5,5.75,LEMI 080130Z AUTO 34005KT CAVOK 24/17 Q1013,2024-08-08T01:30:00Z,24,17,6+,29.91
LEMH,39.855,4.216,40,7,8.06,LEMH 080130Z AUTO 04007KT CAVOK 25/24 Q1014,2024-08-08T01:30:00Z,25,24,6+,29.94
LEMG,36.666,-4.482,280,3,3.45,LEMG 080130Z 28003KT CAVOK 22/15 Q1012 NOSIG,2024-08-08T01:30:00Z,22,15,6+,29.88
LEMD,40.466,-3.555,50,3,3.45,LEMD 080130Z 05003KT 010V110 CAVOK 26/13 Q1015 WS R32R WS R36L NOSIG,2024-08-08T01:30:00Z,26,13,6+,29.97
LELO,42.452,-2.331,270,7,8.06,LELO 080130Z AUTO 27007KT 9999 OVC025 21/17 Q1017,2024-08-08T01:30:00Z,21,17,6+,30.03
LELN,42.588,-5.651,310,2,2.3,LELN 080130Z AUTO 31002KT CAVOK 13/11 Q1018,2024-08-08T01:30:00Z,13,11,6+,30.06
LELL,41.521,2.105,280,4,4.6,LELL 080130Z AUTO 28004KT CAVOK 22/18 Q1015,2024-08-08T01:30:00Z,22,18,6+,29.97
LELC,37.775,-0.812,50,9,10.36,LELC 080130Z AUTO 05009KT 020V080 9000 FEW013 27/24 Q1012,2024-08-08T01:30:00Z,27,24,5.59,29.88
LEJR,36.751,-6.056,150,2,2.3,LEJR 080130Z AUTO 15002KT CAVOK 21/19 Q1011,2024-08-08T01:30:00Z,21,19,6+,29.85
LEIB,38.876,1.384,30,6,6.9,LEIB 080130Z 03006KT CAVOK 26/24 Q1012 NOSIG,2024-08-08T01:30:00Z,26,24,6+,29.88
LEHC,42.082,-0.324,VRB,2,2.3,LEHC 080130Z AUTO VRB02KT CAVOK 22/13 Q1016,2024-08-08T01:30:00Z,22,13,6+,30.00
LEGT,40.299,-3.723,140,5,5.75,LEGT 080130Z AUTO 14005KT 090V190 CAVOK 27/13 Q1014,2024-08-08T01:30:00Z,27,13,6+,29.94
LEGR,37.19,-3.789,VRB,1,1.15,LEGR 080130Z AUTO VRB01KT CAVOK 22/08 Q1015,2024-08-08T01:30:00Z,22,8,6+,29.97
LEGE,41.911,2.763,VRB,2,2.3,LEGE 080130Z VRB02KT CAVOK 23/19 Q1014 NOSIG,2024-08-08T01:30:00Z,23,19,6+,29.94
LEDA,41.734,0.538,70,11,12.66,LEDA 080130Z AUTO 07011KT CAVOK 25/14 Q1015,2024-08-08T01:30:00Z,25,14,6+,29.97
LECO,43.307,-8.372,320,3,3.45,LECO 080130Z AUTO 32003KT 280V350 CAVOK 17/15 Q1017,2024-08-08T01:30:00Z,17,15,6+,30.03
LECH,40.211,0.067,VRB,2,2.3,LECH 080130Z AUTO VRB02KT CAVOK 21/18 Q1015,2024-08-08T01:30:00Z,21,18,6+,29.97
LEBT,39.58,-0.45,360,3,3.45,LEBT 080130Z AUTO 36003KT 330V030 CAVOK 21/14 Q1014,2024-08-08T01:30:00Z,21,14,6+,29.94
LEBR,42.2,-1.43,300,10,11.51,LEBR 080130Z AUTO 30010KT CAVOK 21/17 Q1016,2024-08-08T01:30:00Z,21,17,6+,30.00
LEBL,41.293,2.07,330,6,6.9,LEBL 080130Z 33006KT CAVOK 24/18 Q1014 NOSIG,2024-08-08T01:30:00Z,24,18,6+,29.94
LEBG,42.356,-3.622,60,10,11.51,LEBG 080130Z AUTO 06010G20KT 030V100 9999 OVC004 16/15 Q1019,2024-08-08T01:30:00Z,16,15,6+,30.09
LEBB,43.298,-2.906,0,0,0.0,LEBB 080130Z AUTO 00000KT 9999 BKN024 OVC035 21/19 Q1018,2024-08-08T01:30:00Z,21,19,6+,30.06
LEBA,37.842,-4.849,260,2,2.3,LEBA 080130Z AUTO 26002KT CAVOK 24/13 Q1011,2024-08-08T01:30:00Z,24,13,6+,29.85
LEAS,43.567,-6.044,120,3,3.45,LEAS 080130Z AUTO 12003KT 070V170 9999 OVC030 19/17 Q1018,2024-08-08T01:30:00Z,19,17,6+,30.06
LEAM,36.846,-2.357,VRB,1,1.15,LEAM 080130Z AUTO VRB01KT CAVOK 27/24 Q1011,2024-08-08T01:30:00Z,27,24,6+,29.85
LEAL,38.282,-0.558,290,3,3.45,LEAL 080130Z 29003KT CAVOK 24/14 Q1012 NOSIG,2024-08-08T01:30:00Z,24,14,6+,29.88
LEAG,36.129,-5.441,VRB,2,2.3,LEAG 080130Z AUTO VRB02KT CAVOK 23/17 Q1012,2024-08-08T01:30:00Z,23,17,6+,29.88
LEAB,38.952,-1.863,100,6,6.9,LEAB 080130Z 10006KT CAVOK 20/14 Q1017 NOSIG,2024-08-08T01:30:00Z,20,14,6+,30.03
LDZD,44.108,15.347,310,6,6.9,LDZD 080130Z 31006KT 260V020 9999 -RA SCT050 22/21 Q1012,2024-08-08T01:30:00Z,22,21,6+,29.88
LDZA,45.729,16.054,VRB,2,2.3,LDZA 080130Z VRB02KT 9999 -SHRA FEW050TCU 22/18 Q1014 TEMPO TSRA FEW050CB,2024-08-08T01:30:00Z,22,18,6+,29.94
LDSP,43.539,16.301,360,8,9.21,LDSP 080130Z AUTO 36008KT 300V050 CAVOK 28/18 Q1010,2024-08-08T01:30:00Z,28,18,6+,29.82
LDRI,45.218,14.573,190,4,4.6,LDRI 080130Z 19004KT 140V220 9999 FEW040 SCT052 25/21 Q1012,2024-08-08T01:30:00Z,25,21,6+,29.88
LDPL,44.894,13.922,330,7,8.06,LDPL 080130Z AUTO 33007KT CAVOK 23/20 Q1012,2024-08-08T01:30:00Z,23,20,6+,29.88
LDOS,45.463,18.81,90,5,5.75,LDOS 080130Z 09005KT CAVOK 16/13 Q1013,2024-08-08T01:30:00Z,16,13,6+,29.91
LDDU,42.56,18.269,VRB,1,1.15,LDDU 080130Z VRB01KT CAVOK 24/19 Q1011,2024-08-08T01:30:00Z,24,19,6+,29.85
LCPH,34.715,32.479,20,7,8.06,LCPH 080130Z AUTO 02007KT 9999 NCD 24/14 Q1005 NOSIG,2024-08-08T01:30:00Z,24,14,6+,29.68
LCLK,34.874,33.617,0,0,0.0,LCLK 080130Z 00000KT CAVOK 25/23 Q1005 NOSIG,2024-08-08T01:30:00Z,25,23,6+,29.68
LBWN,43.232,27.825,250,3,3.45,LBWN 080130Z AUTO 25003KT 220V290 9999 NCD 17/16 Q1013 NOSIG,2024-08-08T01:30:00Z,17,16,6+,29.91
LBSF,42.694,23.414,150,5,5.75,LBSF 080130Z AUTO 15005KT 9999 NCD 16/09 Q1015 NOSIG,2024-08-08T01:30:00Z,16,9,6+,29.97
LBPD,42.064,24.86,220,4,4.6,LBPD 080130Z AUTO 22004KT 9999 NCD 19/10 Q1014,2024-08-08T01:30:00Z,19,10,6+,29.94
LBGO,43.151,25.713,90,3,3.45,LBGO 080130Z AUTO 09003KT 070V130 9999 NCD 15/13 Q1014,2024-08-08T01:30:00Z,15,13,6+,29.94
LBBG,42.569,27.514,290,3,3.45,LBBG 080130Z AUTO 29003KT 9999 NCD 19/16 Q1013 NOSIG,2024-08-08T01:30:00Z,19,16,6+,29.91
KWRI,40.016,-74.591,60,8,9.21,KWRI 080130Z 06008KT 5SM BR OVC004 20/19 A3000 RMK AO2A TWR VIS 2 1/2 SLP158 $,2024-08-08T01:30:00Z,20,19,5,30.00
KUCY,36.3778,-88.9878,360,6,6.9,KUCY 080130Z AUTO 36006KT 10SM FEW028 FEW055 23/23 A2981 RMK A01,2024-08-08T01:30:00Z,23,23,10+,29.81
KU69,40.198,-110.387,100,9,10.36,KU69 080130Z AUTO 10009KT 10SM CLR 30/07 A3011 RMK A01,2024-08-08T01:30:00Z,30,7,10+,30.11
KSUT,33.9292,-78.0722,110,11,12.66,KSUT 080130Z AUTO 11011G17KT 5SM SCT011 BKN018 OVC025 26/25 A2956 RMK AO2 T02590247,2024-08-08T01:30:00Z,25.9,24.7,5,29.56
KSPK,40.1497,-111.677,300,6,6.9,KSPK 080130Z AUTO 30006KT 3SM HZ CLR 29/15 A2999 RMK AO2,2024-08-08T01:30:00Z,29,15,3,29.99
KRKW,35.922,-84.689,VRB,5,5.75,KRKW 080130Z AUTO VRB05KT 10SM CLR 26/23 A2981 RMK A01,2024-08-08T01:30:00Z,26,23,10+,29.81
KRCZ,34.8955,-79.7576,40,8,9.21,KRCZ 080130Z AUTO 04008KT 010V080 10SM BKN029 BKN033 BKN041 25/23 A2967 RMK AO2 T02450230,2024-08-08T01:30:00Z,24.5,23,10+,29.67
KQFW,-99.99,-99.99,190,3,3.45,KQFW 080130Z AUTO 19003KT 9999 FEW017 SCT038 BKN220 28/25 A2955 RMK A02 TSNO,2024-08-08T01:30:00Z,28,25,6+,29.55
KQEY,-99.99,-99.99,280,3,3.45,KQEY 080130Z AUTO 28003KT 9999 BKN150 29/24 A2945 RMK A02 TSNO,2024-08-08T01:30:00Z,29,24,6+,29.45
KQER,-99.99,-99.99,260,1,1.15,KQER 080130Z AUTO 26001KT 9999 FEW015 BKN032 BKN210 28/25 A2967 RMK A02 TSNO,2024-08-08T01:30:00Z,28,25,6+,29.67
KQEL,-99.99,-99.99,190,1,1.15,KQEL 080130Z AUTO 19001KT 9999 BKN1100 30/25 A2970 RMK A02 TSNO,2024-08-08T01:30:00Z,30,25,6+,29.70
KPGV,35.6374,-77.3851,70,7,8.06,KPGV 080130Z AUTO 07007KT 4SM -RA SCT012 BKN029 OVC110 25/25 A2978 RMK AO2 P0013 TSNO,2024-08-08T01:30:00Z,25,25,4,29.78
KMWK,36.4568,-80.5548,50,6,6.9,KMWK 080130Z AUTO 05006KT 10SM SCT110 24/22 A2987 RMK AO2 T02370224,2024-08-08T01:30:00Z,23.7,22.4,10+,29.87
KJAU,36.3351,-84.1635,0,0,0.0,KJAU 080130Z AUTO 00000KT 10SM CLR 27/23 A2982 RMK A01,2024-08-08T01:30:00Z,27,23,10+,29.82
KINT,36.1335,-80.2244,50,10,11.51,KINT 080130Z AUTO 05010KT 10SM SCT009 24/23 A2982 RMK AO2 T02440228 $,2024-08-08T01:30:00Z,24.4,22.8,10+,29.82
KHRJ,35.3794,-78.7356,70,12,13.81,KHRJ 080130Z AUTO 07012G20KT 10SM -RA SCT085 BKN110 25/24 A2972 RMK AO2 P0001 T02470238,2024-08-08T01:30:00Z,24.7,23.8,10+,29.72
KHEF,38.724,-77.5175,120,7,8.06,KHEF 080130Z 12007KT 10SM BKN018 BKN023 BKN042 26/24 A2990 RMK AO2 LTG DSNT N,2024-08-08T01:30:00Z,26,24,10+,29.90
KGWW,35.4637,-77.9604,70,6,6.9,KGWW 080130Z AUTO 07006KT 4SM BKN007 OVC012 25/25 A2976 RMK AO2 P0008 T02450245,2024-08-08T01:30:00Z,24.5,24.5,4,29.76
KGRY,27.6247,-90.4411,330,7,8.06,KGRY 080130Z AUTO 33007KT 10SM FEW060 30/24 A2981 RMK A01,2024-08-08T01:30:00Z,30,24,10+,29.81
KFFA,36.0165,-75.6739,110,5,5.75,KFFA 080130Z AUTO 11005KT 7SM CLR 24/24 A2983 RMK AO2 T02350235,2024-08-08T01:30:00Z,23.5,23.5,7,29.83
KF45,26.8419,-80.224,180,4,4.6,KF45 080130Z AUTO 18004KT 10SM SCT025 SCT032 BKN040 27/25 A2977 RMK AO2,2024-08-08T01:30:00Z,27,25,10+,29.77
KEYF,34.6042,-78.579,20,11,12.66,KEYF 080130Z AUTO 02011G22KT 350V050 1 3/4SM +TSRA BR BKN006 OVC009 24/24 A2958 RMK AO2 LTG DSNT ALQDS P0067 T02440238,2024-08-08T01:30:00Z,24.4,23.8,1.75,29.58
KEDE,36.0286,-76.5668,90,7,8.06,KEDE 080130Z AUTO 09007KT 10SM SCT010 BKN030 OVC035 27/27 A2983 RMK AO2 P0001 T02680268,2024-08-08T01:30:00Z,26.8,26.8,10+,29.83
KCGS,38.9806,-76.9251,80,3,3.45,KCGS 080130Z AUTO 08003KT 10SM SCT019 BKN030 OVC060 24/23 A2992 RMK AO2 T02430232,2024-08-08T01:30:00Z,24.3,23.2,10+,29.92
KAFP,35.0194,-80.0784,30,11,12.66,KAFP 080130Z AUTO 03011G19KT 10SM CLR 26/23 A2969 RMK AO2 T02600231,2024-08-08T01:30:00Z,26,23.1,10+,29.69
K24A,35.3156,-83.2071,130,4,4.6,K24A 080130Z AUTO 13004KT 10SM SCT065 SCT075 24/19 A2988 RMK AO2 LTG DSNT SE T02350194,2024-08-08T01:30:00Z,23.5,19.4,10+,29.88
K05U,39.6015,-116.006,0,0,0.0,K05U 080130Z AUTO 00000KT 9SM CLR A3015 RMK A01,2024-08-08T01:30:00Z,,,9,30.15
HRYR,-1.969,30.14,290,4,4.6,HRYR 080130Z 29004KT 9999 FEW022 20/09 Q1019 NOSIG,2024-08-08T01:30:00Z,20,9,6+,30.09
HECA,30.133,31.405,60,2,2.3,HECA 080130Z 06002KT CAVOK 28/23 Q1008 NOSIG,2024-08-08T01:30:00Z,28,23,6+,29.76
GQNO,18.31,-15.97,320,4,4.6,GQNO 080130Z 32004KT 8000 NSC 26/23 Q1011 NOSIG,2024-08-08T01:30:00Z,26,23,4.97,29.85
GOBD,14.671,-17.067,250,3,3.45,GOBD 080130Z 25003KT 9999 SCT015 27/27 Q1011 NOSIG,2024-08-08T01:30:00Z,27,27,6+,29.85
GMTT,35.727,-5.917,190,4,4.6,GMTT 080130Z 19004KT 130V220 6000 SCT003 23/23 Q1012 NOSIG,2024-08-08T01:30:00Z,23,23,3.73,29.88
GMMX,31.607,-8.036,250,7,8.06,GMMX 080130Z 25007KT 8000 NSC 22/17 Q1015 NOSIG,2024-08-08T01:30:00Z,22,17,4.97,29.97
GMMN,33.367,-7.59,300,4,4.6,GMMN 080130Z 30004KT 9999 SCT008 20/16 Q1014 NOSIG,2024-08-08T01:30:00Z,20,16,6+,29.94
GMME,34.051,-6.752,0,0,0.0,GMME 080130Z 00000KT 5000 BKN010 21/20 Q1012 NOSIG,2024-08-08T01:30:00Z,21,20,3.11,29.88
GMFO,34.787,-1.924,350,12,13.81,GMFO 080130Z 35012KT 9999 FEW030 SCT100 24/21 Q1013 NOSIG,2024-08-08T01:30:00Z,24,21,6+,29.91
GMFF,33.929,-4.976,250,3,3.45,GMFF 080130Z 25003KT 200V270 CAVOK 23/16 Q1015 NOSIG,2024-08-08T01:30:00Z,23,16,6+,29.97
GMAD,30.325,-9.413,0,0,0.0,GMAD 080130Z 00000KT 8000 NSC 19/19 Q1012 NOSIG,2024-08-08T01:30:00Z,19,19,4.97,29.88
GEML,35.278,-2.956,VRB,2,2.3,GEML 080130Z AUTO VRB02KT 9999 SCT013 BKN018 27/23 Q1012,2024-08-08T01:30:00Z,27,23,6+,29.88
GECE,35.893,-5.306,10,3,3.45,GECE 080130Z AUTO 01003KT 330V050 9999 SCT002 21/21 Q1012,2024-08-08T01:30:00Z,21,21,6+,29.88
GCXO,28.483,-16.342,310,13,14.96,GCXO 080130Z AUTO 31013KT 280V340 9999 SCT012 18/16 Q1018,2024-08-08T01:30:00Z,18,16,6+,30.06
GCTS,28.047,-16.561,40,9,10.36,GCTS 080130Z 04009KT 9999 FEW030 23/18 Q1015 NOSIG,2024-08-08T01:30:00Z,23,18,6+,29.97
GCRR,28.952,-13.6,10,16,18.41,GCRR 080130Z AUTO 01016KT 9999 OVC025 23/18 Q1015,2024-08-08T01:30:00Z,23,18,6+,29.97
GCLP,27.923,-15.389,10,21,24.17,GCLP 080130Z 01021KT 9999 BKN030 24/18 Q1015 NOSIG,2024-08-08T01:30:00Z,24,18,6+,29.97
GCLA,28.633,-17.755,10,11,12.66,GCLA 080130Z AUTO 01011KT 340V060 9000 OVC036 24/17 Q1017,2024-08-08T01:30:00Z,24,17,5.59,30.03
GCHI,27.819,-17.889,340,14,16.11,GCHI 080130Z AUTO 34014KT 9999 SCT018 SCT025 BKN030 23/20 Q1016,2024-08-08T01:30:00Z,23,20,6+,30.00
GCGM,28.032,-17.211,250,6,6.9,GCGM 080130Z AUTO 25006KT CAVOK 21/18 Q1016 RMK R09/26006KT ARP/27006KT,2024-08-08T01:30:00Z,21,18,6+,30.00
GCFV,28.445,-13.863,20,12,13.81,GCFV 080130Z AUTO 02012KT CAVOK 23/19 Q1015,2024-08-08T01:30:00Z,23,19,6+,29.97
GABS,12.534,-7.95,230,3,3.45,GABS 080130Z 23003KT 9999 FEW015 24/24 Q1013 NOSIG,2024-08-08T01:30:00Z,24,24,6+,29.91
FOOL,0.459,9.412,170,6,6.9,FOOL 080130Z 17006KT 9000 SCT010 24/23 Q1012 NOSIG,2024-08-08T01:30:00Z,24,23,5.59,29.88
FMMI,-18.797,47.479,160,4,4.6,FMMI 080130Z 16004KT 130V210 9999 FEW010 BKN020 12/12 Q1024 NOSIG,2024-08-08T01:30:00Z,12,12,6+,30.24
FMEP,-21.32,55.425,50,5,5.75,FMEP 080130Z AUTO 05005KT 020V080 CAVOK 18/12 Q1020,2024-08-08T01:30:00Z,18,12,6+,30.12
FMEE,-20.887,55.51,0,0,0.0,FMEE 080130Z AUTO 00000KT CAVOK 17/13 Q1020 NOSIG,2024-08-08T01:30:00Z,17,13,6+,30.12
FMCZ,-12.805,45.281,250,4,4.6,FMCZ 080130Z AUTO 25004KT 220V280 9999 BKN022 BKN088 22/21 Q1015 TEMPO 4000 SHRA,2024-08-08T01:30:00Z,22,21,6+,29.97
FKYS,3.833,11.521,240,4,4.6,FKYS 080130Z 24004KT 8000 BKN006 21/20 Q1016 NOSIG,2024-08-08T01:30:00Z,21,20,4.97,30.00
FKKD,4.006,9.72,110,3,3.45,FKKD 080130Z 11003KT 8000 FEW005 BKN012 FEW015CB 24/24 Q1012 TEMPO 3500 RADZ,2024-08-08T01:30:00Z,24,24,4.97,29.88
FGSL,3.756,8.71,250,7,8.06,FGSL 080130Z 25007KT 220V280 9999 SCT010 25/24 Q1012 NOSIG,2024-08-08T01:30:00Z,25,24,6+,29.88
FCPP,-4.816,11.887,190,7,8.06,FCPP 080130Z 19007KT 7000 FEW010 BKN022 23/21 Q1013 NOSIG,2024-08-08T01:30:00Z,23,21,4.35,29.91
FAOR,-26.139,28.246,340,8,9.21,FAOR 080130Z 34008KT CAVOK 12/01 Q1024 NOSIG,2024-08-08T01:30:00Z,12,1,6+,30.24
EPWR,51.1032,16.8998,VRB,1,1.15,EPWR 080130Z VRB01KT 9999 TS FEW020CB 20/17 Q1012,2024-08-08T01:30:00Z,20,17,6+,29.88
EPWA,52.163,20.961,150,3,3.45,EPWA 080130Z 15003KT CAVOK 17/15 Q1012 NOSIG,2024-08-08T01:30:00Z,17,15,6+,29.88
EPSY,53.482,20.938,VRB,2,2.3,EPSY 080130Z VRB02KT CAVOK 13/13 Q1013,2024-08-08T01:30:00Z,13,13,6+,29.91
EPSC,53.585,14.902,VRB,2,2.3,EPSC 080130Z VRB02KT 9999 -SHRA SCT060CB 19/16 Q1011,2024-08-08T01:30:00Z,19,16,6+,29.85
EPRZ,50.112,22.025,190,1,1.15,EPRZ 080130Z 19001KT CAVOK 15/14 Q1013,2024-08-08T01:30:00Z,15,14,6+,29.91
EPRA,51.39,21.211,VRB,2,2.3,EPRA 080130Z VRB02KT CAVOK 15/14 Q1013,2024-08-08T01:30:00Z,15,14,6+,29.91
EPPO,52.417,16.835,90,4,4.6,EPPO 080130Z 09004KT CAVOK 17/13 Q1011,2024-08-08T01:30:00Z,17,13,6+,29.85
EPMO,52.452,20.642,60,3,3.45,EPMO 080130Z 06003KT CAVOK 17/15 Q1013,2024-08-08T01:30:00Z,17,15,6+,29.91
EPLL,51.724,19.401,VRB,1,1.15,EPLL 080130Z VRB01KT CAVOK 17/13 Q1012,2024-08-08T01:30:00Z,17,13,6+,29.88
EPLB,51.239,22.714,VRB,2,2.3,EPLB 080130Z VRB02KT CAVOK 14/14 Q1013,2024-08-08T01:30:00Z,14,14,6+,29.91
EPKT,50.478,19.085,120,3,3.45,EPKT 080130Z 12003KT CAVOK 18/14 Q1013,2024-08-08T01:30:00Z,18,14,6+,29.91
EPKK,50.078,19.797,70,3,3.45,EPKK 080130Z 07003KT CAVOK 15/13 Q1013,2024-08-08T01:30:00Z,15,13,6+,29.91
EPGD,54.379,18.466,130,5,5.75,EPGD 080130Z 13005KT CAVOK 16/16 Q1012,2024-08-08T01:30:00Z,16,16,6+,29.88
EPBY,53.0962,17.9949,80,3,3.45,EPBY 080130Z 08003KT CAVOK 16/15 Q1011,2024-08-08T01:30:00Z,16,15,6+,29.85
EINN,52.702,-8.925,100,6,6.9,EINN 080130Z 10006KT 9999 SCT010 OVC018 15/14 Q1008 NOSIG,2024-08-08T01:30:00Z,15,14,6+,29.76
EIDW,53.422,-6.298,180,5,5.75,EIDW 080130Z 18005KT 150V230 9999 FEW018 BKN042 14/11 Q1009 NOSIG,2024-08-08T01:30:00Z,14,11,6+,29.79
EICK,51.848,-8.479,140,8,9.21,EICK 080130Z 14008KT 0400 R16/P2000 R34/1400D -RA FG OVC002 15/15 Q1008 NOSIG,2024-08-08T01:30:00Z,15,15,0.25,29.76
DTTJ,33.875,10.775,0,0,0.0,DTTJ 080130Z 00000KT 8000 FEW023 26/23 Q1013,2024-08-08T01:30:00Z,26,23,4.97,29.91
DTTA,36.851,10.227,0,0,0.0,DTTA 080130Z 00000KT 9999 FEW033 25/24 Q1013,2024-08-08T01:30:00Z,25,24,6+,29.91
DTNH,36.074,10.436,340,4,4.6,DTNH 080130Z 34004KT 8000 SCT020 23/22 Q1013,2024-08-08T01:30:00Z,23,22,4.97,29.91
DTMB,35.758,10.755,190,2,2.3,DTMB 080130Z 19002KT 8000 NSC 25/23 Q1013,2024-08-08T01:30:00Z,25,23,4.97,29.91
DAOO,35.623,-0.624,0,0,0.0,DAOO 080130Z 00000KT 9000 BKN012 SCT100 26/24 Q1011,2024-08-08T01:30:00Z,26,24,5.59,29.85
DAON,35.013,-1.457,330,4,4.6,DAON 080130Z 33004KT CAVOK 25/23 Q1012,2024-08-08T01:30:00Z,25,23,6+,29.88
DAAT,22.824,5.452,110,4,4.6,DAAT 080130Z 11004KT CAVOK 25/M02 Q1017,2024-08-08T01:30:00Z,25,-2,6+,30.03
DAAG,36.691,3.215,250,4,4.6,DAAG 080130Z 25004KT CAVOK 26/23 Q1010,2024-08-08T01:30:00Z,26,23,6+,29.82
CWPF,48.432,-123.439,160,6,6.9,CWPF 080130Z AUTO 16006KT 18/12 RMK AO1 SLP175 T01810118 56025,2024-08-08T01:30:00Z,18.1,11.8,,
BKPR,42.576,21.03,350,2,2.3,BKPR 080130Z 35002KT CAVOK 16/11 Q1016 NOSIG,2024-08-08T01:30:00Z,16,11,6+,30.00
BIKF,63.987,-22.614,300,5,5.75,BIKF 080130Z 30005KT CAVOK 08/08 Q0997,2024-08-08T01:30:00Z,8,8,6+,29.44
ROIG,24.395,124.245,VRB,3,3.45,ROIG 080129Z VRB03KT 9999 R04/0600VP2000U SHRA FEW019 BKN022 BKN/// 29/27 Q1006 RMK 2CU019 5CU022 A2971,2024-08-08T01:29:00Z,29,27,6+,29.70
PAVD,61.133,-146.251,VRB,4,4.6,PAVD 080129Z VRB04KT 2 1/2SM -RA BR BKN006 BKN015 OVC028 14/14 A3017 RMK AO2 P0002 $,2024-08-08T01:29:00Z,14,14,2.5,30.17
KPOB,35.175,-79.008,50,13,14.96,KPOB 080129Z AUTO 05013KT 6SM RA BR FEW014 25/23 A2968 RMK AO2 SLP051 $,2024-08-08T01:29:00Z,25,23,6,29.68
KFME,39.086,-76.757,90,6,6.9,KFME 080129Z AUTO 09006KT 10SM SCT008 BKN035 OVC044 23/22 A2995 RMK AO1,2024-08-08T01:29:00Z,23,22,10+,29.95
KFIG,41.0465,-78.4112,70,8,9.21,KFIG 080129Z AUTO 07008KT 6SM BR BKN006 OVC010 19/19 A3000 RMK AO2 T01940189,2024-08-08T01:29:00Z,19.4,18.9,6,30.00
KAXN,45.868,-95.394,320,5,5.75,KAXN 080129Z AUTO 32005KT 9SM SCT004 BKN011 OVC026 18/18 A2994 RMK AO2 RAE25 P0006 T01830178,2024-08-08T01:29:00Z,18.3,17.8,9,29.94
PAWM,64.688,-163.41,170,9,10.36,PAWM 080128Z AUTO 17009KT 6SM BR BKN009 BKN013 OVC022 13/12 A2971 RMK AO2 CIG 005V011 PNO $,2024-08-08T01:28:00Z,13,12,6,29.71
PACV,60.486,-145.445,110,6,6.9,PACV 080128Z 11006KT 4SM -RA BR BKN023 OVC031 19/14 A3011 RMK AO2 P0000 T01890144,2024-08-08T01:28:00Z,18.9,14.4,4,30.11
MSLP,13.438,-89.056,40,5,5.75,MSLP 080128Z 04005KT 9999 3000E TSRA SCT020 SCT033CB SCT063 26/26 Q1009 TEMPO 1500 +TSRA RMK CB NE E SE,2024-08-08T01:28:00Z,26,26,6+,29.79
KRHP,35.1939,-83.8618,60,3,3.45,KRHP 080128Z AUTO 06003KT 10SM CLR 23/20 A2981 RMK AO2 T02310200,2024-08-08T01:28:00Z,23.1,20,10+,29.81
KCAG,40.493,-107.524,,,,KCAG 080128Z AUTO A3016 RMK AO2 TSB07E22 PWINO $,2024-08-08T01:28:00Z,,,,30.16
KOAJ,34.8251,-77.6189,60,12,13.81,KOAJ 080127Z AUTO 06012KT 8SM RA BKN008 BKN012 BKN021 26/25 A2970 RMK AO2 RAB20 P0001,2024-08-08T01:27:00Z,26,25,8,29.70
KAKQ,36.9827,-77.0014,80,4,4.6,KAKQ 080127Z AUTO 08004KT 10SM FEW010 SCT016 25/23 A2985 RMK AO2 T02500233,2024-08-08T01:27:00Z,25,23.3,10+,29.85
CYBC,49.135,-68.202,250,5,5.75,CYBC 080127Z AUTO 25005KT 9SM -RA OVC066 13/10 A3000 RMK SLP161,2024-08-08T01:27:00Z,13,10,9,30.00
RJCK,43.041,144.193,170,5,5.75,RJCK 080126Z 17005KT 2400 -SHRA BR SCT002 BKN003 BKN004 24/24 Q1002 RMK 3ST002 5ST003 6ST004 A2961,2024-08-08T01:26:00Z,24,24,1.49,29.59
KCOD,44.52,-109.027,320,8,9.21,KCOD 080126Z AUTO 32008KT 10SM VCTS -RA FEW019 BKN037 OVC044 14/12 A3030 RMK AO2 LTG DSNT NW TSB26RAB01 P0001,2024-08-08T01:26:00Z,14,12,10+,30.30
KAOO,40.2999,-78.3168,60,4,4.6,KAOO 080126Z AUTO 06004KT 2 1/2SM BR OVC003 21/19 A2997 RMK AO2 T02110194,2024-08-08T01:26:00Z,21.1,19.4,2.5,29.97
ROTM,26.271,127.754,90,9,10.36,ROTM 080125Z 09009KT 10SM SCT018 SCT049 32/27 RMK AO2 T03170272 PNO $,2024-08-08T01:25:00Z,31.7,27.2,10+,
RKNW,37.337,127.947,260,3,3.45,RKNW 080125Z 26003KT 9000 BR SCT020 BKN030 BKN160 27/24 A2970 RMK CIG030,2024-08-08T01:25:00Z,27,24,5.59,29.70
PAMB,58.986,-159.05,220,9,10.36,PAMB 080125Z AUTO 22009KT 10SM FEW011 BKN015 OVC065 13/10 A2982 RMK AO2,2024-08-08T01:25:00Z,13,10,10+,29.82
OPLA,31.522,74.404,110,12,13.81,OPLA 080125Z 11012KT 4000 FU SCT100 27/24 Q1002 NOSIG RMK QFE976 A29.59,2024-08-08T01:25:00Z,27,24,2.49,29.59
KW40,35.2211,-78.0404,60,10,11.51,KW40 080125Z AUTO 06010G15KT 4SM RA BR SCT007 OVC011 25/25 A2973 RMK AO2 P0010 T02520245,2024-08-08T01:25:00Z,25.2,24.5,4,29.73
KW29,38.9777,-76.3276,100,7,8.06,KW29 080125Z AUTO 10007KT 060V120 10SM SCT007 BKN023 OVC065 24/ A2992 RMK AO2 LTG DSNT NW T0244////,2024-08-08T01:25:00Z,24.4,,10+,29.92
KVUJ,35.4173,-80.1508,30,13,14.96,KVUJ 080125Z AUTO 03013KT 10SM SCT033 SCT043 BKN060 26/23 A2978 RMK AO2 LTG DSNT E T02550226,2024-08-08T01:25:00Z,25.5,22.6,10+,29.78
KUKF,36.2188,-81.1002,30,6,6.9,KUKF 080125Z AUTO 03006KT 10SM SCT015 SCT065 SCT090 23/21 A2988 RMK AO2,2024-08-08T01:25:00Z,23,21,10+,29.88
KTTA,35.5762,-79.1035,30,9,10.36,KTTA 080125Z AUTO 03009G16KT 10SM SCT026 BKN031 OVC070 24/24 A2974 RMK AO2 T02420241,2024-08-08T01:25:00Z,24.2,24.1,10+,29.74
KTDF,36.284,-78.9884,50,9,10.36,KTDF 080125Z AUTO 05009KT 10SM OVC011 24/22 A2982 RMK AO2 LTG DSNT S,2024-08-08T01:25:00Z,24,22,10+,29.82
KSSC,33.978,-80.466,10,12,13.81,KSSC 080125Z 01012G20KT 10SM -RA BKN015 BKN021 OVC026 25/24 A2958 RMK AO2A SLP013 $,2024-08-08T01:25:00Z,25,24,10+,29.58
KSIF,36.4408,-79.8544,30,3,3.45,KSIF 080125Z AUTO 03003KT 5SM BR BKN013 24/23 A2983 RMK AO2 T02420234,2024-08-08T01:25:00Z,24.2,23.4,5,29.83
KSCR,35.7058,-79.5051,40,9,10.36,KSCR 080125Z AUTO 04009KT 10SM OVC014 24/24 A2977 RMK AO2 T02440244,2024-08-08T01:25:00Z,24.4,24.4,10+,29.77
KRUQ,35.6441,-80.5236,30,12,13.81,KRUQ 080125Z AUTO 03012G18KT 10SM SCT025 25/23 A2977 RMK AO2 T02500225,2024-08-08T01:25:00Z,25,22.5,10+,29.77
KMRN,35.8192,-81.6097,0,0,0.0,KMRN 080125Z AUTO 00000KT 10SM SCT090 SCT120 27/22 A2982 RMK AO2 T02660223,2024-08-08T01:25:00Z,26.6,22.3,10+,29.82
KMQI,35.9188,-75.6989,120,9,10.36,KMQI 080125Z AUTO 12009KT 10SM RA SCT048 SCT060 SCT075 26/24 A2984 RMK AO2 T02560240,2024-08-08T01:25:00Z,25.6,24,10+,29.84
KMCZ,35.862,-77.178,0,0,0.0,KMCZ 080125Z AUTO 00000KT 5SM -RA BR OVC009 24/24 A2980 RMK AO2 P0007 T02420238,2024-08-08T01:25:00Z,24.2,23.8,5,29.80
KM54,36.1932,-86.3139,0,0,0.0,KM54 080125Z AUTO 00000KT 8SM BKN031 BKN036 OVC042 25/23 A2978 RMK A01,2024-08-08T01:25:00Z,25,23,8,29.78
KLHZ,36.0229,-78.3341,50,8,9.21,KLHZ 080125Z AUTO 05008KT 10SM -RA OVC009 23/23 A2980 RMK AO2 P0001,2024-08-08T01:25:00Z,23,23,10+,29.80
KLFI,37.088,-76.349,110,12,13.81,KLFI 080125Z AUTO 11012G18KT 6SM -RA BR BKN010 24/23 A2986 RMK AO2 DZE01RAB01 CIG 007 RWY26 SLP118 $,2024-08-08T01:25:00Z,24,23,6,29.86
KJNX,35.5369,-78.3934,70,5,5.75,KJNX 080125Z AUTO 07005KT 10SM -RA SCT008 BKN041 OVC110 25/25 A2974 RMK AO2 LTG DSNT SE P0001,2024-08-08T01:25:00Z,25,25,10+,29.74
KIPJ,35.4861,-81.1564,30,10,11.51,KIPJ 080125Z AUTO 03010G14KT 10SM SCT100 25/23 A2977 RMK AO2 T02520226,2024-08-08T01:25:00Z,25.2,22.6,10+,29.77
KHBI,35.6527,-79.8942,20,7,8.06,KHBI 080125Z AUTO 02007KT 10SM OVC019 25/22 A2978 RMK AO2 T02500221,2024-08-08T01:25:00Z,25,22.1,10+,29.78
KGEV,36.4312,-81.4206,0,0,0.0,KGEV 080125Z AUTO 00000KT 10SM SCT035 SCT042 BKN075 21/19 A2995 RMK AO2 T02050188,2024-08-08T01:25:00Z,20.5,18.8,10+,29.95
KFQD,35.43,-81.936,0,0,0.0,KFQD 080125Z AUTO 00000KT 10SM SCT037 SCT080 26/21 A2979 RMK AO2,2024-08-08T01:25:00Z,26,21,10+,29.79
KFFO,39.837,-84.035,30,10,11.51,KFFO 080125Z AUTO 03010KT 10SM SCT029 23/19 A2988 RMK AO2 SLP115,2024-08-08T01:25:00Z,23,19,10+,29.88
KFAF,37.134,-76.61,70,5,5.75,KFAF 080125Z AUTO 07005KT 10SM BKN011 26/23 A2983 RMK AO2 SLP105 $,2024-08-08T01:25:00Z,26,23,10+,29.83
KEXX,35.7804,-80.3084,50,6,6.9,KEXX 080125Z AUTO 05006KT 10SM CLR 25/25 A2978 RMK AO2 T02500250,2024-08-08T01:25:00Z,25,25,10+,29.78
KDUG,31.4725,-109.602,310,12,13.81,KDUG 080125Z AUTO 31012KT 10SM VCTS FEW075 29/17 A3007 RMK AO2 LTG DSNT N-SE T02940167,2024-08-08T01:25:00Z,29.4,16.7,10+,30.07
KDPL,34.9994,-77.9799,70,11,12.66,KDPL 080125Z AUTO 07011G21KT 5SM RA SCT010 BKN017 OVC070 25/ A2971 RMK AO2,2024-08-08T01:25:00Z,25,,5,29.71
KDMW,39.61,-77.007,70,5,5.75,KDMW 080125Z AUTO 07005KT 10SM -RA BKN006 OVC019 23/22 A2996 RMK AO2 LTG DSNT SW,2024-08-08T01:25:00Z,23,22,10+,29.96
KCTZ,34.9752,-78.3627,80,9,10.36,KCTZ 080125Z AUTO 08009G15KT 3SM BKN009 BKN014 OVC035 26/26 A2968 RMK AO2 P0008 T02550255,2024-08-08T01:25:00Z,25.5,25.5,3,29.68
KCPC,34.2753,-78.7146,70,7,8.06,KCPC 080125Z AUTO 07007G15KT 030V090 2 1/2SM RA BKN006 OVC012 25/24 A2956 RMK AO2 VIS 1 1/4V5 P0004 T02510240,2024-08-08T01:25:00Z,25.1,24,2.5,29.56
KCGE,38.5372,-76.0309,130,7,8.06,KCGE 080125Z AUTO 13007KT 10SM SCT017 BKN022 BKN030 24/23 A2991 RMK A01,2024-08-08T01:25:00Z,24,23,10+,29.91
KCBE,39.6182,-78.7598,40,6,6.9,KCBE 080125Z AUTO 04006KT 10SM OVC018 24/20 A2996 RMK AO2 T02430204,2024-08-08T01:25:00Z,24.3,20.4,10+,29.96
KASJ,36.2941,-77.1724,90,6,6.9,KASJ 080125Z AUTO 09006KT 10SM -RA SCT008 SCT019 BKN110 24/24 A2981 RMK AO2 P0004 T02390239,2024-08-08T01:25:00Z,23.9,23.9,10+,29.81
KACZ,34.718,-78.005,60,14,16.11,KACZ 080125Z AUTO 06014G24KT 4SM -RA BR SCT011 BKN016 OVC034 26/25 A2964 RMK AO2 P0013 T02580250,2024-08-08T01:25:00Z,25.8,25,4,29.64
K7W6,35.5594,-75.955,100,7,8.06,K7W6 080125Z AUTO 10007KT 7SM -RA SCT030 BKN038 OVC055 26/25 A2981 RMK AO2 P0004 T02630253,2024-08-08T01:25:00Z,26.3,25.3,7,29.81
K2G4,39.5827,-79.3418,110,12,13.81,K2G4 080125Z AUTO 11012G17KT 10SM BKN006 BKN011 OVC017 21/21 A2998 RMK AO2,2024-08-08T01:25:00Z,21,21,10+,29.98
K1A5,35.2228,-83.415,0,0,0.0,K1A5 080125Z AUTO 00000KT 10SM CLR 23/21 A2984 RMK AO2 T02310214,2024-08-08T01:25:00Z,23.1,21.4,10+,29.84
K0W3,39.566,-76.202,70,5,5.75,K0W3 080125Z AUTO 07005KT 3SM -RA BR OVC004 21/21 A2997 RMK AO2 VIS 2V5 P0005 T02060206 $,2024-08-08T01:25:00Z,20.6,20.6,3,29.97
FAPE,-33.985,25.617,220,10,11.51,FAPE 080125Z 22010KT 9999 FEW004 14/12 Q1011 TEMPO 2000 BR BKN004,2024-08-08T01:25:00Z,14,12,6+,29.85
EHVL,53.297,5.086,260,16,18.41,EHVL 080125Z AUTO 26016KT 9999 OVC073 19/15 Q1012 BLU,2024-08-08T01:25:00Z,19,15,6+,29.88
EHVK,51.658,5.707,240,5,5.75,EHVK 080125Z AUTO 24005KT 9999 OVC120 16/13 Q1014 BLU,2024-08-08T01:25:00Z,16,13,6+,29.94
EHSC,51.926,3.67,250,17,19.56,EHSC 080125Z AUTO 25017KT 9999 ///////// 19/15 Q1014 W20/H10,2024-08-08T01:25:00Z,19,15,6+,29.94
EHSA,51.998,3.275,240,14,16.11,EHSA 080125Z AUTO 24014KT 9999 ///////// 19/15 Q1014 W19/H11,2024-08-08T01:25:00Z,19,15,6+,29.94
EHRD,51.954,4.444,220,8,9.21,EHRD 080125Z AUTO 22008KT 190V250 9999 NSC 18/14 Q1014 NOSIG,2024-08-08T01:25:00Z,18,14,6+,29.94
EHPG,52.36,3.342,250,12,13.81,EHPG 080125Z AUTO 25012KT 9999 NSC 19/16 Q1014,2024-08-08T01:25:00Z,19,16,6+,29.94
EHMG,53.614,4.96,250,14,16.11,EHMG 080125Z AUTO 25014KT 9999 SCT044 19/15 Q1013,2024-08-08T01:25:00Z,19,15,6+,29.91
EHMA,53.492,5.942,VRB,15,17.26,EHMA 080125Z AUTO VRB15KT 9999 FEW023 18/15 Q1012,2024-08-08T01:25:00Z,18,15,6+,29.88
EHLW,53.223,5.752,190,5,5.75,EHLW 080125Z AUTO 19005KT 150V220 9999 FEW060 OVC067 17/15 Q1012 BLU,2024-08-08T01:25:00Z,17,15,6+,29.88
EHLE,52.456,5.522,200,6,6.9,EHLE 080125Z AUTO 20006KT 9999 NSC 16/13 Q1013,2024-08-08T01:25:00Z,16,13,6+,29.91
EHKV,53.269,3.628,280,16,18.41,EHKV 080125Z AUTO 28016KT 9999 NSC 18/14 Q1013,2024-08-08T01:25:00Z,18,14,6+,29.91
EHKD,52.927,4.781,250,7,8.06,EHKD 080125Z AUTO 25007KT 220V280 9999 SCT072 OVC140 19/15 Q1012 BLU,2024-08-08T01:25:00Z,19,15,6+,29.88
EHJR,53.218,3.22,260,16,18.41,EHJR 080125Z AUTO 26016KT //// // ///////// 18/15 Q1013 RE// W18/H8,2024-08-08T01:25:00Z,18,15,,29.91
EHJA,53.824,2.945,230,13,14.96,EHJA 080125Z AUTO 23013KT 9999 NCD 17/12 Q1012,2024-08-08T01:25:00Z,17,12,6+,29.88
EHHW,54.037,6.042,220,10,11.51,EHHW 080125Z AUTO 22010KT 190V260 9999 FEW049/// 19/15 Q1012,2024-08-08T01:25:00Z,19,15,6+,29.88
EHGG,53.12,6.579,190,4,4.6,EHGG 080125Z AUTO 19004KT 9999 NSC 14/12 Q1013,2024-08-08T01:25:00Z,14,12,6+,29.91
EHFS,51.441,3.596,210,14,16.11,EHFS 080125Z AUTO 21014KT 9999 FEW020/// 17/15 Q1014,2024-08-08T01:25:00Z,17,15,6+,29.94
EHFD,54.854,4.696,260,21,24.17,EHFD 080125Z AUTO 26021KT 9999 NSC 18/13 Q1010,2024-08-08T01:25:00Z,18,13,6+,29.82
EHEH,51.45,5.377,210,5,5.75,EHEH 080125Z AUTO 21005KT 9999 OVC100 16/13 Q1015 BLU,2024-08-08T01:25:00Z,16,13,6+,29.97
EHDV,54.326,2.936,240,16,18.41,EHDV 080125Z AUTO 24016KT 210V270 9999 NSC 18/11 Q1011,2024-08-08T01:25:00Z,18,11,6+,29.85
EHDL,52.061,5.887,210,4,4.6,EHDL 080125Z AUTO 21004KT 9999 OVC120 16/13 Q1014 BLACKBLU,2024-08-08T01:25:00Z,16,13,6+,29.94
EHBK,50.905,5.762,220,5,5.75,EHBK 080125Z AUTO 22005KT 9999 NSC 16/13 Q1015,2024-08-08T01:25:00Z,16,13,6+,29.97
EHAM,52.315,4.79,220,7,8.06,EHAM 080125Z 22007KT 9999 FEW020 18/15 Q1013 NOSIG,2024-08-08T01:25:00Z,18,15,6+,29.91
EHAK,55.399,3.81,250,20,23.02,EHAK 080125Z AUTO 25020KT //// // FEW021/// 17/13 Q1010 RE//,2024-08-08T01:25:00Z,17,13,,29.82
EBLB,50.482,6.181,250,3,3.45,EBLB 080125Z AUTO 25003KT 9999 OVC120/// 13/10 Q1017 BLU,2024-08-08T01:25:00Z,13,10,6+,30.03
EBFS,50.243,4.646,250,3,3.45,EBFS 080125Z AUTO 25003KT 9999 SCT120/// OVC140/// 15/11 Q1016 BLU,2024-08-08T01:25:00Z,15,11,6+,30.00
EBFN,51.09,2.653,220,5,5.75,EBFN 080125Z AUTO 22005KT 9999 FEW018/// BKN100/// 16/15 Q1015 BLU,2024-08-08T01:25:00Z,16,15,6+,29.97
EBDT,51.005,5.067,250,5,5.75,EBDT 080125Z AUTO 25005KT 9999 OVC100/// 16/12 Q1015 BLU,2024-08-08T01:25:00Z,16,12,6+,29.97
EBCV,50.576,3.831,210,3,3.45,EBCV 080125Z AUTO 21003KT 9999 FEW090/// OVC110/// 16/13 Q1016 BLU,2024-08-08T01:25:00Z,16,13,6+,30.00
EBBL,51.168,5.47,220,5,5.75,EBBL 080125Z AUTO 22005KT 9999 -RA OVC100/// 16/12 Q1015 BLU,2024-08-08T01:25:00Z,16,12,6+,29.97
EBBE,50.759,4.768,240,5,5.75,EBBE 080125Z AUTO 24005KT 9999 OVC120/// 16/12 Q1016 BLU,2024-08-08T01:25:00Z,16,12,6+,30.00
PASN,57.155,-170.223,300,11,12.66,PASN 080124Z AUTO 30011KT 10SM BKN022 BKN030 OVC080 11/06 A2980 RMK AO2 T01110056 TSNO $,2024-08-08T01:24:00Z,11.1,5.6,10+,29.80
PASA,63.689,-170.49,260,11,12.66,PASA 080124Z AUTO 26011KT 3SM -RA BR OVC003 06/06 A2967 RMK AO2 P0000,2024-08-08T01:24:00Z,6,6,3,29.67
KLGB,33.8118,-118.147,180,6,6.9,KLGB 080124Z 18006KT 10SM SCT012 22/17 A2994 RMK AO2 T02170172,2024-08-08T01:24:00Z,21.7,17.2,10+,29.94
KGJT,39.1344,-108.541,240,14,16.11,KGJT 080124Z 24014G29KT 10SM CLR 32/07 A3005 RMK AO2 PK WND 26029/0118 WSHFT 0104 T03170067,2024-08-08T01:24:00Z,31.7,6.7,10+,30.05
KBYG,44.3812,-106.719,360,8,9.21,KBYG 080124Z AUTO 36008KT 1 3/4SM -RA BR BKN003 BKN008 OVC013 13/13 A3028 RMK AO2 LTG DSNT W RAB02 CIG 001V005 P0001 T01330133,2024-08-08T01:24:00Z,13.3,13.3,1.75,30.28
KBVX,35.7259,-91.6517,VRB,4,4.6,KBVX 080124Z AUTO VRB04KT 10SM OVC029 24/19 A2988 RMK AO2,2024-08-08T01:24:00Z,24,19,10+,29.88
KABE,40.658,-75.4347,70,7,8.06,KABE 080124Z 07007KT 10SM OVC013 18/17 A3003 RMK AO2 RAE0052 P0000 T01830167,2024-08-08T01:24:00Z,18.3,16.7,10+,30.03
KSHR,44.7603,-106.974,290,8,9.21,KSHR 080123Z AUTO 29008KT 5SM BR FEW007 OVC030 16/14 A3026 RMK AO2 LTG DSNT SW RAE22 P0002 T01560139,2024-08-08T01:23:00Z,15.6,13.9,5,30.26
KDCA,38.8472,-77.0345,140,8,9.21,KDCA 080123Z 14008KT 10SM SCT028 BKN040 OVC048 27/23 A2990 RMK AO2 LTG DSNT NW OCNL LTGIC DSNT NW CB DSNT NW MOV NW T02670233,2024-08-08T01:23:00Z,26.7,23.3,10+,29.90
KCEZ,37.3071,-108.626,110,5,5.75,KCEZ 080123Z AUTO 11005KT 8SM -RA BKN100 24/16 A3015 RMK AO2 LTG DSNT SE AND S RAB12 P0000 T02390161,2024-08-08T01:23:00Z,23.9,16.1,8,30.15
PASV,61.101,-155.577,220,4,4.6,PASV 080121Z AUTO 22004KT 10SM BKN013 BKN046 12/11 A2986 RMK AO2 SLP106,2024-08-08T01:21:00Z,12,11,10+,29.86
KBID,41.1668,-71.5757,60,8,9.21,KBID 080121Z AUTO 06008KT 10SM BKN022 OVC036 18/15 A3006 RMK AO2 PNO $,2024-08-08T01:21:00Z,18,15,10+,30.06
RJOO,34.784,135.439,340,10,11.51,RJOO 080120Z 34010KT 310V020 9999 FEW020 SCT040 33/23 Q1004 RMK 1CU020 3CU040 A2967,2024-08-08T01:20:00Z,33,23,6+,29.65
PAOT,66.886,-162.607,210,14,16.11,PAOT 080120Z 21014KT 10SM FEW006 BKN035 BKN055 12/12 A2962 RMK AO2 T01220117,2024-08-08T01:20:00Z,12.2,11.7,10+,29.62
PALU,68.873,-166.101,80,5,5.75,PALU 080120Z AUTO 08005KT 6SM -RA OVC003 09/08 A2966 RMK AO2 SLP043,2024-08-08T01:20:00Z,9,8,6,29.66
LXGB,36.151,-5.35,100,3,3.45,LXGB 080120Z AUTO 10003KT 9999 NCD 23/20 Q1012,2024-08-08T01:20:00Z,23,20,6+,29.88
LWSK,41.952,21.627,170,3,3.45,LWSK 080120Z 17003KT CAVOK 18/09 Q1014 NOSIG,2024-08-08T01:20:00Z,18,9,6+,29.94
LTFM,41.262,28.74,30,7,8.06,LTFM 080120Z 03007KT 9999 SCT026 23/18 Q1013 NOSIG RMK RWY17L 04006KT RWY34L 02006KT RWY16R 03006KT RWY36 03006KT RWY18 02005KT,2024-08-08T01:20:00Z,23,18,6+,29.91
LTFJ,40.899,29.309,40,5,5.75,LTFJ 080120Z 04005KT CAVOK 20/17 Q1012 NOSIG RMK RWY24R 02003KT RWY06R 03005KT RWY24L 03006KT,2024-08-08T01:20:00Z,20,17,6+,29.88
LTFE,37.245,27.673,VRB,2,2.3,LTFE 080120Z VRB02KT CAVOK 23/15 Q1005 NOSIG RMK RWY10 00000KT,2024-08-08T01:20:00Z,23,15,6+,29.68
LTFC,37.855,30.368,340,13,14.96,LTFC 080120Z 34013KT CAVOK 22/12 Q1012 RMK RWY23 32013KT,2024-08-08T01:20:00Z,22,12,6+,29.88
LTCS,37.445,38.904,10,8,9.21,LTCS 080120Z 01008KT CAVOK 28/11 Q1008 RMK RWY22 34005KT SKC,2024-08-08T01:20:00Z,28,11,6+,29.76
LTCJ,37.93,41.117,VRB,1,1.15,LTCJ 080120Z VRB01KT CAVOK 22/14 Q1005 NOSIG RMK RWY20 35003KT 300V020 SKC,2024-08-08T01:20:00Z,22,14,6+,29.68
LTCG,40.995,39.782,210,6,6.9,LTCG 080120Z 21006KT 9999 BKN035 24/21 Q1012 NOSIG RMK RWY29 22004KT,2024-08-08T01:20:00Z,24,21,6+,29.88
LTCE,39.956,41.17,VRB,2,2.3,LTCE 080120Z VRB02KT CAVOK 12/09 Q1019 NOSIG RMK RWY08R 17003KT RWY26R 00000KT RWY08L VRB02KT SKC,2024-08-08T01:20:00Z,12,9,6+,30.09
LTCC,37.894,40.201,310,7,8.06,LTCC 080120Z 31007KT CAVOK 29/09 Q1006 NOSIG RMK RWY16 29010KT 270V350 SKC,2024-08-08T01:20:00Z,29,9,6+,29.70
LTBU,41.139,27.919,340,5,5.75,LTBU 080120Z 34005KT CAVOK 18/16 Q1013 RMK RWY22 35007KT,2024-08-08T01:20:00Z,18,16,6+,29.91
LTBS,36.713,28.793,30,5,5.75,LTBS 080120Z 03005KT CAVOK 25/19 Q1004 NOSIG RMK RWY19 35005KT SKC,2024-08-08T01:20:00Z,25,19,6+,29.65
LTBR,40.255,29.562,VRB,2,2.3,LTBR 080120Z VRB02KT CAVOK 15/15 Q1013 NOSIG RMK RWY07 VRB02KT,2024-08-08T01:20:00Z,15,15,6+,29.91
LTBJ,38.285,27.155,340,15,17.26,LTBJ 080120Z 34015KT CAVOK 25/11 Q1007 NOSIG RMK RWY16 35014KT,2024-08-08T01:20:00Z,25,11,6+,29.73
LTBA,40.982,28.821,50,4,4.6,LTBA 080120Z 05004KT CAVOK 22/17 Q1012 RMK RWY23 06004KT,2024-08-08T01:20:00Z,22,17,6+,29.88
LTAZ,38.771,34.521,200,6,6.9,LTAZ 080120Z 20006KT CAVOK 18/11 Q1014 RMK RWY29 VRB02KT,2024-08-08T01:20:00Z,18,11,6+,29.94
LTAU,38.77,35.495,100,8,9.21,LTAU 080120Z 10008KT CAVOK 20/13 Q1014 NOSIG RMK RWY07 10009KT,2024-08-08T01:20:00Z,20,13,6+,29.94
LTAT,38.435,38.092,VRB,2,2.3,LTAT 080120Z VRB02KT CAVOK 21/10 Q1010 NOSIG RMK RWY03 VRB02KT,2024-08-08T01:20:00Z,21,10,6+,29.82
LTAP,40.826,35.52,250,1,1.15,LTAP 080120Z 25001KT 9999 SCT040 18/14 Q1013 NOSIG RMK RWY23 34002KT,2024-08-08T01:20:00Z,18,14,6+,29.91
LTAJ,36.947,37.479,VRB,1,1.15,LTAJ 080120Z VRB01KT CAVOK 25/17 Q1007 NOSIG RMK RWY10 36004KT 300V100 SKC,2024-08-08T01:20:00Z,25,17,6+,29.73
LTAI,36.9,30.798,210,3,3.45,LTAI 080120Z 21003KT CAVOK 27/24 Q1005 NOSIG RMK RWY18C 19004KT RWY36R VRB01KT RWY18L 20002KT,2024-08-08T01:20:00Z,27,24,6+,29.68
LTAG,37.002,35.426,40,2,2.3,LTAG 080120Z 04002KT 9999 FEW035 25/22 Q1005 NOSIG RMK 2CU035,2024-08-08T01:20:00Z,25,22,6+,29.68
LTAF,36.989,35.293,140,2,2.3,LTAF 080120Z 14002KT 9999 FEW035 26/25 Q1005 NOSIG RMK RWY23 00000KT 2CU035,2024-08-08T01:20:00Z,26,25,6+,29.68
LTAC,40.128,32.995,30,10,11.51,LTAC 080120Z 03010KT CAVOK 18/12 Q1014 NOSIG RMK RWY21L 01006KT RWY03L 02010KT RWY21R 01006KT,2024-08-08T01:20:00Z,18,12,6+,29.94
LSZS,46.526,9.879,VRB,2,2.3,LSZS 080120Z AUTO VRB02KT 9999 FEW055 SCT065 07/07 Q1023,2024-08-08T01:20:00Z,7,7,6+,30.21
LSZR,47.485,9.561,VRB,2,2.3,LSZR 080120Z AUTO VRB02KT CAVOK 18/17 Q1016,2024-08-08T01:20:00Z,18,17,6+,30.00
LSZL,46.164,8.878,0,0,0.0,LSZL 080120Z AUTO 00000KT 9999NDV NCD 17/16 Q1015 RMK,2024-08-08T01:20:00Z,17,16,,29.97
LSZH,47.48,8.536,120,3,3.45,LSZH 080120Z AUTO 12003KT 9999 FEW050TCU 18/17 Q1016 NOSIG,2024-08-08T01:20:00Z,18,17,6+,30.00
LSZG,47.179,7.415,60,2,2.3,LSZG 080120Z AUTO 06002KT 6000 NCD 17/17 Q1016,2024-08-08T01:20:00Z,17,17,3.73,30.00
LSZC,46.972,8.392,220,4,4.6,LSZC 080120Z AUTO 22004KT 9999 BKN050CB 18/17 Q1017,2024-08-08T01:20:00Z,18,17,6+,30.03
LSZB,46.914,7.497,90,5,5.75,LSZB 080120Z AUTO 09005KT 9999 NCD 17/17 Q1017,2024-08-08T01:20:00Z,17,17,6+,30.03
LSZA,46.004,8.91,10,3,3.45,LSZA 080120Z AUTO 01003KT CAVOK 17/16 Q1015,2024-08-08T01:20:00Z,17,16,6+,29.97
LSMP,46.844,6.916,0,0,0.0,LSMP 080120Z AUTO 00000KT 8000NDV NCD 18/17 Q1017 RMK,2024-08-08T01:20:00Z,18,17,,30.03
LSMM,46.743,8.11,70,2,2.3,LSMM 080120Z AUTO 07002KT 9999NDV FEW049 15/15 Q1018 RMK,2024-08-08T01:20:00Z,15,15,,30.06
LSME,47.092,8.305,VRB,1,1.15,LSME 080120Z AUTO VRB01KT 9999NDV FEW034 SCT042 20/18 Q1016 RMK,2024-08-08T01:20:00Z,20,18,,30.00
LSMD,47.399,8.648,0,0,0.0,LSMD 080120Z AUTO 00000KT 9999NDV BKN049 18/17 Q1017 RMK,2024-08-08T01:20:00Z,18,17,,30.03
LSMA,46.943,8.286,180,2,2.3,LSMA 080120Z AUTO 18002KT 9999NDV NCD 18/17 Q1017 RMK,2024-08-08T01:20:00Z,18,17,,30.03
LSGS,46.219,7.33,100,3,3.45,LSGS 080120Z AUTO 10003KT CAVOK 17/15 Q1017,2024-08-08T01:20:00Z,17,15,6+,30.03
LSGG,46.248,6.128,VRB,2,2.3,LSGG 080120Z AUTO VRB02KT 9999 FEW067 20/17 Q1016 NOSIG,2024-08-08T01:20:00Z,20,17,6+,30.00
LSGC,47.083,6.792,VRB,1,1.15,LSGC 080120Z AUTO VRB01KT 9999 BKN011 17/17 Q1019,2024-08-08T01:20:00Z,17,17,6+,30.09
LOWW,48.117,16.582,190,7,8.06,LOWW 080120Z 19007KT CAVOK 22/16 Q1013 NOSIG,2024-08-08T01:20:00Z,22,16,6+,29.91
LOWS,47.789,13.009,160,7,8.06,LOWS 080120Z AUTO 16007KT 9999 FEW050 SCT060 17/16 Q1016,2024-08-08T01:20:00Z,17,16,6+,30.00
LOWL,48.233,14.188,210,2,2.3,LOWL 080120Z AUTO 21002KT 9999 FEW050 18/16 Q1015,2024-08-08T01:20:00Z,18,16,6+,29.97
LOWK,46.648,14.318,VRB,2,2.3,LOWK 080120Z AUTO VRB02KT 9999 -RA FEW010 SCT012 17/16 Q1017,2024-08-08T01:20:00Z,17,16,6+,30.03
LOWI,47.26,11.344,VRB,3,3.45,LOWI 080120Z AUTO VRB03KT 9999 FEW015 16/15 Q1018,2024-08-08T01:20:00Z,16,15,6+,30.06
LOWG,46.997,15.447,VRB,2,2.3,LOWG 080120Z AUTO VRB02KT 9999 -RA NCD 18/17 Q1016,2024-08-08T01:20:00Z,18,17,6+,30.00
LLBG,32.011,34.887,160,5,5.75,LLBG 080120Z 16005KT 9999 SCT025 26/23 Q1007 NOSIG,2024-08-08T01:20:00Z,26,23,6+,29.73
LIRZ,43.097,12.51,50,3,3.45,LIRZ 080120Z AUTO 05003KT 020V090 9999 NCD 22/18 Q1013,2024-08-08T01:20:00Z,22,18,6+,29.91
LIRQ,43.81,11.205,90,4,4.6,LIRQ 080120Z 09004KT CAVOK 22/16 Q1013,2024-08-08T01:20:00Z,22,16,6+,29.91
LIRN,40.885,14.292,230,2,2.3,LIRN 080120Z AUTO 23002KT 9999 FEW018/// 26/23 Q1013,2024-08-08T01:20:00Z,26,23,6+,29.91
LIRF,41.8,12.239,330,3,3.45,LIRF 080120Z 33003KT CAVOK 24/22 Q1012 NOSIG,2024-08-08T01:20:00Z,24,22,6+,29.88
LIRA,41.808,12.585,VRB,2,2.3,LIRA 080120Z VRB02KT CAVOK 25/23 Q1013,2024-08-08T01:20:00Z,25,23,6+,29.91
LIPZ,45.505,12.352,310,3,3.45,LIPZ 080120Z 31003KT 270V330 CAVOK 20/19 Q1012 NOSIG,2024-08-08T01:20:00Z,20,19,6+,29.88
LIPY,43.617,13.36,VRB,1,1.15,LIPY 080120Z AUTO VRB01KT 9999 BKN120/// 24/18 Q1013,2024-08-08T01:20:00Z,24,18,6+,29.91
LIPX,45.387,10.872,260,6,6.9,LIPX 080120Z 26006KT CAVOK 20/19 Q1012,2024-08-08T01:20:00Z,20,19,6+,29.88
LIPR,44.02,12.612,260,4,4.6,LIPR 080120Z AUTO 26004KT 9999 BKN049/// 24/18 Q1013,2024-08-08T01:20:00Z,24,18,6+,29.91
LIPQ,45.828,13.472,40,4,4.6,LIPQ 080120Z AUTO 04004KT 9999 FEW100/// SCT160/// BKN220/// 23/20 Q1012,2024-08-08T01:20:00Z,23,20,6+,29.88
LIPO,45.429,10.331,VRB,1,1.15,LIPO 080120Z AUTO VRB01KT 1900 BR FEW003/// 20/20 Q1013,2024-08-08T01:20:00Z,20,20,1.18,29.91
LIPH,45.648,12.194,VRB,2,2.3,LIPH 080120Z AUTO VRB02KT 9999 FEW240/// 21/19 Q1012,2024-08-08T01:20:00Z,21,19,6+,29.88
LIPE,44.531,11.297,240,5,5.75,LIPE 080120Z AUTO 24005KT 9999 NCD 20/18 Q1013,2024-08-08T01:20:00Z,20,18,6+,29.91
LIMZ,44.547,7.623,VRB,2,2.3,LIMZ 080120Z AUTO VRB02KT 9000 NCD 18/18 Q1015,2024-08-08T01:20:00Z,18,18,5.59,29.97
LIML,45.461,9.263,VRB,2,2.3,LIML 080120Z AUTO VRB02KT 9999 NCD 19/19 Q1013,2024-08-08T01:20:00Z,19,19,6+,29.91
LIMJ,44.413,8.838,40,6,6.9,LIMJ 080120Z 04006KT CAVOK 25/15 Q1012,2024-08-08T01:20:00Z,25,15,6+,29.88
LIMF,45.203,7.649,VRB,2,2.3,LIMF 080120Z VRB02KT CAVOK 19/18 Q1014,2024-08-08T01:20:00Z,19,18,6+,29.94
LIME,45.674,9.704,10,4,4.6,LIME 080120Z 01004KT CAVOK 20/18 Q1014 NOSIG,2024-08-08T01:20:00Z,20,18,6+,29.94
LIMC,45.631,8.728,30,2,2.3,LIMC 080120Z 03002KT 9999 MIFG NSC 19/18 Q1014 NOSIG,2024-08-08T01:20:00Z,19,18,6+,29.94
LIEO,40.899,9.518,VRB,2,2.3,LIEO 080120Z VRB02KT CAVOK 26/18 Q1013,2024-08-08T01:20:00Z,26,18,6+,29.91
LIEE,39.243,9.06,350,6,6.9,LIEE 080120Z 35006KT CAVOK 23/22 Q1013,2024-08-08T01:20:00Z,23,22,6+,29.91
LIEA,40.631,8.289,VRB,2,2.3,LIEA 080120Z VRB02KT CAVOK 21/20 Q1013,2024-08-08T01:20:00Z,21,20,6+,29.91
LICR,38.072,15.654,360,12,13.81,LICR 080120Z AUTO 36012KT 9999 NCD 28/23 Q1012,2024-08-08T01:20:00Z,28,23,6+,29.88
LICJ,38.176,13.091,60,4,4.6,LICJ 080120Z 06004KT CAVOK 27/23 Q1013,2024-08-08T01:20:00Z,27,23,6+,29.91
LICD,35.498,12.618,290,2,2.3,LICD 080120Z 29002KT CAVOK 26/26 Q1013,2024-08-08T01:20:00Z,26,26,6+,29.91
LICC,37.467,15.064,40,6,6.9,LICC 080120Z 04006KT CAVOK 28/22 Q1012,2024-08-08T01:20:00Z,28,22,6+,29.88
LICB,36.994,14.606,60,3,3.45,LICB 080120Z AUTO 06003KT 9999 NCD 23/17 Q1013,2024-08-08T01:20:00Z,23,17,6+,29.91
LICA,38.908,16.242,200,5,5.75,LICA 080120Z AUTO 20005KT 9999 SCT018/// SCT022/// 27/24 Q1012,2024-08-08T01:20:00Z,27,24,6+,29.88
LIBR,40.658,17.951,280,3,3.45,LIBR 080120Z 28003KT CAVOK 25/20 Q1011,2024-08-08T01:20:00Z,25,20,6+,29.85
LIBP,42.432,14.181,10,8,9.21,LIBP 080120Z AUTO 01008KT 9999 BKN022/// 27/22 Q1013,2024-08-08T01:20:00Z,27,22,6+,29.91
LIBD,41.138,16.765,200,5,5.75,LIBD 080120Z 20005KT CAVOK 24/16 Q1011,2024-08-08T01:20:00Z,24,16,6+,29.85
LGZA,37.751,20.884,0,0,0.0,LGZA 080120Z 00000KT 9999 FEW025 25/23 Q1010,2024-08-08T01:20:00Z,25,23,6+,29.82
LGTS,40.52,22.971,70,3,3.45,LGTS 080120Z 07003KT 9999 FEW030 24/16 Q1012 NOSIG,2024-08-08T01:20:00Z,24,16,6+,29.88
LGSO,37.422,24.95,330,11,12.66,LGSO 080120Z AUTO 33011KT //// // ////// 26/16 Q1010 RE//,2024-08-08T01:20:00Z,26,16,,29.82
LGSA,35.54,24.141,260,4,4.6,LGSA 080120Z 26004KT CAVOK 25/20 Q1010,2024-08-08T01:20:00Z,25,20,6+,29.82
LGRP,36.405,28.086,VRB,3,3.45,LGRP 080120Z VRB03KT CAVOK 28/19 Q1004 NOSIG,2024-08-08T01:20:00Z,28,19,6+,29.65
LGPA,37.022,25.114,350,8,9.21,LGPA 080120Z AUTO 35008KT //// // ////// 25/19 Q1009 RE//,2024-08-08T01:20:00Z,25,19,,29.79
LGKZ,40.288,21.842,VRB,2,2.3,LGKZ 080120Z AUTO VRB02KT //// // ////// 19/10 Q1015 RE//,2024-08-08T01:20:00Z,19,10,,29.97
LGKR,39.61,19.913,VRB,2,2.3,LGKR 080120Z VRB02KT CAVOK 25/23 Q1009 NOSIG,2024-08-08T01:20:00Z,25,23,6+,29.79
LGKO,36.801,27.091,340,11,12.66,LGKO 080120Z 34011KT CAVOK 26/17 Q1006,2024-08-08T01:20:00Z,26,17,6+,29.70
LGKL,37.068,22.026,VRB,2,2.3,LGKL 080120Z AUTO VRB02KT //// // ////// 22/18 Q1010 RE//,2024-08-08T01:20:00Z,22,18,,29.82
LGIR,35.337,25.173,320,10,11.51,LGIR 080120Z 32010KT CAVOK 28/20 Q1010 NOSIG,2024-08-08T01:20:00Z,28,20,6+,29.82
LGIO,39.696,20.823,VRB,1,1.15,LGIO 080120Z AUTO VRB01KT //// // ////// 19/16 Q1014 RE//,2024-08-08T01:20:00Z,19,16,,29.94
LGEL,38.064,23.556,VRB,2,2.3,LGEL 080120Z AUTO VRB02KT //// // ////// 26/15 Q1011 RE//,2024-08-08T01:20:00Z,26,15,,29.85
LGAV,37.936,23.945,30,4,4.6,LGAV 080120Z 03004KT 350V070 CAVOK 26/11 Q1012 NOSIG,2024-08-08T01:20:00Z,26,11,6+,29.88
LGAD,37.923,21.287,0,0,0.0,LGAD 080120Z 00000KT CAVOK 22/21 Q1011,2024-08-08T01:20:00Z,22,21,6+,29.85
LCEN,35.155,33.496,0,0,0.0,LCEN 080120Z 00000KT 9999 FEW020 23/20 Q1006 NOSIG RMK RWY11R 00000KT RWY29R 00000KT RWY11L 00000KT,2024-08-08T01:20:00Z,23,20,6+,29.70
LATI,41.419,19.716,180,4,4.6,LATI 080120Z 18004KT CAVOK 20/15 Q1011 NOSIG,2024-08-08T01:20:00Z,20,15,6+,29.85
KSVH,35.7635,-80.9473,30,8,9.21,KSVH 080120Z AUTO 03008G15KT 10SM SCT011 SCT110 25/23 A2980 RMK AO2 T02490230,2024-08-08T01:20:00Z,24.9,23,10+,29.80
KOCW,35.5703,-77.05,60,6,6.9,KOCW 080120Z AUTO 06006KT 10SM -RA SCT009 BKN021 OVC047 25/24 A2979 RMK AO2 P0002 T02510242,2024-08-08T01:20:00Z,25.1,24.2,10+,29.79
KMHV,35.0626,-118.157,300,15,17.26,KMHV 080120Z AUTO 30015G28KT 10SM CLR 37/03 A2991 RMK AO2,2024-08-08T01:20:00Z,37,3,10+,29.91
KGZN,32.3682,-99.026,110,6,6.9,KGZN 080120Z AUTO 11006KT 10SM 34/14 A2983 RMK AO2,2024-08-08T01:20:00Z,34,14,10+,29.83
KETC,35.9363,-77.5416,80,8,9.21,KETC 080120Z AUTO 08008KT 7SM -RA BR BKN007 BKN025 BKN120 24/24 A2979 RMK AO2 P0001 T02420237,2024-08-08T01:20:00Z,24.2,23.7,7,29.79
KEHO,35.2556,-81.5986,20,9,10.36,KEHO 080120Z AUTO 02009KT 10SM BKN095 25/22 A2976 RMK AO2 T02470224,2024-08-08T01:20:00Z,24.7,22.4,10+,29.76
EYVI,54.634,25.286,200,2,2.3,EYVI 080120Z 20002KT 9000 MIFG SCT003 12/12 Q1014 NOSIG,2024-08-08T01:20:00Z,12,12,5.59,29.94
EYSA,55.894,23.395,VRB,2,2.3,EYSA 080120Z AUTO VRB02KT 9999NDV NSC 13/12 Q1014,2024-08-08T01:20:00Z,13,12,,29.94
EYPA,55.973,21.092,120,6,6.9,EYPA 080120Z 12006KT CAVOK 16/14 Q1013,2024-08-08T01:20:00Z,16,14,6+,29.91
EYKA,54.962,24.069,0,0,0.0,EYKA 080120Z 00000KT 2800 BR FEW002 12/12 Q1014,2024-08-08T01:20:00Z,12,12,1.74,29.94
EVVA,57.361,21.545,0,0,0.0,EVVA 080120Z AUTO 00000KT 0550 FG NSC 11/11 Q1014,2024-08-08T01:20:00Z,11,11,0.34,29.94
EVRA,56.924,23.968,VRB,1,1.15,EVRA 080120Z VRB01KT 9999 1100 R36/1300U BCFG SCT001 12/11 Q1014 NOSIG,2024-08-08T01:20:00Z,12,11,6+,29.94
EVLA,56.517,21.097,90,4,4.6,EVLA 080120Z AUTO 09004KT CAVOK 13/13 Q1013,2024-08-08T01:20:00Z,13,13,6+,29.91
EVGA,56.778,24.854,0,0,0.0,EVGA 080120Z 00000KT 9999 PRFG NSC 12/12 Q1013 NOSIG,2024-08-08T01:20:00Z,12,12,6+,29.91
ETWM,52.725,7.33,VRB,1,1.15,ETWM 080120Z AUTO VRB01KT //// // ////// 12/11 Q1014 ///,2024-08-08T01:20:00Z,12,11,,29.94
ETSN,48.71,11.21,300,3,3.45,ETSN 080120Z 30003KT 9999 FEW040 SCT320 17/16 Q1015 BLU+,2024-08-08T01:20:00Z,17,16,6+,29.97
ETSL,48.185,10.861,220,1,1.15,ETSL 080120Z 22001KT 9999 SCT100 16/15 Q1016 BLU+,2024-08-08T01:20:00Z,16,15,6+,30.00
ETSI,48.716,11.534,320,3,3.45,ETSI 080120Z AUTO 32003KT //// // ////// 18/17 Q1015 ///,2024-08-08T01:20:00Z,18,17,,29.97
ETSH,51.768,13.168,300,5,5.75,ETSH 080120Z 30005KT 9999 FEW060 BKN120 19/16 Q1012 BLU,2024-08-08T01:20:00Z,19,16,6+,29.88
ETSB,50.175,7.06,330,4,4.6,ETSB 080120Z AUTO 33004KT //// // ////// 15/12 Q1016 ///,2024-08-08T01:20:00Z,15,12,,30.00
ETNW,52.457,9.427,200,2,2.3,ETNW 080120Z 20002KT 9999 BKN070 17/15 Q1014 BLU,2024-08-08T01:20:00Z,17,15,6+,29.94
ETNT,53.548,7.667,VRB,2,2.3,ETNT 080120Z AUTO VRB02KT //// // ////// 12/11 Q1013 ///,2024-08-08T01:20:00Z,12,11,,29.91
ETNS,54.457,9.52,210,4,4.6,ETNS 080120Z AUTO 21004KT //// // ////// 12/11 Q1012 ///,2024-08-08T01:20:00Z,12,11,,29.88
ETNN,50.829,6.66,250,4,4.6,ETNN 080120Z 25004KT 9999 FEW070 BKN140 17/13 Q1015 BLU,2024-08-08T01:20:00Z,17,13,6+,29.97
ETNH,54.312,9.538,190,2,2.3,ETNH 080120Z AUTO 19002KT //// // ////// 12/11 Q1012 ///,2024-08-08T01:20:00Z,12,11,,29.88
ETMN,53.765,8.658,200,5,5.75,ETMN 080120Z 20005KT 9999 BKN270 14/12 Q1013 BLU+,2024-08-08T01:20:00Z,14,12,6+,29.91
ETHS,52.918,10.184,190,2,2.3,ETHS 080120Z 19002KT 9999 BKN070 14/12 Q1014 BLU,2024-08-08T01:20:00Z,14,12,6+,29.94
ETHN,49.398,9.958,310,4,4.6,ETHN 080120Z 31004KT 9999 FEW070 SCT320 17/16 Q1016 BLU+,2024-08-08T01:20:00Z,17,16,6+,30.00
ETHL,48.218,9.91,VRB,1,1.15,ETHL 080120Z VRB01KT 9999 FEW025 FEW040CB SCT100 18/16 Q1016 BLU+,2024-08-08T01:20:00Z,18,16,6+,30.00
ETHF,51.114,9.286,VRB,2,2.3,ETHF 080120Z VRB02KT 9999 BKN058 16/15 Q1015 BLU,2024-08-08T01:20:00Z,16,15,6+,29.97
ETHC,52.591,10.022,230,2,2.3,ETHC 080120Z 23002KT 9999 FEW013 BKN070 16/15 Q1014 BLU,2024-08-08T01:20:00Z,16,15,6+,29.94
ETHB,52.279,9.082,180,4,4.6,ETHB 080120Z 18004KT 9999 FEW050 BKN060 16/14 Q1014 BLU,2024-08-08T01:20:00Z,16,14,6+,29.94
ETHA,47.834,10.867,VRB,1,1.15,ETHA 080120Z AUTO VRB01KT 9999 // ////// 16/14 Q1017 ///,2024-08-08T01:20:00Z,16,14,6+,30.03
ETGG,54.827,9.506,230,6,6.9,ETGG 080120Z AUTO 23006KT 9999 // ////// 14/13 Q1012 ///,2024-08-08T01:20:00Z,14,13,6+,29.88
ESUT,65.806,15.083,130,12,13.81,ESUT 080120Z AUTO 13012KT 9999 BKN018/// BKN032/// OVC170/// 16/14 Q1009,2024-08-08T01:20:00Z,16,14,6+,29.79
ESUP,67.246,23.069,VRB,2,2.3,ESUP 080120Z AUTO VRB02KT 9999 // NCD 06/06 Q1015,2024-08-08T01:20:00Z,6,6,6+,29.97
ESTL,56.083,13.213,120,3,3.45,ESTL 080120Z AUTO 12003KT 9999 BKN062/// 17/17 Q1010,2024-08-08T01:20:00Z,17,17,6+,29.82
ESTA,56.294,12.848,130,4,4.6,ESTA 080120Z AUTO 13004KT 9999 FEW017/// BKN078/// BKN120/// 17/16 Q1010,2024-08-08T01:20:00Z,17,16,6+,29.82
ESSV,57.662,18.348,150,3,3.45,ESSV 080120Z AUTO 15003KT 7000 NCD 15/15 Q1013,2024-08-08T01:20:00Z,15,15,4.35,29.91
ESST,60.158,12.992,130,7,8.06,ESST 080120Z AUTO 13007KT 9999 BKN046/// BKN068/// 18/17 Q1009,2024-08-08T01:20:00Z,18,17,6+,29.79
ESSP,58.584,16.255,110,3,3.45,ESSP 080120Z 11003KT CAVOK 16/15 Q1011,2024-08-08T01:20:00Z,16,15,6+,29.85
ESSL,58.406,15.681,140,5,5.75,ESSL 080120Z AUTO 14005KT 9999 SCT190/// 17/15 Q1011,2024-08-08T01:20:00Z,17,15,6+,29.85
ESSD,60.422,15.515,150,6,6.9,ESSD 080120Z AUTO 15006KT 9999 FEW098/// OVC160/// 17/15 Q1010,2024-08-08T01:20:00Z,17,15,6+,29.82
ESSB,59.356,17.933,150,5,5.75,ESSB 080120Z AUTO 15005KT 9999 OVC130/// 18/17 Q1012,2024-08-08T01:20:00Z,18,17,6+,29.88
ESSA,59.664,17.92,130,6,6.9,ESSA 080120Z 13006KT CAVOK 16/16 Q1012 NOSIG,2024-08-08T01:20:00Z,16,16,6+,29.88
ESPA,65.541,22.126,320,3,3.45,ESPA 080120Z AUTO 32003KT 9999 NCD 12/11 Q1014,2024-08-08T01:20:00Z,12,11,6+,29.94
ESOW,59.595,16.638,110,4,4.6,ESOW 080120Z AUTO 11004KT 9999 FEW160/// 18/16 Q1011,2024-08-08T01:20:00Z,18,16,6+,29.85
ESOK,59.442,13.342,170,6,6.9,ESOK 080120Z AUTO 17006KT 9999 BKN056/// BKN069/// 19/17 Q1009,2024-08-08T01:20:00Z,19,17,6+,29.79
ESOH,60.02,13.579,170,6,6.9,ESOH 080120Z AUTO 17006KT 9999 FEW068/// BKN088/// BKN110/// 18/17 Q1009,2024-08-08T01:20:00Z,18,17,6+,29.79
ESOE,59.229,15.046,VRB,3,3.45,ESOE 080120Z AUTO VRB03KT 9999 SCT066/// 16/15 Q1010,2024-08-08T01:20:00Z,16,15,6+,29.82
ESNZ,63.199,14.489,130,11,12.66,ESNZ 080120Z AUTO 13011KT 9999 FEW014/// SCT160/// 16/15 Q1009,2024-08-08T01:20:00Z,16,15,6+,29.79
ESNX,65.592,19.283,130,4,4.6,ESNX 080120Z AUTO 13004KT 9999 OVC084/// 12/12 Q1013,2024-08-08T01:20:00Z,12,12,6+,29.91
ESNV,64.579,16.839,90,4,4.6,ESNV 080120Z AUTO 09004KT 9999 FEW026/// OVC068/// ///// Q1012,2024-08-08T01:20:00Z,,,6+,29.88
ESNU,63.789,20.285,300,3,3.45,ESNU 080120Z 30003KT 9999 BCFG NSC 10/09 Q1013,2024-08-08T01:20:00Z,10,9,6+,29.91
ESNS,64.625,21.077,270,2,2.3,ESNS 080120Z AUTO 27002KT 0350 R10/0900D R28/P2000N BCFG NCD 10/10 Q1013,2024-08-08T01:20:00Z,10,10,0.22,29.91
ESNQ,67.823,20.34,200,6,6.9,ESNQ 080120Z AUTO 20006KT 9999 NCD 11/09 Q1013,2024-08-08T01:20:00Z,11,9,6+,29.91
ESNO,63.412,18.98,VRB,3,3.45,ESNO 080120Z AUTO VRB03KT 0100 R12///// R30/0375U FG SCT001/// 14/14 Q1013,2024-08-08T01:20:00Z,14,14,0.06,29.91
ESNN,62.532,17.436,100,4,4.6,ESNN 080120Z AUTO 10004KT 9999 BKN015/// BKN047/// OVC110/// 18/16 Q1012,2024-08-08T01:20:00Z,18,16,6+,29.88
ESNL,64.552,18.711,130,7,8.06,ESNL 080120Z AUTO 13007KT 9999 NCD 14/14 Q1013,2024-08-08T01:20:00Z,14,14,6+,29.91
ESNK,63.047,17.766,0,0,0.0,ESNK 080120Z AUTO 00000KT 9999 R17///// R35///// BKN014/// OVC100/// 16/15 Q1012,2024-08-08T01:20:00Z,16,15,6+,29.88
ESNG,67.133,20.81,VRB,1,1.15,ESNG 080120Z AUTO VRB01KT 9999 NCD 08/07 Q1014,2024-08-08T01:20:00Z,8,7,6+,29.94
ESND,62.047,14.416,120,5,5.75,ESND 080120Z AUTO 12005KT 080V150 9999 OVC058/// 16/15 Q1009,2024-08-08T01:20:00Z,16,15,6+,29.79
ESMX,56.927,14.73,130,4,4.6,ESMX 080120Z AUTO 13004KT 9999 BKN004/// 17/17 Q1011,2024-08-08T01:20:00Z,17,17,6+,29.85
ESMV,57.29,14.134,160,3,3.45,ESMV 080120Z AUTO 16003KT 130V190 9999 SCT052/// 14/13 Q1011,2024-08-08T01:20:00Z,14,13,6+,29.85
ESMT,56.691,12.82,140,5,5.75,ESMT 080120Z AUTO 14005KT 110V170 9999 FEW015/// SCT018/// BKN072/// 18/16 Q1010,2024-08-08T01:20:00Z,18,16,6+,29.82
ESMS,55.539,13.373,340,2,2.3,ESMS 080120Z 34002KT 8000 -DZ FEW011 SCT049 18/17 Q1010,2024-08-08T01:20:00Z,18,17,4.97,29.82
ESMQ,56.685,16.284,130,3,3.45,ESMQ 080120Z AUTO 13003KT 9999 BKN055/// 15/15 Q1012,2024-08-08T01:20:00Z,15,15,6+,29.88
ESMK,55.922,14.085,270,1,1.15,ESMK 080120Z AUTO 27001KT 0200 R01/P2000N R19/0900N BCFG OVC001/// 15/15 Q1011,2024-08-08T01:20:00Z,15,15,0.12,29.85
ESKS,61.165,12.834,120,9,10.36,ESKS 080120Z AUTO 12009KT 9999 OVC011/// 15/14 Q1008,2024-08-08T01:20:00Z,15,14,6+,29.76
ESKN,58.786,16.918,150,6,6.9,ESKN 080120Z 15006KT CAVOK 19/17 Q1012,2024-08-08T01:20:00Z,19,17,6+,29.88
ESKM,60.96,14.507,120,7,8.06,ESKM 080120Z AUTO 12007KT 9999 SCT039/// BKN051/// OVC084/// 17/17 Q1009,2024-08-08T01:20:00Z,17,17,6+,29.79
ESIB,58.431,12.71,180,6,6.9,ESIB 080120Z AUTO 18006KT 9999 OVC070/// 18/16 Q1009,2024-08-08T01:20:00Z,18,16,6+,29.79
ESIA,58.514,14.507,210,9,10.36,ESIA 080120Z AUTO 21009KT 9999 NCD 18/16 Q1010,2024-08-08T01:20:00Z,18,16,6+,29.82
ESGT,58.314,12.347,170,4,4.6,ESGT 080120Z AUTO 17004KT 9999 -RA BKN020/// OVC028/// 18/16 Q1009 RERA,2024-08-08T01:20:00Z,18,16,6+,29.79
ESGP,57.781,11.869,290,5,5.75,ESGP 080120Z AUTO 29005KT 9999 FEW017/// BKN026/// OVC034/// 16/14 Q1010 RERA,2024-08-08T01:20:00Z,16,14,6+,29.82
ESGJ,57.752,14.069,170,6,6.9,ESGJ 080120Z AUTO 17006KT 9999 NCD 15/15 Q1011,2024-08-08T01:20:00Z,15,15,6+,29.85
ESGG,57.667,12.285,170,6,6.9,ESGG 080120Z 17006KT 9999 BKN009 OVC014 16/16 Q1009,2024-08-08T01:20:00Z,16,16,6+,29.79
ESDF,56.266,15.267,110,5,5.75,ESDF 080120Z AUTO 11005KT 9999 FEW049/// SCT090/// 18/17 Q1011,2024-08-08T01:20:00Z,18,17,6+,29.85
ESCM,59.899,17.589,,,,ESCM 080120Z AUTO /////KT 9999 SCT140/// 16/16 Q1012,2024-08-08T01:20:00Z,16,16,6+,29.88
ESCF,58.398,15.526,180,3,3.45,ESCF 080120Z AUTO 18003KT 9999 NCD 16/15 Q1011,2024-08-08T01:20:00Z,16,15,6+,29.85
ENZV,58.884,5.637,180,8,9.21,ENZV 080120Z AUTO 18008KT 9999 FEW017/// SCT086/// 15/13 Q1006,2024-08-08T01:20:00Z,15,13,6+,29.70
ENWV,56.278,3.395,230,21,24.17,ENWV 080120Z AUTO 23021KT 9999NDV OVC074/// 16/13 Q1008 W///S4,2024-08-08T01:20:00Z,16,13,,29.76
ENVD,70.065,29.835,10,4,4.6,ENVD 080120Z AUTO 01004KT 9999 NCD 10/06 Q1015,2024-08-08T01:20:00Z,10,6,6+,29.97
ENVA,63.46,10.931,120,8,9.21,ENVA 080120Z AUTO 12008KT 9999 -RA BKN093/// 19/15 Q1004 RMK WIND 670FT 16014KT,2024-08-08T01:20:00Z,19,15,6+,29.65
ENUN,-99.99,-99.99,240,16,18.41,ENUN 080120Z AUTO 24016KT 9999 BKN002/// OVC110/// 15/15 Q1002 W15/S3,2024-08-08T01:20:00Z,15,15,6+,29.59
ENUG,71.305,22.253,160,19,21.86,ENUG 080120Z AUTO 16019KT 9999NDV NCD 20/07 Q1009 W///S/,2024-08-08T01:20:00Z,20,7,,29.79
ENTO,59.184,10.255,230,5,5.75,ENTO 080120Z AUTO 23005KT 9999 NCD 13/13 Q1008,2024-08-08T01:20:00Z,13,13,6+,29.76
ENTC,69.675,18.916,VRB,3,3.45,ENTC 080120Z AUTO VRB03KT 9999 NCD 16/09 Q1009 RMK WIND 2600FT 18024KT,2024-08-08T01:20:00Z,16,9,6+,29.79
ENSS,70.355,31.044,220,6,6.9,ENSS 080120Z AUTO 22006KT 9999 NCD 15/08 Q1015 RMK WIND 0500FT 23015KT,2024-08-08T01:20:00Z,15,8,6+,29.97
ENSR,69.789,20.955,10,2,2.3,ENSR 080120Z AUTO 01002KT 9999 NCD 17/09 Q1010 RMK WIND RWY 32 12002KT WIND 1119FT 15010KT,2024-08-08T01:20:00Z,17,9,6+,29.82
ENSL,58.367,1.907,210,26,29.92,ENSL 080120Z AUTO 21026KT CAVOK 15/12 Q1003 W14/S4,2024-08-08T01:20:00Z,15,12,6+,29.62
ENSK,68.58,15.029,60,4,4.6,ENSK 080120Z AUTO 06004KT 020V110 9999 NCD 18/11 Q1007,2024-08-08T01:20:00Z,18,11,6+,29.73
ENSH,68.245,14.669,120,11,12.66,ENSH 080120Z AUTO 12011KT 9999 SCT062/// BKN094/// 21/12 Q1006 RMK WIND 0150FT /////KT,2024-08-08T01:20:00Z,21,12,6+,29.70
ENSG,61.158,7.141,260,5,5.75,ENSG 080120Z AUTO 26005KT 180V300 9999 FEW046/// OVC070/// 13/08 Q1005 RMK WIND 3806FT 18011KT,2024-08-08T01:20:00Z,13,8,6+,29.68
ENSF,61.25,1.85,210,30,34.52,ENSF 080120Z AUTO 21030KT 9999 SCT049/// BKN071/// 15/12 Q0998 W///S4,2024-08-08T01:20:00Z,15,12,6+,29.47
ENSE,61.45,2.15,180,22,25.32,ENSE 080120Z AUTO 18022KT 9999 FEW032/// BKN066/// 15/12 Q0999 W///S4,2024-08-08T01:20:00Z,15,12,6+,29.50
ENSD,61.829,6.104,190,3,3.45,ENSD 080120Z AUTO 19003KT 9999 BKN053/// BKN064/// OVC098/// 17/08 Q1003 RMK WIND RWY 26 00000KT WIND 1140FT 25003KT,2024-08-08T01:20:00Z,17,8,6+,29.62
ENSB,78.246,15.466,VRB,2,2.3,ENSB 080120Z VRB02KT 9999 FEW035 BKN091 12/10 Q1007 RMK WIND 1400FT 21012KT,2024-08-08T01:20:00Z,12,10,6+,29.73
ENRY,59.381,10.783,170,5,5.75,ENRY 080120Z AUTO 17005KT 9999 FEW085/// 15/13 Q1008,2024-08-08T01:20:00Z,15,13,6+,29.76
ENRS,67.527,12.104,130,10,11.51,ENRS 080120Z AUTO 13010KT 9999 OVC051/// 19/13 Q1005,2024-08-08T01:20:00Z,19,13,6+,29.68
ENRO,62.578,11.342,140,9,10.36,ENRO 080120Z AUTO 14009KT 9999 SCT037/// BKN082/// OVC118/// 15/13 Q1006,2024-08-08T01:20:00Z,15,13,6+,29.70
ENRM,64.835,11.141,VRB,2,2.3,ENRM 080120Z AUTO VRB02KT 9999 FEW098/// 17/16 Q1004,2024-08-08T01:20:00Z,17,16,6+,29.65
ENRA,66.364,14.302,90,9,10.36,ENRA 080120Z AUTO 09009KT 9999 SCT046/// BKN062/// OVC074/// 18/14 Q1007,2024-08-08T01:20:00Z,18,14,6+,29.73
ENQR,61.53,2.22,170,27,31.07,ENQR 080120Z AUTO 17027KT 9999 FEW045/// BKN069/// 15/13 Q0998 W25/S5,2024-08-08T01:20:00Z,15,13,6+,29.47
ENQC,60.886,3.61,170,25,28.77,ENQC 080120Z AUTO 17025KT 9999 FEW013/// BKN026/// 15/13 Q1000 W///S4,2024-08-08T01:20:00Z,15,13,6+,29.53
ENQA,60.645,3.725,170,28,32.22,ENQA 080120Z AUTO 17028KT 9999 BKN012/// 15/13 Q1001 W///S4,2024-08-08T01:20:00Z,15,13,6+,29.56
ENOV,62.18,6.078,VRB,2,2.3,ENOV 080120Z AUTO VRB02KT 9999 SCT060/// SCT071/// BKN096/// 17/07 Q1003 RMK WIND RWY 24 08008KT WIND 2090FT 16027KT,2024-08-08T01:20:00Z,17,7,6+,29.62
ENOL,63.703,9.609,340,7,8.06,ENOL 080120Z 34007KT 9999 BKN010 15/15 Q1003,2024-08-08T01:20:00Z,15,15,6+,29.62
ENNM,64.471,11.57,40,7,8.06,ENNM 080120Z AUTO 04007KT 9999 OVC096/// 18/14 Q1004,2024-08-08T01:20:00Z,18,14,6+,29.65
ENNE,66.03,8.08,VRB,2,2.3,ENNE 080120Z AUTO VRB02KT 9999 BKN031/// 16/14 Q1001 W///S3,2024-08-08T01:20:00Z,16,14,6+,29.56
ENNA,70.059,24.971,150,9,10.36,ENNA 080120Z AUTO 15009KT 9999 NCD 14/06 Q1013 RMK WIND 1800FT 23015KT,2024-08-08T01:20:00Z,14,6,6+,29.91
ENMS,65.784,13.218,VRB,2,2.3,ENMS 080120Z AUTO VRB02KT 9999 BKN049/// 17/14 Q1006 RMK WIND 412FT VRB02KT,2024-08-08T01:20:00Z,17,14,6+,29.70
ENML,62.744,7.262,10,7,8.06,ENML 080120Z AUTO 01007KT 9999NDV FEW011/// 14/13 Q1003,2024-08-08T01:20:00Z,14,13,,29.62
ENMH,71.029,27.829,170,11,12.66,ENMH 080120Z AUTO 17011KT 9999 NCD 15/08 Q1013,2024-08-08T01:20:00Z,15,8,6+,29.91
ENLE,56.535,3.205,230,22,25.32,ENLE 080120Z 23022KT 9999 FEW020 16/12 Q1008 W17/S4,2024-08-08T01:20:00Z,16,12,6+,29.76
ENLA,57.111,2.846,220,20,23.02,ENLA 080120Z AUTO 22020KT 9999NDV SCT017/// SCT072/// 16/13 Q1006 W///S4,2024-08-08T01:20:00Z,16,13,,29.70
ENKR,69.725,29.898,170,6,6.9,ENKR 080120Z AUTO 17006KT 9999 NCD 13/07 Q1016 RMK WIND 731FT 23007KT,2024-08-08T01:20:00Z,13,7,6+,30.00
ENKB,63.109,7.816,VRB,3,3.45,ENKB 080120Z AUTO VRB03KT 9999 OVC028/// 14/12 Q1003 RMK WIND 745FT 08009KT,2024-08-08T01:20:00Z,14,12,6+,29.62
ENJS,58.835,2.545,220,25,28.77,ENJS 080120Z 22025KT 9999 FEW040 BKN055 15/12 Q1003 W15/S5,2024-08-08T01:20:00Z,15,12,6+,29.62
ENHV,71.009,25.982,200,8,9.21,ENHV 080120Z AUTO 20008KT 9999 NCD 17/09 Q1013,2024-08-08T01:20:00Z,17,9,6+,29.91
ENHK,70.487,22.14,120,8,9.21,ENHK 080120Z AUTO 12008KT 070V140 9999 NCD 18/09 Q1010,2024-08-08T01:20:00Z,18,9,6+,29.82
ENHF,70.681,23.677,220,7,8.06,ENHF 080120Z AUTO 22007KT 170V260 9999 NCD 19/08 Q1011 RMK WIND 1254FT 18017KT,2024-08-08T01:20:00Z,19,8,6+,29.85
ENHE,65.325,2.327,240,6,6.9,ENHE 080120Z 24006KT 9999 -RA BKN045 BKN060 14/12 Q1003 RERA W///S3,2024-08-08T01:20:00Z,14,12,6+,29.62
ENHD,59.341,5.22,170,13,14.96,ENHD 080120Z AUTO 17013KT 9999 FEW024/// BKN051/// 16/13 Q1005 RERA,2024-08-08T01:20:00Z,16,13,6+,29.68
ENGM,60.201,11.08,170,10,11.51,ENGM 080120Z 17010KT 9999 FEW005 16/15 Q1007,2024-08-08T01:20:00Z,16,15,6+,29.73
ENGC,61.033,2.033,190,27,31.07,ENGC 080120Z 19027KT 9999 FEW020 SCT070 15/12 Q0999 W13/S5,2024-08-08T01:20:00Z,15,12,6+,29.50
ENFL,61.582,5.02,160,14,16.11,ENFL 080120Z AUTO 16014KT 9999NDV SHRA BKN033/// BKN060/// OVC086/// 15/12 Q1003,2024-08-08T01:20:00Z,15,12,,29.62
ENFB,61.206,1.829,190,28,32.22,ENFB 080120Z AUTO 19028KT 9999 SCT047/// BKN071/// 15/13 Q0998 W///S4,2024-08-08T01:20:00Z,15,13,6+,29.47
ENEV,68.491,16.683,170,4,4.6,ENEV 080120Z 17004KT 130V230 CAVOK 19/10 Q1008 RMK WIND 1400FT 13013KT,2024-08-08T01:20:00Z,19,10,6+,29.76
ENDU,69.058,18.544,VRB,1,1.15,ENDU 080120Z VRB01KT CAVOK 10/09 Q1010 RMK WIND 1100FT VRB03KT WIND 2200FT 15015KT,2024-08-08T01:20:00Z,10,9,6+,29.82
ENCN,58.2,8.077,50,4,4.6,ENCN 080120Z AUTO 05004KT 9000 NCD 12/11 Q1008,2024-08-08T01:20:00Z,12,11,5.59,29.76
ENBV,70.871,29.032,250,8,9.21,ENBV 080120Z AUTO 25008KT 9999 NCD 16/05 Q1014,2024-08-08T01:20:00Z,16,5,6+,29.94
ENBS,70.601,29.698,220,9,10.36,ENBS 080120Z AUTO 22009KT 9999 NCD 16/05 Q1015,2024-08-08T01:20:00Z,16,5,6+,29.97
ENBR,60.29,5.222,160,16,18.41,ENBR 080120Z 16016KT 9999 FEW018CB BKN060 15/15 Q1004 RMK WIND 1200FT 16020KT,2024-08-08T01:20:00Z,15,15,6+,29.65
ENBO,67.267,14.359,150,15,17.26,ENBO 080120Z AUTO 15015KT 9999 OVC066/// 20/12 Q1007,2024-08-08T01:20:00Z,20,12,6+,29.73
ENBN,65.458,12.216,120,15,17.26,ENBN 080120Z AUTO 12015KT 090V160 9999NDV SCT078/// 19/15 Q1004,2024-08-08T01:20:00Z,19,15,,29.65
ENBL,61.391,5.76,VRB,1,1.15,ENBL 080120Z AUTO VRB01KT 9999 SCT037/// BKN094/// 12/10 Q1004,2024-08-08T01:20:00Z,12,10,6+,29.65
ENAT,69.978,23.358,140,5,5.75,ENAT 080120Z AUTO 14005KT 9999 NCD 15/08 Q1013 RMK WIND 700FT 18010KT,2024-08-08T01:20:00Z,15,8,6+,29.91
ENAN,69.307,16.131,180,11,12.66,ENAN 080120Z AUTO 18011KT 9999 NCD 17/11 Q1008,2024-08-08T01:20:00Z,17,11,6+,29.76
ENAL,62.562,6.115,VRB,1,1.15,ENAL 080120Z AUTO VRB01KT 9999 OVC065/// 13/12 Q1002,2024-08-08T01:20:00Z,13,12,6+,29.59
ELLX,49.626,6.204,330,5,5.75,ELLX 080120Z AUTO 33005KT 300V360 9999 NCD 17/10 Q1016 NOSIG,2024-08-08T01:20:00Z,17,10,6+,30.00
EKYT,57.093,9.879,200,5,5.75,EKYT 080120Z AUTO 20005KT 9999 NCD 13/13 Q1010,2024-08-08T01:20:00Z,13,13,6+,29.82
EKVJ,55.991,8.354,210,6,6.9,EKVJ 080120Z AUTO 21006KT 9999 FEW025/// BKN049/// OVC066/// 18/13 Q1010,2024-08-08T01:20:00Z,18,13,6+,29.82
EKVG,62.065,-7.282,310,4,4.6,EKVG 080120Z AUTO 31004KT 9999 SCT024/// BKN160/// 09/09 Q0992 RMK FEW010/// BKN067/// BKN140/// WIND SKEID 30008KT,2024-08-08T01:20:00Z,9,9,6+,29.29
EKVD,55.436,9.329,190,3,3.45,EKVD 080120Z AUTO 19003KT //// ///////// 12/12 Q1011,2024-08-08T01:20:00Z,12,12,,29.85
EKSP,55.225,9.263,170,3,3.45,EKSP 080120Z 17003KT 9999 MIFG NSC 11/11 Q1012 RMK FEW200,2024-08-08T01:20:00Z,11,11,6+,29.88
EKSB,54.962,9.787,220,4,4.6,EKSB 080120Z AUTO 22004KT 9999 NCD 15/13 Q1012,2024-08-08T01:20:00Z,15,13,6+,29.88
EKRS,55.426,11.807,VRB,2,2.3,EKRS 080120Z AUTO VRB02KT 9999 NCD 17/17 Q1011,2024-08-08T01:20:00Z,17,17,6+,29.85
EKRN,55.068,14.749,80,5,5.75,EKRN 080120Z AUTO 08005KT 9999 OVC064/// 20/18 Q1010,2024-08-08T01:20:00Z,20,18,6+,29.82
EKRK,55.587,12.136,290,6,6.9,EKRK 080120Z AUTO 29006KT 9999 BKN018/// OVC050/// 17/16 Q1011,2024-08-08T01:20:00Z,17,16,6+,29.85
EKKA,56.293,9.114,190,5,5.75,EKKA 080120Z AUTO 19005KT 9999 NCD 12/12 Q1011,2024-08-08T01:20:00Z,12,12,6+,29.85
EKCH,55.618,12.656,200,2,2.3,EKCH 080120Z 20002KT 9999 -RA BKN020 18/17 Q1011 TEMPO SHRA BKN009 SCT030CB,2024-08-08T01:20:00Z,18,17,6+,29.85
EKBI,55.74,9.152,120,1,1.15,EKBI 080120Z AUTO 12001KT 9000 BCFG FEW003/// 10/09 Q1011,2024-08-08T01:20:00Z,10,9,5.59,29.85
EKAH,56.3,10.619,240,2,2.3,EKAH 080120Z AUTO 24002KT 9999 FEW095/// BKN300/// 15/13 Q1011,2024-08-08T01:20:00Z,15,13,6+,29.85
EGYM,52.648,0.567,210,4,4.6,EGYM 080120Z AUTO 21004KT 9999 SCT079/// BKN100/// 15/11 Q1013,2024-08-08T01:20:00Z,15,11,6+,29.91
EGYH,52.873,0.139,250,9,10.36,EGYH 080120Z AUTO 25009KT 9999 FEW059/// BKN074/// BKN100/// 15/12 Q1012,2024-08-08T01:20:00Z,15,12,6+,29.88
EGYE,52.962,-0.562,220,8,9.21,EGYE 080120Z AUTO 22008KT //// SCT029/// OVC066/// 15/11 Q1013,2024-08-08T01:20:00Z,15,11,,29.91
EGYD,53.031,-0.503,230,9,10.36,EGYD 080120Z AUTO 23009KT 9999 FEW032/// OVC066/// 16/11 Q1012,2024-08-08T01:20:00Z,16,11,6+,29.88
EGXZ,54.205,-1.39,250,6,6.9,EGXZ 080120Z AUTO 25006KT 9999 FEW062/// 15/12 Q1010,2024-08-08T01:20:00Z,15,12,6+,29.82
EGXW,53.175,-0.523,230,6,6.9,EGXW 080120Z AUTO 23006KT 9999 FEW027/// OVC060/// 16/11 Q1012,2024-08-08T01:20:00Z,16,11,6+,29.88
EGXV,53.876,-0.435,150,3,3.45,EGXV 080120Z AUTO 15003KT 9999 NCD 13/11 Q1011,2024-08-08T01:20:00Z,13,11,6+,29.85
EGXT,52.611,-0.461,230,10,11.51,EGXT 080120Z AUTO 23010KT 9999 OVC075/// 16/12 Q1013,2024-08-08T01:20:00Z,16,12,6+,29.91
EGXS,53.475,0.152,200,4,4.6,EGXS 080120Z AUTO 20004KT 9999 OVC069/// 13/10 Q1012,2024-08-08T01:20:00Z,13,10,6+,29.88
EGXE,54.297,-1.533,200,6,6.9,EGXE 080120Z AUTO 20006KT 9999 OVC020/// 16/12 Q1010,2024-08-08T01:20:00Z,16,12,6+,29.82
EGWU,51.549,-0.417,250,5,5.75,EGWU 080120Z AUTO 25005KT 9999 NCD 13/11 Q1015,2024-08-08T01:20:00Z,13,11,6+,29.97
EGWC,52.64,-2.311,210,6,6.9,EGWC 080120Z AUTO 21006KT //// ///////// ///// Q////,2024-08-08T01:20:00Z,,,,
EGVP,51.139,-1.569,220,2,2.3,EGVP 080120Z AUTO 22002KT 9999 FEW066/// 12/11 Q1015,2024-08-08T01:20:00Z,12,11,6+,29.97
EGVO,51.239,-0.945,230,7,8.06,EGVO 080120Z AUTO 23007KT 9999 NCD 14/11 Q1015,2024-08-08T01:20:00Z,14,11,6+,29.97
EGVN,51.758,-1.578,240,4,4.6,EGVN 080120Z 24004KT 9999 BKN045 14/12 Q1014 NOSIG RMK BLU BLU,2024-08-08T01:20:00Z,14,12,6+,29.94
EGUW,52.124,0.957,230,4,4.6,EGUW 080120Z AUTO 23004KT 9999 OVC100/// 14/12 Q1014,2024-08-08T01:20:00Z,14,12,6+,29.94
EGUB,51.62,-1.099,200,6,6.9,EGUB 080120Z AUTO 20006KT 9999 NCD 13/11 Q1015,2024-08-08T01:20:00Z,13,11,6+,29.97
EGTE,50.737,-3.406,220,4,4.6,EGTE 080120Z 22004KT 9999 FEW030 14/12 Q1015,2024-08-08T01:20:00Z,14,12,6+,29.97
EGSY,51.406,-3.434,230,8,9.21,EGSY 080120Z AUTO 23008KT 9999 NCD 16/12 Q1014,2024-08-08T01:20:00Z,16,12,6+,29.94
EGSS,51.881,0.223,250,7,8.06,EGSS 080120Z AUTO 25007KT 9999 NCD 14/11 Q1015,2024-08-08T01:20:00Z,14,11,6+,29.97
EGSH,52.676,1.283,250,6,6.9,EGSH 080120Z AUTO 25006KT 9999 NCD 16/12 Q1014,2024-08-08T01:20:00Z,16,12,6+,29.94
EGQM,55.421,-1.601,250,11,12.66,EGQM 080120Z AUTO 25011KT 9999 NCD 14/11 Q1008,2024-08-08T01:20:00Z,14,11,6+,29.76
EGQK,57.646,-3.563,220,11,12.66,EGQK 080120Z AUTO 22011KT 9999 FEW032/// BKN059/// 13/09 Q1002,2024-08-08T01:20:00Z,13,9,6+,29.59
EGQA,57.825,-3.955,200,7,8.06,EGQA 080120Z AUTO 20007KT 9999 OVC061/// 13/09 Q1001,2024-08-08T01:20:00Z,13,9,6+,29.56
EGPO,58.215,-6.329,250,7,8.06,EGPO 080120Z AUTO 25007KT 9999 FEW025/// SCT029/// 12/10 Q1000,2024-08-08T01:20:00Z,12,10,6+,29.53
EGPL,57.475,-7.364,270,18,20.71,EGPL 080120Z AUTO 27018KT 9999 SCT003/// SCT009/// OVC016/// 13/11 Q1003,2024-08-08T01:20:00Z,13,11,6+,29.62
EGPK,55.509,-4.587,240,11,12.66,EGPK 080120Z AUTO 24011KT 9999 NCD 15/11 Q1007,2024-08-08T01:20:00Z,15,11,6+,29.73
EGPI,55.681,-6.25,250,8,9.21,EGPI 080120Z AUTO 25008KT 9999 OVC039/// 13/12 Q1007,2024-08-08T01:20:00Z,13,12,6+,29.73
EGPH,55.952,-3.36,250,9,10.36,EGPH 080120Z 25009KT 9999 -RA SCT018 BKN026 13/11 Q1007,2024-08-08T01:20:00Z,13,11,6+,29.73
EGPF,55.867,-4.433,230,6,6.9,EGPF 080120Z AUTO 23006KT 9999 SCT033 OVC049 14/11 Q1007,2024-08-08T01:20:00Z,14,11,6+,29.73
EGPE,57.538,-4.053,220,9,10.36,EGPE 080120Z AUTO 22009KT 9999 BKN045/// 13/10 Q1002,2024-08-08T01:20:00Z,13,10,6+,29.59
EGPD,57.205,-2.205,210,7,8.06,EGPD 080120Z AUTO 21007KT 180V250 9999 NCD 12/08 Q1004,2024-08-08T01:20:00Z,12,8,6+,29.65
EGPC,58.459,-3.093,230,11,12.66,EGPC 080120Z AUTO 23011KT 9999 NCD 13/09 Q1001,2024-08-08T01:20:00Z,13,9,6+,29.56
EGPB,59.88,-1.296,220,20,23.02,EGPB 080120Z AUTO 22020KT 9999 BKN021/// 13/10 Q0997,2024-08-08T01:20:00Z,13,10,6+,29.44
EGPA,58.958,-2.905,210,12,13.81,EGPA 080120Z AUTO 21012KT 9999 -RA SCT026/// BKN038/// 13/09 Q0999,2024-08-08T01:20:00Z,13,9,6+,29.50
EGOV,53.252,-4.536,210,18,20.71,EGOV 080120Z AUTO 21018KT 9999 OVC034/// 16/14 Q1011,2024-08-08T01:20:00Z,16,14,6+,29.85
EGOS,52.795,-2.665,230,7,8.06,EGOS 080120Z AUTO 23007KT 9999 // FEW033/// BKN054/// 14/12 Q1013,2024-08-08T01:20:00Z,14,12,6+,29.91
EGOP,51.714,-4.367,210,18,20.71,EGOP 080120Z AUTO 21018KT 9999 FEW018/// 17/14 Q1013,2024-08-08T01:20:00Z,17,14,6+,29.91
EGOM,55.05,-2.554,230,12,13.81,EGOM 080120Z AUTO 23012KT 9999 // FEW015/// OVC047/// 12/11 Q1008,2024-08-08T01:20:00Z,12,11,6+,29.76
EGNX,52.833,-1.333,230,10,11.51,EGNX 080120Z 23010KT 9999 SCT025 15/11 Q1013,2024-08-08T01:20:00Z,15,11,6+,29.91
EGNT,55.037,-1.702,270,8,9.21,EGNT 080120Z 27008KT CAVOK 13/10 Q1008,2024-08-08T01:20:00Z,13,10,6+,29.76
EGNM,53.862,-1.665,230,9,10.36,EGNM 080120Z 23009KT 9999 -RA FEW020 14/12 Q1011,2024-08-08T01:20:00Z,14,12,6+,29.85
EGNJ,53.58,-0.341,200,7,8.06,EGNJ 080120Z AUTO 20007KT 9999 NCD 12/10 Q1012,2024-08-08T01:20:00Z,12,10,6+,29.88
EGMD,50.956,0.939,260,3,3.45,EGMD 080120Z AUTO 26003KT 9999 NCD 17/15 Q1015,2024-08-08T01:20:00Z,17,15,6+,29.97
EGLL,51.477,-0.461,210,5,5.75,EGLL 080120Z AUTO 21005KT 9999 NCD 14/11 Q1015,2024-08-08T01:20:00Z,14,11,6+,29.97
EGLF,51.28,-0.773,250,5,5.75,EGLF 080120Z AUTO 25005KT 9999 NCD 12/11 Q1015,2024-08-08T01:20:00Z,12,11,6+,29.97
EGLC,51.505,0.055,240,7,8.06,EGLC 080120Z AUTO 24007KT 9999 NCD 16/11 Q1015,2024-08-08T01:20:00Z,16,11,6+,29.97
EGKK,51.148,-0.19,220,3,3.45,EGKK 080120Z 22003KT CAVOK 13/13 Q1015,2024-08-08T01:20:00Z,13,13,6+,29.97
EGJJ,49.21,-2.194,240,9,10.36,EGJJ 080120Z AUTO 24009KT 9999 FEW023/// 17/14 Q1017,2024-08-08T01:20:00Z,17,14,6+,30.03
EGHQ,50.438,-4.998,180,9,10.36,EGHQ 080120Z AUTO 18009KT 9999 FEW045/// 16/15 Q1014,2024-08-08T01:20:00Z,16,15,6+,29.94
EGGW,51.875,-0.368,240,7,8.06,EGGW 080120Z AUTO 24007KT 9999 NCD 13/11 Q1015,2024-08-08T01:20:00Z,13,11,6+,29.97
EGGP,53.334,-2.85,210,8,9.21,EGGP 080120Z 21008KT 9999 SCT020 BKN031 16/13 Q1012,2024-08-08T01:20:00Z,16,13,6+,29.88
EGGD,51.383,-2.719,210,5,5.75,EGGD 080120Z AUTO 21005KT 9999 NCD 14/13 Q1015,2024-08-08T01:20:00Z,14,13,6+,29.97
EGFF,51.397,-3.343,240,6,6.9,EGFF 080120Z AUTO 24006KT 9999 NCD 15/13 Q1014,2024-08-08T01:20:00Z,15,13,6+,29.94
EGDY,51.006,-2.643,200,3,3.45,EGDY 080120Z AUTO 20003KT 9999 OVC070/// 15/12 Q1015,2024-08-08T01:20:00Z,15,12,6+,29.97
EGDR,50.084,-5.257,200,11,12.66,EGDR 080120Z AUTO 20011KT 9999 -RA OVC037/// 17/15 Q1014,2024-08-08T01:20:00Z,17,15,6+,29.94
EGDM,51.153,-1.75,190,4,4.6,EGDM 080120Z AUTO 19004KT 9999 OVC064/// 13/11 Q1015,2024-08-08T01:20:00Z,13,11,6+,29.97
EGCK,53.104,-4.34,210,14,16.11,EGCK 080120Z AUTO 21014KT 9999 FEW044/// 16/13 Q1011,2024-08-08T01:20:00Z,16,13,6+,29.85
EGCC,53.354,-2.275,200,5,5.75,EGCC 080120Z AUTO 20005KT 160V230 9999 -RA SCT024 BKN029 OVC036 15/13 Q1012,2024-08-08T01:20:00Z,15,13,6+,29.88
EGBB,52.46,-1.758,250,6,6.9,EGBB 080120Z 25006KT 220V290 9999 BKN023 15/11 Q1014,2024-08-08T01:20:00Z,15,11,6+,29.94
EGAC,54.614,-5.873,230,10,11.51,EGAC 080120Z AUTO 23010KT 9999 NCD 14/10 Q1008,2024-08-08T01:20:00Z,14,10,6+,29.76
EGAA,54.654,-6.225,200,5,5.75,EGAA 080120Z AUTO 20005KT 170V240 9999 SCT035 OVC042 13/10 Q1009,2024-08-08T01:20:00Z,13,10,6+,29.79
EFVA,63.051,21.762,130,3,3.45,EFVA 080120Z AUTO 13003KT CAVOK 12/12 Q1013,2024-08-08T01:20:00Z,12,12,6+,29.91
EFUT,60.896,26.938,90,5,5.75,EFUT 080120Z AUTO 09005KT CAVOK 14/12 Q1014,2024-08-08T01:20:00Z,14,12,6+,29.94
EFTU,60.514,22.263,100,2,2.3,EFTU 080120Z AUTO 10002KT 0250 R26/0075 FG VV001 14/14 Q1014,2024-08-08T01:20:00Z,14,14,0.16,29.94
EFTP,61.419,23.616,70,2,2.3,EFTP 080120Z AUTO 07002KT CAVOK 11/10 Q1014,2024-08-08T01:20:00Z,11,10,6+,29.94
EFSI,62.693,22.83,130,5,5.75,EFSI 080120Z AUTO 13005KT 9000 NCD 10/10 Q1014,2024-08-08T01:20:00Z,10,10,5.59,29.94
EFSA,61.943,28.945,170,1,1.15,EFSA 080120Z AUTO 17001KT 0650 R12/P2000U FG NCD 10/10 Q1015,2024-08-08T01:20:00Z,10,10,0.4,29.97
EFRO,66.562,25.829,120,7,8.06,EFRO 080120Z AUTO 12007KT CAVOK 12/07 Q1016,2024-08-08T01:20:00Z,12,7,6+,30.00
EFPO,61.462,21.8,120,3,3.45,EFPO 080120Z AUTO 12003KT CAVOK 14/12 Q1013,2024-08-08T01:20:00Z,14,12,6+,29.91
EFOU,64.93,25.355,140,4,4.6,EFOU 080120Z AUTO 14004KT CAVOK 10/08 Q1015,2024-08-08T01:20:00Z,10,8,6+,29.97
EFMI,61.687,27.201,VRB,1,1.15,EFMI 080120Z AUTO VRB01KT CAVOK 10/10 Q1015,2024-08-08T01:20:00Z,10,10,6+,29.97
EFMA,60.125,19.903,VRB,1,1.15,EFMA 080120Z AUTO VRB01KT 9999 1000 R03/P2000U NCD 11/11 Q1013,2024-08-08T01:20:00Z,11,11,6+,29.91
EFLP,61.044,28.151,50,3,3.45,EFLP 080120Z AUTO 05003KT 7000 NCD 12/12 Q1015,2024-08-08T01:20:00Z,12,12,4.35,29.97
EFKU,63.008,27.799,VRB,1,1.15,EFKU 080120Z AUTO VRB01KT 1900 BR NCD 12/12 Q1015,2024-08-08T01:20:00Z,12,12,1.18,29.97
EFKT,67.701,24.847,70,2,2.3,EFKT 080120Z AUTO 07002KT CAVOK 08/05 Q1015,2024-08-08T01:20:00Z,8,5,6+,29.97
EFKS,65.992,29.236,70,3,3.45,EFKS 080120Z AUTO 07003KT 9999 1000 R12/P2000U FEW002 09/09 Q1017,2024-08-08T01:20:00Z,9,9,6+,30.03
EFKK,63.721,23.143,110,2,2.3,EFKK 080120Z AUTO 11002KT CAVOK 11/10 Q1014,2024-08-08T01:20:00Z,11,10,6+,29.94
EFKI,64.283,27.673,70,3,3.45,EFKI 080120Z AUTO 07003KT CAVOK 08/07 Q1016,2024-08-08T01:20:00Z,8,7,6+,30.00
EFKE,65.784,24.579,120,3,3.45,EFKE 080120Z AUTO 12003KT 050V190 CAVOK 10/07 Q1015,2024-08-08T01:20:00Z,10,7,6+,29.97
EFJY,62.404,25.675,330,1,1.15,EFJY 080120Z AUTO 33001KT CAVOK 09/08 Q1015,2024-08-08T01:20:00Z,9,8,6+,29.97
EFJO,62.66,29.611,VRB,1,1.15,EFJO 080120Z AUTO VRB01KT 9999 0450 R28/0650 NCD 10/10 Q1016,2024-08-08T01:20:00Z,10,10,6+,30.00
EFIV,68.607,27.405,250,4,4.6,EFIV 080120Z AUTO 25004KT CAVOK 07/05 Q1016,2024-08-08T01:20:00Z,7,5,6+,30.00
EFHK,60.327,24.957,360,2,2.3,EFHK 080120Z 36002KT CAVOK 12/11 Q1014 NOSIG,2024-08-08T01:20:00Z,12,11,6+,29.94
EFHA,61.855,24.805,130,3,3.45,EFHA 080120Z AUTO 13003KT 0800 R26/1600D FG NCD 11/11 Q1014,2024-08-08T01:20:00Z,11,11,0.5,29.94
EFET,68.363,23.424,VRB,1,1.15,EFET 080120Z AUTO VRB01KT CAVOK 09/06 Q1014,2024-08-08T01:20:00Z,9,6,6+,29.94
EETU,58.307,26.691,300,2,2.3,EETU 080120Z AUTO 30002KT 9999 NCD 12/12 Q1013,2024-08-08T01:20:00Z,12,12,6+,29.91
EETN,59.413,24.801,80,2,2.3,EETN 080120Z 08002KT 9999 MIFG NSC 13/12 Q1014,2024-08-08T01:20:00Z,13,12,6+,29.94
EEPU,58.419,24.473,50,2,2.3,EEPU 080120Z AUTO 05002KT 9999 NCD 13/12 Q1014,2024-08-08T01:20:00Z,13,12,6+,29.94
EEKE,58.23,22.509,30,2,2.3,EEKE 080120Z AUTO 03002KT 9999 NCD 14/13 Q1014,2024-08-08T01:20:00Z,14,13,6+,29.94
EDXW,54.913,8.341,240,7,8.06,EDXW 080120Z AUTO 24007KT 9999 // OVC064/// 18/13 Q1012,2024-08-08T01:20:00Z,18,13,6+,29.88
EDWE,53.388,7.229,190,3,3.45,EDWE 080120Z AUTO 19003KT 9999 BKN240/// 15/12 Q1013,2024-08-08T01:20:00Z,15,12,6+,29.91
EDVK,51.421,9.388,220,4,4.6,EDVK 080120Z AUTO 22004KT 9999 // NCD 15/14 Q1015,2024-08-08T01:20:00Z,15,14,6+,29.97
EDVE,52.319,10.558,270,3,3.45,EDVE 080120Z AUTO 27003KT 9999 SCT027/// BKN078/// 16/14 Q1014,2024-08-08T01:20:00Z,16,14,6+,29.94
EDTY,49.118,9.784,220,3,3.45,EDTY 080120Z AUTO 22003KT 190V250 9999 // SCT012/// OVC015/// 17/17 Q1016,2024-08-08T01:20:00Z,17,17,6+,30.00
EDTL,48.369,7.828,340,1,1.15,EDTL 080120Z AUTO 34001KT 9999 // BKN039/// OVC048/// 20/18 Q1016,2024-08-08T01:20:00Z,20,18,6+,30.00
EDSB,48.779,8.081,VRB,1,1.15,EDSB 080120Z AUTO VRB01KT 9999 // BKN040/// BKN046/// OVC075/// 20/18 Q1015,2024-08-08T01:20:00Z,20,18,6+,29.97
EDQM,50.289,11.86,330,3,3.45,EDQM 080120Z AUTO 33003KT 300V360 9999 // OVC019/// 18/16 Q1016,2024-08-08T01:20:00Z,18,16,6+,30.00
EDNY,47.671,9.511,VRB,2,2.3,EDNY 080120Z AUTO VRB02KT 9999 // FEW062/// 17/17 Q1016,2024-08-08T01:20:00Z,17,17,6+,30.00
EDMO,48.081,11.283,0,0,0.0,EDMO 080120Z AUTO 00000KT 9999 // FEW048/// SCT056/// 17/16 Q1017,2024-08-08T01:20:00Z,17,16,6+,30.03
EDMA,48.425,10.932,160,2,2.3,EDMA 080120Z AUTO 16002KT 9999 // FEW054/// 15/15 Q1016,2024-08-08T01:20:00Z,15,15,6+,30.00
EDLW,51.518,7.612,220,5,5.75,EDLW 080120Z AUTO 22005KT 9999 // FEW044/// OVC064/// 17/15 Q1014,2024-08-08T01:20:00Z,17,15,6+,29.94
EDLV,51.602,6.142,210,2,2.3,EDLV 080120Z AUTO 21002KT 9999 // FEW140/// OVC160/// 16/14 Q1014,2024-08-08T01:20:00Z,16,14,6+,29.94
EDLP,51.614,8.616,140,6,6.9,EDLP 080120Z 14006KT 9999 FEW026 16/15 Q1014,2024-08-08T01:20:00Z,16,15,6+,29.94
EDLN,51.23,6.504,VRB,2,2.3,EDLN 080120Z AUTO VRB02KT 9999 // OVC150/// 16/15 Q////,2024-08-08T01:20:00Z,16,15,6+,
EDJA,47.989,10.239,230,4,4.6,EDJA 080120Z AUTO 23004KT 9999 // FEW100/// 16/15 Q1017,2024-08-08T01:20:00Z,16,15,6+,30.03
EDHL,53.805,10.719,250,3,3.45,EDHL 080120Z AUTO 25003KT 170V290 9999 // SCT065/// 15/14 Q1013,2024-08-08T01:20:00Z,15,14,6+,29.91
EDHK,54.376,10.143,280,5,5.75,EDHK 080120Z AUTO 28005KT //// R26///// // FEW025/// 14/13 Q1013,2024-08-08T01:20:00Z,14,13,,29.91
EDHI,53.536,9.837,240,4,4.6,EDHI 080120Z AUTO 24004KT 9999 3600 // NCD 15/15 Q1013,2024-08-08T01:20:00Z,15,15,6+,29.91
EDGS,50.708,8.083,250,5,5.75,EDGS 080120Z AUTO 25005KT 9999 // BKN200/// 15/12 Q1016,2024-08-08T01:20:00Z,15,12,6+,30.00
EDFM,49.474,8.515,VRB,2,2.3,EDFM 080120Z AUTO VRB02KT 9999 // SCT052/// BKN064/// BKN075/// 20/17 Q1015,2024-08-08T01:20:00Z,20,17,6+,29.97
EDFH,49.946,7.265,280,3,3.45,EDFH 080120Z 28003KT CAVOK 15/14 Q1016,2024-08-08T01:20:00Z,15,14,6+,30.00
EDDW,53.047,8.787,150,2,2.3,EDDW 080120Z AUTO 15002KT 0450 0300 R27/0400N FG NSC 13/13 Q1013,2024-08-08T01:20:00Z,13,13,0.28,29.91
EDDV,52.466,9.68,VRB,2,2.3,EDDV 080120Z AUTO VRB02KT CAVOK 16/15 Q1014,2024-08-08T01:20:00Z,16,15,6+,29.94
EDDS,48.69,9.222,270,6,6.9,EDDS 080120Z AUTO 27006KT 9999 BKN038 OVC049 20/17 Q1016,2024-08-08T01:20:00Z,20,17,6+,30.00
EDDR,49.213,7.108,290,3,3.45,EDDR 080120Z AUTO 29003KT CAVOK 16/15 Q1016,2024-08-08T01:20:00Z,16,15,6+,30.00
EDDP,51.435,12.24,290,8,9.21,EDDP 080120Z AUTO 29008KT 9999 BKN039 19/17 Q1014 NOSIG,2024-08-08T01:20:00Z,19,17,6+,29.94
EDDN,49.503,11.055,110,2,2.3,EDDN 080120Z AUTO 11002KT 5000 2300 BR NSC 16/16 Q1015,2024-08-08T01:20:00Z,16,16,3.11,29.97
EDDM,48.348,11.813,200,3,3.45,EDDM 080120Z AUTO 20003KT CAVOK 15/14 Q1016 NOSIG,2024-08-08T01:20:00Z,15,14,6+,30.00
EDDL,51.296,6.769,VRB,1,1.15,EDDL 080120Z AUTO VRB01KT CAVOK 17/14 Q1015 NOSIG,2024-08-08T01:20:00Z,17,14,6+,29.97
EDDK,50.865,7.157,60,3,3.45,EDDK 080120Z AUTO 06003KT 020V090 CAVOK 16/15 Q1015 NOSIG,2024-08-08T01:20:00Z,16,15,6+,29.97
EDDH,53.633,9.988,250,4,4.6,EDDH 080120Z AUTO 25004KT CAVOK 15/15 Q1013 TEMPO 1200 BCFG,2024-08-08T01:20:00Z,15,15,6+,29.91
EDDG,52.135,7.697,350,1,1.15,EDDG 080120Z AUTO 35001KT CAVOK 16/15 Q1014 NOSIG,2024-08-08T01:20:00Z,16,15,6+,29.94
EDDF,50.045,8.598,260,4,4.6,EDDF 080120Z AUTO 26004KT 9999 FEW043 17/15 Q1015 NOSIG,2024-08-08T01:20:00Z,17,15,6+,29.97
EDDE,50.983,10.961,260,7,8.06,EDDE 080120Z AUTO 26007KT 9999 BKN032 BKN042 17/16 Q1015,2024-08-08T01:20:00Z,17,16,6+,29.97
EDDC,51.128,13.7543,280,4,4.6,EDDC 080120Z AUTO 28004KT 230V320 CAVOK 20/17 Q1013,2024-08-08T01:20:00Z,20,17,6+,29.91
EDDB,52.3807,13.5306,300,6,6.9,EDDB 080120Z AUTO 30006KT CAVOK 19/17 Q1012 TEMPO BKN008,2024-08-08T01:20:00Z,19,17,6+,29.88
EDBC,51.856,11.42,300,6,6.9,EDBC 080120Z AUTO 30006KT 9999 // BKN054/// BKN061/// 17/15 Q1015,2024-08-08T01:20:00Z,17,15,6+,29.97
EDAH,53.879,14.152,270,4,4.6,EDAH 080120Z AUTO 27004KT 9999 // BKN120/// 19/18 Q1011,2024-08-08T01:20:00Z,19,18,6+,29.85
EDAC,50.982,12.506,280,4,4.6,EDAC 080120Z AUTO 28004KT 9999 // BKN039/// BKN046/// 20/18 Q1014,2024-08-08T01:20:00Z,20,18,6+,29.94
EBOS,51.199,2.862,210,7,8.06,EBOS 080120Z 21007KT 9999 FEW014 16/14 Q1015 TEMPO BKN012,2024-08-08T01:20:00Z,16,14,6+,29.97
EBLG,50.637,5.443,250,5,5.75,EBLG 080120Z 25005KT CAVOK 17/11 Q1016 NOSIG,2024-08-08T01:20:00Z,17,11,6+,30.00
EBCI,50.459,4.454,240,6,6.9,EBCI 080120Z 24006KT CAVOK 16/11 Q1016 NOSIG,2024-08-08T01:20:00Z,16,11,6+,30.00
EBBR,50.896,4.526,240,6,6.9,EBBR 080120Z 24006KT CAVOK 17/12 Q1016 NOSIG,2024-08-08T01:20:00Z,17,12,6+,30.00
EBAW,51.189,4.46,230,7,8.06,EBAW 080120Z AUTO 23007KT 200V260 CAVOK 17/12 Q1015,2024-08-08T01:20:00Z,17,12,6+,29.97
KMIV,39.3662,-75.0778,80,9,10.36,KMIV 080119Z AUTO 08009KT 9SM OVC004 22/21 A2997 RMK AO2 T02170211,2024-08-08T01:19:00Z,21.7,21.1,9,29.97
KEGE,39.6448,-106.918,150,10,11.51,KEGE 080119Z AUTO 15010KT 5SM -RA BKN080 OVC090 17/12 A3038 RMK AO2 LTG DSNT SE TSE08 PNO $,2024-08-08T01:19:00Z,17,12,5,30.38
KDUB,43.5485,-109.684,280,13,14.96,KDUB 080118Z AUTO 28013KT 10SM CLR 24/M09 A3023 RMK AO2,2024-08-08T01:18:00Z,24,-9,10+,30.23
KAOH,40.7081,-84.0214,40,9,10.36,KAOH 080118Z AUTO 04009G17KT 10SM OVC030 22/17 A2992 RMK AO2 T02170172,2024-08-08T01:18:00Z,21.7,17.2,10+,29.92
KPHL,39.8733,-75.2268,60,11,12.66,KPHL 080117Z 06011KT 7SM -RA BKN008 OVC013 20/19 A3000 RMK AO2 P0000 T02000194 $,2024-08-08T01:17:00Z,20,19.4,7,30.00
KGTF,47.4733,-111.383,30,7,8.06,KGTF 080117Z 03007KT 10SM SCT024 OVC050 16/12 A3028 RMK AO2 T01610122,2024-08-08T01:17:00Z,16.1,12.2,10+,30.28
KELM,42.1601,-76.89,100,8,9.21,KELM 080117Z 10008KT 10SM FEW019 BKN026 OVC033 22/18 A3002 RMK AO2 T02170178,2024-08-08T01:17:00Z,21.7,17.8,10+,30.02
ROKJ,26.337,126.803,50,6,6.9,ROKJ 080116Z AUTO 05006KT 020V090 9999 FEW015 SCT031 BKN050 //////TCU 32/29 Q1005 RMK A2969 TCU 35KM W MOV UNKNOWN,2024-08-08T01:16:00Z,32,29,6+,29.68
PAAQ,61.5951,-149.092,220,4,4.6,PAAQ 080116Z 22004KT 10SM -RA BKN007 BKN080 OVC100 16/15 A2994 RMK AO2 CIG 006V013 P0001 T01610150,2024-08-08T01:16:00Z,16.1,15,10+,29.94
KMDT,40.1962,-76.7725,100,9,10.36,KMDT 080116Z 10009KT 10SM OVC010 20/18 A2997 RMK AO2 T02000183,2024-08-08T01:16:00Z,20,18.3,10+,29.97
KJAX,30.4953,-81.6937,360,19,21.86,KJAX 080116Z 36019G29KT 9SM TSRA SCT045CB BKN090 BKN140 BKN250 27/25 A2964 RMK AO2 PK WND 36029/0115 LTG DSNT NW-E TSE13B16 PRESRR OCNL LTGICCG VC N TS VC N MOV S P0000 T02720250,2024-08-08T01:16:00Z,27.2,25,9,29.64
KHWV,40.8212,-72.8674,0,0,0.0,KHWV 080116Z AUTO 00000KT 10SM FEW023 BKN055 OVC080 19/17 A3006 RMK AO2 T01890167,2024-08-08T01:16:00Z,18.9,16.7,10+,30.06
KHGR,39.7062,-77.7304,60,11,12.66,KHGR 080116Z 06011KT 10SM SCT012 BKN029 OVC035 23/21 A2993 RMK AO2 T02330211,2024-08-08T01:16:00Z,23.3,21.1,10+,29.93
K40B,46.616,-69.533,0,0,0.0,K40B 080116Z AUTO 00000KT 13/10 A3009 RMK AO1 SLP181 T01330100 53020,2024-08-08T01:16:00Z,13.3,10,,30.09
CYPQ,44.232,-78.36,0,0,0.0,CYPQ 080116Z AUTO 00000KT 8SM CLR 15/14 A3002 RMK SLP170,2024-08-08T01:16:00Z,15,14,8,30.02
LMML,35.858,14.477,240,4,4.6,LMML 080115Z 24004KT CAVOK 25/22 Q1013 NOSIG,2024-08-08T01:15:00Z,25,22,6+,29.91
LIRP,43.684,10.393,160,3,3.45,LIRP 080115Z 16003KT 110V190 CAVOK 23/23 Q1012 NOSIG,2024-08-08T01:15:00Z,23,23,6+,29.88
LHSN,47.123,20.235,0,0,0.0,LHSN 080115Z 00000KT CAVOK 18/13 Q1013 NOSIG RMK BLU,2024-08-08T01:15:00Z,18,13,6+,29.91
LHSM,46.689,17.161,310,7,8.06,LHSM 080115Z AUTO 31007KT CAVOK 22/17 Q1013,2024-08-08T01:15:00Z,22,17,6+,29.91
LHPR,47.627,17.808,VRB,3,3.45,LHPR 080115Z AUTO VRB03KT CAVOK 18/16 Q1013,2024-08-08T01:15:00Z,18,16,6+,29.91
LHPP,45.991,18.241,30,4,4.6,LHPP 080115Z AUTO 03004KT 350V060 CAVOK 19/12 Q1013,2024-08-08T01:15:00Z,19,12,6+,29.91
LHPA,47.362,17.494,190,4,4.6,LHPA 080115Z 19004KT 9999 FEW050TCU SCT066 BKN200 19/17 Q1013 TEMPO -SHRA RMK BLU,2024-08-08T01:15:00Z,19,17,6+,29.91
LHNY,47.985,21.692,10,2,2.3,LHNY 080115Z AUTO 01002KT CAVOK 15/14 Q1014,2024-08-08T01:15:00Z,15,14,6+,29.94
LHKE,46.917,19.749,80,2,2.3,LHKE 080115Z 08002KT CAVOK 17/13 Q1013 NOSIG RMK BLU,2024-08-08T01:15:00Z,17,13,6+,29.91
LHDC,47.489,21.615,60,3,3.45,LHDC 080115Z AUTO 06003KT CAVOK 16/14 Q1013 NOSIG,2024-08-08T01:15:00Z,16,14,6+,29.91
KUDG,34.4474,-79.8902,20,14,16.11,KUDG 080115Z AUTO 02014G19KT 7SM +RA OVC010 24/24 A2960 RMK AO2 LTG DSNT E CIG 007V014 P0006,2024-08-08T01:15:00Z,24,24,7,29.60
KSDC,43.2355,-77.1201,70,5,5.75,KSDC 080115Z AUTO 07005KT 10SM CLR 21/13 A3002 RMK AO2,2024-08-08T01:15:00Z,21,13,10+,30.02
KSBY,38.3409,-75.5132,90,6,6.9,KSBY 080115Z 09006KT 10SM SCT006 23/23 A2992 RMK AO2 T02330228,2024-08-08T01:15:00Z,23.3,22.8,10+,29.92
KPVF,38.7222,-120.757,240,6,6.9,KPVF 080115Z AUTO 24006KT 10SM CLR 34/M05 A3002 RMK AO1,2024-08-08T01:15:00Z,34,-5,10+,30.02
KOWX,41.0341,-83.9862,30,4,4.6,KOWX 080115Z AUTO 03004KT 10SM OVC038 20/16 A3073 RMK AO1,2024-08-08T01:15:00Z,20,16,10+,30.73
KORF,36.9037,-76.1927,50,6,6.9,KORF 080115Z AUTO 05006KT 7SM -RA OVC004 23/22 A2986 RMK AO2 P0002 T02330222,2024-08-08T01:15:00Z,23.3,22.2,7,29.86
KOEL,39.1139,-100.819,90,9,10.36,KOEL 080115Z AUTO 09009KT 10SM CLR 30/15 A2991 RMK AO1 T03020150,2024-08-08T01:15:00Z,30.2,15,10+,29.91
KMRY,36.5904,-121.849,340,7,8.06,KMRY 080115Z 34007KT 6SM HZ SCT005 OVC009 15/12 A2997 RMK AO2 T01500122,2024-08-08T01:15:00Z,15,12.2,6,29.97
KMGC,41.7048,-86.8183,0,0,0.0,KMGC 080115Z AUTO 00000KT 10SM CLR 20/16 A2994 RMK AO2,2024-08-08T01:15:00Z,20,16,10+,29.94
KHNZ,36.3635,-78.5289,70,7,8.06,KHNZ 080115Z AUTO 07007KT 10SM SCT010 SCT016 SCT022 23/23 A2981 RMK AO2 T02300228,2024-08-08T01:15:00Z,23,22.8,10+,29.81
KGYH,34.763,-82.375,60,11,12.66,KGYH 080115Z AUTO 06011G18KT 10SM CLR 28/21 A2974 RMK AO2,2024-08-08T01:15:00Z,28,21,10+,29.74
KGIC,45.9411,-116.133,70,8,9.21,KGIC 080115Z AUTO 07008G15KT 10SM CLR 27/05 A3008 RMK AO1,2024-08-08T01:15:00Z,27,5,10+,30.08
KC99,39.869,-105.553,300,18,20.71,KC99 080115Z AUTO 30018G26KT 10SM BKN070 OVC100 10/04 A3059 RMK AO2 LTG DSNT NE E AND SW,2024-08-08T01:15:00Z,10,4,10+,30.59
KASE,39.2299,-106.871,0,0,0.0,KASE 080115Z 00000KT 10SM -RA FEW070 BKN095 OVC120 18/09 A3038 RMK AO2 WSHFT 0040 LTG DSNT ALQDS P0000 T01780089,2024-08-08T01:15:00Z,17.8,8.9,10+,30.38
KAIK,33.651,-81.6821,360,9,10.36,KAIK 080115Z AUTO 36009KT 10SM CLR 26/23 A2965 RMK AO2 LTG DSNT E T02630231,2024-08-08T01:15:00Z,26.3,23.1,10+,29.65
KABR,45.4436,-98.4138,350,16,18.41,KABR 080115Z AUTO 35016KT 10SM FEW021 BKN036 OVC060 20/14 A3003 RMK AO2 T02000144,2024-08-08T01:15:00Z,20,14.4,10+,30.03
K9D7,48.4816,-99.2346,,,,K9D7 080115Z AUTO 10SM CLR 15/09 A3008 RMK AO2,2024-08-08T01:15:00Z,15,9,10+,30.08
RJKA,28.431,129.713,310,4,4.6,RJKA 080114Z 31004KT 260V060 9999 FEW020 SCT025 33/28 Q1005 RMK 1CU020 4CU025 A2968,2024-08-08T01:14:00Z,33,28,6+,29.68
PADU,53.896,-166.543,150,5,5.75,PADU 080114Z 15005KT 10SM BKN024 OVC033 10/07 A2989 RMK AO2 $,2024-08-08T01:14:00Z,10,7,10+,29.89
KRIL,39.5279,-107.72,130,9,10.36,KRIL 080114Z AUTO 13009KT 10SM CLR 26/09 A3016 RMK AO2 WSHFT 0054 T02560089,2024-08-08T01:14:00Z,25.6,8.9,10+,30.16
KLAS,36.0719,-115.163,240,9,10.36,KLAS 080114Z 24009KT 10SM FEW120 SCT180 SCT220 43/09 A2981 RMK AO2 T04330089,2024-08-08T01:14:00Z,43.3,8.9,10+,29.81
KBYS,35.271,-116.634,220,11,12.66,KBYS 080114Z AUTO 22011G19KT 10SM CLR 42/04 A2981 RMK AO2 WSHFT 11 SLP057 $,2024-08-08T01:14:00Z,42,4,10+,29.81
RKTE,36.568,127.5,190,2,2.3,RKTE 080113Z 19002KT 9000 BR SCT020 BKN150 BKN200 30/24 A2970 RMK CIG150,2024-08-08T01:13:00Z,30,24,5.59,29.70
PFZK,60.9156,-161.488,200,7,8.06,PFZK 080112Z AUTO 20007KT 10SM BKN026 BKN100 14/09 A2975 RMK AO2,2024-08-08T01:12:00Z,14,9,10+,29.75
KSMO,34.021,-118.447,230,6,6.9,KSMO 080112Z 23006KT 10SM SCT010 22/18 A2995 RMK AO2 T02170183,2024-08-08T01:12:00Z,21.7,18.3,10+,29.95
KGEY,44.5173,-108.075,320,20,23.02,KGEY 080112Z AUTO 32020G27KT 10SM -RA FEW070 BKN110 20/11 A3013 RMK AO2 PK WND 33027/0112 WSHFT 0052 LTG DSNT E P0000 T02000111,2024-08-08T01:12:00Z,20,11.1,10+,30.13
CYPL,51.449,-90.218,70,11,12.66,CYPL 080112Z AUTO 07011G18KT 6SM -RA BR BKN006 OVC023 14/13 A2978 RMK PCPN 0.5MM PAST HR SLP095 DENSITY ALT 1600FT,2024-08-08T01:12:00Z,14,13,6,29.78
SKBG,7.127,-73.185,VRB,2,2.3,SKBG 080111Z VRB02KT 8000 2000N BCFG BKN005 21/21 Q1015,2024-08-08T01:11:00Z,21,21,4.97,29.97
KDAN,36.5729,-79.335,40,8,9.21,KDAN 080111Z AUTO 04008KT 10SM FEW007 24/23 A2982 RMK AO2 T02440233,2024-08-08T01:11:00Z,24.4,23.3,10+,29.82
VCRI,6.287,81.125,VRB,2,2.3,VCRI 080110Z VRB02KT CAVOK 25/24 Q1009 NOSIG,2024-08-08T01:10:00Z,25,24,6+,29.79
VCBI,7.181,79.884,VRB,2,2.3,VCBI 080110Z VRB02KT 9999 FEW014 BKN016 28/26 Q1009 NOSIG,2024-08-08T01:10:00Z,28,26,6+,29.79
KTQK,38.4782,-100.882,100,8,9.21,KTQK 080110Z AUTO 10008KT 10SM CLR 32/18 A2989 RMK AO2 T03160175,2024-08-08T01:10:00Z,31.6,17.5,10+,29.89
KRNH,45.1476,-92.5335,0,0,0.0,KRNH 080110Z AUTO 00000KT 10SM SCT037 BKN065 OVC080 20/16 A2996 RMK AO2 T02000162,2024-08-08T01:10:00Z,20,16.2,10+,29.96
KOPL,30.5643,-92.1021,0,0,0.0,KOPL 080110Z AUTO 00000KT 10SM CLR 27/24 A2978 RMK AO2 T02730237,2024-08-08T01:10:00Z,27.3,23.7,10+,29.78
KHBV,27.3516,-98.7415,160,3,3.45,KHBV 080110Z AUTO 16003KT 5SM HZ SCT060 SCT065 SCT075 33/18 A2980 RMK AO2 T03290180,2024-08-08T01:10:00Z,32.9,18,5,29.80
KFOA,38.6673,-88.4527,330,5,5.75,KFOA 080110Z AUTO 33005KT 10SM OVC050 22/21 A2988 RMK AO2,2024-08-08T01:10:00Z,22,21,10+,29.88
KDVK,37.5764,-84.7641,0,0,0.0,KDVK 080110Z AUTO 00000KT 10SM OVC100 25/22 A2982 RMK AO2,2024-08-08T01:10:00Z,25,22,10+,29.82
KDED,29.075,-81.286,220,5,5.75,KDED 080110Z AUTO 22005KT 10SM SCT120 29/23 A2969 RMK AO2 LTG DSNT NE T02940228,2024-08-08T01:10:00Z,29.4,22.8,10+,29.69
KCZT,28.5204,-99.8192,120,4,4.6,KCZT 080110Z AUTO 12004KT 10SM SCT100 38/15 A2974 RMK AO2,2024-08-08T01:10:00Z,38,15,10+,29.74
PAAK,52.219,-174.208,270,13,14.96,PAAK 080109Z AUTO 27013KT 10SM SCT008 OVC027 11/11 A3001 RMK AO2 TSNO,2024-08-08T01:09:00Z,11,11,10+,30.01
KOFP,37.7093,-77.4349,0,0,0.0,KOFP 080109Z AUTO 00000KT 10SM BKN015 BKN019 25/23 A2988 RMK AO2 T02500233,2024-08-08T01:09:00Z,25,23.3,10+,29.88
KNBC,32.477,-80.722,330,15,17.26,KNBC 080109Z AUTO 33015G23KT 10SM -RA FEW007 SCT011 OVC018 26/24 A2952 RMK AO2 P0001 T02560239,2024-08-08T01:09:00Z,25.6,23.9,10+,29.52
KAVP,41.3335,-75.7227,50,7,8.06,KAVP 080109Z 05007KT 9SM -RA OVC014 19/16 A3004 RMK AO2 RAB07 P0000 T01890161,2024-08-08T01:09:00Z,18.9,16.1,9,30.04
KTOR,42.0613,-104.158,110,20,23.02,KTOR 080108Z AUTO 11020G28KT 10SM SCT060 BKN075 BKN095 20/18 A3008 RMK AO2 PK WND 11028/0108 LTG DSNT E AND SE RAE00 TSE02 PRESFR P0001 T02000178,2024-08-08T01:08:00Z,20,17.8,10+,30.08
KGUR,42.261,-104.732,110,14,16.11,KGUR 080108Z AUTO 11014G19KT 10SM BKN080 28/13 A3008 RMK AO2 WSHFT 0053 SLP156,2024-08-08T01:08:00Z,28,13,10+,30.08
KBIL,45.8072,-108.546,70,8,9.21,KBIL 080108Z 07008KT 10SM SCT022 SCT028 BKN070 17/14 A3026 RMK AO2 RAE02 P0000 T01720139,2024-08-08T01:08:00Z,17.2,13.9,10+,30.26
PALP,70.348,-150.928,230,8,9.21,PALP 080107Z 23008KT 10SM BKN110 20/15 A2972,2024-08-08T01:07:00Z,20,15,10+,29.72
KPKD,46.8971,-95.0695,320,5,5.75,KPKD 080107Z AUTO 32005KT 10SM OVC031 17/16 A2994 RMK AO2 T01720161,2024-08-08T01:07:00Z,17.2,16.1,10+,29.94
KFRG,40.7344,-73.4164,50,5,5.75,KFRG 080107Z 05005KT 10SM BKN018 BKN048 OVC055 18/17 A3005 RMK AO2 T01830172,2024-08-08T01:07:00Z,18.3,17.2,10+,30.05
KBZN,45.7876,-111.162,140,10,11.51,KBZN 080107Z 14010G20KT 10SM CLR 23/11 A3018 RMK AO2 WSHFT 0102 T02330111,2024-08-08T01:07:00Z,23.3,11.1,10+,30.18
CYBU,53.333,-104.005,40,2,2.3,CYBU 080107Z AUTO 04002KT 9SM SCT050 BKN081 12/11 A3026 RMK SLP262,2024-08-08T01:07:00Z,12,11,9,30.26
RJOY,34.597,135.601,300,5,5.75,RJOY 080106Z 30005KT 260V030 9999 FEW025 32/22 Q1004 RMK 1CU025 A2967,2024-08-08T01:06:00Z,32,22,6+,29.65
MMMT,18.098,-94.583,20,10,11.51,MMMT 080106Z RTD 02010KT 7SM FEW020 29/26 A2982 RMK 8/100 VC HZ,2024-08-08T01:06:00Z,29,26,7,29.82
KRDG,40.3734,-75.9593,50,6,6.9,KRDG 080106Z 05006KT 10SM OVC009 19/17 A3000 RMK AO2 T01940172,2024-08-08T01:06:00Z,19.4,17.2,10+,30.00
UWOR,51.07,58.597,300,4,4.6,UWOR 080105Z 30002MPS 4400 BR BKN004 16/16 Q1004 R25/CLRD65 NOSIG RMK QBB130 QFE730/0973,2024-08-08T01:05:00Z,16,16,2.73,29.65
RKTI,37.03,127.885,210,2,2.3,RKTI 080105Z 21002KT 8000 BR SCT015 BKN030 BKN040 28/25 A2970 RMK CIG030,2024-08-08T01:05:00Z,28,25,4.97,29.70
KMMT,33.922,-80.802,350,11,12.66,KMMT 080105Z AUTO 35011G18KT 10SM -RA FEW003 FEW007 SCT018 OVC030 25/23 A2958 RMK AO2 SLP017 $,2024-08-08T01:05:00Z,25,23,10+,29.58
CYYW,50.296,-88.912,170,4,4.6,CYYW 080105Z AUTO 17004KT 140V200 9SM OVC024 17/16 A2982 RMK SLP094 DENSITY ALT 1700FT,2024-08-08T01:05:00Z,17,16,9,29.82
CYMO,51.292,-80.607,360,5,5.75,CYMO 080105Z AUTO 36005KT 340V040 9SM BKN100 OVC120 12/10 A3001 RMK SLP165,2024-08-08T01:05:00Z,12,10,9,30.01
KSMQ,40.6241,-74.669,70,3,3.45,KSMQ 080104Z AUTO 07003KT 6SM -RA BR BKN011 OVC026 19/18 A3002 RMK AO2 P0000 T01890183 $,2024-08-08T01:04:00Z,18.9,18.3,6,30.02
KDYL,40.3302,-75.1228,VRB,3,3.45,KDYL 080104Z AUTO VRB03KT 5SM BR OVC004 19/18 A3001 RMK AO2 T01890183,2024-08-08T01:04:00Z,18.9,18.3,5,30.01
CWKM,69.595,-140.174,VRB,13,14.96,CWKM 080104Z AUTO VRB13KT ////SM ////// 17/10 A2971,2024-08-08T01:04:00Z,17,10,,29.71
SVVL,9.34,-70.585,,,,SVVL 080103Z AUTO ///01KT NCD ///// Q////,2024-08-08T01:03:00Z,,,,
SVVA,10.154,-67.92,200,3,3.45,SVVA 080103Z AUTO 20003KT NCD 24/22 Q1012,2024-08-08T01:03:00Z,24,22,,29.88
SVSR,7.881,-67.443,,,,SVSR 080103Z AUTO NIL,2024-08-08T01:03:00Z,,,,
SVSA,7.841,-72.441,260,2,2.3,SVSA 080103Z AUTO 26002KT NCD 28/21 Q1009,2024-08-08T01:03:00Z,28,21,,29.79
SVPR,8.288,-62.76,50,5,5.75,SVPR 080103Z AUTO 05005KT NCD 25/22 Q1012,2024-08-08T01:03:00Z,25,22,,29.88
SVPA,5.622,-67.605,,,,SVPA 080103Z AUTO NIL,2024-08-08T01:03:00Z,,,,
SVMT,9.748,-63.156,80,4,4.6,SVMT 080103Z AUTO 08004KT NCD 27/27 Q1010,2024-08-08T01:03:00Z,27,27,,29.82
SVMI,10.603,-66.991,80,8,9.21,SVMI 080103Z AUTO 08008KT NCD 27/22 Q1011,2024-08-08T01:03:00Z,27,22,,29.85
SVMG,10.913,-63.968,60,8,9.21,SVMG 080103Z AUTO 06008KT NCD 29/24 Q1010,2024-08-08T01:03:00Z,29,24,,29.82
SVMC,10.558,-71.728,60,4,4.6,SVMC 080103Z AUTO 06004KT NCD 29/23 Q1009,2024-08-08T01:03:00Z,29,23,,29.79
SVLO,11.805,-66.192,,,,SVLO 080103Z AUTO NIL,2024-08-08T01:03:00Z,,,,
SVJM,9.909,-67.377,10,1,1.15,SVJM 080103Z AUTO 01001KT NCD 24/24 Q1011,2024-08-08T01:03:00Z,24,24,,29.85
SVGU,9.027,-69.755,,,,SVGU 080103Z AUTO ///01KT NCD ///// Q1012,2024-08-08T01:03:00Z,,,,29.88
SVGD,7.212,-70.755,110,3,3.45,SVGD 080103Z AUTO 11003KT NCD 28/26 Q1010,2024-08-08T01:03:00Z,28,26,,29.82
SVFM,10.487,-66.846,,,,SVFM 080103Z AUTO NIL,2024-08-08T01:03:00Z,,,,
SVCS,10.287,-66.816,,,,SVCS 080103Z AUTO NIL,2024-08-08T01:03:00Z,,,,
SVCB,8.121,-63.533,,,,SVCB 080103Z AUTO NIL,2024-08-08T01:03:00Z,,,,
SVBS,10.25,-67.649,300,3,3.45,SVBS 080103Z AUTO 30003KT NCD 26/21 Q1013,2024-08-08T01:03:00Z,26,21,,29.91
SVBM,10.043,-69.358,110,14,16.11,SVBM 080103Z AUTO 11014KT NCD 26/21 Q1012,2024-08-08T01:03:00Z,26,21,,29.88
SVBI,8.62,-70.22,,,,SVBI 080103Z AUTO NIL,2024-08-08T01:03:00Z,,,,
SVBC,10.107,-64.689,190,3,3.45,SVBC 080103Z AUTO 19003KT NCD 26/26 Q1010,2024-08-08T01:03:00Z,26,26,,29.82
SARI,-25.737,-54.473,130,3,3.45,SARI 080102Z 13003KT 4000 BR FEW002 BKN020 OVC030 17/17 Q1013 PP000,2024-08-08T01:02:00Z,17,17,2.49,29.91
PAHX,62.688,-159.566,190,4,4.6,PAHX 080102Z AUTO 19004KT 10SM SCT060 BKN095 17/11 A2976 RMK AO2 SLP076 T01720106,2024-08-08T01:02:00Z,17.2,10.6,10+,29.76
KFLO,34.1877,-79.7308,50,15,17.26,KFLO 080102Z 05015G24KT 7SM -RA BKN011 BKN024 OVC046 26/24 A2956 RMK AO2 LTG DSNT NE P0000 T02560244,2024-08-08T01:02:00Z,25.6,24.4,7,29.56
KBGM,42.2068,-75.9799,120,4,4.6,KBGM 080102Z 12004KT 1SM BKN002 OVC021 17/17 A3005 RMK AO2 SFC VIS 9 T01720172,2024-08-08T01:02:00Z,17.2,17.2,1,30.05
TNCC,12.189,-68.96,90,10,11.51,TNCC 080101Z 09010KT 9999 FEW018 29/26 Q1011 NOSIG,2024-08-08T01:01:00Z,29,26,6+,29.85
PATO,60.783,-148.843,90,13,14.96,PATO 080101Z AUTO 09013G34KT 050V120 2SM RA BR FEW031 BKN049 OVC065 15/13 A3002 RMK AO2 PK WND 10034/0056 P0002 T01500128 TSNO,2024-08-08T01:01:00Z,15,12.8,2,30.02
PAMR,61.215,-149.85,30,3,3.45,PAMR 080101Z 03003KT 6SM -RA BR SCT010 BKN015 OVC085 16/15 A2995 RMK AO2 P0001 T01610150,2024-08-08T01:01:00Z,16.1,15,6,29.95
PAMD,59.442,-146.317,110,16,18.41,PAMD 080101Z AUTO 11016KT BKN004 BKN009 OVC045 14/14 A3005 RMK AO2 PWINO $,2024-08-08T01:01:00Z,14,14,,30.05
PAFS,63.015,-154.367,250,3,3.45,PAFS 080101Z AUTO 25003KT 10SM CLR 17/13 A2983 RMK AO2 SLP106 T01670133 $,2024-08-08T01:01:00Z,16.7,13.3,10+,29.83
KOXR,34.2001,-119.204,220,5,5.75,KOXR 080101Z AUTO 22005KT 9SM OVC009 21/17 A2994 RMK AO2 T02060172 $,2024-08-08T01:01:00Z,20.6,17.2,9,29.94
ZYHB,45.628,126.259,250,6,6.9,ZYHB 080100Z 25003MPS 220V280 CAVOK 27/20 Q1004 NOSIG,2024-08-08T01:00:00Z,27,20,6+,29.65
ZYCC,43.993,125.682,230,10,11.51,ZYCC 080100Z 23005MPS CAVOK 27/22 Q1005 NOSIG,2024-08-08T01:00:00Z,27,22,6+,29.68
ZWSH,39.542,76.019,VRB,6,6.9,ZWSH 080100Z VRB03MPS 6000 NSC 23/14 Q1014 NOSIG,2024-08-08T01:00:00Z,23,14,3.73,29.94
ZUUU,30.576,103.95,50,4,4.6,ZUUU 080100Z 05002MPS 350V110 CAVOK 31/24 Q1001 NOSIG,2024-08-08T01:00:00Z,31,24,6+,29.56
ZUTF,30.304,104.436,10,6,6.9,ZUTF 080100Z 01003MPS 330V040 CAVOK 31/25 Q1000 NOSIG,2024-08-08T01:00:00Z,31,25,6+,29.53
ZUGY,26.538,106.801,210,14,16.11,ZUGY 080100Z 21007MPS 9999 SCT036 26/21 Q1011 NOSIG,2024-08-08T01:00:00Z,26,21,6+,29.85
ZUCK,29.718,106.639,130,8,9.21,ZUCK 080100Z 13004MPS 100V160 CAVOK 33/22 Q1001 NOSIG,2024-08-08T01:00:00Z,33,22,6+,29.56
ZSQD,36.362,120.087,30,4,4.6,ZSQD 080100Z 03002MPS 360V070 9999 BKN053 27/25 Q1005 NOSIG,2024-08-08T01:00:00Z,27,25,6+,29.68
ZSOF,31.99,116.965,120,4,4.6,ZSOF 080100Z 12002MPS 090V150 CAVOK 33/27 Q1004 NOSIG,2024-08-08T01:00:00Z,33,27,6+,29.65
ZSNJ,31.739,118.863,VRB,2,2.3,ZSNJ 080100Z VRB01MPS CAVOK 34/25 Q1004 NOSIG,2024-08-08T01:00:00Z,34,25,6+,29.65
ZSNB,29.827,121.462,150,6,6.9,ZSNB 080100Z 15003MPS 100V250 CAVOK 33/26 Q1005 NOSIG,2024-08-08T01:00:00Z,33,26,6+,29.68
ZSFZ,25.936,119.666,180,6,6.9,ZSFZ 080100Z 18003MPS 140V220 9999 FEW013 31/27 Q1006 NOSIG,2024-08-08T01:00:00Z,31,27,6+,29.70
ZSAM,24.546,118.131,VRB,2,2.3,ZSAM 080100Z VRB01MPS CAVOK 32/26 Q1007 NOSIG,2024-08-08T01:00:00Z,32,26,6+,29.73
ZPPP,25.107,102.934,200,14,16.11,ZPPP 080100Z 20007MPS 9999 SCT020 BKN040 20/17 Q1020 NOSIG,2024-08-08T01:00:00Z,20,17,6+,30.12
ZMUB,47.843,106.766,VRB,4,4.6,ZMUB 080100Z VRB02MPS 9999 FEW030CB BKN033 17/14 Q1011 NOSIG RMK QFE651.8 79 MOP,2024-08-08T01:00:00Z,17,14,6+,29.85
ZLXY,34.449,108.752,80,10,11.51,ZLXY 080100Z 08005MPS 8000 SCT030 27/24 Q1003 NOSIG,2024-08-08T01:00:00Z,27,24,4.97,29.62
ZLLL,36.513,103.623,20,6,6.9,ZLLL 080100Z 02003MPS 9999 FEW026 SCT040 21/18 Q1010 NOSIG,2024-08-08T01:00:00Z,21,18,6+,29.82
ZJSY,18.303,109.412,130,4,4.6,ZJSY 080100Z 13002MPS 060V180 9999 FEW020 31/26 Q1009 NOSIG,2024-08-08T01:00:00Z,31,26,6+,29.79
ZJHK,19.934,110.445,210,4,4.6,ZJHK 080100Z 21002MPS 170V250 CAVOK 31/27 Q1008 NOSIG,2024-08-08T01:00:00Z,31,27,6+,29.76
ZHHH,30.783,114.205,190,8,9.21,ZHHH 080100Z 19004MPS 160V220 CAVOK 36/24 Q1003 NOSIG,2024-08-08T01:00:00Z,36,24,6+,29.62
ZHCC,34.52,113.834,60,8,9.21,ZHCC 080100Z 06004MPS 3500 BR SCT006 BKN030 26/25 Q1005 NOSIG,2024-08-08T01:00:00Z,26,25,2.17,29.68
ZGSZ,22.639,113.803,210,6,6.9,ZGSZ 080100Z 21003MPS CAVOK 31/27 Q1008 NOSIG,2024-08-08T01:00:00Z,31,27,6+,29.76
ZGOW,23.55,116.505,VRB,2,2.3,ZGOW 080100Z VRB01MPS 6000 NSC 32/27 Q1007 NOSIG,2024-08-08T01:00:00Z,32,27,3.73,29.73
ZGNN,22.609,108.173,VRB,2,2.3,ZGNN 080100Z VRB01MPS CAVOK 31/26 Q1008 NOSIG,2024-08-08T01:00:00Z,31,26,6+,29.76
ZGKL,25.22,110.04,180,10,11.51,ZGKL 080100Z 18005MPS 9999 SCT036 31/26 Q1008 NOSIG,2024-08-08T01:00:00Z,31,26,6+,29.76
ZGHA,28.18,113.219,180,10,11.51,ZGHA 080100Z 18005MPS CAVOK 33/25 Q1005 NOSIG,2024-08-08T01:00:00Z,33,25,6+,29.68
ZBSJ,38.281,114.697,300,4,4.6,ZBSJ 080100Z 30002MPS 270V340 CAVOK 29/25 Q1006 NOSIG,2024-08-08T01:00:00Z,29,25,6+,29.70
ZBHH,40.854,111.827,80,6,6.9,ZBHH 080100Z 08003MPS 040V120 CAVOK 26/16 Q1010 NOSIG,2024-08-08T01:00:00Z,26,16,6+,29.82
YBTL,-19.248,146.766,110,11,12.66,YBTL 080100Z 11011KT 9999 FEW030 25/16 Q1021,2024-08-08T01:00:00Z,25,16,6+,30.15
YAMB,-27.63,152.711,70,9,10.36,YAMB 080100Z 07009KT 9999 -SHRA SCT030 SCT045 OVC067 18/11 Q1027,2024-08-08T01:00:00Z,18,11,6+,30.32
WSSL,1.417,103.866,170,4,4.6,WSSL 080100Z 17004KT 130V190 9999 FEW018 SCT180 29/24 Q1012,2024-08-08T01:00:00Z,29,24,6+,29.88
WSAP,1.36,103.909,140,4,4.6,WSAP 080100Z 14004KT 9999 FEW017 SCT150 BKN300 30/25 Q1012,2024-08-08T01:00:00Z,30,25,6+,29.88
WMSA,3.13,101.552,0,0,0.0,WMSA 080100Z 00000KT 9999 FEW026 26/24 Q1012,2024-08-08T01:00:00Z,26,24,6+,29.88
WMKN,5.383,103.103,190,4,4.6,WMKN 080100Z 19004KT 140V260 9999 FEW020 28/25 Q1011,2024-08-08T01:00:00Z,28,25,6+,29.85
WMKM,2.263,102.252,0,0,0.0,WMKM 080100Z 00000KT 8000 -RA FEW010 SCT028 26/25 Q1012,2024-08-08T01:00:00Z,26,25,4.97,29.88
WMKL,6.33,99.729,VRB,2,2.3,WMKL 080100Z VRB02KT 9999 FEW020 28/26 Q1011,2024-08-08T01:00:00Z,28,26,6+,29.85
WMKJ,1.641,103.67,160,3,3.45,WMKJ 080100Z 16003KT 100V240 9999 FEW018 28/26 Q1012,2024-08-08T01:00:00Z,28,26,6+,29.88
WMKI,4.568,101.092,VRB,3,3.45,WMKI 080100Z VRB03KT 7000 FEW003 25/24 Q1012,2024-08-08T01:00:00Z,25,24,4.35,29.88
WMKE,4.537,103.427,VRB,3,3.45,WMKE 080100Z VRB03KT 9999 FEW020 26/24 Q1011,2024-08-08T01:00:00Z,26,24,6+,29.85
WMKD,3.775,103.209,VRB,1,1.15,WMKD 080100Z VRB01KT 9999 FEW019 26/24 Q1012 NOSIG,2024-08-08T01:00:00Z,26,24,6+,29.88
WMKC,6.167,102.293,VRB,3,3.45,WMKC 080100Z VRB03KT 9999 FEW018 26/24 Q1011,2024-08-08T01:00:00Z,26,24,6+,29.85
WMKB,5.466,100.391,80,3,3.45,WMKB 080100Z 08003KT 050V110 6000 FEW020 26/21 Q1010 NOSIG,2024-08-08T01:00:00Z,26,21,3.73,29.82
WMKA,6.19,100.398,170,4,4.6,WMKA 080100Z 17004KT 140V220 9999 FEW030 27/25 Q1010,2024-08-08T01:00:00Z,27,25,6+,29.82
WMBA,4.221,100.701,VRB,3,3.45,WMBA 080100Z VRB03KT 9000 FEW031 26/25 Q1011,2024-08-08T01:00:00Z,26,25,5.59,29.85
WMAU,2.387,103.876,230,3,3.45,WMAU 080100Z 23003KT 200V310 9999 FEW020 26/24 Q1012,2024-08-08T01:00:00Z,26,24,6+,29.88
WBKW,4.316,118.119,290,3,3.45,WBKW 080100Z 29003KT 250V330 8000 -RA FEW008 FEW015CB SCT025 26/25 Q1013 RETS,2024-08-08T01:00:00Z,26,25,4.97,29.91
WBKT,6.922,116.837,230,5,5.75,WBKT 080100Z 23005KT 190V260 9999 FEW014 28/25 Q1012,2024-08-08T01:00:00Z,28,25,6+,29.88
WBKS,5.901,118.059,210,5,5.75,WBKS 080100Z 21005KT 140V240 9999 FEW016 29/25 Q1012,2024-08-08T01:00:00Z,29,25,6+,29.88
WBKL,5.301,115.25,VRB,3,3.45,WBKL 080100Z VRB03KT 9999 FEW014 28/26 Q1013,2024-08-08T01:00:00Z,28,26,6+,29.91
WBGY,1.222,111.466,110,5,5.75,WBGY 080100Z 11005KT 050V170 9999 FEW002 26/25 Q1013,2024-08-08T01:00:00Z,26,25,6+,29.91
WBGS,2.264,111.983,130,6,6.9,WBGS 080100Z 13006KT 100V170 9999 FEW016 26/24 Q1012,2024-08-08T01:00:00Z,26,24,6+,29.88
WBGR,4.322,113.987,VRB,1,1.15,WBGR 080100Z VRB01KT 9999 FEW016 28/26 Q1012,2024-08-08T01:00:00Z,28,26,6+,29.88
WBGB,3.12,113.025,140,4,4.6,WBGB 080100Z 14004KT 080V210 9999 FEW016 26/24 Q1013,2024-08-08T01:00:00Z,26,24,6+,29.91
VYNT,19.623,96.201,160,8,9.21,VYNT 080100Z 16008KT 6000 BKN018 FEW022CB BKN110 27/26 Q1010 NOSIG,2024-08-08T01:00:00Z,27,26,3.73,29.82
VTUW,17.384,104.643,110,3,3.45,VTUW 080100Z 11003KT 9999 FEW020 28/26 Q1010 NOSIG,2024-08-08T01:00:00Z,28,26,6+,29.82
VTUV,16.117,103.772,220,5,5.75,VTUV 080100Z 22005KT 190V250 9999 FEW020 29/24 Q1010 NOSIG,2024-08-08T01:00:00Z,29,24,6+,29.82
VTUU,15.251,104.87,180,4,4.6,VTUU 080100Z 18004KT 120V220 CAVOK 28/26 Q1011 NOSIG,2024-08-08T01:00:00Z,28,26,6+,29.85
VTUQ,14.95,102.313,220,2,2.3,VTUQ 080100Z 22002KT CAVOK 28/25 Q1011 NOSIG,2024-08-08T01:00:00Z,28,25,6+,29.85
VTUO,15.227,103.244,VRB,2,2.3,VTUO 080100Z VRB02KT 5000 BR SCT015 27/26 Q1011 NOSIG,2024-08-08T01:00:00Z,27,26,3.11,29.85
VTUL,17.445,101.725,VRB,1,1.15,VTUL 080100Z VRB01KT 6000 FEW005 BKN030 25/25 Q1011 NOSIG,2024-08-08T01:00:00Z,25,25,3.73,29.85
VTUK,16.462,102.786,220,7,8.06,VTUK 080100Z 22007KT 200V260 9999 BKN010 26/24 Q1011 NOSIG,2024-08-08T01:00:00Z,26,24,6+,29.85
VTUI,17.195,104.119,130,4,4.6,VTUI 080100Z 13004KT 100V170 CAVOK 29/26 Q1010 NOSIG,2024-08-08T01:00:00Z,29,26,6+,29.82
VTUD,17.382,102.799,VRB,2,2.3,VTUD 080100Z VRB02KT 9999 BKN007 27/25 Q1010 NOSIG,2024-08-08T01:00:00Z,27,25,6+,29.82
VTSY,5.788,101.147,VRB,2,2.3,VTSY 080100Z VRB02KT 6000 OVC005 24/23 Q1013 NOSIG,2024-08-08T01:00:00Z,24,23,3.73,29.91
VTST,7.512,99.621,VRB,2,2.3,VTST 080100Z VRB02KT 9999 FEW030 26/25 Q1010 NOSIG,2024-08-08T01:00:00Z,26,25,6+,29.82
VTSR,9.773,98.587,VRB,1,1.15,VTSR 080100Z VRB01KT 9999 FEW025 SCT100 26/24 Q1011 NOSIG,2024-08-08T01:00:00Z,26,24,6+,29.85
VTSM,9.548,100.062,VRB,2,2.3,VTSM 080100Z VRB02KT 9999 FEW020 31/26 Q1011 NOSIG,2024-08-08T01:00:00Z,31,26,6+,29.85
VTSG,8.099,98.986,VRB,2,2.3,VTSG 080100Z VRB02KT 9999 FEW030 28/25 Q1011 NOSIG,2024-08-08T01:00:00Z,28,25,6+,29.85
VTSF,8.546,99.94,0,0,0.0,VTSF 080100Z 00000KT 9999 FEW020 28/25 Q1010 NOSIG,2024-08-08T01:00:00Z,28,25,6+,29.82
VTSE,10.711,99.362,290,3,3.45,VTSE 080100Z 29003KT 210V310 9999 FEW020 27/25 Q1010 NOSIG,2024-08-08T01:00:00Z,27,25,6+,29.82
VTSC,6.52,101.743,190,4,4.6,VTSC 080100Z 19004KT 160V220 9999 FEW005 25/24 Q1011 NOSIG,2024-08-08T01:00:00Z,25,24,6+,29.85
VTSB,9.133,99.152,230,3,3.45,VTSB 080100Z 23003KT 6000 FEW010 27/26 Q1010 NOSIG,2024-08-08T01:00:00Z,27,26,3.73,29.82
VTPT,16.897,99.254,,,,VTPT 080100Z /////KT 9999 FEW020 SCT040 29/23 Q1010 NOSIG,2024-08-08T01:00:00Z,29,23,6+,29.82
VTPP,16.792,100.274,130,3,3.45,VTPP 080100Z 13003KT 090V170 9999 BKN010 27/27 Q1010 NOSIG,2024-08-08T01:00:00Z,27,27,6+,29.82
VTPO,17.238,99.818,VRB,2,2.3,VTPO 080100Z VRB02KT 9999 SCT010 26/26 Q1010 NOSIG,2024-08-08T01:00:00Z,26,26,6+,29.82
VTPM,16.703,98.542,160,2,2.3,VTPM 080100Z 16002KT 9999 FEW015 SCT025 BKN080 25/24 Q1012 NOSIG,2024-08-08T01:00:00Z,25,24,6+,29.88
VTPH,12.633,99.951,0,0,0.0,VTPH 080100Z 00000KT 9999 FEW030 28/25 Q1010 NOSIG,2024-08-08T01:00:00Z,28,25,6+,29.82
VTPB,16.676,101.195,210,5,5.75,VTPB 080100Z 21005KT 160V240 9999 FEW012 SCT025 27/25 Q1011 NOSIG,2024-08-08T01:00:00Z,27,25,6+,29.85
VTCT,19.961,99.881,VRB,2,2.3,VTCT 080100Z VRB02KT 9999 BKN015 26/24 Q1011 NOSIG,2024-08-08T01:00:00Z,26,24,6+,29.85
VTCP,18.129,100.162,210,4,4.6,VTCP 080100Z 21004KT 170V250 9999 FEW008 26/25 Q1010 NOSIG,2024-08-08T01:00:00Z,26,25,6+,29.82
VTCN,18.807,100.787,230,4,4.6,VTCN 080100Z 23004KT 200V280 9999 FEW020 26/24 Q1010 NOSIG,2024-08-08T01:00:00Z,26,24,6+,29.82
VTCL,18.277,99.502,VRB,2,2.3,VTCL 080100Z VRB02KT 9999 SCT005 26/24 Q1010 NOSIG,2024-08-08T01:00:00Z,26,24,6+,29.82
VTCH,19.302,97.972,VRB,2,2.3,VTCH 080100Z VRB02KT 3000 BR FEW012 BKN025 25/24 Q1011 BECMG 6000 NSW,2024-08-08T01:00:00Z,25,24,1.86,29.85
VTBO,12.275,102.319,VRB,2,2.3,VTBO 080100Z VRB02KT 9999 FEW020 29/26 Q1010,2024-08-08T01:00:00Z,29,26,6+,29.82
VRMM,4.192,73.529,350,7,8.06,VRMM 080100Z 35007KT 9000 -RA FEW016TCU SCT022 OVC090 26/24 Q1011 TEMPO 5000 TSRA,2024-08-08T01:00:00Z,26,24,5.59,29.85
VRMH,6.744,73.171,300,9,10.36,VRMH 080100Z 30009KT 9999 FEW018TCU BKN120 29/25 Q1010,2024-08-08T01:00:00Z,29,25,6+,29.82
VRMG,-0.693,73.156,320,4,4.6,VRMG 080100Z 32004KT 9999 FEW018TCU SCT110 BKN260 28/25 Q1009 TEMPO 5000 TSRA,2024-08-08T01:00:00Z,28,25,6+,29.79
VOMD,9.835,78.093,VRB,2,2.3,VOMD 080100Z VRB02KT 3500 BR FEW018 25/24 Q1009 TEMPO 3000 BR,2024-08-08T01:00:00Z,25,24,2.17,29.79
VLSK,16.557,104.76,140,2,2.3,VLSK 080100Z 14002KT 5000 BR SCT040 FEW100 26/25 Q1010 NOSIG,2024-08-08T01:00:00Z,26,25,3.11,29.82
VLPS,15.132,105.781,140,4,4.6,VLPS 080100Z 14004KT 8000 SCT010 BKN050 26/25 Q1010 NOSIG,2024-08-08T01:00:00Z,26,25,4.97,29.82
VLLN,20.963,101.403,220,2,2.3,VLLN 080100Z 22002KT 9999 SCT020 BKN100 25/23 Q1012 NOSIG,2024-08-08T01:00:00Z,25,23,6+,29.88
VLLB,19.897,102.161,0,0,0.0,VLLB 080100Z 00000KT 4000 BR BKN006 25/24 Q1009 NOSIG,2024-08-08T01:00:00Z,25,24,2.49,29.79
VGEG,22.249,91.814,130,7,8.06,VGEG 080100Z 13007KT 3500 RA SCT012 FEW025CB OVC090 26/25 Q1006 TEMPO P/VIS,2024-08-08T01:00:00Z,26,25,2.17,29.70
VELR,27.296,94.098,300,2,2.3,VELR 080100Z 30002KT 3500 BR SCT008 BKN016 OVC070 25/25 Q1006,2024-08-08T01:00:00Z,25,25,2.17,29.70
VELP,23.841,92.62,230,4,4.6,VELP 080100Z 23004KT 4000 BR SCT015 BKN100 26/24 Q1008 NOSIG,2024-08-08T01:00:00Z,26,24,2.49,29.76
VEJS,22.813,86.169,0,0,0.0,VEJS 080100Z 00000KT 2500 BR SCT018 BKN100 26/26 Q1003,2024-08-08T01:00:00Z,26,26,1.55,29.62
VEIM,24.76,93.897,0,0,0.0,VEIM 080100Z 00000KT 3000 BR FEW008 SCT018 FEW025CB OVC090 24/24 Q1010 BECMG 4000 BR,2024-08-08T01:00:00Z,24,24,1.86,29.82
VEGY,24.744,84.951,50,6,6.9,VEGY 080100Z 05006KT 3000 BR FEW018 SCT100 27/26 Q1002,2024-08-08T01:00:00Z,27,26,1.86,29.59
VCCC,6.822,79.886,270,4,4.6,VCCC 080100Z 27004KT 9999 SCT016 28/25 Q1009 A2981,2024-08-08T01:00:00Z,28,25,6+,29.79
VAHS,22.3772,71.0374,220,7,8.06,VAHS 080100Z 22007KT 5000 BR SCT020 BKN080 26/25 Q1005 NOSIG,2024-08-08T01:00:00Z,26,25,3.11,29.68
UWLW,54.402,48.8,290,6,6.9,UWLW 080100Z 29003MPS 7000 NSC 15/15 Q1007 R02/CLRD60 NOSIG RMK QFE748/0998,2024-08-08T01:00:00Z,15,15,4.35,29.73
UTAV,39.083,63.613,350,8,9.21,UTAV 080100Z 35008KT CAVOK 22/08 Q1002 R31/CLRD70 NOSIG,2024-08-08T01:00:00Z,22,8,6+,29.59
UTAT,41.761,59.827,110,6,6.9,UTAT 080100Z 11006KT CAVOK 26/14 Q1003 R08/CLRD70 NOSIG,2024-08-08T01:00:00Z,26,14,6+,29.62
UTAM,37.619,61.897,340,4,4.6,UTAM 080100Z 34004KT CAVOK 24/11 Q1003 R88/CLRD70 NOSIG,2024-08-08T01:00:00Z,24,11,6+,29.62
UTAK,40.054,53.007,280,12,13.81,UTAK 080100Z 28012KT CAVOK 25/23 Q1004 R16R/CLRD70 TEMPO SCT004 BKN100,2024-08-08T01:00:00Z,25,23,6+,29.65
UTAA,37.975,58.371,290,12,13.81,UTAA 080100Z 29012KT 9999 NSC 29/20 Q1003 R88/CLRD70 NOSIG,2024-08-08T01:00:00Z,29,20,6+,29.62
URMN,43.514,43.646,200,8,9.21,URMN 080100Z 20004MPS 9999 BKN092 20/15 Q1012 R24/////// NOSIG RMK QFE722,2024-08-08T01:00:00Z,20,15,6+,29.88
ULPB,61.885,34.155,220,2,2.3,ULPB 080100Z AUTO 22001MPS 9999 // NCD 09/09 Q1015 RMK QFE757/1010,2024-08-08T01:00:00Z,9,9,6+,29.97
UGTB,41.669,44.955,300,22,25.32,UGTB 080100Z 30022KT CAVOK 22/16 Q1011 NOSIG,2024-08-08T01:00:00Z,22,16,6+,29.85
UBBY,41.561,46.667,VRB,2,2.3,UBBY 080100Z VRB02KT 9999 FEW040 SCT080 23/21 Q1012 NOSIG,2024-08-08T01:00:00Z,23,21,6+,29.88
UBBQ,40.809,47.729,70,6,6.9,UBBQ 080100Z 07006KT 9999 FEW050CB BKN070 25/21 Q1009 NOSIG RMK MT OBSC,2024-08-08T01:00:00Z,25,21,6+,29.79
UBBL,38.746,48.818,130,4,4.6,UBBL 080100Z 13004KT 9999 NSC 24/17 Q1008 NOSIG,2024-08-08T01:00:00Z,24,17,6+,29.76
TVSA,13.156,-61.15,20,5,5.75,TVSA 080100Z 02005KT 9999 SCT016 28/25 Q1012 ,2024-08-08T01:00:00Z,28,25,6+,29.88
TUPJ,18.445,-64.543,80,7,8.06,TUPJ 080100Z 08007KT 10SM SCT022 29/24 A2994 RMK Q1014 VIS16KM,2024-08-08T01:00:00Z,29,24,10+,29.94
TTPP,10.593,-61.348,0,0,0.0,TTPP 080100Z 00000KT 9999 FEW018 27/23 Q1011 NOSIG,2024-08-08T01:00:00Z,27,23,6+,29.85
TTCP,11.149,-60.836,70,4,4.6,TTCP 080100Z 07004KT 9999 FEW018 28/24 Q1011 NOSIG,2024-08-08T01:00:00Z,28,24,6+,29.85
TNCM,18.041,-63.109,50,6,6.9,TNCM 080100Z 05006KT 9999 SCT018 29/26 Q1015 ,2024-08-08T01:00:00Z,29,26,6+,29.97
TNCA,12.501,-70.015,80,13,14.96,TNCA 080100Z 08013KT CAVOK 29/25 Q1011 NOSIG,2024-08-08T01:00:00Z,29,25,6+,29.85
TLPL,13.743,-60.948,80,14,16.11,TLPL 080100Z 08014KT 9999 SCT023 29/25 Q1012 NOSIG,2024-08-08T01:00:00Z,29,25,6+,29.88
TLPC,14.021,-60.993,140,3,3.45,TLPC 080100Z 14003KT 9999 BKN022 28/25 Q1012 NOSIG,2024-08-08T01:00:00Z,28,25,6+,29.88
TKPK,17.312,-62.72,50,11,12.66,TKPK 080100Z 05011KT 9999 SCT018 28/24 Q1013,2024-08-08T01:00:00Z,28,24,6+,29.91
TGPY,12.006,-61.797,0,0,0.0,TGPY 080100Z 00000KT 9999 FEW018 28/24 Q1011 NOSIG,2024-08-08T01:00:00Z,28,24,6+,29.85
TDPD,15.547,-61.299,270,2,2.3,TDPD 080100Z 27002KT 9999 SCT020 26/26 Q1013,2024-08-08T01:00:00Z,26,26,6+,29.91
TBPB,13.075,-59.492,110,11,12.66,TBPB 080100Z 11011KT 9999 FEW018 28/24 Q1011 NOSIG,2024-08-08T01:00:00Z,28,24,6+,29.85
TAPA,17.135,-61.797,70,6,6.9,TAPA 080100Z 07006KT 050V120 9999 VCSH FEW019 28/23 Q1013 NOSIG,2024-08-08T01:00:00Z,28,23,6+,29.91
SYCJ,6.499,-58.254,290,4,4.6,SYCJ 080100Z 29004KT 9999 FEW015 25/25 Q1010 NOSIG,2024-08-08T01:00:00Z,25,25,6+,29.82
SUMU,-34.838,-56.031,330,6,6.9,SUMU 080100Z 33006KT 9999 BKN040 09/09 Q1012 TEMPO BR,2024-08-08T01:00:00Z,9,9,6+,29.88
SULS,-34.855,-55.094,310,7,8.06,SULS 080100Z 31007KT 9999 BKN030 10/07 Q1012,2024-08-08T01:00:00Z,10,7,6+,29.88
SUAA,-34.788,-56.263,320,5,5.75,SUAA 080100Z 32005KT 9999 FEW025 BKN200 09/08 Q1013,2024-08-08T01:00:00Z,9,8,6+,29.91
SPYL,-4.577,-81.254,170,14,16.11,SPYL 080100Z 17014KT 9999 SCT050 19/16 Q1013 RMK BIRD HAZARD RWY 17/35 PP000,2024-08-08T01:00:00Z,19,16,6+,29.91
SPUR,-5.206,-80.616,170,14,16.11,SPUR 080100Z 17014KT CAVOK 19/14 Q1013 RMK PP000,2024-08-08T01:00:00Z,19,14,6+,29.91
SPTN,-18.049,-70.277,220,3,3.45,SPTN 080100Z 22003KT 200V260 9999 OVC020 12/09 Q1017 RMK PP000,2024-08-08T01:00:00Z,12,9,6+,30.03
SPSO,-13.744,-76.221,VRB,2,2.3,SPSO 080100Z VRB02KT 8000 BKN020 17/13 Q1014 RMK PP000,2024-08-08T01:00:00Z,17,13,4.97,29.94
SPRU,-8.087,-79.109,150,9,10.36,SPRU 080100Z 15009KT 6000 BCFG OVC018 16/15 Q1014 RMK PP000,2024-08-08T01:00:00Z,16,15,3.73,29.94
SPQU,-16.341,-71.583,30,6,6.9,SPQU 080100Z 03006KT CAVOK 13/M14 Q1027 NOSIG RMK PP000,2024-08-08T01:00:00Z,13,-14,6+,30.32
SPQT,-3.786,-73.306,0,0,0.0,SPQT 080100Z 00000KT CAVOK 25/23 Q1009 NOSIG RMK PP000,2024-08-08T01:00:00Z,25,23,6+,29.79
SPME,-3.551,-80.385,250,3,3.45,SPME 080100Z 25003KT 9999 BKN015 22/20 Q1012 RMK BIRD HAZARD RWY 32/14 PP000,2024-08-08T01:00:00Z,22,20,6+,29.88
SPJC,-12.024,-77.113,170,7,8.06,SPJC 080100Z 17007KT 9999 OVC020 16/12 Q1014 NOSIG RMK PP000,2024-08-08T01:00:00Z,16,12,6+,29.94
SPHI,-6.787,-79.828,180,16,18.41,SPHI 080100Z 18016KT CAVOK 17/13 Q1013 RMK BIRD HAZARD RWY 19/01 PP000,2024-08-08T01:00:00Z,17,13,6+,29.91
SPCL,-8.378,-74.574,50,4,4.6,SPCL 080100Z 05004KT 9999 FEW020 28/22 Q1009 RMK PP000,2024-08-08T01:00:00Z,28,22,6+,29.79
SMJP,5.453,-55.188,150,2,2.3,SMJP 080100Z 15002KT 9999 FEW008 FEW012CB SCT020 26/25 Q1011 NOSIG,2024-08-08T01:00:00Z,26,25,6+,29.85
SLVR,-17.645,-63.135,VRB,2,2.3,SLVR 080100Z VRB02KT 9000 FEW020 FEW030CB SCT070 BKN200 23/22 Q1011,2024-08-08T01:00:00Z,23,22,5.59,29.85
SLTJ,-21.556,-64.701,130,8,9.21,SLTJ 080100Z 13008KT 9999 NSC 12/07 Q1018,2024-08-08T01:00:00Z,12,7,6+,30.06
SLOR,-17.962,-67.077,190,13,14.96,SLOR 080100Z 19013KT 9999 NSC 05/M11 Q1033,2024-08-08T01:00:00Z,5,-11,6+,30.50
SLLP,-16.511,-68.182,230,5,5.75,SLLP 080100Z 23005KT 9999 FEW013 FEW017CB 06/M22 Q1035,2024-08-08T01:00:00Z,6,-22,6+,30.56
SLCB,-17.421,-66.179,240,8,9.21,SLCB 080100Z 24008KT 190V330 9999 NSC 17/02 Q1021,2024-08-08T01:00:00Z,17,2,6+,30.15
SLAL,-19.247,-65.15,330,10,11.51,SLAL 080100Z 33010KT 9999 FEW013 10/M02 Q1026,2024-08-08T01:00:00Z,10,-2,6+,30.30
SKVP,10.436,-73.248,50,10,11.51,SKVP 080100Z 05010KT 030V090 9999 FEW015 BKN025 27/23 Q1011,2024-08-08T01:00:00Z,27,23,6+,29.85
SKUC,7.066,-70.735,VRB,2,2.3,SKUC 080100Z VRB02KT 9999 SCT017 27/25 Q1010,2024-08-08T01:00:00Z,27,25,6+,29.82
SKSP,12.587,-81.704,80,3,3.45,SKSP 080100Z 08003KT 050V130 9999 FEW010 26/26 Q1008 REDZ,2024-08-08T01:00:00Z,26,26,6+,29.76
SKSM,11.12,-74.231,VRB,2,2.3,SKSM 080100Z VRB02KT 9999 SCT018 26/23 Q1010,2024-08-08T01:00:00Z,26,23,6+,29.82
SKRG,6.169,-75.426,360,3,3.45,SKRG 080100Z 36003KT 9999 FEW018 15/13 Q1024 NOSIG,2024-08-08T01:00:00Z,15,13,6+,30.24
SKPE,4.814,-75.735,VRB,1,1.15,SKPE 080100Z VRB01KT 9999 FEW020 SCT080 22/19 Q1016,2024-08-08T01:00:00Z,22,19,6+,30.00
SKNV,2.949,-75.294,260,4,4.6,SKNV 080100Z 26004KT 9000 FEW045 31/16 Q1009,2024-08-08T01:00:00Z,31,16,5.59,29.79
SKMR,8.826,-75.825,0,0,0.0,SKMR 080100Z 00000KT 9999 FEW015 27/25 Q1009,2024-08-08T01:00:00Z,27,25,6+,29.79
SKLT,-4.196,-69.943,VRB,2,2.3,SKLT 080100Z VRB02KT 9999 FEW020 24/23 Q1008,2024-08-08T01:00:00Z,24,23,6+,29.76
SKLC,7.817,-76.718,0,0,0.0,SKLC 080100Z 00000KT 9999 FEW015 26/25 Q1009,2024-08-08T01:00:00Z,26,25,6+,29.79
SKIB,4.418,-75.13,290,5,5.75,SKIB 080100Z 29005KT 9999 FEW030 SCT100 25/19 Q1016,2024-08-08T01:00:00Z,25,19,6+,30.00
SKCL,3.543,-76.382,330,9,10.36,SKCL 080100Z 33009KT 9999 FEW020 24/19 Q1013 NOSIG,2024-08-08T01:00:00Z,24,19,6+,29.91
SKCG,10.447,-75.516,330,5,5.75,SKCG 080100Z 33005KT 9999 FEW015 28/25 Q1009,2024-08-08T01:00:00Z,28,25,6+,29.79
SKCC,7.93,-72.509,330,3,3.45,SKCC 080100Z 33003KT 300V010 9999 SCT020 29/23 Q1012,2024-08-08T01:00:00Z,29,23,6+,29.88
SKBQ,10.883,-74.78,VRB,2,2.3,SKBQ 080100Z VRB02KT 9999 FEW015 25/24 Q1010 NOSIG,2024-08-08T01:00:00Z,25,24,6+,29.82
SKBO,4.706,-74.151,VRB,3,3.45,SKBO 080100Z VRB03KT 9999 FEW017 13/12 Q1026 NOSIG,2024-08-08T01:00:00Z,13,12,6+,30.30
SKAR,4.455,-75.766,0,0,0.0,SKAR 080100Z 00000KT 9999 SCT023 23/18 Q1015,2024-08-08T01:00:00Z,23,18,6+,29.97
SGES,-25.461,-54.849,120,4,4.6,SGES 080100Z 12004KT 0800 FG OVC006 17/17 Q1012,2024-08-08T01:00:00Z,17,17,0.5,29.88
SGAS,-25.248,-57.519,200,10,11.51,SGAS 080100Z 20010KT 8000 DZ OV006 16/14 Q1013,2024-08-08T01:00:00Z,16,14,4.97,29.91
SEQM,-0.124,-78.354,40,4,4.6,SEQM 080100Z 04004KT 9999 BKN030 15/12 Q1025 NOSIG RMK A3 RMK A3028,2024-08-08T01:00:00Z,15,12,6+,30.27
SEMT,-0.946,-80.679,200,11,12.66,SEMT 080100Z 20011KT 9999 FEW023 24/20 Q1009 RMK A2982,2024-08-08T01:00:00Z,24,20,6+,29.79
SELT,-0.921,-78.619,170,9,10.36,SELT 080100Z 17009KT 9999 FEW040 11/07 Q1029,2024-08-08T01:00:00Z,11,7,6+,30.38
SEGU,-2.158,-79.884,210,13,14.96,SEGU 080100Z 21013KT 9999 SCT026 BKN100 25/20 Q1010 NOSIG RMK A2984,2024-08-08T01:00:00Z,25,20,6+,29.82
SECU,-2.889,-78.984,50,6,6.9,SECU 080100Z 05006KT 9999 BKN040 17/08 Q1024 RMK A3026,2024-08-08T01:00:00Z,17,8,6+,30.24
SCVM,-32.947,-71.479,150,7,8.06,SCVM 080100Z 15007KT 090V200 CAVOK 08/05 Q1024,2024-08-08T01:00:00Z,8,5,6+,30.24
SCVD,-39.65,-73.086,VRB,2,2.3,SCVD 080100Z AUTO VRB02KT 0500 R35/0550N FG VV002 03/03 Q1029,2024-08-08T01:00:00Z,3,3,0.31,30.38
SCTN,-42.933,-72.699,VRB,1,1.15,SCTN 080100Z VRB01KT CAVOK 04/04 Q1029,2024-08-08T01:00:00Z,4,4,6+,30.38
SCTE,-41.439,-73.094,VRB,2,2.3,SCTE 080100Z VRB02KT 9999 FEW022 03/03 Q1029 NOSIG,2024-08-08T01:00:00Z,3,3,6+,30.38
SCSE,-29.918,-71.201,300,3,3.45,SCSE 080100Z 30003KT 9999 BKN032 11/08 Q1021,2024-08-08T01:00:00Z,11,8,6+,30.15
SCQP,-38.925,-72.648,0,0,0.0,SCQP 080100Z 00000KT CAVOK 03/03 Q1027,2024-08-08T01:00:00Z,3,3,6+,30.32
SCPQ,-42.347,-73.718,VRB,2,2.3,SCPQ 080100Z AUTO VRB02KT 9000 OVC020 04/04 Q1028,2024-08-08T01:00:00Z,4,4,5.59,30.35
SCNT,-51.672,-72.528,290,9,10.36,SCNT 080100Z 29009KT 9999 BKN050 M00/M03 Q1017,2024-08-08T01:00:00Z,0,-3,6+,30.03
SCJO,-40.605,-73.061,0,0,0.0,SCJO 080100Z AUTO 00000KT 0350 FG VV002 00/00 Q1028,2024-08-08T01:00:00Z,0,0,0.22,30.35
SCIP,-27.161,-109.427,160,5,5.75,SCIP 080100Z 16005KT 140V200 9999 FEW020 SCT035 18/13 Q1020 NOSIG,2024-08-08T01:00:00Z,18,13,6+,30.12
SCIE,-36.773,-73.063,140,3,3.45,SCIE 080100Z 14003KT 4500 HZ NSC 07/06 Q1026,2024-08-08T01:00:00Z,7,6,2.8,30.30
SCIC,-34.966,-71.217,VRB,1,1.15,SCIC 080100Z AUTO VRB01KT //// R/////// // NCD 04/02 Q1025,2024-08-08T01:00:00Z,4,2,,30.27
SCFT,-43.189,-71.853,310,4,4.6,SCFT 080100Z AUTO 31004KT 280V340 CAVOK 02/02 Q1028,2024-08-08T01:00:00Z,2,2,6+,30.35
SCFA,-23.45,-70.441,200,15,17.26,SCFA 080100Z 20015KT CAVOK 13/10 Q1017 NOSIG,2024-08-08T01:00:00Z,13,10,6+,30.03
SCEL,-33.393,-70.786,150,6,6.9,SCEL 080100Z 15006KT 9999 BKN050 08/03 Q1023 NOSIG,2024-08-08T01:00:00Z,8,3,6+,30.21
SCDA,-20.535,-70.181,170,6,6.9,SCDA 080100Z 17006KT 120V210 9999 OVC023 16/10 Q1017,2024-08-08T01:00:00Z,16,10,6+,30.03
SCCI,-53.003,-70.855,340,8,9.21,SCCI 080100Z 34008KT 9999 BKN040 OVC060 01/M01 Q1015 NOSIG,2024-08-08T01:00:00Z,1,-1,6+,29.97
SCCH,-36.583,-72.031,230,3,3.45,SCCH 080100Z AUTO 23003KT CAVOK 06/04 Q1025,2024-08-08T01:00:00Z,6,4,6+,30.27
SCCF,-22.496,-68.905,90,4,4.6,SCCF 080100Z 09004KT 050V200 CAVOK 07/M22 Q1026,2024-08-08T01:00:00Z,7,-22,6+,30.30
SCBA,-45.913,-71.694,260,8,9.21,SCBA 080100Z AUTO 26008KT 9999 NCD 00/M01 Q1024,2024-08-08T01:00:00Z,0,-1,6+,30.24
SCAT,-27.262,-70.774,190,6,6.9,SCAT 080100Z 19006KT 9999 FEW012 10/08 Q1020,2024-08-08T01:00:00Z,10,8,6+,30.12
SCAR,-18.351,-70.336,0,0,0.0,SCAR 080100Z 00000KT 9999 OVC025 16/10 Q1017,2024-08-08T01:00:00Z,16,10,6+,30.03
SBYS,-21.982,-47.34,VRB,1,1.15,SBYS 080100Z VRB01KT CAVOK 17/09 Q1016,2024-08-08T01:00:00Z,17,9,6+,30.00
SBVT,-20.258,-40.286,360,6,6.9,SBVT 080100Z 36006KT 9999 FEW030 22/18 Q1018,2024-08-08T01:00:00Z,22,18,6+,30.06
SBUR,-19.765,-47.965,30,10,11.51,SBUR 080100Z 03010KT CAVOK 21/09 Q1019,2024-08-08T01:00:00Z,21,9,6+,30.09
SBUL,-18.883,-48.226,60,11,12.66,SBUL 080100Z 06011KT CAVOK 21/08 Q1020,2024-08-08T01:00:00Z,21,8,6+,30.12
SBUF,-9.4,-38.25,130,7,8.06,SBUF 080100Z AUTO 13007KT CAVOK 22/17 Q1017,2024-08-08T01:00:00Z,22,17,6+,30.03
SBTU,-3.786,-49.72,,,,SBTU 080100Z AUTO /////KT ///V/// //// // ///////// ///// Q////,2024-08-08T01:00:00Z,,,,
SBTE,-5.06,-42.824,360,4,4.6,SBTE 080100Z 36004KT CAVOK 26/19 Q1011,2024-08-08T01:00:00Z,26,19,6+,29.85
SBTA,-23.04,-45.516,270,3,3.45,SBTA 080100Z 27003KT 250V310 CAVOK 16/12 Q1016,2024-08-08T01:00:00Z,16,12,6+,30.00
SBSV,-12.911,-38.331,120,9,10.36,SBSV 080100Z 12009KT 9999 SCT023 BKN050 25/20 Q1017,2024-08-08T01:00:00Z,25,20,6+,30.03
SBSR,-20.817,-49.407,60,2,2.3,SBSR 080100Z 06002KT CAVOK 24/07 Q1015,2024-08-08T01:00:00Z,24,7,6+,29.97
SBSP,-23.627,-46.655,20,3,3.45,SBSP 080100Z 02003KT CAVOK 24/08 Q1017,2024-08-08T01:00:00Z,24,8,6+,30.03
SBSN,-2.423,-54.789,100,2,2.3,SBSN 080100Z 10002KT CAVOK 27/25 Q1010,2024-08-08T01:00:00Z,27,25,6+,29.82
SBSM,-29.711,-53.688,240,3,3.45,SBSM 080100Z 24003KT 130V300 3000 -RA BR BKN004 BKN015 OVC025 15/15 Q1013,2024-08-08T01:00:00Z,15,15,1.86,29.91
SBSL,-2.585,-44.234,40,5,5.75,SBSL 080100Z 04005KT CAVOK 26/24 Q1013,2024-08-08T01:00:00Z,26,24,6+,29.91
SBSJ,-23.229,-45.861,20,2,2.3,SBSJ 080100Z 02002KT CAVOK 22/12 Q1017,2024-08-08T01:00:00Z,22,12,6+,30.03
SBSG,-5.768,-35.376,200,4,4.6,SBSG 080100Z 20004KT 170V230 9999 FEW020 SCT050 22/22 Q1015,2024-08-08T01:00:00Z,22,22,6+,29.97
SBSC,-22.932,-43.719,320,3,3.45,SBSC 080100Z 32003KT CAVOK 21/15 Q1012,2024-08-08T01:00:00Z,21,15,6+,29.88
SBRP,-21.134,-47.774,VRB,2,2.3,SBRP 080100Z VRB02KT CAVOK 22/06 Q1016,2024-08-08T01:00:00Z,22,6,6+,30.00
SBRJ,-22.91,-43.163,310,5,5.75,SBRJ 080100Z 31005KT 280V340 CAVOK 26/18 Q1012,2024-08-08T01:00:00Z,26,18,6+,29.88
SBRF,-8.126,-34.923,130,7,8.06,SBRF 080100Z 13007KT 9999 FEW025 26/19 Q1016,2024-08-08T01:00:00Z,26,19,6+,30.00
SBRB,-9.867,-67.897,350,5,5.75,SBRB 080100Z 35005KT CAVOK 28/22 Q1010,2024-08-08T01:00:00Z,28,22,6+,29.82
SBPV,-8.708,-63.901,340,1,1.15,SBPV 080100Z 34001KT 5000 FU NSC 28/20 Q1010,2024-08-08T01:00:00Z,28,20,3.11,29.82
SBPS,-16.439,-39.081,90,6,6.9,SBPS 080100Z 09006KT 9999 SCT030 24/18 Q1019,2024-08-08T01:00:00Z,24,18,6+,30.09
SBPL,-9.367,-40.565,170,8,9.21,SBPL 080100Z 17008KT CAVOK 25/14 Q1016,2024-08-08T01:00:00Z,25,14,6+,30.00
SBPJ,-10.291,-48.357,110,6,6.9,SBPJ 080100Z 11006KT CAVOK 23/13 Q1014,2024-08-08T01:00:00Z,23,13,6+,29.94
SBOI,3.861,-51.796,VRB,1,1.15,SBOI 080100Z AUTO VRB01KT 9999 // NCD 26/24 Q1012,2024-08-08T01:00:00Z,26,24,6+,29.88
SBNT,-5.911,-35.248,170,5,5.75,SBNT 080100Z 17005KT 9999 FEW016 23/20 Q1015,2024-08-08T01:00:00Z,23,20,6+,29.97
SBNF,-26.88,-48.651,140,2,2.3,SBNF 080100Z 14002KT 9999 FEW008 19/17 Q1012,2024-08-08T01:00:00Z,19,17,6+,29.88
SBMT,-23.509,-46.638,0,0,0.0,SBMT 080100Z 00000KT CAVOK 19/09 Q1016,2024-08-08T01:00:00Z,19,9,6+,30.00
SBMS,-5.202,-37.364,110,9,10.36,SBMS 080100Z AUTO 11009KT 070V130 CAVOK 26/21 Q1014,2024-08-08T01:00:00Z,26,21,6+,29.94
SBMQ,0.051,-51.072,60,6,6.9,SBMQ 080100Z 06006KT 9999 BKN017 29/26 Q1011,2024-08-08T01:00:00Z,29,26,6+,29.85
SBMO,-9.511,-35.792,340,5,5.75,SBMO 080100Z 34005KT CAVOK 20/19 Q1016,2024-08-08T01:00:00Z,20,19,6+,30.00
SBMN,-3.146,-59.986,80,4,4.6,SBMN 080100Z 08004KT CAVOK 30/19 Q1010,2024-08-08T01:00:00Z,30,19,6+,29.82
SBMK,-16.705,-43.819,70,3,3.45,SBMK 080100Z 07003KT CAVOK 20/14 Q1019,2024-08-08T01:00:00Z,20,14,6+,30.09
SBMG,-23.476,-52.017,30,11,12.66,SBMG 080100Z 03011KT CAVOK 24/10 Q1012,2024-08-08T01:00:00Z,24,10,6+,29.88
SBME,-22.343,-41.766,50,9,10.36,SBME 080100Z 05009KT CAVOK 23/19 Q1015,2024-08-08T01:00:00Z,23,19,6+,29.97
SBMA,-5.368,-49.137,250,2,2.3,SBMA 080100Z 25002KT 5000 FU NSC 24/18 Q1011,2024-08-08T01:00:00Z,24,18,3.11,29.85
SBLS,-19.662,-43.896,VRB,4,4.6,SBLS 080100Z VRB04KT CAVOK 20/12 Q1019,2024-08-08T01:00:00Z,20,12,6+,30.09
SBLO,-23.334,-51.13,350,5,5.75,SBLO 080100Z 35005KT CAVOK 27/09 Q1013,2024-08-08T01:00:00Z,27,9,6+,29.91
SBLE,-12.482,-41.277,VRB,1,1.15,SBLE 080100Z AUTO VRB01KT 9999 BKN030 BKN038 19/18 Q1019,2024-08-08T01:00:00Z,19,18,6+,30.09
SBLB,-22.109,-39.917,20,28,32.22,SBLB 080100Z AUTO 02028KT //// NCD 25/// Q//// W///S4,2024-08-08T01:00:00Z,,,,
SBKP,-23.007,-47.135,30,5,5.75,SBKP 080100Z 03005KT CAVOK 23/10 Q1016,2024-08-08T01:00:00Z,23,10,6+,30.00
SBKG,-7.27,-35.895,110,6,6.9,SBKG 080100Z 11006KT CAVOK 20/18 Q1018,2024-08-08T01:00:00Z,20,18,6+,30.06
SBJV,-26.224,-48.797,180,3,3.45,SBJV 080100Z 18003KT 9000 FEW010 SCT050 17/17 Q1012,2024-08-08T01:00:00Z,17,17,5.59,29.88
SBJU,-7.219,-39.27,180,7,8.06,SBJU 080100Z 18007KT 9999 FEW020 25/15 Q1016,2024-08-08T01:00:00Z,25,15,6+,30.00
SBJP,-7.148,-34.951,140,6,6.9,SBJP 080100Z 14006KT CAVOK 23/21 Q1016,2024-08-08T01:00:00Z,23,21,6+,30.00
SBIP,-19.471,-42.488,VRB,1,1.15,SBIP 080100Z AUTO VRB01KT CAVOK 18/13 Q1018,2024-08-08T01:00:00Z,18,13,6+,30.06
SBIL,-14.816,-39.033,120,7,8.06,SBIL 080100Z 12007KT 9999 SCT025 25/20 Q1018,2024-08-08T01:00:00Z,25,20,6+,30.06
SBGR,-23.432,-46.469,80,4,4.6,SBGR 080100Z 08004KT CAVOK 18/11 Q1017,2024-08-08T01:00:00Z,18,11,6+,30.03
SBGO,-16.632,-49.221,0,0,0.0,SBGO 080100Z 00000KT CAVOK 21/11 Q1018,2024-08-08T01:00:00Z,21,11,6+,30.06
SBGL,-22.815,-43.261,100,3,3.45,SBGL 080100Z 10003KT CAVOK 22/17 Q1012,2024-08-08T01:00:00Z,22,17,6+,29.88
SBFZ,-3.776,-38.533,110,9,10.36,SBFZ 080100Z 11009KT 9999 BKN020 27/23 Q1014,2024-08-08T01:00:00Z,27,23,6+,29.94
SBFN,-3.855,-32.423,130,15,17.26,SBFN 080100Z AUTO 13015KT 100V160 9999 FEW027 25/21 Q1015,2024-08-08T01:00:00Z,25,21,6+,29.97
SBFL,-27.671,-48.547,150,9,10.36,SBFL 080100Z 15009KT 9999 SCT040 20/16 Q1012,2024-08-08T01:00:00Z,20,16,6+,29.88
SBFI,-25.595,-54.488,120,4,4.6,SBFI 080100Z 12004KT 4000 BR SCT022 OVC070 18/18 Q1013,2024-08-08T01:00:00Z,18,18,2.49,29.91
SBEG,-3.039,-60.05,110,6,6.9,SBEG 080100Z 11006KT CAVOK 31/20 Q1010,2024-08-08T01:00:00Z,31,20,6+,29.82
SBDN,-22.175,-51.427,40,6,6.9,SBDN 080100Z 04006KT CAVOK 25/09 Q1013,2024-08-08T01:00:00Z,25,9,6+,29.91
SBCZ,-7.597,-72.774,0,0,0.0,SBCZ 080100Z 00000KT 6000 FEW008 BKN100 24/24 Q1010,2024-08-08T01:00:00Z,24,24,3.73,29.82
SBCY,-15.653,-56.116,310,3,3.45,SBCY 080100Z 31003KT CAVOK 28/10 Q1011,2024-08-08T01:00:00Z,28,10,6+,29.85
SBCT,-25.529,-49.176,20,4,4.6,SBCT 080100Z 02004KT CAVOK 20/12 Q1015,2024-08-08T01:00:00Z,20,12,6+,29.97
SBCO,-29.945,-51.144,VRB,2,2.3,SBCO 080100Z VRB02KT 5000 BR FEW004 16/16 Q1012,2024-08-08T01:00:00Z,16,16,3.11,29.88
SBCH,-27.132,-52.662,350,4,4.6,SBCH 080100Z 35004KT 5000 1000E -RA BCFG BKN010 BKN015 FEW030TCU OVC080 16/16 Q1015,2024-08-08T01:00:00Z,16,16,3.11,29.97
SBCG,-20.469,-54.672,10,8,9.21,SBCG 080100Z 01008KT CAVOK 26/10 Q1013,2024-08-08T01:00:00Z,26,10,6+,29.91
SBCF,-19.635,-43.966,20,8,9.21,SBCF 080100Z 02008KT CAVOK 21/12 Q1020,2024-08-08T01:00:00Z,21,12,6+,30.12
SBCA,-25,-53.501,350,20,23.02,SBCA 080100Z 35020G30KT 4000 -RA BR FEW006 SCT020 BKN080 17/15 Q1014,2024-08-08T01:00:00Z,17,15,2.49,29.94
SBBV,2.846,-60.69,190,4,4.6,SBBV 080100Z 19004KT 9999 VCTS FEW030 FEW035CB SCT080 26/22 Q1012,2024-08-08T01:00:00Z,26,22,6+,29.88
SBBU,-22.345,-49.054,60,3,3.45,SBBU 080100Z 06003KT CAVOK 26/09 Q1015,2024-08-08T01:00:00Z,26,9,6+,29.97
SBBR,-15.867,-47.933,190,3,3.45,SBBR 080100Z 19003KT CAVOK 20/11 Q1020,2024-08-08T01:00:00Z,20,11,6+,30.12
SBBI,-25.404,-49.232,340,5,5.75,SBBI 080100Z 34005KT CAVOK 20/12 Q1016,2024-08-08T01:00:00Z,20,12,6+,30.00
SBBH,-19.851,-43.951,0,0,0.0,SBBH 080100Z 00000KT CAVOK 17/13 Q1019,2024-08-08T01:00:00Z,17,13,6+,30.09
SBBG,-31.391,-54.112,230,6,6.9,SBBG 080100Z AUTO 23006KT 9999 -RA NSC 12/11 Q1014,2024-08-08T01:00:00Z,12,11,6+,29.94
SBBE,-1.379,-48.476,70,7,8.06,SBBE 080100Z 07007KT CAVOK 27/24 Q1012,2024-08-08T01:00:00Z,27,24,6+,29.88
SBAR,-10.984,-37.07,170,4,4.6,SBAR 080100Z 17004KT 9999 FEW024 SCT040 24/21 Q1016,2024-08-08T01:00:00Z,24,21,6+,30.00
SBAN,-16.229,-48.964,110,4,4.6,SBAN 080100Z 11004KT CAVOK 17/06 Q1021,2024-08-08T01:00:00Z,17,6,6+,30.15
SAZS,-41.151,-71.157,170,5,5.75,SAZS 080100Z 17005KT 9999 FEW045 M01/M04 Q1027,2024-08-08T01:00:00Z,-1,-4,6+,30.32
SAZN,-38.95,-68.141,140,8,9.21,SAZN 080100Z 14008KT CAVOK 06/01 Q1029,2024-08-08T01:00:00Z,6,1,6+,30.38
SAZM,-37.932,-57.581,160,16,18.41,SAZM 080100Z 16016KT 4000 DZ OVC003 08/08 Q1012,2024-08-08T01:00:00Z,8,8,2.49,29.88
SAWH,-54.844,-68.308,330,4,4.6,SAWH 080100Z 33004KT 270V020 9999 SCT045 01/M02 Q1013,2024-08-08T01:00:00Z,1,-2,6+,29.91
SAWG,-51.609,-69.306,VRB,4,4.6,SAWG 080100Z VRB04KT CAVOK 02/M05 Q1018,2024-08-08T01:00:00Z,2,-5,6+,30.06
SAVC,-45.79,-67.471,280,3,3.45,SAVC 080100Z 28003KT CAVOK 01/M00 Q1027,2024-08-08T01:00:00Z,1,0,6+,30.32
SASJ,-24.387,-65.098,200,4,4.6,SASJ 080100Z 20004KT 160V240 9999 FEW010 OVC040 10/03 Q1021,2024-08-08T01:00:00Z,10,3,6+,30.15
SASA,-24.856,-65.486,20,7,8.06,SASA 080100Z 02007KT 9999 OVC023 08/03 Q1020,2024-08-08T01:00:00Z,8,3,6+,30.12
SARE,-27.45,-59.056,210,7,8.06,SARE 080100Z 21007KT CAVOK 12/09 Q1016,2024-08-08T01:00:00Z,12,9,6+,30.00
SAME,-32.832,-68.793,0,0,0.0,SAME 080100Z 00000KT 9999 FEW040 06/M02 Q1026,2024-08-08T01:00:00Z,6,-2,6+,30.30
SAEZ,-34.822,-58.536,290,7,8.06,SAEZ 080100Z 29007KT CAVOK 07/04 Q1013 NOSIG,2024-08-08T01:00:00Z,7,4,6+,29.91
SADF,-34.457,-58.593,290,6,6.9,SADF 080100Z 29006KT CAVOK 09/04 Q1014,2024-08-08T01:00:00Z,9,4,6+,29.94
SACO,-31.324,-64.208,180,12,13.81,SACO 080100Z 18012KT CAVOK 07/M02 Q1022 NOSIG,2024-08-08T01:00:00Z,7,-2,6+,30.18
SABE,-34.559,-58.416,280,5,5.75,SABE 080100Z 28005KT 220V320 CAVOK 10/04 Q1014 NOSIG,2024-08-08T01:00:00Z,10,4,6+,29.94
SAAR,-32.918,-60.782,240,10,11.51,SAAR 080100Z 24010KT CAVOK 09/02 Q1017,2024-08-08T01:00:00Z,9,2,6+,30.03
RPVP,9.742,118.759,220,4,4.6,RPVP 080100Z 22004KT 9999 FEW019 SCT250 30/26 Q1012 RMK A2988,2024-08-08T01:00:00Z,30,26,6+,29.88
RPVM,10.308,123.978,230,5,5.75,RPVM 080100Z 23005KT 9999 FEW020 SCT300 30/26 Q1013 NOSIG RMK A2991,2024-08-08T01:00:00Z,30,26,6+,29.91
RPVD,9.334,123.297,70,4,4.6,RPVD 080100Z 07004KT 9999 FEW015 BKN220 30/25 Q1012 RMK A2988,2024-08-08T01:00:00Z,30,25,6+,29.88
RPMZ,6.92,122.063,60,3,3.45,RPMZ 080100Z 06003KT 9999 FEW016CB OVC090 29/25 Q1013 RMK A2991 CB N-NE,2024-08-08T01:00:00Z,29,25,6+,29.91
RPMR,6.058,125.096,80,4,4.6,RPMR 080100Z 08004KT 010V170 9999 FEW018 BKN080 30/24 Q1013 RMK A2991,2024-08-08T01:00:00Z,30,24,6+,29.91
RPMD,7.125,125.646,180,4,4.6,RPMD 080100Z 18004KT 9999 SCT020 30/25 Q1013 RMK A2991 LOW CLDS MOV N,2024-08-08T01:00:00Z,30,25,6+,29.91
RPLL,14.507,121.004,290,5,5.75,RPLL 080100Z 29005KT 9999 SCT023 BKN090 30/27 Q1011 NOSIG RMK A2985,2024-08-08T01:00:00Z,30,27,6+,29.85
RPLI,18.178,120.532,190,9,10.36,RPLI 080100Z 19009KT 9999 FEW017CB BKN080 30/26 Q1010 RESHRA NOSIG RMK A2983 CB SE-SW,2024-08-08T01:00:00Z,30,26,6+,29.82
RPLC,15.186,120.56,170,2,2.3,RPLC 080100Z 17002KT 9999 SCT020 29/25 Q1011 NOSIG RMK A2985,2024-08-08T01:00:00Z,29,25,6+,29.85
RPLB,14.794,120.271,170,3,3.45,RPLB 080100Z 17003KT 120V200 9999 SCT018 BKN080 28/26 Q1012 RMK A2988,2024-08-08T01:00:00Z,28,26,6+,29.88
ROYN,24.467,122.978,320,11,12.66,ROYN 080100Z AUTO 32011KT 9999 FEW014 //////TCU 31/27 Q1006,2024-08-08T01:00:00Z,31,27,6+,29.70
RORY,27.044,128.4,50,6,6.9,RORY 080100Z AUTO 05006KT 350V080 9999 SCT020 32/28 Q1005,2024-08-08T01:00:00Z,32,28,6+,29.68
RORT,24.653,124.674,320,6,6.9,RORT 080100Z AUTO 32006KT 280V340 9999 FEW011 31/27 Q1005,2024-08-08T01:00:00Z,31,27,6+,29.68
RORS,24.827,125.145,330,3,3.45,RORS 080100Z 33003KT 300V010 9999 -SHRA SCT014 FEW025TCU BKN/// 30/27 Q1005,2024-08-08T01:00:00Z,30,27,6+,29.68
RORK,25.944,131.326,50,6,6.9,RORK 080100Z AUTO 05006KT 010V070 9999 NCD 32/26 Q1005,2024-08-08T01:00:00Z,32,26,6+,29.68
ROMY,24.782,125.295,360,4,4.6,ROMY 080100Z 36004KT 300V040 9999 -SHRA SCT011 FEW020TCU BKN/// 30/28 Q1005,2024-08-08T01:00:00Z,30,28,6+,29.68
ROMD,25.847,131.264,70,6,6.9,ROMD 080100Z AUTO 07006KT 020V120 9999 FEW016 32/27 Q1005,2024-08-08T01:00:00Z,32,27,6+,29.68
RKTU,36.717,127.499,50,2,2.3,RKTU 080100Z 05002KT 9000 FEW015 BKN020 BKN200 29/25 Q1005,2024-08-08T01:00:00Z,29,25,5.59,29.68
RKTN,35.894,128.659,310,3,3.45,RKTN 080100Z 31003KT 9999 FEW020 BKN200 30/25 Q1005,2024-08-08T01:00:00Z,30,25,6+,29.68
RKSS,37.558,126.791,320,2,2.3,RKSS 080100Z 32002KT 9999 SCT035 BKN200 30/25 Q1005 NOSIG,2024-08-08T01:00:00Z,30,25,6+,29.68
RKPK,35.179,128.938,270,3,3.45,RKPK 080100Z 27003KT 9000 NSC 32/26 Q1005,2024-08-08T01:00:00Z,32,26,5.59,29.68
RKPC,33.511,126.493,350,4,4.6,RKPC 080100Z 35004KT 9999 FEW030 SCT200 32/25 Q1006 NOSIG,2024-08-08T01:00:00Z,32,25,6+,29.70
RKNY,38.061,128.669,280,5,5.75,RKNY 080100Z 28005KT 240V330 CAVOK 30/23 Q1004 NOSIG,2024-08-08T01:00:00Z,30,23,6+,29.65
RKJB,34.991,126.383,240,1,1.15,RKJB 080100Z 24001KT 9999 FEW020 SCT200 31/26 Q1006 NOSIG,2024-08-08T01:00:00Z,31,26,6+,29.70
RJTO,34.782,139.36,50,10,11.51,RJTO 080100Z 05010KT 9999 FEW009 29/26 Q1004,2024-08-08T01:00:00Z,29,26,6+,29.65
RJTI,35.637,139.839,140,5,5.75,RJTI 080100Z 14005KT 9999 SCT030 31/25 Q1004,2024-08-08T01:00:00Z,31,25,6+,29.65
RJTF,35.672,139.528,VRB,1,1.15,RJTF 080100Z VRB01KT 9999 FEW020 BKN030 30/24 Q1004,2024-08-08T01:00:00Z,30,24,6+,29.65
RJSY,38.812,139.787,290,7,8.06,RJSY 080100Z 29007KT 260V330 9999 FEW015 27/23 Q1005,2024-08-08T01:00:00Z,27,23,6+,29.68
RJSS,38.14,140.917,140,9,10.36,RJSS 080100Z 14009KT 100V180 9999 FEW020 SCT050 30/24 Q1004,2024-08-08T01:00:00Z,30,24,6+,29.65
RJSR,40.192,140.372,240,7,8.06,RJSR 080100Z 24007KT 200V260 9999 FEW015 SCT030 BKN050 27/22 Q1005,2024-08-08T01:00:00Z,27,22,6+,29.68
RJSN,37.956,139.121,10,7,8.06,RJSN 080100Z 01007KT 9999 FEW015 28/24 Q1005,2024-08-08T01:00:00Z,28,24,6+,29.68
RJSM,40.705,141.372,320,8,9.21,RJSM 080100Z 32008KT 9999 FEW015 SCT035 BKN050 27/22 Q1004,2024-08-08T01:00:00Z,27,22,6+,29.65
RJSK,39.616,140.219,260,9,10.36,RJSK 080100Z 26009KT 230V300 9999 SCT025 27/21 Q1005,2024-08-08T01:00:00Z,27,21,6+,29.68
RJSI,39.429,141.135,VRB,3,3.45,RJSI 080100Z VRB03KT 9999 FEW015 SCT030 BKN050 28/23 Q1004,2024-08-08T01:00:00Z,28,23,6+,29.65
RJSF,37.227,140.428,320,5,5.75,RJSF 080100Z 32005KT 270V010 9999 FEW020 SCT110 27/22 Q1006,2024-08-08T01:00:00Z,27,22,6+,29.70
RJSC,38.412,140.371,VRB,2,2.3,RJSC 080100Z VRB02KT 9999 FEW025 SCT030 28/24 Q1005,2024-08-08T01:00:00Z,28,24,6+,29.68
RJSA,40.733,140.689,260,5,5.75,RJSA 080100Z 26005KT 230V290 9999 FEW003 SCT010 BKN025 24/23 Q1005,2024-08-08T01:00:00Z,24,23,6+,29.68
RJOW,34.676,131.79,340,5,5.75,RJOW 080100Z 34005KT 300V020 9999 FEW025 30/24 Q1005,2024-08-08T01:00:00Z,30,24,6+,29.68
RJOT,34.214,134.016,VRB,2,2.3,RJOT 080100Z VRB02KT 9999 FEW025 31/23 Q1006,2024-08-08T01:00:00Z,31,23,6+,29.70
RJOS,34.132,134.609,10,8,9.21,RJOS 080100Z 01008KT 340V040 9999 FEW025 31/23 Q1005,2024-08-08T01:00:00Z,31,23,6+,29.68
RJOR,35.53,134.165,40,7,8.06,RJOR 080100Z 04007KT 9999 FEW025 30/23 Q1005,2024-08-08T01:00:00Z,30,23,6+,29.68
RJOM,33.83,132.698,350,6,6.9,RJOM 080100Z 35006KT 9999 FEW025 30/24 Q1004,2024-08-08T01:00:00Z,30,24,6+,29.65
RJOK,33.546,133.669,160,7,8.06,RJOK 080100Z 16007KT 130V200 9999 FEW020 31/26 Q1003,2024-08-08T01:00:00Z,31,26,6+,29.62
RJOH,35.493,133.239,50,6,6.9,RJOH 080100Z 05006KT 020V100 9999 FEW050 29/23 Q1005,2024-08-08T01:00:00Z,29,23,6+,29.68
RJOC,35.414,132.89,50,4,4.6,RJOC 080100Z 05004KT 020V120 CAVOK 30/23 Q1005,2024-08-08T01:00:00Z,30,23,6+,29.68
RJOA,34.436,132.919,120,5,5.75,RJOA 080100Z 12005KT 100V190 9999 FEW025 30/23 Q1007,2024-08-08T01:00:00Z,30,23,6+,29.73
RJNW,37.293,136.962,VRB,2,2.3,RJNW 080100Z VRB02KT 9999 FEW015 SCT025 28/22 Q1006,2024-08-08T01:00:00Z,28,22,6+,29.70
RJNT,36.641,137.187,10,7,8.06,RJNT 080100Z 01007KT 9999 VCSH FEW003 SCT015 BKN020 27/24 Q1005,2024-08-08T01:00:00Z,27,24,6+,29.68
RJNS,34.796,138.189,110,5,5.75,RJNS 080100Z 11005KT 070V150 9999 FEW020 SCT030 31/25 Q1004,2024-08-08T01:00:00Z,31,25,6+,29.65
RJNK,36.394,136.407,10,8,9.21,RJNK 080100Z 01008KT 9999 FEW010 BKN020 BKN050 28/24 Q1005,2024-08-08T01:00:00Z,28,24,6+,29.68
RJKI,28.321,129.928,360,4,4.6,RJKI 080100Z AUTO 36004KT 310V040 9999 FEW012 31/27 Q1005,2024-08-08T01:00:00Z,31,27,6+,29.68
RJKB,27.432,128.706,40,5,5.75,RJKB 080100Z AUTO 04005KT 360V070 9999 FEW014 32/27 Q1005,2024-08-08T01:00:00Z,32,27,6+,29.68
RJFU,32.917,129.914,280,4,4.6,RJFU 080100Z 28004KT 9999 FEW030 33/25 Q1004,2024-08-08T01:00:00Z,33,25,6+,29.65
RJFT,32.837,130.855,VRB,3,3.45,RJFT 080100Z VRB03KT 9999 FEW020 32/26 Q1006,2024-08-08T01:00:00Z,32,26,6+,29.70
RJFS,33.15,130.302,220,6,6.9,RJFS 080100Z 22006KT 9999 FEW030 31/26 Q1005,2024-08-08T01:00:00Z,31,26,6+,29.68
RJFR,33.846,131.035,60,4,4.6,RJFR 080100Z 06004KT 020V080 9999 FEW025 32/24 Q1004,2024-08-08T01:00:00Z,32,24,6+,29.65
RJFO,33.479,131.737,80,5,5.75,RJFO 080100Z 08005KT 9999 FEW025 30/26 Q1004,2024-08-08T01:00:00Z,30,26,6+,29.65
RJFM,31.877,131.449,70,6,6.9,RJFM 080100Z 07006KT 9999 FEW030 32/27 Q1004,2024-08-08T01:00:00Z,32,27,6+,29.65
RJFK,31.803,130.719,120,5,5.75,RJFK 080100Z 12005KT 050V180 9999 FEW015 31/26 Q1006 RMK 1CU015 A2972,2024-08-08T01:00:00Z,31,26,6+,29.70
RJFG,30.605,130.992,290,10,11.51,RJFG 080100Z 29010KT 270V330 9999 FEW010 BKN/// 30/26 Q1006,2024-08-08T01:00:00Z,30,26,6+,29.70
RJFE,32.666,128.833,30,9,10.36,RJFE 080100Z 03009KT 340V070 9999 FEW020 32/26 Q1005,2024-08-08T01:00:00Z,32,26,6+,29.68
RJEC,43.671,142.447,350,3,3.45,RJEC 080100Z 35003KT 310V040 9999 FEW004 SCT018 BKN040 25/22 Q1003,2024-08-08T01:00:00Z,25,22,6+,29.62
RJEB,44.304,143.404,130,3,3.45,RJEB 080100Z 13003KT 100V170 9999 -SHRA FEW010 BKN050 26/23 Q1002,2024-08-08T01:00:00Z,26,23,6+,29.59
RJDT,34.288,129.325,VRB,4,4.6,RJDT 080100Z VRB04KT 9999 FEW020 SCT/// 32/26 Q1005,2024-08-08T01:00:00Z,32,26,6+,29.68
RJDC,33.93,131.279,230,7,8.06,RJDC 080100Z 23007KT 9999 FEW020 31/25 Q1004,2024-08-08T01:00:00Z,31,25,6+,29.65
RJDB,33.749,129.785,140,4,4.6,RJDB 080100Z AUTO 14004KT 9999 NCD 30/27 Q1005,2024-08-08T01:00:00Z,30,27,6+,29.68
RJCW,45.404,141.802,340,3,3.45,RJCW 080100Z 34003KT 8000 -SHRA FEW002 SCT007 BKN020 23/22 Q1002,2024-08-08T01:00:00Z,23,22,4.97,29.59
RJCO,43.117,141.381,VRB,3,3.45,RJCO 080100Z VRB03KT 9999 FEW015 BKN025 BKN070 27/24 Q1004,2024-08-08T01:00:00Z,27,24,6+,29.65
RJCN,43.578,144.96,70,6,6.9,RJCN 080100Z 07006KT 020V100 9999 FEW004 BKN006 BKN012 23/22 Q1002,2024-08-08T01:00:00Z,23,22,6+,29.59
RJCM,43.881,144.164,10,6,6.9,RJCM 080100Z 01006KT 9999 -SHRA FEW004 SCT009 BKN015 24/23 Q1002,2024-08-08T01:00:00Z,24,23,6+,29.59
RJCH,41.77,140.822,190,7,8.06,RJCH 080100Z 19007KT 9999 FEW018 SCT040 BKN070 27/24 Q1003,2024-08-08T01:00:00Z,27,24,6+,29.62
RJCB,42.733,143.217,340,5,5.75,RJCB 080100Z 34005KT 320V030 9999 -SHRA FEW004 SCT006 BKN050 24/23 Q1003,2024-08-08T01:00:00Z,24,23,6+,29.62
RJBT,35.513,134.787,70,3,3.45,RJBT 080100Z 07003KT 040V120 9999 FEW020 SCT030 28/21 Q1007,2024-08-08T01:00:00Z,28,21,6+,29.73
RJBE,34.633,135.224,200,6,6.9,RJBE 080100Z 20006KT 9999 FEW020 30/22 Q1004,2024-08-08T01:00:00Z,30,22,6+,29.65
RJBD,33.662,135.364,290,10,11.51,RJBD 080100Z 29010KT 260V330 9999 FEW025 31/23 Q1004,2024-08-08T01:00:00Z,31,23,6+,29.65
RJAW,24.784,141.322,290,11,12.66,RJAW 080100Z 29011KT 9999 SCT008 BKN012 BKN160 29/26 Q1002 RMK 3ST008 5CU012 7AC160 A2960,2024-08-08T01:00:00Z,29,26,6+,29.59
RJAH,36.182,140.415,80,5,5.75,RJAH 080100Z 08005KT 020V140 9999 FEW015 SCT040 30/24 Q1004,2024-08-08T01:00:00Z,30,24,6+,29.65
RJAF,36.167,137.923,360,3,3.45,RJAF 080100Z 36003KT 270V050 9999 FEW020 27/21 Q1008,2024-08-08T01:00:00Z,27,21,6+,29.76
PLCH,1.988,-157.349,100,7,8.06,PLCH 080100Z 10007G17KT 9999 FEW020 31/23 Q1010,2024-08-08T01:00:00Z,31,23,6+,29.82
OYSY,15.966,48.788,230,5,5.75,OYSY 080100Z 23005KT 9000 NSC 33/13 Q1005,2024-08-08T01:00:00Z,33,13,5.59,29.68
OTHH,25.273,51.609,250,3,3.45,OTHH 080100Z AUTO 25003KT 210V290 CAVOK 32/21 Q0997 NOSIG,2024-08-08T01:00:00Z,32,21,6+,29.44
ORSU,35.56,45.318,320,6,6.9,ORSU 080100Z 32006KT CAVOK 21/04 Q1006,2024-08-08T01:00:00Z,21,4,6+,29.70
ORNI,31.99,44.405,0,0,0.0,ORNI 080100Z 00000KT 8000 NSC 31/12Q0998,2024-08-08T01:00:00Z,,,4.97,29.47
ORMM,30.549,47.662,300,8,9.21,ORMM 080100Z 30008KT CAVOK 31/11 Q0996 NOSIG,2024-08-08T01:00:00Z,31,11,6+,29.41
ORER,36.232,43.951,VRB,1,1.15,ORER 080100Z VRB01KT 8000 NSC 27/05 Q1002,2024-08-08T01:00:00Z,27,5,4.97,29.59
ORBI,33.263,44.235,300,9,10.36,ORBI 080100Z 30009KT CAVOK 34/06 Q0998 NOSIG,2024-08-08T01:00:00Z,34,6,6+,29.47
OPST,32.536,74.364,50,6,6.9,OPST 080100Z 05006KT 3500 TSRA FEW030CB SCT040 BKN100 27/25 Q1002 TEMPO 05015G30KT 2000 TSRA RH92,2024-08-08T01:00:00Z,27,25,2.17,29.59
OPSK,27.722,68.792,0,0,0.0,OPSK 080100Z 00000KT 4000 NSC 29/26 Q0999 NOSIG,2024-08-08T01:00:00Z,29,26,2.49,29.50
OMSJ,25.329,55.517,110,10,11.51,OMSJ 080100Z 11010KT CAVOK 33/25 Q0998 NOSIG,2024-08-08T01:00:00Z,33,25,6+,29.47
OMRK,25.613,55.939,100,16,18.41,OMRK 080100Z 10016KT CAVOK 33/26 Q0998 A2947,2024-08-08T01:00:00Z,33,26,6+,29.47
OMFJ,25.112,56.324,160,6,6.9,OMFJ 080100Z 16006KT 9999 FEW015 SCT020 30/27 Q0999 A2952,2024-08-08T01:00:00Z,30,27,6+,29.50
OMDW,24.897,55.161,90,8,9.21,OMDW 080100Z 09008KT CAVOK 32/26 Q0997 NOSIG,2024-08-08T01:00:00Z,32,26,6+,29.44
OMDB,25.254,55.366,100,12,13.81,OMDB 080100Z 10012KT CAVOK 33/26 Q0997 NOSIG,2024-08-08T01:00:00Z,33,26,6+,29.44
OMAL,24.262,55.609,100,6,6.9,OMAL 080100Z 10006KT CAVOK 31/25 Q0999 NOSIG,2024-08-08T01:00:00Z,31,25,6+,29.50
OMAD,24.428,54.458,140,6,6.9,OMAD 080100Z 14006KT CAVOK 34/25 Q0996 NOSIG,2024-08-08T01:00:00Z,34,25,6+,29.41
OMAA,24.433,54.651,130,6,6.9,OMAA 080100Z 13006KT CAVOK 33/24 Q0996 NOSIG,2024-08-08T01:00:00Z,33,24,6+,29.41
OLBA,33.82,35.491,110,4,4.6,OLBA 080100Z 11004KT 7000 SCT026 28/23 Q1008 NOSIG,2024-08-08T01:00:00Z,28,23,4.35,29.76
OKKK,29.227,47.969,360,11,12.66,OKKK 080100Z 36011KT CAVOK 38/12 Q0997 NOSIG,2024-08-08T01:00:00Z,38,12,6+,29.44
OJAQ,29.612,35.018,340,5,5.75,OJAQ 080100Z 34005KT CAVOK 31/15 Q1006 NOSIG,2024-08-08T01:00:00Z,31,15,6+,29.70
OJAM,31.973,35.992,290,3,3.45,OJAM 080100Z 29003KT CAVOK 24/08 Q1011 NOSIG,2024-08-08T01:00:00Z,24,8,6+,29.85
OJAI,31.723,35.993,260,6,6.9,OJAI 080100Z 26006KT 5000 HZ NSC 21/14 Q1011 NOSIG,2024-08-08T01:00:00Z,21,14,3.11,29.85
OIZH,29.472,60.901,150,4,4.6,OIZH 080100Z 15004KT CAVOK 21/M03 Q1009 A2981,2024-08-08T01:00:00Z,21,-3,6+,29.79
OIZC,25.445,60.383,0,0,0.0,OIZC 080100Z 00000KT 7000 SCT035 28/25 Q0999,2024-08-08T01:00:00Z,28,25,4.35,29.50
OIZB,31.094,61.546,350,25,28.77,OIZB 080100Z 35025G35KT 8000 NSC 32/04 Q0999,2024-08-08T01:00:00Z,32,4,4.97,29.50
OIYY,31.905,54.276,130,4,4.6,OIYY 080100Z 13004KT CAVOK 32/04 Q1008,2024-08-08T01:00:00Z,32,4,6+,29.76
OITR,37.665,45.066,310,4,4.6,OITR 080100Z 31004KT CAVOK 23/13 Q1011 A2986,2024-08-08T01:00:00Z,23,13,6+,29.85
OITL,38.326,48.424,130,4,4.6,OITL 080100Z 13004KT CAVOK 13/11 Q1015,2024-08-08T01:00:00Z,13,11,6+,29.97
OITK,38.425,44.975,50,14,16.11,OITK 080100Z 05014KT 9000 NSC 25/12 Q1011 A2987,2024-08-08T01:00:00Z,25,12,5.59,29.85
OISY,30.701,51.545,0,0,0.0,OISY 080100Z 00000KT CAVOK 22/10 Q1015,2024-08-08T01:00:00Z,22,10,6+,29.97
OISL,27.67,54.375,80,8,9.21,OISL 080100Z 08008KT 7000 NSC 30/24 Q1002 A2960,2024-08-08T01:00:00Z,30,24,4.35,29.59
OISF,28.895,53.72,340,4,4.6,OISF 080100Z 34004KT 8000 NSC 24/08 Q1009 A2980,2024-08-08T01:00:00Z,24,8,4.97,29.79
OINZ,36.636,53.194,210,4,4.6,OINZ 080100Z 21004KT 9999 FEW030 OVC080 26/23 Q1007,2024-08-08T01:00:00Z,26,23,6+,29.73
OINR,36.91,50.68,250,2,2.3,OINR 080100Z 25002KT 9999 SCT026 26/22 Q1004,2024-08-08T01:00:00Z,26,22,6+,29.65
OINN,36.663,51.465,180,2,2.3,OINN 080100Z 18002KT 9999 BKN025 27/24 Q1005,2024-08-08T01:00:00Z,27,24,6+,29.68
OING,36.908,54.404,260,6,6.9,OING 080100Z 26006KT 9999 SCT025 OVC080 28/24 Q1007,2024-08-08T01:00:00Z,28,24,6+,29.73
OIMT,33.659,56.898,110,6,6.9,OIMT 080100Z AUTO 11006KT //// // ////// 32/M02 Q1002,2024-08-08T01:00:00Z,32,-2,,29.59
OIMN,37.488,57.303,200,4,4.6,OIMN 080100Z 20004KT CAVOK 24/18 Q1012,2024-08-08T01:00:00Z,24,18,6+,29.88
OIMB,32.894,59.29,80,6,6.9,OIMB 080100Z 08006KT CAVOK 20/M10 Q1010 A2984,2024-08-08T01:00:00Z,20,-10,6+,29.82
OIKQ,26.755,55.902,0,0,0.0,OIKQ 080100Z 00000KT 7000 NSC 31/29 Q0997,2024-08-08T01:00:00Z,31,29,4.35,29.44
OIKK,30.251,56.964,110,4,4.6,OIKK 080100Z 11004KT CAVOK 18/M05 Q1012 A2991,2024-08-08T01:00:00Z,18,-5,6+,29.88
OIKB,27.218,56.378,130,12,13.81,OIKB 080100Z 13012KT 5000 HZ FEW025CB SCT030 32/27 Q0998 A2949,2024-08-08T01:00:00Z,32,27,3.11,29.47
OIIP,35.776,50.827,300,16,18.41,OIIP 080100Z 30016KT 7000 NSC 23/14 Q1008 A2978,2024-08-08T01:00:00Z,23,14,4.35,29.76
OIIK,36.243,50.045,90,4,4.6,OIIK 080100Z 09004KT CAVOK 20/14 Q1009 A2982,2024-08-08T01:00:00Z,20,14,6+,29.79
OIIE,35.416,51.152,340,14,16.11,OIIE 080100Z 34014KT 9999 SCT100 28/12 Q1005,2024-08-08T01:00:00Z,28,12,6+,29.68
OIHH,34.869,48.553,160,2,2.3,OIHH 080100Z 16002KT CAVOK 21/01 Q1013 A2993,2024-08-08T01:00:00Z,21,1,6+,29.91
OIFS,32.297,50.842,300,4,4.6,OIFS 080100Z 30004KT CAVOK 18/04 Q1017,2024-08-08T01:00:00Z,18,4,6+,30.03
OICS,35.245,47.009,0,0,0.0,OICS 080100Z 00000KT CAVOK 20/05 Q1011 A2986,2024-08-08T01:00:00Z,20,5,6+,29.85
OICK,33.435,48.283,130,4,4.6,OICK 080100Z 13004KT CAVOK 22/03 Q1008 A2977,2024-08-08T01:00:00Z,22,3,6+,29.76
OICI,33.588,46.397,100,4,4.6,OICI 080100Z 10004KT CAVOK 22/02 Q1011 A2986,2024-08-08T01:00:00Z,22,2,6+,29.85
OIBV,26.81,53.356,120,4,4.6,OIBV 080100Z 12004KT 3000 BR NSC 32/29 Q0997,2024-08-08T01:00:00Z,32,29,1.86,29.44
OIBP,27.38,52.738,0,0,0.0,OIBP 080100Z 00000KT CAVOK 32/27 Q0996 A2943,2024-08-08T01:00:00Z,32,27,6+,29.41
OIBK,26.526,53.98,90,4,4.6,OIBK 080100Z 09004KT 7000 NSC 32/25 Q0997,2024-08-08T01:00:00Z,32,25,4.35,29.44
OIBB,28.947,50.834,0,0,0.0,OIBB 080100Z 00000KT 7000 SCT040 32/25 Q0995 A2940,2024-08-08T01:00:00Z,32,25,4.35,29.38
OIAW,31.343,48.751,290,4,4.6,OIAW 080100Z 29004KT CAVOK 34/12 Q0995,2024-08-08T01:00:00Z,34,12,6+,29.38
OIAM,30.556,49.152,360,4,4.6,OIAM 080100Z 36004KT CAVOK 31/15 Q0995,2024-08-08T01:00:00Z,31,15,6+,29.38
OIAH,30.336,50.83,0,0,0.0,OIAH 080100Z 00000KT CAVOK 29/10 Q1003,2024-08-08T01:00:00Z,29,10,6+,29.62
OIAG,30.74,49.684,10,4,4.6,OIAG 080100Z 01004KT CAVOK 33/09 Q0996,2024-08-08T01:00:00Z,33,9,6+,29.41
OIAA,30.366,48.23,310,10,11.51,OIAA 080100Z 31010KT CAVOK 34/12 Q0997,2024-08-08T01:00:00Z,34,12,6+,29.44
OEYN,24.144,38.063,330,2,2.3,OEYN 080100Z 33002KT 9999 FEW040 32/28 Q1003 NOSIG,2024-08-08T01:00:00Z,32,28,6+,29.62
OEWJ,26.199,36.476,340,4,4.6,OEWJ 080100Z 34004KT CAVOK 31/25 Q1004 NOSIG,2024-08-08T01:00:00Z,31,25,6+,29.65
OEWD,20.504,45.197,270,7,8.06,OEWD 080100Z 27007KT CAVOK 34/04 Q1004,2024-08-08T01:00:00Z,34,4,6+,29.65
OETR,31.693,38.731,280,8,9.21,OETR 080100Z 28008KT CAVOK 24/09 Q1009 NOSIG,2024-08-08T01:00:00Z,24,9,6+,29.79
OETF,21.483,40.544,300,10,11.51,OETF 080100Z 30010KT 8000 NSC 24/20 Q1017 NOSIG,2024-08-08T01:00:00Z,24,20,4.97,30.03
OETB,28.366,36.619,270,5,5.75,OETB 080100Z 27005KT CAVOK 28/01 Q1010 NOSIG,2024-08-08T01:00:00Z,28,1,6+,29.82
OESK,29.785,40.1,220,6,6.9,OESK 080100Z 22006KT CAVOK 23/M03 Q1010 NOSIG,2024-08-08T01:00:00Z,23,-3,6+,29.82
OESH,17.467,47.121,240,6,6.9,OESH 080100Z 24006KT 9999 FEW040 32/01 Q1006 NOSIG,2024-08-08T01:00:00Z,32,1,6+,29.70
OERR,30.907,41.138,260,3,3.45,OERR 080100Z 26003KT CAVOK 30/M05 Q1005 NOSIG,2024-08-08T01:00:00Z,30,-5,6+,29.68
OERK,24.945,46.702,290,4,4.6,OERK 080100Z 29004KT CAVOK 31/M04 Q1005 NOSIG,2024-08-08T01:00:00Z,31,-4,6+,29.68
OERF,29.626,43.491,290,10,11.51,OERF 080100Z 29010KT CAVOK 30/M04 Q1004 NOSIG,2024-08-08T01:00:00Z,30,-4,6+,29.65
OEPA,28.335,46.125,300,4,4.6,OEPA 080100Z 30004KT CAVOK 31/00 Q1002 NOSIG,2024-08-08T01:00:00Z,31,0,6+,29.59
OENG,17.611,44.419,250,8,9.21,OENG 080100Z 25008KT 9999 FEW030 SCT090 27/13 Q1013 NOSIG,2024-08-08T01:00:00Z,27,13,6+,29.91
OEMN,-99.99,-99.99,0,0,0.0,OEMN 080100Z 00000KT 9999 FEW020 29/27 Q1008,2024-08-08T01:00:00Z,29,27,6+,29.76
OEMA,24.553,39.705,240,5,5.75,OEMA 080100Z 24005KT CAVOK 33/15 Q1009 NOSIG,2024-08-08T01:00:00Z,33,15,6+,29.79
OEKM,18.301,42.798,150,8,9.21,OEKM 080100Z 15008KT 9999 FEW022 20/11 Q1021 NOSIG,2024-08-08T01:00:00Z,20,11,6+,30.15
OEKJ,24.07,47.58,250,5,5.75,OEKJ 080100Z 25005KT CAVOK 32/M01 Q1005,2024-08-08T01:00:00Z,32,-1,6+,29.68
OEJN,21.685,39.166,170,3,3.45,OEJN 080100Z 17003KT 9999 FEW035 32/25 Q1005 NOSIG,2024-08-08T01:00:00Z,32,25,6+,29.68
OEHL,27.438,41.686,180,4,4.6,OEHL 080100Z 18004KT CAVOK 26/01 Q1011,2024-08-08T01:00:00Z,26,1,6+,29.85
OEGT,31.412,37.279,280,8,9.21,OEGT 080100Z 28008KT CAVOK 24/11 Q1008 NOSIG,2024-08-08T01:00:00Z,24,11,6+,29.76
OEGS,26.303,43.774,290,4,4.6,OEGS 080100Z 29004KT CAVOK 28/00 Q1006,2024-08-08T01:00:00Z,28,0,6+,29.70
OEGN,16.901,42.586,340,3,3.45,OEGN 080100Z 34003KT 9000 FEW030 29/26 Q1007 NOSIG,2024-08-08T01:00:00Z,29,26,5.59,29.73
OEDR,26.265,50.152,190,3,3.45,OEDR 080100Z 19003KT CAVOK 31/20 Q0996,2024-08-08T01:00:00Z,31,20,6+,29.41
OEDM,24.45,44.121,50,7,8.06,OEDM 080100Z 05007KT CAVOK 28/M04 Q1008,2024-08-08T01:00:00Z,28,-4,6+,29.76
OEDF,26.45,49.817,270,4,4.6,OEDF 080100Z 27004KT CAVOK 32/14 Q0997 NOSIG,2024-08-08T01:00:00Z,32,14,6+,29.44
OEBH,19.984,42.621,210,6,6.9,OEBH 080100Z 21006KT CAVOK 27/14 Q1011 NOSIG,2024-08-08T01:00:00Z,27,14,6+,29.85
OEBA,20.296,41.634,230,5,5.75,OEBA 080100Z 23005KT CAVOK 25/15 Q1016 NOSIG,2024-08-08T01:00:00Z,25,15,6+,30.00
OEAO,26.483,38.117,0,0,0.0,OEAO 080100Z 00000KT CAVOK 32/03 Q1008 NOSIG,2024-08-08T01:00:00Z,32,3,6+,29.76
OEAH,25.285,49.485,270,9,10.36,OEAH 080100Z 27009KT CAVOK 34/10 Q0998 NOSIG,2024-08-08T01:00:00Z,34,10,6+,29.47
OEAB,18.24,42.657,150,5,5.75,OEAB 080100Z 15005KT 9999 FEW020 20/11 Q1021 NOSIG,2024-08-08T01:00:00Z,20,11,6+,30.15
NVVW,-19.455,169.224,130,7,8.06,NVVW 080100Z 13007KT 9999 SCT020 BKN120 24/17 Q1019,2024-08-08T01:00:00Z,24,17,6+,30.09
NVVV,-17.695,168.313,110,16,18.41,NVVV 080100Z 11016KT 9999 SCT020 BKN045 23/19 Q1018,2024-08-08T01:00:00Z,23,19,6+,30.06
NVSS,-15.505,167.22,130,10,11.51,NVSS 080100Z 13010KT 9999 FEW020 SCT040 BKN290 27/18 Q1016,2024-08-08T01:00:00Z,27,18,6+,30.00
NSFA,-13.829,-171.993,130,12,13.81,NSFA 080100Z 13012KT 100V170 9999 FEW022 BKN120 28/23 Q1012,2024-08-08T01:00:00Z,28,23,6+,29.88
NGTA,1.381,173.147,30,5,5.75,NGTA 080100Z 03005KT 9999 FEW020 BKN300 31/24 Q1009,2024-08-08T01:00:00Z,31,24,6+,29.79
NGFU,-8.523,179.198,90,12,13.81,NGFU 080100Z 09012KT 9999 FEW018TCU BKN110 28/26 Q1010,2024-08-08T01:00:00Z,28,26,6+,29.82
NFTV,-18.585,-173.963,140,10,11.51,NFTV 080100Z 14010KT 9999 SCT017 24/16 Q1019,2024-08-08T01:00:00Z,24,16,6+,30.09
NFTL,-19.777,-174.34,90,8,9.21,NFTL 080100Z 09008KT 9999 FEW011 25/14 Q1018 RMK DRY AIR 51,2024-08-08T01:00:00Z,25,14,6+,30.06
NFTF,-21.241,-175.15,90,12,13.81,NFTF 080100Z 09012KT 9999 FEW009 SCT017TCU 22/17 Q1020,2024-08-08T01:00:00Z,22,17,6+,30.12
NFNS,-16.803,179.341,120,12,13.81,NFNS 080100Z 12012KT 9999 SCT020 BKN045 25/17 Q1017,2024-08-08T01:00:00Z,25,17,6+,30.03
NFNM,-16.691,-179.877,140,17,19.56,NFNM 080100Z 14017KT 9999 FEW022 SCT050 27/16 Q1017,2024-08-08T01:00:00Z,27,16,6+,30.03
NFNL,-16.467,179.339,110,15,17.26,NFNL 080100Z 11015KT 9999 SCT030 28/16 Q1016,2024-08-08T01:00:00Z,28,16,6+,30.00
NFNA,-18.043,178.559,130,10,11.51,NFNA 080100Z 13010KT 9999 SCT020 25/15 Q1017,2024-08-08T01:00:00Z,25,15,6+,30.03
NFFN,-17.755,177.443,330,10,11.51,NFFN 080100Z 33010KT 300V360 9999 SCT028 26/15 Q1017 NOSIG,2024-08-08T01:00:00Z,26,15,6+,30.03
NCSW,-99.99,-99.99,,,,NCSW 080100Z AUTO NIL,2024-08-08T01:00:00Z,,,,
NCRK,-10.032,-161.101,,,,NCRK 080100Z AUTO NIL,2024-08-08T01:00:00Z,,,,
NCPY,-9.01,-158.034,50,14,16.11,NCPY 080100Z AUTO 05014KT //// ////// 30/24 Q1010,2024-08-08T01:00:00Z,30,24,,29.82
NCPL,1.98,-157.48,,,,NCPL 080100Z AUTO NIL,2024-08-08T01:00:00Z,,,,
NCPK,-10.915,-165.839,,,,NCPK 080100Z AUTO NIL,2024-08-08T01:00:00Z,,,,
NCNS,-99.99,-99.99,,,,NCNS 080100Z AUTO NIL,2024-08-08T01:00:00Z,,,,
NCMR,-19.842,-157.703,210,7,8.06,NCMR 080100Z AUTO 21007KT //// ////// 25/19 Q1013,2024-08-08T01:00:00Z,25,19,,29.91
NCMK,-20.137,-157.344,230,7,8.06,NCMK 080100Z AUTO 23007KT //// ////// 26/19 Q1012,2024-08-08T01:00:00Z,26,19,,29.88
NCMH,-10.374,-161.004,170,4,4.6,NCMH 080100Z AUTO 17004KT //// ////// 28/23 Q1011,2024-08-08T01:00:00Z,28,23,,29.85
NCMG,-21.896,-157.907,230,7,8.06,NCMG 080100Z AUTO 23007KT //// ////// 24/16 Q1009,2024-08-08T01:00:00Z,24,16,,29.79
NCAT,-19.968,-158.119,,,,NCAT 080100Z AUTO NIL,2024-08-08T01:00:00Z,,,,
NCAI,-18.829,-159.766,,,,NCAI 080100Z AUTO NIL,2024-08-08T01:00:00Z,,,,
MZBZ,17.538,-88.309,130,3,3.45,MZBZ 080100Z 13003KT 9999 FEW024 29/26 A2985 Q1010 NOSIG RMK DIST CB-N,2024-08-08T01:00:00Z,29,26,6+,29.82
MYSM,24.064,-74.529,140,6,6.9,MYSM 080100Z AUTO 14006KT 9999 FEW018/// SCT220/// OVC250/// 29/26 A2989,2024-08-08T01:00:00Z,29,26,6+,29.89
MYNN,25.04,-77.467,190,5,5.75,MYNN 080100Z 19005KT 9999 FEW018 SCT040 BKN200 27/24 A2987,2024-08-08T01:00:00Z,27,24,6+,29.87
MYCB,24.315,-75.452,80,3,3.45,MYCB 080100Z AUTO 08003KT 9999 // //////TCU 27/26 A2989,2024-08-08T01:00:00Z,27,26,6+,29.89
MYAF,24.689,-77.796,170,5,5.75,MYAF 080100Z AUTO 17005KT 140V200 CAVOK 27/25 A2986,2024-08-08T01:00:00Z,27,25,6+,29.86
MWCR,19.294,-81.357,130,3,3.45,MWCR 080100Z 13003KT 9999 FEW018 30/26 Q1011,2024-08-08T01:00:00Z,30,26,6+,29.85
MROC,9.991,-84.218,350,1,1.15,MROC 080100Z 35001KT 9999 -RA BCFG FEW005 BKN010 20/19 A2999 NOSIG,2024-08-08T01:00:00Z,20,19,6+,29.99
MRLB,10.589,-85.552,110,5,5.75,MRLB COR 080100Z 11005KT 080V150 CAVOK 25/23 A2981,2024-08-08T01:00:00Z,25,23,6+,29.81
MPTO,9.056,-79.391,VRB,2,2.3,MPTO 080100Z VRB02KT 9999 SCT016 SCT090 26/25 Q1009 NOSIG,2024-08-08T01:00:00Z,26,25,6+,29.79
MPPA,8.909,-79.597,200,5,5.75,MPPA 080100Z 20005KT 9999 SCT016 SCT070 ///// Q1009,2024-08-08T01:00:00Z,,,6+,29.79
MPMG,8.967,-79.555,140,6,6.9,MPMG 080100Z 14006KT 100V190 9999 SCT015 SCT080 28/25 Q1009 NOSIG,2024-08-08T01:00:00Z,28,25,6+,29.79
MPDA,8.391,-82.434,350,3,3.45,MPDA 080100Z 35003KT 6000 TSRA SCT012CB OVC080 25/24 Q1009,2024-08-08T01:00:00Z,25,24,3.73,29.79
MNMG,12.141,-86.177,150,10,11.51,MNMG 080100Z 15010KT 9999 FEW020CB BKN070 25/23 Q1009 A2981 CB E/NE/S FL NOSIG,2024-08-08T01:00:00Z,25,23,6+,29.79
MKJS,18.502,-77.915,VRB,1,1.15,MKJS 080100Z VRB01KT 9999 FEW022CB 26/23 Q1011,2024-08-08T01:00:00Z,26,23,6+,29.85
MKJP,17.942,-76.798,160,9,10.36,MKJP 080100Z 16009KT 9999 FEW022CB 30/25 Q1011,2024-08-08T01:00:00Z,30,25,6+,29.85
MHTG,14.06,-87.216,30,2,2.3,MHTG 080100Z 03002KT 9999 SCT030TCU FEW032CB 25/18 Q1016 A3006 NOSIG,2024-08-08T01:00:00Z,25,18,6+,30.00
MHRO,16.316,-86.523,50,6,6.9,MHRO 080100Z 05006KT 9999 FEW028/25 Q1011 A2986 NOSIG,2024-08-08T01:00:00Z,28,25,6+,29.85
MHPR,14.382,-87.621,330,10,11.51,MHPR 080100Z 33010KT 8000 -RA SCT046TCU FEW048CB BKN090 23/21 Q1015 A2997 NOSIG,2024-08-08T01:00:00Z,23,21,4.97,29.97
MHLM,15.442,-87.934,30,9,10.36,MHLM 080100Z 03009KT 9999 FEW025 29/25 Q1010 A2983 NOSIG,2024-08-08T01:00:00Z,29,25,6+,29.82
MHLC,15.737,-86.864,60,5,5.75,MHLC 080100Z 06005KT 9999 FEW025 28/25 Q1010 A2983 NOSIG,2024-08-08T01:00:00Z,28,25,6+,29.82
MHCA,14.875,-85.775,100,4,4.6,MHCA 080100Z 10004KT 9999 FEW030TCU FEW032CB 27/22 Q1012 RMK CB SE,2024-08-08T01:00:00Z,27,22,6+,29.88
MGMM,16.914,-89.866,170,6,6.9,MGMM 080100Z 17006KT 9999 FEW020 FEW025CB 26/25 Q1012 A2988 FEW100 CB/LTNG W RERA,2024-08-08T01:00:00Z,26,25,6+,29.88
MGGT,14.585,-90.526,20,10,11.51,MGGT 080100Z 02010KT 9999 FEW018 BKN200 22/16 Q1019 A3009 CB/LTNG DIST SE/S,2024-08-08T01:00:00Z,22,16,6+,30.09
MDST,19.407,-70.614,120,8,9.21,MDST 080100Z 12008KT 9999 FEW020 SCT300 28/25 Q1012,2024-08-08T01:00:00Z,28,25,6+,29.88
MDSD,18.433,-69.667,0,0,0.0,MDSD 080100Z 00000KT 9999 FEW018 SCT300 26/25 Q1013,2024-08-08T01:00:00Z,26,25,6+,29.91
MDPP,19.759,-70.571,120,8,9.21,MDPP 080100Z 12008KT 9999 FEW020 SCT300 28/25 Q1012,2024-08-08T01:00:00Z,28,25,6+,29.88
MDPC,18.566,-68.356,70,5,5.75,MDPC 080100Z 07005KT 9999 FEW018 28/24 Q1013,2024-08-08T01:00:00Z,28,24,6+,29.91
MDLR,18.451,-68.921,0,0,0.0,MDLR 080100Z 00000KT 9999 FEW018CB FEW018 27/24 Q1014 CB/NW,2024-08-08T01:00:00Z,27,24,6+,29.94
MDJB,18.577,-69.984,0,0,0.0,MDJB 080100Z 00000KT 9999 FEW018CB FEW018 26/24 Q1013 CB/N,2024-08-08T01:00:00Z,26,24,6+,29.91
LZZI,49.231,18.613,VRB,1,1.15,LZZI 080100Z VRB01KT CAVOK 14/13 Q1014,2024-08-08T01:00:00Z,14,13,6+,29.94
LZTT,49.068,20.25,310,2,2.3,LZTT 080100Z 31002KT CAVOK 11/10 Q1016,2024-08-08T01:00:00Z,11,10,6+,30.00
LZPP,48.613,17.832,360,4,4.6,LZPP 080100Z 36004KT CAVOK 17/14 Q1013,2024-08-08T01:00:00Z,17,14,6+,29.91
LZKZ,48.661,21.24,320,1,1.15,LZKZ 080100Z 32001KT CAVOK 16/14 Q1014 NOSIG,2024-08-08T01:00:00Z,16,14,6+,29.94
LZIB,48.17,17.207,310,5,5.75,LZIB 080100Z 31005KT CAVOK 24/16 Q1013 NOSIG,2024-08-08T01:00:00Z,24,16,6+,29.91
LPMT,38.704,-9.036,320,5,5.75,LPMT 080100Z 32005KT CAVOK 19/17 Q1013,2024-08-08T01:00:00Z,19,17,6+,29.91
LPMR,39.831,-8.887,290,4,4.6,LPMR 080100Z 29004KT 7000 BKN007 17/16 Q1015,2024-08-08T01:00:00Z,17,16,4.35,29.97
LPLA,38.762,-27.091,,,,LPLA 080100Z /////KT 9999 SCT024 23/19 Q1024,2024-08-08T01:00:00Z,23,19,6+,30.24
LPBJ,38.073,-7.931,280,6,6.9,LPBJ 080100Z 28006KT CAVOK 19/16 Q1013,2024-08-08T01:00:00Z,19,16,6+,29.91
LKLN,49.675,13.275,220,3,3.45,LKLN 080100Z AUTO 22003KT 190V270 9999 SCT077 BKN110 18/16 Q1015,2024-08-08T01:00:00Z,18,16,6+,29.97
LKKV,50.202,12.91,260,5,5.75,LKKV 080100Z 26005KT 9999 FEW033 18/16 Q1015,2024-08-08T01:00:00Z,18,16,6+,29.97
LKKB,50.123,14.538,VRB,2,2.3,LKKB 080100Z AUTO VRB02KT 9999 BKN100/// 18/17 Q1013,2024-08-08T01:00:00Z,18,17,6+,29.91
LBPL,43.453,24.504,260,2,2.3,LBPL 080100Z 26002KT 9999 SKC 21/12 Q1013,2024-08-08T01:00:00Z,21,12,6+,29.91
LBPG,42.289,24.714,180,2,2.3,LBPG 080100Z 18002KT 9999 SKC 19/13 Q1014,2024-08-08T01:00:00Z,19,13,6+,29.94
LBIA,42.456,26.352,70,6,6.9,LBIA 080100Z 07006KT 9999 SKC 17/15 Q1014,2024-08-08T01:00:00Z,17,15,6+,29.94
KSVN,32.011,-81.131,320,10,11.51,KSVN 080100Z 32010KT 10SM BKN040 OVC050 25/23 A2952 RMK AO2A RAE0057DZB0057E0058RAB0058E00 SLP999 $,2024-08-08T01:00:00Z,25,23,10+,29.52
KRYN,32.1418,-111.177,340,8,9.21,KRYN 080100Z 34008KT 10SM CLR 31/17 A2995,2024-08-08T01:00:00Z,31,17,10+,29.95
KQEI,-99.99,-99.99,200,3,3.45,KQEI 080100Z AUTO 20003KT 9999 FEW036 BKN200 28/23 A2972 RMK A02 TSNO,2024-08-08T01:00:00Z,28,23,6+,29.72
KPSP,33.8222,-116.504,330,15,17.26,KPSP 080100Z 33015G21KT 10SM CLR 42/11 A2978 RMK AO2 WSHFT 0040 T04220111 $,2024-08-08T01:00:00Z,42.2,11.1,10+,29.78
KPIT,40.4814,-80.2083,60,9,10.36,KPIT 080100Z 06009KT 10SM BKN017 BKN075 23/19 A2990 RMK AO2 T02330189,2024-08-08T01:00:00Z,23.3,18.9,10+,29.90
KNEL,40.037,-74.326,80,10,11.51,KNEL 080100Z AUTO 08010KT OVC010 21/19 A2999 RMK AO2 CIG 007V012 SLP154 T02060194 $,2024-08-08T01:00:00Z,20.6,19.4,,29.99
KCNY,38.7501,-109.763,10,20,23.02,KCNY 080100Z AUTO 01020G29KT 10SM CLR 33/08 A2998 RMK AO2 PK WND 01029/0055 WSHFT 0040 LTG DSNT N T03330078,2024-08-08T01:00:00Z,33.3,7.8,10+,29.98
HKNK,-0.298,36.159,0,0,0.0,HKNK 080100Z 00000KT CAVOK 14/12,2024-08-08T01:00:00Z,14,12,6+,
HKJK,-1.319,36.928,180,5,5.75,HKJK 0100Z 18005KT 9999 BKN016 16/15 Q1022,2024-08-08T01:00:00Z,16,15,6+,30.18
HKGO,-99.999,-99.999,110,5,5.75,HKGO 080100Z AUTO 11005KT 13/12 Q1029 A30.37,2024-08-08T01:00:00Z,13,12,,30.38
HETR,28.209,33.646,110,5,5.75,HETR 080100Z 11005KT CAVOK 27/23 Q1004,2024-08-08T01:00:00Z,27,23,6+,29.65
HESX,30.108,30.896,30,2,2.3,HESX 080100Z 03002KT CAVOK 24/21 Q1008 NOSIG,2024-08-08T01:00:00Z,24,21,6+,29.76
HESW,29.346,25.507,30,7,8.06,HESW 080100Z 03007KT CAVOK 27/17 Q1009,2024-08-08T01:00:00Z,27,17,6+,29.79
HESN,23.964,32.82,230,8,9.21,HESN 080100Z 23008KT 4000 DU NSC 29/23 Q1006 NOSIG,2024-08-08T01:00:00Z,29,23,2.49,29.70
HESH,27.977,34.395,350,7,8.06,HESH 080100Z 35007KT CAVOK 29/19 Q1005 NOSIG,2024-08-08T01:00:00Z,29,19,6+,29.68
HESG,26.343,31.743,240,5,5.75,HESG 080100Z 24005KT CAVOK 29/08 Q1004 NOSIG,2024-08-08T01:00:00Z,29,8,6+,29.65
HEPS,31.279,32.238,280,4,4.6,HEPS 080100Z 28004KT CAVOK 28/24 Q1007 NOSIG,2024-08-08T01:00:00Z,28,24,6+,29.73
HEMM,31.325,27.222,250,6,6.9,HEMM 080100Z 25006KT CAVOK 25/23 Q1009 NOSIG,2024-08-08T01:00:00Z,25,23,6+,29.79
HEMA,25.557,34.584,280,2,2.3,HEMA 080100Z 28002KT CAVOK 30/25 Q1004 NOSIG,2024-08-08T01:00:00Z,30,25,6+,29.65
HELX,25.671,32.706,0,0,0.0,HELX 080100Z 00000KT CAVOK 32/11 Q1005 NOSIG,2024-08-08T01:00:00Z,32,11,6+,29.68
HEGN,27.179,33.801,300,5,5.75,HEGN 080100Z 30005KT CAVOK 30/10 Q1005 NOSIG,2024-08-08T01:00:00Z,30,10,6+,29.68
HEBA,30.918,29.696,320,5,5.75,HEBA 080100Z 32005KT CAVOK 25/22 Q1007 NOSIG,2024-08-08T01:00:00Z,25,22,6+,29.73
HEAT,27.049,31.014,0,0,0.0,HEAT 080100Z 00000KT CAVOK 28/10 Q1009 NOSIG,2024-08-08T01:00:00Z,28,10,6+,29.79
HAAB,8.978,38.799,300,4,4.6,HAAB 080100Z 30004KT 8000 RA BKN023 OVC070 15/15 Q1025,2024-08-08T01:00:00Z,15,15,4.97,30.27
GVSV,16.833,-25.055,50,11,12.66,GVSV 080100Z 05011KT 9999 FEW022 25/21 Q1012 NOSIG,2024-08-08T01:00:00Z,25,21,6+,29.88
GVNP,14.947,-23.484,20,8,9.21,GVNP 080100Z 02008KT 9999 BKN015 25/23 Q1012 NOSIG,2024-08-08T01:00:00Z,25,23,6+,29.88
GVAC,16.742,-22.949,50,7,8.06,GVAC 080100Z 05007KT 9999 SCT014 SCT200 25/20 Q1012 NOSIG,2024-08-08T01:00:00Z,25,20,6+,29.88
GUCY,9.577,-13.612,220,6,6.9,GUCY 080100Z 22006KT 8000 -RA BKN013 BKN100 26/23 Q1013 NOSIG,2024-08-08T01:00:00Z,26,23,4.97,29.91
GOTT,13.733,-13.657,230,6,6.9,GOTT 080100Z 23006KT CAVOK 27/25 Q1012,2024-08-08T01:00:00Z,27,25,6+,29.88
GOSS,16.051,-16.461,280,4,4.6,GOSS 080100Z 28004KT CAVOK 28/25 Q1012,2024-08-08T01:00:00Z,28,25,6+,29.88
GOOY,14.741,-17.49,200,4,4.6,GOOY 080100Z 20004KT 160V240 9999 SCT013 FEW015TCU 28/26 Q1011,2024-08-08T01:00:00Z,28,26,6+,29.85
GOGG,12.556,-16.282,220,4,4.6,GOGG 080100Z 22004KT 9999 FEW015 25/25 Q1012,2024-08-08T01:00:00Z,25,25,6+,29.88
GMTN,35.594,-5.32,VRB,1,1.15,GMTN 080100Z VRB01KT 5000 SCT005 23/21 Q1011 NOSIG,2024-08-08T01:00:00Z,23,21,3.11,29.85
GMTA,35.177,-3.84,210,3,3.45,GMTA 080100Z 21003KT 8000 NSC 24/20 Q1011 NOSIG,2024-08-08T01:00:00Z,24,20,4.97,29.85
GMMZ,30.939,-6.909,310,6,6.9,GMMZ 080100Z 31006KT 8000 FEW040 30/M05 Q1018 NOSIG,2024-08-08T01:00:00Z,30,-5,4.97,30.06
GMMW,34.993,-3.025,170,2,2.3,GMMW 080100Z 17002KT 6000 FEW008 24/22 Q1012 NOSIG,2024-08-08T01:00:00Z,24,22,3.73,29.88
GMML,27.141,-13.23,40,18,20.71,GMML 080100Z 04018KT 8000 NSC 21/21 Q1014 NOSIG,2024-08-08T01:00:00Z,21,21,4.97,29.94
GMMI,31.406,-9.687,20,6,6.9,GMMI 080100Z AUTO 02006KT 7000 NSC 21/19 Q1013 NOSIG,2024-08-08T01:00:00Z,21,19,4.35,29.91
GMMB,33.655,-7.221,190,3,3.45,GMMB 080100Z AUTO 19003KT 9999 NSC 21/21 Q1014 NOSIG,2024-08-08T01:00:00Z,21,21,6+,29.94
GMFM,33.875,-5.52,310,3,3.45,GMFM 080100Z 31003KT CAVOK 22/17 Q1015 NOSIG,2024-08-08T01:00:00Z,22,17,6+,29.97
GMFK,31.946,-4.399,360,18,20.71,GMFK 080100Z 36018KT 9999 SCT040 SCT093 36/M03 Q1016 NOSIG,2024-08-08T01:00:00Z,36,-3,6+,30.00
GMFB,32.514,-1.978,30,10,11.51,GMFB 080100Z AUTO 03010KT 9999 NSC 31/10 Q1018 NOSIG,2024-08-08T01:00:00Z,31,10,6+,30.06
GMAZ,30.266,-5.854,270,4,4.6,GMAZ 080100Z 27004KT CAVOK 34/M02 Q1013 NOSIG,2024-08-08T01:00:00Z,34,-2,6+,29.91
GMAG,29.031,-10.051,190,9,10.36,GMAG 080100Z AUTO 19009KT CAVOK 20/18 Q1013,2024-08-08T01:00:00Z,20,18,6+,29.91
GLRB,6.234,-10.362,0,0,0.0,GLRB 080100Z 00000KT 8000 -DZ FEW003 BKN011 FEW022CB 24/23 Q1014 CB-S NOSIG,2024-08-08T01:00:00Z,24,23,4.97,29.94
GFLL,8.616,-13.195,190,13,14.96,GFLL 080100Z 19013KT 9999 BKN010 FEW027CB 26/23 Q1012 RMK CB-NE/SW,2024-08-08T01:00:00Z,26,23,6+,29.88
GBYD,13.341,-16.653,0,0,0.0,GBYD 080100Z 00000KT 9999 BKN010 FEW018CB BKN100 26/24 Q1011 CB N-SE,2024-08-08T01:00:00Z,26,24,6+,29.85
FZAA,-4.387,15.448,0,0,0.0,FZAA 080100Z 00000KT 7000 NSC 23/18 Q1013 NOSIG,2024-08-08T01:00:00Z,23,18,4.35,29.91
FYRU,-17.956,19.724,0,0,0.0,FYRU 080100Z AUTO 00000KT //// // ////// 13/M02 Q1021,2024-08-08T01:00:00Z,13,-2,,30.15
FVRG,-17.921,31.1,VRB,2,2.3,FVRG 080100Z VRB02KT 6000 12/09 Q1024,2024-08-08T01:00:00Z,12,9,3.73,30.24
FTTJ,12.134,15.034,220,4,4.6,FTTJ 080100Z 22004KT 6000 FEW020 SCT026 25/25 Q1010 NOSIG,2024-08-08T01:00:00Z,25,25,3.73,29.82
FSIA,-4.674,55.522,130,10,11.51,FSIA 080100Z 13010KT 9999 SCT020 26/24 Q1011 NOSIG,2024-08-08T01:00:00Z,26,24,6+,29.85
FQXA,-25.038,33.627,40,4,4.6,FQXA 080100Z 04004KT CAVOK 15/14 Q1020,2024-08-08T01:00:00Z,15,14,6+,30.12
FQTT,-16.108,33.64,0,0,0.0,FQTT 080100Z 00000KT CAVOK 15/11 Q1018,2024-08-08T01:00:00Z,15,11,6+,30.06
FQPB,-12.989,40.525,240,5,5.75,FQPB 080100Z 24005KT 9999 FEW020 21/20 Q1016,2024-08-08T01:00:00Z,21,20,6+,30.00
FQNP,-15.106,39.282,210,3,3.45,FQNP 080100Z 21003KT 9999 FEW010 18/17 Q1019,2024-08-08T01:00:00Z,18,17,6+,30.09
FQBR,-19.796,34.908,VRB,1,1.15,FQBR 080100Z VRB01KT 9999 FEW018 19/19 Q1017,2024-08-08T01:00:00Z,19,19,6+,30.03
FNUE,-11.768,19.898,170,4,4.6,FNUE 080100Z AUTO 17004KT 9999 ////// ///// Q////,2024-08-08T01:00:00Z,,,6+,
FNUB,-14.925,13.575,190,6,6.9,FNUB 080100Z AUTO 19006KT 9999 // ////// 16/02 Q1024,2024-08-08T01:00:00Z,16,2,6+,30.24
FNHU,-12.809,15.761,230,5,5.75,FNHU 080100Z AUTO 23005KT //// // NCD 16/02 Q1022,2024-08-08T01:00:00Z,16,2,,30.18
FNGI,-17.044,15.684,150,3,3.45,FNGI 080100Z AUTO 15003KT 9999 // NCD 16/M07 Q1018,2024-08-08T01:00:00Z,16,-7,6+,30.06
FNCT,-12.479,13.487,130,4,4.6,FNCT 080100Z AUTO 13004KT 9999 OVC031 21/17 Q1015,2024-08-08T01:00:00Z,21,17,6+,29.97
FNCA,-5.59,12.188,190,4,4.6,FNCA 080100Z AUTO 19004KT 9999 FEW013 BKN044 22/20 Q1013,2024-08-08T01:00:00Z,22,20,6+,29.91
FMSD,-25.038,46.956,60,10,11.51,FMSD 080100Z 06010KT 9999 VCSH SCT016 BKN033 21/19 Q1020,2024-08-08T01:00:00Z,21,19,6+,30.12
FMNM,-15.667,46.352,170,4,4.6,FMNM 080100Z 17004KT CAVOK 18/13 Q1018,2024-08-08T01:00:00Z,18,13,6+,30.06
FIMP,-20.434,57.684,120,4,4.6,FIMP 080100Z 12004KT 9999 SCT018 22/17 Q1020,2024-08-08T01:00:00Z,22,17,6+,30.12
FEFF,4.399,18.519,310,2,2.3,FEFF 080100Z 31002KT 9999 FEW010 24/23 Q1012 NOSIG,2024-08-08T01:00:00Z,24,23,6+,29.88
FDOT,-26.704,31.425,0,0,0.0,FDOT 080100Z AUTO 00000KT //// // ////// 12/10 Q1019,2024-08-08T01:00:00Z,12,10,,30.09
FDBB,-26.815,31.934,0,0,0.0,FDBB 080100Z AUTO 00000KT //// // ////// 11/10 Q1017,2024-08-08T01:00:00Z,11,10,,30.03
FCOD,-1.226,15.91,340,4,4.6,FCOD 080100Z 34004KT 6000 SCT026 24/20 Q1012,2024-08-08T01:00:00Z,24,20,3.73,29.88
FCBB,-4.252,15.253,280,4,4.6,FCBB 080100Z 28004KT 8000 NSC 22/18 Q1013 NOSIG,2024-08-08T01:00:00Z,22,18,4.97,29.91
FBSK,-24.555,25.918,,,,FBSK 080100Z /////KT CAVOK 12/05 Q1020 NOSIG,2024-08-08T01:00:00Z,12,5,6+,30.12
FBMN,-19.973,23.431,90,10,11.51,FBMN 080100Z 09010KT CAVOK 18/07 Q1018,2024-08-08T01:00:00Z,18,7,6+,30.06
FAWK,-25.83,28.223,0,0,0.0,FAWK 080100Z AUTO 00000KT //// // ////// 06/00 Q1024,2024-08-08T01:00:00Z,6,0,,30.24
FAWB,-25.654,28.224,0,0,0.0,FAWB 080100Z AUTO 00000KT //// // ////// 05/01 Q1022,2024-08-08T01:00:00Z,5,1,,30.18
FAVV,-26.566,27.961,310,2,2.3,FAVV 080100Z AUTO 31002KT //// // ////// 07/00 Q1024,2024-08-08T01:00:00Z,7,0,,30.24
FAUT,-31.546,28.673,130,1,1.15,FAUT 080100Z AUTO 13001KT //// // ////// 05/01 Q1014,2024-08-08T01:00:00Z,5,1,,29.94
FAUP,-28.399,21.26,250,5,5.75,FAUP 080100Z 25005KT CAVOK 10/M05 Q1014 NOSIG,2024-08-08T01:00:00Z,10,-5,6+,29.94
FASI,-26.248,28.398,70,1,1.15,FASI 080100Z AUTO 07001KT //// // ////// 06/01 Q1027,2024-08-08T01:00:00Z,6,1,,30.32
FAPP,-23.845,29.459,200,6,6.9,FAPP 080100Z AUTO 20006KT //// // ////// 07/05 Q1025,2024-08-08T01:00:00Z,7,5,,30.27
FAPN,-25.334,27.173,0,0,0.0,FAPN 080100Z AUTO 00000KT //// // ////// 08/02 Q1021,2024-08-08T01:00:00Z,8,2,,30.15
FAMM,-25.798,25.548,40,9,10.36,FAMM 080100Z AUTO 04009KT //// // ////// 10/02 Q1021,2024-08-08T01:00:00Z,10,2,,30.15
FALE,-29.602,31.13,180,4,4.6,FALE 080100Z 18004KT 140V200 8000 NSC 12/10 Q1012 NOSIG,2024-08-08T01:00:00Z,12,10,4.97,29.88
FALA,-25.939,27.926,60,2,2.3,FALA 080100Z AUTO 06002KT //// ///////// 07/01 Q1024,2024-08-08T01:00:00Z,7,1,,30.24
FAKN,-25.383,31.106,260,4,4.6,FAKN 080100Z AUTO 26004KT //// // ////// 14/09 Q1021,2024-08-08T01:00:00Z,14,9,,30.15
FAKM,-28.803,24.765,10,11,12.66,FAKM 080100Z AUTO 01011KT //// // ////// 13/09 Q1017,2024-08-08T01:00:00Z,13,9,,30.03
FAJB,-26.15,28,0,0,0.0,FAJB 080100Z AUTO 00000KT //// // ////// 07/00 Q1024,2024-08-08T01:00:00Z,7,0,,30.24
FAHS,-24.381,31.044,320,3,3.45,FAHS 080100Z AUTO 32003KT //// // ////// 16/10 Q1020,2024-08-08T01:00:00Z,16,10,,30.12
FAGG,-34.006,22.379,310,4,4.6,FAGG 080100Z AUTO 31004KT CAVOK 07/06 Q1012,2024-08-08T01:00:00Z,7,6,6+,29.88
FACT,-33.965,18.602,360,10,11.51,FACT 080100Z 36010KT 9999 BKN032 13/09 Q1013 NOSIG,2024-08-08T01:00:00Z,13,9,6+,29.91
FABL,-29.093,26.302,0,0,0.0,FABL 080100Z AUTO 00000KT //// R02///// // ///////// 03/M03 Q1020,2024-08-08T01:00:00Z,3,-3,,30.12
EIME,53.306,-6.442,220,6,6.9,EIME 080100Z 22006KT 190V260 9999 FEW018 SCT039 14/12 Q1009,2024-08-08T01:00:00Z,14,12,6+,29.79
DXXX,6.166,1.254,240,13,14.96,DXXX 080100Z 24013KT 9999 SCT013 25/22 Q1012 NOSIG,2024-08-08T01:00:00Z,25,22,6+,29.88
DTTZ,33.94,8.111,100,14,16.11,DTTZ 080100Z 10014KT CAVOK 29/21 Q1012,2024-08-08T01:00:00Z,29,21,6+,29.88
DTTX,34.718,10.691,310,3,3.45,DTTX 080100Z 31003KT 9999 FEW030 27/24 Q1013,2024-08-08T01:00:00Z,27,24,6+,29.91
DTTN,36.483,8.8,220,3,3.45,DTTN 080100Z AUTO 22003KT NCD 23/13 Q1014,2024-08-08T01:00:00Z,23,13,,29.94
DTTL,36.85,11.083,260,3,3.45,DTTL 080100Z AUTO 26003KT 220V300 NCD 25/24 Q1013,2024-08-08T01:00:00Z,25,24,,29.91
DTTK,35.667,10.1,VRB,2,2.3,DTTK 080100Z VRB02KT CAVOK 26/22 Q1013,2024-08-08T01:00:00Z,26,22,6+,29.91
DTTG,33.733,9.918,70,6,6.9,DTTG 080100Z 07006KT 8000 NSC 24/22 Q1013,2024-08-08T01:00:00Z,24,22,4.97,29.91
DTTD,32.312,10.386,70,4,4.6,DTTD 080100Z AUTO 07004KT 040V110 NCD 24/21 Q1014,2024-08-08T01:00:00Z,24,21,,29.94
DTTB,37.245,9.791,0,0,0.0,DTTB 080100Z 00000KT 6000 NSC 24/23 Q1013,2024-08-08T01:00:00Z,24,23,3.73,29.91
DTKA,36.98,8.877,100,4,4.6,DTKA 080100Z 10004KT CAVOK 22/18 Q1013,2024-08-08T01:00:00Z,22,18,6+,29.91
DRRN,13.483,2.17,200,8,9.21,DRRN 080100Z 20008KT 9000 NSC 24/23 Q1009 NOSIG,2024-08-08T01:00:00Z,24,23,5.59,29.79
DNZA,11.13,7.686,230,5,5.75,DNZA 080100Z 23005KT 9999 DZ BKN010 23/22 Q401,2024-08-08T01:00:00Z,23,22,6+,
DNPO,4.848,7.022,210,3,3.45,DNPO 080100Z 21003KT 7000 BKN008 25/24 Q1012 NOSIG,2024-08-08T01:00:00Z,25,24,4.35,29.88
DNMM,6.577,3.321,230,5,5.75,DNMM 080100Z 23005KT 9999 SCT009 25/23 Q1013 NOSIG,2024-08-08T01:00:00Z,25,23,6+,29.91
DNKN,12.048,8.525,220,6,6.9,DNKN 080100Z 22006KT CAVOK 24/22 Q1014 NOSIG,2024-08-08T01:00:00Z,24,22,6+,29.94
DNEN,6.474,7.562,240,5,5.75,DNEN 080100Z 24005KT 8000 SCT010 25/23 Q102 NOSIG,2024-08-08T01:00:00Z,25,23,4.97,
DNAA,9.007,7.263,210,5,5.75,DNAA 080100Z 21005KT 9999 SCT008 25/22 Q1013 NOSIG,2024-08-08T01:00:00Z,25,22,6+,29.91
DIYO,6.903,-5.366,200,4,4.6,DIYO 080100Z 20004KT 9999 BKN010 24/21 Q1013 NOSIG,2024-08-08T01:00:00Z,24,21,6+,29.91
DIBK,7.739,-5.074,180,8,9.21,DIBK 080100Z 18008KT 8000 FEW010 23/23 Q1013 NOSIG,2024-08-08T01:00:00Z,23,23,4.97,29.91
DIAP,5.261,-3.926,230,9,10.36,DIAP 080100Z 23009KT 9999 SCT012 BKN040 25/22 Q1013 NOSIG,2024-08-08T01:00:00Z,25,22,6+,29.91
DFOO,11.163,-4.322,280,8,9.21,DFOO 080100Z 28008KT 250V310 9999 FEW016 22/20 Q1012 RETS,2024-08-08T01:00:00Z,22,20,6+,29.88
DFFD,12.356,-1.512,230,6,6.9,DFFD 080100Z 23006KT 200V270 9999 FEW016 23/23 Q1010 TEMPO BKN010,2024-08-08T01:00:00Z,23,23,6+,29.82
DBBB,6.357,2.384,220,13,14.96,DBBB 080100Z 22013KT 9999 SCT012 26/23 Q1012 NOSIG,2024-08-08T01:00:00Z,26,23,6+,29.88
DAUZ,28.052,9.643,290,13,14.96,DAUZ 080100Z 29013KT CAVOK 31/14 Q1012,2024-08-08T01:00:00Z,31,14,6+,29.88
DAUU,31.917,5.413,130,5,5.75,DAUU 080100Z 13005KT CAVOK 32/11 Q1011,2024-08-08T01:00:00Z,32,11,6+,29.85
DAUT,29.237,0.276,110,14,16.11,DAUT 080100Z 11014KT CAVOK 34/03 Q1011,2024-08-08T01:00:00Z,34,3,6+,29.85
DAUO,33.513,6.782,140,6,6.9,DAUO 080100Z 14006KT 110V180 CAVOK 33/13 Q1011,2024-08-08T01:00:00Z,33,13,6+,29.85
DAUL,33.764,2.928,230,6,6.9,DAUL 080100Z 23006KT 9999 FEW033 33/06 Q1016,2024-08-08T01:00:00Z,33,6,6+,30.00
DAUK,33.068,6.089,130,5,5.75,DAUK 080100Z 13005KT CAVOK 32/12 Q1011,2024-08-08T01:00:00Z,32,12,6+,29.85
DAUI,27.251,2.512,40,15,17.26,DAUI 080100Z 04015KT CAVOK 35/M00 Q1009,2024-08-08T01:00:00Z,35,0,6+,29.79
DAUH,31.673,6.14,VRB,1,1.15,DAUH 080100Z VRB01KT CAVOK 29/09 Q1011,2024-08-08T01:00:00Z,29,9,6+,29.85
DAUG,32.384,3.794,0,0,0.0,DAUG 080100Z 00000KT CAVOK 33/10 Q1014,2024-08-08T01:00:00Z,33,10,6+,29.94
DAUE,30.571,2.86,VRB,2,2.3,DAUE 080100Z VRB02KT CAVOK 29/08 Q1014,2024-08-08T01:00:00Z,29,8,6+,29.94
DAUB,34.793,5.738,80,4,4.6,DAUB 080100Z 08004KT CAVOK 33/09 Q1011,2024-08-08T01:00:00Z,33,9,6+,29.85
DAUA,27.839,-0.186,120,7,8.06,DAUA 080100Z 12007KT CAVOK 33/M01 Q1009,2024-08-08T01:00:00Z,33,-1,6+,29.79
DAOY,33.721,1.091,170,8,9.21,DAOY 080100Z 17008KT 9999 SCT026 29/04 Q1020,2024-08-08T01:00:00Z,29,4,6+,30.12
DAOV,35.208,0.147,120,4,4.6,DAOV 080100Z 12004KT CAVOK 28/16 Q1013,2024-08-08T01:00:00Z,28,16,6+,29.91
DAOR,31.65,-2.261,130,5,5.75,DAOR 080100Z 13005KT CAVOK 35/M01 Q1015,2024-08-08T01:00:00Z,35,-1,6+,29.97
DAOI,36.213,1.332,240,3,3.45,DAOI 080100Z 24003KT 8000 NSC 28/18 Q1012,2024-08-08T01:00:00Z,28,18,4.97,29.88
DAOF,27.7,-8.167,310,13,14.96,DAOF 080100Z 31013KT CAVOK 34/04 Q1010,2024-08-08T01:00:00Z,34,4,6+,29.82
DAOB,35.345,1.476,200,4,4.6,DAOB 080100Z 20004KT 9999 FEW030 27/07 Q1018,2024-08-08T01:00:00Z,27,7,6+,30.06
DABT,35.752,6.309,0,0,0.0,DABT 080100Z 00000KT CAVOK 22/00 Q1018,2024-08-08T01:00:00Z,22,0,6+,30.06
DABS,35.432,8.121,180,2,2.3,DABS 080100Z 18002KT CAVOK 23/07 Q1018,2024-08-08T01:00:00Z,23,7,6+,30.06
DABC,36.278,6.629,VRB,2,2.3,DABC 080100Z VRB02KT CAVOK 22/09 Q1017,2024-08-08T01:00:00Z,22,9,6+,30.03
DABB,36.822,7.809,280,1,1.15,DABB 080100Z 28001KT CAVOK 21/20 Q1012,2024-08-08T01:00:00Z,21,20,6+,29.88
DAAY,33.532,-0.248,200,20,23.02,DAAY 080100Z 20020KT 7000 SCT030 SCT100 29/02 Q1020,2024-08-08T01:00:00Z,29,2,4.35,30.12
DAAV,36.795,5.877,130,3,3.45,DAAV 080100Z 13003KT CAVOK 25/15 Q1010,2024-08-08T01:00:00Z,25,15,6+,29.82
DAAS,36.18,5.33,90,6,6.9,DAAS 080100Z 09006KT CAVOK 25/04 Q1019,2024-08-08T01:00:00Z,25,4,6+,30.09
DAAP,26.724,8.622,90,4,4.6,DAAP 080100Z 09004KT CAVOK 30/05 Q1011,2024-08-08T01:00:00Z,30,5,6+,29.85
DAAJ,24.286,9.464,140,5,5.75,DAAJ 080100Z 14005KT CAVOK 27/M03 Q1014,2024-08-08T01:00:00Z,27,-3,6+,29.94
DAAE,36.712,5.07,260,9,10.36,DAAE 080100Z 26009KT CAVOK 26/15 Q1010,2024-08-08T01:00:00Z,26,15,6+,29.82
CZZJ,53.583,-116.462,70,8,9.21,CZZJ 080100Z AUTO 07008KT 19/09 RMK AO1 SLP267 T01880088 56007,2024-08-08T01:00:00Z,18.8,8.8,,
CZVL,53.67,-113.863,250,4,4.6,CZVL 080100Z AUTO 25004KT 9SM FEW047 SCT071 18/10 A3027 RMK PCPN 1.2MM PAST HR SLP259 DENSITY ALT 2700FT,2024-08-08T01:00:00Z,18,10,9,30.27
CZTB,48.369,-89.327,230,5,5.75,CZTB 080100Z AUTO 23005KT 21/14 RMK AO1 SLP115 T02050137 55004,2024-08-08T01:00:00Z,20.5,13.7,,
CZST,55.935,-129.984,220,4,4.6,CZST 080100Z 22004KT 160V260 15SM SKC 23/12 A3009 RMK HZ IN ATMOS LAST STFD OBS / NEXT 08 1300Z SLP190 DENSITY ALT 800FT,2024-08-08T01:00:00Z,23,12,15,30.09
CZSP,46.45,-62.576,230,6,6.9,CZSP 080100Z AUTO 23006KT 17/14 RMK AO1 SLP157 T01710140 53016,2024-08-08T01:00:00Z,17.1,14,,
CZSM,60.026,-111.929,90,3,3.45,CZSM 080100Z AUTO 09003KT 23/06 RMK AO1 SLP258 T02320062 56010,2024-08-08T01:00:00Z,23.2,6.2,,
CZSJ,53.063,-93.344,30,7,8.06,CZSJ 080100Z AUTO 03007KT 9SM OVC060 12/10 A2994 RMK SLP149,2024-08-08T01:00:00Z,12,10,9,29.94
CZRP,75.377,-105.715,260,16,18.41,CZRP 080100Z AUTO 26016KT 17/12 RMK AO1 PK WND 24025/0041 SLP011 T01700119 56020,2024-08-08T01:00:00Z,17,11.9,,
CZPC,49.522,-114.005,0,0,0.0,CZPC 080100Z AUTO 00000KT 9SM CLR 16/09 A3032 RMK SLP267 DENSITY ALT 4500FT,2024-08-08T01:00:00Z,16,9,9,30.32
CZOL,53.642,-113.364,90,2,2.3,CZOL 080100Z AUTO 09002KT 19/12 RMK AO1 T01850115,2024-08-08T01:00:00Z,18.5,11.5,,
CZMU,53.563,-112.296,360,4,4.6,CZMU 080100Z AUTO 36004KT 16/11 RMK AO1 T01600112,2024-08-08T01:00:00Z,16,11.2,,
CZMJ,50.332,-105.538,30,11,12.66,CZMJ 080100Z AUTO 03011KT 17/02 RMK AO1 PK WND 05017/0045 SLP255 T01690015 53005,2024-08-08T01:00:00Z,16.9,1.5,,
CZMD,53.439,-91.766,30,13,14.96,CZMD 080100Z AUTO 03013G18KT 9SM FEW055 OVC070 13/08 A2996 RMK SLP155,2024-08-08T01:00:00Z,13,8,9,29.96
CZKD,56.037,-96.51,20,9,10.36,CZKD 080100Z AUTO 02009G15KT 18/06 RMK AO1 SLP212 T01770061 53002,2024-08-08T01:00:00Z,17.7,6.1,,
CZHY,60.839,-115.781,90,3,3.45,CZHY 080100Z AUTO 09003KT 25/12 RMK AO1 SLP226 T02510117 57011,2024-08-08T01:00:00Z,25.1,11.7,,
CZFS,61.76,-121.23,120,10,11.51,CZFS 080100Z AUTO 12010G15KT 30/11 RMK AO1 PK WND 12018/0008 SLP183 T02960107 56013,2024-08-08T01:00:00Z,29.6,10.7,,
CZFA,62.211,-133.385,0,0,0.0,CZFA 080100Z 00000KT 30SM SKC 29/08 A3004 RMK FU LAST STFD OBS/NXT 081300Z SLP180 DENSITY ALT 4400FT,2024-08-08T01:00:00Z,29,8,30,30.04
CZEV,68.313,-133.496,180,5,5.75,CZEV 080100Z AUTO 18005KT 35/10 RMK AO1 SLP102 T03460095 57009,2024-08-08T01:00:00Z,34.6,9.5,,
CZEL,43.642,-80.412,100,4,4.6,CZEL 080100Z AUTO 10004KT 17/12 RMK AO1 SLP164 T01710124 52002,2024-08-08T01:00:00Z,17.1,12.4,,
CZDB,45.422,-63.466,280,5,5.75,CZDB 080100Z AUTO 28005KT 16/12 RMK AO1 SLP167 T01610117 53015,2024-08-08T01:00:00Z,16.1,11.7,,
CZCR,47.99,-66.334,230,4,4.6,CZCR 080100Z AUTO 23004KT 14/07 RMK AO1 T01370073,2024-08-08T01:00:00Z,13.7,7.3,,
CZBF,47.628,-65.746,280,4,4.6,CZBF 080100Z AUTO 28004KT 9SM CLR 16/07 A3003 RMK SLP172,2024-08-08T01:00:00Z,16,7,9,30.03
CYZY,55.303,-123.135,80,4,4.6,CYZY 080100Z AUTO 08004KT 040V110 9SM OVC120 27/09 A3014 RMK SLP213 DENSITY ALT 4000FT,2024-08-08T01:00:00Z,27,9,9,30.14
CYZX,44.985,-64.912,230,6,6.9,CYZX 080100Z 23006KT 15SM FEW035 17/13 A3005 RMK SC1 DENSITY ALT 355FT SLP176,2024-08-08T01:00:00Z,17,13,15,30.05
CYZW,60.175,-132.734,170,5,5.75,CYZW 080100Z 17005KT 30SM FEW055 27/09 A3011 RMK SC1 FU/LAST STFD OBS/NXT 081300Z SLP206 DENSITY ALT 4000FT,2024-08-08T01:00:00Z,27,9,30,30.11
CYZV,50.217,-66.26,250,5,5.75,CYZV 080100Z 25005KT 15SM FEW050 BKN120 13/08 A2994 RMK CU1AC5 CU TR SLP143,2024-08-08T01:00:00Z,13,8,15,29.94
CYZU,54.142,-115.785,240,3,3.45,CYZU 080100Z 24003KT 15SM FEW044TCU SCT110 SCT240 19/12 A3028 RMK TCU1AC2CI1 SLP263 DENSITY ALT 3200FT,2024-08-08T01:00:00Z,19,12,15,30.28
CYZT,50.685,-127.369,340,7,8.06,CYZT 080100Z 34007KT 15SM FEW010 SCT240 17/13 A3016 RMK SC2CI2 HZ FG BANK OFSHR DIST N SLP215,2024-08-08T01:00:00Z,17,13,15,30.16
CYZS,64.188,-83.351,330,7,8.06,CYZS 080100Z 33007KT 15SM BKN210 15/06 A2999 RMK CI5 SLP162,2024-08-08T01:00:00Z,15,6,15,29.99
CYZR,42.995,-82.307,50,5,5.75,CYZR 080100Z AUTO 05005KT 9SM CLR 19/17 A2996 RMK SLP146 DENSITY ALT 1200FT,2024-08-08T01:00:00Z,19,17,9,29.96
CYZP,53.254,-131.814,100,5,5.75,CYZP 080100Z AUTO 10005KT 9SM CLR 20/15 A3018 RMK SLP223 DENSITY ALT 400FT,2024-08-08T01:00:00Z,20,15,9,30.18
CYZH,55.293,-114.773,VRB,5,5.75,CYZH 080100Z AUTO VRB05KT 9SM CLR 22/10 A3026 RMK SLP257 DENSITY ALT 2800FT,2024-08-08T01:00:00Z,22,10,9,30.26
CYZF,62.475,-114.448,140,11,12.66,CYZF 080100Z 14011KT 15SM FEW240 21/06 A3025 RMK CI1 CI TR SLP252 DENSITY ALT 1300FT,2024-08-08T01:00:00Z,21,6,15,30.25
CYZE,45.885,-82.57,170,2,2.3,CYZE 080100Z AUTO 17002KT 9SM CLR 18/10 A3001 RMK SLP166 DENSITY ALT 1000FT,2024-08-08T01:00:00Z,18,10,9,30.01
CYYZ,43.679,-79.629,100,4,4.6,CYYZ 080100Z 10004KT 15SM FEW180 BKN250 21/14 A3000 RMK AC2CI3 SLP160 DENSITY ALT 1400FT,2024-08-08T01:00:00Z,21,14,15,30.00
CYYY,48.609,-68.208,200,7,8.06,CYYY 080100Z 20007KT 30SM FEW075 16/07 A3001 RMK AC1 SLP164,2024-08-08T01:00:00Z,16,7,30,30.01
CYYU,49.416,-82.47,90,3,3.45,CYYU 080100Z 09003KT 15SM SCT077 BKN110 BKN130 19/12 A2998 RMK AC3AC3AC1 SLP157 DENSITY ALT 1400FT,2024-08-08T01:00:00Z,19,12,15,29.98
CYYT,47.627,-52.748,250,15,17.26,CYYT 080100Z 25015KT 15SM BKN200 17/15 A2990 RMK CI5 SLP128 DENSITY ALT 800FT,2024-08-08T01:00:00Z,17,15,15,29.90
CYYR,53.32,-60.417,240,8,9.21,CYYR 080100Z 24008KT 15SM FEW025 SCT035 BKN045 BKN250 13/11 A2972 RMK SC1SC2SC2CI2 DENSITY ALT 329FT SLP066,2024-08-08T01:00:00Z,13,11,15,29.72
CYYQ,58.745,-94.074,40,8,9.21,CYYQ 080100Z 04008KT 15SM BKN085 11/08 A3019 RMK AC7 SLP226,2024-08-08T01:00:00Z,11,8,15,30.19
CYYN,50.292,-107.691,60,4,4.6,CYYN 080100Z AUTO 06004KT 7SM BKN055 BKN079 16/08 A3026 RMK SLP253 DENSITY ALT 3100FT,2024-08-08T01:00:00Z,16,8,7,30.26
CYYL,56.863,-101.073,10,6,6.9,CYYL 080100Z AUTO 01006KT 9SM OVC066 16/06 A3024 RMK SLP254,2024-08-08T01:00:00Z,16,6,9,30.24
CYYJ,48.642,-123.433,130,5,5.75,CYYJ 080100Z 13005KT 30SM FEW035 FEW250 24/14 A3004 RMK CU1CI1 CU TR SLP173 DENSITY ALT 1000FT,2024-08-08T01:00:00Z,24,14,30,30.04
CYYH,69.543,-93.568,210,8,9.21,CYYH 080100Z 21008KT 15SM FEW170 FEW240 11/07 A3006 RMK AC1CI1 AC TR CI TR SLP182,2024-08-08T01:00:00Z,11,7,15,30.06
CYYG,46.289,-63.128,290,7,8.06,CYYG 080100Z 29007KT 240V300 15SM FEW050 17/13 A3000 RMK SC2 SLP160 DENSITY ALT 400FT,2024-08-08T01:00:00Z,17,13,15,30.00
CYYF,49.46,-119.606,360,9,10.36,CYYF 080100Z 36009KT 15SM FEW080 31/12 A3000 RMK CU1 CU TR SLP154 DENSITY ALT 3100FT,2024-08-08T01:00:00Z,31,12,15,30.00
CYYE,58.839,-122.59,160,3,3.45,CYYE 080100Z 16003KT 130V210 30SM SKC 29/09 A3011 RMK SLP203 DENSITY ALT 3000FT,2024-08-08T01:00:00Z,29,9,30,30.11
CYYD,54.823,-127.185,270,7,8.06,CYYD 080100Z 27007KT 25SM FEW080 30/07 A3010 RMK CU1 CU TR SLP192 DENSITY ALT 3700FT,2024-08-08T01:00:00Z,30,7,25,30.10
CYYC,51.116,-114.011,160,3,3.45,CYYC 080100Z 16003KT 120V200 6SM FU BKN077 BKN120 17/06 A3031 RMK AC5AC2 SLP275 DENSITY ALT 4300FT,2024-08-08T01:00:00Z,17,6,6,30.31
CYYB,46.365,-79.423,60,4,4.6,CYYB 080100Z 06004KT 20SM FEW200 SCT280 18/10 A3003 RMK CI2CI2 SLP174 DENSITY ALT 1800FT,2024-08-08T01:00:00Z,18,10,20,30.03
CYXY,60.71,-135.059,140,10,11.51,CYXY 080100Z 14010G17KT 40SM SKC 28/08 A3007 RMK SLP190 DENSITY ALT 4200FT,2024-08-08T01:00:00Z,28,8,40,30.07
CYXX,49.027,-122.377,230,5,5.75,CYXX 080100Z 23005KT 190V260 30SM SCT230 26/16 A3003 RMK CI3 SLP170 DENSITY ALT 1400FT,2024-08-08T01:00:00Z,26,16,30,30.03
CYXU,43.039,-81.162,60,6,6.9,CYXU 080100Z 06006KT 15SM FEW180 FEW240 18/10 A2998 RMK AC1CI1 AC TR CI TR SLP155 DENSITY ALT 1400FT,2024-08-08T01:00:00Z,18,10,15,29.98
CYXT,54.471,-128.577,270,5,5.75,CYXT 080100Z 27005KT 20SM FEW080 31/09 A3007 RMK AC1 AC TR SLP186 DENSITY ALT 2600FT,2024-08-08T01:00:00Z,31,9,20,30.07
CYXS,53.884,-122.677,VRB,3,3.45,CYXS 080100Z AUTO VRB03KT 9SM CLR 26/09 A3014 RMK SLP216 DENSITY ALT 3800FT,2024-08-08T01:00:00Z,26,9,9,30.14
CYXR,47.698,-79.852,150,5,5.75,CYXR 080100Z AUTO 15005KT 9SM SCT130 BKN150 OVC190 18/12 A3001 RMK SLP169 DENSITY ALT 1300FT,2024-08-08T01:00:00Z,18,12,9,30.01
CYXJ,56.247,-120.737,100,10,11.51,CYXJ 080100Z 10010KT 15SM FEW060 25/09 A3020 RMK FU1CU1 SLP236 DENSITY ALT 3700FT,2024-08-08T01:00:00Z,25,9,15,30.20
CYXH,50.018,-110.717,350,12,13.81,CYXH 080100Z 35012G18KT 10SM FEW065 SCT150 BKN270 18/09 A3025 RMK CU2AC1CI3 SLP250 DENSITY ALT 2900FT,2024-08-08T01:00:00Z,18,9,10+,30.25
CYXE,52.172,-106.695,30,5,5.75,CYXE 080100Z 03005KT 12SM SCT060 16/05 A3027 RMK CU3 FU SLP263,2024-08-08T01:00:00Z,16,5,12,30.27
CYXC,49.614,-115.784,90,4,4.6,CYXC 080100Z 09004KT 060V120 25SM FEW070 FEW120 SCT160 22/08 A3019 RMK CU1AC1AC1 SLP217 DENSITY ALT 4300FT,2024-08-08T01:00:00Z,22,8,25,30.19
CYWL,52.186,-122.066,290,6,6.9,CYWL 080100Z 29006KT 260V340 15SM FEW090 25/02 A3017 RMK CU1 CU TR SLP215 DENSITY ALT 4700FT,2024-08-08T01:00:00Z,25,2,15,30.17
CYWK,52.927,-66.874,280,4,4.6,CYWK 080100Z 28004KT 15SM FEW025 BKN045 09/08 A2987 RMK SC1CU5 SLP133,2024-08-08T01:00:00Z,9,8,15,29.87
CYWH,48.423,-123.387,220,6,6.9,CYWH 080100Z 22006KT 15SM FEW050 FEW240 18/12 A3005 RMK CU1CI2 CU TR SLP179,2024-08-08T01:00:00Z,18,12,15,30.05
CYWG,49.916,-97.249,320,16,18.41,CYWG 080100Z 32016G23KT 15SM FEW065 SCT250 17/09 A2998 RMK SC1CI3 SC TR SLP156 DENSITY ALT 1100FT,2024-08-08T01:00:00Z,17,9,15,29.98
CYWE,64.192,-114.078,210,9,10.36,CYWE 080100Z AUTO 21009G16KT 9SM FEW047 23/06 A3021 RMK SLP243 DENSITY ALT 2200FT,2024-08-08T01:00:00Z,23,6,9,30.21
CYWA,45.948,-77.311,140,6,6.9,CYWA 080100Z 14006KT 15SM FEW210 20/10 A3005 RMK CI2 DENSITY ALT 1146FT SLP177,2024-08-08T01:00:00Z,20,10,15,30.05
CYVT,55.842,-108.418,VRB,2,2.3,CYVT 080100Z AUTO VRB02KT 9SM CLR 19/05 A3029 RMK SLP270 DENSITY ALT 1800FT,2024-08-08T01:00:00Z,19,5,9,30.29
CYVR,49.183,-123.168,280,8,9.21,CYVR 080100Z 28008KT 30SM FEW240 23/18 A3003 RMK CI1 SLP172 DENSITY ALT 800FT,2024-08-08T01:00:00Z,23,18,30,30.03
CYVQ,65.278,-126.796,130,11,12.66,CYVQ 080100Z 13011KT 25SM SKC 33/12 A2989 RMK SLP127 DENSITY ALT 2400FT,2024-08-08T01:00:00Z,33,12,25,29.89
CYVP,58.1,-68.415,260,3,3.45,CYVP 080100Z 26003KT 15SM FEW018 BKN027 OVC042 08/08 A2987 RMK SC2SC5SC1 SLP118,2024-08-08T01:00:00Z,8,8,15,29.87
CYVO,48.056,-77.779,230,3,3.45,CYVO 080100Z 23003KT 15SM FEW050 BKN150 BKN250 18/10 A3005 RMK SC1AC5CI1 SC TR SLP184 DENSITY ALT 1600FT,2024-08-08T01:00:00Z,18,10,15,30.05
CYVM,67.552,-64.026,80,2,2.3,CYVM 080100Z AUTO 08002KT 9SM SCT180 BKN200 BKN220 BKN240 07/03 A2973 RMK SLP069,2024-08-08T01:00:00Z,7,3,9,29.73
CYVL,67.021,-126.129,210,4,4.6,CYVL 080100Z AUTO 21004KT 180V240 6SM HZ CLR 30/13 A2994 RMK SLP148 DENSITY ALT 2800FT,2024-08-08T01:00:00Z,30,13,6,29.94
CYVC,55.15,-105.264,330,4,4.6,CYVC 080100Z 33004KT 5SM FU BKN077 15/07 A3030 RMK FU2AC3 SLP274,2024-08-08T01:00:00Z,15,7,5,30.30
CYUY,48.209,-78.83,VRB,2,2.3,CYUY 080100Z VRB02KT 15SM BKN130 BKN220 18/11 A3003 RMK AC7CI1 CI TR SLP176 DENSITY ALT 1500FT,2024-08-08T01:00:00Z,18,11,15,30.03
CYUX,68.772,-81.233,310,15,17.26,CYUX 080100Z AUTO 31015KT 9SM SCT096 OVC140 13/09 A2990 RMK SLP129,2024-08-08T01:00:00Z,13,9,9,29.90
CYUL,45.468,-73.742,150,5,5.75,CYUL 080100Z 15005KT 15SM FEW250 23/11 A3004 RMK CI2 CONTRAILS SLP174 DENSITY ALT 900FT,2024-08-08T01:00:00Z,23,11,15,30.04
CYUB,69.434,-133.026,160,8,9.21,CYUB 080100Z 16008KT 15SM SCT250 30/15 A2978 RMK CI3 SLP086 DENSITY ALT 1900FT,2024-08-08T01:00:00Z,30,15,15,29.78
CYTZ,43.627,-79.397,90,8,9.21,CYTZ 080100Z AUTO 09008KT 050V120 9SM CLR 22/15 A2999 RMK SLP157 DENSITY ALT 1100FT,2024-08-08T01:00:00Z,22,15,9,29.99
CYTS,48.568,-81.378,130,2,2.3,CYTS 080100Z 13002KT 15SM BKN120 BKN150 18/11 A3001 RMK AC5AC2 SLP167 DENSITY ALT 1400FT,2024-08-08T01:00:00Z,18,11,15,30.01
CYTR,44.115,-77.531,50,5,5.75,CYTR 080100Z 05005KT 030V090 15SM FEW250 18/12 A3001 RMK CI1 DENSITY ALT 830FT SLP164,2024-08-08T01:00:00Z,18,12,15,30.01
CYTL,53.816,-89.892,60,8,9.21,CYTL 080100Z AUTO 06008KT 9SM OVC066 13/08 A2998 RMK SLP162,2024-08-08T01:00:00Z,13,8,9,29.98
CYTH,55.803,-97.846,360,6,6.9,CYTH 080100Z 36006KT 15SM FEW054 BKN081 16/08 A3014 RMK SC1AC7 SC TR SLP217,2024-08-08T01:00:00Z,16,8,15,30.14
CYTE,64.23,-76.528,350,8,9.21,CYTE 080100Z AUTO 35008KT 9SM CLR 13/04 A2986 RMK SLP116,2024-08-08T01:00:00Z,13,4,9,29.86
CYSN,43.192,-79.176,90,5,5.75,CYSN 080100Z 09005KT 15SM SCT250 18/11 A2998 RMK CI3 LAST STFD OBS/NEXT 081100Z SLP153 DENSITY ALT 700FT,2024-08-08T01:00:00Z,18,11,15,29.98
CYSM,60.026,-111.929,90,5,5.75,CYSM 080100Z 09005KT 060V160 15SM FEW030 23/06 A3027 RMK FU1 FU TR LAST STFD OBS / NXT 08 1300Z SLP258 DENSITY ALT 1400FT,2024-08-08T01:00:00Z,23,6,15,30.27
CYSJ,45.309,-65.886,200,5,5.75,CYSJ 080100Z 20005KT 15SM SKC 14/12 A3003 RMK SLP174,2024-08-08T01:00:00Z,14,12,15,30.03
CYSF,59.252,-105.837,,,,CYSF 080100Z AUTO /////KT 9SM OVC071 21/07 A3029 RMK WIND MISG SLP267 DENSITY ALT 1300FT,2024-08-08T01:00:00Z,21,7,9,30.29
CYSC,45.44,-71.692,VRB,2,2.3,CYSC 080100Z AUTO VRB02KT 9SM CLR 15/11 A3008 RMK SLP189,2024-08-08T01:00:00Z,15,11,9,30.08
CYSB,46.622,-80.799,150,6,6.9,CYSB 080100Z 15006KT 20SM FEW170 BKN250 19/07 A3004 RMK AC2CI3 SLP174 DENSITY ALT 1800FT,2024-08-08T01:00:00Z,19,7,20,30.04
CYRV,50.958,-118.176,350,5,5.75,CYRV 080100Z AUTO 35005KT 290V010 9SM SCT150 29/10 A3003 RMK SLP166 DENSITY ALT 3300FT,2024-08-08T01:00:00Z,29,10,9,30.03
CYRT,62.811,-92.1,350,11,12.66,CYRT 080100Z 35011G16KT 15SM FEW053 SCT250 18/09 A3014 RMK SC2CI1 SLP210,2024-08-08T01:00:00Z,18,9,15,30.14
CYRQ,46.358,-72.68,0,0,0.0,CYRQ 080100Z AUTO 00000KT 9SM CLR 16/13 A3006 RMK SLP183,2024-08-08T01:00:00Z,16,13,9,30.06
CYRJ,48.523,-72.266,240,3,3.45,CYRJ 080100Z 24003KT 25SM FEW040 SCT062 BKN100 13/11 A3003 RMK SC1SC4AC1 SC TR SLP176,2024-08-08T01:00:00Z,13,11,25,30.03
CYRB,74.713,-94.982,110,8,9.21,CYRB 080100Z 11008KT 30SM SCT220 06/04 A2971 RMK CI4 SLP068,2024-08-08T01:00:00Z,6,4,30,29.71
CYQZ,53.027,-122.506,20,4,4.6,CYQZ 080100Z AUTO 02004KT 320V040 9SM CLR 28/07 A3011 RMK SLP202 DENSITY ALT 3500FT,2024-08-08T01:00:00Z,28,7,9,30.11
CYQY,46.166,-60.049,230,6,6.9,CYQY 080100Z 23006KT 15SM SCT085 SCT220 17/13 A2998 RMK AC3CI1 SLP154 DENSITY ALT 500FT,2024-08-08T01:00:00Z,17,13,15,29.98
CYQX,48.946,-54.576,250,8,9.21,CYQX 080100Z 25008KT 15SM SCT080 BKN110 17/09 A2985 RMK AC3AC3 SLP111 DENSITY ALT 1000FT,2024-08-08T01:00:00Z,17,9,15,29.85
CYQW,52.769,-108.251,100,7,8.06,CYQW 080100Z AUTO 10007KT 030V120 9SM CLR 18/05 A3030 RMK SLP271 DENSITY ALT 2200FT,2024-08-08T01:00:00Z,18,5,9,30.30
CYQV,51.26,-102.461,20,22,25.32,CYQV 080100Z AUTO 02022G30KT 9SM FEW031 BKN081 13/08 A3019 RMK SLP240,2024-08-08T01:00:00Z,13,8,9,30.19
CYQU,55.182,-118.882,100,10,11.51,CYQU 080100Z 10010KT 080V150 15SM FEW060 24/09 A3023 RMK CU1 CU TR SLP245 DENSITY ALT 3400FT,2024-08-08T01:00:00Z,24,9,15,30.23
CYQT,48.374,-89.33,220,7,8.06,CYQT 080100Z 22007KT 20SM BKN070 OVC220 20/14 A2986 RMK AC7CI1 SLP115 DENSITY ALT 1600FT,2024-08-08T01:00:00Z,20,14,20,29.86
CYQR,50.427,-104.67,360,16,18.41,CYQR 080100Z 36016G21KT 15SM FEW048 FEW160 FEW280 16/04 A3024 RMK CU1AC1CI1 AC TR CI TR SLP253 DENSITY ALT 2100FT,2024-08-08T01:00:00Z,16,4,15,30.24
CYQQ,49.712,-124.895,40,4,4.6,CYQQ 080100Z 04004KT 20SM FEW050 SCT250 26/14 A3006 RMK CU1CI4 DENSITY ALT 1421FT FU SLP178,2024-08-08T01:00:00Z,26,14,20,30.06
CYQM,46.107,-64.682,230,7,8.06,CYQM 080100Z 23007KT 15SM BKN030 20/12 A3000 RMK CU7 SLP162 DENSITY ALT 800FT,2024-08-08T01:00:00Z,20,12,15,30.00
CYQL,49.627,-112.792,0,0,0.0,CYQL 080100Z 00000KT 8SM SCT037 BKN075 BKN100 18/10 A3029 RMK FU1SC2AC3AC1 SLP260 DENSITY ALT 3700FT,2024-08-08T01:00:00Z,18,10,8,30.29
CYQK,49.791,-94.361,320,7,8.06,CYQK 080100Z 32007KT 20SM BKN022TCU BKN200 16/12 A2988 RMK TCU6CI1 SLP124 DENSITY ALT 1900FT,2024-08-08T01:00:00Z,16,12,20,29.88
CYQI,43.831,-66.088,250,6,6.9,CYQI 080100Z 25006KT 15SM SKC 13/13 A3006 RMK SLP182,2024-08-08T01:00:00Z,13,13,15,30.06
CYQH,60.116,-128.832,VRB,2,2.3,CYQH 080100Z VRB02KT 30SM SKC 29/06 A3011 RMK FU SLP201 DENSITY ALT 4200FT,2024-08-08T01:00:00Z,29,6,30,30.11
CYQG,42.269,-82.963,40,9,10.36,CYQG 080100Z AUTO 04009KT 9SM CLR 21/16 A2995 RMK SLP141 DENSITY ALT 1500FT,2024-08-08T01:00:00Z,21,16,9,29.95
CYQF,52.179,-113.903,70,3,3.45,CYQF 080100Z AUTO 07003KT 9SM BKN100 OVC120 15/12 A3030 RMK SLP277 DENSITY ALT 3300FT,2024-08-08T01:00:00Z,15,12,9,30.30
CYQD,53.975,-101.089,320,10,11.51,CYQD 080100Z AUTO 32010G18KT 9SM SCT086 BKN170 16/08 A3018 RMK SLP228,2024-08-08T01:00:00Z,16,8,9,30.18
CYQB,46.791,-71.396,VRB,2,2.3,CYQB 080100Z VRB02KT 15SM FEW070 SCT240 15/11 A3006 RMK AC1CI3 AC TR SLP182,2024-08-08T01:00:00Z,15,11,15,30.06
CYQA,44.971,-79.303,VRB,2,2.3,CYQA 080100Z AUTO VRB02KT 9SM CLR 16/12 A3002 RMK SLP168 DENSITY ALT 1200FT,2024-08-08T01:00:00Z,16,12,9,30.02
CYPY,58.766,-111.117,100,6,6.9,CYPY 080100Z AUTO 10006KT 060V140 9SM CLR 21/08 A3029 RMK SLP266 DENSITY ALT 1200FT,2024-08-08T01:00:00Z,21,8,9,30.29
CYPX,60.045,-77.281,300,12,13.81,CYPX 080100Z AUTO 30012KT 9SM BKN180 09/08 A2987 RMK SLP120,2024-08-08T01:00:00Z,9,8,9,29.87
CYPW,49.835,-124.499,280,6,6.9,CYPW 080100Z 28006KT 20SM BKN250 24/17 A3007 RMK CI5 FU ALF DIST W SLP183 DENSITY ALT 1500FT,2024-08-08T01:00:00Z,24,17,20,30.07
CYPR,54.291,-130.451,270,3,3.45,CYPR 080100Z AUTO 27003KT 220V300 3/8SM FG VV002 13/13 A3018 RMK SLP223,2024-08-08T01:00:00Z,13,13,0.38,30.18
CYPO,54.988,-85.439,20,6,6.9,CYPO 080100Z AUTO 02006KT 9SM CLR 11/05 A3003 RMK SLP171,2024-08-08T01:00:00Z,11,5,9,30.03
CYPH,58.47,-78.08,350,10,11.51,CYPH 080100Z AUTO 35010KT 9SM CLR 10/08 A2992 RMK SLP134,2024-08-08T01:00:00Z,10,8,9,29.92
CYPG,49.903,-98.284,310,15,17.26,CYPG 080100Z 31015G23KT 15SM FEW040 BKN075 BKN250 16/09 A3003 RMK SC1AC5CI1 DENSITY ALT 1201FT TCU ASOCTD SLP170,2024-08-08T01:00:00Z,16,9,15,30.03
CYPE,56.228,-117.453,200,3,3.45,CYPE 080100Z AUTO 20003KT 160V220 9SM OVC100 23/11 A3024 RMK SLP250 DENSITY ALT 2900FT,2024-08-08T01:00:00Z,23,11,9,30.24
CYPD,45.657,-61.374,220,4,4.6,CYPD 080100Z AUTO 22004KT 180V250 9SM SCT071 SCT081 18/14 A3000 RMK SLP162 DENSITY ALT 700FT,2024-08-08T01:00:00Z,18,14,9,30.00
CYPA,53.217,-105.679,350,7,8.06,CYPA 080100Z 35007KT 15SM BKN075 17/06 A3027 RMK AC6 SLP264,2024-08-08T01:00:00Z,17,6,15,30.27
CYOW,45.307,-75.66,110,4,4.6,CYOW 080100Z 11004KT 15SM FEW240 19/11 A3004 RMK CI1 SLP176 DENSITY ALT 800FT,2024-08-08T01:00:00Z,19,11,15,30.04
CYOO,43.921,-78.899,60,3,3.45,CYOO 080100Z AUTO 06003KT 9SM CLR 19/14 A3001 RMK SLP163 DENSITY ALT 1000FT,2024-08-08T01:00:00Z,19,14,9,30.01
CYOJ,58.628,-117.174,120,8,9.21,CYOJ 080100Z 12008KT 080V140 15SM FEW052 25/10 A3020 RMK CF1 CF TR LAST STFD OBS/NXT 081400Z SLP235 DENSITY ALT 2300FT,2024-08-08T01:00:00Z,25,10,15,30.20
CYOD,54.41,-110.287,50,7,8.06,CYOD 080100Z 05007KT 15SM SKC 20/05 A3030 RMK DENSITY ALT 2438FT SLP269,2024-08-08T01:00:00Z,20,5,15,30.30
CYNM,49.759,-77.793,10,6,6.9,CYNM 080100Z AUTO 01006KT 230V020 9SM FEW100 OVC130 18/10 A3001 RMK SLP169 DENSITY ALT 1400FT,2024-08-08T01:00:00Z,18,10,9,30.01
CYNE,53.958,-97.845,360,6,6.9,CYNE 080100Z AUTO 36006KT 320V030 9SM SCT071 BKN100 OVC120 13/ A3005 RMK DP MISG SLP187,2024-08-08T01:00:00Z,13,,9,30.05
CYND,45.52,-75.563,30,4,4.6,CYND 080100Z 03004KT 15SM FEW240 17/13 A3004 RMK CI1 LAST STFD OBS/NXT 081100Z SLP176,2024-08-08T01:00:00Z,17,13,15,30.04
CYNA,50.19,-61.789,280,13,14.96,CYNA 080100Z AUTO 28013G20KT 9SM FEW170 OVC190 09/06 A2985 RMK SLP109,2024-08-08T01:00:00Z,9,6,9,29.85
CYMX,45.68,-74.038,VRB,3,3.45,CYMX 080100Z VRB03KT 25SM SKC 15/12 A3005 RMK SLP177,2024-08-08T01:00:00Z,15,12,25,30.05
CYMT,49.779,-74.527,VRB,2,2.3,CYMT 080100Z AUTO VRB02KT 9SM FEW076 14/11 A3002 RMK SLP177,2024-08-08T01:00:00Z,14,11,9,30.02
CYMM,56.65,-111.221,160,4,4.6,CYMM 080100Z AUTO 16004KT 120V180 9SM CLR 22/06 A3028 RMK SLP263 DENSITY ALT 1900FT,2024-08-08T01:00:00Z,22,6,9,30.28
CYMH,52.304,-55.833,260,4,4.6,CYMH 080100Z AUTO 26004KT 9SM BKN076 14/12 A2969 RMK SLP056,2024-08-08T01:00:00Z,14,12,9,29.69
CYMA,63.616,-135.88,240,6,6.9,CYMA 080100Z 24006KT 160V290 20SM SKC 31/08 A2997 RMK SLP154 DENSITY ALT 3800FT,2024-08-08T01:00:00Z,31,8,20,29.97
CYLW,49.953,-119.375,320,9,10.36,CYLW 080100Z AUTO 32009G18KT 9SM CLR 30/07 A3003 RMK SLP165 DENSITY ALT 3400FT,2024-08-08T01:00:00Z,30,7,9,30.03
CYLL,53.312,-110.074,60,7,8.06,CYLL 080100Z 06007KT 15SM SKC 18/06 A3029 RMK SLP268 DENSITY ALT 2700FT,2024-08-08T01:00:00Z,18,6,15,30.29
CYLD,47.818,-83.358,300,2,2.3,CYLD 080100Z 30002KT 15SM SCT064 BKN130 18/10 A2999 RMK SC4AC2 LAST STFD OBS NEXT 08 1000 UTC SLP164 DENSITY ALT 2100FT,2024-08-08T01:00:00Z,18,10,15,29.99
CYKY,51.517,-109.175,90,3,3.45,CYKY 080100Z 09003KT 050V120 6SM FU FEW110 SCT240 16/09 A3027 RMK AC1CI3 SLP261 DENSITY ALT 2500FT,2024-08-08T01:00:00Z,16,9,6,30.27
CYKJ,57.256,-105.618,330,4,4.6,CYKJ 080100Z AUTO 33004KT 9SM CLR 18/03 A3029 RMK SLP275 DENSITY ALT 2100FT,2024-08-08T01:00:00Z,18,3,9,30.29
CYKF,43.462,-80.386,110,5,5.75,CYKF 080100Z AUTO 11005KT 9SM CLR 17/13 A3001 RMK SLP164 DENSITY ALT 1500FT,2024-08-08T01:00:00Z,17,13,9,30.01
CYKA,50.704,-120.444,330,4,4.6,CYKA 080100Z 33004KT 310V040 40SM FEW120 32/04 A3001 RMK CU2 SLP162 DENSITY ALT 3200FT,2024-08-08T01:00:00Z,32,4,40,30.01
CYJT,48.545,-58.564,300,5,5.75,CYJT 080100Z 30005KT 15SM SCT075 16/11 A2989 RMK AC4 SLP125 DENSITY ALT 300FT,2024-08-08T01:00:00Z,16,11,15,29.89
CYIO,72.694,-77.957,230,12,13.81,CYIO 080100Z AUTO 23012G19KT 9SM CLR 14/08 A2973 RMK SLP073,2024-08-08T01:00:00Z,14,8,9,29.73
CYIN,51.265,-121.681,360,9,10.36,CYIN 080100Z AUTO 36009KT 310V020 9SM FEW096 25/03 A3018 RMK SLP216 DENSITY ALT 5400FT,2024-08-08T01:00:00Z,25,3,9,30.18
CYHZ,44.8781,-63.5136,210,8,9.21,CYHZ 080100Z 21008KT 15SM SKC 16/14 A3004 RMK SLP175,2024-08-08T01:00:00Z,16,14,15,30.04
CYHY,60.839,-115.781,70,6,6.9,CYHY 080100Z CCA 07006KT 14SM SKC 25/12 A3018 RMK FU SLP228 DENSITY ALT 1600FT,2024-08-08T01:00:00Z,25,12,14,30.18
CYHM,43.173,-79.936,60,9,10.36,CYHM 080100Z 06009KT 15SM FEW150 FEW250 17/12 A3000 RMK AC1CI2 AC TR SLP159 DENSITY ALT 1200FT,2024-08-08T01:00:00Z,17,12,15,30.00
CYHK,68.633,-95.851,220,11,12.66,CYHK 080100Z AUTO 22011KT 9SM CLR 13/08 A3009 RMK SLP196,2024-08-08T01:00:00Z,13,8,9,30.09
CYHE,49.37,-121.493,290,10,11.51,CYHE 080100Z AUTO 29010G19KT 260V320 9SM CLR 27/18 A2999 RMK SLP157 DENSITY ALT 1500FT,2024-08-08T01:00:00Z,27,18,9,29.99
CYHD,49.83,-92.74,290,8,9.21,CYHD 080100Z AUTO 29008KT 9SM SCT041 19/14 A2982 RMK SLP105 DENSITY ALT 2300FT,2024-08-08T01:00:00Z,19,14,9,29.82
CYGX,56.359,-94.704,50,8,9.21,CYGX 080100Z 05008G15KT 15SM FEW071 BKN240 17/08 A3012 RMK AC1CC5 SLP207 DENSITY ALT 700FT,2024-08-08T01:00:00Z,17,8,15,30.12
CYGW,55.283,-77.76,230,7,8.06,CYGW 080100Z AUTO 23007KT 9SM BKN014 OVC021 08/06 A3001 RMK SLP164,2024-08-08T01:00:00Z,8,6,9,30.01
CYGV,50.286,-63.606,270,12,13.81,CYGV 080100Z AUTO 27012G21KT 9SM SCT076 SCT140 BKN170 OVC200 12/09 A2988 RMK SLP122,2024-08-08T01:00:00Z,12,9,9,29.88
CYGR,47.425,-61.775,340,13,14.96,CYGR 080100Z 34013KT 15SM FEW270 18/14 A2995 RMK CI1 CI TR SLP146 DENSITY ALT 400FT,2024-08-08T01:00:00Z,18,14,15,29.95
CYGP,48.777,-64.478,280,5,5.75,CYGP 080100Z 28005KT 200V330 15SM FEW062 13/07 A2996 RMK SC1 SC TR SLP148,2024-08-08T01:00:00Z,13,7,15,29.96
CYGL,53.625,-77.7,300,3,3.45,CYGL 080100Z 30003KT 15SM BKN023 11/07 A3001 RMK SC7 SLP173,2024-08-08T01:00:00Z,11,7,15,30.01
CYGK,44.223,-76.599,40,5,5.75,CYGK 080100Z 04005KT 15SM FEW250 21/11 A3003 RMK CI2 SLP170 DENSITY ALT 1000FT,2024-08-08T01:00:00Z,21,11,15,30.03
CYFS,61.76,-121.23,150,9,10.36,CYFS 080100Z 15009KT 090V170 15SM FEW250 30/11 A3006 RMK FU1CI1 CI TR LAST STFD OBS/NXT 1330Z SLP183 DENSITY ALT 2300FT,2024-08-08T01:00:00Z,30,11,15,30.06
CYFC,45.873,-66.539,330,4,4.6,CYFC 080100Z AUTO 33004KT 190V350 9SM CLR 16/13 A3001 RMK SLP164,2024-08-08T01:00:00Z,16,13,9,30.01
CYFB,63.75,-68.544,0,0,0.0,CYFB 080100Z 00000KT 30SM FEW035 SCT079 11/03 A2976 RMK SC1AC2 SLP080,2024-08-08T01:00:00Z,11,3,30,29.76
CYEV,68.309,-133.5,190,9,10.36,CYEV 080100Z 19009KT 150V220 15SM FEW270 34/10 A2980 RMK CI2 SLP096 DENSITY ALT 2600FT,2024-08-08T01:00:00Z,34,10,15,29.80
CYET,53.58,-116.455,70,8,9.21,CYET 080100Z AUTO 07008KT 010V100 9SM CLR 19/09 A3028 RMK SLP268 DENSITY ALT 3800FT,2024-08-08T01:00:00Z,19,9,9,30.28
CYER,56.019,-87.675,20,4,4.6,CYER 080100Z AUTO 02004KT 9SM FEW240 09/07 A3007 RMK SLP185,2024-08-08T01:00:00Z,9,7,9,30.07
CYEN,49.207,-102.963,360,13,14.96,CYEN 080100Z AUTO 36013G18KT 9SM SCT210 BKN230 17/05 A3017 RMK SLP225 DENSITY ALT 2300FT,2024-08-08T01:00:00Z,17,5,9,30.17
CYEK,61.098,-94.072,170,3,3.45,CYEK 080100Z AUTO 17003KT 090V180 9SM FEW060 14/10 A3018 RMK SLP223,2024-08-08T01:00:00Z,14,10,9,30.18
CYEG,53.308,-113.592,VRB,2,2.3,CYEG 080100Z VRB02KT 15SM SCT050CB BKN092 20/11 A3028 RMK CB3AC2 CB E MOV W DIST SH N-E SLP265 DENSITY ALT 3200FT,2024-08-08T01:00:00Z,20,11,15,30.28
CYDQ,55.741,-120.188,150,9,10.36,CYDQ 080100Z AUTO 15009KT 9SM CLR 25/07 A3019 RMK SLP234 DENSITY ALT 3600FT,2024-08-08T01:00:00Z,25,7,9,30.19
CYDN,51.1,-100.057,330,9,10.36,CYDN 080100Z AUTO 33009KT 9SM FEW024 BKN055 BKN069 13/09 A3011 RMK SLP204,2024-08-08T01:00:00Z,13,9,9,30.11
CYDL,58.426,-130.025,230,9,10.36,CYDL 080100Z AUTO 23009KT 210V290 9SM CLR 27/08 A3016 RMK SLP207 DENSITY ALT 4400FT,2024-08-08T01:00:00Z,27,8,9,30.16
CYDF,49.212,-57.394,240,8,9.21,CYDF 080100Z 24008KT 15SM FEW045 FEW075 15/11 A2986 RMK SC1AC1 SLP113 DENSITY ALT 300FT,2024-08-08T01:00:00Z,15,11,15,29.86
CYDC,49.468,-120.514,360,7,8.06,CYDC 080100Z 36007KT 350V080 25SM FEW055 FEW085 30/04 A3006 RMK FU1AC1 FU TR FU SW/ LAST STFD OBS/ NEXT 08 1300Z SLP169 DENSITY ALT 4500FT,2024-08-08T01:00:00Z,30,4,25,30.06
CYDB,61.37,-139.032,120,14,16.11,CYDB 080100Z 12014G23KT 15SM FEW110 27/07 A3000 RMK AC1 LAST STFD OBS/NEXT 08 1300Z SLP175 DENSITY ALT 4500FT,2024-08-08T01:00:00Z,27,7,15,30.00
CYDA,64.044,-139.127,100,6,6.9,CYDA 080100Z 10006KT 050V140 20SM FEW230 31/07 A2991 RMK CI1 FU SLP135 DENSITY ALT 3300FT,2024-08-08T01:00:00Z,31,7,20,29.91
CYCY,70.484,-68.515,310,13,14.96,CYCY 080100Z AUTO 31013G18KT 9SM OVC046 09/06 A2970 RMK SLP061,2024-08-08T01:00:00Z,9,6,9,29.70
CYCX,45.839,-66.45,0,0,0.0,CYCX 080100Z 00000KT 15SM FEW070 16/15 A3001 RMK AC1 DENSITY ALT 452FT SLP161,2024-08-08T01:00:00Z,16,15,15,30.01
CYCQ,55.689,-121.62,30,4,4.6,CYCQ 080100Z 03004KT 360V060 35SM FEW060 FEW140 FEW240 27/07 A3014 RMK CU1AC1CI1 CU TR FU DIST S-W LAST STFD OBS/NXT 081300Z SLP217 DENSITY ALT 3600FT,2024-08-08T01:00:00Z,27,7,35,30.14
CYCP,52.129,-119.29,VRB,2,2.3,CYCP 080100Z VRB02KT 15SM FEW085 SCT100 27/06 A3010 RMK CU2AC1 LAST STFD OBS/NXT 081300Z SLP198 DENSITY ALT 4000FT,2024-08-08T01:00:00Z,27,6,15,30.10
CYCO,67.817,-115.135,240,8,9.21,CYCO 080100Z 24008KT 8SM SKC 23/10 A2999 RMK FU7 FU SLP160 DENSITY ALT 1000FT,2024-08-08T01:00:00Z,23,10,8,29.99
CYCK,42.307,-82.085,60,6,6.9,CYCK 080100Z AUTO 06006KT 9SM CLR 19/14 A2994 RMK SLP140 DENSITY ALT 1300FT,2024-08-08T01:00:00Z,19,14,9,29.94
CYCG,49.295,-117.634,340,4,4.6,CYCG 080100Z 34004KT 15SM FEW100 31/05 A2999 RMK CU1 FU SLP152 DENSITY ALT 3800FT,2024-08-08T01:00:00Z,31,5,15,29.99
CYCD,49.052,-123.874,30,6,6.9,CYCD 080100Z 03006KT 30SM FEW048 FEW250 27/15 A3004 RMK CU1CI2 CU TR SLP174 DENSITY ALT 1400FT,2024-08-08T01:00:00Z,27,15,30,30.04
CYCB,69.106,-105.116,230,7,8.06,CYCB 080100Z 23007KT 10SM FEW230 14/07 A3003 RMK CI1 FU ALF SLP172,2024-08-08T01:00:00Z,14,7,10+,30.03
CYBX,51.442,-57.188,300,5,5.75,CYBX 080100Z 30005KT 15SM FEW059 13/12 A2974 RMK SC2 SLP073,2024-08-08T01:00:00Z,13,12,15,29.74
CYBW,51.108,-114.382,40,3,3.45,CYBW 080100Z AUTO 04003KT 9SM OVC081 16/10 A3033 RMK SLP279 DENSITY ALT 4500FT,2024-08-08T01:00:00Z,16,10,9,30.33
CYBR,49.91,-99.945,360,11,12.66,CYBR 080100Z 36011G18KT 15SM SCT060 BKN250 15/07 A3008 RMK SC3CI3 SLP195,2024-08-08T01:00:00Z,15,7,15,30.08
CYBL,49.951,-125.269,110,3,3.45,CYBL 080100Z 11003KT 060V230 30SM FEW060 SCT260 27/17 A3006 RMK CU1CI4 CU TR SLP180 DENSITY ALT 1700FT,2024-08-08T01:00:00Z,27,17,30,30.06
CYBK,64.306,-96.078,360,10,11.51,CYBK 080100Z 36010KT 20SM FEW040 SCT230 20/09 A3019 RMK SC1CI3 SC TR SLP226 DENSITY ALT 400FT,2024-08-08T01:00:00Z,20,9,20,30.19
CYBG,48.331,-70.989,200,5,5.75,CYBG 080100Z 20005KT 25SM SCT080 13/09 A3004 RMK AC4 DENSITY ALT 405FT SLP176,2024-08-08T01:00:00Z,13,9,25,30.04
CYBD,52.388,-126.589,280,15,17.26,CYBD 080100Z 28015KT 15SM FEW090 24/16 A3005 RMK ACC1 ACC TR HZ LAST STFD OBS/NXT 081300Z/ SLP178 DENSITY ALT 1100FT,2024-08-08T01:00:00Z,24,16,15,30.05
CYAZ,49.08,-125.767,290,8,9.21,CYAZ 080100Z 29008KT 15SM FEW230 18/15 A3009 RMK CI2 FG OFSHR LAST STFD OBS/NXT 081300Z SLP192 DENSITY ALT 300FT,2024-08-08T01:00:00Z,18,15,15,30.09
CYAY,51.39,-56.081,240,12,13.81,CYAY 080100Z AUTO 24012KT 9SM CLR 14/11 A2971 RMK SLP065,2024-08-08T01:00:00Z,14,11,9,29.71
CYAM,46.484,-84.504,170,4,4.6,CYAM 080100Z 17004KT 130V200 20SM FEW030 FEW150 BKN230 BKN240 BKN260 21/13 A2999 RMK CU1AC2CC3CI1CI1 CU TR SLP158 DENSITY ALT 1400FT,2024-08-08T01:00:00Z,21,13,20,29.99
CYAH,53.757,-73.676,250,6,6.9,CYAH 080100Z AUTO 25006KT 9SM OVC041 11/08 A2997 RMK SLP164,2024-08-08T01:00:00Z,11,8,9,29.97
CXZV,50.217,-66.26,260,4,4.6,CXZV 080100Z AUTO 26004KT 14/08 RMK AO1 SLP140 T01430081 53016,2024-08-08T01:00:00Z,14.3,8.1,,
CXZC,51.292,-80.618,360,3,3.45,CXZC 080100Z AUTO 36003KT 13/10 RMK AO1 SLP169 T01300100 55000,2024-08-08T01:00:00Z,13,10,,
CXYH,61.242,-123.742,210,5,5.75,CXYH 080100Z AUTO 21005KT 29/14 RMK AO1 SLP158 T02930139,2024-08-08T01:00:00Z,29.3,13.9,,
CXWN,49.889,-97.13,320,5,5.75,CXWN 080100Z AUTO 32005KT 17/08 RMK AO1 SLP152 T01740083 53005,2024-08-08T01:00:00Z,17.4,8.3,,
CXVN,43.183,-79.4,80,3,3.45,CXVN 080100Z AUTO 08003KT 20/14 RMK AO1 SLP156 T01980141 55001,2024-08-08T01:00:00Z,19.8,14.1,,
CXVM,53.344,-110.882,70,5,5.75,CXVM 080100Z AUTO 07005KT 20/09 RMK AO1 T01980087,2024-08-08T01:00:00Z,19.8,8.7,,
CXTV,68.746,-133.502,200,9,10.36,CXTV 080100Z AUTO 20009KT 33/11 RMK AO1 SLP094 T03260106 58009,2024-08-08T01:00:00Z,32.6,10.6,,
CXTO,43.667,-79.4,,,,CXTO 080100Z AUTO 22/14 RMK AO1 SLP159 T02170139 55001,2024-08-08T01:00:00Z,21.7,13.9,,
CXTN,69.199,-122.359,260,15,17.26,CXTN 080100Z AUTO 26015KT 26/11 RMK AO1 PK WND 25023/0013 SLP165 T02620114 50000,2024-08-08T01:00:00Z,26.2,11.4,,
CXTH,53.625,-111.678,60,6,6.9,CXTH 080100Z AUTO 06006KT 18/10 RMK AO1 T01840100,2024-08-08T01:00:00Z,18.4,10,,
CXTD,45.608,-61.68,200,11,12.66,CXTD 080100Z AUTO 20011KT 18/14 RMK AO1 SLP160 T01770144 52016,2024-08-08T01:00:00Z,17.7,14.4,,
CXSH,46.564,-72.733,330,2,2.3,CXSH 080100Z AUTO 33002KT 16/12 RMK AO1 SLP184 T01630115 53008,2024-08-08T01:00:00Z,16.3,11.5,,
CXSE,73.766,-105.296,260,16,18.41,CXSE 080100Z AUTO 26016KT 20/13 RMK AO1 PK WND 26020/0055 SLP051 T01970130 56017,2024-08-08T01:00:00Z,19.7,13,,
CXRL,54.503,-111.691,120,5,5.75,CXRL 080100Z AUTO 12005KT 20/10 RMK AO1 T01950099,2024-08-08T01:00:00Z,19.5,9.9,,
CXRH,49.57,-57.878,270,9,10.36,CXRH 080100Z AUTO 27009G16KT 15/11 RMK AO1 PK WND 26018/0042 SLP113 T01530114 53012,2024-08-08T01:00:00Z,15.3,11.4,,
CXRB,74.716,-94.983,130,6,6.9,CXRB 080100Z AUTO 13006KT 06/04 RMK AO1 SLP063 T00550036 56022,2024-08-08T01:00:00Z,5.5,3.6,,
CXPC,45.344,-80.044,,,,CXPC 080100Z AUTO 20/11 RMK AO1 SLP167 T01970114 55003,2024-08-08T01:00:00Z,19.7,11.4,,
CXOX,55.146,-105.27,350,3,3.45,CXOX 080100Z AUTO 35003KT 16/06 RMK AO1 SLP268 T01580057 57003,2024-08-08T01:00:00Z,15.8,5.7,,
CXNP,45.76,-64.241,200,7,8.06,CXNP 080100Z AUTO 20007KT 16/12 RMK AO1 SLP167 T01620117 53018,2024-08-08T01:00:00Z,16.2,11.7,,
CXNM,46.818,-60.673,250,9,10.36,CXNM 080100Z AUTO 25009KT 15/11 RMK AO1 T01480111,2024-08-08T01:00:00Z,14.8,11.1,,
CXMY,44.984,-62.484,,,,CXMY 080100Z AUTO 14/14 RMK AO1 T01370137,2024-08-08T01:00:00Z,13.7,13.7,,
CXMM,56.649,-111.221,150,4,4.6,CXMM 080100Z AUTO 15004KT 22/05 RMK AO1 SLP265 T02180054 56006,2024-08-08T01:00:00Z,21.8,5.4,,
CXMI,44.602,-63.534,260,12,13.81,CXMI 080100Z AUTO 26012KT 16/12 RMK AO1 SLP167 T01600123 52013,2024-08-08T01:00:00Z,16,12.3,,
CXMG,56.974,-117.451,220,4,4.6,CXMG 080100Z AUTO 22004KT 24/14 RMK AO1 T02440136,2024-08-08T01:00:00Z,24.4,13.6,,
CXMD,49.188,-98.084,340,7,8.06,CXMD 080100Z AUTO 34007KT 17/06 RMK AO1 PK WND 35019/0000 SLP168 T01680057 53006,2024-08-08T01:00:00Z,16.8,5.7,,
CXLL,61.125,-122.851,220,1,1.15,CXLL 080100Z AUTO 22001KT 31/14 RMK AO1 SLP182 T03120135 57012,2024-08-08T01:00:00Z,31.2,13.5,,
CXLC,63.601,-113.866,200,14,16.11,CXLC 080100Z AUTO 20014KT 23/04 RMK AO1 PK WND 20017/0059 SLP247 T02270044 56008,2024-08-08T01:00:00Z,22.7,4.4,,
CXLB,44.36,-64.296,240,4,4.6,CXLB 080100Z AUTO 24004KT 15/14 RMK AO1 SLP167 T01450135 53015,2024-08-08T01:00:00Z,14.5,13.5,,
CXKT,45.067,-64.478,210,2,2.3,CXKT 080100Z AUTO 21002KT 17/14 RMK AO1 SLP172 T01710138 53019,2024-08-08T01:00:00Z,17.1,13.8,,
CXKM,52.849,-111.873,60,3,3.45,CXKM 080100Z AUTO 06003KT 19/12 RMK AO1 T01880117,2024-08-08T01:00:00Z,18.8,11.7,,
CXKI,48.15,-80,10,1,1.15,CXKI 080100Z AUTO 01001KT 15/12 RMK AO1 SLP160 T01510116 55001,2024-08-08T01:00:00Z,15.1,11.6,,
CXKE,45.005,-75.637,0,0,0.0,CXKE 080100Z AUTO 00000KT 16/13 RMK AO1 SLP176 T01560128 53001,2024-08-08T01:00:00Z,15.6,12.8,,
CXKA,49.405,-82.443,100,1,1.15,CXKA 080100Z AUTO 10001KT 19/12 RMK AO1 SLP157 T01860115 56006,2024-08-08T01:00:00Z,18.6,11.5,,
CXIB,46.663,-60.406,230,3,3.45,CXIB 080100Z AUTO 23003KT 15/12 RMK AO1 SLP146 T01460115 52014,2024-08-08T01:00:00Z,14.6,11.5,,
CXHP,55.396,-116.48,170,9,10.36,CXHP 080100Z AUTO 17009KT 20/12 RMK AO1 T02010123,2024-08-08T01:00:00Z,20.1,12.3,,
CXHM,43.286,-79.905,60,4,4.6,CXHM 080100Z AUTO 06004KT 21/14 RMK AO1 SLP157 T02070136 56005,2024-08-08T01:00:00Z,20.7,13.6,,
CXHD,53.185,-112.246,60,4,4.6,CXHD 080100Z AUTO 06004KT 20/10 RMK AO1 T01980097,2024-08-08T01:00:00Z,19.8,9.7,,
CXHA,42.033,-82.896,60,2,2.3,CXHA 080100Z AUTO 06002KT 20/16 RMK AO1 SLP135 T01950158 55001,2024-08-08T01:00:00Z,19.5,15.8,,
CXGH,50.631,-96.984,310,10,11.51,CXGH 080100Z AUTO 31010KT 16/08 RMK AO1 PK WND 31021/0021 SLP147 T01570081 51004,2024-08-08T01:00:00Z,15.7,8.1,,
CXFR,56.081,-118.44,120,8,9.21,CXFR 080100Z AUTO 12008KT 22/10 RMK AO1 T02150104,2024-08-08T01:00:00Z,21.5,10.4,,
CXET,44.234,-79.779,140,4,4.6,CXET 080100Z AUTO 14004KT 18/13 RMK AO1 SLP166 T01750128 55000,2024-08-08T01:00:00Z,17.5,12.8,,
CXEG,53.307,-113.606,200,2,2.3,CXEG 080100Z AUTO 20002KT 20/10 RMK AO1 SLP262 T02020101 56005,2024-08-08T01:00:00Z,20.2,10.1,,
CXEC,53.573,-113.517,130,6,6.9,CXEC 080100Z AUTO 13006KT 20/10 RMK AO1 SLP253 T01950097 56003,2024-08-08T01:00:00Z,19.5,9.7,,
CXEA,50.631,-93.221,320,4,4.6,CXEA 080100Z AUTO 32004KT 17/15 RMK AO1 SLP106 T01720148 53005,2024-08-08T01:00:00Z,17.2,14.8,,
CXDW,49.4,-98.319,330,12,13.81,CXDW 080100Z AUTO 33012G17KT 16/07 RMK AO1 PK WND 33017/0050 SLP172 T01550072 53004,2024-08-08T01:00:00Z,15.5,7.2,,
CXDK,61.257,-124.468,130,5,5.75,CXDK 080100Z AUTO 13005KT 31/13 RMK AO1 SLP166 T03130133 56012,2024-08-08T01:00:00Z,31.3,13.3,,
CXDI,42.864,-80.545,60,1,1.15,CXDI 080100Z AUTO 06001KT 18/10 RMK AO1 SLP150 T01830098 57003,2024-08-08T01:00:00Z,18.3,9.8,,
CXDE,65.209,-123.434,100,7,8.06,CXDE 080100Z AUTO 10007KT 29/11 RMK AO1 SLP157 T02860109 56011,2024-08-08T01:00:00Z,28.6,10.9,,
CXDB,49.048,-112.808,120,5,5.75,CXDB 080100Z AUTO 12005KT 15/08 RMK AO1 T01470079,2024-08-08T01:00:00Z,14.7,7.9,,
CXCP,50.281,-113.35,50,5,5.75,CXCP 080100Z AUTO 05005KT 16/09 RMK AO1 T01620087,2024-08-08T01:00:00Z,16.2,8.7,,
CXCK,62.115,-136.192,150,10,11.51,CXCK 080100Z AUTO 15010G16KT 31/08 RMK AO1 PK WND 15019/0002 SLP157 T03130080 56019,2024-08-08T01:00:00Z,31.3,8,,
CXCA,49.154,-88.344,160,6,6.9,CXCA 080100Z AUTO 16006KT 19/15 RMK AO1 PK WND 16017/0007 SLP112 T01940154 56007,2024-08-08T01:00:00Z,19.4,15.4,,
CXBO,46.837,-71.197,40,4,4.6,CXBO 080100Z AUTO 04004KT 21/12 RMK AO1 T02050121,2024-08-08T01:00:00Z,20.5,12.1,,
CXBK,50.201,-104.71,360,10,11.51,CXBK 080100Z AUTO 36010G15KT 16/04 RMK AO1 PK WND 35017/0003 SLP246 T01590039 53005,2024-08-08T01:00:00Z,15.9,3.9,,
CXBI,44.484,-79.546,0,0,0.0,CXBI 080100Z AUTO 00000KT 17/12 RMK AO1 SLP172 T01690123 56003,2024-08-08T01:00:00Z,16.9,12.3,,
CXAT,73.006,-85.033,330,6,6.9,CXAT 080100Z AUTO 33006KT 14/09 RMK AO1 SLP096 T01420091 56020,2024-08-08T01:00:00Z,14.2,9.1,,
CXAG,53.917,-112.279,200,3,3.45,CXAG 080100Z AUTO 20003KT 19/13 RMK AO1 T01920130,2024-08-08T01:00:00Z,19.2,13,,
CWZW,60.167,-132.733,180,5,5.75,CWZW 080100Z AUTO 18005KT 27/08 RMK AO1 SLP207 T02730082 56018,2024-08-08T01:00:00Z,27.3,8.2,,
CWZV,51.936,-131.016,,,,CWZV 080100Z AUTO 13/12 RMK AO1 24 0057Z 6013 SLP225 T01260119,2024-08-08T01:00:00Z,12.6,11.9,,
CWZQ,46.547,-61.049,130,8,9.21,CWZQ 080100Z AUTO 13008KT 17/14 RMK AO1 SLP151 T01700135 52009,2024-08-08T01:00:00Z,17,13.5,,
CWZO,48.568,-123.265,170,9,10.36,CWZO 080100Z AUTO 17009KT RMK AO1,2024-08-08T01:00:00Z,,,,
CWZN,47.368,-55.795,270,20,23.02,CWZN 080100Z AUTO 27020KT 17/13 RMK AO1 PK WND 26026/0022 SLP108 T01650134 53015,2024-08-08T01:00:00Z,16.5,13.4,,
CWZL,53.03,-131.602,120,2,2.3,CWZL 080100Z AUTO 12002KT 14/13 RMK AO1 SLP231 T01390133 56013,2024-08-08T01:00:00Z,13.9,13.3,,
CWZG,51.194,-115.552,50,3,3.45,CWZG 080100Z AUTO 05003KT 15/09 RMK AO1 SLP265 T01500087 56006,2024-08-08T01:00:00Z,15,8.7,,
CWZA,49.244,-121.759,220,4,4.6,CWZA 080100Z AUTO 22004KT 27/18 RMK AO1 SLP166 T02690177 57020,2024-08-08T01:00:00Z,26.9,17.7,,
CWYY,49.028,-119.441,320,7,8.06,CWYY 080100Z AUTO 32007KT 32/09 RMK AO1 SLP141 T03160092 56019,2024-08-08T01:00:00Z,31.6,9.2,,
CWYL,51.443,-116.345,80,8,9.21,CWYL 080100Z AUTO 08008KT 15/06 RMK AO1 SLP263 T01500057 58006,2024-08-08T01:00:00Z,15,5.7,,
CWYJ,48.457,-123.305,210,3,3.45,CWYJ 080100Z AUTO 21003KT 25/14 RMK AO1 SLP177 T02460135 56024,2024-08-08T01:00:00Z,24.6,13.5,,
CWXL,49.734,-111.45,320,8,9.21,CWXL 080100Z AUTO 32008KT 15/12 RMK AO1 SLP261 T01530120 53003,2024-08-08T01:00:00Z,15.3,12,,
CWXI,51.022,-57.096,250,13,14.96,CWXI 080100Z AUTO 25013KT 15/12 RMK AO1 PK WND 25023/0009 SLP076 T01520120 53011,2024-08-08T01:00:00Z,15.2,12,,
CWXC,48.894,-71.032,210,2,2.3,CWXC 080100Z AUTO 21002KT 12/10 RMK AO1 SLP176 T01150095 53009,2024-08-08T01:00:00Z,11.5,9.5,,
CWXA,51.083,-115.066,250,1,1.15,CWXA 080100Z AUTO 25001KT 15/10 RMK AO1 SLP295 T01540096 56008,2024-08-08T01:00:00Z,15.4,9.6,,
CWWZ,43.244,-79.218,70,8,9.21,CWWZ 080100Z AUTO 07008KT 19/15 RMK AO1 SLP155 T01900153 56004,2024-08-08T01:00:00Z,19,15.3,,
CWWS,52.819,-97.616,30,36,41.43,CWWS 080100Z AUTO 03036G43KT 13/12 RMK AO1 0PAST HR 3003 PK WND 03050/0038 SLP166 P0008 T01290117 50020,2024-08-08T01:00:00Z,12.9,11.7,,
CWWL,53.493,-130.638,10,13,14.96,CWWL 080100Z AUTO 01013KT 12/12 RMK AO1 SLP222 T01230118 56015,2024-08-08T01:00:00Z,12.3,11.8,,
CWWK,49.018,-122.784,260,3,3.45,CWWK 080100Z AUTO 26003KT 20/15 RMK AO1 SLP178 T02010147 57026,2024-08-08T01:00:00Z,20.1,14.7,,
CWWF,49.695,-103.801,20,14,16.11,CWWF 080100Z AUTO 02014KT 17/03 RMK AO1 PK WND 02020/0020 SLP231 T01680032 53005,2024-08-08T01:00:00Z,16.8,3.2,,
CWWE,43.989,-64.662,220,5,5.75,CWWE 080100Z AUTO 22005KT 11/10 RMK AO1 SLP178 T01090098 53007,2024-08-08T01:00:00Z,10.9,9.8,,
CWWB,43.302,-79.791,80,15,17.26,CWWB 080100Z AUTO 08015KT 22/13 RMK AO1 PK WND 08019/0059 SLP157 T02240131 56005,2024-08-08T01:00:00Z,22.4,13.1,,
CWWA,49.347,-123.193,210,1,1.15,CWWA 080100Z AUTO 21001KT 24/18 RMK AO1 SLP176 T02440175 58024,2024-08-08T01:00:00Z,24.4,17.5,,
CWVU,44.287,-66.342,180,5,5.75,CWVU 080100Z AUTO 18005KT 14/13 RMK AO1 SLP175 T01370127 52011,2024-08-08T01:00:00Z,13.7,12.7,,
CWVT,55.841,-108.421,350,3,3.45,CWVT 080100Z AUTO 35003KT 19/05 RMK AO1 SLP287 T01850053 57006,2024-08-08T01:00:00Z,18.5,5.3,,
CWVQ,45.427,-73.929,160,1,1.15,CWVQ 080100Z AUTO 16001KT 17/12 RMK AO1 SLP174 T01660115 53002,2024-08-08T01:00:00Z,16.6,11.5,,
CWVP,49.64,-109.514,50,3,3.45,CWVP 080100Z AUTO 05003KT 13/08 RMK AO1 SLP256 T01320081 53001,2024-08-08T01:00:00Z,13.2,8.1,,
CWVN,49.058,-107.586,360,3,3.45,CWVN 080100Z AUTO 36003KT 15/12 RMK AO1 SLP247 T01450115 51003,2024-08-08T01:00:00Z,14.5,11.5,,
CWVI,53.505,-112.098,10,5,5.75,CWVI 080100Z AUTO 01005KT 18/12 RMK AO1 SLP259 T01800119 56001,2024-08-08T01:00:00Z,18,11.9,,
CWVH,68.894,-133.943,190,13,14.96,CWVH 080100Z AUTO 19013G19KT ////SM ////// ///// A////,2024-08-08T01:00:00Z,,,,
CWVF,49.106,-123.303,300,5,5.75,CWVF 080100Z AUTO 30005KT 21/18 RMK AO1 T02100177,2024-08-08T01:00:00Z,21,17.7,,
CWUX,48.298,-70.92,210,4,4.6,CWUX 080100Z AUTO 21004KT 12/09 RMK AO1 SLP176 T01240094 50001,2024-08-08T01:00:00Z,12.4,9.4,,
CWUS,49.563,-119.649,330,4,4.6,CWUS 080100Z AUTO 33004KT 30/07 RMK AO1 SLP157 T03000070 56018,2024-08-08T01:00:00Z,30,7,,
CWTY,46.354,-72.516,50,3,3.45,CWTY 080100Z AUTO 05003KT 21/11 RMK AO1 SLP180 T02140109 53009,2024-08-08T01:00:00Z,21.4,10.9,,
CWTT,45.27,-72.17,360,3,3.45,CWTT 080100Z AUTO 36003KT 18/13 RMK AO1 T01770127,2024-08-08T01:00:00Z,17.7,12.7,,
CWTN,47.079,-70.781,330,2,2.3,CWTN 080100Z AUTO 33002KT 14/14 RMK AO1 SLP179 T01420136 53017,2024-08-08T01:00:00Z,14.2,13.6,,
CWTG,49.317,-67.381,260,6,6.9,CWTG 080100Z AUTO 26006KT 11/09 RMK AO1 SLP155 T01090087 51014,2024-08-08T01:00:00Z,10.9,8.7,,
CWTA,45.506,-73.579,180,1,1.15,CWTA 080100Z AUTO 18001KT 21/11 RMK AO1 SLP176 T02070108 53005,2024-08-08T01:00:00Z,20.7,10.8,,
CWSW,49.834,-114.881,310,3,3.45,CWSW 080100Z 31003KT 280V350 20SM FEW035 SCT060 SCT120 18/10 A3028 RMK SC1CU2AC1 AC TR LAST STFD OBS/NXT 081300Z SLP253 DENSITY ALT 4600FT,2024-08-08T01:00:00Z,18,10,20,30.28
CWST,47.354,-70.03,110,5,5.75,CWST 080100Z AUTO 11005KT 15/08 RMK AO1 SLP174 T01510075 51007,2024-08-08T01:00:00Z,15.1,7.5,,
CWSS,45.21,-67.253,0,0,0.0,CWSS 080100Z AUTO 00000KT 17/15 RMK AO1 SLP166 T01670148 53014,2024-08-08T01:00:00Z,16.7,14.8,,
CWSR,53.368,-107.553,50,7,8.06,CWSR 080100Z AUTO 05007KT 15/03 RMK AO1 SLP273 T01540028 53001,2024-08-08T01:00:00Z,15.4,2.8,,
CWSP,48.377,-123.921,290,15,17.26,CWSP 080100Z AUTO 29015KT 12/11 RMK AO1 PK WND 29018/0056 SLP191 T01170112 57021,2024-08-08T01:00:00Z,11.7,11.2,,
CWSL,50.703,-119.291,30,1,1.15,CWSL 080100Z AUTO 03001KT 30/08 RMK AO1 SLP166 T03020080 56017,2024-08-08T01:00:00Z,30.2,8,,
CWSK,49.783,-123.161,190,5,5.75,CWSK 080100Z AUTO 19005KT 28/15 RMK AO1 SLP163 T02770146 56021,2024-08-08T01:00:00Z,27.7,14.6,,
CWSG,49.109,-66.655,250,12,13.81,CWSG 080100Z AUTO 25012KT 15/10 RMK AO1 PK WND 23020/0002 SLP157 T01460102 53016,2024-08-08T01:00:00Z,14.6,10.2,,
CWSF,49.251,-65.325,270,11,12.66,CWSF 080100Z AUTO 27011G19KT 17/07 RMK AO1 PK WND 25020/0042 SLP145 T01660068 53016,2024-08-08T01:00:00Z,16.6,6.8,,
CWSD,46.441,-63.837,20,5,5.75,CWSD 080100Z AUTO 02005KT 17/14 RMK AO1 SLP160 T01680137 53022,2024-08-08T01:00:00Z,16.8,13.7,,
CWSA,43.933,-60.002,,,,CWSA 080100Z AUTO /////KT 8SM CLR 17/15 A3005 RMK WIND MISG SLP179,2024-08-08T01:00:00Z,17,15,8,30.05
CWRZ,48.419,-64.317,280,6,6.9,CWRZ 080100Z AUTO 28006KT 14/08 RMK AO1 SLP147 T01430075 53021,2024-08-08T01:00:00Z,14.3,7.5,,
CWRY,49.133,-112.051,70,2,2.3,CWRY 080100Z AUTO 07002KT 15/09 RMK AO1 SLP266 T01510094 58002,2024-08-08T01:00:00Z,15.1,9.4,,
CWRU,50.112,-127.941,10,18,20.71,CWRU 080100Z AUTO 01018KT 14/13 RMK AO1 PK WND 35020/0049 SLP213 T01390130 57012,2024-08-08T01:00:00Z,13.9,13,,
CWRT,49.628,-114.482,130,4,4.6,CWRT 080100Z AUTO 13004KT 15/08 RMK AO1 SLP264 T01480075 56009,2024-08-08T01:00:00Z,14.8,7.5,,
CWRO,54.161,-131.66,260,13,14.96,CWRO 080100Z AUTO 26013KT 15/13 RMK AO1 PK WND 27017/0005 SLP224 T01450126 58016,2024-08-08T01:00:00Z,14.5,12.6,,
CWRN,45.347,-60.98,230,14,16.11,CWRN 080100Z AUTO 23014KT 17/14 RMK AO1 PK WND 23019/0020 SLP161 T01710136 53015,2024-08-08T01:00:00Z,17.1,13.6,,
CWRM,52.431,-114.907,110,5,5.75,CWRM 080100Z AUTO 11005KT 18/08 RMK AO1 SLP246 T01800077 56006,2024-08-08T01:00:00Z,18,7.7,,
CWRK,45.072,-77.879,0,0,0.0,CWRK 080100Z AUTO 00000KT 15/12 RMK AO1 SLP179 T01480116 55001,2024-08-08T01:00:00Z,14.8,11.6,,
CWRJ,51.565,-107.924,60,7,8.06,CWRJ 080100Z AUTO 06007KT 17/05 RMK AO1 SLP257 T01710052 53002,2024-08-08T01:00:00Z,17.1,5.2,,
CWRA,46.659,-53.073,220,11,12.66,CWRA 080100Z AUTO 22011KT 15/15 RMK AO1 SLP148 T01470146 51010,2024-08-08T01:00:00Z,14.7,14.6,,
CWQV,48.26,-70.116,0,0,0.0,CWQV 080100Z AUTO 00000KT 16/08 RMK AO1 T01630081,2024-08-08T01:00:00Z,16.3,8.1,,
CWQR,50.221,-64.207,300,14,16.11,CWQR 080100Z AUTO 30014KT 09/08 RMK AO1 PK WND 28018/0059 T00890075,2024-08-08T01:00:00Z,8.9,7.5,,
CWQP,43.84,-77.153,50,7,8.06,CWQP 080100Z AUTO 05007KT 18/13 RMK AO1 SLP166 T01820132 53002,2024-08-08T01:00:00Z,18.2,13.2,,
CWQO,48.416,-68.893,220,13,14.96,CWQO 080100Z AUTO 22013KT 10/06 RMK AO1 PK WND 22017/0002 T01010063,2024-08-08T01:00:00Z,10.1,6.3,,
CWQK,48.298,-123.531,260,18,20.71,CWQK 080100Z AUTO 26018KT 11/11 RMK AO1 PK WND 26020/0059 SLP179 T01100110 57025,2024-08-08T01:00:00Z,11,11,,
CWQH,45.369,-71.824,50,5,5.75,CWQH 080100Z AUTO 05005KT 16/10 RMK AO1 SLP186 T01640103 53010,2024-08-08T01:00:00Z,16.4,10.3,,
CWPZ,54.383,-125.959,70,1,1.15,CWPZ 080100Z AUTO 07001KT 30/05 RMK AO1 SLP205 T02980051 58013,2024-08-08T01:00:00Z,29.8,5.1,,
CWPR,49.468,-120.514,30,5,5.75,CWPR 080100Z AUTO 03005KT 30/04 RMK AO1 SLP168 T02980037 56015,2024-08-08T01:00:00Z,29.8,3.7,,
CWPO,49.191,-98.905,320,7,8.06,CWPO 080100Z AUTO 32007KT 14/06 RMK AO1 SLP188 T01430055 53007,2024-08-08T01:00:00Z,14.3,5.5,,
CWPK,47.922,-74.624,110,1,1.15,CWPK 080100Z AUTO 11001KT 13/10 RMK AO1 SLP194 T01300099 53002,2024-08-08T01:00:00Z,13,9.9,,
CWPE,45.058,-66.459,260,4,4.6,CWPE 080100Z AUTO 26004KT 14/12 RMK AO1 SLP168 T01440116 53012,2024-08-08T01:00:00Z,14.4,11.6,,
CWPD,47.562,-71.229,220,4,4.6,CWPD 080100Z AUTO 22004KT 09/06 RMK AO1 SLP178 T00940057 53009,2024-08-08T01:00:00Z,9.4,5.7,,
CWPC,42.868,-79.253,50,9,10.36,CWPC 080100Z AUTO 05009G20KT 21/11 RMK AO1 PK WND 05028/0004 SLP167 T02060111 53005,2024-08-08T01:00:00Z,20.6,11.1,,
CWOY,51.767,-104.2,10,6,6.9,CWOY 080100Z AUTO 01006KT 14/06 RMK AO1 SLP256 T01420063 53001,2024-08-08T01:00:00Z,14.2,6.3,,
CWOE,49.123,-110.469,300,7,8.06,CWOE 080100Z AUTO 30007KT 14/11 RMK AO1 2PAST HR 6005 SLP256 P0001 T01390114 50002,2024-08-08T01:00:00Z,13.9,11.4,,
CWOD,48.842,-72.546,230,5,5.75,CWOD 080100Z AUTO 23005KT 15/12 RMK AO1 SLP174 T01530119 53003,2024-08-08T01:00:00Z,15.3,11.9,,
CWOC,48.012,-65.332,310,6,6.9,CWOC 080100Z AUTO 31006KT 15/07 RMK AO1 SLP157 T01540066 53015,2024-08-08T01:00:00Z,15.4,6.6,,
CWNZ,49.747,-84.164,50,2,2.3,CWNZ 080100Z AUTO 05002KT 16/11 RMK AO1 SLP150 T01610113 57007,2024-08-08T01:00:00Z,16.1,11.3,,
CWNQ,46.226,-72.657,70,2,2.3,CWNQ 080100Z AUTO 07002KT 17/14 RMK AO1 SLP181 T01680138 53008,2024-08-08T01:00:00Z,16.8,13.8,,
CWNP,50.269,-117.817,320,2,2.3,CWNP 080100Z AUTO 32002KT 27/08 RMK AO1 SLP169 T02720083 56014,2024-08-08T01:00:00Z,27.2,8.3,,
CWNM,49.491,-117.305,70,6,6.9,CWNM 080100Z AUTO 07006KT 28/09 RMK AO1 SLP167 T02840090 56008,2024-08-08T01:00:00Z,28.4,9,,
CWNK,49.498,-98.03,340,10,11.51,CWNK 080100Z AUTO 34010G16KT 16/09 RMK AO1 PK WND 33019/0029 SLP168 T01600090 53005,2024-08-08T01:00:00Z,16,9,,
CWNH,47.806,-69.548,190,2,2.3,CWNH 080100Z AUTO 19002KT 13/07 RMK AO1 SLP180 T01310067 52005,2024-08-08T01:00:00Z,13.1,6.7,,
CWNE,47.058,-63.997,330,20,23.02,CWNE 080100Z AUTO 33020KT 20/11 RMK AO1 PK WND 32025/0046 SLP156 T01970112 53022,2024-08-08T01:00:00Z,19.7,11.2,,
CWND,69.632,-135.445,120,7,8.06,CWND 080100Z AUTO 12007KT 22/18 RMK AO1 SLP065 T02240179 57012,2024-08-08T01:00:00Z,22.4,17.9,,
CWNC,43.951,-78.165,30,4,4.6,CWNC 080100Z AUTO 03004KT 20/14 RMK AO1 SLP159 T01960135 55003,2024-08-08T01:00:00Z,19.6,13.5,,
CWMZ,45.033,-80.367,20,9,10.36,CWMZ 080100Z AUTO 02009KT 22/14 RMK AO1 SLP159 T02160138 56009,2024-08-08T01:00:00Z,21.6,13.8,,
CWMT,63.134,-117.245,160,9,10.36,CWMT 080100Z AUTO 16009G15KT 26/07 RMK AO1 SLP221 T02640070 57009,2024-08-08T01:00:00Z,26.4,7,,
CWMQ,49.903,-109.466,120,1,1.15,CWMQ 080100Z AUTO 12001KT 16/12 RMK AO1 6PAST HR 0001 SLP251 P0002 T01580117 50006,2024-08-08T01:00:00Z,15.8,11.7,,
CWMM,49.208,-122.69,260,6,6.9,CWMM 080100Z AUTO 26006KT 27/17 RMK AO1 SLP168 T02650171,2024-08-08T01:00:00Z,26.5,17.1,,
CWMJ,46.275,-75.992,350,2,2.3,CWMJ 080100Z AUTO 35002KT 15/13 RMK AO1 SLP185 T01500126 53006,2024-08-08T01:00:00Z,15,12.6,,
CWME,52.187,-127.471,240,18,20.71,CWME 080100Z AUTO 24018KT 19/15 RMK AO1 PK WND 24023/0023 SLP200 T01910153 56015,2024-08-08T01:00:00Z,19.1,15.3,,
CWLS,43.983,-80.74,110,2,2.3,CWLS 080100Z AUTO 11002KT 19/12 RMK AO1 SLP164 T01910122 55000,2024-08-08T01:00:00Z,19.1,12.2,,
CWLP,50.94,-127.632,280,13,14.96,CWLP 080100Z AUTO 28013KT 12/11 RMK AO1 SLP220 T01220108 58013,2024-08-08T01:00:00Z,12.2,10.8,,
CWLM,48.413,-123.325,220,5,5.75,CWLM 080100Z AUTO 22005KT 17/12 RMK AO1 SLP175 T01740118 56024,2024-08-08T01:00:00Z,17.4,11.8,,
CWLE,50.951,-107.143,20,8,9.21,CWLE 080100Z AUTO 02008KT 17/05 RMK AO1 PK WND 01017/0007 SLP257 T01650047 53001,2024-08-08T01:00:00Z,16.5,4.7,,
CWLC,54.296,-130.609,270,12,13.81,CWLC 080100Z AUTO 27012KT 13/13 RMK AO1 T01290129,2024-08-08T01:00:00Z,12.9,12.9,,
CWLB,54.769,-112.024,60,5,5.75,CWLB 080100Z AUTO 06005KT 21/08 RMK AO1 SLP263 T02110075 56004,2024-08-08T01:00:00Z,21.1,7.5,,
CWKX,58.429,-130.011,240,6,6.9,CWKX 080100Z AUTO 24006KT 27/08 RMK AO1 SLP223 T02700078 56014,2024-08-08T01:00:00Z,27,7.8,,
CWKO,49.168,-105.979,360,8,9.21,CWKO 080100Z AUTO 36008KT 15/05 RMK AO1 SLP252 T01500050 51005,2024-08-08T01:00:00Z,15,5,,
CWKK,49.713,-88.332,160,4,4.6,CWKK 080100Z AUTO 16004KT 19/16 RMK AO1 2PAST HR 6014 SLP103 P0001 T01880160 50002,2024-08-08T01:00:00Z,18.8,16,,
CWKH,48.568,-123.542,,,,CWKH 080100Z AUTO 23/14 RMK AO1 SLP177 T02260140 57020,2024-08-08T01:00:00Z,22.6,14,,
CWKG,44.432,-65.203,300,2,2.3,CWKG 080100Z AUTO 30002KT 15/13 RMK AO1 SLP182 T01460130 53011,2024-08-08T01:00:00Z,14.6,13,,
CWKD,50.729,-71.013,,,,CWKD 080100Z AUTO 11/08 RMK AO1 SLP176 T01120079 53012,2024-08-08T01:00:00Z,11.2,7.9,,
CWJX,50.876,-109.501,100,5,5.75,CWJX 080100Z AUTO 10005KT 17/08 RMK AO1 SLP254 T01700077 51010,2024-08-08T01:00:00Z,17,7.7,,
CWJV,50.223,-119.194,300,1,1.15,CWJV 080100Z AUTO 30001KT 29/06 RMK AO1 SLP167 T02910064 56015,2024-08-08T01:00:00Z,29.1,6.4,,
CWJU,54.255,-133.058,240,9,10.36,CWJU 080100Z AUTO 24009KT 14/12 RMK AO1 SLP237 T01350122 56014,2024-08-08T01:00:00Z,13.5,12.2,,
CWJT,46.08,-74.556,50,1,1.15,CWJT 080100Z AUTO 05001KT 15/12 RMK AO1 SLP190 T01540124 53006,2024-08-08T01:00:00Z,15.4,12.4,,
CWJR,49.04,-116.483,50,9,10.36,CWJR 080100Z AUTO 05009G17KT 26/08 RMK AO1 PK WND 06017/0057 SLP177 T02590079 56007,2024-08-08T01:00:00Z,25.9,7.9,,
CWJO,48.425,-71.143,220,5,5.75,CWJO 080100Z AUTO 22005KT 17/09 RMK AO1 SLP172 T01690089 53003,2024-08-08T01:00:00Z,16.9,8.9,,
CWJI,49.729,-105.946,350,7,8.06,CWJI 080100Z AUTO 35007KT 17/05 RMK AO1 SLP244 T01650052 51001,2024-08-08T01:00:00Z,16.5,5.2,,
CWJH,56.333,-103.283,60,3,3.45,CWJH 080100Z AUTO 06003KT 16/06 RMK AO1 SLP262 T01620059 56004,2024-08-08T01:00:00Z,16.2,5.9,,
CWJD,53.187,-99.268,330,7,8.06,CWJD 080100Z AUTO 33007KT 10/10 RMK AO1 7PAST HR 8001 PK WND 32017/0026 SLP199 P0007 T01030099 50017,2024-08-08T01:00:00Z,10.3,9.9,,
CWJC,61.132,-100.884,60,13,14.96,CWJC 080100Z AUTO 06013KT RMK AO1 PK WND 06017/0046 55000,2024-08-08T01:00:00Z,,,,
CWJB,46.781,-71.288,200,1,1.15,CWJB 080100Z AUTO 20001KT 18/08 RMK AO1 T01820083,2024-08-08T01:00:00Z,18.2,8.3,,
CWIZ,45.294,-73.35,0,0,0.0,CWIZ 080100Z AUTO 00000KT 18/14 RMK AO1 T01780135,2024-08-08T01:00:00Z,17.8,13.5,,
CWIW,51.667,-105.4,20,9,10.36,CWIW 080100Z AUTO 02009KT 16/04 RMK AO1 SLP259 T01570043 53002,2024-08-08T01:00:00Z,15.7,4.3,,
CWIT,45.167,-73.678,0,0,0.0,CWIT 080100Z AUTO 00000KT 15/13 RMK AO1 SLP179 T01490127 53004,2024-08-08T01:00:00Z,14.9,12.7,,
CWIS,47.284,-70.637,180,1,1.15,CWIS 080100Z AUTO 18001KT RMK AO1 53012,2024-08-08T01:00:00Z,,,,
CWIP,50.162,-66.434,250,9,10.36,CWIP 080100Z AUTO 25009KT 15/09 RMK AO1 T01480094,2024-08-08T01:00:00Z,14.8,9.4,,
CWIK,50.366,-102.567,340,11,12.66,CWIK 080100Z AUTO 34011G16KT 14/05 RMK AO1 PK WND 34018/0008 SLP234 T01420048 57001,2024-08-08T01:00:00Z,14.2,4.8,,
CWIJ,65.756,-111.246,210,16,18.41,CWIJ 080100Z AUTO 21016KT 22/04 RMK AO1 PK WND 20021/0019 SLP243 T02200038 57016,2024-08-08T01:00:00Z,22,3.8,,
CWII,50.695,-96.562,310,25,28.77,CWII 080100Z AUTO 31025G30KT 17/11 RMK AO1 PK WND 31031/0046 SLP140 T01660114 52002,2024-08-08T01:00:00Z,16.6,11.4,,
CWIG,47.074,-70.533,20,5,5.75,CWIG 080100Z AUTO 02005KT RMK AO1,2024-08-08T01:00:00Z,,,,
CWID,61.317,-117.605,120,7,8.06,CWID 080100Z AUTO 12007KT 28/11 RMK AO1 SLP213 T02770113 56009,2024-08-08T01:00:00Z,27.7,11.3,,
CWHV,46.205,-70.785,240,4,4.6,CWHV 080100Z AUTO 24004KT 16/10 RMK AO1 SLP186 T01600101 53011,2024-08-08T01:00:00Z,16,10.1,,
CWHT,60.773,-137.581,260,11,12.66,CWHT 080100Z AUTO 26011G20KT 24/10 RMK AO1 PK WND 25023/0044 SLP196 T02440095 58011,2024-08-08T01:00:00Z,24.4,9.5,,
CWHQ,46.691,-71.972,0,0,0.0,CWHQ 080100Z AUTO 00000KT 12/11 RMK AO1 T01240109,2024-08-08T01:00:00Z,12.4,10.9,,
CWHO,55.448,-60.23,VRB,35,40.28,CWHO 080100Z AUTO 00035KT 09/07 RMK AO1 SLP077 T00850068 53014,2024-08-08T01:00:00Z,8.5,6.8,,
CWHL,54.172,-130.361,310,6,6.9,CWHL 080100Z AUTO 31006KT 13/12 RMK AO1 SLP223 T01270115 58011,2024-08-08T01:00:00Z,12.7,11.5,,
CWGY,51.67,-110.206,90,7,8.06,CWGY 080100Z AUTO 09007KT 18/10 RMK AO1 SLP256 T01750101 51007,2024-08-08T01:00:00Z,17.5,10.1,,
CWGW,49.745,-114.884,320,3,3.45,CWGW 080100Z AUTO 32003KT 18/10 RMK AO1 SLP251 T01770095 58009,2024-08-08T01:00:00Z,17.7,9.5,,
CWGT,49.487,-124.435,320,3,3.45,CWGT 080100Z AUTO 32003KT 22/ RMK AO1 SLP180 T0223 57023,2024-08-08T01:00:00Z,22.3,,,
CWGR,47.425,-61.775,340,11,12.66,CWGR 080100Z AUTO 34011KT 18/14 RMK AO1 SLP143 T01840141 53016,2024-08-08T01:00:00Z,18.4,14.1,,
CWGM,49.133,-113.806,80,2,2.3,CWGM 080100Z AUTO 08002KT 15/08 RMK AO1 SLP260 T01520077 58006,2024-08-08T01:00:00Z,15.2,7.7,,
CWGL,44.55,-79.218,100,4,4.6,CWGL 080100Z AUTO 10004KT 22/13 RMK AO1 SLP151 T02150128 56003,2024-08-08T01:00:00Z,21.5,12.8,,
CWGD,43.765,-81.712,110,6,6.9,CWGD 080100Z AUTO 11006KT 21/13 RMK AO1 SLP150 T02050126 56005,2024-08-08T01:00:00Z,20.5,12.6,,
CWGB,49.336,-124.149,270,11,12.66,CWGB 080100Z AUTO 27011KT 21/16 RMK AO1 SLP175 T02140155 57024,2024-08-08T01:00:00Z,21.4,15.5,,
CWFQ,45.05,-72.861,20,1,1.15,CWFQ 080100Z AUTO 02001KT 18/10 RMK AO1 SLP183 T01750102 53007,2024-08-08T01:00:00Z,17.5,10.2,,
CWFJ,49.2,-113.278,10,3,3.45,CWFJ 080100Z AUTO 01003KT 16/11 RMK AO1 SLP255 T01560106 58003,2024-08-08T01:00:00Z,15.6,10.6,,
CWFF,52.817,-104.601,50,4,4.6,CWFF 080100Z AUTO 05004KT 14/06 RMK AO1 SLP262 T01420063 51004,2024-08-08T01:00:00Z,14.2,6.3,,
CWEZ,48.783,-123.046,170,4,4.6,CWEZ 080100Z AUTO 17004KT 18/13 RMK AO1 SLP175 T01820130 57024,2024-08-08T01:00:00Z,18.2,13,,
CWEW,45.809,-73.435,140,2,2.3,CWEW 080100Z AUTO 14002KT 19/15 RMK AO1 SLP180 T01920146 53006,2024-08-08T01:00:00Z,19.2,14.6,,
CWEU,79.989,-85.934,360,7,8.06,CWEU 080100Z 36007KT 320V030 15SM FEW040 FEW080 SCT110 BKN150 05/01 A2963 RMK SC1AC1AC4AC3 SC TR AC TR SLP043,2024-08-08T01:00:00Z,5,1,15,29.63
CWER,46.997,-70.808,50,11,12.66,CWER 080100Z AUTO 05011KT RMK AO1 PK WND 05017/0003,2024-08-08T01:00:00Z,,,,
CWEQ,52.115,-101.233,360,10,11.51,CWEQ 080100Z AUTO 36010G15KT 11/06 RMK AO1 SLP230 T01130055 53005,2024-08-08T01:00:00Z,11.3,5.5,,
CWEP,46.46,-61.988,210,6,6.9,CWEP 080100Z AUTO 21006KT 18/15 RMK AO1 SLP148 T01770146 53010,2024-08-08T01:00:00Z,17.7,14.6,,
CWEL,49.209,-123.808,320,14,16.11,CWEL 080100Z AUTO 32014KT 21/16 RMK AO1 PK WND 32017/0051 SLP171 T02090160 58027,2024-08-08T01:00:00Z,20.9,16,,
CWEK,54.58,-130.698,170,1,1.15,CWEK 080100Z AUTO 17001KT 15/14 RMK AO1 SLP222 T01500140 57012,2024-08-08T01:00:00Z,15,14,,
CWEH,49.438,-108.989,50,9,10.36,CWEH 080100Z AUTO 05009KT 16/08 RMK AO1 PK WND 06017/0040 SLP252 T01560075 53003,2024-08-08T01:00:00Z,15.6,7.5,,
CWEF,47.226,-60.141,280,15,17.26,CWEF 080100Z AUTO 28015KT 20/13 RMK AO1 SLP132 T02000131 53011,2024-08-08T01:00:00Z,20,13.1,,
CWEE,49.279,-73.356,,,,CWEE 080100Z AUTO 13/11 RMK AO1 SLP168 T01320113 53004,2024-08-08T01:00:00Z,13.2,11.3,,
CWEB,49.383,-126.543,310,9,10.36,CWEB 080100Z AUTO 31009KT 14/13 RMK AO1 SLP199 T01390129 56018,2024-08-08T01:00:00Z,13.9,12.9,,
CWDZ,51.445,-112.677,20,8,9.21,CWDZ 080100Z AUTO 02008KT 17/11 RMK AO1 PK WND 01018/0043 SLP254 T01670113 53001,2024-08-08T01:00:00Z,16.7,11.3,,
CWDV,49.033,-90.467,,,,CWDV 080100Z AUTO 16/16 RMK AO1 4PAST HR 2001 SLP119 P0002 T01610156 50004,2024-08-08T01:00:00Z,16.1,15.6,,
CWDQ,47.415,-72.788,100,2,2.3,CWDQ 080100Z AUTO 10002KT 16/11 RMK AO1 SLP183 T01640108 53003,2024-08-08T01:00:00Z,16.4,10.8,,
CWDO,49.688,-54.8,260,17,19.56,CWDO 080100Z AUTO 26017G23KT 16/11 RMK AO1 PK WND 26023/0054 SLP076 T01630107 53013,2024-08-08T01:00:00Z,16.3,10.7,,
CWDM,50.465,-59.64,230,6,6.9,CWDM 080100Z AUTO 23006KT 14/08 RMK AO1 SLP086 T01360084 52014,2024-08-08T01:00:00Z,13.6,8.4,,
CWDK,50.006,-113.631,20,4,4.6,CWDK 080100Z AUTO 02004KT 19/07 RMK AO1 SLP263 T01880066 56005,2024-08-08T01:00:00Z,18.8,6.6,,
CWDJ,50.408,-104.58,10,14,16.11,CWDJ 080100Z AUTO 01014G20KT 16/02 RMK AO1 PK WND 01022/0030 SLP245 T01610019 53008,2024-08-08T01:00:00Z,16.1,1.9,,
CWDC,59.56,-108.487,240,4,4.6,CWDC 080100Z AUTO 24004KT 19/05 RMK AO1 SLP280 T01870050 58009,2024-08-08T01:00:00Z,18.7,5,,
CWDA,50.721,-56.113,270,29,33.37,CWDA 080100Z AUTO 27029G37KT 15/08 RMK AO1 PK WND 26040/0017 SLP064 T01500080 56005,2024-08-08T01:00:00Z,15,8,,
CWCT,52.074,-111.448,30,9,10.36,CWCT 080100Z AUTO 03009KT 19/08 RMK AO1 SLP268 T01860080 51005,2024-08-08T01:00:00Z,18.6,8,,
CWCJ,48.588,-86.295,180,4,4.6,CWCJ 080100Z AUTO 18004KT 18/09 RMK AO1 SLP139 T01750090 56013,2024-08-08T01:00:00Z,17.5,9,,
CWCF,52.36,-97.022,360,4,4.6,CWCF 080100Z AUTO 36004KT 11/10 RMK AO1 5PAST HR 2002 SLP147 P0002 T01100104 50005,2024-08-08T01:00:00Z,11,10.4,,
CWBZ,45.121,-74.289,0,0,0.0,CWBZ 080100Z AUTO 00000KT 15/14 RMK AO1 SLP172 T01490141 53003,2024-08-08T01:00:00Z,14.9,14.1,,
CWBY,49.839,-64.293,270,9,10.36,CWBY 080100Z AUTO 27009KT 14/10 RMK AO1 PK WND 28021/0003 SLP132 T01410098 51013,2024-08-08T01:00:00Z,14.1,9.8,,
CWBV,44.825,-62.338,260,10,11.51,CWBV 080100Z AUTO 26010KT 15/14 RMK AO1 SLP160 T01470137 53011,2024-08-08T01:00:00Z,14.7,13.7,,
CWBU,53.333,-104.005,70,3,3.45,CWBU 080100Z AUTO 07003KT 12/09 RMK AO1 SLP259 T01240091 53001,2024-08-08T01:00:00Z,12.4,9.1,,
CWBT,50.271,-64.226,280,4,4.6,CWBT 080100Z AUTO 28004KT 10/08 RMK AO1 PK WND 26017/0028 SLP126 T00950081 51015,2024-08-08T01:00:00Z,9.5,8.1,,
CWBS,46.189,-72.916,30,6,6.9,CWBS 080100Z AUTO 03006KT 23/11 RMK AO1 T02340112,2024-08-08T01:00:00Z,23.4,11.2,,
CWBO,50.55,-111.849,30,3,3.45,CWBO 080100Z AUTO 03003KT 18/10 RMK AO1 SLP255 T01750100 50000,2024-08-08T01:00:00Z,17.5,10,,
CWBK,45.764,-62.681,260,5,5.75,CWBK 080100Z AUTO 26005KT 19/11 RMK AO1 SLP159 T01910114 53019,2024-08-08T01:00:00Z,19.1,11.4,,
CWBA,46.71,-79.101,0,0,0.0,CWBA 080100Z AUTO 00000KT 18/12 RMK AO1 T01760115,2024-08-08T01:00:00Z,17.6,11.5,,
CWAV,51.777,-114.681,190,3,3.45,CWAV 080100Z AUTO 19003KT 17/09 RMK AO1 SLP266 T01650092 55003,2024-08-08T01:00:00Z,16.5,9.2,,
CWAR,47.294,-53.993,240,16,18.41,CWAR 080100Z AUTO 24016KT 17/17 RMK AO1 PK WND 24020/0042 SLP129 T01710166 52011,2024-08-08T01:00:00Z,17.1,16.6,,
CWAQ,49.05,-105.483,340,8,9.21,CWAQ 080100Z AUTO 34008KT 17/05 RMK AO1 SLP241 T01700048 51003,2024-08-08T01:00:00Z,17,4.8,,
CWAF,48.069,-69.556,200,13,14.96,CWAF 080100Z AUTO 20013KT 13/07 RMK AO1 T01280068,2024-08-08T01:00:00Z,12.8,6.8,,
CWAE,50.129,-122.955,VRB,3,3.45,CWAE 080100Z VRB03KT 15SM FEW065 27/10 A3007 RMK CU1 CU TR LAST OBS/NEXT 081300UTC SLP174 DENSITY ALT 3900FT,2024-08-08T01:00:00Z,27,10,15,30.07
CTRA,49.664,-93.733,290,6,6.9,CTRA 080100Z AUTO 29006G16KT 18/13 RMK AO1 SLP113 T01760131 53004,2024-08-08T01:00:00Z,17.6,13.1,,
CTNK,45.533,-78.266,0,0,0.0,CTNK 080100Z AUTO 00000KT 15/11 RMK AO1 SLP182 T01450113 50001,2024-08-08T01:00:00Z,14.5,11.3,,
CTCK,45.251,-74.963,250,1,1.15,CTCK 080100Z AUTO 25001KT 15/13 RMK AO1 SLP172 T01470131 53003,2024-08-08T01:00:00Z,14.7,13.1,,
CPSV,49.92,-110.915,350,12,13.81,CPSV 080100Z AUTO 35012KT 18/08 RMK AO1 PK WND 35018/0025 T01780079,2024-08-08T01:00:00Z,17.8,7.9,,
CPST,51.02,-113.27,170,6,6.9,CPST 080100Z AUTO 17006KT 15/11 RMK AO1 T01460110,2024-08-08T01:00:00Z,14.6,11,,
CPRY,49.488,-112.674,10,4,4.6,CPRY 080100Z AUTO 01004KT 17/11 RMK AO1 T01670109,2024-08-08T01:00:00Z,16.7,10.9,,
CPRO,50.826,-112.06,0,0,0.0,CPRO 080100Z AUTO 00000KT 17/11 RMK AO1 T01710112,2024-08-08T01:00:00Z,17.1,11.2,,
CPFI,49.805,-112.037,220,4,4.6,CPFI 080100Z AUTO 22004KT 18/11 RMK AO1 T01760114,2024-08-08T01:00:00Z,17.6,11.4,,
CMGB,45.373,-72.774,0,0,0.0,CMGB 080100Z AUTO 00000KT 16/12 RMK AO1 SLP186 T01590118 53005,2024-08-08T01:00:00Z,15.9,11.8,,
CMFM,47.323,-71.148,230,1,1.15,CMFM 080100Z AUTO 23001KT 09/06 RMK AO1 SLP202 T00920064 53012,2024-08-08T01:00:00Z,9.2,6.4,,
CERM,47.417,-68.325,340,1,1.15,CERM 080100Z AUTO 34001KT 09/07 RMK AO1 SLP184 T00900072 51015,2024-08-08T01:00:00Z,9,7.2,,
CBBC,52.181,-128.154,VRB,2,2.3,CBBC 080100Z AUTO VRB02KT 9SM 18/15 A3015 RMK CLD MISG SLP214,2024-08-08T01:00:00Z,18,15,9,30.15
CAHR,46.344,-63.17,270,3,3.45,CAHR 080100Z AUTO 27003KT 16/13 RMK AO1 SLP159 T01630128 53019,2024-08-08T01:00:00Z,16.3,12.8,,
BIRK,64.129,-21.941,120,4,4.6,BIRK 080100Z 12004KT 9999 FEW015 10/10 Q0997,2024-08-08T01:00:00Z,10,10,6+,29.44
BIEG,65.275,-14.409,350,7,8.06,BIEG 080100Z 35007KT 9999 OVC016 08/06 Q0998,2024-08-08T01:00:00Z,8,6,6+,29.47
BIAR,65.655,-18.069,350,4,4.6,BIAR 080100Z 35004KT 9999 OVC007 08/07 Q0999,2024-08-08T01:00:00Z,8,7,6+,29.50
AYPY,-9.443,147.216,140,15,17.26,AYPY 080100Z 14015KT 9999 FEW025 SCT050 29/22 Q1013,2024-08-08T01:00:00Z,29,22,6+,29.91
AYMH,-5.831,144.3,VRB,3,3.45,AYMH 080100Z VRB03KT 9999 SCT015 SCT040 22/17 Q1024,2024-08-08T01:00:00Z,22,17,6+,30.24
RODE,26.718,127.783,,,,RODE 080059Z AUTO A2972 RMK AO2 SLPNO PWINO TSNO $,2024-08-08T00:59:00Z,,,,29.72
MUCF,22.159,-80.41,230,3,3.45,MUCF 080059Z AUTO 23003KT 29/25 Q1011,2024-08-08T00:59:00Z,29,25,,29.85
KOXD,39.5047,-84.7838,10,6,6.9,KOXD 080059Z AUTO 01006KT 10SM CLR 24/19 A2989 RMK AO2,2024-08-08T00:59:00Z,24,19,10+,29.89
KNOZ,32.55,-114.512,,,,KNOZ 080059Z AUTO A2979 RMK AO2 SLPNO PWINO TSNO $,2024-08-08T00:59:00Z,,,,29.79
KNGU,36.937,-76.281,70,10,11.51,KNGU 080059Z 07010KT 6SM -RA BR SCT005 BKN030 BKN100 24/23 A2987 RMK AO2 SLP115 T2 SET P0002 T02390233,2024-08-08T00:59:00Z,23.9,23.3,6,29.87
KROG,36.3749,-94.1078,70,6,6.9,KROG 080058Z AUTO 07006KT CLR 30/17 A2989 RMK AO2 SLP104 T03000167 PWINO TSNO $,2024-08-08T00:58:00Z,30,16.7,,29.89
KPRN,31.8467,-86.6141,300,6,6.9,KPRN 080058Z AUTO 30006KT 10SM FEW095 31/23 A2972 RMK AO2 SLP008 T03060228,2024-08-08T00:58:00Z,30.6,22.8,10+,29.72
KMRH,34.7326,-76.6566,110,12,13.81,KMRH 080058Z AUTO 11012G20KT 10SM OVC095 29/25 A2974 RMK AO2 SLP070 T02890250,2024-08-08T00:58:00Z,28.9,25,10+,29.74
KMEI,32.3348,-88.7507,270,4,4.6,KMEI 080058Z 27004KT 10SM CLR 31/23 A2973 RMK AO2 SLP062 T03060233,2024-08-08T00:58:00Z,30.6,23.3,10+,29.73
KEUF,31.9516,-85.1312,300,3,3.45,KEUF 080058Z AUTO 30003KT 10SM CLR 28/22 A2970 RMK AO2 SLP053 T02830222,2024-08-08T00:58:00Z,28.3,22.2,10+,29.70
KCIC,39.7988,-121.858,180,12,13.81,KCIC 080058Z 18012KT 10SM CLR 38/05 A2981,2024-08-08T00:58:00Z,38,5,10+,29.81
KBKF,39.713,-104.758,70,8,9.21,KBKF 080058Z 07008KT 10SM SCT070 BKN110 BKN220 23/12 A3018 RMK AO2A SLP140 T02340124,2024-08-08T00:58:00Z,23.4,12.4,10+,30.18
KBCR,30.8432,-85.6043,0,0,0.0,KBCR 080058Z AUTO 00000KT 10SM CLR 28/26 A2970 RMK AO2 SLP015 T02780256,2024-08-08T00:58:00Z,27.8,25.6,10+,29.70
K0J4,31.0447,-86.3119,0,0,0.0,K0J4 080058Z AUTO 00000KT 10SM CLR 29/23 A2973 RMK AO2 SLP062 T02890228,2024-08-08T00:58:00Z,28.9,22.8,10+,29.73
PHNG,21.45,-157.763,60,13,14.96,PHNG 080057Z 06013KT 7SM SCT030 31/20 A3003 RMK AO2 SLP164 T03110200,2024-08-08T00:57:00Z,31.1,20,7,30.03
PASY,52.711,174.107,190,13,14.96,PASY 080057Z 19013KT 10SM FEW012 OVC085 13/10 A2997 RMK AO2A SLP149 ALSTG/SLP ESTMD T01260100 PNO FZRANO $,2024-08-08T00:57:00Z,12.6,10,10+,29.97
MMQT,20.617,-100.194,60,10,11.51,MMQT 080057Z RTD 06010KT 8SM SCT020 BKN250 25/11 A3022 RMK 8/504 DSNT CB S SE,2024-08-08T00:57:00Z,25,11,8,30.22
KNYL,32.66,-114.608,240,12,13.81,KNYL 080057Z 24012G16KT 10SM SCT080 39/21 A2977 RMK AO2 SLP076 T03890211,2024-08-08T00:57:00Z,38.9,21.1,10+,29.77
KNJW,32.792,-88.832,330,7,8.06,KNJW 080057Z AUTO 33007KT 10SM FEW070 31/23 A2978 RMK AO2 SLP997 T03110228 $,2024-08-08T00:57:00Z,31.1,22.8,10+,29.78
KNJM,34.694,-77.029,110,16,18.41,KNJM 080057Z AUTO 11016G25KT 6SM HZ BKN110 28/25 A2972 RMK AO2 SLP066 T02780250,2024-08-08T00:57:00Z,27.8,25,6,29.72
KMNM,45.126,-87.639,170,4,4.6,KMNM 080057Z AUTO 17004KT 10SM CLR 21/12 A2997 RMK AO2 SLP163 T02110122 $,2024-08-08T00:57:00Z,21.1,12.2,10+,29.97
KFLG,35.1443,-111.666,240,5,5.75,KFLG 080057Z 24005KT 10SM CLR 25/12 A3028 RMK AO2 LTG DSNT W AND NW SLP140 T02500117,2024-08-08T00:57:00Z,25,11.7,10+,30.28
EQYR,36.647,-6.347,170,8,9.21,EQYR 080057Z AUTO 17008KT 10SM CLR 22/22 A2988 RMK AO2 SLP115 T02220217 $,2024-08-08T00:57:00Z,22.2,21.7,10+,29.88
EQYG,35.53,24.15,280,4,4.6,EQYG 080057Z AUTO 28004KT 10SM CLR 26/24 A2987 RMK AO2 SLP107 T02560244 PWINO $ ,2024-08-08T00:57:00Z,25.6,24.4,10+,29.87
TJSJ,18.4326,-66.0107,100,6,6.9,TJSJ 080056Z 10006KT 10SM FEW030 29/24 A2994 RMK AO2 SLP138 T02940244,2024-08-08T00:56:00Z,29.4,24.4,10+,29.94
RJOI,34.144,132.236,100,6,6.9,RJOI 080056Z 10006KT 9999 FEW025 32/24 A2968 RMK AO2 SLP050 T03170239,2024-08-08T00:56:00Z,31.7,23.9,6+,29.68
PPIZ,69.735,-163.003,350,7,8.06,PPIZ 080056Z AUTO 35007KT 10SM -RA SCT037 BKN065 OVC080 10/09 A2965 RMK AO2 SLP043 P0001 T01000089,2024-08-08T00:56:00Z,10,8.9,10+,29.65
PHNY,20.783,-156.955,30,18,20.71,PHNY 080056Z AUTO 03018G23KT 10SM FEW031 27/19 A3007 RMK AO2 SLP159 T02720189,2024-08-08T00:56:00Z,27.2,18.9,10+,30.07
PGWT,14.997,145.624,230,6,6.9,PGWT 080056Z 23006KT 7SM FEW020 SCT100 30/24 A2990,2024-08-08T00:56:00Z,30,24,7,29.90
PFYU,66.572,-145.243,0,0,0.0,PFYU 080056Z 00000KT 10SM FEW080 SCT120 28/10 A2983 RMK AO2 SLP107 T02780100,2024-08-08T00:56:00Z,27.8,10,10+,29.83
PFWS,58.704,-157.005,180,11,12.66,PFWS 080056Z AUTO 18011G16KT 10SM FEW028 BKN040 OVC048 14/09 A2985 RMK AO2 SLP152 T01440094,2024-08-08T00:56:00Z,14.4,9.4,10+,29.85
PFTO,63.329,-142.954,210,8,9.21,PFTO 080056Z AUTO 21008KT 10SM CLR 28/07 A2993 RMK AO2 SLP775 T02780067 $,2024-08-08T00:56:00Z,27.8,6.7,10+,29.93
PFSH,64.367,-161.217,160,9,10.36,PFSH 080056Z AUTO 16009KT 10SM OVC090 14/12 A2976 RMK AO2 RAE06 SLP076 P0000 T01390122,2024-08-08T00:56:00Z,13.9,12.2,10+,29.76
PFNO,66.819,-161.024,170,21,24.17,PFNO 080056Z AUTO 17021G24KT 10SM SCT028 SCT065 18/13 A2966 RMK AO2 PK WND 16026/0040 RAE07 SLP043 P0000 T01830133 $,2024-08-08T00:56:00Z,18.3,13.3,10+,29.66
PFKW,60.793,-161.44,230,10,11.51,PFKW 080056Z AUTO 23010KT 10SM SCT023 BKN080 BKN100 14/11 A2975 RMK AO2 SLP073 T01440106,2024-08-08T00:56:00Z,14.4,10.6,10+,29.75
PFEL,64.616,-162.272,190,10,11.51,PFEL 080056Z AUTO 19010KT 10SM SCT007 BKN060 14/12 A2973 RMK AO2 SLP067 T01390117 PNO $,2024-08-08T00:56:00Z,13.9,11.7,10+,29.73
PAWS,61.571,-149.538,300,3,3.45,PAWS 080056Z AUTO 30003KT 10SM -RA FEW049 OVC075 16/15 A2998 RMK AO2 SLP152 P0005 T01610150,2024-08-08T00:56:00Z,16.1,15,10+,29.98
PAVC,55.115,-162.271,230,8,9.21,PAVC 080056Z AUTO 23008KT 10SM BKN050 A2986 RMK AO2 SLPNO FZRANO PNO $,2024-08-08T00:56:00Z,,,10+,29.86
PAUN,63.885,-160.794,0,0,0.0,PAUN 080056Z AUTO 00000KT 10SM -RA SCT033 BKN044 OVC055 14/11 A2976 RMK AO2 RAB02 SLP080 T01390111 PNO $,2024-08-08T00:56:00Z,13.9,11.1,10+,29.76
PATQ,70.469,-157.428,110,10,11.51,PATQ 080056Z AUTO 11010KT 10SM BKN040 BKN049 19/14 A2964 RMK AO2 RAE11 PRESFR SLP041 T01890144 TSNO PNO $,2024-08-08T00:56:00Z,18.9,14.4,10+,29.64
PATG,59.051,-160.398,180,12,13.81,PATG 080056Z AUTO 18012KT 10SM SCT009 SCT047 BKN060 12/11 A2982 RMK AO2 SLP098 T01220106,2024-08-08T00:56:00Z,12.2,10.6,10+,29.82
PASX,60.476,-151.053,0,0,0.0,PASX 080056Z AUTO 00000KT 10SM -RA CLR 15/ A2997 RMK AO2 SLP153 P0001 T0150,2024-08-08T00:56:00Z,15,,10+,29.97
PASK,66.599,-159.991,180,11,12.66,PASK 080056Z AUTO 18011KT 10SM FEW038 BKN075 OVC090 18/14 A2972 RMK AO2 RAE23 SLP059 P0000 T01780139,2024-08-08T00:56:00Z,17.8,13.9,10+,29.72
PASH,66.252,-166.084,350,6,6.9,PASH 080056Z AUTO 35006KT 7SM OVC007 08/07 A2968 RMK AO2 SLP050 T00830072,2024-08-08T00:56:00Z,8.3,7.2,7,29.68
PASD,55.318,-160.525,160,9,10.36,PASD 080056Z 16009KT 10SM FEW021 BKN044 BKN070 13/09 A2986 RMK AO2 SLP112 T01280094 $,2024-08-08T00:56:00Z,12.8,9.4,10+,29.86
PARY,64.731,-155.463,VRB,3,3.45,PARY 080056Z AUTO VRB03KT 10SM BKN030 BKN038 BKN090 17/13 A2982 RMK AO2 SLP103 T01720128 TSNO,2024-08-08T00:56:00Z,17.2,12.8,10+,29.82
PARS,61.78,-161.321,220,8,9.21,PARS 080056Z AUTO 22008KT 10SM -RA FEW015 BKN048 OVC055 13/12 A2974 RMK AO2 RAB12 SLP073 P0017 T01330117 $,2024-08-08T00:56:00Z,13.3,11.7,10+,29.74
PAQH,59.751,-161.842,190,10,11.51,PAQH 080056Z AUTO 19010KT 10SM -RA BKN015 OVC043 12/10 A2978 RMK AO2 RAE39B55 SLP086 P0000 T01220100,2024-08-08T00:56:00Z,12.2,10,10+,29.78
PAPM,59.011,-161.82,200,14,16.11,PAPM 080056Z AUTO 20014KT 9SM FEW027 SCT034 BKN047 12/09 A2978 RMK AO2 SLP085 T01170094,2024-08-08T00:56:00Z,11.7,9.4,9,29.78
PAPG,56.805,-132.935,70,5,5.75,PAPG 080056Z 07005KT 10SM CLR 19/12 A3018 RMK AO2 SLP224 T01940117,2024-08-08T00:56:00Z,19.4,11.7,10+,30.18
PAPE,55.9096,-159.16,190,11,12.66,PAPE 080056Z AUTO 19011KT 9SM OVC060 13/08 A2988 RMK AO2 SLP115 T01280078,2024-08-08T00:56:00Z,12.8,7.8,9,29.88
PAOU,56.006,-161.162,290,9,10.36,PAOU 080056Z AUTO 29009KT 10SM BKN049 OVC060 11/08 A2985 RMK AO2 SLP108 T01110083 PNO $,2024-08-08T00:56:00Z,11.1,8.3,10+,29.85
PANW,59.451,-157.325,180,8,9.21,PANW 080056Z AUTO 18008KT 8SM RA FEW021 SCT046 OVC065 13/11 A2985 RMK AO2 RAB50 SLP111 P0002 T01330111 $,2024-08-08T00:56:00Z,13.3,11.1,8,29.85
PANU,64.7304,-158.075,180,7,8.06,PANU 080056Z AUTO 18007KT 10SM FEW029 BKN080 17/12 A2981 RMK AO2 SLP002 T01670117,2024-08-08T00:56:00Z,16.7,11.7,10+,29.81
PANI,61.578,-159.539,0,0,0.0,PANI 080056Z AUTO 00000KT 10SM BKN055 BKN070 OVC080 15/11 A2974 RMK AO2 SLP074 T01500106 $,2024-08-08T00:56:00Z,15,10.6,10+,29.74
PANA,60.694,-161.978,200,10,11.51,PANA 080056Z AUTO 20010KT 8SM -RA FEW019 BKN060 OVC075 13/11 A2976 RMK AO2 RAB56 SLP076 P0000 T01330106 TSNO,2024-08-08T00:56:00Z,13.3,10.6,8,29.76
PAMK,63.484,-162.115,200,9,10.36,PAMK 080056Z AUTO 20009KT 10SM BKN038 OVC050 17/10 A2972 RMK AO2 SLP063 T01720100,2024-08-08T00:56:00Z,17.2,10,10+,29.72
PAMH,63.889,-152.292,0,0,0.0,PAMH 080056Z AUTO 00000KT 10SM SCT085 17/16 A2985 RMK AO2 RAB06E16 SLP104 T01720156 TSNO PNO $,2024-08-08T00:56:00Z,17.2,15.6,10+,29.85
PALG,61.538,-160.34,0,0,0.0,PALG 080056Z AUTO 00000KT 10SM -RA OVC060 13/11 A2976 RMK AO2 SLP079 T01330111 PNO $,2024-08-08T00:56:00Z,13.3,11.1,10+,29.76
PAKI,59.935,-164.033,,,,PAKI 080056Z AUTO SCT017 OVC024 12/09 A2973 RMK AO2 SLPNO T01170089 PWINO $,2024-08-08T00:56:00Z,11.7,8.9,,29.73
PAKF,54.85,-163.409,0,0,0.0,PAKF 080056Z AUTO 00000KT 9SM OVC034 11/08 A2986 RMK AO2 SLP111 T01060083,2024-08-08T00:56:00Z,10.6,8.3,9,29.86
PAJZ,59.727,-157.267,170,12,13.81,PAJZ 080056Z AUTO 17012KT 6SM HZ SCT075 15/11 A2988 RMK AO2 SLP115 T01500111 PNO $,2024-08-08T00:56:00Z,15,11.1,6,29.88
PAIN,63.733,-148.912,0,0,0.0,PAIN 080056Z AUTO 00000KT 10SM SCT045 OVC055 17/11 A2997 RMK AO2 RAB37E55 SLP151 P0000 T01670111,2024-08-08T00:56:00Z,16.7,11.1,10+,29.97
PAIK,66.975,-160.439,130,6,6.9,PAIK 080056Z AUTO 13006KT 10SM SCT035 BKN047 BKN065 16/14 A2971 RMK AO2 RAE2359B32E56 SLP060 P0002 T01610144,2024-08-08T00:56:00Z,16.1,14.4,10+,29.71
PAII,58.186,-157.375,270,9,10.36,PAII 080056Z AUTO 27009KT 10SM BKN045 OVC060 13/11 A2987 RMK AO2 SLP112 T01330106,2024-08-08T00:56:00Z,13.3,10.6,10+,29.87
PAIG,59.325,-155.897,0,0,0.0,PAIG 080056Z AUTO 00000KT 10SM BKN035 BKN048 OVC075 13/12 A2985 RMK AO2 SLP116 T01330122,2024-08-08T00:56:00Z,13.3,12.2,10+,29.85
PAHY,55.202,-132.825,260,5,5.75,PAHY 080056Z AUTO 26005KT 10SM CLR 21/12 A3018 RMK AO2 SLP216 T02060122 PNO $,2024-08-08T00:56:00Z,20.6,12.2,10+,30.18
PAHL,65.699,-156.353,180,4,4.6,PAHL 080056Z AUTO 18004KT 10SM SCT028 18/13 A2979 RMK AO2 SLP092 T01830128 TSNO,2024-08-08T00:56:00Z,18.3,12.8,10+,29.79
PAHC,62.191,-159.773,VRB,3,3.45,PAHC 080056Z AUTO VRB03KT 10SM -RA SCT036 BKN045 OVC060 15/12 A2974 RMK AO2 RAB15 SLP077 P0000 T01500117,2024-08-08T00:56:00Z,15,11.7,10+,29.74
PAGS,58.425,-135.707,200,6,6.9,PAGS 080056Z AUTO 20006KT 10SM CLR 23/11 A3027 RMK AO2 SLP250 T02280106 TSNO,2024-08-08T00:56:00Z,22.8,10.6,10+,30.27
PAGN,57.502,-134.589,0,0,0.0,PAGN 080056Z AUTO 00000KT 10SM CLR 19/13 A3020 RMK AO2 SLP215 T01940128,2024-08-08T00:56:00Z,19.4,12.8,10+,30.20
PAGH,66.886,-157.159,150,11,12.66,PAGH 080056Z AUTO 15011G17KT 10SM BKN110 19/13 A2979 RMK AO2 SLPNO T01890128,2024-08-08T00:56:00Z,18.9,12.8,10+,29.79
PAGA,64.738,-156.92,180,8,9.21,PAGA 080056Z AUTO 18008KT 10SM SCT035 BKN075 OVC085 18/12 A2980 RMK AO2 SLP092 T01830117 TSNO $,2024-08-08T00:56:00Z,18.3,11.7,10+,29.80
PAFM,67.106,-157.858,150,8,9.21,PAFM 080056Z AUTO 15008KT 10SM BKN036 OVC050 18/13 A2978 RMK AO2 RAB2358E10 SLP089 P0000 T01780133,2024-08-08T00:56:00Z,17.8,13.3,10+,29.78
PAFE,56.961,-133.91,280,6,6.9,PAFE 080056Z AUTO 28006KT 10SM CLR 18/12 A3022 RMK AO2 SLP238 T01780122,2024-08-08T00:56:00Z,17.8,12.2,10+,30.22
PAEL,58.196,-136.347,0,0,0.0,PAEL 080056Z 00000KT 20SM SKC 14/11 A3020 RMK NOSPECI,2024-08-08T00:56:00Z,14,11,20,30.20
PADM,61.865,-162.033,170,11,12.66,PADM 080056Z AUTO 17011KT 10SM -RA FEW030 OVC075 15/12 A2977 RMK AO2 RAE23B56 SLP085 P0002 T01500117,2024-08-08T00:56:00Z,15,11.7,10+,29.77
PADL,59.04,-158.507,190,11,12.66,PADL 080056Z 19011G16KT 10SM FEW043 OVC070 14/11 A2982 RMK AO2 SLP099 T01440106,2024-08-08T00:56:00Z,14.4,10.6,10+,29.82
PADK,51.881,-176.644,230,18,20.71,PADK 080056Z AUTO 23018G22KT 10SM CLR 16/09 A3001 RMK AO2 PK WND 24027/2358 SLP161 T01610094 $,2024-08-08T00:56:00Z,16.1,9.4,10+,30.01
PACX,67.252,-150.204,220,10,11.51,PACX 080056Z AUTO 22010KT 10SM FEW080 OVC095 21/10 A2987 RMK AO2 SLP742 T02110100,2024-08-08T00:56:00Z,21.1,10,10+,29.87
PACM,61.846,-165.579,250,6,6.9,PACM 080056Z AUTO 25006KT 10SM OVC008 11/10 A2972 RMK AO2 RAB04E16 SLP062 P0000 T01060100,2024-08-08T00:56:00Z,10.6,10,10+,29.72
PABV,61.416,-149.511,150,4,4.6,PABV 080056Z AUTO 15004KT 9SM RA OVC080 16/15 A2998 RMK AO2 SLP152 P0007 T01610150,2024-08-08T00:56:00Z,16.1,15,9,29.98
PABL,65.979,-161.146,210,12,13.81,PABL 080056Z AUTO 21012KT 10SM FEW033 18/11 A2968 RMK AO2 SLP053 T01830111,2024-08-08T00:56:00Z,18.3,11.1,10+,29.68
MMPS,15.876,-97.093,310,5,5.75,MMPS 080056Z 31005KT 8SM BKN200 29/27 A2978 NOSIG RMK 8/002 HZY MSGTX MMMX,2024-08-08T00:56:00Z,29,27,8,29.78
KYKN,42.9142,-97.3807,330,14,16.11,KYKN 080056Z AUTO 33014KT 10SM FEW037 26/21 A2991 RMK AO2 SLP134 T02560211 $,2024-08-08T00:56:00Z,25.6,21.1,10+,29.91
KY50,44.0435,-89.304,0,0,0.0,KY50 080056Z AUTO 00000KT 10SM CLR 21/19 A2996 RMK AO2 SLP141 T02110189 $,2024-08-08T00:56:00Z,21.1,18.9,10+,29.96
KWVL,44.5301,-69.6753,230,6,6.9,KWVL 080056Z AUTO 23006KT 10SM CLR 18/15 A3003 RMK AO2 SLP196 T01780150,2024-08-08T00:56:00Z,17.8,15,10+,30.03
KWMC,40.9018,-117.808,310,4,4.6,KWMC 080056Z AUTO 31004KT 10SM CLR 36/M02 A3003 RMK AO2 SLP119 T03611017,2024-08-08T00:56:00Z,36.1,-1.7,10+,30.03
KWJF,34.7412,-118.213,240,19,21.86,KWJF 080056Z 24019G30KT 10SM CLR 35/03 A2992 RMK AO2 PK WND 24033/0027 SLP104 T03500028,2024-08-08T00:56:00Z,35,2.8,10+,29.92
KVPZ,41.4535,-86.998,0,0,0.0,KVPZ 080056Z AUTO 00000KT 10SM CLR 21/16 A2994 RMK AO2 SLP136 T02110156,2024-08-08T00:56:00Z,21.1,15.6,10+,29.94
KVIS,36.3135,-119.388,310,7,8.06,KVIS 080056Z AUTO 31007KT 10SM CLR 42/11 A2980 RMK AO2 SLP087 T04170106,2024-08-08T00:56:00Z,41.7,10.6,10+,29.80
KVBT,36.3444,-94.2211,80,7,8.06,KVBT 080056Z AUTO 08007KT 10SM CLR 31/17 A2988 RMK AO2 SLP109 T03060172,2024-08-08T00:56:00Z,30.6,17.2,10+,29.88
KUKI,39.1278,-123.2,250,8,9.21,KUKI 080056Z AUTO 25008KT 220V280 10SM CLR 39/08 A2983 RMK AO2 SLP093 T03890078,2024-08-08T00:56:00Z,38.9,7.8,10+,29.83
KTVF,48.0597,-96.1787,320,8,9.21,KTVF 080056Z AUTO 32008KT 10SM CLR 18/11 A2997 RMK AO2 SLP148 T01830111,2024-08-08T00:56:00Z,18.3,11.1,10+,29.97
KTPH,38.0505,-117.091,350,5,5.75,KTPH 080056Z AUTO 35005KT 10SM CLR 36/M01 A3009 RMK AO2 SLP092 T03611006,2024-08-08T00:56:00Z,36.1,-0.6,10+,30.09
KSUE,44.847,-87.425,0,0,0.0,KSUE 080056Z AUTO 00000KT 10SM CLR 19/12 A2998 RMK AO2 SLP148 T01890122,2024-08-08T00:56:00Z,18.9,12.2,10+,29.98
KSRC,35.2134,-91.7393,20,6,6.9,KSRC 080056Z AUTO 02006KT 10SM CLR 25/19 A2987 RMK AO2 SLP110 T02500189 $,2024-08-08T00:56:00Z,25,18.9,10+,29.87
KSQI,41.7432,-89.6655,60,4,4.6,KSQI 080056Z AUTO 06004KT 10SM CLR 21/18 A2995 RMK AO2 SLP005 T02060178 PNO $,2024-08-08T00:56:00Z,20.6,17.8,10+,29.95
KSOP,35.2371,-79.3921,40,9,10.36,KSOP 080056Z AUTO 04009G18KT BKN021 OVC027 25/23 A2971 RMK AO2 RAB11RAEMM SLP061 P0000 T02500233 PWINO $,2024-08-08T00:56:00Z,25,23.3,,29.71
KSMP,47.2764,-121.338,VRB,3,3.45,KSMP 080056Z AUTO VRB03KT 10SM CLR 23/10 A3017 RMK AO2 SLP190 T02330100,2024-08-08T00:56:00Z,23.3,10,10+,30.17
KSMN,45.1283,-113.883,20,9,10.36,KSMN 080056Z AUTO 02009KT 10SM CLR 30/02 A3002 RMK AO2 SLPNO T03000017,2024-08-08T00:56:00Z,30,1.7,10+,30.02
KSLG,36.1941,-94.488,60,3,3.45,KSLG 080056Z AUTO 06003KT 10SM CLR 32/16 A2987 RMK AO2 SLP099 T03170161,2024-08-08T00:56:00Z,31.7,16.1,10+,29.87
KSLE,44.9049,-123.001,30,8,9.21,KSLE 080056Z 03008KT 10SM CLR 32/13 A2994 RMK AO2 SLP136 T03170133,2024-08-08T00:56:00Z,31.7,13.3,10+,29.94
KSKX,36.4584,-105.675,100,10,11.51,KSKX 080056Z AUTO 10010KT 10SM CLR 24/08 A3024 RMK AO2 LTG DSNT S AND SW SLP172 T02440083,2024-08-08T00:56:00Z,24.4,8.3,10+,30.24
KSHV,32.4473,-93.8244,200,3,3.45,KSHV 080056Z 20003KT 10SM CLR 34/22 A2977 RMK SLPNO,2024-08-08T00:56:00Z,34,22,10+,29.77
KSGU,37.0444,-113.503,270,15,17.26,KSGU 080056Z AUTO 27015G21KT 10SM CLR 38/13 A2986 RMK AO2 SLP065 T03830128,2024-08-08T00:56:00Z,38.3,12.8,10+,29.86
KSGT,34.5998,-91.5763,30,5,5.75,KSGT 080056Z AUTO 03005KT 10SM CLR 24/20 A2985 RMK AO2 SLP107 T02440200 $,2024-08-08T00:56:00Z,24.4,20,10+,29.85
KSGJ,29.9592,-81.341,0,0,0.0,KSGJ 080056Z AUTO 00000KT 10SM -RA 27/25 A2965 RMK AO2 LTG DSNT E TSB07E15B17E37RAB46 SLPNO P0000 T02720250,2024-08-08T00:56:00Z,27.2,25,10+,29.65
KSGH,39.8358,-83.8443,30,8,9.21,KSGH 080056Z AUTO 03008KT 10SM SCT023 23/19 A2989 RMK AO2 SLP118 T02280194,2024-08-08T00:56:00Z,22.8,19.4,10+,29.89
KSFZ,41.9168,-71.4924,0,0,0.0,KSFZ 080056Z AUTO 00000KT 10SM BKN110 16/ A3008 RMK AO2 SLP187 T0161 $,2024-08-08T00:56:00Z,16.1,,10+,30.08
KSFO,37.6196,-122.366,310,18,20.71,KSFO 080056Z 31018KT 10SM FEW005 FEW180 16/12 A2990 RMK AO2 PK WND 31027/0012 SLP125 T01560122,2024-08-08T00:56:00Z,15.6,12.2,10+,29.90
KSFM,43.3876,-70.7154,230,3,3.45,KSFM 080056Z AUTO 23003KT 10SM CLR 16/15 A3008 RMK AO2 SLP190 T01560150 PNO $,2024-08-08T00:56:00Z,15.6,15,10+,30.08
KSDY,47.7029,-104.195,10,12,13.81,KSDY 080056Z AUTO 01012KT 10SM BKN100 19/05 A3018 RMK AO2 SLP219 T01940050 PNO $,2024-08-08T00:56:00Z,19.4,5,10+,30.18
KSDF,38.1774,-85.7308,10,11,12.66,KSDF 080056Z 01011KT 10SM FEW040 BKN050 29/21 A2979 RMK AO2 SLP083 T02890211,2024-08-08T00:56:00Z,28.9,21.1,10+,29.79
KSBP,35.2382,-120.644,310,12,13.81,KSBP 080056Z 31012KT 10SM CLR 27/15 A2994 RMK AO2 SLP136 T02720150 $,2024-08-08T00:56:00Z,27.2,15,10+,29.94
KRUT,43.53,-72.9517,120,8,9.21,KRUT 080056Z AUTO 12008KT 10SM CLR 18/15 A3007 RMK AO2 SLP176 T01780150 $,2024-08-08T00:56:00Z,17.8,15,10+,30.07
KRKD,44.0611,-69.1014,270,4,4.6,KRKD 080056Z AUTO 27004KT 10SM CLR 16/14 A3006 RMK AO2 SLP179 T01610144,2024-08-08T00:56:00Z,16.1,14.4,10+,30.06
KRDM,44.2558,-121.141,330,10,11.51,KRDM 080056Z 33010KT 10SM CLR 32/01 A3004 RMK AO2 SLP145 T03220006 $,2024-08-08T00:56:00Z,32.2,0.6,10+,30.04
KPWT,47.4942,-122.759,60,6,6.9,KPWT 080056Z AUTO 06006KT 10SM CLR 26/15 A3006 RMK AO2 SLP179 T02560150,2024-08-08T00:56:00Z,25.6,15,10+,30.06
KPWG,31.4891,-97.3202,70,7,8.06,KPWG 080056Z AUTO 07007KT 10SM CLR 35/17 A2980 RMK AO2 SLP081 T03500167,2024-08-08T00:56:00Z,35,16.7,10+,29.80
KPVU,40.224,-111.725,330,11,12.66,KPVU 080056Z 33011KT 10SM FEW090 SCT200 34/11 A3000 RMK AO2 SLP090 T03390106 $,2024-08-08T00:56:00Z,33.9,10.6,10+,30.00
KPVG,36.7824,-76.452,,,,KPVG 080056Z AUTO 9SM -RA OVC007 24/24 A2986 RMK AO2 SLP111 P0003 T02390239 $,2024-08-08T00:56:00Z,23.9,23.9,9,29.86
KPVC,42.0743,-70.2183,0,0,0.0,KPVC 080056Z AUTO 00000KT 10SM BKN100 OVC120 17/16 A3008 RMK AO2 SLP186 T01720161,2024-08-08T00:56:00Z,17.2,16.1,10+,30.08
KPTV,36.0274,-119.063,320,6,6.9,KPTV 080056Z AUTO 32006KT 10SM CLR 41/11 A2981 RMK AO2 SLP090 T04110111,2024-08-08T00:56:00Z,41.1,11.1,10+,29.81
KPTN,29.71,-91.3381,280,4,4.6,KPTN 080056Z AUTO 28004KT 10SM BKN055 A2979 RMK AO2 SLPNO FZRANO $,2024-08-08T00:56:00Z,,,10+,29.79
KPRX,33.6359,-95.4514,210,4,4.6,KPRX 080056Z AUTO 21004KT 10SM CLR 36/22 A2978 RMK AO2 SLP076 T03610217,2024-08-08T00:56:00Z,36.1,21.7,10+,29.78
KPQI,46.697,-68.054,340,8,9.21,KPQI 080056Z AUTO 34008KT 10SM CLR 16/08 A3007 RMK AO2 SLP208 T01560078,2024-08-08T00:56:00Z,15.6,7.8,10+,30.07
KPIB,31.4727,-89.3383,0,0,0.0,KPIB 080056Z AUTO 00000KT 10SM CLR 32/23 A2977 RMK AO2 SLP075 T03170228,2024-08-08T00:56:00Z,31.7,22.8,10+,29.77
KP28,37.2664,-98.5463,120,7,8.06,KP28 080056Z AUTO 12007KT 36/18 A2978 RMK AO1 SLP064 T03610183 $,2024-08-08T00:56:00Z,36.1,18.3,,29.78
KOXC,41.4741,-73.1353,100,3,3.45,KOXC 080056Z 10003KT 10SM FEW019 BKN090 OVC120 17/17 A3008 RMK AO2 SLP198 T01720167 PNO $,2024-08-08T00:56:00Z,17.2,16.7,10+,30.08
KOWB,37.7297,-87.1683,330,9,10.36,KOWB 080056Z 33009KT 10SM FEW027 24/22 A2983 RMK AO2 SLP101 T02440217,2024-08-08T00:56:00Z,24.4,21.7,10+,29.83
KOTH,43.4194,-124.244,350,22,25.32,KOTH 080056Z 35022G30KT 4SM BR OVC004 15/13 A3000 RMK AO2 PK WND 35031/0039 SLP160 VIS SW - N 1 1/2SM BR T01500128,2024-08-08T00:56:00Z,15,12.8,4,30.00
KOTG,43.6525,-95.5759,190,5,5.75,KOTG 080056Z AUTO 19005KT 10SM FEW033 24/19 A2992 RMK AO2 SLP129 T02390189,2024-08-08T00:56:00Z,23.9,18.9,10+,29.92
KOLU,41.4472,-97.3391,160,8,9.21,KOLU 080056Z AUTO 16008KT 10SM CLR 26/20 A2992 RMK AO2 SLP125 T02610200,2024-08-08T00:56:00Z,26.1,20,10+,29.92
KOKK,40.5304,-86.055,50,7,8.06,KOKK 080056Z AUTO 05007KT 10SM FEW026 SCT048 21/19 A2993 RMK AO2 SLP130 T02110194,2024-08-08T00:56:00Z,21.1,19.4,10+,29.93
KOFK,41.9799,-97.4335,170,4,4.6,KOFK 080056Z AUTO 17004KT 10SM FEW120 26/20 A2991 RMK AO2 SLP119 T02610200,2024-08-08T00:56:00Z,26.1,20,10+,29.91
KOCH,31.5809,-94.7081,0,0,0.0,KOCH 080056Z AUTO 00000KT 10SM CLR 30/25 A2981 RMK AO2 SLP093 T03000250,2024-08-08T00:56:00Z,30,25,10+,29.81
KNYG,38.503,-77.301,140,7,8.06,KNYG 080056Z AUTO 14007KT 7SM RA BKN019 BKN025 28/24 A2988 RMK AO2 SLP120 P0000 T02780239,2024-08-08T00:56:00Z,27.8,23.9,7,29.88
KNXP,34.294,-116.147,220,15,17.26,KNXP 080056Z AUTO 22015G21KT 10SM CLR 41/09 A2991 RMK AO2 SLP085 T04110094,2024-08-08T00:56:00Z,41.1,9.4,10+,29.91
KNUC,33.022,-118.583,230,6,6.9,KNUC 080056Z COR 23006KT 10SM OVC008 20/15 A2996 RMK SLP144 LAST T02000150,2024-08-08T00:56:00Z,20,15,10+,29.96
KNTU,36.8209,-76.0277,120,14,16.11,KNTU 080056Z 12014KT 6SM -RA BR BKN005 BKN055 OVC120 24/24 A2984 RMK AO2 SLP108 T2 SET P0000 T02390239,2024-08-08T00:56:00Z,23.9,23.9,6,29.84
KNSE,30.728,-87.022,0,0,0.0,KNSE 080056Z 00000KT 10SM CLR 28/24 A2971 RMK SLP046 T02780239,2024-08-08T00:56:00Z,27.8,23.9,10+,29.71
KNQI,27.507,-97.81,130,10,11.51,KNQI 080056Z 13010KT 10SM FEW060 33/25 A2978 RMK AO2 SLP079 T03280250 $,2024-08-08T00:56:00Z,32.8,25,10+,29.78
KNPA,30.356,-87.323,VRB,3,3.45,KNPA 080056Z VRB03KT 10SM CLR 32/23 A2971 RMK AO2 SLP061 T03220228 $,2024-08-08T00:56:00Z,32.2,22.8,10+,29.71
KNOG,27.895,-98.043,130,11,12.66,KNOG 080056Z AUTO 13011KT 10SM CLR 33/24 A2978 RMK AO2 SLPNO T03280239 $,2024-08-08T00:56:00Z,32.8,23.9,10+,29.78
KNMM,32.546,-88.543,270,5,5.75,KNMM 080056Z 27005KT 10SM SCT100 31/23 A2973 RMK AO2 SLP073 T03110233,2024-08-08T00:56:00Z,31.1,23.3,10+,29.73
KNLC,36.3024,-119.94,360,12,13.81,KNLC 080056Z 36012KT 10SM FEW180 43/11 A2979 RMK AO2 SLP084 RH/15 T04280111,2024-08-08T00:56:00Z,42.8,11.1,10+,29.79
KNKT,34.897,-76.881,90,11,12.66,KNKT 080056Z 09011KT 10SM BKN030 OVC100 27/25 A2975 RMK AO2 SLP069 T02670250,2024-08-08T00:56:00Z,26.7,25,10+,29.75
KNJK,32.823,-115.668,230,9,10.36,KNJK 080056Z 23009KT 10SM FEW080 FEW150 SCT250 38/23 A2976 RMK AO2 SLP094 TCU DSNT S T03830233 $,2024-08-08T00:56:00Z,38.3,23.3,10+,29.76
KNID,35.688,-117.69,60,3,3.45,KNID 080056Z COR 06003KT 10SM FEW100 FEW150 SCT220 43/06 A2980 RMK AO2 SLP061 T04280056 $,2024-08-08T00:56:00Z,42.8,5.6,10+,29.80
KNGP,27.688,-97.292,140,12,13.81,KNGP 080056Z 14012KT 10SM CLR 31/25 A2978 RMK AO2 SLP084 T03060250,2024-08-08T00:56:00Z,30.6,25,10+,29.78
KNFE,36.701,-76.129,110,8,9.21,KNFE 080056Z AUTO 11008KT 10SM -RA CLR 26/23 A2985 RMK AO2 SLP110 P0003 T02560233,2024-08-08T00:56:00Z,25.6,23.3,10+,29.85
KNDZ,30.6973,-87.0207,0,0,0.0,KNDZ 080056Z 00000KT 10SM CLR 29/24 A2971 RMK AO2 SLP046 T02890239 $,2024-08-08T00:56:00Z,28.9,23.9,10+,29.71
KNCA,34.7062,-77.4406,100,13,14.96,KNCA 080056Z 10013G23KT 10SM -RA BR FEW020 SCT080 OVC110 27/24 A2968 RMK AO2 SLP054 P0001 T02720244,2024-08-08T00:56:00Z,27.2,24.4,10+,29.68
KMYR,33.6769,-78.9325,100,12,13.81,KMYR 080056Z 10012G17KT 10SM BKN009 BKN013 OVC021 27/27 A2948 RMK AO2 RAE45 SLP982 P0002 T02670267,2024-08-08T00:56:00Z,26.7,26.7,10+,29.48
KMTW,44.1322,-87.6819,0,0,0.0,KMTW 080056Z AUTO 00000KT 10SM CLR 20/13 RMK AO2 SLPNO T02000128 $,2024-08-08T00:56:00Z,20,12.8,10+,
KMTC,42.6045,-82.8353,30,5,5.75,KMTC 080056Z 03005KT 10SM FEW250 21/15 A2993 RMK AO2A SLP138 T02090150 $,2024-08-08T00:56:00Z,20.9,15,10+,29.93
KMQY,36.0029,-86.5144,330,5,5.75,KMQY 080056Z 33005KT 5SM HZ OVC017 A2981 RMK AO2 SLPNO $,2024-08-08T00:56:00Z,,,5,29.81
KMOB,30.6882,-88.2459,240,3,3.45,KMOB 080056Z 24003KT 10SM CLR 31/23 A2974 RMK AO2 SLP067 T03060233,2024-08-08T00:56:00Z,30.6,23.3,10+,29.74
KMML,44.4504,-95.8215,0,0,0.0,KMML 080056Z AUTO 00000KT 10SM OVC024 22/19 A2992 RMK AO2 SLP133 T02170194,2024-08-08T00:56:00Z,21.7,19.4,10+,29.92
KMKT,44.2184,-93.9179,110,6,6.9,KMKT 080056Z AUTO 11006KT 10SM OVC046 21/19 A2993 RMK AO2 SLP134 T02060189,2024-08-08T00:56:00Z,20.6,18.9,10+,29.93
KMJX,39.9235,-74.297,60,8,9.21,KMJX 080056Z AUTO 06008KT 4SM -RA BR BKN008 OVC013 20/19 A3001 RMK AO2 CIG 005V011 SLP167 P0001 T02000194,2024-08-08T00:56:00Z,20,19.4,4,30.01
KMHS,41.3149,-122.317,0,0,0.0,KMHS 080056Z AUTO 00000KT 10SM CLR 32/01 A3001 RMK AO2 SLP147 T03170011,2024-08-08T00:56:00Z,31.7,1.1,10+,30.01
KMEH,45.512,-118.425,VRB,4,4.6,KMEH 080056Z AUTO VRB04KT 10SM CLR 26/06 A3012 RMK AO2 SLP183 T02610061,2024-08-08T00:56:00Z,26.1,6.1,10+,30.12
KMBL,44.2714,-86.2377,0,0,0.0,KMBL 080056Z AUTO 00000KT 10SM CLR 19/14 A2998 RMK AO2 SLP150 T01890139,2024-08-08T00:56:00Z,18.9,13.9,10+,29.98
KM19,35.643,-91.1735,350,8,9.21,KM19 080056Z AUTO 35008KT 10SM CLR 23/18 A2987 RMK AO2 SLP111 T02330183 $,2024-08-08T00:56:00Z,23.3,18.3,10+,29.87
KLZU,33.9828,-83.9585,0,0,0.0,KLZU 080056Z AUTO 00000KT 10SM BKN055 32/21 A2973 RMK AO2 SLP063 T03170206,2024-08-08T00:56:00Z,31.7,20.6,10+,29.73
KLWS,46.3746,-117.015,340,6,6.9,KLWS 080056Z 34006KT 10SM CLR 34/03 A2996 RMK AO2 SLP132 T03440033,2024-08-08T00:56:00Z,34.4,3.3,10+,29.96
KLRD,27.551,-99.4614,130,10,11.51,KLRD 080056Z 13010KT 10SM CLR 38/18 A2974 RMK AO2 SLP067 T03830178,2024-08-08T00:56:00Z,38.3,17.8,10+,29.74
KLPC,34.6646,-120.464,280,13,14.96,KLPC 080056Z AUTO 28013KT 10SM CLR 20/14 A2996 RMK AO2 SLP145 T02000144,2024-08-08T00:56:00Z,20,14.4,10+,29.96
KLNR,43.2111,-90.1874,70,3,3.45,KLNR 080056Z AUTO 07003KT 10SM CLR 21/18 A2995 RMK AO2 SLP134 T02110178,2024-08-08T00:56:00Z,21.1,17.8,10+,29.95
KLGD,45.2906,-118.009,360,8,9.21,KLGD 080056Z AUTO 36008KT 10SM CLR 32/06 A3002 RMK AO2 SLP150 T03170056 $,2024-08-08T00:56:00Z,31.7,5.6,10+,30.02
KLEW,44.0444,-70.2853,160,4,4.6,KLEW 080056Z AUTO 16004KT 10SM CLR 18/16 A3007 RMK AO2 SLP186 T01780161,2024-08-08T00:56:00Z,17.8,16.1,10+,30.07
KLBL,37.0375,-100.957,160,8,9.21,KLBL 080056Z AUTO 16008KT 10SM CLR 34/13 A2984 RMK AO2 SLP066 T03440128 PNO $,2024-08-08T00:56:00Z,34.4,12.8,10+,29.84
KKLS,46.118,-122.898,360,8,9.21,KKLS 080056Z AUTO 36008G15KT 10SM CLR 30/14 A2999 RMK AO2 SLP159 T03000144,2024-08-08T00:56:00Z,30,14.4,10+,29.99
KJXN,42.259,-84.4589,20,4,4.6,KJXN 080056Z 02004KT 10SM CLR 20/12 A2996 RMK AO2 SLP143 T02000117,2024-08-08T00:56:00Z,20,11.7,10+,29.96
KJRB,40.701,-74.009,30,10,11.51,KJRB 080056Z AUTO 03010KT 10SM OVC013 20/17 A3004 RMK AO2 SLP172 T02000172 PNO $,2024-08-08T00:56:00Z,20,17.2,10+,30.04
KJMS,46.9259,-98.6704,350,5,5.75,KJMS 080056Z AUTO 35005KT 10SM CLR 17/14 A3003 RMK AO2 SLP169 T01720139,2024-08-08T00:56:00Z,17.2,13.9,10+,30.03
KJHW,42.1534,-79.2542,110,4,4.6,KJHW 080056Z AUTO 11004KT 10SM CLR 19/17 A3001 RMK AO2 SLP162 T01940167,2024-08-08T00:56:00Z,19.4,16.7,10+,30.01
KJAC,43.6129,-110.737,240,6,6.9,KJAC 080056Z 24006G14KT 10SM HZ CLR 26/M04 A3019 RMK AO2 WSHFT 0001 SLP170 T02611039,2024-08-08T00:56:00Z,26.1,-3.9,10+,30.19
KIWD,46.5321,-90.126,0,0,0.0,KIWD 080056Z AUTO 00000KT 10SM -RA OVC100 17/14 A2996 RMK AO2 RAE11B31 SLP145 P0000 T01670144,2024-08-08T00:56:00Z,16.7,14.4,10+,29.96
KITH,42.4931,-76.4569,100,4,4.6,KITH 080056Z 10004KT 10SM OVC060 20/16 A3004 RMK AO2 SLP166 T02000161,2024-08-08T00:56:00Z,20,16.1,10+,30.04
KISP,40.7939,-73.1018,80,6,6.9,KISP 080056Z 08006KT 10SM FEW009 OVC018 19/17 A3004 RMK AO2 SLP173 T01890172 $,2024-08-08T00:56:00Z,18.9,17.2,10+,30.04
KISO,35.324,-77.6187,50,10,11.51,KISO 080056Z 05010KT 7SM RA OVC005 25/25 A2975,2024-08-08T00:56:00Z,25,25,7,29.75
KISM,28.2924,-81.4371,250,5,5.75,KISM 080056Z 25005KT 10SM CLR 29/23 A2972 RMK AO2 SLP064 T02940228 $,2024-08-08T00:56:00Z,29.4,22.8,10+,29.72
KINW,35.028,-110.722,270,19,21.86,KINW 080056Z AUTO 27019G29KT 10SM CLR 33/11 A3005 RMK AO2 PK WND 28031/0004 LTG DSNT NE-SE SLP087 T03330111,2024-08-08T00:56:00Z,33.3,11.1,10+,30.05
KILE,31.084,-97.6885,120,5,5.75,KILE 080056Z AUTO 12005KT 10SM CLR 36/19 A2980 RMK AO2 SLP075 T03560189,2024-08-08T00:56:00Z,35.6,18.9,10+,29.80
KHYS,38.8392,-99.2742,80,8,9.21,KHYS 080056Z AUTO 08008KT 10SM CLR 31/19 A2986 RMK AO2 SLP094 T03110189,2024-08-08T00:56:00Z,31.1,18.9,10+,29.86
KHYI,29.8958,-97.8664,150,8,9.21,KHYI 080056Z 15008KT 10SM CLR 34/23 A2978 RMK AO2 SLP075 T03440228,2024-08-08T00:56:00Z,34.4,22.8,10+,29.78
KHYA,41.6719,-70.2697,0,0,0.0,KHYA 080056Z 00000KT 10SM OVC055 17/15 A3006 RMK AO2 SLP180 T01720150,2024-08-08T00:56:00Z,17.2,15,10+,30.06
KHPN,41.0624,-73.7046,50,4,4.6,KHPN 080056Z 05004KT 10SM OVC016 18/17 A3006 RMK AO2 RAE52 SLP175 P0000 T01830167,2024-08-08T00:56:00Z,18.3,16.7,10+,30.06
KHND,35.9658,-115.134,190,18,20.71,KHND 080056Z 19018KT 10SM CLR 41/13 A2985 RMK AO2 SLP084 T04110133,2024-08-08T00:56:00Z,41.1,13.3,10+,29.85
KHNB,38.2505,-86.9473,320,4,4.6,KHNB 080056Z AUTO 32004KT 10SM BKN032 24/23 A2984 RMK AO2 SLP102 T02390228,2024-08-08T00:56:00Z,23.9,22.8,10+,29.84
KHEZ,31.6159,-91.2973,0,0,0.0,KHEZ 080056Z AUTO 00000KT 10SM CLR 29/24 A2978 RMK AO2 SLP082 T02940239,2024-08-08T00:56:00Z,29.4,23.9,10+,29.78
KHDN,40.4842,-107.23,170,10,11.51,KHDN 080056Z AUTO 17010KT 10SM BKN110 21/11 A3024 RMK AO2 WSHFT 0025 LTG DSNT W SLP162 T02110111 PNO $,2024-08-08T00:56:00Z,21.1,11.1,10+,30.24
KGXY,40.4345,-104.63,100,6,6.9,KGXY 080056Z AUTO 10006KT 10SM FEW110 22/16 A3007 RMK AO2 RAB10E19 SLP149 P0000 T02170156,2024-08-08T00:56:00Z,21.7,15.6,10+,30.07
KGVQ,43.0298,-78.1665,,,,KGVQ 080056Z AUTO 10SM CLR 18/14 A3001 RMK AO2 SLP160 T01780144 $,2024-08-08T00:56:00Z,17.8,14.4,10+,30.01
KGUC,38.5322,-106.942,80,7,8.06,KGUC 080056Z AUTO 08007KT 10SM FEW060 OVC100 18/12 A3034 RMK AO2 LTG DSNT N AND SE AND NW TSE05B09E52RAB06E29 SLP201 P0001 T01830117,2024-08-08T00:56:00Z,18.3,11.7,10+,30.34
KGTU,30.6809,-97.6767,120,4,4.6,KGTU 080056Z 12004KT 7SM CLR 35/18 A2980 RMK AO2 SLP083 T03500183,2024-08-08T00:56:00Z,35,18.3,7,29.80
KGTR,33.456,-88.593,340,7,8.06,KGTR 080056Z AUTO 34007KT 10SM CLR 28/23 A2977 RMK AO2 SLP084 T02830233,2024-08-08T00:56:00Z,28.3,23.3,10+,29.77
KGRD,34.2539,-82.1526,10,7,8.06,KGRD 080056Z AUTO 01007G19KT 10SM CLR 28/22 A2971 RMK AO2 SLP051 T02780217,2024-08-08T00:56:00Z,27.8,21.7,10+,29.71
KGPZ,47.2029,-93.5071,210,5,5.75,KGPZ 080056Z AUTO 21005KT 10SM -RA OVC008 16/16 A2993 RMK AO2 CIG 005V011 SLP139 P0001 T01610156,2024-08-08T00:56:00Z,16.1,15.6,10+,29.93
KGON,41.3279,-72.0489,50,4,4.6,KGON 080056Z 05004KT 10SM SCT038 19/17 A3005 RMK AO2 SLP176 T01890172,2024-08-08T00:56:00Z,18.9,17.2,10+,30.05
KGNR,45.4649,-69.5543,350,4,4.6,KGNR 080056Z AUTO 35004KT 17/11 A3006 RMK AO1 SLP178 T01670106,2024-08-08T00:56:00Z,16.7,10.6,,30.06
KGNA,47.745,-90.346,280,8,9.21,KGNA 080056Z AUTO 28008G19KT 19/16 A2990 RMK AO1 SLP119 T01940156,2024-08-08T00:56:00Z,19.4,15.6,,29.90
KGDV,47.14,-104.813,310,8,9.21,KGDV 080056Z AUTO 31008KT 10SM OVC080 16/11 A3021 RMK AO2 SLP227 T01610111 TSNO PNO $,2024-08-08T00:56:00Z,16.1,11.1,10+,30.21
KGBD,38.3405,-98.8592,110,6,6.9,KGBD 080056Z AUTO 11006KT 10SM CLR 33/19 A2984 RMK AO2 SLP086 T03280194,2024-08-08T00:56:00Z,32.8,19.4,10+,29.84
KGAD,33.9686,-86.0917,0,0,0.0,KGAD 080056Z AUTO 00000KT 10SM CLR 28/26 A2973 RMK AO2 SLP067 T02830261 $,2024-08-08T00:56:00Z,28.3,26.1,10+,29.73
KFSD,43.5775,-96.7539,350,12,13.81,KFSD 080056Z 35012KT 10SM FEW032 BKN041 BKN080 25/20 A2991 RMK AO2 SLP121 T02500200,2024-08-08T00:56:00Z,25,20,10+,29.91
KFRM,43.6455,-94.4168,170,5,5.75,KFRM 080056Z AUTO 17005KT 10SM OVC046 23/18 A2993 RMK AO2 SLP135 T02330178,2024-08-08T00:56:00Z,23.3,17.8,10+,29.93
KFOD,42.549,-94.182,180,3,3.45,KFOD 080056Z AUTO 18003KT 10SM CLR A2994 RMK AO2 SLPNO FZRANO $,2024-08-08T00:56:00Z,,,10+,29.94
KFNL,40.4427,-105.01,110,9,10.36,KFNL 080056Z AUTO 11009KT 10SM RA CLR 22/15 A3009 RMK AO2 SLP135 T02170150 PNO $,2024-08-08T00:56:00Z,21.7,15,10+,30.09
KFMH,41.6608,-70.5221,30,6,6.9,KFMH 080056Z 03006KT 10SM OVC050 17/16 A3008,2024-08-08T00:56:00Z,17,16,10+,30.08
KFLP,36.2925,-92.5851,0,0,0.0,KFLP 080056Z AUTO 00000KT 10SM CLR 25/19 A2989 RMK AO2 SLP114 T02500194,2024-08-08T00:56:00Z,25,19.4,10+,29.89
KFKL,41.3806,-79.8603,70,5,5.75,KFKL 080056Z AUTO 07005KT 10SM OVC020 21/18 A2998 RMK AO2 SLP146 T02060178,2024-08-08T00:56:00Z,20.6,17.8,10+,29.98
KFCI,37.407,-77.522,90,6,6.9,KFCI 080056Z AUTO 09006KT 10SM BKN013 25/25 A2985 RMK AO2 SLP118 T02500250,2024-08-08T00:56:00Z,25,25,10+,29.85
KFAM,37.7631,-90.4292,360,5,5.75,KFAM 080056Z AUTO 36005KT 10SM OVC031 22/18 A2992 RMK AO2 SLP132 T02220178,2024-08-08T00:56:00Z,22.2,17.8,10+,29.92
KEWK,38.0621,-97.275,100,8,9.21,KEWK 080056Z AUTO 10008KT 10SM CLR 32/17 A2986 RMK AO2 SLP095 T03170172,2024-08-08T00:56:00Z,31.7,17.2,10+,29.86
KEUL,43.6405,-116.63,340,7,8.06,KEUL 080056Z AUTO 34007KT 10SM CLR 32/04 A2996 RMK AO2 SLP122 T03170039,2024-08-08T00:56:00Z,31.7,3.9,10+,29.96
KESC,45.7225,-87.0893,130,5,5.75,KESC 080056Z AUTO 13005KT 10SM CLR 21/13 A2997 RMK AO2 SLP150 T02110128 $,2024-08-08T00:56:00Z,21.1,12.8,10+,29.97
KENV,40.7211,-114.031,120,6,6.9,KENV 080056Z AUTO 12006KT 10SM CLR 37/M01 A2997 RMK AO2 SLP092 T03671006,2024-08-08T00:56:00Z,36.7,-0.6,10+,29.97
KELZ,42.1077,-77.9842,120,5,5.75,KELZ 080056Z AUTO 12005KT 10SM FEW016 SCT026 OVC050 18/17 A3005 RMK AO2 SLP168 T01830167,2024-08-08T00:56:00Z,18.3,16.7,10+,30.05
KEKY,33.314,-86.925,0,0,0.0,KEKY 080056Z AUTO 00000KT 10SM CLR 29/25 A2975 RMK AO2 SLP922 T02940250,2024-08-08T00:56:00Z,29.4,25,10+,29.75
KEKQ,36.8576,-84.8562,0,0,0.0,KEKQ 080056Z AUTO 00000KT 7SM BKN095 OVC110 25/25 A2982 RMK AO2 SLP083 T02500250 PNO $,2024-08-08T00:56:00Z,25,25,7,29.82
KEKO,40.824,-115.786,300,14,16.11,KEKO 080056Z AUTO 30014KT 10SM CLR 34/M02 A3008 RMK AO2 SLP124 T03441022,2024-08-08T00:56:00Z,34.4,-2.2,10+,30.08
KEEN,42.898,-72.2695,0,0,0.0,KEEN 080056Z AUTO 00000KT 10SM CLR 17/16 A3008 RMK AO2 SLP188 T01720161 $,2024-08-08T00:56:00Z,17.2,16.1,10+,30.08
KEED,34.7678,-114.618,190,9,10.36,KEED 080056Z AUTO 19009G14KT 10SM FEW110 40/19 A2979 RMK AO2 SLP047 T04000194,2024-08-08T00:56:00Z,40,19.4,10+,29.79
KEAU,44.8665,-91.4881,150,4,4.6,KEAU 080056Z 15004KT 10SM OVC100 22/14 A2993 RMK AO2 SLP132 T02170144,2024-08-08T00:56:00Z,21.7,14.4,10+,29.93
KEAR,40.7193,-99.0086,90,5,5.75,KEAR 080056Z AUTO 09005KT 10SM CLR 25/20 A2995 RMK AO2 SLP128 T02500200,2024-08-08T00:56:00Z,25,20,10+,29.95
KDYR,35.9957,-89.4057,330,4,4.6,KDYR 080056Z AUTO 33004KT 10SM FEW029 24/21 A2984 RMK AO2 SLP107 T02440206,2024-08-08T00:56:00Z,24.4,20.6,10+,29.84
KDWU,38.556,-82.7375,10,5,5.75,KDWU 080056Z AUTO 01005KT 10SM CLR 28/23 A2979 RMK AO2 SLP082 T02780228 $,2024-08-08T00:56:00Z,27.8,22.8,10+,29.79
KDVL,48.1136,-98.9034,340,10,11.51,KDVL 080056Z AUTO 34010KT 10SM CLR 17/09 A3004 RMK AO2 SLP177 T01720089,2024-08-08T00:56:00Z,17.2,8.9,10+,30.04
KDIK,46.7997,-102.797,330,6,6.9,KDIK 080056Z AUTO 33006KT 9SM BKN080 OVC090 17/10 A3015 RMK AO2 SLP204 T01670100,2024-08-08T00:56:00Z,16.7,10,9,30.15
KDAY,39.9064,-84.2185,20,9,10.36,KDAY 080056Z 02009KT 10SM FEW037 SCT045 23/19 A2989 RMK AO2 SLP115 T02280194,2024-08-08T00:56:00Z,22.8,19.4,10+,29.89
KD07,45.0326,-102.02,30,13,14.96,KD07 080056Z AUTO 03013KT 19/12 A3011 RMK AO1 SLP187 T01940122,2024-08-08T00:56:00Z,19.4,12.2,,30.11
KCXY,40.2184,-76.8552,80,12,13.81,KCXY 080056Z 08012KT 10SM OVC008 21/18 A2997 RMK AO2 SLP148 T02110178,2024-08-08T00:56:00Z,21.1,17.8,10+,29.97
KCWI,41.8295,-90.3328,60,3,3.45,KCWI 080056Z AUTO 06003KT 10SM CLR 22/17 A2996 RMK AO2 SLP144 T02170167,2024-08-08T00:56:00Z,21.7,16.7,10+,29.96
KCVO,44.5013,-123.293,10,10,11.51,KCVO 080056Z 01010KT 10SM CLR 31/12 A2995 RMK AO2 SLP143 T03110122,2024-08-08T00:56:00Z,31.1,12.2,10+,29.95
KCVN,34.4227,-103.08,160,13,14.96,KCVN 080056Z AUTO 16013G18KT 10SM CLR 34/05 A2998 RMK AO2 SLP098 T03440050,2024-08-08T00:56:00Z,34.4,5,10+,29.98
KCTB,48.6036,-112.377,40,10,11.51,KCTB 080056Z AUTO 04010KT 10SM FEW036 SCT045 BKN080 16/08 A3030 RMK AO2 SLP250 T01610083,2024-08-08T00:56:00Z,16.1,8.3,10+,30.30
KCOE,47.7719,-116.833,10,5,5.75,KCOE 080056Z AUTO 01005KT 10SM 29/07 A3006 RMK AO2 SLP176 T02890072 PNO $,2024-08-08T00:56:00Z,28.9,7.2,10+,30.06
KCIU,46.2531,-84.4773,150,7,8.06,KCIU 080056Z AUTO 15007KT 10SM CLR 19/13 A3000 RMK AO2 SLP158 T01890128,2024-08-08T00:56:00Z,18.9,12.8,10+,30.00
KCHS,32.8994,-80.0407,360,15,17.26,KCHS 080056Z 36015G23KT 10SM OVC010 26/24 A2943 RMK AO2 SLP965 T02610239,2024-08-08T00:56:00Z,26.1,23.9,10+,29.43
KCEC,41.7836,-124.238,190,5,5.75,KCEC 080056Z AUTO 19005KT 10SM CLR 15/12 A2993 RMK AO2 SLP135 T01500122,2024-08-08T00:56:00Z,15,12.2,10+,29.93
KCAE,33.9422,-81.118,360,9,10.36,KCAE 080056Z 36009G17KT 10SM SCT032 BKN046 28/23 A2961 RMK AO2 SLP022 T02780228,2024-08-08T00:56:00Z,27.8,22.8,10+,29.61
KBTP,40.7765,-79.9568,60,8,9.21,KBTP 080056Z AUTO 06008KT 10SM BKN014 OVC029 22/20 A2993 RMK AO2 SLP134 T02170200,2024-08-08T00:56:00Z,21.7,20,10+,29.93
KBOK,42.0754,-124.29,140,4,4.6,KBOK 080056Z AUTO 14004KT 10SM CLR 18/13 A2994 RMK AO2 SLP136 T01830128,2024-08-08T00:56:00Z,18.3,12.8,10+,29.94
KBMI,40.4777,-88.9144,30,5,5.75,KBMI 080056Z 03005KT 10SM OVC046 23/19 A2994 RMK AO2 SLP131 T02280194,2024-08-08T00:56:00Z,22.8,19.4,10+,29.94
KBLM,40.1822,-74.1207,60,12,13.81,KBLM 080056Z AUTO 06012G17KT 10SM OVC013 20/18 A3003 RMK AO2 SLP167 T02000183 PNO $,2024-08-08T00:56:00Z,20,18.3,10+,30.03
KBJC,39.9008,-105.104,190,11,12.66,KBJC 080056Z 19011KT 10SM VCTS BKN100 24/13 A3017,2024-08-08T00:56:00Z,24,13,10+,30.17
KBIH,37.3711,-118.359,200,5,5.75,KBIH 080056Z AUTO 20005KT 10SM CLR 39/05 A2995 RMK AO2 SLP077 T03890050,2024-08-08T00:56:00Z,38.9,5,10+,29.95
KBHB,44.4549,-68.3617,200,5,5.75,KBHB 080056Z AUTO 20005KT 10SM CLR 17/14 A3006 RMK AO2 SLP179 T01670144,2024-08-08T00:56:00Z,16.7,14.4,10+,30.06
KAUO,32.617,-85.4342,310,5,5.75,KAUO 080056Z AUTO 31005KT 10SM CLR 30/23 A2974 RMK AO2 SLP058 T03000228,2024-08-08T00:56:00Z,30,22.8,10+,29.74
KASH,42.7798,-71.5141,0,0,0.0,KASH 080056Z AUTO 00000KT 10SM CLR 17/17 A3008 RMK AO2 SLP190 T01720172,2024-08-08T00:56:00Z,17.2,17.2,10+,30.08
KART,43.9888,-76.0261,70,4,4.6,KART 080056Z AUTO 07004KT 10SM CLR 18/13 A3002 RMK AO2 SLP162 T01830128,2024-08-08T00:56:00Z,18.3,12.8,10+,30.02
KARG,36.1256,-90.9216,330,5,5.75,KARG 080056Z AUTO 33005KT 10SM FEW038 23/19 A2987 RMK AO2 SLP113 T02330194,2024-08-08T00:56:00Z,23.3,19.4,10+,29.87
KAND,34.498,-82.7092,60,11,12.66,KAND 080056Z AUTO 06011G17KT 10SM CLR 29/20 A2971 RMK AO2 SLP050 T02940200,2024-08-08T00:56:00Z,29.4,20,10+,29.71
KALK,31.606,-110.428,240,6,6.9,KALK 080056Z AUTO 24006KT 10SM FEW050 26/17 A3014 RMK AO2 SLP118 T02610167,2024-08-08T00:56:00Z,26.1,16.7,10+,30.14
KAJO,33.8956,-117.596,280,12,13.81,KAJO 080056Z AUTO 28012G19KT 10SM CLR 29/18 A2991 RMK AO2 SLP122 T02890178,2024-08-08T00:56:00Z,28.9,17.8,10+,29.91
KAIZ,38.1005,-92.5475,60,5,5.75,KAIZ 080056Z AUTO 06005KT 10SM CLR 23/17 A2992 RMK AO2 SLP125 T02330172 PNO $,2024-08-08T00:56:00Z,23.3,17.2,10+,29.92
KAFJ,40.1362,-80.2851,50,7,8.06,KAFJ 080056Z AUTO 05007KT 10SM FEW050 23/21 A2991 RMK AO2 SLP122 T02330206,2024-08-08T00:56:00Z,23.3,20.6,10+,29.91
KADF,34.0953,-93.069,VRB,3,3.45,KADF 080056Z AUTO VRB03KT 10SM CLR 31/25 A2980 RMK AO2 SLP089 T03060250,2024-08-08T00:56:00Z,30.6,25,10+,29.80
K8D3,45.669,-96.9918,340,11,12.66,K8D3 080056Z AUTO 34011KT 19/17 A2997 RMK AO1 SLP137 T01890167,2024-08-08T00:56:00Z,18.9,16.7,,29.97
K79J,31.3061,-86.3902,0,0,0.0,K79J 080056Z AUTO 00000KT 10SM CLR 30/24 A2971 RMK AO2 SLP054 T03000239 TSNO,2024-08-08T00:56:00Z,30,23.9,10+,29.71
K2WX,45.6043,-103.547,,,,K2WX 080056Z AUTO A3015 RMK AO1 SLPNO,2024-08-08T00:56:00Z,,,,30.15
K1M4,34.2832,-87.5986,340,9,10.36,K1M4 080056Z AUTO 34009KT 10SM CLR 26/22 A2981 RMK AO2 SLP077 T02560217 $,2024-08-08T00:56:00Z,25.6,21.7,10+,29.81
TXKF,32.364,-64.679,150,9,10.36,TXKF 080055Z 15009KT 9999 FEW021 28/24 Q1020 ,2024-08-08T00:55:00Z,28,24,6+,30.12
TNCE,17.497,-62.979,80,13,14.96,TNCE 080055Z AUTO 08013KT //// // ///////// 28/24 Q1013 RE//,2024-08-08T00:55:00Z,28,24,,29.91
TNCB,12.133,-68.277,80,10,11.51,TNCB 080055Z 08010KT 030V100 CAVOK 29/24 Q1010,2024-08-08T00:55:00Z,29,24,6+,29.82
RODN,26.356,127.768,70,8,9.21,RODN 080055Z 07008KT 10SM SCT019 BKN028 32/27 A2966 RMK AO2A SLP044 T03220271 FZRANO $,2024-08-08T00:55:00Z,32.2,27.1,10+,29.66
RKSO,37.091,127.03,230,4,4.6,RKSO 080055Z 23004KT 7SM SCT020 BKN090 28/25 A2968 RMK AO2A SLP054 T02770245 $,2024-08-08T00:55:00Z,27.7,24.5,7,29.68
RKSG,36.962,127.031,220,3,3.45,RKSG 080055Z 22003KT 10SM BKN043 28/24 A2969 RMK AO2A RAE07DZB07E11 SLP057 P0000 T02770241 $,2024-08-08T00:55:00Z,27.7,24.1,10+,29.69
RKJK,35.9,126.618,320,3,3.45,RKJK 080055Z 32003KT 5SM HZ SCT016 BKN023 BKN170 BKN210 31/25 A2967 RMK AO2A CIG 023V180 BKN023 V SCT CIG 019 RWY18 SLP051 T03060254 $,2024-08-08T00:55:00Z,30.6,25.4,5,29.67
RJTY,35.749,139.349,0,0,0.0,RJTY 080055Z 00000KT 10SM SCT020 BKN029 BKN034 29/23 A2969 RMK AO2A CIG 019 RWY18 SLP053 T02860232 FZRANO $,2024-08-08T00:55:00Z,28.6,23.2,10+,29.69
PHSF,19.758,-155.557,260,13,14.96,PHSF 080055Z AUTO 26013KT 9SM FEW036 25/15 A3035 RMK AO2 SLP152 T02490149 $,2024-08-08T00:55:00Z,24.9,14.9,9,30.35
PHHI,21.478,-158.044,90,13,14.96,PHHI 080055Z AUTO 09013KT 10SM CLR 28/17 A3007 RMK AO2 SLP172 T02820174 $,2024-08-08T00:55:00Z,28.2,17.4,10+,30.07
PGUA,13.583,144.918,120,6,6.9,PGUA 080055Z AUTO 12006KT 10SM CLR 29/24 A2990 RMK AO2 SLP115 T02930235 $,2024-08-08T00:55:00Z,29.3,23.5,10+,29.90
PAWG,56.486,-132.377,260,7,8.06,PAWG 080055Z 26007KT 10SM FEW060 23/11 A3017,2024-08-08T00:55:00Z,23,11,10+,30.17
PALJ,60.204,-154.316,0,0,0.0,PALJ 080055Z 00000KT 30SM BKN060 OVC100 17/11 A2983 RMK EST PASS OPEN NO SPECI,2024-08-08T00:55:00Z,17,11,30,29.83
PAIM,65.994,-153.695,280,2,2.3,PAIM 080055Z AUTO 28002KT 10SM BKN060 17/14 A2985 RMK AO2 SHRAB0000E0040 SLP102 P0002 T01660142,2024-08-08T00:55:00Z,16.6,14.2,10+,29.85
PAFB,64.836,-147.614,0,0,0.0,PAFB 080055Z 00000KT 10SM SCT120 BKN200 26/11 A2981 RMK AO2A SLP098 T02640105,2024-08-08T00:55:00Z,26.4,10.5,10+,29.81
PAEI,64.654,-147.094,250,3,3.45,PAEI 080055Z 25003KT 10SM BKN110 BKN150 26/13 A2978 RMK AO2A SLP086 T02600128 $,2024-08-08T00:55:00Z,26,12.8,10+,29.78
PAED,61.25,-149.837,30,4,4.6,PAED 080055Z 03004KT 6SM -RA FEW010 OVC048 16/14 A2994 RMK A02A SLP134 P0010 T01610144 $,2024-08-08T00:55:00Z,16.1,14.4,6,29.94
OTBH,25.117,51.315,290,3,3.45,OTBH 080055Z 29003KT 9000 HZ CLR 31/18 A2942 Q0996 RMK AO2A SLP963 T03130183 FZRANO $,2024-08-08T00:55:00Z,31.3,18.3,5.59,29.41
OPFA,31.365,72.995,90,6,6.9,OPFA 080055Z 09006KT 3000 BR SCT040 SCT100 29/27 Q1001 TEMPO 31015G30KT 1500 TSRA FEW030CB,2024-08-08T00:55:00Z,29,27,1.86,29.56
OKAS,29.347,47.521,300,8,9.21,OKAS 080055Z AUTO 30008KT 9999 CLR 35/05 A2949 RMK AO2 SLP979 T03460051 $,2024-08-08T00:55:00Z,34.6,5.1,6+,29.49
OEPS,24.063,47.581,0,0,0.0,OEPS 080055Z 00000KT 9999 CLR 30/M01 A2968 RMK AO2A SLP026 WND DATA ESTMD T03041010,2024-08-08T00:55:00Z,30.4,-1,6+,29.68
NZCM,-77.85,166.667,0,0,0.0,NZCM 080055Z AUTO 00000KT 9999 BKN150 M16/M20 A2978 RMK AO2 SLP089 T11591204 $,2024-08-08T00:55:00Z,-15.9,-20.4,6+,29.78
MMMX,19.436,-99.072,40,8,9.21,MMMX 080055Z 04008KT 7SM SCT020 SCT080 BKN220 20/12 A3026 NOSIG RMK 8/463 HZY DSN CB S,2024-08-08T00:55:00Z,20,12,7,30.26
LIVT,45.677,13.754,60,8,9.21,LIVT 080055Z AUTO 06008KT 350V110 //// 26/17 Q1011,2024-08-08T00:55:00Z,26,17,,29.85
LIVP,46.143,11.038,350,8,9.21,LIVP 080055Z 35008KT CAVOK 11/06 Q1024,2024-08-08T00:55:00Z,11,6,6+,30.24
LIVM,44.441,12.296,,,,LIVM 080055Z AUTO /////KT //// ///// Q////,2024-08-08T00:55:00Z,,,,
LIVF,43.517,12.728,0,0,0.0,LIVF 080055Z 00000KT CAVOK 22/19 Q1014,2024-08-08T00:55:00Z,22,19,6+,29.94
LIVD,46.729,12.228,VRB,2,2.3,LIVD 080055Z AUTO VRB02KT //// 13/13 Q1022,2024-08-08T00:55:00Z,13,13,,30.18
LIVC,44.194,10.7,160,17,19.56,LIVC 080055Z AUTO 16017KT //// 15/06 Q1026,2024-08-08T00:55:00Z,15,6,,30.30
LIRY,-99.99,-99.99,VRB,1,1.15,LIRY 080055Z AUTO VRB01KT //// 23/19 Q1014,2024-08-08T00:55:00Z,23,19,,29.94
LIRX,42.731,10.396,330,4,4.6,LIRX 080055Z AUTO 33004KT //// 22/20 Q1014,2024-08-08T00:55:00Z,22,20,,29.94
LIRT,41.047,15.233,260,11,12.66,LIRT 080055Z AUTO 26011KT //// 22/10 Q1018,2024-08-08T00:55:00Z,22,10,,30.06
LIRS,42.76,11.072,VRB,3,3.45,LIRS 080055Z VRB03KT CAVOK 22/19 Q1012 RMK FEW FEW200 VIS MIN 9999 WIND THR03 VRB02KT WIND THR21 34003KT BLU,2024-08-08T00:55:00Z,22,19,6+,29.88
LIRM,41.061,14.082,360,4,4.6,LIRM 080055Z 36004KT CAVOK 23/22 Q1012 RMK SKC VIS MIN 9999 WIND THR06 04003KT BLU,2024-08-08T00:55:00Z,23,22,6+,29.88
LIRK,42.466,12.979,320,7,8.06,LIRK 080055Z AUTO 32007KT //// 17/09 Q1023,2024-08-08T00:55:00Z,17,9,,30.21
LIRE,41.656,12.449,360,4,4.6,LIRE 080055Z 36004KT CAVOK 23/// Q1012,2024-08-08T00:55:00Z,,,6+,29.88
LIQO,42.387,11.17,340,9,10.36,LIQO 080055Z AUTO 34009KT //// 23/19 Q1016,2024-08-08T00:55:00Z,23,19,,30.00
LIQC,40.558,14.201,0,0,0.0,LIQC 080055Z 00000KT CAVOK 26/24 Q1014 RMK SKC QUK / QUL / VIS MAR 15 KM VIS MIN 9999,2024-08-08T00:55:00Z,26,24,6+,29.94
LIPS,45.689,12.101,350,2,2.3,LIPS 080055Z 35002KT CAVOK 20/18 Q1012 RMK BKN BKN200 VIS MIN 9999 WIND THR26 00000KT WIND THR08 00000KT BLU,2024-08-08T00:55:00Z,20,18,6+,29.88
LIPL,45.432,10.268,290,3,3.45,LIPL 080055Z 29003KT CAVOK 21/21 Q1013 RMK SKC VIS MIN 9999 WIND THR31 28003KT WIND THR13 27003KT BLU,2024-08-08T00:55:00Z,21,21,6+,29.91
LIPI,45.979,13.049,80,6,6.9,LIPI 080055Z 08006KT CAVOK 22/20 Q1012 RMK SCT SCT180 VIS MIN 9999 WIND THR06 07003KT WIND THR24 11006KT BLU,2024-08-08T00:55:00Z,22,20,6+,29.88
LIPC,44.224,12.307,290,5,5.75,LIPC 080055Z 29005KT CAVOK 21/19 Q1013 RMK SKC VIS MIN 9999 WIND THR11 29005KT WIND THR29 30006KT BLU,2024-08-08T00:55:00Z,21,19,6+,29.91
LIMY,44.258,7.794,350,3,3.45,LIMY 080055Z AUTO 35003KT //// 20/16 Q1015,2024-08-08T00:55:00Z,20,16,,29.97
LIMK,45.033,7.731,,,,LIMK 080055Z AUTO /////KT //// 19/17 Q1015,2024-08-08T00:55:00Z,19,17,,29.97
LIMH,45.935,7.707,,,,LIMH 080055Z AUTO /////KT //// ///// Q////,2024-08-08T00:55:00Z,,,,
LIED,39.354,8.973,350,4,4.6,LIED 080055Z 35004KT CAVOK 23/22 Q1012 RMK SKC VIS MIN 9999 WIND THR34 /////KT WIND THR16 01003KT BLU,2024-08-08T00:55:00Z,23,22,6+,29.88
LICZ,37.406,14.919,330,2,2.3,LICZ 080055Z 33002KT CAVOK 26/22 Q1012 RMK SKC VIS MIN 9999 WIND THR28 31002KT WIND THR10 33003KT A2990 BLU,2024-08-08T00:55:00Z,26,22,6+,29.88
LICT,37.911,12.488,VRB,2,2.3,LICT 080055Z VRB02KT CAVOK 24/23 Q1012 RMK SKC VIS MIN 9999 WIND THR13 01006KT BLU,2024-08-08T00:55:00Z,24,23,6+,29.88
LIBY,39.811,18.342,10,5,5.75,LIBY 080055Z AUTO 01005KT //// 26/16 Q1010,2024-08-08T00:55:00Z,26,16,,29.82
LIBV,40.766,16.935,40,1,1.15,LIBV 080055Z 04001KT CAVOK 23/14 Q1013 RMK SKC VIS MIN 9999 WIND THR32 33004KT WIND THR14 30004KT BLU,2024-08-08T00:55:00Z,23,14,6+,29.91
LIBQ,39.331,16.396,310,5,5.75,LIBQ 080055Z AUTO 31005KT 280V350 //// 19/12 Q1023,2024-08-08T00:55:00Z,19,12,,30.21
LIBN,40.238,18.138,220,1,1.15,LIBN 080055Z 22001KT CAVOK 24/20 Q1011 RMK SKC VIS MIN 9999 WIND THR14 21001KT WIND THR32 17001KT BLU,2024-08-08T00:55:00Z,24,20,6+,29.85
LIBA,41.538,15.714,VRB,1,1.15,LIBA 080055Z VRB01KT CAVOK 25/19 Q1011 RMK SKC VIS MIN 9999 WIND THR11 VRB01KT WIND THR29 /////KT BLU,2024-08-08T00:55:00Z,25,19,6+,29.85
KXMR,28.4674,-80.5589,230,10,11.51,KXMR 080055Z AUTO 23010KT 10SM BKN180 31/25 A2965 RMK AO2 SLP043 T03060252 PWINO $,2024-08-08T00:55:00Z,30.6,25.2,10+,29.65
KXIF,-99.99,-99.99,130,4,4.6,KXIF 080055Z AUTO 13004KT 1 3/4SM RA BR OVC005 22/21 A2994 RMK AO2 VIS 1 3/4V4 RAB02E12RAB23 SLP137 P0020 T02170212 $,2024-08-08T00:55:00Z,21.7,21.2,1.75,29.94
KWRB,32.639,-83.593,0,0,0.0,KWRB 080055Z 00000KT 10SM FEW080 SCT095 29/24 A2965 RMK AO2A SLP039 T02910244,2024-08-08T00:55:00Z,29.1,24.4,10+,29.65
KWHP,34.2596,-118.415,0,0,0.0,KWHP 080055Z 00000KT 10SM SKC 30/15 A2995,2024-08-08T00:55:00Z,30,15,10+,29.95
KVPS,30.483,-86.526,320,4,4.6,KVPS 080055Z AUTO 32004KT 10SM CLR 32/21 A2969 RMK AO2 SLP060 T03240209 $,2024-08-08T00:55:00Z,32.4,20.9,10+,29.69
KVOK,43.938,-90.253,0,0,0.0,KVOK 080055Z 00000KT 10SM SCT050 BKN150 BKN200 23/16 A2993 RMK AO2A SLP137 T02270158,2024-08-08T00:55:00Z,22.7,15.8,10+,29.93
KVGN,34.8494,-120.6,310,4,4.6,KVGN 080055Z AUTO 31004KT 9SM CLR 20/15 A2996 RMK AO2 SLP148 T01990153,2024-08-08T00:55:00Z,19.9,15.3,9,29.96
KVBG,34.733,-120.583,320,5,5.75,KVBG 080055Z AUTO 32005KT 10SM CLR 20/15 A2996 RMK AO2 SLP148 T01980152 TSNO $,2024-08-08T00:55:00Z,19.8,15.2,10+,29.96
KVAD,30.979,-83.192,0,0,0.0,KVAD 080055Z AUTO 00000KT 10SM CLR 29/24 A2964 RMK AO2 SLP037 T02860241 $,2024-08-08T00:55:00Z,28.6,24.1,10+,29.64
KTTS,28.5987,-80.6815,240,6,6.9,KTTS 080055Z AUTO 24006KT 10SM BKN220 30/24 A2966 RMK AO2 SLP048 T03000239 CHINO RWY33 $,2024-08-08T00:55:00Z,30,23.9,10+,29.66
KTIK,35.415,-97.386,110,6,6.9,KTIK 080055Z AUTO 11006KT 10SM CLR 35/21 A2978 RMK AO2 SLP069 T03470210,2024-08-08T00:55:00Z,34.7,21,10+,29.78
KTCM,47.149,-122.475,30,9,10.36,KTCM 080055Z AUTO 03009KT 10SM CLR 26/14 A3004 RMK AO2 SLP175 T02640138 $,2024-08-08T00:55:00Z,26.4,13.8,10+,30.04
KTBN,37.7445,-92.1447,0,0,0.0,KTBN 080055Z AUTO 00000KT 10SM CLR 23/17 A2990 RMK AO2 SLP119 T02310173,2024-08-08T00:55:00Z,23.1,17.3,10+,29.90
KT70,29.117,-100.473,80,6,6.9,KT70 080055Z AUTO 08006KT 10SM CLR 39/13 A2975 RMK AO2 SLP058 T03880132 $,2024-08-08T00:55:00Z,38.8,13.2,10+,29.75
KSZL,38.736,-93.55,60,4,4.6,KSZL 080055Z COR 06004KT 10SM CLR 25/17 A2988 RMK AO2A SLP114 T02540170 $ COR 0056,2024-08-08T00:55:00Z,25.4,17,10+,29.88
KSXS,31.364,-85.846,330,5,5.75,KSXS 080055Z AUTO 33005KT 9SM CLR 31/23 A2968 RMK AO2 SLP048 T03110232 $,2024-08-08T00:55:00Z,31.1,23.2,9,29.68
KSUU,38.25,-121.938,230,18,20.71,KSUU 080055Z AUTO 23018KT 10SM CLR 30/10 A2982 RMK AO2 PK WND 24026/08 SLP104 T03010096 $,2024-08-08T00:55:00Z,30.1,9.6,10+,29.82
KSLI,33.796,-118.042,220,10,11.51,KSLI 080055Z 22010KT 7SM SCT012 SCT060 BKN150 22/18 A2991 RMK AO2A SLP131 T02210179,2024-08-08T00:55:00Z,22.1,17.9,7,29.91
KSKF,29.392,-98.581,100,13,14.96,KSKF 080055Z AUTO 10013KT 10SM FEW095 37/19 A2973 RMK AO2 SLP058 T03720187 $,2024-08-08T00:55:00Z,37.2,18.7,10+,29.73
KSKA,47.612,-117.679,50,8,9.21,KSKA 080055Z 05008KT 10SM CLR 30/02 A3004 RMK AO2A SLP149 T02980021 $,2024-08-08T00:55:00Z,29.8,2.1,10+,30.04
KSHM,38.8,-104.52,20,14,16.11,KSHM 080055Z AUTO 02014G18KT 10SM BKN120 OVC140 25/12 A3016 RMK AO2 LTG DSNT N-NE SLPNO T02490121 $,2024-08-08T00:55:00Z,24.9,12.1,10+,30.16
KSEQ,29.566,-97.908,120,8,9.21,KSEQ 080055Z AUTO 12008KT 10SM CLR 34/23 A2974 RMK AO2 SLP065 T03360226,2024-08-08T00:55:00Z,33.6,22.6,10+,29.74
KSCK,37.89,-121.226,310,11,12.66,KSCK 080055Z AUTO 31011KT 10SM CLR 38/08 A2982 RMK AO2 SLP096 T03780078,2024-08-08T00:55:00Z,37.8,7.8,10+,29.82
KRYM,46.0878,-94.353,230,4,4.6,KRYM 080055Z AUTO 23004KT 10SM BKN025 OVC031 19/17 A2990 RMK AO2 SLP128 T01870170 $,2024-08-08T00:55:00Z,18.7,17,10+,29.90
KRNO,39.5077,-119.768,290,17,19.56,KRNO 080055Z 29017G26KT 10SM FEW100 FEW250 36/04 A3007 RMK AO2 PK WND 26026/0047 SLP117 T03560039,2024-08-08T00:55:00Z,35.6,3.9,10+,30.07
KRND,29.537,-98.268,140,8,9.21,KRND 080055Z AUTO 14008KT 10SM CLR 36/20 A2974 RMK AO2 SLP060 T03590197 $,2024-08-08T00:55:00Z,35.9,19.7,10+,29.74
KRIV,33.878,-117.244,320,12,13.81,KRIV 080055Z AUTO 32012KT 10SM CLR 32/11 A2995 RMK AO2 SLP127 T03200106,2024-08-08T00:55:00Z,32,10.6,10+,29.95
KRDR,47.9477,-97.4029,340,7,8.06,KRDR 080055Z AUTO 34007KT 10SM FEW055 SCT070 19/10 A2996 RMK AO2 SLP150 T01920102 $,2024-08-08T00:55:00Z,19.2,10.2,10+,29.96
KRCA,44.155,-103.118,10,12,13.81,KRCA 080055Z 01012KT 10SM BKN036 OVC045 21/13 A3011 RMK AO2A RAB08E21RAB25E26DZB26E27RAB27E37DZB37E47 SLP177 P0000 T02140125,2024-08-08T00:55:00Z,21.4,12.5,10+,30.11
KQVF,-99.99,-99.99,210,16,18.41,KQVF 080055Z 21016G26KT 7SM FEW250 36/02 A2987 RMK AO2A SLP055 WND DATA ESTMD ALSTG/SLP ESTMD,2024-08-08T00:55:00Z,36,2,7,29.87
KQTZ,-99.99,-99.99,270,5,5.75,KQTZ 080055Z 27005KT 9999 SKC 34/05 A2948 RMK SLP986,2024-08-08T00:55:00Z,34,5,6+,29.48
KQRH,-99.99,-99.99,0,0,0.0,KQRH 080055Z AUTO 00000KT 9999 CLR 32/25 A2965 RMK AO2 SLP043 WND DATA ESTMD T03180245,2024-08-08T00:55:00Z,31.8,24.5,6+,29.65
KQHY,-99.99,-99.99,0,0,0.0,KQHY 080055Z AUTO 00000KT 10SM CLR 33/21 A2970 RMK AO2 SLP065 T03300211,2024-08-08T00:55:00Z,33,21.1,10+,29.70
KQDG,-99.99,-99.99,300,9,10.36,KQDG 080055Z AUTO 30009KT 9999 BKN034 BKN044 BKN075 27/24 A2961 RMK AO2 SLP029 T02730235 $,2024-08-08T00:55:00Z,27.3,23.5,6+,29.61
KQD3,-99.99,-99.99,0,0,0.0,KQD3 080055Z AUTO 00000KT 9999 FEW140 33/22 A2974 RMK AO2 SLP055 WND DATA ESTMD T03290215,2024-08-08T00:55:00Z,32.9,21.5,6+,29.74
KQBL,-99.99,-99.99,0,0,0.0,KQBL 080055Z AUTO 00000KT 10SM CLR 33/21 A2972 RMK AO2 SLP070 WND DATA ESTMD T03260206,2024-08-08T00:55:00Z,32.6,20.6,10+,29.72
KPSM,43.0677,-70.8127,0,0,0.0,KPSM 080055Z 00000KT 10SM FEW100 18/15 A3007 RMK AO2A SLP185 T01760147,2024-08-08T00:55:00Z,17.6,14.7,10+,30.07
KPOE,31.047,-93.194,0,0,0.0,KPOE 080055Z AUTO 00000KT 10SM CLR 31/22 A2978 RMK AO2 SLP083 T03130217,2024-08-08T00:55:00Z,31.3,21.7,10+,29.78
KPHP,44.051,-101.601,30,17,19.56,KPHP 080055Z AUTO 03017G25KT 10SM SCT090 23/13 A3007 RMK AO2 PK WND 05026/0044 SLP166 T02280133,2024-08-08T00:55:00Z,22.8,13.3,10+,30.07
KPAM,30.071,-85.577,290,8,9.21,KPAM 080055Z 29008KT 10SM CLR 31/26 A2968 RMK AO2A SLP054 T03130261 $,2024-08-08T00:55:00Z,31.3,26.1,10+,29.68
KP58,44.0217,-82.7929,50,11,12.66,KP58 080055Z AUTO 05011KT 22/14 A2999 RMK AO1 SLP147 T02220144,2024-08-08T00:55:00Z,22.2,14.4,,29.99
KOZR,31.2767,-85.7105,310,4,4.6,KOZR 080055Z AUTO 31004KT 10SM CLR 31/22 A2968 RMK AO2 SLP049 T03090216 $,2024-08-08T00:55:00Z,30.9,21.6,10+,29.68
KOFF,41.122,-95.91,110,5,5.75,KOFF 080055Z 11005KT 10SM CLR 27/19 A2990 RMK AO2A SLP122 T02690187 $,2024-08-08T00:55:00Z,26.9,18.7,10+,29.90
KNTD,34.124,-119.123,220,7,8.06,KNTD 080055Z 22007KT 6SM BR OVC007 19/18 A2994 RMK AO2 SLP140 T01940178 $,2024-08-08T00:55:00Z,19.4,17.8,6,29.94
KNBG,29.837,-90.024,260,4,4.6,KNBG 080055Z 26004KT 10SM CLR 31/24 A2975 RMK AO2 SLP075 T03110239 PNO $,2024-08-08T00:55:00Z,31.1,23.9,10+,29.75
KMUO,43.03,-115.859,310,16,18.41,KMUO 080055Z AUTO 31016KT 6SM HZ FEW210 33/M14 A2995 RMK AO2 SLP109 T03291145 $,2024-08-08T00:55:00Z,32.9,-14.5,6,29.95
KMUI,40.4381,-76.5643,70,9,10.36,KMUI 080055Z 07009KT 7SM VCSH FEW006 OVC009 19/17 A2998 RMK AO2A RAB24E41 SLP153 T01940170,2024-08-08T00:55:00Z,19.4,17,7,29.98
KMKG,43.1711,-86.2368,0,0,0.0,KMKG 080055Z 00000KT 10SM SCT050 BKN250 22/15 A2996 RMK AO2 SLP144 T02170150,2024-08-08T00:55:00Z,21.7,15,10+,29.96
KMIB,48.4062,-101.341,30,11,12.66,KMIB 080055Z 03011KT 10SM BKN050 17/07 A3009 RMK AO2A SLPNO T01690067,2024-08-08T00:55:00Z,16.9,6.7,10+,30.09
KMGE,33.9189,-84.5266,330,6,6.9,KMGE 080055Z 33006KT 10SM FEW060 31/20 A2970 RMK AO2A SLP043 T03100196 $,2024-08-08T00:55:00Z,31,19.6,10+,29.70
KMCF,27.8598,-82.5133,260,6,6.9,KMCF 080055Z AUTO 26006KT 10SM CLR 30/26 A2971 RMK AO2 SLP063 T03040256 FZRANO $,2024-08-08T00:55:00Z,30.4,25.6,10+,29.71
KLUF,33.538,-112.38,180,11,12.66,KLUF 080055Z AUTO 18011KT 7SM CLR 39/15 A2981 RMK AO2 SLP077 T03860150 $,2024-08-08T00:55:00Z,38.6,15,7,29.81
KLTS,34.666,-99.27,140,12,13.81,KLTS 080055Z AUTO 14012KT 10SM CLR 39/12 A2978 RMK AO2 SLP061 T03870117 $,2024-08-08T00:55:00Z,38.7,11.7,10+,29.78
KLSV,36.236,-115.034,120,11,12.66,KLSV 080055Z AUTO 12011KT 10SM CLR 39/14 A2975 RMK AO2 SLP041 T03940144 $,2024-08-08T00:55:00Z,39.4,14.4,10+,29.75
KLSF,32.3239,-84.9826,0,0,0.0,KLSF 080055Z AUTO 00000KT 10SM CLR 27/23 A2966 RMK AO2 SLP046 T02710225 RVRNO FZRANO VISNO RWY33 $,2024-08-08T00:55:00Z,27.1,22.5,10+,29.66
KLRF,34.92,-92.131,50,9,10.36,KLRF 080055Z 05009KT 10SM CLR 27/19 A2981 RMK AO2A SLP094 T02670190 $,2024-08-08T00:55:00Z,26.7,19,10+,29.81
KLOR,31.36,-85.749,0,0,0.0,KLOR 080055Z AUTO 00000KT 8SM CLR 28/24 A2969 RMK AO2 SLP035 T02840237 $,2024-08-08T00:55:00Z,28.4,23.7,8,29.69
KLLJ,44.523,-114.216,10,8,9.21,KLLJ 080055Z AUTO 01008KT 10SM CLR 29/04 A3005 RMK AO2 SLP112 T02890039,2024-08-08T00:55:00Z,28.9,3.9,10+,30.05
KLHW,31.8872,-81.5625,300,10,11.51,KLHW 080055Z 30010KT 10SM FEW030 SCT050 BKN100 26/23 A2955 RMK AO2A RAE01 SLP009 P0000 T02570230 $,2024-08-08T00:55:00Z,25.7,23,10+,29.55
KLGF,32.868,-114.393,250,10,11.51,KLGF 080055Z AUTO 25010KT 9SM CLR 39/18 A2978 RMK AO2 SLP080 T03920178 $,2024-08-08T00:55:00Z,39.2,17.8,9,29.78
KLCK,39.83,-82.919,50,7,8.06,KLCK 080055Z AUTO 05007KT 10SM CLR 23/19 A2987 RMK AO2 T02330191,2024-08-08T00:55:00Z,23.3,19.1,10+,29.87
KIRK,40.0966,-92.5469,90,3,3.45,KIRK 080055Z AUTO 09003KT 10SM CLR 24/17 A2994 RMK AO2 SLP136 T02390167,2024-08-08T00:55:00Z,23.9,16.7,10+,29.94
KINS,36.586,-115.69,130,11,12.66,KINS 080055Z AUTO 13011KT 10SM CLR 38/13 A2989 RMK AO2 SLP059 T03800125,2024-08-08T00:55:00Z,38,12.5,10+,29.89
KIAB,37.622,-97.268,120,8,9.21,KIAB 080055Z AUTO 12008KT 10SM CLR 33/17 A2983 RMK AO2 SLP088 T03340171,2024-08-08T00:55:00Z,33.4,17.1,10+,29.83
KHST,25.49,-80.379,220,6,6.9,KHST 080055Z AUTO 22006KT 10SM SCT110 29/24 A2978 RMK AO2 SLP088 T02850236,2024-08-08T00:55:00Z,28.5,23.6,10+,29.78
KHRT,30.428,-86.69,330,5,5.75,KHRT 080055Z 33005KT 10SM CLR 33/20 A2969 RMK AO2A SLP052 T03310202 $,2024-08-08T00:55:00Z,33.1,20.2,10+,29.69
KHOP,36.672,-87.495,330,5,5.75,KHOP 080055Z AUTO 33005KT 10SM CLR 24/22 A2980 RMK AO2 SLP088 T02440215 PWINO $,2024-08-08T00:55:00Z,24.4,21.5,10+,29.80
KHON,44.3792,-98.2227,360,9,10.36,KHON 080055Z AUTO 36009KT 10SM FEW025 SCT120 23/17 A2997 RMK AO2 SLP142 T02280172,2024-08-08T00:55:00Z,22.8,17.2,10+,29.97
KHMN,32.852,-106.108,230,9,10.36,KHMN 080055Z AUTO 23009KT 10SM SCT130 37/06 A2997 RMK AO2 SLP062 T03710061 $,2024-08-08T00:55:00Z,37.1,6.1,10+,29.97
KHLR,31.1361,-97.7149,120,5,5.75,KHLR 080055Z AUTO 12005KT 9SM CLR 36/18 A2978 RMK AO2 SLP071 T03590180,2024-08-08T00:55:00Z,35.9,18,9,29.78
KHIF,41.111,-111.962,0,0,0.0,KHIF 080055Z 00000KT 10SM CLR 34/M06 A3001 RMK AO2A SLP084 T03421065,2024-08-08T00:55:00Z,34.2,-6.5,10+,30.01
KHFF,35.0424,-79.4973,60,13,14.96,KHFF 080055Z AUTO 06013KT 10SM -RA SCT018 OVC024 25/23 A2965 RMK AO2 RAE2355RAB07E16DZB16E26RAB53 CIG 017V024 OVC V BKN SLP039 P0000 T02520234 $,2024-08-08T00:55:00Z,25.2,23.4,10+,29.65
KHEY,31.348,-85.655,310,3,3.45,KHEY 080055Z AUTO 31003KT 10SM CLR 29/25 A2966 RMK AO2 SLP042 T02850249,2024-08-08T00:55:00Z,28.5,24.9,10+,29.66
KGXF,32.885,-112.721,0,0,0.0,KGXF 080055Z AUTO 00000KT 10SM CLR 38/18 A2982 RMK AO2 SLP083 T03820175 FZRANO $,2024-08-08T00:55:00Z,38.2,17.5,10+,29.82
KGXA,34.565,-117.669,260,15,17.26,KGXA 080055Z AUTO 26015KT 230V290 10SM CLR 36/04 A2992 RMK AO2 SLP091 WND DATA ESTMD T03620043,2024-08-08T00:55:00Z,36.2,4.3,10+,29.92
KGUS,40.6375,-86.1631,50,6,6.9,KGUS 080055Z AUTO 05006KT 10SM BKN049 22/18 A2990 RMK AO2 SLP124 T02210183 $,2024-08-08T00:55:00Z,22.1,18.3,10+,29.90
KGTB,44.0617,-75.7218,0,0,0.0,KGTB 080055Z COR 00000KT 7SM CLR 19/14 A3001 RMK AO2 SLP160 T01870135 COR 0113,2024-08-08T00:55:00Z,18.7,13.5,7,30.01
KGSB,35.3446,-77.9458,70,12,13.81,KGSB 080055Z 07012KT 6SM -RA BR OVC007 26/25 A2971 RMK AO2A SLP063 P0011 T02560245 $,2024-08-08T00:55:00Z,25.6,24.5,6,29.71
KGRK,31.0779,-97.8323,90,8,9.21,KGRK 080055Z AUTO 09008KT 8SM CLR 36/18 A2979 RMK AO2 SLP071 T03600176,2024-08-08T00:55:00Z,36,17.6,8,29.79
KGRF,47.079,-122.58,360,7,8.06,KGRF 080055Z AUTO 36007KT 10SM CLR 27/13 A3001 RMK AO2 SLP165 T02700133 $,2024-08-08T00:55:00Z,27,13.3,10+,30.01
KGPI,48.3041,-114.264,20,15,17.26,KGPI 080055Z 02015G23KT 10SM CLR 23/10 A3016 RMK AO2 SLP201 T02280100,2024-08-08T00:55:00Z,22.8,10,10+,30.16
KGPH,39.3248,-94.3082,0,0,0.0,KGPH 080055Z AUTO 00000KT 10SM CLR 26/17 A2991 RMK AO2,2024-08-08T00:55:00Z,26,17,10+,29.91
KGOV,44.681,-84.727,170,6,6.9,KGOV 080055Z AUTO 17006KT 10SM CLR 20/12 A2998 RMK AO2 SLP157 T02020124 $,2024-08-08T00:55:00Z,20.2,12.4,10+,29.98
KGFA,47.505,-111.187,50,8,9.21,KGFA 080055Z AUTO 05008KT 10SM FEW021 SCT027 BKN060 17/12 A3027 RMK AO2 SLP251 T01680123 $,2024-08-08T00:55:00Z,16.8,12.3,10+,30.27
KFTK,37.907,-85.973,310,5,5.75,KFTK 080055Z AUTO 31005KT 10SM FEW041 BKN055 26/23 A2979 RMK AO2 SLP082 T02580231 $,2024-08-08T00:55:00Z,25.8,23.1,10+,29.79
KFRI,39.0568,-96.7617,30,8,9.21,KFRI 080055Z AUTO 03008KT 10SM CLR 29/18 A2986 RMK AO2 SLP101 T02910179 PNO $,2024-08-08T00:55:00Z,29.1,17.9,10+,29.86
KFHU,31.586,-110.348,290,11,12.66,KFHU 080055Z AUTO 29011KT 10SM CLR 27/17 A3013 RMK AO2 LTG DSNT NE AND W SLP139 T02740169,2024-08-08T00:55:00Z,27.4,16.9,10+,30.13
KFEW,41.141,-104.869,100,8,9.21,KFEW 080055Z 10008KT 10SM BKN120 21/14 A3017 RMK SLPNO A02A WND DATA ESTMD ALSTG ESTMD,2024-08-08T00:55:00Z,21,14,10+,30.17
KFCS,38.6756,-104.751,250,7,8.06,KFCS 080055Z 25007KT 10SM SCT100 OVC140 26/11 A3012 RMK AO2A SLP132 T02560114 $,2024-08-08T00:55:00Z,25.6,11.4,10+,30.12
KEND,36.338,-97.919,110,12,13.81,KEND 080055Z AUTO 11012KT 10SM CLR 36/19 A2976 RMK AO2 SLP062 T03600194 $,2024-08-08T00:55:00Z,36,19.4,10+,29.76
KEGI,30.653,-86.525,0,0,0.0,KEGI 080055Z AUTO 00000KT 10SM CLR 32/22 A2970 RMK AO2 SLP056 T03230221 $,2024-08-08T00:55:00Z,32.3,22.1,10+,29.70
KEDW,34.908,-117.874,230,23,26.47,KEDW 080055Z 23023G29KT 50SM FEW220 38/M01 A2987 RMK AO2A PK WND 24030/15 SLP084 T03761007,2024-08-08T00:55:00Z,37.6,-0.7,50,29.87
KEAT,47.3975,-120.201,130,8,9.21,KEAT 080055Z AUTO 13008KT 10SM CLR 33/14 A2995 RMK AO2 SLP131 T03330139,2024-08-08T00:55:00Z,33.3,13.9,10+,29.95
KDYS,32.406,-99.85,90,15,17.26,KDYS 080055Z AUTO 09015KT 10SM CLR 39/07 A2980 RMK AO2 SLP058 T03910067,2024-08-08T00:55:00Z,39.1,6.7,10+,29.80
KDMA,32.165,-110.887,280,12,13.81,KDMA 080055Z AUTO 28012KT 10SM BKN150 33/17 A2996 RMK AO2 LTG DSNT NE-E AND SW SLP098 T03280166 $,2024-08-08T00:55:00Z,32.8,16.6,10+,29.96
KDLH,46.8435,-92.1866,260,7,8.06,KDLH 080055Z 26007KT 7SM RA FEW041 SCT070 OVC090 15/13 A2994 RMK AO2 SLP141 P0006 T01500133,2024-08-08T00:55:00Z,15,13.3,7,29.94
KDLF,29.3666,-100.785,100,6,6.9,KDLF 080055Z AUTO 10006KT 10SM CLR 40/13 A2973 RMK AO2 SLP051 T03970125,2024-08-08T00:55:00Z,39.7,12.5,10+,29.73
KDAA,38.714,-77.178,130,6,6.9,KDAA 080055Z AUTO 13006KT 10SM SCT044 BKN060 26/23 A2985 RMK AO2 LTG DSNT N SLP110 T02640232 $,2024-08-08T00:55:00Z,26.4,23.2,10+,29.85
KCWN,38.748,-104.847,210,7,8.06,KCWN 080055Z AUTO 21007KT 10SM OVC130 25/08 A3022 RMK AO2 LTG DSNT NE-E AND W SLP034 T02490084 $,2024-08-08T00:55:00Z,24.9,8.4,10+,30.22
KCVS,34.381,-103.322,210,7,8.06,KCVS 080055Z AUTO 21007KT 10SM CLR 36/01 A2996 RMK AO2 SLP059 T03600009 $,2024-08-08T00:55:00Z,36,0.9,10+,29.96
KCOF,28.242,-80.608,230,13,14.96,KCOF 080055Z AUTO 23013KT 10SM BKN190 30/24 A2966 RMK AO2 SLP048 T02970243 $,2024-08-08T00:55:00Z,29.7,24.3,10+,29.66
KCNW,31.637,-97.071,80,5,5.75,KCNW 080055Z 08005KT 10SM SKC 35/13 A2979,2024-08-08T00:55:00Z,35,13,10+,29.79
KCNK,39.5513,-97.6508,80,7,8.06,KCNK 080055Z AUTO 08007KT 10SM CLR 29/16 A2988 RMK AO2 SLP103 T02890161,2024-08-08T00:55:00Z,28.9,16.1,10+,29.88
KCEF,42.201,-72.525,0,0,0.0,KCEF 080055Z 00000KT 10SM FEW090 18/17 A3004 RMK AO2A SLP175 T01790166,2024-08-08T00:55:00Z,17.9,16.6,10+,30.04
KCBM,33.6519,-88.4567,360,9,10.36,KCBM 080055Z AUTO 36009KT 10SM CLR 28/23 A2972 RMK AO2 SLP064 T02830232 $,2024-08-08T00:55:00Z,28.3,23.2,10+,29.72
KCAO,36.4483,-103.154,170,11,12.66,KCAO 080055Z AUTO 17011KT 10SM CLR 34/04 A2998 RMK AO2 LTG DSNT N SLP065 T03390039 $,2024-08-08T00:55:00Z,33.9,3.9,10+,29.98
KBLV,38.54,-89.845,20,3,3.45,KBLV 080055Z 02003KT 10SM BKN028 OVC039 24/20 A2988 RMK AO2A SLP118 T02390196 $,2024-08-08T00:55:00Z,23.9,19.6,10+,29.88
KBKT,37.082,-77.953,90,5,5.75,KBKT 080055Z AUTO 09005KT 10SM FEW009 SCT260 25/24 A2984 RMK AO2 SLP104 T02460235 $,2024-08-08T00:55:00Z,24.6,23.5,10+,29.84
KBIX,30.415,-88.922,0,0,0.0,KBIX 080055Z AUTO 00000KT 10SM CLR 32/23 A2971 RMK AO2 SLP063 T03230229,2024-08-08T00:55:00Z,32.3,22.9,10+,29.71
KBIF,31.861,-106.369,240,12,13.81,KBIF 080055Z AUTO 24012KT 10SM CLR 35/11 A2994 RMK AO2 SLP062 T03520109 $,2024-08-08T00:55:00Z,35.2,10.9,10+,29.94
KBAD,32.488,-93.658,180,4,4.6,KBAD 080055Z AUTO 18004KT 10SM CLR 36/20 A2975 RMK AO2 SLP076 T03550202,2024-08-08T00:55:00Z,35.5,20.2,10+,29.75
KBAB,39.145,-121.436,180,8,9.21,KBAB 080055Z AUTO 18008KT 10SM CLR 39/03 A2979 RMK AO2 SLP090 T03930034 $,2024-08-08T00:55:00Z,39.3,3.4,10+,29.79
KAST,46.157,-123.883,300,14,16.11,KAST 080055Z AUTO 30014G18KT 10SM CLR 21/15 A3003 RMK AO2 SLP169 T02060150,2024-08-08T00:55:00Z,20.6,15,10+,30.03
KANJ,46.48,-84.3581,160,4,4.6,KANJ 080055Z AUTO 16004KT 10SM CLR 20/12 A2999 RMK AO2 SLP154 T02000122,2024-08-08T00:55:00Z,20,12.2,10+,29.99
KAFF,38.971,-104.816,360,9,10.36,KAFF 080055Z 36009KT 10SM SCT110 BKN140 BKN160 26/09 A3021 RMK AO2A SLP131 T02640088,2024-08-08T00:55:00Z,26.4,8.8,10+,30.21
KABH,38.7587,-104.299,20,16,18.41,KABH 080055Z AUTO 02016G20KT 10SM FEW100 OVC120 26/12 A3019 RMK AO2 LTG DSNT NE-E SLP142 T02550116,2024-08-08T00:55:00Z,25.5,11.6,10+,30.19
KAAT,41.4836,-120.561,290,11,12.66,KAAT 080055Z AUTO 29011KT 10SM CLR 33/M10 A3008 RMK AO2 SLP143 T03331100,2024-08-08T00:55:00Z,33.3,-10,10+,30.08
K9L2,34.996,-117.857,240,17,19.56,K9L2 080055Z AUTO 24017G22KT 7SM CLR 40/06 A2986 RMK AO2 PK WND 26026/52 SLP080 T04040055 $,2024-08-08T00:55:00Z,40.4,5.5,7,29.86
K4MR,34.29,-103.791,180,10,11.51,K4MR 080055Z AUTO 18010KT 10SM CLR 34/08 A2993 RMK AO2 SLP035 T03440082 $,2024-08-08T00:55:00Z,34.4,8.2,10+,29.93
K1YT,46.668,-120.457,180,8,9.21,K1YT 080055Z AUTO 18008KT 10SM CLR 33/06 A2993 RMK AO2 SLP128 T03300055 $,2024-08-08T00:55:00Z,33,5.5,10+,29.93
K1OW,40.885,-103.999,140,10,11.51,K1OW 080055Z AUTO 14010KT 10SM FEW100 23/13 A3023 RMK AO2 LTG DSNT SE SLP176 T02290134 PNO $,2024-08-08T00:55:00Z,22.9,13.4,10+,30.23
K1NW,40.632,-103.836,210,5,5.75,K1NW 080055Z AUTO 21005KT 10SM FEW170 22/15 A3008 RMK AO2 LTG DSNT SE-S RAE07 SLP128 P0000 T02230149 $,2024-08-08T00:55:00Z,22.3,14.9,10+,30.08
K1NN,48.76,-101.59,350,10,11.51,K1NN 080055Z AUTO 35010KT 10SM M 16/08 M RMK AO2 SLPNO T01550075 $,2024-08-08T00:55:00Z,15.5,7.5,10+,
K1MN,48.67,-101.88,350,10,11.51,K1MN 080055Z AUTO 35010KT M M M 15/08 A3013 RMK AO2 SLP209 T01510081 RVRNO PWINO TSNO $,2024-08-08T00:55:00Z,15.1,8.1,,30.13
K1MM,47.014,-109.63,60,5,5.75,K1MM 080055Z AUTO 06005KT 10SM FEW047 OVC060 15/12 A3026 RMK AO2 SLP243 T01510120 $,2024-08-08T00:55:00Z,15.1,12,10+,30.26
K1LN,48.79,-102.27,360,8,9.21,K1LN 080055Z AUTO 36008KT 10SM CLR 15/07 A3014 RMK AO2 SLP214 T01510069 $,2024-08-08T00:55:00Z,15.1,6.9,10+,30.14
K1LM,46.694,-109.74,360,14,16.11,K1LM 080055Z AUTO 36014G18KT 10SM FEW065 16/11 A3026 RMK AO2 SLP235 T01620107 $,2024-08-08T00:55:00Z,16.2,10.7,10+,30.26
K1KN,48.55,-102.12,350,10,11.51,K1KN 080055Z AUTO 35010KT 10SM SCT170 BKN200 15/07 A3015 RMK AO2 SLP216 T01470070 $,2024-08-08T00:55:00Z,14.7,7,10+,30.15
K1KM,46.444,-109.801,40,7,8.06,K1KM 080055Z AUTO 04007KT 10SM OVC050 17/10 A3026 RMK AO2 SLP230 T01690103,2024-08-08T00:55:00Z,16.9,10.3,10+,30.26
K1JW,40.961,-103.199,170,14,16.11,K1JW 080055Z AUTO 17014KT 10SM -RA FEW050 SCT075 BKN110 BKN170 21/15 A3002 RMK AO2 LTG DSNT SE-S SLP116 P0003 T02090145 $,2024-08-08T00:55:00Z,20.9,14.5,10+,30.02
K1JN,48.41,-101.89,340,12,13.81,K1JN 080055Z AUTO 34012KT 10SM BKN170 15/06 A3014 RMK AO2 SLP211 T01530063 $,2024-08-08T00:55:00Z,15.3,6.3,10+,30.14
K1IW,41.046,-102.865,200,15,17.26,K1IW 080055Z AUTO 20015KT 10SM -RA FEW044 BKN100 OVC120 23/17 A2999 RMK AO2 LTG DSNT N AND S RAE22RAB40 PRESFR SLP110 P0001 T02320172 $,2024-08-08T00:55:00Z,23.2,17.2,10+,29.99
K1IN,48.34,-102.3,360,8,9.21,K1IN 080055Z AUTO 36008KT 10SM M 16/07 A3013 RMK AO2 SLP208 T01550073 $,2024-08-08T00:55:00Z,15.5,7.3,10+,30.13
K1HN,47.97,-102.22,360,7,8.06,K1HN 080055Z AUTO 36007KT 10SM FEW140 18/05 A3012 RMK AO2 SLPNO T01770053 $,2024-08-08T00:55:00Z,17.7,5.3,10+,30.12
K1HM,47.698,-111.943,110,4,4.6,K1HM 080055Z AUTO 11004KT 10SM FEW029 OVC055 16/12 A3026 RMK AO2 SLP247 T01610117 $,2024-08-08T00:55:00Z,16.1,11.7,10+,30.26
K1GW,41.208,-103.097,220,8,9.21,K1GW 080055Z AUTO 22008KT 10SM FEW050 BKN130 22/17 A3004 RMK AO2 LTG DSNT NW-NE AND SE-S RAE20RAB25E52 SLP128 P0002 T02210168 $,2024-08-08T00:55:00Z,22.1,16.8,10+,30.04
K1GN,48.12,-101.96,340,8,9.21,K1GN 080055Z AUTO 34008KT 10SM M 16/08 A3011 RMK AO2 SLP202 T01560076 $,2024-08-08T00:55:00Z,15.6,7.6,10+,30.11
K1GM,47.325,-112.093,30,7,8.06,K1GM 080055Z AUTO 03007KT 10SM FEW034 OVC043 15/11 A3023 RMK AO2 RAB09E20 SLP234 P0000 T01500112,2024-08-08T00:55:00Z,15,11.2,10+,30.23
K1FW,41.364,-103.489,160,6,6.9,K1FW 080055Z AUTO 16006KT 10SM CLR 21/15 A3008 RMK AO2 LTG DSNT NE AND S RAE19 TSE01 SLP135 P0002 T02140152 $,2024-08-08T00:55:00Z,21.4,15.2,10+,30.08
K1EW,41.103,-103.983,170,6,6.9,K1EW 080055Z AUTO 17006KT 10SM CLR 20/14 A3008 RMK AO2 LTG DSNT S RAE01 SLP130 P0000 T02040141 $,2024-08-08T00:55:00Z,20.4,14.1,10+,30.08
K1EM,47.454,-109.416,0,0,0.0,K1EM 080055Z AUTO 00000KT 10SM SCT036 BKN050 OVC060 15/11 A3026 RMK AO2 SLP246 T01470111 $,2024-08-08T00:55:00Z,14.7,11.1,10+,30.26
K1DW,41.361,-103.794,150,4,4.6,K1DW 080055Z AUTO 15004KT 10SM FEW060 SCT080 OVC110 21/15 A3012 RMK AO2 LTG DSNT S RAE2359 SLP153 P0000 T02060154 $,2024-08-08T00:55:00Z,20.6,15.4,10+,30.12
K1DN,47.8,-101.3,10,9,10.36,K1DN 080055Z AUTO 01009KT 10SM OVC170 17/07 A3008 RMK AO2 SLP191 T01690070 $,2024-08-08T00:55:00Z,16.9,7,10+,30.08
K1CW,41.581,-103.573,20,4,4.6,K1CW 080055Z AUTO 02004KT 10SM SCT090 SCT110 21/17 A3011 RMK AO2 PK WND 04028/13 LTG DSNT NW-NE AND S RAE28 TSE20 SLP152 P0000 T02120174 $,2024-08-08T00:55:00Z,21.2,17.4,10+,30.11
K1BM,47.285,-110.359,50,9,10.36,K1BM 080055Z AUTO 05009KT 10SM FEW007 FEW014 BKN035 OVC060 14/13 A3028 RMK AO2 SLP250 T01410125 $,2024-08-08T00:55:00Z,14.1,12.5,10+,30.28
K1AW,41.329,-104.265,190,5,5.75,K1AW 080055Z AUTO 19005KT 10SM FEW240 22/15 A3014 RMK AO2 LTG DSNT S SLP146 T02220150 $,2024-08-08T00:55:00Z,22.2,15,10+,30.14
K1AM,47.281,-110.801,320,13,14.96,K1AM 080055Z AUTO 32013KT 10SM BKN020 OVC028 15/12 A3027 RMK AO2 CIG 020V028 BKN V SCT SLP247 T01510124 $,2024-08-08T00:55:00Z,15.1,12.4,10+,30.27
FJDG,-7.313,72.411,160,13,14.96,FJDG 080055Z 16013KT 9999 FEW020 FEW050 SCT080 27/26 A2984 RMK SLP102 T02710261,2024-08-08T00:55:00Z,27.1,26.1,6+,29.84
ETOU,50.048,8.329,330,3,3.45,ETOU 080055Z AUTO 33003KT 9999 BKN050 18/14 A2998 RMK AO2 SLP153 T01770140,2024-08-08T00:55:00Z,17.7,14,6+,29.98
ETIK,49.472,10.39,230,3,3.45,ETIK 080055Z AUTO 23003KT 9999 FEW080 16/15 A2998 RMK AO2 SLP149 T01610150,2024-08-08T00:55:00Z,16.1,15,6+,29.98
ETIH,49.216,11.839,0,0,0.0,ETIH 080055Z AUTO 00000KT 9999 CLR 17/15 A2998 RMK AO2 SLP146 T01660151,2024-08-08T00:55:00Z,16.6,15.1,6+,29.98
ETIC,49.696,11.941,0,0,0.0,ETIC 080055Z AUTO 00000KT 9999 CLR 16/15 A2996 RMK AO2 SLP141 T01560148 $,2024-08-08T00:55:00Z,15.6,14.8,6+,29.96
ETEB,49.308,10.639,250,4,4.6,ETEB 080055Z AUTO 25004KT 9999 FEW060 FEW100 17/15 A2997 RMK AO2 SLP154 T01680148 $,2024-08-08T00:55:00Z,16.8,14.8,6+,29.97
ETAR,49.437,7.6,260,5,5.75,ETAR 080055Z AUTO 26005KT 9999 FEW060 16/14 A2998 RMK AO2 SLP152 T01590141,2024-08-08T00:55:00Z,15.9,14.1,6+,29.98
ETAD,49.979,6.698,270,4,4.6,ETAD 080055Z AUTO 27004KT 9999 SCT160 15/12 A2998 RMK AO2 SLP139 T01510124,2024-08-08T00:55:00Z,15.1,12.4,6+,29.98
EGVA,51.682,-1.79,240,5,5.75,EGVA 080055Z AUTO 24005KT 9999 FEW035 SCT043 OVC049 15/12 A2993 RMK AO2 SLP138 T01450120 $,2024-08-08T00:55:00Z,14.5,12,6+,29.93
EGUN,52.362,0.486,230,5,5.75,EGUN 080055Z 23005KT 9999 SCT100 14/11 A2992 RMK AO2A SLP135 T01430111 $,2024-08-08T00:55:00Z,14.3,11.1,6+,29.92
BGTL,76.527,-68.758,280,4,4.6,BGTL 080055Z AUTO 28004KT 9999 CLR 09/02 A2955 RMK AO2 SLP988 T00880021 TSNO $,2024-08-08T00:55:00Z,8.8,2.1,6+,29.55
PHOG,20.8887,-156.435,30,26,29.92,PHOG 080054Z 03026G34KT 10SM FEW040 28/21 A3000 RMK AO2 PK WND 03034/0052 SLP163 T02830211,2024-08-08T00:54:00Z,28.3,21.1,10+,30.00
PHMK,21.1545,-157.096,60,15,17.26,PHMK 080054Z COR 06015G26KT 10SM FEW038 29/20 A3003 RMK AO2 PK WND 06035/0024 SLP168 T02940200,2024-08-08T00:54:00Z,29.4,20,10+,30.03
PGUM,13.4796,144.796,100,5,5.75,PGUM 080054Z 10005KT 10SM FEW026 31/24 A2990 RMK AO2 SLP118 T03110244,2024-08-08T00:54:00Z,31.1,24.4,10+,29.90
PGSN,15.116,145.72,230,5,5.75,PGSN 080054Z 23005KT 10SM SCT020 32/26 A2989 RMK AO2 SLP141 T03170261,2024-08-08T00:54:00Z,31.7,26.1,10+,29.89
PAKN,58.683,-156.656,190,13,14.96,PAKN 080054Z 19013KT 10SM CLR 15/11 A2981 RMK AO2 SLP093 T01500111,2024-08-08T00:54:00Z,15,11.1,10+,29.81
PAHN,59.243,-135.511,140,6,6.9,PAHN 080054Z AUTO 14006KT 10SM CLR 23/12 A3015 RMK AO2 SLP212 T02280117,2024-08-08T00:54:00Z,22.8,11.7,10+,30.15
KWLD,37.1649,-97.035,100,6,6.9,KWLD 080054Z AUTO 10006KT 10SM CLR 34/18 A2983 RMK AO2 SLP086 T03390183,2024-08-08T00:54:00Z,33.9,18.3,10+,29.83
KWAL,37.9372,-75.4662,140,9,10.36,KWAL 080054Z 14009KT 10SM CLR 23/22 A2991 RMK AO2 SLP125 T02330222,2024-08-08T00:54:00Z,23.3,22.2,10+,29.91
KVTA,40.0263,-82.4635,VRB,4,4.6,KVTA 080054Z AUTO VRB04KT 10SM CLR 23/19 A2987 RMK AO2 SLP110 T02330189,2024-08-08T00:54:00Z,23.3,18.9,10+,29.87
KVSF,43.3421,-72.5213,0,0,0.0,KVSF 080054Z AUTO 00000KT 7SM CLR 18/14 A3007 RMK AO2 SLP182 T01780144,2024-08-08T00:54:00Z,17.8,14.4,7,30.07
KVAY,39.9408,-74.8407,,,,KVAY 080054Z AUTO 5SM -RA BR OVC006 19/18 A2999 RMK AO2 RAB50 SLP156 P0000 T01940183,2024-08-08T00:54:00Z,19.4,18.3,5,29.99
KUZA,34.9836,-81.0562,40,11,12.66,KUZA 080054Z AUTO 04011G19KT 10SM SCT028 SCT033 27/23 A2972 RMK AO2 SLP050 T02670228,2024-08-08T00:54:00Z,26.7,22.8,10+,29.72
KUIN,39.9371,-91.1966,90,3,3.45,KUIN 080054Z AUTO 09003KT 10SM OVC037 24/18 A2993 RMK AO2 SLP130 T02390178,2024-08-08T00:54:00Z,23.9,17.8,10+,29.93
KTQE,41.763,-96.1797,190,4,4.6,KTQE 080054Z AUTO 19004KT 10SM CLR 27/19 A2990 RMK AO2 SLP114 T02670189,2024-08-08T00:54:00Z,26.7,18.9,10+,29.90
KTAD,37.2618,-104.332,280,9,10.36,KTAD 080054Z AUTO 28009G20KT 10SM FEW075 BKN110 26/10 A3014 RMK AO2 PK WND 33031/0003 RAB31E43 SLP119 P0000 T02610100,2024-08-08T00:54:00Z,26.1,10,10+,30.14
KSYR,43.1111,-76.1038,90,3,3.45,KSYR 080054Z 09003KT 10SM FEW048 FEW180 22/14 A3001 RMK AO2 SLP156 T02170144,2024-08-08T00:54:00Z,21.7,14.4,10+,30.01
KSUS,38.6575,-90.6557,360,3,3.45,KSUS 080054Z 36003KT 10SM OVC041 23/18 A2990 RMK AO2 SLP118 T02330183,2024-08-08T00:54:00Z,23.3,18.3,10+,29.90
KSLC,40.7707,-111.965,20,8,9.21,KSLC 080054Z 02008KT 10SM FEW170 FEW250 36/M02 A2998 RMK AO2 SLP084 ACSL DSNT W T03561022,2024-08-08T00:54:00Z,35.6,-2.2,10+,29.98
KSET,38.9304,-90.4329,340,5,5.75,KSET 080054Z AUTO 34005KT 10SM OVC044 23/19 A2990 RMK AO2 SLP120 T02330189,2024-08-08T00:54:00Z,23.3,18.9,10+,29.90
KSBN,41.7072,-86.3163,40,6,6.9,KSBN 080054Z 04006KT 10SM BKN050 23/16 A2995 RMK AO2 SLP137 T02280156,2024-08-08T00:54:00Z,22.8,15.6,10+,29.95
KRST,43.904,-92.4921,140,3,3.45,KRST 080054Z 14003KT 10SM OVC095 20/17 A2995 RMK AO2 RAE2355 SLP140 P0000 T02000167,2024-08-08T00:54:00Z,20,16.7,10+,29.95
KROC,43.1172,-77.6754,80,5,5.75,KROC 080054Z 08005KT 10SM SCT055 BKN150 22/14 A3002 RMK AO2 SLP165 T02170139,2024-08-08T00:54:00Z,21.7,13.9,10+,30.02
KRKS,41.5947,-109.053,290,18,20.71,KRKS 080054Z AUTO 29018KT 10SM CLR 29/M04 A3019 RMK AO2 PK WND 31037/0016 SLP129 T02941039,2024-08-08T00:54:00Z,29.4,-3.9,10+,30.19
KRIC,37.5115,-77.3234,90,9,10.36,KRIC 080054Z 09009KT 10SM BKN013 BKN026 BKN150 OVC300 26/23 A2985 RMK AO2 SLP112 T02560233,2024-08-08T00:54:00Z,25.6,23.3,10+,29.85
KRFD,42.1915,-89.0876,0,0,0.0,KRFD 080054Z 00000KT 10SM FEW150 21/13 A2997 RMK AO2 SLP144 T02110133,2024-08-08T00:54:00Z,21.1,13.3,10+,29.97
KRBL,40.1519,-122.255,160,12,13.81,KRBL 080054Z AUTO 16012KT 10SM CLR 38/06 A2980 RMK AO2 SLP087 T03830056,2024-08-08T00:54:00Z,38.3,5.6,10+,29.80
KPSF,42.4268,-73.2891,0,0,0.0,KPSF 080054Z AUTO 00000KT 10SM CLR 16/15 A3008 RMK AO2 SLP168 T01610150,2024-08-08T00:54:00Z,16.1,15,10+,30.08
KPNE,40.0789,-75.0133,80,11,12.66,KPNE 080054Z 08011KT 10SM OVC008 21/18 A3002 RMK AO2 SLP163 T02060178,2024-08-08T00:54:00Z,20.6,17.8,10+,30.02
KPLN,45.5644,-84.7929,90,6,6.9,KPLN 080054Z AUTO 09006KT 10SM CLR 22/12 A2998 RMK AO2 SLP151 T02170122,2024-08-08T00:54:00Z,21.7,12.2,10+,29.98
KPIA,40.6675,-89.6842,60,5,5.75,KPIA 080054Z 06005KT 10SM BKN045 23/18 A2992 RMK AO2 SLP126 T02330178,2024-08-08T00:54:00Z,23.3,17.8,10+,29.92
KORH,42.2706,-71.8731,0,0,0.0,KORH 080054Z 00000KT 10SM CLR 18/15 A3009 RMK AO2 SLP189 T01830150,2024-08-08T00:54:00Z,18.3,15,10+,30.09
KOLM,46.9737,-122.905,30,5,5.75,KOLM 080054Z 03005KT 10SM CLR 27/14 A3004 RMK AO2 SLP171 T02720144,2024-08-08T00:54:00Z,27.2,14.4,10+,30.04
KNFL,39.417,-118.705,270,12,13.81,KNFL 080054Z 27012KT 10SM FEW080 SCT100 SCT250 38/01 A2999 RMK SLP126 T03780011,2024-08-08T00:54:00Z,37.8,1.1,10+,29.99
KNAK,38.9913,-76.4891,80,9,10.36,KNAK 080054Z AUTO 08009KT 10SM SCT019 OVC027 25/24 A2991 RMK AO2 SLP130 T02500239,2024-08-08T00:54:00Z,25,23.9,10+,29.91
KN60,47.654,-101.436,340,9,10.36,KN60 080054Z AUTO 34009KT 18/07 A3012 RMK AO1 SLP197 T01780067,2024-08-08T00:54:00Z,17.8,6.7,,30.12
KMVL,44.5328,-72.6152,0,0,0.0,KMVL 080054Z AUTO 00000KT 10SM CLR 16/13 A3008 RMK AO2 SLP186 T01560128,2024-08-08T00:54:00Z,15.6,12.8,10+,30.08
KMTP,41.073,-71.9235,80,4,4.6,KMTP 080054Z AUTO 08004KT 21/16 A3007 RMK AO1 SLP181 T02060161,2024-08-08T00:54:00Z,20.6,16.1,,30.07
KMOT,48.252,-101.269,340,12,13.81,KMOT 080054Z 34012KT 10SM CLR 17/07 A3011 RMK AO2 SLP198 T01670067,2024-08-08T00:54:00Z,16.7,6.7,10+,30.11
KMKC,39.1279,-94.5892,70,9,10.36,KMKC 080054Z 07009KT 10SM CLR 27/17 A2988 RMK AO2 SLP112 T02720172,2024-08-08T00:54:00Z,27.2,17.2,10+,29.88
KMGJ,41.509,-74.2645,0,0,0.0,KMGJ 080054Z AUTO 00000KT 10SM FEW021 OVC070 18/17 A3005 RMK AO2 SLP175 T01830167,2024-08-08T00:54:00Z,18.3,16.7,10+,30.05
KMFI,44.6379,-90.1875,0,0,0.0,KMFI 080054Z AUTO 00000KT 10SM FEW110 21/16 A2996 RMK AO2 SLP141 T02110161,2024-08-08T00:54:00Z,21.1,16.1,10+,29.96
KMEM,35.0564,-89.9864,360,10,11.51,KMEM 080054Z 36010KT 10SM FEW039 FEW250 25/19 A2982 RMK AO2 SLP094 T02500189,2024-08-08T00:54:00Z,25,18.9,10+,29.82
KLWT,47.0544,-109.457,10,5,5.75,KLWT 080054Z AUTO 01005KT 10SM OVC050 14/11 A3030 RMK AO2 SLP244 T01440111,2024-08-08T00:54:00Z,14.4,11.1,10+,30.30
KLWM,42.7125,-71.1256,0,0,0.0,KLWM 080054Z 00000KT 10SM CLR 18/14 A3009 RMK AO2 SLP190 T01830144,2024-08-08T00:54:00Z,18.3,14.4,10+,30.09
KLNK,40.8478,-96.7647,30,6,6.9,KLNK 080054Z 03006KT 8SM CLR 27/18 A2991 RMK AO2 SLP119 T02720183,2024-08-08T00:54:00Z,27.2,18.3,8,29.91
KLEX,38.0339,-84.6114,20,6,6.9,KLEX 080054Z 02006KT 10SM CLR 28/21 A2981 RMK AO2 SLP083 T02780211,2024-08-08T00:54:00Z,27.8,21.1,10+,29.81
KLAF,40.4124,-86.9474,10,3,3.45,KLAF 080054Z AUTO 01003KT 10SM CLR 22/17 A2991 RMK AO2 SLP123 T02220167,2024-08-08T00:54:00Z,22.2,16.7,10+,29.91
KJST,40.3149,-78.8307,70,6,6.9,KJST 080054Z AUTO 07006KT 1/4SM FG VV002 19/19 A2998 RMK AO2 SLP140 T01890189,2024-08-08T00:54:00Z,18.9,18.9,0.25,29.98
KJAN,32.3198,-90.0778,350,8,9.21,KJAN 080054Z 35008KT 10SM FEW055 SCT075 33/23 A2976 RMK AO2 SLP071 T03330228,2024-08-08T00:54:00Z,33.3,22.8,10+,29.76
KIZG,43.9899,-70.9501,190,3,3.45,KIZG 080054Z AUTO 19003KT 10SM CLR 18/15 A3007 RMK AO2 SLP181 T01780150,2024-08-08T00:54:00Z,17.8,15,10+,30.07
KISW,44.3591,-89.837,150,4,4.6,KISW 080054Z AUTO 15004KT 10SM CLR 22/16 A2996 RMK AO2 SLP143 T02170156,2024-08-08T00:54:00Z,21.7,15.6,10+,29.96
KIPT,41.243,-76.9217,100,6,6.9,KIPT 080054Z 10006KT 4SM BR OVC024 19/18 A2999 RMK AO2 SLP152 T01940183,2024-08-08T00:54:00Z,19.4,18.3,4,29.99
KINL,48.5594,-93.3955,250,5,5.75,KINL 080054Z AUTO 25005KT 10SM CLR 18/16 A2987 RMK AO2 SLP114 T01830156,2024-08-08T00:54:00Z,18.3,15.6,10+,29.87
KIND,39.7252,-86.2816,50,12,13.81,KIND 080054Z 05012KT 10SM BKN045 24/19 A2988 RMK AO2 SLP113 T02440189 $,2024-08-08T00:54:00Z,24.4,18.9,10+,29.88
KIMT,45.8134,-88.1129,0,0,0.0,KIMT 080054Z AUTO 00000KT 10SM -RA FEW055 SCT070 BKN090 20/14 A2995 RMK AO2 RAB42 SLP142 P0000 T02000144,2024-08-08T00:54:00Z,20,14.4,10+,29.95
KILN,39.4308,-83.777,20,8,9.21,KILN 080054Z AUTO 02008KT 10SM CLR 23/20 A2987 RMK AO2 SLP106 T02330200,2024-08-08T00:54:00Z,23.3,20,10+,29.87
KHWD,37.6589,-122.121,310,12,13.81,KHWD 080054Z 31012KT 10SM CLR 23/12 A2990 RMK AO2 SLP134 T02330117,2024-08-08T00:54:00Z,23.3,11.7,10+,29.90
KGSO,36.0969,-79.9432,40,10,11.51,KGSO 080054Z 04010KT 10SM BKN012 BKN028 OVC250 25/23 A2980 RMK AO2 SLP078 T02500233,2024-08-08T00:54:00Z,25,23.3,10+,29.80
KGCN,35.9458,-112.155,VRB,6,6.9,KGCN 080054Z VRB06KT 10SM FEW120 30/09 A3022 RMK AO2 LTG DSNT S SLP110 T03000094,2024-08-08T00:54:00Z,30,9.4,10+,30.22
KGCK,37.9221,-100.723,110,11,12.66,KGCK 080054Z 11011KT 10SM SCT100 33/17 A2984 RMK AO2 SLP066 T03330167,2024-08-08T00:54:00Z,33.3,16.7,10+,29.84
KFZY,43.3504,-76.3831,0,0,0.0,KFZY 080054Z AUTO 00000KT 10SM CLR 18/16 A3000 RMK AO2 SLP158 T01830156,2024-08-08T00:54:00Z,18.3,15.6,10+,30.00
KFWA,40.9725,-85.2064,70,8,9.21,KFWA 080054Z 07008KT 10SM BKN047 BKN250 22/17 A2994 RMK AO2 SLP136 T02170167,2024-08-08T00:54:00Z,21.7,16.7,10+,29.94
KFFZ,33.4659,-111.721,260,5,5.75,KFFZ 080054Z 26005KT 10SM CLR 37/18 A2985 RMK AO2 SLP082 T03670178,2024-08-08T00:54:00Z,36.7,17.8,10+,29.85
KEWN,35.0684,-77.0478,70,8,9.21,KEWN 080054Z 07008KT 10SM -RA FEW024 BKN080 OVC110 27/25 A2975 RMK AO2 RAB2358E08B38 SLP073 P0000 T02670250,2024-08-08T00:54:00Z,26.7,25,10+,29.75
KEVV,38.0502,-87.5147,330,5,5.75,KEVV 080054Z 33005KT 10SM CLR 23/21 A2985 RMK AO2 SLP103 T02330206 $,2024-08-08T00:54:00Z,23.3,20.6,10+,29.85
KEUG,44.1331,-123.216,330,14,16.11,KEUG 080054Z 33014KT 10SM FEW100 SCT200 BKN250 30/12 A2995 RMK AO2 SLP140 HZ FEW100 T03000122,2024-08-08T00:54:00Z,30,12.2,10+,29.95
KEFD,29.606,-95.16,180,6,6.9,KEFD 080054Z 18006KT 10SM SCT050 32/24 A2978,2024-08-08T00:54:00Z,32,24,10+,29.78
KECG,36.2571,-76.1716,100,9,10.36,KECG 080054Z 10009KT 10SM CLR 26/24 A2983 RMK AO2 RAB15E45 SLP101 P0001 T02560239,2024-08-08T00:54:00Z,25.6,23.9,10+,29.83
KDSV,42.5699,-77.7142,0,0,0.0,KDSV 080054Z AUTO 00000KT 10SM FEW045 BKN055 21/15 A3001 RMK AO2 SLP166 T02110150,2024-08-08T00:54:00Z,21.1,15,10+,30.01
KDSM,41.534,-93.6531,110,6,6.9,KDSM 080054Z 11006KT 10SM CLR 26/16 A2993 RMK AO2 SLP130 T02560161,2024-08-08T00:54:00Z,25.6,16.1,10+,29.93
KDEC,39.8308,-88.8719,30,6,6.9,KDEC 080054Z 03006KT 10SM FEW038 OVC050 24/21 A2990 RMK AO2 SLP122 T02390206,2024-08-08T00:54:00Z,23.9,20.6,10+,29.90
KDDH,42.8935,-73.2488,140,3,3.45,KDDH 080054Z AUTO 14003KT 10SM FEW055 18/14 A3007 RMK AO2 SLP179 T01830144,2024-08-08T00:54:00Z,18.3,14.4,10+,30.07
KCOU,38.8171,-92.2148,60,3,3.45,KCOU 080054Z 06003KT 10SM CLR 24/17 A2992 RMK AO2 SLP125 T02440172,2024-08-08T00:54:00Z,24.4,17.2,10+,29.92
KCOS,38.8095,-104.689,260,5,5.75,KCOS 080054Z 26005KT 10SM FEW065 FEW100 BKN150 BKN200 24/14 A3019 RMK AO2 SLP135 T02390139,2024-08-08T00:54:00Z,23.9,13.9,10+,30.19
KCEU,34.6722,-82.8814,40,7,8.06,KCEU 080054Z AUTO 04007KT 10SM CLR 29/22 A2973 RMK AO2 SLP053 T02940222,2024-08-08T00:54:00Z,29.4,22.2,10+,29.73
KCAR,46.8705,-68.0172,360,4,4.6,KCAR 080054Z AUTO 36004KT 10SM CLR 15/07 A3005 RMK AO2 SLP180 T01500072,2024-08-08T00:54:00Z,15,7.2,10+,30.05
KBUY,36.0475,-79.4737,50,8,9.21,KBUY 080054Z AUTO 05008KT 10SM BKN044 26/22 A2978 RMK AO2 SLP076 T02560222,2024-08-08T00:54:00Z,25.6,22.2,10+,29.78
KBUF,42.94,-78.7361,50,8,9.21,KBUF 080054Z 05008KT 10SM FEW060 SCT100 SCT200 SCT250 21/13 A2999 RMK AO2 SLP154 T02060128,2024-08-08T00:54:00Z,20.6,12.8,10+,29.99
KBTV,44.4683,-73.1499,40,4,4.6,KBTV 080054Z 04004KT 10SM CLR 22/12 A3005 RMK AO2 SLP174 T02170117,2024-08-08T00:54:00Z,21.7,11.7,10+,30.05
KBOS,42.3606,-71.0097,140,3,3.45,KBOS 080054Z 14003KT 10SM FEW120 18/16 A3008 RMK AO2 SLP184 T01780156,2024-08-08T00:54:00Z,17.8,15.6,10+,30.08
KBFL,35.4342,-119.055,340,11,12.66,KBFL 080054Z 34011KT 10SM BKN110 43/08 A2979 RMK AO2 SLP079 T04280083,2024-08-08T00:54:00Z,42.8,8.3,10+,29.79
KAVL,35.4318,-82.5379,360,4,4.6,KAVL 080054Z 36004KT 10SM SCT065 SCT085 26/21 A2984 RMK AO2 SLP074 T02610211,2024-08-08T00:54:00Z,26.1,21.1,10+,29.84
KAUW,44.9265,-89.6248,140,4,4.6,KAUW 080054Z AUTO 14004KT 10SM SCT045 SCT060 BKN110 22/14 A2994 RMK AO2 SLP140 T02220139,2024-08-08T00:54:00Z,22.2,13.9,10+,29.94
KAPN,45.0716,-83.5645,100,4,4.6,KAPN 080054Z AUTO 10004KT 10SM CLR 17/12 A3001 RMK AO2 SLP163 T01720122,2024-08-08T00:54:00Z,17.2,12.2,10+,30.01
KAPC,38.2075,-122.28,180,14,16.11,KAPC 080054Z 18014KT 10SM CLR 22/13 A2989 RMK AO2 SLP112 T02170128,2024-08-08T00:54:00Z,21.7,12.8,10+,29.89
KALO,42.5544,-92.4013,190,4,4.6,KALO 080054Z AUTO 19004KT 10SM CLR 24/16 A2993 RMK AO2 SLP132 T02390161,2024-08-08T00:54:00Z,23.9,16.1,10+,29.93
KAKR,41.0373,-81.4634,50,7,8.06,KAKR 080054Z AUTO 05007KT 10SM FEW023 BKN035 OVC046 23/19 A2992 RMK AO2 SLP124 T02280189 PWINO $,2024-08-08T00:54:00Z,22.8,18.9,10+,29.92
KAKH,35.1968,-81.1555,30,8,9.21,KAKH 080054Z AUTO 03008KT 10SM CLR 26/23 A2974 RMK AO2 SLP062 T02610228,2024-08-08T00:54:00Z,26.1,22.8,10+,29.74
KACY,39.452,-74.567,70,13,14.96,KACY 080054Z 07013KT 10SM OVC005 22/20 A2998 RMK AO2 SLP150 T02170200 $,2024-08-08T00:54:00Z,21.7,20,10+,29.98
KAAO,37.7496,-97.2191,130,5,5.75,KAAO 080054Z AUTO 13005KT 10SM CLR 32/17 A2984 RMK AO2 SLP091 T03170172,2024-08-08T00:54:00Z,31.7,17.2,10+,29.84
K1V4,44.42,-72.019,,,,K1V4 080054Z AUTO 18/14 A3005 RMK AO1 SLP170 T01780139,2024-08-08T00:54:00Z,17.8,13.9,,30.05
K12N,41.0093,-74.7363,30,4,4.6,K12N 080054Z AUTO 03004KT 18/17 A3005 RMK AO1 SLP170 T01830167,2024-08-08T00:54:00Z,18.3,16.7,,30.05
TJNR,18.253,-65.638,90,5,5.75,TJNR 080053Z AUTO 09005KT 10SM FEW036 29/24 A2995 RMK AO2 SLP143 T02940244,2024-08-08T00:53:00Z,29.4,24.4,10+,29.95
TISX,17.6997,-64.8126,40,5,5.75,TISX 080053Z 04005KT 10SM CLR 28/24 A2994 RMK AO2 SLP138 T02780244 $,2024-08-08T00:53:00Z,27.8,24.4,10+,29.94
TIST,18.3362,-64.9799,80,6,6.9,TIST 080053Z 08006KT 10SM CLR 28/24 A2994 RMK AO2 SLP138 T02780244 $,2024-08-08T00:53:00Z,27.8,24.4,10+,29.94
PHTO,19.7191,-155.049,50,7,8.06,PHTO 080053Z 05007KT 10SM OVC046 29/22 A3003 RMK AO2 SLP168 T02890222,2024-08-08T00:53:00Z,28.9,22.2,10+,30.03
PHNL,21.3151,-157.924,60,14,16.11,PHNL 080053Z 06014G23KT 10SM FEW028 FEW045 31/18 A3003 RMK AO2 PK WND 02026/0010 SLP168 T03110178 $,2024-08-08T00:53:00Z,31.1,17.8,10+,30.03
PHLI,21.9805,-159.339,50,13,14.96,PHLI 080053Z 05013KT 10SM SCT040 29/21 A3008 RMK AO2 SLP183 T02890211,2024-08-08T00:53:00Z,28.9,21.1,10+,30.08
PHKO,19.7378,-156.048,220,10,11.51,PHKO 080053Z 22010KT 10SM SCT049 29/21 A2999 RMK AO2 SLP154 T02940211 $,2024-08-08T00:53:00Z,29.4,21.1,10+,29.99
PHJR,21.312,-158.07,40,10,11.51,PHJR 080053Z 04010G19KT 10SM CLR 32/18 A3003 RMK AO2 SLP176 T03170178,2024-08-08T00:53:00Z,31.7,17.8,10+,30.03
PAYA,59.512,-139.671,180,6,6.9,PAYA 080053Z AUTO 18006KT 10SM FEW031 SCT049 BKN060 21/14 A3021 RMK AO2 SLP230 T02060144 TSNO $,2024-08-08T00:53:00Z,20.6,14.4,10+,30.21
PAWD,60.129,-149.418,150,13,14.96,PAWD 080053Z AUTO 15013KT 10SM -RA BKN060 OVC080 12/11 A2999 RMK AO2 SLP155 P0004 T01170111 TSNO,2024-08-08T00:53:00Z,11.7,11.1,10+,29.99
PAVL,67.731,-164.548,310,9,10.36,PAVL 080053Z AUTO 31009KT 3SM RA BR FEW029 BKN044 OVC060 09/09 A2963 RMK AO2 RAB18 SLP035 T00890089 TSNO PNO $,2024-08-08T00:53:00Z,8.9,8.9,3,29.63
PATK,62.319,-150.097,10,3,3.45,PATK 080053Z 01003KT 8SM -RA FEW018 BKN040 OVC060 17/14 A2999 RMK AO2 SLP157 P0002 T01670139,2024-08-08T00:53:00Z,16.7,13.9,8,29.99
PASO,59.443,-151.702,10,3,3.45,PASO 080053Z AUTO 01003KT 6SM -RA OVC070 17/13 A2992 RMK AO2 SLP132 P0007 T01670128 TSNO $,2024-08-08T00:53:00Z,16.7,12.8,6,29.92
PASI,57.047,-135.364,230,6,6.9,PASI 080053Z 23006KT 10SM FEW001 17/13 A3021 RMK AO2 SLP228 T01670128,2024-08-08T00:53:00Z,16.7,12.8,10+,30.21
PASC,70.191,-148.48,260,6,6.9,PASC 080053Z 26006KT 10SM BKN095 BKN120 OVC150 23/13 A2971 RMK AO2 SLP059 T02330133 PNO $,2024-08-08T00:53:00Z,23.3,13.3,10+,29.71
PAQT,70.213,-150.994,230,10,11.51,PAQT 080053Z AUTO 23010KT 10SM BKN100 23/14 A2973 RMK AO2 SLP066 T02280144 TSNO $,2024-08-08T00:53:00Z,22.8,14.4,10+,29.73
PAOR,62.962,-141.938,140,3,3.45,PAOR 080053Z 14003KT 10SM CLR 27/08 A2992 RMK AO2 SLP125 T02720083 $,2024-08-08T00:53:00Z,27.2,8.3,10+,29.92
PAOM,64.5111,-165.44,210,6,6.9,PAOM 080053Z 21006KT 10SM BKN010 OVC018 09/07 A2968 RMK AO2 SLP051 T00940067 $,2024-08-08T00:53:00Z,9.4,6.7,10+,29.68
PANN,64.547,-149.087,150,7,8.06,PANN 080053Z AUTO 15007KT 10SM FEW075 24/10 A2982 RMK AO2 SLP101 T02390100 TSNO $,2024-08-08T00:53:00Z,23.9,10,10+,29.82
PANC,61.1691,-150.028,40,4,4.6,PANC 080053Z 04004KT 6SM -RA BR FEW008 BKN050 OVC090 16/14 A2995 RMK AO2 SLP143 P0012 T01610144,2024-08-08T00:53:00Z,16.1,14.4,6,29.95
PAMC,62.957,-155.61,250,6,6.9,PAMC 080053Z 25006KT 10SM BKN025 OVC045 17/13 A2984 RMK AO2 RAB01E34 SLP106 P0001 T01670128,2024-08-08T00:53:00Z,16.7,12.8,10+,29.84
PAKW,55.582,-133.075,200,8,9.21,PAKW 080053Z AUTO 20008KT 10SM CLR 19/12 A3019 RMK AO2 SLP222 T01890117 TSNO,2024-08-08T00:53:00Z,18.9,11.7,10+,30.19
PAKV,64.321,-158.732,VRB,4,4.6,PAKV 080053Z AUTO VRB04KT 10SM FEW040 BKN075 BKN110 17/M01 A2980 RMK AO2 SLP092 T01721011 TSNO $,2024-08-08T00:53:00Z,17.2,-1.1,10+,29.80
PAKT,55.3592,-131.722,320,10,11.51,PAKT 080053Z 32010KT 10SM CLR 23/12 A3016 RMK HARBOR WND 11004KT,2024-08-08T00:53:00Z,23,12,10+,30.16
PAJN,58.354,-134.556,240,8,9.21,PAJN 080053Z 24008KT 10SM CLR 24/13 A3016 RMK AO2 SLP214 T02440128,2024-08-08T00:53:00Z,24.4,12.8,10+,30.16
PAIL,59.7492,-154.909,120,15,17.26,PAIL 080053Z 12015G24KT 10SM OVC030 14/11 A2988 RMK AO2 PK WND 12027/0005 SLP117 T01390111,2024-08-08T00:53:00Z,13.9,11.1,10+,29.88
PAHO,59.642,-151.491,310,4,4.6,PAHO 080053Z 31004KT 7SM RA BKN075 OVC090 15/12 A2993 RMK AO2 SLP137 P0010 T01500122,2024-08-08T00:53:00Z,15,12.2,7,29.93
PAGY,59.457,-135.322,220,11,12.66,PAGY 080053Z AUTO 22011G22KT 10SM CLR 19/11 A3012 RMK AO2 SLP199 T01890111 TSNO,2024-08-08T00:53:00Z,18.9,11.1,10+,30.12
PAGK,62.1592,-145.459,170,17,19.56,PAGK 080053Z AUTO 17017G26KT 10SM CLR 22/10 A3000 RMK AO2 PK WND 16031/0000 SLP152 T02170100 TSNO,2024-08-08T00:53:00Z,21.7,10,10+,30.00
PAFA,64.8031,-147.876,40,3,3.45,PAFA 080053Z 04003KT 10SM FEW070 BKN130 BKN200 26/13 A2982 RMK AO2 SLP100 ACSL SE NW T02610128,2024-08-08T00:53:00Z,26.1,12.8,10+,29.82
PAEN,60.579,-151.242,10,7,8.06,PAEN 080053Z 01007KT 10SM -RA FEW039 SCT080 OVC110 14/14 A2995 RMK AO2 SLP143 P0000 T01440139,2024-08-08T00:53:00Z,14.4,13.9,10+,29.95
PAEG,64.7761,-141.164,130,10,11.51,PAEG 080053Z AUTO 13010G22KT 7SM CLR 31/07 A2984 RMK AO2 SLP103 T03060072 TSNO,2024-08-08T00:53:00Z,30.6,7.2,7,29.84
PADQ,57.7507,-152.488,330,5,5.75,PADQ 080053Z 33005KT 10SM BKN016 OVC031 16/12 A2989 RMK AO2 SLP121 T01560122,2024-08-08T00:53:00Z,15.6,12.2,10+,29.89
PADE,66.0695,-162.761,270,9,10.36,PADE 080053Z AUTO 27009KT 10SM CLR 17/12 A2964 RMK AO2 SLP036 T01720117 TSNO $,2024-08-08T00:53:00Z,17.2,11.7,10+,29.64
PACD,55.2207,-162.732,260,11,12.66,PACD 080053Z 26011KT 10SM BKN044 OVC050 12/07 A2985 RMK AO2 SLPNO T01170072 $,2024-08-08T00:53:00Z,11.7,7.2,10+,29.85
PABT,66.9176,-151.519,170,4,4.6,PABT 080053Z 17004KT 10SM FEW040 FEW060 SCT080 BKN130 21/13 A2984 RMK AO2 SLP111 T02110128 $,2024-08-08T00:53:00Z,21.1,12.8,10+,29.84
PABR,71.2837,-156.784,80,11,12.66,PABR 080053Z 08011G18KT 10SM BKN039 OVC070 17/13 A2968,2024-08-08T00:53:00Z,17,13,10+,29.68
PABI,63.9931,-145.721,180,25,28.77,PABI 080053Z 18025G47KT 10SM FEW070 SCT110 BKN140 BKN170 23/09 A2989 RMK AO2 PK WND 20051/0000 SLP115 VIRGA DSNT W-NW BLDU VC ALQDS ACSL ALQDS T02330089 $,2024-08-08T00:53:00Z,23.3,8.9,10+,29.89
PABE,60.785,-161.829,200,11,12.66,PABE 080053Z 20011KT 10SM FEW022 OVC080 14/10 A2976 RMK AO2 SLP078 T01390100,2024-08-08T00:53:00Z,13.9,10,10+,29.76
MMBT,15.775,-96.26,0,0,0.0,MMBT 080053Z 00000KT 8SM SCT150 30/25 A2977 RMK 8/050 HZY,2024-08-08T00:53:00Z,30,25,8,29.77
KZZV,39.9461,-81.8932,360,5,5.75,KZZV 080053Z AUTO 36005KT 10SM BKN023 24/19 A2988 RMK AO2 SLP110 T02390194,2024-08-08T00:53:00Z,23.9,19.4,10+,29.88
KYKM,46.564,-120.535,160,8,9.21,KYKM 080053Z 16008KT 10SM CLR 32/07 A2997 RMK AO2 SLP140 T03220067,2024-08-08T00:53:00Z,32.2,6.7,10+,29.97
KYIP,42.242,-83.5214,50,6,6.9,KYIP 080053Z 05006KT 10SM CLR 21/13 A2995 RMK AO2 SLP138 T02060128 $,2024-08-08T00:53:00Z,20.6,12.8,10+,29.95
KXNA,36.2897,-94.3115,70,6,6.9,KXNA 080053Z 07006KT 10SM CLR 31/16 A2987 RMK AO2 SLP098 T03110156,2024-08-08T00:53:00Z,31.1,15.6,10+,29.87
KWVI,36.9394,-121.79,230,7,8.06,KWVI 080053Z AUTO 23007KT 10SM CLR 22/13 A2996 RMK AO2 SLP144 T02220128,2024-08-08T00:53:00Z,22.2,12.8,10+,29.96
KWST,41.3509,-71.8055,0,0,0.0,KWST 080053Z AUTO 00000KT 10SM BKN042 18/16 A3006 RMK AO2 SLP179 T01830161,2024-08-08T00:53:00Z,18.3,16.1,10+,30.06
KWRL,43.9654,-107.95,340,15,17.26,KWRL 080053Z AUTO 34015G26KT 10SM CLR 22/11 A3014 RMK AO2 PK WND 34029/0020 SLP178 T02220111,2024-08-08T00:53:00Z,22.2,11.1,10+,30.14
KVUO,45.621,-122.654,320,8,9.21,KVUO 080053Z AUTO 32008G19KT 10SM CLR 31/14 A2996 RMK AO2 SLP146 T03060144,2024-08-08T00:53:00Z,30.6,14.4,10+,29.96
KVRB,27.6553,-80.4142,190,7,8.06,KVRB 080053Z 19007KT 10SM FEW085 29/25 A2973 RMK AO2 LTG DSNT SW SLP065 T02890250,2024-08-08T00:53:00Z,28.9,25,10+,29.73
KVLD,30.7763,-83.2739,0,0,0.0,KVLD 080053Z 00000KT 10SM CLR 28/26 A2965 RMK AO2 SLP047 T02830261 $,2024-08-08T00:53:00Z,28.3,26.1,10+,29.65
KVGT,36.2121,-115.194,120,15,17.26,KVGT 080053Z 12015G24KT 10SM CLR 41/16 A2980 RMK AO2 SLP072 T04060161,2024-08-08T00:53:00Z,40.6,16.1,10+,29.80
KVEL,40.4429,-109.513,180,8,9.21,KVEL 080053Z AUTO 18008KT 10SM CLR 31/09 A3007 RMK AO2 SLP104 T03110089,2024-08-08T00:53:00Z,31.1,8.9,10+,30.07
KVCB,38.3775,-121.959,190,9,10.36,KVCB 080053Z AUTO 19009G20KT 10SM CLR 34/12 A2982 RMK AO2 SLP096 T03390122,2024-08-08T00:53:00Z,33.9,12.2,10+,29.82
KUUU,41.5299,-71.2833,80,4,4.6,KUUU 080053Z AUTO 08004KT 10SM BKN050 17/14 A3007 RMK AO2 SLP179 T01720144,2024-08-08T00:53:00Z,17.2,14.4,10+,30.07
KUTS,30.7443,-95.5866,0,0,0.0,KUTS 080053Z AUTO 00000KT 10SM CLR 33/23 A2980 RMK AO2 SLP085 T03330233,2024-08-08T00:53:00Z,33.3,23.3,10+,29.80
KUNV,40.8534,-77.8401,30,6,6.9,KUNV 080053Z 03006KT 1 1/2SM BR OVC002 19/19 A2999,2024-08-08T00:53:00Z,19,19,1.5,29.99
KUNO,36.8791,-91.9052,0,0,0.0,KUNO 080053Z AUTO 00000KT 10SM CLR 23/17 A2993 RMK AO2 SLP124 T02280172,2024-08-08T00:53:00Z,22.8,17.2,10+,29.93
KUIL,47.937,-124.558,320,8,9.21,KUIL 080053Z AUTO 32008KT 10SM CLR 19/14 A3007 RMK AO2 SLP183 T01890139,2024-08-08T00:53:00Z,18.9,13.9,10+,30.07
KUAO,45.2466,-122.771,40,7,8.06,KUAO 080053Z 04007KT 10SM CLR 31/15 A2996 RMK AO2 SLP142 T03110150 $,2024-08-08T00:53:00Z,31.1,15,10+,29.96
KTYS,35.818,-83.9857,20,4,4.6,KTYS 080053Z 02004KT 10SM FEW050 29/22 A2974 RMK AO2 SLP056 OCNL LTG DSNT SE CB DSNT SE T02940217,2024-08-08T00:53:00Z,29.4,21.7,10+,29.74
KTYR,32.3587,-95.404,200,4,4.6,KTYR 080053Z AUTO 20004KT 10SM CLR 33/23 A2980 RMK AO2 SLP081 T03280228,2024-08-08T00:53:00Z,32.8,22.8,10+,29.80
KTXK,33.4561,-93.9878,170,3,3.45,KTXK 080053Z 17003KT 10SM CLR 35/23 A2977 RMK AO2 SLP073 T03500233,2024-08-08T00:53:00Z,35,23.3,10+,29.77
KTVR,32.3481,-91.0299,10,9,10.36,KTVR 080053Z AUTO 01009KT 10SM BKN070 32/25 A2976 RMK AO2 SLP082 T03220250,2024-08-08T00:53:00Z,32.2,25,10+,29.76
KTVL,38.8984,-119.996,,,,KTVL 080053Z AUTO 10SM CLR 28/04 A3026 RMK AO2 SLP188 T02780039,2024-08-08T00:53:00Z,27.8,3.9,10+,30.26
KTVC,44.739,-85.5694,320,3,3.45,KTVC 080053Z 32003KT 10SM FEW060 SCT150 BKN220 23/14 A2996 RMK SLP143 T02280139,2024-08-08T00:53:00Z,22.8,13.9,10+,29.96
KTUS,32.1315,-110.956,340,11,12.66,KTUS 080053Z 34011KT 10SM CLR 33/17 A2999 RMK AO2 LTG DSNT ALQDS SLP104 T03280172,2024-08-08T00:53:00Z,32.8,17.2,10+,29.99
KTUP,34.2622,-88.7713,350,9,10.36,KTUP 080053Z 35009KT 10SM CLR 26/19 A2979 RMK AO2 SLP083 T02610194 $,2024-08-08T00:53:00Z,26.1,19.4,10+,29.79
KTUL,36.1985,-95.8783,100,5,5.75,KTUL 080053Z 10005KT 10SM FEW250 32/18 A2980 RMK AO2 SLP083 T03220178,2024-08-08T00:53:00Z,32.2,17.8,10+,29.80
KTTD,45.551,-122.41,VRB,3,3.45,KTTD 080053Z AUTO VRB03KT 10SM CLR 32/16 A2994 RMK AO2 SLP136 T03170161,2024-08-08T00:53:00Z,31.7,16.1,10+,29.94
KTRL,32.7131,-96.2688,160,4,4.6,KTRL 080053Z AUTO 16004KT 10SM CLR 34/21 A2979 RMK AO2 SLP080 T03390211,2024-08-08T00:53:00Z,33.9,21.1,10+,29.79
KTRI,36.4797,-82.3989,0,0,0.0,KTRI 080053Z 00000KT 10SM SCT050 SCT065 SCT140 27/22 A2979 RMK AO2 LTG DSNT N SLP060 CB DSNT N T02670217,2024-08-08T00:53:00Z,26.7,21.7,10+,29.79
KTPA,27.9633,-82.54,260,7,8.06,KTPA 080053Z 26007KT 10SM FEW027 FEW110 BKN250 30/27 A2972 RMK AO2 SLP065 T03000267,2024-08-08T00:53:00Z,30,26.7,10+,29.72
KTOP,39.0724,-95.626,80,4,4.6,KTOP 080053Z AUTO 08004KT 10SM CLR 28/19 A2988 RMK AO2 SLP109 T02830189,2024-08-08T00:53:00Z,28.3,18.9,10+,29.88
KTOI,31.8574,-86.0103,0,0,0.0,KTOI 080053Z AUTO 00000KT 10SM FEW065 28/25 A2972 RMK AO2 SLP056 T02780250,2024-08-08T00:53:00Z,27.8,25,10+,29.72
KTMB,25.6423,-80.4347,230,5,5.75,KTMB 080053Z 23005KT 10SM OVC110 31/24 A2979 RMK AO2 SLP087 T03060244 $,2024-08-08T00:53:00Z,30.6,24.4,10+,29.79
KTLH,30.3935,-84.3513,280,5,5.75,KTLH 080053Z 28005KT 10SM SCT050 31/23 A2967 RMK AO2 SLP046 T03060228 $,2024-08-08T00:53:00Z,30.6,22.8,10+,29.67
KTKI,33.1828,-96.5899,160,5,5.75,KTKI 080053Z 16005KT 10SM CLR 36/19 A2978 RMK AO2 SLP076 T03610194,2024-08-08T00:53:00Z,36.1,19.4,10+,29.78
KTIW,47.2674,-122.576,VRB,5,5.75,KTIW 080053Z VRB05KT 10SM CLR 24/14 A3005 RMK AO2 SLP172 T02440139,2024-08-08T00:53:00Z,24.4,13.9,10+,30.05
KTHV,39.9194,-76.8768,80,9,10.36,KTHV 080053Z AUTO 08009KT 5SM BR OVC007 21/20 A2996 RMK AO2 SLP144 T02110200,2024-08-08T00:53:00Z,21.1,20,5,29.96
KTDZ,41.5633,-83.4767,60,5,5.75,KTDZ 080053Z AUTO 06005KT 10SM CLR 23/15 A2994 RMK AO2 SLP132 T02280150,2024-08-08T00:53:00Z,22.8,15,10+,29.94
KTCS,33.2369,-107.268,200,13,14.96,KTCS 080053Z AUTO 20013KT 10SM CLR 33/10 A3001 RMK AO2 SLP064 T03330100,2024-08-08T00:53:00Z,33.3,10,10+,30.01
KTCL,33.2122,-87.6155,310,5,5.75,KTCL 080053Z 31005KT 7SM FEW080 31/25 A2972 RMK AO2 SLP061 T03110250,2024-08-08T00:53:00Z,31.1,25,7,29.72
KTCC,35.1805,-103.601,180,12,13.81,KTCC 080053Z AUTO 18012KT 10SM CLR 35/05 A2990 RMK AO2 SLP051 T03500050,2024-08-08T00:53:00Z,35,5,10+,29.90
KSWO,36.1624,-97.0832,170,9,10.36,KSWO 080053Z 17009KT 10SM CLR 36/19 A2980 RMK AO2 SLP076 T03560194,2024-08-08T00:53:00Z,35.6,19.4,10+,29.80
KSTS,38.5037,-122.811,160,11,12.66,KSTS 080053Z 16011KT 10SM CLR 23/12 A2989 RMK AO2 SLP117 T02330117,2024-08-08T00:53:00Z,23.3,11.7,10+,29.89
KSTP,44.9324,-93.0559,300,5,5.75,KSTP 080053Z 30005KT 10SM BKN041 OVC070 22/15 A2995 RMK AO2 SLP136 T02170150,2024-08-08T00:53:00Z,21.7,15,10+,29.95
KSTJ,39.7683,-94.9095,110,4,4.6,KSTJ 080053Z 11004KT 10SM CLR 27/18 A2990 RMK AO2 SLP118 T02720183,2024-08-08T00:53:00Z,27.2,18.3,10+,29.90
KSTC,45.5442,-94.0517,110,3,3.45,KSTC 080053Z 11003KT 10SM OVC060 18/16 A2993 RMK AO2 RAE32 SLP141 P0006 T01780161,2024-08-08T00:53:00Z,17.8,16.1,10+,29.93
KSSF,29.339,-98.472,130,12,13.81,KSSF 080053Z 13012KT 10SM CLR 36/20 A2974 RMK AO2 SLP056 T03610200 $,2024-08-08T00:53:00Z,36.1,20,10+,29.74
KSRQ,27.4015,-82.5596,260,10,11.51,KSRQ 080053Z 26010KT 10SM CLR 29/27 A2974 RMK AO2 SLP069 T02940267,2024-08-08T00:53:00Z,29.4,26.7,10+,29.74
KSPW,43.1682,-95.2101,180,5,5.75,KSPW 080053Z AUTO 18005KT 10SM SCT039 26/18 A2992 RMK AO2 SLP125 T02560178,2024-08-08T00:53:00Z,25.6,17.8,10+,29.92
KSPG,27.7685,-82.6257,250,8,9.21,KSPG 080053Z 25008KT 10SM SCT023 31/27 A2971 RMK AO2 SLP060 T03110267 $,2024-08-08T00:53:00Z,31.1,26.7,10+,29.71
KSPB,45.7691,-122.864,330,9,10.36,KSPB 080053Z AUTO 33009G19KT 10SM CLR A2995 RMK AO2 SLPNO,2024-08-08T00:53:00Z,,,10+,29.95
KSNY,41.0993,-102.986,210,13,14.96,KSNY 080053Z AUTO 21013KT 10SM -RA FEW050 BKN110 22/17 A3003 RMK AO2 WSHFT 0035 LTG DSNT NW-NE SLP123 P0000 T02220167,2024-08-08T00:53:00Z,22.2,16.7,10+,30.03
KSNA,33.6798,-117.867,190,11,12.66,KSNA 080053Z 19011G20KT 10SM FEW009 SCT080 23/17 A2994 RMK AO2 SLP137 T02280172 $,2024-08-08T00:53:00Z,22.8,17.2,10+,29.94
KSMF,38.7007,-121.595,180,13,14.96,KSMF 080053Z 18013KT 10SM CLR 37/09 A2980 RMK AO2 SLP090 T03720089,2024-08-08T00:53:00Z,37.2,8.9,10+,29.80
KSLN,38.78,-97.6446,90,9,10.36,KSLN 080053Z 09009KT 10SM CLR 32/17 A2985 RMK AO2 SLP093 T03220172,2024-08-08T00:53:00Z,32.2,17.2,10+,29.85
KSJC,37.3594,-121.924,320,11,12.66,KSJC 080053Z 32011KT 10SM FEW060 FEW100 28/13 A2989 RMK AO2 SLP121 T02780128,2024-08-08T00:53:00Z,27.8,12.8,10+,29.89
KSIY,41.7737,-122.468,240,3,3.45,KSIY 080053Z AUTO 24003KT 10SM CLR 36/M01 A2994 RMK AO2 SLP121 T03611006,2024-08-08T00:53:00Z,36.1,-0.6,10+,29.94
KSHN,47.2384,-123.142,150,7,8.06,KSHN 080053Z AUTO 15007KT 10SM CLR 27/14 A3001 RMK AO2 SLP161 T02720144,2024-08-08T00:53:00Z,27.2,14.4,10+,30.01
KSGR,29.6197,-95.6575,0,0,0.0,KSGR 080053Z 00000KT 10SM CLR 32/25 A2977 RMK AO2 SLP080 T03170250,2024-08-08T00:53:00Z,31.7,25,10+,29.77
KSFF,47.6857,-117.321,VRB,3,3.45,KSFF 080053Z VRB03KT 10SM CLR 31/05 A3003 RMK AO2 SLP152 T03110050,2024-08-08T00:53:00Z,31.1,5,10+,30.03
KSFB,28.7795,-81.2436,270,11,12.66,KSFB 080053Z 27011KT 10SM CLR 30/23 A2968 RMK AO2 SLP049 T03000228,2024-08-08T00:53:00Z,30,22.8,10+,29.68
KSEG,40.8193,-76.8658,90,4,4.6,KSEG 080053Z AUTO 09004KT 10SM OVC017 20/18 A2999 RMK AO2 SLP153 T02000178,2024-08-08T00:53:00Z,20,17.8,10+,29.99
KSEA,47.4447,-122.314,340,11,12.66,KSEA 080053Z 34011KT 10SM CLR 26/12 A3005 RMK AO2 SLP180 T02610122,2024-08-08T00:53:00Z,26.1,12.2,10+,30.05
KSDM,32.5758,-116.994,320,4,4.6,KSDM 080053Z 32004KT 9SM CLR 24/18 A2994 RMK AO2 SLP135 T02390178,2024-08-08T00:53:00Z,23.9,17.8,9,29.94
KSDL,33.6124,-111.923,VRB,5,5.75,KSDL 080053Z VRB05KT 10SM CLR 37/17 A2987 RMK AO2 SLP085 T03720167,2024-08-08T00:53:00Z,37.2,16.7,10+,29.87
KSBM,43.7748,-87.849,0,0,0.0,KSBM 080053Z AUTO 00000KT 10SM CLR 20/14 A2997 RMK AO2 SLP146 T02000144,2024-08-08T00:53:00Z,20,14.4,10+,29.97
KSBD,34.09,-117.247,270,10,11.51,KSBD 080053Z 27010G15KT 7SM SCT120 34/07 A2993,2024-08-08T00:53:00Z,34,7,7,29.93
KSBA,34.4241,-119.842,260,6,6.9,KSBA 080053Z 26006KT 6SM HZ CLR 21/18 A2993 RMK AO2 SLP135 T02110178,2024-08-08T00:53:00Z,21.1,17.8,6,29.93
KSAV,32.1313,-81.2023,300,8,9.21,KSAV 080053Z 30008KT 10SM SCT037 BKN049 OVC070 26/23 A2956 RMK AO2 RAE21B37E48 SLP009 P0006 T02560233 $,2024-08-08T00:53:00Z,25.6,23.3,10+,29.56
KSAF,35.611,-106.096,290,8,9.21,KSAF 080053Z AUTO 29008KT 10SM CLR 31/07 A3011 RMK AO2 LTG DSNT W-NE SLP079 T03060067,2024-08-08T00:53:00Z,30.6,6.7,10+,30.11
KSAC,38.5066,-121.496,200,8,9.21,KSAC 080053Z 20008G18KT 10SM CLR 34/12 A2981 RMK AO2 SLP095 T03390117,2024-08-08T00:53:00Z,33.9,11.7,10+,29.81
KRXE,43.8321,-111.808,190,9,10.36,KRXE 080053Z AUTO 19009KT 9SM CLR 29/06 A3001 RMK AO2 SLP119 T02890056,2024-08-08T00:53:00Z,28.9,5.6,9,30.01
KRWL,41.8065,-107.195,10,14,16.11,KRWL 080053Z AUTO 01014KT 10SM CLR 29/04 A3017 RMK AO2 WSHFT 2340 SLP107 T02890044,2024-08-08T00:53:00Z,28.9,4.4,10+,30.17
KRWI,35.8502,-77.8951,70,5,5.75,KRWI 080053Z AUTO 07005KT 10SM -RA SCT009 SCT023 BKN110 24/23 A2978 RMK AO2 RAB2354E23B26 SLP082 P0002 T02440228,2024-08-08T00:53:00Z,24.4,22.8,10+,29.78
KRWF,44.5483,-95.0804,120,5,5.75,KRWF 080053Z AUTO 12005KT 10SM OVC030 20/19 A2991 RMK AO2 SLP127 T02000189,2024-08-08T00:53:00Z,20,18.9,10+,29.91
KRVS,36.0424,-95.9902,70,5,5.75,KRVS 080053Z 07005KT 10SM CLR 34/15 A2979 RMK AO2 SLP091 T03390150,2024-08-08T00:53:00Z,33.9,15,10+,29.79
KRUE,35.2573,-93.095,VRB,4,4.6,KRUE 080053Z AUTO VRB04KT 10SM CLR 29/19 A2982 RMK AO2 SLP090 T02890189 $,2024-08-08T00:53:00Z,28.9,18.9,10+,29.82
KRTN,36.7418,-104.508,360,20,23.02,KRTN 080053Z AUTO 36020KT 10SM -RA FEW060 BKN090 OVC110 21/13 A3015 RMK AO2 PRESFR SLP129 P0001 T02060133,2024-08-08T00:53:00Z,20.6,13.3,10+,30.15
KRSW,26.538,-81.7567,220,5,5.75,KRSW 080053Z 22005KT 10SM CLR 29/25 A2977 RMK AO2 SLP077 T02890250,2024-08-08T00:53:00Z,28.9,25,10+,29.77
KRSL,38.8725,-98.8093,90,8,9.21,KRSL 080053Z AUTO 09008KT 10SM CLR 33/17 A2984 RMK AO2 SLP085 T03280167,2024-08-08T00:53:00Z,32.8,16.7,10+,29.84
KRQE,35.6571,-109.06,360,6,6.9,KRQE 080053Z AUTO 36006KT 10SM CLR 28/08 A3021 RMK AO2 SLP112 T02830078,2024-08-08T00:53:00Z,28.3,7.8,10+,30.21
KRNT,47.4951,-122.214,340,10,11.51,KRNT 080053Z 34010KT 10SM CLR 27/14 A3002 RMK AO2 SLP172 T02670144,2024-08-08T00:53:00Z,26.7,14.4,10+,30.02
KRNM,33.038,-116.916,270,7,8.06,KRNM 080053Z 27007KT 10SM CLR 29/15 A2997 RMK AO2 SLP133 T02940150,2024-08-08T00:53:00Z,29.4,15,10+,29.97
KRMG,34.3483,-85.1616,360,3,3.45,KRMG 080053Z AUTO 36003KT 10SM CLR 30/22 A2971 RMK AO2 SLP050 T03000217,2024-08-08T00:53:00Z,30,21.7,10+,29.71
KRME,43.2242,-75.3956,70,5,5.75,KRME 080053Z 07005KT 10SM CLR 20/14 A3003 RMK AO2 SLP166 T02000144,2024-08-08T00:53:00Z,20,14.4,10+,30.03
KRKP,28.0837,-97.0467,150,7,8.06,KRKP 080053Z AUTO 15007KT 8SM CLR 31/25 A2977 RMK AO2 SLP083 T03110250,2024-08-08T00:53:00Z,31.1,25,8,29.77
KRIW,43.0622,-108.447,20,19,21.86,KRIW 080053Z AUTO 02019G29KT 10SM CLR 24/11 A3013 RMK AO2 PK WND 02031/0042 SLP138 T02440106,2024-08-08T00:53:00Z,24.4,10.6,10+,30.13
KRHI,45.6315,-89.4822,0,0,0.0,KRHI 080053Z AUTO 00000KT 10SM SCT120 19/16 A2997 RMK AO2 RAB01E33 SLP147 P0000 T01890161,2024-08-08T00:53:00Z,18.9,16.1,10+,29.97
KRDD,40.5146,-122.298,160,8,9.21,KRDD 080053Z 16008KT 10SM CLR 40/M01 A2979 RMK AO2 SLP081 T04001011,2024-08-08T00:53:00Z,40,-1.1,10+,29.79
KRBG,43.2337,-123.358,10,10,11.51,KRBG 080053Z AUTO 01010G18KT 10SM CLR 33/11 A2992 RMK AO2 SLP127 T03330106,2024-08-08T00:53:00Z,33.3,10.6,10+,29.92
KRBD,32.6782,-96.8677,150,7,8.06,KRBD 080053Z 15007KT 10SM CLR 35/19 A2979 RMK AO2 SLP077 T03500189,2024-08-08T00:53:00Z,35,18.9,10+,29.79
KRAL,33.9528,-117.435,280,11,12.66,KRAL 080053Z 28011G20KT 10SM CLR 31/14 A2991 RMK AO2 SLP112 T03110144,2024-08-08T00:53:00Z,31.1,14.4,10+,29.91
KRAC,42.7586,-87.8178,40,4,4.6,KRAC 080053Z AUTO 04004KT 10SM CLR 20/14 A2998 RMK AO2 SLP147 T02000144,2024-08-08T00:53:00Z,20,14.4,10+,29.98
KPWA,35.5411,-97.6472,140,12,13.81,KPWA 080053Z 14012KT 10SM CLR 37/20 A2980 RMK AO2 SLP072 T03670200,2024-08-08T00:53:00Z,36.7,20,10+,29.80
KPUW,46.7438,-117.116,VRB,3,3.45,KPUW 080053Z AUTO VRB03KT 9SM CLR 29/03 A3006 RMK AO2 SLP166 T02940033,2024-08-08T00:53:00Z,29.4,3.3,9,30.06
KPUC,39.6089,-110.755,330,15,17.26,KPUC 080053Z AUTO 33015G24KT 10SM CLR 34/02 A3009 RMK AO2 PK WND 30027/0033 LTG DSNT S SLP073 T03440017,2024-08-08T00:53:00Z,34.4,1.7,10+,30.09
KPUB,38.2887,-104.506,210,3,3.45,KPUB 080053Z 21003KT 10SM BKN120 28/13 A3005 RMK AO2 SLP106 T02830128,2024-08-08T00:53:00Z,28.3,12.8,10+,30.05
KPTK,42.6632,-83.41,50,6,6.9,KPTK 080053Z 05006KT 10SM FEW250 21/13 A2996 RMK AO2 SLP142 T02060128,2024-08-08T00:53:00Z,20.6,12.8,10+,29.96
KPSX,28.7248,-96.2535,170,6,6.9,KPSX 080053Z AUTO 17006KT 10SM CLR 31/26 A2978 RMK AO2 SLP085 T03110256,2024-08-08T00:53:00Z,31.1,25.6,10+,29.78
KPSC,46.2695,-119.118,10,9,10.36,KPSC 080053Z 01009KT 10SM CLR 36/09 A2993 RMK AO2 SLP131 T03560094,2024-08-08T00:53:00Z,35.6,9.4,10+,29.93
KPRB,35.6693,-120.629,200,16,18.41,KPRB 080053Z AUTO 20016G23KT 10SM CLR 29/12 A2990 RMK AO2 PK WND 20026/0011 SLP118 T02940122,2024-08-08T00:53:00Z,29.4,12.2,10+,29.90
KPQL,30.4631,-88.5316,0,0,0.0,KPQL 080053Z AUTO 00000KT 10SM CLR 28/26 A2973 RMK AO2 SLP068 T02830256,2024-08-08T00:53:00Z,28.3,25.6,10+,29.73
KPOU,41.6257,-73.8816,0,0,0.0,KPOU 080053Z 00000KT 10SM BKN090 OVC110 20/17 A3004 RMK AO2 SLP169 T02000167,2024-08-08T00:53:00Z,20,16.7,10+,30.04
KPOF,36.7697,-90.3224,330,5,5.75,KPOF 080053Z AUTO 33005KT 10SM FEW030 23/19 A2986 RMK AO2 SLP107 T02330189,2024-08-08T00:53:00Z,23.3,18.9,10+,29.86
KPNS,30.478,-87.1869,330,5,5.75,KPNS 080053Z AUTO 33005KT 10SM CLR 31/21 A2971 RMK AO2 SLP060 T03060206,2024-08-08T00:53:00Z,30.6,20.6,10+,29.71
KPNC,36.7369,-97.1024,120,8,9.21,KPNC 080053Z AUTO 12008KT 10SM CLR 34/18 A2979 RMK AO2 SLP075 T03390183,2024-08-08T00:53:00Z,33.9,18.3,10+,29.79
KPMP,26.2464,-80.111,160,5,5.75,KPMP 080053Z AUTO 16005KT 10SM -RA FEW048 BKN080 OVC095 27/24 A2978 RMK AO2 RAB40 SLP085 P0000 T02720239,2024-08-08T00:53:00Z,27.2,23.9,10+,29.78
KPMD,34.6295,-118.083,230,21,24.17,KPMD 080053Z 23021G28KT 10SM CLR 35/03 A2994 RMK AO2 PK WND 22028/0011 SLP104 T03500028,2024-08-08T00:53:00Z,35,2.8,10+,29.94
KPKB,39.3395,-81.4438,30,7,8.06,KPKB 080053Z 03007KT 10SM FEW029 FEW038 27/21 A2983 RMK AO2 SLP092 T02670206,2024-08-08T00:53:00Z,26.7,20.6,10+,29.83
KPIR,44.3819,-100.286,10,16,18.41,KPIR 080053Z AUTO 01016KT 10SM BKN100 OVC120 22/14 A3004 RMK AO2 SLP164 T02170144,2024-08-08T00:53:00Z,21.7,14.4,10+,30.04
KPIL,26.1597,-97.3378,150,11,12.66,KPIL 080053Z AUTO 15011KT 10SM CLR 31/24 A2979 RMK AO2 SLP086 T03060244,2024-08-08T00:53:00Z,30.6,24.4,10+,29.79
KPIH,42.9197,-112.572,240,15,17.26,KPIH 080053Z 24015KT 10SM CLR 30/03 A3005 RMK AO2 SLP131 T03000028,2024-08-08T00:53:00Z,30,2.8,10+,30.05
KPIE,27.9126,-82.6855,260,9,10.36,KPIE 080053Z 26009KT 10SM CLR 31/27 A2972 RMK AO2 SLP065 T03060267,2024-08-08T00:53:00Z,30.6,26.7,10+,29.72
KPGD,26.9185,-81.9939,290,5,5.75,KPGD 080053Z AUTO 29005KT 10SM CLR 30/26 A2976 RMK AO2 SLP077 T03000256,2024-08-08T00:53:00Z,30,25.6,10+,29.76
KPGA,36.9211,-111.449,210,11,12.66,KPGA 080053Z AUTO 21011G19KT 10SM CLR 34/09 A2998 RMK AO2 LTG DSNT SW SLP074 T03440094,2024-08-08T00:53:00Z,34.4,9.4,10+,29.98
KPEO,42.6441,-77.0528,0,0,0.0,KPEO 080053Z AUTO 00000KT 10SM OVC047 21/16 A3002 RMK AO2 RAB02E14 SLP161 P0000 T02110161,2024-08-08T00:53:00Z,21.1,16.1,10+,30.02
KPDX,45.5958,-122.609,340,5,5.75,KPDX 080053Z 34005G14KT 10SM BKN030 31/15 A2995 RMK AO2 SLP141 FU BKN030 T03060150,2024-08-08T00:53:00Z,30.6,15,10+,29.95
KPDT,45.6975,-118.834,360,11,12.66,KPDT 080053Z 36011KT 10SM CLR 33/07 A2998 RMK AO2 SLP136 T03280072,2024-08-08T00:53:00Z,32.8,7.2,10+,29.98
KPDK,33.8783,-84.298,340,7,8.06,KPDK 080053Z 34007KT 10SM CLR 30/21 A2972 RMK AO2 SLP042 T03000206,2024-08-08T00:53:00Z,30,20.6,10+,29.72
KPBI,26.6851,-80.0992,170,8,9.21,KPBI 080053Z 17008KT 10SM FEW030 FEW110 BKN250 28/25 A2977 RMK AO2 SLP079 FRQ LTGIC DSNT SE CB DSNT SE T02780250 $,2024-08-08T00:53:00Z,27.8,25,10+,29.77
KPBG,44.6392,-73.4631,0,0,0.0,KPBG 080053Z AUTO 00000KT 10SM CLR 19/13 A3005 RMK AO2 SLP174 T01890133,2024-08-08T00:53:00Z,18.9,13.3,10+,30.05
KPBF,34.1798,-91.9344,30,7,8.06,KPBF 080053Z AUTO 03007KT 10SM CLR 27/ A2983 RMK AO2 SLP099 T0272 $,2024-08-08T00:53:00Z,27.2,,10+,29.83
KPAE,47.9232,-122.283,330,6,6.9,KPAE 080053Z 33006KT 10SM CLR 24/14 A3007 RMK AO2 SLP180 T02440139,2024-08-08T00:53:00Z,24.4,13.9,10+,30.07
KP68,39.602,-116.006,360,8,9.21,KP68 080053Z AUTO 36008KT 32/00 A3013 RMK AO1 SLP110 T03220000,2024-08-08T00:53:00Z,32.2,0,,30.13
KOXB,38.3091,-75.1234,130,4,4.6,KOXB 080053Z AUTO 13004KT 10SM CLR 22/21 A2992 RMK AO2 SLP131 T02170206 PWINO $,2024-08-08T00:53:00Z,21.7,20.6,10+,29.92
KOWD,42.1912,-71.1732,0,0,0.0,KOWD 080053Z 00000KT 10SM CLR 19/16 A3007 RMK AO2 SLP183 T01940161 $,2024-08-08T00:53:00Z,19.4,16.1,10+,30.07
KOVS,43.1561,-90.6775,0,0,0.0,KOVS 080053Z AUTO 00000KT 10SM CLR 22/18 A2995 RMK AO2 SLP142 T02220178,2024-08-08T00:53:00Z,22.2,17.8,10+,29.95
KOVE,39.4943,-121.622,180,9,10.36,KOVE 080053Z AUTO 18009KT 10SM CLR 39/08 A2982 RMK AO2 SLP096 T03890083,2024-08-08T00:53:00Z,38.9,8.3,10+,29.82
KOTM,41.1008,-92.4445,80,5,5.75,KOTM 080053Z AUTO 08005KT 10SM CLR 24/17 A2992 RMK AO2 SLP127 T02390167,2024-08-08T00:53:00Z,23.9,16.7,10+,29.92
KOSU,40.0784,-83.0782,40,6,6.9,KOSU 080053Z 04006KT 10SM CLR 24/18 A2988 RMK AO2 SLP112 T02390183,2024-08-08T00:53:00Z,23.9,18.3,10+,29.88
KOSH,43.9669,-88.5582,140,5,5.75,KOSH 080053Z 14005KT 10SM CLR 22/14 A2996 RMK AO2 SLP134 T02170139,2024-08-08T00:53:00Z,21.7,13.9,10+,29.96
KORL,28.5465,-81.3354,260,9,10.36,KORL 080053Z 26009KT 10SM CLR 31/22 A2970 RMK AO1 SLP059 T03110217,2024-08-08T00:53:00Z,31.1,21.7,10+,29.70
KOQT,36.023,-84.2336,0,0,0.0,KOQT 080053Z AUTO 00000KT 10SM CLR 29/22 A2977 RMK AO2 SLP061 T02940222,2024-08-08T00:53:00Z,29.4,22.2,10+,29.77
KOPF,25.9102,-80.2828,240,11,12.66,KOPF 080053Z 24011KT 10SM BKN110 31/24 A2979 RMK AO2 SLP087 T03060239,2024-08-08T00:53:00Z,30.6,23.9,10+,29.79
KONT,34.0531,-117.577,240,12,13.81,KONT 080053Z 24012KT 10SM FEW170 FEW220 SCT260 30/15 A2993 RMK AO2 SLP116 T03000150,2024-08-08T00:53:00Z,30,15,10+,29.93
KONO,44.0143,-117.008,190,3,3.45,KONO 080053Z AUTO 19003KT 9SM CLR 34/04 A2995 RMK AO2 SLP122 T03440039,2024-08-08T00:53:00Z,34.4,3.9,9,29.95
KOMK,48.4611,-119.521,350,10,11.51,KOMK 080053Z AUTO 35010KT 10SM CLR 34/05 A2998 RMK AO2 SLP142 T03440050,2024-08-08T00:53:00Z,34.4,5,10+,29.98
KOLF,48.0942,-105.578,10,10,11.51,KOLF 080053Z AUTO 01010KT 7SM FEW065 21/06 A3020 RMK AO2 SLP223 T02060056,2024-08-08T00:53:00Z,20.6,5.6,7,30.20
KOJC,38.85,-94.7395,70,7,8.06,KOJC 080053Z 07007KT 10SM CLR 27/17 A2990 RMK AO2 SLP113 T02670172 $,2024-08-08T00:53:00Z,26.7,17.2,10+,29.90
KOGD,41.1941,-112.017,0,0,0.0,KOGD 080053Z 00000KT 10SM CLR 37/M02 A3000 RMK AO2 SLP082 T03671022,2024-08-08T00:53:00Z,36.7,-2.2,10+,30.00
KODO,31.925,-102.387,160,4,4.6,KODO 080053Z AUTO 16004KT 10SM CLR 37/08 A2990 RMK AO2 SLP069 T03720083 $,2024-08-08T00:53:00Z,37.2,8.3,10+,29.90
KOAK,37.7178,-122.233,310,19,21.86,KOAK 080053Z 31019G32KT 10SM FEW011 FEW160 18/14 A2991 RMK AO2 PK WND 31032/0052 SLP129 T01830144,2024-08-08T00:53:00Z,18.3,14.4,10+,29.91
KNUW,48.355,-122.664,260,6,6.9,KNUW 080053Z AUTO 26006KT 10SM SCT250 16/12 A3007 RMK AO2 SLP185 T01560122,2024-08-08T00:53:00Z,15.6,12.2,10+,30.07
KNUI,38.152,-76.432,130,4,4.6,KNUI 080053Z AUTO 13004KT 10SM BKN015 BKN055 OVC120 25/24 A2987 RMK AO2 RAB32E41 SLP115 P0000 T02500239,2024-08-08T00:53:00Z,25,23.9,10+,29.87
KNRS,32.563,-117.111,240,8,9.21,KNRS 080053Z 24008KT 10SM SCT007 BKN130 BKN200 23/19 A2995 RMK AO2 SLP141 T02330189 $,2024-08-08T00:53:00Z,23.3,18.9,10+,29.95
KNQX,24.5801,-81.6829,250,7,8.06,KNQX 080053Z 25007KT 10SM SCT030 SCT250 31/27 A2981 RMK AO2 SLP094 T03110272 $,2024-08-08T00:53:00Z,31.1,27.2,10+,29.81
KNIP,30.2346,-81.6746,270,8,9.21,KNIP 080053Z 27008KT 10SM FEW045 SCT065 BKN080 BKN250 29/25 A2963 RMK AO2 RAE05 SLP029 P0000 T02940250 $,2024-08-08T00:53:00Z,29.4,25,10+,29.63
KNEW,30.0494,-90.029,280,10,11.51,KNEW 080053Z 28010KT 10SM CLR 34/24 A2976 RMK AO2 SLP070 T03440239,2024-08-08T00:53:00Z,34.4,23.9,10+,29.76
KMYV,39.102,-121.569,180,9,10.36,KMYV 080053Z AUTO 18009KT 10SM CLR 39/11 A2979 RMK AO2 SLP092 T03890106,2024-08-08T00:53:00Z,38.9,10.6,10+,29.79
KMYF,32.8145,-117.137,210,7,8.06,KMYF 080053Z 21007KT 10SM CLR 24/17 A2995 RMK AO2 SLP137 T02390167,2024-08-08T00:53:00Z,23.9,16.7,10+,29.95
KMWN,44.271,-71.304,20,2,2.3,KMWN 080053Z 02002KT 70SM FEW005 FEW015 08/06 RMK,2024-08-08T00:53:00Z,8,6,70,
KMWL,32.7816,-98.0602,150,5,5.75,KMWL 080053Z AUTO 15005KT 10SM CLR 34/17 A2980 RMK AO2 SLP075 T03440167,2024-08-08T00:53:00Z,34.4,16.7,10+,29.80
KMVY,41.393,-70.6159,60,5,5.75,KMVY 080053Z 06005KT 10SM BKN019 OVC024 19/15 A3006 RMK AO2 SLP179 T01890150,2024-08-08T00:53:00Z,18.9,15,10+,30.06
KMTO,39.4744,-88.2724,10,6,6.9,KMTO 080053Z AUTO 01006KT 10SM OVC048 23/21 A2988 RMK AO2 SLP113 T02280211,2024-08-08T00:53:00Z,22.8,21.1,10+,29.88
KMTH,24.7262,-81.0477,230,5,5.75,KMTH 080053Z AUTO 23005KT 10SM SCT025 BKN032 30/26 A2981 RMK AO2 SLP095 T03000256,2024-08-08T00:53:00Z,30,25.6,10+,29.81
KMSY,29.9974,-90.2777,240,5,5.75,KMSY 080053Z 24005KT 10SM FEW060 31/23 A2976 RMK AO2 SLP080 T03110228,2024-08-08T00:53:00Z,31.1,22.8,10+,29.76
KMSS,44.9334,-74.8484,0,0,0.0,KMSS 080053Z AUTO 00000KT 10SM CLR 16/14 A3005 RMK AO2 SLP176 T01610144,2024-08-08T00:53:00Z,16.1,14.4,10+,30.05
KMSP,44.8852,-93.2313,350,4,4.6,KMSP 080053Z 35004KT 10SM FEW039 OVC070 22/14 A2994 RMK AO2 SLP136 VIRGA T02170144,2024-08-08T00:53:00Z,21.7,14.4,10+,29.94
KMSO,46.9208,-114.094,VRB,5,5.75,KMSO 080053Z VRB05KT 10SM SCT100 22/14 A3012 RMK AO2 RAB2356E15 SLP188 P0002 T02170139,2024-08-08T00:53:00Z,21.7,13.9,10+,30.12
KMSN,43.1407,-89.3452,0,0,0.0,KMSN 080053Z 00000KT 10SM SCT190 21/14 A2996 RMK AO2 SLP143 T02060139,2024-08-08T00:53:00Z,20.6,13.9,10+,29.96
KMSL,34.7439,-87.5997,320,5,5.75,KMSL 080053Z AUTO 32005KT 10SM BKN037 27/21 A2978 RMK AO2 SLP077 T02670211,2024-08-08T00:53:00Z,26.7,21.1,10+,29.78
KMRB,39.4037,-77.975,30,6,6.9,KMRB 080053Z 03006KT 7SM -RA BKN021 OVC038 23/23 A2989 RMK AO2 LTG DSNT SE AND S RAB04 SLP118 P0016 T02330228,2024-08-08T00:53:00Z,23.3,22.8,7,29.89
KMOD,37.6254,-120.955,320,12,13.81,KMOD 080053Z 32012KT 10SM CLR 38/09 A2980 RMK AO2 SLP091 T03830089,2024-08-08T00:53:00Z,38.3,8.9,10+,29.80
KMMV,45.1957,-123.134,350,12,13.81,KMMV 080053Z AUTO 35012KT 10SM CLR 32/14 A2994 RMK AO2 SLP138 T03170139,2024-08-08T00:53:00Z,31.7,13.9,10+,29.94
KMLU,32.5155,-92.03,40,7,8.06,KMLU 080053Z 04007KT 10SM FEW075 33/25 A2977 RMK AO2 SLP079 T03280250,2024-08-08T00:53:00Z,32.8,25,10+,29.77
KMLT,45.6478,-68.6925,0,0,0.0,KMLT 080053Z AUTO 00000KT 10SM CLR 18/12 A3005 RMK AO2 SLP179 T01780117,2024-08-08T00:53:00Z,17.8,11.7,10+,30.05
KMLS,46.4265,-105.883,50,10,11.51,KMLS 080053Z AUTO 05010KT 10SM OVC041 18/09 A3022 RMK AO2 SLP224 T01780089,2024-08-08T00:53:00Z,17.8,8.9,10+,30.22
KMLP,47.4548,-115.671,,,,KMLP 080053Z AUTO 10SM CLR 19/06 A3026 RMK AO2 SLP152 T01890061 $,2024-08-08T00:53:00Z,18.9,6.1,10+,30.26
KMLC,34.8824,-95.7815,0,0,0.0,KMLC 080053Z AUTO 00000KT 10SM CLR 33/18 A2980 RMK AO2 SLP081 T03280183,2024-08-08T00:53:00Z,32.8,18.3,10+,29.80
KMLB,28.0997,-80.6356,220,10,11.51,KMLB 080053Z 22010KT 10SM CLR 29/24 A2970 RMK AO2 SLP056 T02890244,2024-08-08T00:53:00Z,28.9,24.4,10+,29.70
KMKO,35.6576,-95.3658,340,3,3.45,KMKO 080053Z AUTO 34003KT 10SM CLR 33/17 A2981 RMK AO2 SLP087 T03280167,2024-08-08T00:53:00Z,32.8,16.7,10+,29.81
KMKL,35.5933,-88.917,320,5,5.75,KMKL 080053Z AUTO 32005KT 10SM BKN049 25/20 A2982 RMK AO2 SLP093 T02500200,2024-08-08T00:53:00Z,25,20,10+,29.82
KMIW,42.1106,-92.9163,140,5,5.75,KMIW 080053Z AUTO 14005KT 10SM CLR 23/17 A2994 RMK AO2 SLP136 T02280172,2024-08-08T00:53:00Z,22.8,17.2,10+,29.94
KMIE,40.2345,-85.3936,80,6,6.9,KMIE 080053Z 08006KT 10SM CLR 21/17 A2991 RMK AO2 SLP120 T02110172,2024-08-08T00:53:00Z,21.1,17.2,10+,29.91
KMIC,45.0623,-93.3511,0,0,0.0,KMIC 080053Z 00000KT 10SM OVC065 21/16 A2993 RMK AO2 RAB18E30 SLP133 P0000 T02110156,2024-08-08T00:53:00Z,21.1,15.6,10+,29.93
KMIA,25.7881,-80.3169,210,9,10.36,KMIA 080053Z 21009KT 10SM BKN110 BKN250 31/24 A2978 RMK AO2 SLP085 T03060239,2024-08-08T00:53:00Z,30.6,23.9,10+,29.78
KMHT,42.9245,-71.4377,0,0,0.0,KMHT 080053Z 00000KT 10SM CLR 19/15 A3006 RMK AO2 SLP190 T01890150,2024-08-08T00:53:00Z,18.9,15,10+,30.06
KMHE,43.7743,-98.0384,360,14,16.11,KMHE 080053Z AUTO 36014G20KT 10SM BKN039 24/18 A2996 RMK AO2 SLP137 T02390183,2024-08-08T00:53:00Z,23.9,18.3,10+,29.96
KMGY,39.5918,-84.2263,30,9,10.36,KMGY 080053Z AUTO 03009KT 10SM CLR 24/18 A2987 RMK AO2 SLP106 T02390183,2024-08-08T00:53:00Z,23.9,18.3,10+,29.87
KMGW,39.6498,-79.9206,20,3,3.45,KMGW 080053Z 02003KT 10SM SCT050 26/22 A2987 RMK AO2 SLP104 T02560217,2024-08-08T00:53:00Z,25.6,21.7,10+,29.87
KMGM,32.2997,-86.4074,320,3,3.45,KMGM 080053Z 32003KT 10SM BKN080 32/24 A2970 RMK AO2 SLP054 T03170239,2024-08-08T00:53:00Z,31.7,23.9,10+,29.70
KMFR,42.375,-122.877,270,9,10.36,KMFR 080053Z 27009KT 10SM FU CLR 36/06 A2988 RMK AO2 SLP105 T03560056,2024-08-08T00:53:00Z,35.6,5.6,10+,29.88
KMFE,26.1791,-98.2445,130,15,17.26,KMFE 080053Z 13015KT 8SM CLR 34/23 A2976 RMK AO2 WSHFT 0000 SLP076 T03440228,2024-08-08T00:53:00Z,34.4,22.8,8,29.76
KMDW,41.7841,-87.7551,80,10,11.51,KMDW 080053Z 08010KT 10SM FEW250 23/13 A2993 RMK AO2 SLP126 T02330133,2024-08-08T00:53:00Z,23.3,13.3,10+,29.93
KMCW,43.1543,-93.3262,170,4,4.6,KMCW 080053Z AUTO 17004KT 10SM CLR 22/17 A2996 RMK AO2 SLP136 T02170172,2024-08-08T00:53:00Z,21.7,17.2,10+,29.96
KMCO,28.4182,-81.3241,240,7,8.06,KMCO 080053Z 24007KT 10SM FEW055 BKN300 30/23 A2970 RMK AO2 SLP057 T03000228,2024-08-08T00:53:00Z,30,22.8,10+,29.70
KMCN,32.6889,-83.6529,VRB,3,3.45,KMCN 080053Z AUTO VRB03KT 10SM FEW070 BKN090 29/24 A2966 RMK AO2 SLP039 T02890244,2024-08-08T00:53:00Z,28.9,24.4,10+,29.66
KMCK,40.204,-100.59,60,8,9.21,KMCK 080053Z AUTO 06008KT 9SM CLR 29/18 A2992 RMK AO2 SLP110 T02890183,2024-08-08T00:53:00Z,28.9,18.3,9,29.92
KMCI,39.2975,-94.7309,100,9,10.36,KMCI 080053Z 10009KT 10SM CLR 26/17 A2990 RMK AO2 SLP115 T02610172,2024-08-08T00:53:00Z,26.1,17.2,10+,29.90
KMCE,37.286,-120.518,340,11,12.66,KMCE 080053Z AUTO 34011KT 10SM CLR 39/09 A2980 RMK AO2 SLP089 T03940094,2024-08-08T00:53:00Z,39.4,9.4,10+,29.80
KMCB,31.1823,-90.4721,310,3,3.45,KMCB 080053Z AUTO 31003KT 10SM CLR 31/22 A2978 RMK AO2 SLP075 T03110217,2024-08-08T00:53:00Z,31.1,21.7,10+,29.78
KMBS,43.5281,-84.0813,40,6,6.9,KMBS 080053Z 04006KT 10SM CLR 19/14 A2999 RMK AO2 SLP153 T01940144,2024-08-08T00:53:00Z,19.4,14.4,10+,29.99
KMAI,30.837,-85.1835,290,3,3.45,KMAI 080053Z AUTO 29003KT 10SM CLR 31/23 A2968 RMK AO2 SLP047 T03110233,2024-08-08T00:53:00Z,31.1,23.3,10+,29.68
KMAF,31.9475,-102.209,140,3,3.45,KMAF 080053Z 14003KT 10SM CLR 37/09 A2988 RMK AO2 SLP061 T03720094,2024-08-08T00:53:00Z,37.2,9.4,10+,29.88
KMAE,36.9851,-120.111,310,12,13.81,KMAE 080053Z AUTO 31012KT 10SM CLR 41/13 A2980 RMK AO2 SLP089 T04060128,2024-08-08T00:53:00Z,40.6,12.8,10+,29.80
KLXT,38.9577,-94.3712,80,6,6.9,KLXT 080053Z AUTO 08006KT 10SM CLR 25/17 A2991 RMK AO2 SLP121 T02500172,2024-08-08T00:53:00Z,25,17.2,10+,29.91
KLWV,38.7604,-87.599,340,5,5.75,KLWV 080053Z AUTO 34005KT 10SM FEW045 SCT065 23/21 A2985 RMK AO2 SLP106 T02330211,2024-08-08T00:53:00Z,23.3,21.1,10+,29.85
KLWD,40.6306,-93.9005,0,0,0.0,KLWD 080053Z AUTO 00000KT 10SM CLR 26/17 A2993 RMK AO2 SLP126 T02560172,2024-08-08T00:53:00Z,25.6,17.2,10+,29.93
KLVS,35.6558,-105.139,350,12,13.81,KLVS 080053Z AUTO 35012KT 10SM BKN110 28/06 A3018 RMK AO2 SLP108 T02780061,2024-08-08T00:53:00Z,27.8,6.1,10+,30.18
KLVM,45.6984,-110.442,80,20,23.02,KLVM 080053Z AUTO 08020G26KT 10SM CLR 18/13 A3025 RMK AO2 PK WND 09030/0012 SLP216 T01780128,2024-08-08T00:53:00Z,17.8,12.8,10+,30.25
KLVK,37.6931,-121.815,300,11,12.66,KLVK 080053Z 30011KT 10SM CLR 32/09 A2987 RMK AO2 SLP110 T03170094,2024-08-08T00:53:00Z,31.7,9.4,10+,29.87
KLVJ,29.5192,-95.2423,150,4,4.6,KLVJ 080053Z AUTO 15004KT 10SM CLR 32/26 A2980 RMK AO2 SLP090 T03220256,2024-08-08T00:53:00Z,32.2,25.6,10+,29.80
KLUK,39.106,-84.4161,40,8,9.21,KLUK 080053Z 04008KT 10SM CLR 26/20 A2984 RMK AO2 SLP099 T02560200,2024-08-08T00:53:00Z,25.6,20,10+,29.84
KLSE,43.8792,-91.253,220,3,3.45,KLSE 080053Z 22003KT 10SM BKN110 23/15 A2993 RMK AO2 SLP129 T02330150,2024-08-08T00:53:00Z,23.3,15,10+,29.93
KLPR,41.3463,-82.1788,80,11,12.66,KLPR 080053Z AUTO 08011KT 10SM OVC035 22/17 A2992 RMK AO2 SLP127 T02220167 $,2024-08-08T00:53:00Z,22.2,16.7,10+,29.92
KLOZ,37.0896,-84.0688,20,6,6.9,KLOZ 080053Z AUTO 02006KT 10SM OVC120 26/22 A2980 RMK AO2 SLP076 T02560222,2024-08-08T00:53:00Z,25.6,22.2,10+,29.80
KLOU,38.2302,-85.6629,340,4,4.6,KLOU 080053Z 34004KT 10SM FEW046 BKN055 OVC070 28/22 A2980 RMK AO2 SLP085 T02780217,2024-08-08T00:53:00Z,27.8,21.7,10+,29.80
KLOL,40.0685,-118.57,0,0,0.0,KLOL 080053Z AUTO 00000KT 10SM CLR 37/02 A2999 RMK AO2 SLP111 T03670022,2024-08-08T00:53:00Z,36.7,2.2,10+,29.99
KLNS,40.1206,-76.2944,70,11,12.66,KLNS 080053Z 07011KT 10SM OVC007 19/18 A2998 RMK AO2 SLP151 T01940183,2024-08-08T00:53:00Z,19.4,18.3,10+,29.98
KLND,42.8154,-108.726,30,14,16.11,KLND 080053Z AUTO 03014G18KT 10SM CLR 26/09 A3013 RMK AO2 SLP138 T02610089,2024-08-08T00:53:00Z,26.1,8.9,10+,30.13
KLMT,42.147,-121.726,50,4,4.6,KLMT 080053Z 05004KT 10SM CLR 32/03 A3005 RMK AO2 SLP133 T03220033,2024-08-08T00:53:00Z,32.2,3.3,10+,30.05
KLLQ,33.636,-91.7555,40,6,6.9,KLLQ 080053Z AUTO 04006KT 10SM CLR 28/23 A2981 RMK AO2 SLP091 T02830228,2024-08-08T00:53:00Z,28.3,22.8,10+,29.81
KLKV,42.1538,-120.403,210,4,4.6,KLKV 080053Z AUTO 21004KT 10SM CLR 33/M02 A3010 RMK AO2 SLP150 T03281022,2024-08-08T00:53:00Z,32.8,-2.2,10+,30.10
KLIT,34.7273,-92.2358,90,8,9.21,KLIT 080053Z 09008KT 10SM FEW250 28/19 A2984 RMK AO2 SLP102 T02830194,2024-08-08T00:53:00Z,28.3,19.4,10+,29.84
KLHX,38.0495,-103.513,10,20,23.02,KLHX 080053Z AUTO 01020G33KT 10SM BKN110 31/11 A2995 RMK AO2 PK WND 35039/0032 SLP076 T03060111,2024-08-08T00:53:00Z,30.6,11.1,10+,29.95
KLHQ,39.7573,-82.6633,60,6,6.9,KLHQ 080053Z AUTO 06006KT 10SM CLR 22/20 A2987 RMK AO2 SLP109 T02220200,2024-08-08T00:53:00Z,22.2,20,10+,29.87
KLFT,30.1986,-91.9896,330,4,4.6,KLFT 080053Z 33004KT 10SM CLR 34/20 A2977 RMK AO2 SLP082 T03440200,2024-08-08T00:53:00Z,34.4,20,10+,29.77
KLFK,31.2359,-94.7546,,,,KLFK 080053Z AUTO 10SM CLR 32/24 A2979 RMK AO2 SLP084 T03170239 $,2024-08-08T00:53:00Z,31.7,23.9,10+,29.79
KLEE,28.8214,-81.8006,220,5,5.75,KLEE 080053Z AUTO 22005KT 10SM CLR 28/25 A2970 RMK AO2 SLP055 T02830250,2024-08-08T00:53:00Z,28.3,25,10+,29.70
KLEB,43.6271,-72.3054,0,0,0.0,KLEB 080053Z 00000KT 10SM CLR 17/14 A3006 RMK AO2 SLP173 T01670139,2024-08-08T00:53:00Z,16.7,13.9,10+,30.06
KLCH,30.1255,-93.2277,190,3,3.45,KLCH 080053Z AUTO 19003KT 10SM SCT065 31/26 A2978 RMK AO2 SLP091 T03110261,2024-08-08T00:53:00Z,31.1,26.1,10+,29.78
KLBX,29.1154,-95.4632,180,7,8.06,KLBX 080053Z AUTO 18007KT 10SM CLR 29/26 A2979 RMK AO2 SLP088 T02940256,2024-08-08T00:53:00Z,29.4,25.6,10+,29.79
KLBB,33.6658,-101.823,160,8,9.21,KLBB 080053Z 16008KT 10SM CLR 38/09 A2992 RMK AO2 SLP067 T03780094,2024-08-08T00:53:00Z,37.8,9.4,10+,29.92
KLAX,33.9382,-118.387,240,8,9.21,KLAX 080053Z 24008KT 10SM FEW008 FEW150 22/18 A2995 RMK AO2 SLP139 T02170178 $,2024-08-08T00:53:00Z,21.7,17.8,10+,29.95
KLAW,34.5577,-98.4172,130,9,10.36,KLAW 080053Z AUTO 13009KT 10SM CLR 38/16 A2979 RMK AO2 SLP073 T03830161,2024-08-08T00:53:00Z,38.3,16.1,10+,29.79
KLAR,41.3165,-105.673,110,8,9.21,KLAR 080053Z AUTO 11008KT 10SM CLR 26/07 A3020 RMK AO2 WSHFT 2358 SLP104 T02610072,2024-08-08T00:53:00Z,26.1,7.2,10+,30.20
KLAN,42.7761,-84.5997,40,4,4.6,KLAN 080053Z 04004KT 10SM CLR 19/13 A2997 RMK AO2 SLP148 T01940128,2024-08-08T00:53:00Z,19.4,12.8,10+,29.97
KLAA,38.0718,-102.687,70,14,16.11,KLAA 080053Z AUTO 07014KT 10SM CLR 35/14 A2986 RMK AO2 LTG DSNT S SLP053 T03500139,2024-08-08T00:53:00Z,35,13.9,10+,29.86
KJLN,37.1522,-94.4952,50,5,5.75,KJLN 080053Z 05005KT 10SM CLR 28/17 A2987 RMK AO2 SLP105 T02830172,2024-08-08T00:53:00Z,28.3,17.2,10+,29.87
KJKL,37.5913,-83.3137,0,0,0.0,KJKL 080053Z AUTO 00000KT 10SM CLR 26/22 A2981 RMK AO2 SLP079 T02610222,2024-08-08T00:53:00Z,26.1,22.2,10+,29.81
KJER,42.7274,-114.455,290,9,10.36,KJER 080053Z AUTO 29009KT 10SM CLR 28/03 A3004 RMK AO2 SLP135 T02780033,2024-08-08T00:53:00Z,27.8,3.3,10+,30.04
KJEF,38.5945,-92.1567,90,3,3.45,KJEF 080053Z 09003KT 10SM CLR 25/17 A2990 RMK AO2 SLP112 T02500172,2024-08-08T00:53:00Z,25,17.2,10+,29.90
KJBR,35.8357,-90.6442,340,5,5.75,KJBR 080053Z AUTO 34005KT 10SM BKN040 25/19 A2986 RMK AO2 SLP107 T02500189 $,2024-08-08T00:53:00Z,25,18.9,10+,29.86
KIXD,38.8221,-94.8902,100,4,4.6,KIXD 080053Z 10004KT 10SM CLR 28/17 A2990 RMK AO2 SLP114 T02830172,2024-08-08T00:53:00Z,28.3,17.2,10+,29.90
KIWI,43.9639,-69.7114,0,0,0.0,KIWI 080053Z AUTO 00000KT 10SM CLR 17/15 A3008 RMK AO2 SLP185 T01720150,2024-08-08T00:53:00Z,17.2,15,10+,30.08
KITR,39.2415,-102.282,70,12,13.81,KITR 080053Z AUTO 07012KT 10SM VCTS FEW100 SCT110 29/ A2997 RMK AO2 LTG DSNT SW-N SLP091 T0294 $,2024-08-08T00:53:00Z,29.4,,10+,29.97
KIPL,32.8346,-115.577,,,,KIPL 080053Z AUTO 10SM SCT110 39/ A2974 RMK AO2 SLP071 T0389 PWINO $,2024-08-08T00:53:00Z,38.9,,10+,29.74
KINK,31.7801,-103.202,140,4,4.6,KINK 080053Z AUTO 14004KT CLR 38/06 A2987 RMK AO2 SLP059 T03830056 $,2024-08-08T00:53:00Z,38.3,5.6,,29.87
KIML,40.5106,-101.624,320,6,6.9,KIML 080053Z AUTO 32006KT 10SM CLR 28/18 A2997 RMK AO2 SLP119 T02830178,2024-08-08T00:53:00Z,28.3,17.8,10+,29.97
KIDA,43.5204,-112.068,200,17,19.56,KIDA 080053Z 20017G29KT 3SM HZ CLR 31/03 A3003 RMK AO2 PK WND 20030/0006 SLP128 T03060033,2024-08-08T00:53:00Z,30.6,3.3,3,30.03
KICT,37.6475,-97.43,110,10,11.51,KICT 080053Z 11010KT 10SM FEW150 FEW190 FEW250 33/18 A2982 RMK AO2 SLP082 T03330178,2024-08-08T00:53:00Z,33.3,17.8,10+,29.82
KICR,43.391,-99.8462,360,12,13.81,KICR 080053Z AUTO 36012KT 10SM FEW038 SCT046 25/17 A3001 RMK AO2 SLP150 T02500172 $,2024-08-08T00:53:00Z,25,17.2,10+,30.01
KIAH,29.9844,-95.3607,120,8,9.21,KIAH 080053Z 12008KT 10SM FEW070 32/24 A2977 RMK AO2 SLP080 T03220244,2024-08-08T00:53:00Z,32.2,24.4,10+,29.77
KIAG,43.1083,-78.9382,80,7,8.06,KIAG 080053Z 08007KT 10SM CLR 20/10 A2999 RMK AO2 SLP151 T02000100,2024-08-08T00:53:00Z,20,10,10+,29.99
KHZY,41.7794,-80.6968,60,4,4.6,KHZY 080053Z AUTO 06004KT 10SM FEW036 BKN060 22/16 A2995 RMK AO2 SLP137 T02170161,2024-08-08T00:53:00Z,21.7,16.1,10+,29.95
KHYR,46.0303,-91.4426,0,0,0.0,KHYR 080053Z AUTO 00000KT 10SM BKN042 BKN100 OVC120 18/17 A2995 RMK AO2 SLP142 T01780172,2024-08-08T00:53:00Z,17.8,17.2,10+,29.95
KHWO,25.9996,-80.2412,220,8,9.21,KHWO 080053Z AUTO 22008KT 10SM CLR 32/23 A2979 RMK AO2 SLP087 T03220233 $,2024-08-08T00:53:00Z,32.2,23.3,10+,29.79
KHVR,48.5425,-109.764,340,6,6.9,KHVR 080053Z AUTO 34006KT 7SM -RA BKN075 OVC090 17/12 A3027 RMK AO2 RAB53 SLP245 P0000 T01720117,2024-08-08T00:53:00Z,17.2,11.7,7,30.27
KHVN,41.259,-72.8891,50,4,4.6,KHVN 080053Z 05004KT 6SM -RA SCT023 OVC090 20/17 A3006 RMK AO2 RAB38 SLP177 P0004 T02000172,2024-08-08T00:53:00Z,20,17.2,6,30.06
KHUL,46.1185,-67.7929,20,3,3.45,KHUL 080053Z AUTO 02003KT 10SM CLR 14/11 A3003 RMK AO2 SLP169 T01440111,2024-08-08T00:53:00Z,14.4,11.1,10+,30.03
KHUF,39.4429,-87.3221,10,6,6.9,KHUF 080053Z 01006KT 10SM OVC060 24/20 A2988 RMK AO2 SLP113 T02440200,2024-08-08T00:53:00Z,24.4,20,10+,29.88
KHSV,34.6441,-86.7861,330,5,5.75,KHSV 080053Z 33005KT 10SM FEW040 29/23 A2975 RMK AO2 SLP064 T02940233 $,2024-08-08T00:53:00Z,29.4,23.3,10+,29.75
KHSI,40.6002,-98.4264,70,5,5.75,KHSI 080053Z AUTO 07005KT 10SM CLR 26/19 A2995 RMK AO2 SLP127 T02560189,2024-08-08T00:53:00Z,25.6,18.9,10+,29.95
KHRO,36.2673,-93.1566,60,4,4.6,KHRO 080053Z AUTO 06004KT 10SM CLR 25/19 A2990 RMK AO2 SLP111 T02500189 $,2024-08-08T00:53:00Z,25,18.9,10+,29.90
KHRI,45.8259,-119.261,40,9,10.36,KHRI 080053Z AUTO 04009KT 10SM CLR 34/08 A2994 RMK AO2 SLP133 T03390078,2024-08-08T00:53:00Z,33.9,7.8,10+,29.94
KHQM,46.9729,-123.931,260,9,10.36,KHQM 080053Z AUTO 26009KT 10SM CLR 19/15 A3006 RMK AO2 SLP181 T01890150,2024-08-08T00:53:00Z,18.9,15,10+,30.06
KHOU,29.6458,-95.2821,150,10,11.51,KHOU 080053Z 15010KT 10SM BKN065 33/24 A2978 RMK AO2 SLP087 T03280244,2024-08-08T00:53:00Z,32.8,24.4,10+,29.78
KHOT,34.4755,-93.1041,110,10,11.51,KHOT 080053Z AUTO 11010KT 10SM CLR 32/21 A2982 RMK AO2 SLP090 T03170211,2024-08-08T00:53:00Z,31.7,21.1,10+,29.82
KHLN,46.6045,-111.989,350,12,13.81,KHLN 080053Z 35012KT 10SM BKN050 20/11 A3023 RMK AO2 SLP231 T02000111,2024-08-08T00:53:00Z,20,11.1,10+,30.23
KHLG,40.1699,-80.6441,30,6,6.9,KHLG 080053Z 03006KT 10SM BKN047 23/19 A2988 RMK AO2 SLP114 T02330194,2024-08-08T00:53:00Z,23.3,19.4,10+,29.88
KHLC,39.3741,-99.8299,100,6,6.9,KHLC 080053Z AUTO 10006KT 10SM CLR 32/ A2988 RMK AO2 SLP094 T0322 $,2024-08-08T00:53:00Z,32.2,,10+,29.88
KHKY,35.742,-81.3822,60,8,9.21,KHKY 080053Z AUTO 06008G21KT 10SM FEW029 OVC095 26/21 A2979 RMK AO2 SLP063 T02610211,2024-08-08T00:53:00Z,26.1,21.1,10+,29.79
KHKS,32.3376,-90.2214,360,8,9.21,KHKS 080053Z 36008KT 10SM FEW055 FEW070 33/24 A2977 RMK AO2 SLP070 T03280244,2024-08-08T00:53:00Z,32.8,24.4,10+,29.77
KHKA,35.9378,-89.8332,350,6,6.9,KHKA 080053Z AUTO 35006KT 10SM SCT047 24/19 A2983 RMK AO2 SLP100 T02440189 $,2024-08-08T00:53:00Z,24.4,18.9,10+,29.83
KHJO,36.3114,-119.623,340,7,8.06,KHJO 080053Z AUTO 34007KT 10SM BKN110 43/08 A2979 RMK AO2 SLP086 T04330078,2024-08-08T00:53:00Z,43.3,7.8,10+,29.79
KHIO,45.5476,-122.956,350,11,12.66,KHIO 080053Z 35011KT 10SM CLR 32/14 A2995 RMK AO2 SLP138 T03170139,2024-08-08T00:53:00Z,31.7,13.9,10+,29.95
KHIB,47.3804,-92.8325,VRB,5,5.75,KHIB 080053Z AUTO VRB05KT 8SM -RA BKN009 15/15 A2992 RMK AO2 SLP134 P0008 T01500150,2024-08-08T00:53:00Z,15,15,8,29.92
KHHR,33.9235,-118.333,260,7,8.06,KHHR 080053Z 26007KT 10SM CLR 23/17 A2994 RMK AO2 SLP139 T02330172,2024-08-08T00:53:00Z,23.3,17.2,10+,29.94
KHFD,41.7352,-72.6512,0,0,0.0,KHFD 080053Z 00000KT 10SM BKN110 19/17 A3005 RMK AO2 SLP177 T01890167,2024-08-08T00:53:00Z,18.9,16.7,10+,30.05
KHEI,46.0108,-102.652,350,8,9.21,KHEI 080053Z AUTO 35008KT 7SM FEW012 SCT036 OVC045 16/14 A3017 RMK AO2 RAB03E13B32E43 SLP207 P0001 T01560139,2024-08-08T00:53:00Z,15.6,13.9,7,30.17
KHBR,34.9891,-99.0528,180,9,10.36,KHBR 080053Z AUTO 18009KT 10SM CLR 38/14 A2982 RMK AO2 SLP072 T03780144,2024-08-08T00:53:00Z,37.8,14.4,10+,29.82
KHBG,31.2648,-89.2561,280,3,3.45,KHBG 080053Z AUTO 28003KT 10SM CLR 31/22 A2975 RMK AO2 SLP071 T03110222,2024-08-08T00:53:00Z,31.1,22.2,10+,29.75
KHAO,39.3612,-84.5206,10,6,6.9,KHAO 080053Z AUTO 01006KT 10SM CLR 25/19 A2986 RMK AO2 SLP108 T02500194,2024-08-08T00:53:00Z,25,19.4,10+,29.86
KGZH,31.4191,-87.0484,0,0,0.0,KGZH 080053Z AUTO 00000KT 10SM CLR 28/24 A2972 RMK AO2 SLP059 T02780239,2024-08-08T00:53:00Z,27.8,23.9,10+,29.72
KGWO,33.4961,-90.0894,360,6,6.9,KGWO 080053Z AUTO 36006KT 10SM CLR 28/22 A2979 RMK AO2 SLP086 T02780222,2024-08-08T00:53:00Z,27.8,22.2,10+,29.79
KGUY,36.6819,-101.505,210,5,5.75,KGUY 080053Z AUTO 21005KT 10SM CLR 33/13 A2983 RMK AO2 SLP051 T03330133,2024-08-08T00:53:00Z,33.3,13.3,10+,29.83
KGUP,35.5086,-108.793,290,6,6.9,KGUP 080053Z AUTO 29006KT 10SM CLR 29/09 A3018 RMK AO2 SLP065 T02890094,2024-08-08T00:53:00Z,28.9,9.4,10+,30.18
KGSP,34.8842,-82.2209,40,9,10.36,KGSP 080053Z 04009G18KT 10SM CLR 28/21 A2974 RMK AO2 SLP059 T02780211,2024-08-08T00:53:00Z,27.8,21.1,10+,29.74
KGSH,41.5265,-85.7872,50,3,3.45,KGSH 080053Z AUTO 05003KT 10SM OVC049 22/15 A2994 RMK AO2 SLP135 T02170150,2024-08-08T00:53:00Z,21.7,15,10+,29.94
KGRR,42.8821,-85.523,100,4,4.6,KGRR 080053Z 10004KT 10SM SCT250 21/14 A2997 RMK AO2 SLP146 T02110144,2024-08-08T00:53:00Z,21.1,14.4,10+,29.97
KGRI,40.9615,-98.313,130,5,5.75,KGRI 080053Z 13005KT 10SM CLR 27/19 A2994 RMK AO2 SLP128 T02670194,2024-08-08T00:53:00Z,26.7,19.4,10+,29.94
KGRB,44.4796,-88.137,160,6,6.9,KGRB 080053Z 16006KT 10SM CLR 21/14 A2996 RMK AO2 SLP144 T02110139,2024-08-08T00:53:00Z,21.1,13.9,10+,29.96
KGPT,30.4121,-89.0809,270,4,4.6,KGPT 080053Z 27004KT 10SM CLR 32/23 A2973 RMK AO2 SLP067 T03170233,2024-08-08T00:53:00Z,31.7,23.3,10+,29.73
KGOK,35.8517,-97.4142,130,10,11.51,KGOK 080053Z AUTO 13010KT 10SM CLR 36/19 A2979 RMK AO2 SLP075 T03610194,2024-08-08T00:53:00Z,36.1,19.4,10+,29.79
KGNV,29.6917,-82.276,250,7,8.06,KGNV 080053Z 25007KT 10SM CLR 28/24 A2968 RMK AO2 SLP048 T02830239,2024-08-08T00:53:00Z,28.3,23.9,10+,29.68
KGMU,34.8487,-82.3501,60,11,12.66,KGMU 080053Z 06011G18KT 10SM CLR 28/21 A2975 RMK AO2 SLP060 T02830211,2024-08-08T00:53:00Z,28.3,21.1,10+,29.75
KGLR,45.0166,-84.6894,VRB,4,4.6,KGLR 080053Z AUTO VRB04KT 10SM 21/11 A3000 RMK AO2 SLP155 T02110111 $,2024-08-08T00:53:00Z,21.1,11.1,10+,30.00
KGLH,33.4772,-90.9847,20,6,6.9,KGLH 080053Z AUTO 02006KT 10SM CLR 27/23 A2979 RMK AO2 SLP094 T02670228,2024-08-08T00:53:00Z,26.7,22.8,10+,29.79
KGLD,39.3673,-101.693,90,4,4.6,KGLD 080053Z AUTO 09004KT 10SM CLR 31/17 A2995 RMK AO2 LTG DSNT W AND NW SLP094 T03060167,2024-08-08T00:53:00Z,30.6,16.7,10+,29.95
KGKY,32.6583,-97.0951,140,6,6.9,KGKY 080053Z 14006KT 10SM CLR 36/19 A2980 RMK AO2 SLP079 T03560189,2024-08-08T00:53:00Z,35.6,18.9,10+,29.80
KGKJ,41.6258,-80.2123,80,5,5.75,KGKJ 080053Z AUTO 08005KT 10SM OVC026 22/17 A2997 RMK AO2 SLP141 T02170167,2024-08-08T00:53:00Z,21.7,16.7,10+,29.97
KGIF,28.0614,-81.7568,230,4,4.6,KGIF 080053Z AUTO 23004KT 10SM CLR 29/23 A2973 RMK AO2 SLP065 T02940233,2024-08-08T00:53:00Z,29.4,23.3,10+,29.73
KGGW,48.2142,-106.621,250,6,6.9,KGGW 080053Z AUTO 25006KT 8SM BKN070 BKN090 19/12 A3021 RMK AO2 SLP230 T01890117,2024-08-08T00:53:00Z,18.9,11.7,8,30.21
KGGG,32.3909,-94.714,250,5,5.75,KGGG 080053Z 25005KT 10SM CLR 33/22 A2978 RMK AO2 SLP075 T03330217 $,2024-08-08T00:53:00Z,33.3,21.7,10+,29.78
KGFL,43.3385,-73.6102,0,0,0.0,KGFL 080053Z AUTO 00000KT 10SM CLR 17/16 A3004 RMK AO2 SLP173 T01720161,2024-08-08T00:53:00Z,17.2,16.1,10+,30.04
KGFK,47.9428,-97.1829,360,10,11.51,KGFK 080053Z 36010KT 10SM SCT060 21/11 A2997 RMK AO2 SLP147 T02060106,2024-08-08T00:53:00Z,20.6,10.6,10+,29.97
KGEZ,39.5854,-85.7998,30,7,8.06,KGEZ 080053Z AUTO 03007KT 10SM OVC046 25/19 A2987 RMK AO2 SLP109 T02500189 $,2024-08-08T00:53:00Z,25,18.9,10+,29.87
KGEG,47.6217,-117.528,VRB,3,3.45,KGEG 080053Z VRB03KT 10SM FEW085 32/03 A3005 RMK AO2 SLP155 T03170033,2024-08-08T00:53:00Z,31.7,3.3,10+,30.05
KGCC,44.3398,-105.542,10,13,14.96,KGCC 080053Z AUTO 01013KT 10SM FEW022 BKN050 OVC075 17/12 A3022 RMK AO2 SLP204 T01720117,2024-08-08T00:53:00Z,17.2,11.7,10+,30.22
KGAG,36.2966,-99.7686,160,14,16.11,KGAG 080053Z AUTO 16014KT 10SM CLR 38/12 A2981 RMK AO2 SLP057 T03830117,2024-08-08T00:53:00Z,38.3,11.7,10+,29.81
KFYV,36.0103,-94.1624,0,0,0.0,KFYV 080053Z 00000KT 10SM CLR 31/17 A2986 RMK AO2 SLP094 T03110167,2024-08-08T00:53:00Z,31.1,16.7,10+,29.86
KFXE,26.199,-80.1776,150,7,8.06,KFXE 080053Z 15007KT 10SM TSRA FEW042 SCT050 OVC095 28/26 A2977 RMK AO2 SLP083 P0002 T02780256,2024-08-08T00:53:00Z,27.8,25.6,10+,29.77
KFWN,41.1993,-74.6259,70,3,3.45,KFWN 080053Z AUTO 07003KT 10SM OVC013 19/17 A3005 RMK AO2 SLP172 T01890172,2024-08-08T00:53:00Z,18.9,17.2,10+,30.05
KFVE,47.2852,-68.3072,300,7,8.06,KFVE 080053Z AUTO 30007KT 10SM CLR 14/05 A3006 RMK AO2 SLP177 T01390050 $,2024-08-08T00:53:00Z,13.9,5,10+,30.06
KFUL,33.8715,-117.986,220,7,8.06,KFUL 080053Z 22007KT 190V250 10SM CLR 24/16 A2993 RMK AO2 SLP135 T02440161,2024-08-08T00:53:00Z,24.4,16.1,10+,29.93
KFTY,33.7776,-84.5247,0,0,0.0,KFTY 080053Z 00000KT 10SM CLR 29/21 A2971 RMK AO2 SLP049 T02940206,2024-08-08T00:53:00Z,29.4,20.6,10+,29.71
KFTW,32.8248,-97.364,140,6,6.9,KFTW 080053Z AUTO 14006KT 10SM CLR 36/17 A2978 RMK AO2 SLP073 T03610167,2024-08-08T00:53:00Z,36.1,16.7,10+,29.78
KFST,30.9119,-102.917,150,9,10.36,KFST 080053Z AUTO 15009G15KT 10SM CLR 37/09 A2989 RMK AO2 SLP065 T03670089 $,2024-08-08T00:53:00Z,36.7,8.9,10+,29.89
KFSM,35.3335,-94.3653,110,3,3.45,KFSM 080053Z 11003KT 10SM CLR 36/17 A2977 RMK AO2 SLP074 T03610167,2024-08-08T00:53:00Z,36.1,16.7,10+,29.77
KFPR,27.4981,-80.3763,200,5,5.75,KFPR 080053Z AUTO 20005KT 10SM CLR 29/24 A2973 RMK AO2 LTG DSNT W SLP067 T02890244,2024-08-08T00:53:00Z,28.9,24.4,10+,29.73
KFOK,40.8506,-72.6193,70,5,5.75,KFOK 080053Z 07005KT 10SM BKN019 OVC075 19/17 A3006 RMK AO2 SLP178 T01890167,2024-08-08T00:53:00Z,18.9,16.7,10+,30.06
KFOE,38.9414,-95.6513,80,5,5.75,KFOE 080053Z 08005KT 10SM CLR 27/18 A2988 RMK AO2 SLP110 T02720183,2024-08-08T00:53:00Z,27.2,18.3,10+,29.88
KFNT,42.9669,-83.75,70,7,8.06,KFNT 080053Z 07007KT 10SM CLR 20/13 A2997 RMK AO2 SLP146 T02000128,2024-08-08T00:53:00Z,20,12.8,10+,29.97
KFNB,40.0791,-95.5893,0,0,0.0,KFNB 080053Z AUTO 00000KT 9SM CLR 26/19 A2990 RMK AO2 SLP118 T02610194,2024-08-08T00:53:00Z,26.1,19.4,9,29.90
KFMY,26.584,-81.8615,250,7,8.06,KFMY 080053Z 25007KT 10SM CLR 29/24 A2975 RMK AO2 SLP077 T02940244,2024-08-08T00:53:00Z,29.4,24.4,10+,29.75
KFLL,26.0787,-80.1622,110,8,9.21,KFLL 080053Z 11008KT 090V160 10SM FEW040 SCT100 BKN250 29/24 A2977 RMK AO2 SLP081 T02890244 $,2024-08-08T00:53:00Z,28.9,24.4,10+,29.77
KFLD,43.7695,-88.4907,140,7,8.06,KFLD 080053Z AUTO 14007KT 10SM CLR 21/12 A2996 RMK AO2 SLP144 T02110117,2024-08-08T00:53:00Z,21.1,11.7,10+,29.96
KFHR,48.52,-123.026,230,5,5.75,KFHR 080053Z AUTO 23005KT 10SM CLR 23/13 A3006 RMK AO2 SLP179 T02280128,2024-08-08T00:53:00Z,22.8,12.8,10+,30.06
KFFT,38.1846,-84.9039,10,6,6.9,KFFT 080053Z AUTO 01006KT 10SM BKN060 29/21 A2980 RMK AO2 SLP081 T02890206,2024-08-08T00:53:00Z,28.9,20.6,10+,29.80
KFFC,33.3543,-84.5689,0,0,0.0,KFFC 080053Z AUTO 00000KT 10SM 27/22 A2972 RMK AO2 SLP056 T02670222 $,2024-08-08T00:53:00Z,26.7,22.2,10+,29.72
KFDY,41.0137,-83.6681,50,9,10.36,KFDY 080053Z AUTO 05009KT 10SM OVC034 23/15 A2991 RMK AO2 SLP121 T02280150,2024-08-08T00:53:00Z,22.8,15,10+,29.91
KFDR,34.3531,-98.9876,130,9,10.36,KFDR 080053Z AUTO 13009KT 10SM CLR 38/14 A2977 RMK AO2 SLP057 T03780139,2024-08-08T00:53:00Z,37.8,13.9,10+,29.77
KFCM,44.8321,-93.4705,360,3,3.45,KFCM 080053Z 36003KT 7SM BKN080 22/16 A2993 RMK AO2 SLP133 T02170161,2024-08-08T00:53:00Z,21.7,16.1,7,29.93
KFAT,36.78,-119.72,310,12,13.81,KFAT 080053Z 31012G19KT 10SM FEW050 FEW130 SCT200 42/08 A2979 RMK AO2 SLP083 TCU DSNT E T04220083,2024-08-08T00:53:00Z,42.2,8.3,10+,29.79
KFAR,46.9242,-96.8119,320,4,4.6,KFAR 080053Z 32004KT 10SM BKN043 OVC055 19/16 A2997 RMK AO2 SLP149 T01940161,2024-08-08T00:53:00Z,19.4,16.1,10+,29.97
KEYW,24.5571,-81.7554,260,7,8.06,KEYW 080053Z AUTO 26007KT 10SM CLR 30/25 A2982 RMK AO2 SLP102 T03000250 $,2024-08-08T00:53:00Z,30,25,10+,29.82
KEYE,39.8248,-86.2958,40,7,8.06,KEYE 080053Z AUTO 04007KT 10SM OVC049 24/18 A2988 RMK AO2 SLP113 T02440178,2024-08-08T00:53:00Z,24.4,17.8,10+,29.88
KEWB,41.6791,-70.9591,60,3,3.45,KEWB 080053Z 06003KT 10SM BKN050 OVC120 18/16 A3006 RMK AO2 SLP178 T01830156,2024-08-08T00:53:00Z,18.3,15.6,10+,30.06
KEVW,41.2727,-111.031,270,12,13.81,KEVW 080053Z AUTO 27012KT 10SM CLR 29/M02 A3025 RMK AO2 SLP131 T02891017,2024-08-08T00:53:00Z,28.9,-1.7,10+,30.25
KESF,31.3963,-92.2828,0,0,0.0,KESF 080053Z AUTO 00000KT 10SM CLR 29/25 A2977 RMK AO2 SLP077 T02940250,2024-08-08T00:53:00Z,29.4,25,10+,29.77
KEPH,47.3078,-119.516,0,0,0.0,KEPH 080053Z AUTO 00000KT 10SM CLR 33/05 A2997 RMK AO2 SLP136 T03330050,2024-08-08T00:53:00Z,33.3,5,10+,29.97
KENW,42.5953,-87.9383,50,4,4.6,KENW 080053Z 05004KT 10SM CLR 19/15 A2996 RMK AO2 SLP142 T01940150,2024-08-08T00:53:00Z,19.4,15,10+,29.96
KEMP,38.3291,-96.1945,90,7,8.06,KEMP 080053Z AUTO 09007KT 10SM CLR 30/16 A2987 RMK AO2 SLP104 T03000161,2024-08-08T00:53:00Z,30,16.1,10+,29.87
KELY,39.2954,-114.847,20,9,10.36,KELY 080053Z AUTO 02009KT 10SM CLR 33/M02 A3013 RMK AO2 SLP096 T03281022,2024-08-08T00:53:00Z,32.8,-2.2,10+,30.13
KELN,47.0338,-120.531,130,6,6.9,KELN 080053Z AUTO 13006KT 10SM CLR 34/07 A2999 RMK AO2 SLP142 T03390072,2024-08-08T00:53:00Z,33.9,7.2,10+,29.99
KELD,33.2207,-92.814,,,,KELD 080053Z AUTO 10SM CLR 31/26 A2978 RMK AO2 SLP079 T03060261 $,2024-08-08T00:53:00Z,30.6,26.1,10+,29.78
KEET,33.1783,-86.7818,0,0,0.0,KEET 080053Z AUTO 00000KT 5SM BR FEW050 SCT060 BKN100 28/27 A2973 RMK AO2 SLP060 T02780272,2024-08-08T00:53:00Z,27.8,27.2,5,29.73
KEEO,40.0444,-107.888,120,10,11.51,KEEO 080053Z AUTO 12010G20KT 10SM CLR 18/13 A3024 RMK AO2 SLP165 T01830128 $,2024-08-08T00:53:00Z,18.3,12.8,10+,30.24
KECP,30.3487,-85.7884,310,5,5.75,KECP 080053Z 31005KT 10SM CLR 30/23 A2968 RMK AO1 SLP060 T03000233,2024-08-08T00:53:00Z,30,23.3,10+,29.68
KDXR,41.3722,-73.4834,0,0,0.0,KDXR 080053Z 00000KT 10SM -RA FEW050 BKN090 OVC100 19/17 A3007 RMK AO2 RAB12 SLP182 P0000 T01890172 $,2024-08-08T00:53:00Z,18.9,17.2,10+,30.07
KDWH,30.068,-95.5563,0,0,0.0,KDWH 080053Z 00000KT 10SM CLR 32/23 A2977 RMK AO2 SLP080 T03170233,2024-08-08T00:53:00Z,31.7,23.3,10+,29.77
KDVT,33.6902,-112.066,200,7,8.06,KDVT 080053Z 20007KT 10SM CLR 37/17 A2986 RMK AO2 LTG DSNT NW SLP082 T03670167,2024-08-08T00:53:00Z,36.7,16.7,10+,29.86
KDUJ,41.1795,-78.8933,80,6,6.9,KDUJ 080053Z AUTO 08006KT 10SM OVC010 20/17 A2998 RMK AO2 SLP144 T02000172,2024-08-08T00:53:00Z,20,17.2,10+,29.98
KDTW,42.2311,-83.3312,50,6,6.9,KDTW 080053Z 05006KT 10SM FEW045 FEW250 23/13 A2995 RMK AO2 SLP137 T02280128,2024-08-08T00:53:00Z,22.8,12.8,10+,29.95
KDTS,30.3933,-86.4674,330,6,6.9,KDTS 080053Z 33006KT 9SM CLR 33/22 A2969 RMK AO2 SLP055 T03280222,2024-08-08T00:53:00Z,32.8,22.2,9,29.69
KDTO,33.2088,-97.1992,0,0,0.0,KDTO 080053Z 00000KT 10SM CLR 37/18 A2979 RMK AO2 SLP075 T03720178,2024-08-08T00:53:00Z,37.2,17.8,10+,29.79
KDTN,32.5429,-93.745,260,4,4.6,KDTN 080053Z 26004KT 10SM CLR 35/21 A2977 RMK AO2 SLP077 T03500211,2024-08-08T00:53:00Z,35,21.1,10+,29.77
KDRT,29.3784,-100.927,100,4,4.6,KDRT 080053Z AUTO 10004KT 10SM CLR 41/13 A2976 RMK AO2 SLP062 T04060133,2024-08-08T00:53:00Z,40.6,13.3,10+,29.76
KDRO,37.1431,-107.76,110,7,8.06,KDRO 080053Z AUTO 11007KT 10SM CLR 25/10 A3020 RMK AO2 LTG DSNT W SLP143 T02500100,2024-08-08T00:53:00Z,25,10,10+,30.20
KDRA,36.621,-116.029,220,9,10.36,KDRA 080053Z AUTO 22009G20KT 10SM CLR 39/05 A2992 RMK AO2 SLP072 T03890050,2024-08-08T00:53:00Z,38.9,5,10+,29.92
KDNL,33.4668,-82.0385,340,11,12.66,KDNL 080053Z AUTO 34011G18KT 10SM CLR 28/22 A2966 RMK AO2 SLP037 T02830222,2024-08-08T00:53:00Z,28.3,22.2,10+,29.66
KDMO,38.712,-93.1747,80,4,4.6,KDMO 080053Z AUTO 08004KT 10SM CLR 24/17 A2992 RMK AO2 SLP124 T02440172,2024-08-08T00:53:00Z,24.4,17.2,10+,29.92
KDMN,32.2592,-107.721,300,16,18.41,KDMN 080053Z AUTO 30016G24KT 10SM CLR 31/13 A3002 RMK AO2 LTG DSNT W SLP082 T03060128,2024-08-08T00:53:00Z,30.6,12.8,10+,30.02
KDMH,39.281,-76.611,,,,KDMH 080053Z AUTO 26/23 RMK AO1 SLPNO T02610233,2024-08-08T00:53:00Z,26.1,23.3,,
KDLS,45.619,-121.166,60,6,6.9,KDLS 080053Z AUTO 06006KT 10SM CLR 37/06 A2989 RMK AO2 SLP120 T03670061 $,2024-08-08T00:53:00Z,36.7,6.1,10+,29.89
KDLN,45.2584,-112.555,30,18,20.71,KDLN 080053Z AUTO 03018KT 10SM CLR 23/09 A3014 RMK AO2 SLP160 T02280094,2024-08-08T00:53:00Z,22.8,9.4,10+,30.14
KDKK,42.4932,-79.2762,60,5,5.75,KDKK 080053Z AUTO 06005KT 10SM CLR 22/15 A2997 RMK AO2 SLP146 T02220150,2024-08-08T00:53:00Z,22.2,15,10+,29.97
KDHT,36.0252,-102.549,150,14,16.11,KDHT 080053Z AUTO 15014KT 10SM CLR 36/05 A2992 RMK AO2 SLP063 T03560050,2024-08-08T00:53:00Z,35.6,5,10+,29.92
KDHN,31.3177,-85.4432,310,5,5.75,KDHN 080053Z 31005KT 10SM CLR 31/22 A2973 RMK AO2 SLP059 T03060217,2024-08-08T00:53:00Z,30.6,21.7,10+,29.73
KDGW,42.796,-105.38,40,14,16.11,KDGW 080053Z AUTO 04014G23KT 10SM CLR 25/11 A3013 RMK AO2 SLP149 T02500106,2024-08-08T00:53:00Z,25,10.6,10+,30.13
KDFW,32.8974,-97.0219,170,8,9.21,KDFW 080053Z 17008KT 10SM CLR 36/18 A2977 RMK AO2 SLP070 T03610178,2024-08-08T00:53:00Z,36.1,17.8,10+,29.77
KDFI,41.3357,-84.4285,30,3,3.45,KDFI 080053Z AUTO 03003KT 10SM CLR 21/16 A2993 RMK AO2 SLP133 T02060161,2024-08-08T00:53:00Z,20.6,16.1,10+,29.93
KDEW,47.9742,-117.429,180,4,4.6,KDEW 080053Z AUTO 18004KT 10SM OVC100 31/06 A3005 RMK AO2 SLP162 T03060061,2024-08-08T00:53:00Z,30.6,6.1,10+,30.05
KDET,42.4072,-83.009,40,7,8.06,KDET 080053Z 04007KT 10SM CLR 23/14 A2995 RMK AO2 SLP139 T02280144,2024-08-08T00:53:00Z,22.8,14.4,10+,29.95
KDEQ,34.048,-94.4016,30,3,3.45,KDEQ 080053Z AUTO 03003KT 10SM CLR 36/17 A2973 RMK AO2 SLP062 T03610172,2024-08-08T00:53:00Z,36.1,17.2,10+,29.73
KDEN,39.8466,-104.656,80,12,13.81,KDEN 080053Z 08012KT 10SM SCT100 BKN160 BKN200 23/12 A3016 RMK AO2 PK WND 03026/2358 SLP136 T02280117,2024-08-08T00:53:00Z,22.8,11.7,10+,30.16
KDCU,34.658,-86.9434,310,8,9.21,KDCU 080053Z AUTO 31008KT 10SM CLR 28/23 A2976 RMK AO2 SLP069 T02830233 $,2024-08-08T00:53:00Z,28.3,23.3,10+,29.76
KDBQ,42.3984,-90.7092,0,0,0.0,KDBQ 080053Z 00000KT 10SM CLR 22/16 A2997 RMK AO2 SLP146 T02170156,2024-08-08T00:53:00Z,21.7,15.6,10+,29.97
KDAL,32.8384,-96.8358,170,5,5.75,KDAL 080053Z 17005KT 10SM CLR 36/18 A2978 RMK AO2 SLP075 T03610178,2024-08-08T00:53:00Z,36.1,17.8,10+,29.78
KDAB,29.1735,-81.0719,210,5,5.75,KDAB 080053Z 21005KT 10SM FEW047 BKN120 BKN200 30/23 A2967 RMK AO2 SLP045 T03000233,2024-08-08T00:53:00Z,30,23.3,10+,29.67
KCYS,41.1579,-104.808,120,10,11.51,KCYS 080053Z 12010KT 10SM CLR 22/13 A3017 RMK AO2 SLP132 T02170133,2024-08-08T00:53:00Z,21.7,13.3,10+,30.17
KCXO,30.3611,-95.4176,0,0,0.0,KCXO 080053Z 00000KT 10SM CLR 30/24 A2979 RMK AO2 SLP083 T03000244,2024-08-08T00:53:00Z,30,24.4,10+,29.79
KCUT,43.7331,-103.615,40,8,9.21,KCUT 080053Z AUTO 04008G18KT 10SM OVC019 17/12 A3022 RMK AO2 SLP175 T01670117,2024-08-08T00:53:00Z,16.7,11.7,10+,30.22
KCUB,33.972,-80.9939,10,6,6.9,KCUB 080053Z AUTO 01006KT 10SM FEW029 OVC039 27/22 A2961 RMK AO2 SLPNO T02720217,2024-08-08T00:53:00Z,27.2,21.7,10+,29.61
KCSM,35.3568,-99.2041,160,13,14.96,KCSM 080053Z 16013KT 10SM CLR 38/13 A2983 RMK AO2 SLP070 T03780133,2024-08-08T00:53:00Z,37.8,13.3,10+,29.83
KCRS,32.0316,-96.3994,140,6,6.9,KCRS 080053Z AUTO 14006KT 10SM CLR 34/20 A2981 RMK AO2 SLP087 T03390200,2024-08-08T00:53:00Z,33.9,20,10+,29.81
KCRQ,33.1299,-117.277,220,6,6.9,KCRQ 080053Z 22006KT 10SM CLR 22/18 A2994 RMK AO2 SLP136 T02170178,2024-08-08T00:53:00Z,21.7,17.8,10+,29.94
KCQC,35.003,-105.663,210,7,8.06,KCQC 080053Z AUTO 21007KT 10SM CLR 30/03 A3021 RMK AO2 SLP117 T03000033 $,2024-08-08T00:53:00Z,30,3.3,10+,30.21
KCPR,42.8978,-106.474,30,22,25.32,KCPR 080053Z 03022G30KT 10SM CLR 24/11 A3015 RMK AO2 PK WND 03030/0053 SLP148 T02390106,2024-08-08T00:53:00Z,23.9,10.6,10+,30.15
KCOT,28.4585,-99.2228,130,11,12.66,KCOT 080053Z AUTO 13011KT 10SM BKN100 BKN120 39/16 A2973 RMK AO2 SLP059 T03940156,2024-08-08T00:53:00Z,39.4,15.6,10+,29.73
KCNO,33.9756,-117.625,260,12,13.81,KCNO 080053Z 26012KT 10SM SCT200 29/16 A2993 RMK AO2 SLP130 T02890161,2024-08-08T00:53:00Z,28.9,16.1,10+,29.93
KCNM,32.3335,-104.258,140,12,13.81,KCNM 080053Z AUTO 14012KT 10SM BKN110 37/03 A2991 RMK AO2 SLP060 T03670028,2024-08-08T00:53:00Z,36.7,2.8,10+,29.91
KCMX,47.1705,-88.4854,0,0,0.0,KCMX 080053Z AUTO 00000KT 10SM BKN095 21/13 A2992 RMK AO2 SLP130 T02110128,2024-08-08T00:53:00Z,21.1,12.8,10+,29.92
KCMI,40.0324,-88.2755,40,7,8.06,KCMI 080053Z 04007KT 10SM BKN042 23/18 A2991 RMK AO2 SLP123 T02330183,2024-08-08T00:53:00Z,23.3,18.3,10+,29.91
KCLM,48.1219,-123.507,300,5,5.75,KCLM 080053Z AUTO 30005KT 10SM CLR 19/13 A3007 RMK AO2 SLP184 T01890128,2024-08-08T00:53:00Z,18.9,12.8,10+,30.07
KCLL,30.5912,-96.3631,140,5,5.75,KCLL 080053Z 14005KT 10SM CLR 33/23 A2978 RMK AO2 SLP079 T03330228,2024-08-08T00:53:00Z,33.3,22.8,10+,29.78
KCKB,39.3022,-80.2239,350,6,6.9,KCKB 080053Z 35006KT 10SM SCT100 26/21 A2985 RMK AO2 SLP090 T02560206,2024-08-08T00:53:00Z,25.6,20.6,10+,29.85
KCHA,35.0336,-85.2004,360,6,6.9,KCHA 080053Z 36006KT 10SM BKN120 BKN250 31/22 A2973 RMK AO2 SLP059 T03060217,2024-08-08T00:53:00Z,30.6,21.7,10+,29.73
KCGI,37.2254,-89.5785,30,9,10.36,KCGI 080053Z AUTO 03009KT 10SM OVC047 24/19 A2986 RMK AO2 SLP107 T02440194,2024-08-08T00:53:00Z,24.4,19.4,10+,29.86
KCEW,30.7771,-86.5194,310,3,3.45,KCEW 080053Z AUTO 31003KT 10SM CLR 30/23 A2972 RMK AO2 SLP059 T03000233,2024-08-08T00:53:00Z,30,23.3,10+,29.72
KCDW,40.8764,-74.2829,70,5,5.75,KCDW 080053Z 07005KT 10SM -RA OVC010 19/17 A3005 RMK AO2 RAB34 SLP179 P0000 T01940167,2024-08-08T00:53:00Z,19.4,16.7,10+,30.05
KCDS,34.4275,-100.284,140,14,16.11,KCDS 080053Z AUTO 14014KT 10SM CLR 38/13 A2980 RMK AO2 SLP058 T03830128,2024-08-08T00:53:00Z,38.3,12.8,10+,29.80
KCDR,42.8374,-103.098,,,,KCDR 080053Z AUTO 10SM BKN075 26/13 A3008 RMK AO2 PK WND 04029/0026 SLP161 T02560133 $,2024-08-08T00:53:00Z,25.6,13.3,10+,30.08
KCCR,37.9916,-122.053,250,10,11.51,KCCR 080053Z 25010KT 10SM CLR 33/03 A2986 RMK AO2 SLP098 T03330028,2024-08-08T00:53:00Z,33.3,2.8,10+,29.86
KBWG,36.9647,-86.4238,VRB,4,4.6,KBWG 080053Z AUTO VRB04KT 10SM BKN043 27/22 A2981 RMK AO2 SLP086 T02670222,2024-08-08T00:53:00Z,26.7,22.2,10+,29.81
KBVY,42.5841,-70.9153,0,0,0.0,KBVY 080053Z 00000KT 10SM CLR 17/14 A3007 RMK AO2 SLP177 T01720144,2024-08-08T00:53:00Z,17.2,14.4,10+,30.07
KBVO,36.7664,-96.0129,80,3,3.45,KBVO 080053Z AUTO 08003KT 10SM CLR 32/17 A2982 RMK AO2 SLP086 T03170167,2024-08-08T00:53:00Z,31.7,16.7,10+,29.82
KBUR,34.1996,-118.365,190,11,12.66,KBUR 080053Z 19011KT 10SM CLR 28/16 A2994 RMK AO2 SLP124 T02780161,2024-08-08T00:53:00Z,27.8,16.1,10+,29.94
KBTR,30.5378,-91.1468,290,4,4.6,KBTR 080053Z AUTO 29004KT 10SM CLR 32/21 A2977 RMK AO2 SLP079 T03220211,2024-08-08T00:53:00Z,32.2,21.1,10+,29.77
KBTM,45.9644,-112.501,90,8,9.21,KBTM 080053Z AUTO 09008KT 040V120 10SM FEW055 SCT070 SCT100 22/08 A3022 RMK AO2 SLP192 T02170083,2024-08-08T00:53:00Z,21.7,8.3,10+,30.22
KBTL,42.3119,-85.2415,50,3,3.45,KBTL 080053Z 05003KT 10SM CLR 22/12 A2997 RMK AO2 SLP142 T02220122,2024-08-08T00:53:00Z,22.2,12.2,10+,29.97
KBRO,25.9146,-97.4231,150,12,13.81,KBRO 080053Z 15012KT 10SM CLR 31/26 A2979 RMK AO2 SLP085 T03060256,2024-08-08T00:53:00Z,30.6,25.6,10+,29.79
KBRL,40.7729,-91.1255,50,4,4.6,KBRL 080053Z AUTO 05004KT 10SM OVC041 23/18 A2994 RMK AO2 SLP133 T02280178,2024-08-08T00:53:00Z,22.8,17.8,10+,29.94
KBPT,29.9521,-94.0262,180,5,5.75,KBPT 080053Z 18005KT 10SM BKN065 32/25 A2978 RMK AO2 SLP083 T03170250,2024-08-08T00:53:00Z,31.7,25,10+,29.78
KBPK,36.3705,-92.4719,100,3,3.45,KBPK 080053Z AUTO 10003KT 10SM CLR 24/18 A2989 RMK AO2 SLP112 T02390183,2024-08-08T00:53:00Z,23.9,18.3,10+,29.89
KBPI,42.578,-110.11,310,11,12.66,KBPI 080053Z AUTO 31011G17KT 10SM CLR 26/M05 A3025 RMK AO2 SLP151 T02561050,2024-08-08T00:53:00Z,25.6,-5,10+,30.25
KBOI,43.567,-116.241,330,10,11.51,KBOI 080053Z 33010G19KT 10SM CLR 33/M06 A2998 RMK AO2 SLP120 T03281056,2024-08-08T00:53:00Z,32.8,-5.6,10+,29.98
KBNO,43.5949,-118.958,240,7,8.06,KBNO 080053Z AUTO 24007KT 10SM CLR 31/M01 A3007 RMK AO2 SLP147 T03111011,2024-08-08T00:53:00Z,31.1,-1.1,10+,30.07
KBNA,36.1105,-86.6881,10,7,8.06,KBNA 080053Z 01007KT 10SM OVC033 26/21 A2981 RMK AO2 SLP087 T02610211,2024-08-08T00:53:00Z,26.1,21.1,10+,29.81
KBMQ,30.7407,-98.2354,90,5,5.75,KBMQ 080053Z AUTO 09005KT 10SM CLR 36/19 A2982 RMK AO2 SLP076 T03560194,2024-08-08T00:53:00Z,35.6,19.4,10+,29.82
KBMG,39.1432,-86.6168,10,4,4.6,KBMG 080053Z 01004KT 10SM CLR 24/19 A2987 RMK AO2 SLP106 T02390194,2024-08-08T00:53:00Z,23.9,19.4,10+,29.87
KBLI,48.7991,-122.541,320,4,4.6,KBLI 080053Z 32004KT 10SM CLR 24/16 A3004 RMK AO2 SLP176 T02440156,2024-08-08T00:53:00Z,24.4,15.6,10+,30.04
KBKL,41.5173,-81.6832,,,,KBKL 080053Z A2991 RMK AO2 SLPNO $,2024-08-08T00:53:00Z,,,,29.91
KBKE,44.843,-117.81,340,9,10.36,KBKE 080053Z AUTO 34009KT 10SM CLR 32/07 A3005 RMK AO2 SLP151 T03170067,2024-08-08T00:53:00Z,31.7,6.7,10+,30.05
KBIV,42.7463,-86.0968,0,0,0.0,KBIV 080053Z AUTO 00000KT 10SM CLR 21/14 A2996 RMK AO2 SLP142 T02060144 $,2024-08-08T00:53:00Z,20.6,14.4,10+,29.96
KBHM,33.5655,-86.7449,0,0,0.0,KBHM 080053Z 00000KT 7SM FEW065 FEW100 29/26 A2976 RMK AO2 SLP067 T02890256,2024-08-08T00:53:00Z,28.9,25.6,7,29.76
KBGR,44.7979,-68.8195,190,4,4.6,KBGR 080053Z 19004KT 10SM FEW085 19/14 A3004 RMK AO2 SLP169 T01940144 $,2024-08-08T00:53:00Z,19.4,14.4,10+,30.04
KBFM,30.6147,-88.063,270,3,3.45,KBFM 080053Z 27003KT 10SM CLR 31/21 A2973 RMK AO2 SLP068 T03110211,2024-08-08T00:53:00Z,31.1,21.1,10+,29.73
KBFI,47.5455,-122.315,310,6,6.9,KBFI 080053Z 31006KT 10SM CLR 26/14 A3003 RMK AO2 SLP168 T02610139,2024-08-08T00:53:00Z,26.1,13.9,10+,30.03
KBFD,41.7984,-78.6354,90,6,6.9,KBFD 080053Z AUTO 09006KT 10SM OVC019 21/18 A3002 RMK AO2 SLP152 T02060178,2024-08-08T00:53:00Z,20.6,17.8,10+,30.02
KBEH,42.129,-86.4152,0,0,0.0,KBEH 080053Z AUTO 00000KT 10SM CLR 21/15 A2995 RMK AO2 SLP137 T02110150 $,2024-08-08T00:53:00Z,21.1,15,10+,29.95
KBDE,48.7261,-94.6122,310,12,13.81,KBDE 080053Z AUTO 31012KT 10SM FEW032 SCT039 BKN065 20/13 A2990 RMK AO2 SLP124 T02000133,2024-08-08T00:53:00Z,20,13.3,10+,29.90
KBCE,37.7013,-112.149,300,5,5.75,KBCE 080053Z AUTO 30005KT 10SM BKN110 25/06 A3031 RMK AO2 LTG DSNT SW AND W SLP143 T02500056,2024-08-08T00:53:00Z,25,5.6,10+,30.31
KBBW,41.4365,-99.6385,,,,KBBW 080053Z AUTO 10SM CLR 27/21 A2994 RMK AO2 SLP118 T02720211 $,2024-08-08T00:53:00Z,27.2,21.1,10+,29.94
KAZO,42.2283,-85.546,VRB,3,3.45,KAZO 080053Z VRB03KT 10SM CLR 23/13 A2996 RMK AO2 SLP142 T02280133 $,2024-08-08T00:53:00Z,22.8,13.3,10+,29.96
KAWM,35.1401,-90.2359,360,5,5.75,KAWM 080053Z AUTO 36005KT 10SM SCT041 24/19 A2982 RMK AO2 SLP093 T02390194,2024-08-08T00:53:00Z,23.9,19.4,10+,29.82
KAUS,30.2099,-97.6806,120,8,9.21,KAUS 080053Z 12008KT 10SM FEW080 35/22 A2976 RMK AO2 SLP064 T03500222 $,2024-08-08T00:53:00Z,35,22.2,10+,29.76
KAUG,44.3161,-69.797,200,3,3.45,KAUG 080053Z AUTO 20003KT 10SM CLR 19/14 A3006 RMK AO2 SLP179 T01890139,2024-08-08T00:53:00Z,18.9,13.9,10+,30.06
KASX,46.5468,-90.9184,0,0,0.0,KASX 080053Z AUTO 00000KT 8SM -RA OVC110 17/16 A2994 RMK AO2 SLP140 P0006 T01720161,2024-08-08T00:53:00Z,17.2,16.1,8,29.94
KASD,30.3436,-89.8224,0,0,0.0,KASD 080053Z AUTO 00000KT 10SM CLR 31/25 A2975 RMK AO2 SLP073 T03110250,2024-08-08T00:53:00Z,31.1,25,10+,29.75
KARB,42.2239,-83.7398,30,3,3.45,KARB 080053Z AUTO 03003KT 10SM CLR 21/13 A2995 RMK AO2 SLP138 T02060133,2024-08-08T00:53:00Z,20.6,13.3,10+,29.95
KARA,30.0292,-91.8845,340,3,3.45,KARA 080053Z 34003KT 10SM FEW060 32/23 A2977 RMK AO2 SLP080 T03170233,2024-08-08T00:53:00Z,31.7,23.3,10+,29.77
KAPF,26.155,-81.7751,250,7,8.06,KAPF 080053Z 25007KT 10SM SCT032 BKN095 30/ A2977 RMK AO2 SLP080 T0300,2024-08-08T00:53:00Z,30,,10+,29.77
KAPA,39.5599,-104.848,60,8,9.21,KAPA 080053Z 06008G22KT 10SM SCT120 BKN140 23/13 A3021 RMK AO2 PK WND 07027/0038 SLP155 OCNL LTGICCG DSNT S-W CB DSNT S-W MOV E T02280133,2024-08-08T00:53:00Z,22.8,13.3,10+,30.21
KANB,33.5904,-85.8479,0,0,0.0,KANB 080053Z AUTO 00000KT 10SM CLR 28/24 A2973 RMK AO2 SLP055 T02780239,2024-08-08T00:53:00Z,27.8,23.9,10+,29.73
KAMW,41.9905,-93.6185,130,4,4.6,KAMW 080053Z AUTO 13004KT 10SM CLR 23/18 A2993 RMK AO2 SLP129 T02330183,2024-08-08T00:53:00Z,23.3,18.3,10+,29.93
KAMG,31.5401,-82.5074,0,0,0.0,KAMG 080053Z AUTO 00000KT 10SM BKN055 OVC080 26/24 A2964 RMK AO2 RAB01E11 SLP033 P0000 T02610244,2024-08-08T00:53:00Z,26.1,24.4,10+,29.64
KAMA,35.2203,-101.717,190,11,12.66,KAMA 080053Z 19011KT 10SM CLR 38/06 A2993 RMK AO2 SLP064 T03780056,2024-08-08T00:53:00Z,37.8,5.6,10+,29.93
KALW,46.0946,-118.286,0,0,0.0,KALW 080053Z 00000KT 10SM CLR 33/06 A2996 RMK AO2 SLP135 T03280061,2024-08-08T00:53:00Z,32.8,6.1,10+,29.96
KALI,27.7413,-98.0251,150,11,12.66,KALI 080053Z AUTO 15011KT 10SM CLR 33/23 A2976 RMK AO2 WSHFT 2343 SLP076 T03330228,2024-08-08T00:53:00Z,33.3,22.8,10+,29.76
KAKO,40.1743,-103.215,320,21,24.17,KAKO 080053Z AUTO 32021G29KT 10SM SCT110 23/12 A3012 RMK AO2 PK WND 33029/0053 RAB2355E49 SLP146 P0000 T02280122,2024-08-08T00:53:00Z,22.8,12.2,10+,30.12
KAGS,33.3652,-81.9635,350,11,12.66,KAGS 080053Z 35011KT 10SM CLR 27/23 A2962 RMK AO2 SLP028 T02720228,2024-08-08T00:53:00Z,27.2,22.8,10+,29.62
KAGC,40.3551,-79.9215,70,6,6.9,KAGC 080053Z 07006KT 10SM SCT015 23/19 A2990 RMK AO2 SLP120 T02280189,2024-08-08T00:53:00Z,22.8,18.9,10+,29.90
KAFW,32.99,-97.32,130,5,5.75,KAFW 080053Z 13005KT 10SM CLR 37/16 A2979 RMK AO2 SLP067 T03670161,2024-08-08T00:53:00Z,36.7,16.1,10+,29.79
KAEX,31.3346,-92.5585,0,0,0.0,KAEX 080053Z 00000KT 10SM CLR 31/25 A2977 RMK AO2 SLP083 T03110250,2024-08-08T00:53:00Z,31.1,25,10+,29.77
KACV,40.9784,-124.105,270,5,5.75,KACV 080053Z AUTO 27005KT 8SM CLR 15/11 A2995 RMK AO2 SLP146 T01500111,2024-08-08T00:53:00Z,15,11.1,8,29.95
KACK,41.2541,-70.0589,40,7,8.06,KACK 080053Z 04007KT 10SM BKN049 OVC100 17/14 A3006 RMK AO2 SLP180 T01670144,2024-08-08T00:53:00Z,16.7,14.4,10+,30.06
KABY,31.5364,-84.1958,300,3,3.45,KABY 080053Z AUTO 30003KT 10SM CLR 31/22 A2968 RMK AO2 SLP048 T03110222 $,2024-08-08T00:53:00Z,31.1,22.2,10+,29.68
KAAF,29.7268,-85.0248,290,5,5.75,KAAF 080053Z AUTO 29005KT 10SM CLR 30/26 A2969 RMK AO2 SLP053 T03000256,2024-08-08T00:53:00Z,30,25.6,10+,29.69
RJTX,35.295,139.679,20,6,6.9,RJTX 080052Z AUTO 02006KT BKN037 BKN100 28/24 A2969 RMK AO2 SLP097 T02830244 $,2024-08-08T00:52:00Z,28.3,24.4,,29.69
PKMR,7.09,171.383,80,4,4.6,PKMR 080052Z 08004KT 15SM FEW015 SCT050 BKN120 OVC300 30/24 A2984 RMK SLP107 T02950244,2024-08-08T00:52:00Z,29.5,24.4,15,29.84
PATA,65.173,-152.107,0,0,0.0,PATA 080052Z 00000KT 10SM FEW045 BKN100 OVC160 19/16 A2983 RMK AO2 RAB2358E11B31E33 SLP104 P0000 T01940156 $,2024-08-08T00:52:00Z,19.4,15.6,10+,29.83
PAOO,60.537,-165.089,170,9,10.36,PAOO 080052Z AUTO 17009KT 10SM SCT019 BKN024 OVC047 12/09 A2974 RMK AO2 TSNO $,2024-08-08T00:52:00Z,12,9,10+,29.74
PABA,70.135,-143.585,60,8,9.21,PABA 080052Z AUTO 06008KT 9SM CLR 17/12 A2972 RMK AO2 SLP069 T01670122,2024-08-08T00:52:00Z,16.7,12.2,9,29.72
KVTN,42.8585,-100.551,10,16,18.41,KVTN 080052Z AUTO 01016G23KT 10SM SCT050 26/16 A3002 RMK AO2 PK WND 01028/0003 SLP147 T02560156,2024-08-08T00:52:00Z,25.6,15.6,10+,30.02
KTRM,33.6317,-116.164,130,11,12.66,KTRM 080052Z AUTO 13011KT 10SM CLR 38/23 A2973 RMK AO2 SLP071 T03780233,2024-08-08T00:52:00Z,37.8,23.3,10+,29.73
KTOL,41.5871,-83.8054,70,8,9.21,KTOL 080052Z 07008KT 10SM CLR 23/16 A2993 RMK AO2 SLP133 T02280161 $,2024-08-08T00:52:00Z,22.8,16.1,10+,29.93
KTAN,41.8756,-71.0208,110,4,4.6,KTAN 080052Z AUTO 11004KT 10SM BKN120 19/15 A3006 RMK AO2 SLP181 T01890150,2024-08-08T00:52:00Z,18.9,15,10+,30.06
KSUX,42.3917,-96.3795,140,5,5.75,KSUX 080052Z 14005KT 10SM CLR 26/19 A2990 RMK AO2 SLP119 T02610189,2024-08-08T00:52:00Z,26.1,18.9,10+,29.90
KSPS,33.9785,-98.493,130,8,9.21,KSPS 080052Z 13008KT 10SM CLR 37/16 A2978 RMK AO2 SLP066 T03720161,2024-08-08T00:52:00Z,37.2,16.1,10+,29.78
KSPI,39.8453,-89.684,10,5,5.75,KSPI 080052Z 01005KT 10SM OVC050 23/19 A2991 RMK AO2 SLP124 T02280194,2024-08-08T00:52:00Z,22.8,19.4,10+,29.91
KSGF,37.2398,-93.39,30,6,6.9,KSGF 080052Z 03006KT 10SM CLR 27/18 A2989 RMK AO2 SLP110 T02670183,2024-08-08T00:52:00Z,26.7,18.3,10+,29.89
KREO,42.5902,-117.865,360,8,9.21,KREO 080052Z AUTO 36008KT 33/M01 A3003 RMK AO1 SLP132 T03281011,2024-08-08T00:52:00Z,32.8,-1.1,,30.03
KRAP,44.0458,-103.054,40,11,12.66,KRAP 080052Z 04011KT 10SM FEW036 OVC050 21/14 A3013 RMK AO2 RAE32 SLP182 P0000 T02110139,2024-08-08T00:52:00Z,21.1,13.9,10+,30.13
KPYM,41.9085,-70.7278,70,4,4.6,KPYM 080052Z AUTO 07004KT 10SM OVC120 18/15 A3007 RMK AO2 SLP183 T01780150,2024-08-08T00:52:00Z,17.8,15,10+,30.07
KPWK,42.1208,-87.9048,60,4,4.6,KPWK 080052Z 06004KT 10SM CLR 22/15 A2996 RMK AO2 SLP141 T02170150 $,2024-08-08T00:52:00Z,21.7,15,10+,29.96
KPPF,37.3281,-95.5044,VRB,3,3.45,KPPF 080052Z AUTO VRB03KT 10SM CLR 31/17 A2985 RMK AO2 SLP098 T03110172,2024-08-08T00:52:00Z,31.1,17.2,10+,29.85
KP69,46.144,-115.597,0,0,0.0,KP69 080052Z AUTO 00000KT 27/13 A2996 RMK AO1 SLP128 T02720133,2024-08-08T00:52:00Z,27.2,13.3,,29.96
KORE,42.57,-72.287,0,0,0.0,KORE 080052Z AUTO 00000KT 10SM CLR 17/16 A3008 RMK AO2 SLP187 T01720156,2024-08-08T00:52:00Z,17.2,15.6,10+,30.08
KOMA,41.3119,-95.9018,110,9,10.36,KOMA 080052Z 11009KT 10SM SCT180 27/18 A2990 RMK AO2 SLP119 T02670183,2024-08-08T00:52:00Z,26.7,18.3,10+,29.90
KOKC,35.3843,-97.6003,150,8,9.21,KOKC 080052Z 15008KT 10SM SCT250 36/18 A2981 RMK AO2 SLP076 T03560178,2024-08-08T00:52:00Z,35.6,17.8,10+,29.81
KOKB,33.2195,-117.35,260,7,8.06,KOKB 080052Z AUTO 26007KT 6SM HZ CLR 23/18 A2994 RMK AO2 SLP137 T02330183,2024-08-08T00:52:00Z,23.3,18.3,6,29.94
KNZY,32.6922,-117.21,210,6,6.9,KNZY 080052Z 21006KT 10SM FEW008 FEW012 SCT150 BKN220 24/19 A2994 RMK AO2 SLP137 T02440189 $,2024-08-08T00:52:00Z,24.4,18.9,10+,29.94
KNHK,38.284,-76.408,130,10,11.51,KNHK 080052Z 13010G18KT 10SM -RA BKN015 BKN022 BKN280 27/23 A2989 RMK AO2 SLP120 P0000 T02720228 $,2024-08-08T00:52:00Z,27.2,22.8,10+,29.89
KNFW,32.781,-97.436,130,7,8.06,KNFW 080052Z 13007KT 10SM CLR 37/14 A2979 RMK AO2 SLP072 T03720144 $,2024-08-08T00:52:00Z,37.2,14.4,10+,29.79
KMWH,47.193,-119.315,VRB,4,4.6,KMWH 080052Z VRB04G17KT 10SM CLR 34/06 A2997 RMK AO2 SLP141 T03390061,2024-08-08T00:52:00Z,33.9,6.1,10+,29.97
KMLI,41.4482,-90.5237,120,3,3.45,KMLI 080052Z 12003KT 10SM CLR 23/16 A2993 RMK AO2 SLP132 T02280161,2024-08-08T00:52:00Z,22.8,16.1,10+,29.93
KMLF,38.4225,-113.011,200,12,13.81,KMLF 080052Z AUTO 20012KT 10SM CLR 32/12 A3004 RMK AO2 SLP096 T03170117,2024-08-08T00:52:00Z,31.7,11.7,10+,30.04
KMKE,42.9549,-87.9045,40,4,4.6,KMKE 080052Z 04004KT 10SM FEW250 21/14 A2995 RMK AO2 SLP139 T02060139,2024-08-08T00:52:00Z,20.6,13.9,10+,29.95
KMHK,39.1346,-96.6789,70,9,10.36,KMHK 080052Z 07009KT 10SM CLR 28/19 A2988 RMK AO2 SLP108 T02830194,2024-08-08T00:52:00Z,28.3,19.4,10+,29.88
KMFD,40.8204,-82.5177,20,6,6.9,KMFD 080052Z 02006KT 10SM FEW021 FEW029 OVC036 22/18 A2992 RMK AO2 SLP124 T02220178,2024-08-08T00:52:00Z,22.2,17.8,10+,29.92
KMDH,37.7833,-89.2453,10,5,5.75,KMDH 080052Z 01005KT 10SM OVC030 23/19 A2987 RMK AO2 SLP113 T02280189,2024-08-08T00:52:00Z,22.8,18.9,10+,29.87
KMBG,45.543,-100.404,350,9,10.36,KMBG 080052Z AUTO 35009KT 10SM BKN047 20/13 A3006 RMK AO2 SLP174 T02000128,2024-08-08T00:52:00Z,20,12.8,10+,30.06
KLWC,39.0078,-95.2115,50,6,6.9,KLWC 080052Z AUTO 05006KT 10SM CLR 28/19 A2988 RMK AO1 SLP111 T02780194,2024-08-08T00:52:00Z,27.8,19.4,10+,29.88
KIOW,41.6394,-91.5445,0,0,0.0,KIOW 080052Z AUTO 00000KT 10SM CLR 24/14 A2996 RMK AO2 SLP140 T02390144,2024-08-08T00:52:00Z,23.9,14.4,10+,29.96
KIJD,41.7425,-72.1825,0,0,0.0,KIJD 080052Z AUTO 00000KT 10SM CLR 17/16 A3007 RMK AO2 SLP180 T01720161,2024-08-08T00:52:00Z,17.2,16.1,10+,30.07
KIEN,43.0261,-102.52,30,13,14.96,KIEN 080052Z AUTO 03013G22KT 10SM FEW060 24/13 A3008 RMK AO2 PK WND 05027/0006 SLP158 T02440133,2024-08-08T00:52:00Z,24.4,13.3,10+,30.08
KIAD,38.9348,-77.4473,150,6,6.9,KIAD 080052Z 15006KT 10SM TS FEW023 BKN050CB OVC200 27/23 A2988 RMK AO2 TSB50 SLP115 OCNL LTGIC W-NW TS W-NW MOV E T02670228,2024-08-08T00:52:00Z,26.7,22.8,10+,29.88
KHUT,38.0682,-97.8607,100,9,10.36,KHUT 080052Z 10009KT 10SM CLR 33/18 A2982 RMK AO2 SLP075 T03280183,2024-08-08T00:52:00Z,32.8,18.3,10+,29.82
KHRL,26.2303,-97.6556,140,10,11.51,KHRL 080052Z 14010KT 10SM CLR 31/24 A2977 RMK AO2 SLP080 T03110239,2024-08-08T00:52:00Z,31.1,23.9,10+,29.77
KHIE,44.3659,-71.5522,0,0,0.0,KHIE 080052Z AUTO 00000KT 10SM CLR 16/13 A3007 RMK AO2 SLP184 T01560133,2024-08-08T00:52:00Z,15.6,13.3,10+,30.07
KGLS,29.2704,-94.8642,180,9,10.36,KGLS 080052Z AUTO 18009KT 10SM CLR 31/26 A2980 RMK AO2 SLP091 T03110261 $,2024-08-08T00:52:00Z,31.1,26.1,10+,29.80
KGEU,33.528,-112.293,200,6,6.9,KGEU 080052Z 20006KT 10SM FEW110 SCT150 39/14 A2979,2024-08-08T00:52:00Z,39,14,10+,29.79
KFIT,42.5549,-71.757,0,0,0.0,KFIT 080052Z AUTO 00000KT 10SM CLR 18/17 A3008 RMK AO2 SLP186 T01830167,2024-08-08T00:52:00Z,18.3,16.7,10+,30.08
KEST,43.4008,-94.7476,180,5,5.75,KEST 080052Z AUTO 18005KT 10SM OVC043 23/18 A2992 RMK AO2 SLP129 T02330178,2024-08-08T00:52:00Z,23.3,17.8,10+,29.92
KDVN,41.6133,-90.5948,50,5,5.75,KDVN 080052Z AUTO 05005KT 10SM CLR 22/17 A2996 RMK AO2 SLP139 T02170167,2024-08-08T00:52:00Z,21.7,16.7,10+,29.96
KDPA,41.8964,-88.2512,60,5,5.75,KDPA 080052Z 06005KT 10SM CLR 21/13 A2994 RMK AO2 SLP134 T02110128,2024-08-08T00:52:00Z,21.1,12.8,10+,29.94
KDDC,37.7711,-99.9692,120,6,6.9,KDDC 080052Z AUTO 12006KT 8SM CLR 33/18 A2985 RMK AO2 SLP071 T03330183,2024-08-08T00:52:00Z,33.3,18.3,8,29.85
KCVG,39.0444,-84.6724,30,11,12.66,KCVG 080052Z 03011KT 10SM FEW030 26/19 A2984 RMK AO2 SLP095 T02610194,2024-08-08T00:52:00Z,26.1,19.4,10+,29.84
KCQX,41.6878,-69.9932,,,,KCQX 080052Z AUTO A3008 RMK AO2 SLPNO PWINO $,2024-08-08T00:52:00Z,,,,30.08
KCNU,37.6705,-95.4846,90,4,4.6,KCNU 080052Z AUTO 09004KT 10SM CLR 32/17 A2986 RMK AO2 SLP100 T03170167,2024-08-08T00:52:00Z,31.7,16.7,10+,29.86
KCLT,35.2225,-80.9543,30,9,10.36,KCLT 080052Z 03009KT 10SM FEW025 FEW110 BKN250 27/22 A2974 RMK AO2 SLP074 T02670222 $,2024-08-08T00:52:00Z,26.7,22.2,10+,29.74
KCKV,36.6169,-87.4118,350,5,5.75,KCKV 080052Z AUTO 35005KT 10SM FEW023 24/21 A2981 RMK AO2 SLP088 T02440206,2024-08-08T00:52:00Z,24.4,20.6,10+,29.81
KCID,41.8829,-91.7246,0,0,0.0,KCID 080052Z 00000KT 10SM CLR 22/17 A2995 RMK AO2 SLP139 T02220167,2024-08-08T00:52:00Z,22.2,16.7,10+,29.95
KCFV,37.0912,-95.5726,90,6,6.9,KCFV 080052Z AUTO 09006KT 10SM CLR 31/17 A2982 RMK AO2 SLP089 T03110172,2024-08-08T00:52:00Z,31.1,17.2,10+,29.82
KBML,44.576,-71.1782,0,0,0.0,KBML 080052Z AUTO 00000KT 10SM CLR 15/13 A3008 RMK AO2 SLP187 T01500128 $,2024-08-08T00:52:00Z,15,12.8,10+,30.08
KBLU,39.2762,-120.709,VRB,6,6.9,KBLU 080052Z AUTO VRB06KT 10SM CLR 29/02 A3023 RMK AO2 SLP111 T02890017 TSNO,2024-08-08T00:52:00Z,28.9,1.7,10+,30.23
KBLH,33.6188,-114.715,210,12,13.81,KBLH 080052Z AUTO 21012KT 10SM FEW110 40/17 A2977 RMK AO2 SLP074 T04000167,2024-08-08T00:52:00Z,40,16.7,10+,29.77
KBLF,37.2978,-81.2036,130,5,5.75,KBLF 080052Z AUTO 13005KT 10SM CLR 24/18 A2991 RMK AO2 LTG DSNT W AND NW SLP091 T02390183 $,2024-08-08T00:52:00Z,23.9,18.3,10+,29.91
KBIS,46.7823,-100.757,330,9,10.36,KBIS 080052Z AUTO 33009KT 10SM OVC110 18/09 A3010 RMK AO2 SLP190 T01830094,2024-08-08T00:52:00Z,18.3,9.4,10+,30.10
KBDR,41.1642,-73.1266,40,8,9.21,KBDR 080052Z 04008KT 10SM -RA BKN021 OVC025 19/17 A3005 RMK AO2 RAB16 SLP175 P0000 T01940172,2024-08-08T00:52:00Z,19.4,17.2,10+,30.05
KBAN,38.355,-119.522,,,,KBAN 080052Z AUTO 10SM CLR 29/04 A3027 RMK AO2 SLP143 T02890044,2024-08-08T00:52:00Z,28.9,4.4,10+,30.27
KATL,33.6297,-84.4422,320,9,10.36,KATL 080052Z 32009KT 10SM FEW060 FEW250 31/20 A2972 RMK AO2 SLP051 T03110200,2024-08-08T00:52:00Z,31.1,20,10+,29.72
KARR,41.7713,-88.4815,30,4,4.6,KARR 080052Z 03004KT 10SM CLR 21/13 A2994 RMK AO2 SLP134 T02110128,2024-08-08T00:52:00Z,21.1,12.8,10+,29.94
KAQW,42.6973,-73.1696,0,0,0.0,KAQW 080052Z AUTO 00000KT 10SM CLR 17/14 A3007 RMK AO2 SLP183 T01720144 $,2024-08-08T00:52:00Z,17.2,14.4,10+,30.07
KALS,37.4393,-105.862,120,12,13.81,KALS 080052Z AUTO 12012KT 10SM CLR 22/10 A3030 RMK AO2 SLP171 T02220100,2024-08-08T00:52:00Z,22.2,10,10+,30.30
KAFN,42.8067,-72.0013,,,,KAFN 080052Z AUTO 10SM A3010 RMK AO2 SLPNO $,2024-08-08T00:52:00Z,,,10+,30.10
KABQ,35.0419,-106.615,170,7,8.06,KABQ 080052Z 17007KT 10SM FEW120 FEW250 34/05 A3003 RMK AO2 LTG DSNT W AND NW SLP074 T03440050,2024-08-08T00:52:00Z,34.4,5,10+,30.03
PTYA,9.487,138.077,100,7,8.06,PTYA 080051Z 10007KT 12SM SCT017 SCT140 BKN300 31/26 A2987 RMK SLP117 T03090264,2024-08-08T00:51:00Z,30.9,26.4,12,29.87
PTKK,7.462,151.843,VRB,4,4.6,PTKK 080051Z VRB04KT 15SM SCT014 SCT300 32/27 A2984 RMK SLP108 T03170269,2024-08-08T00:51:00Z,31.7,26.9,15,29.84
PHBK,22.034,-159.783,250,6,6.9,PHBK 080051Z AUTO 25006KT 10SM CLR 31/22 A3003 RMK AO2 SLP170 T03110217 $,2024-08-08T00:51:00Z,31.1,21.7,10+,30.03
MUGM,19.909,-75.206,220,11,12.66,MUGM 080051Z 22011KT 10SM FEW030 BKN250 31/26 A2989 RMK AO2 SLP122 T03060256 $,2024-08-08T00:51:00Z,30.6,25.6,10+,29.89
KYNG,41.2548,-80.6736,60,7,8.06,KYNG 080051Z 06007KT 10SM BKN029 23/18 A2994 RMK AO2 SLP133 T02280183,2024-08-08T00:51:00Z,22.8,18.3,10+,29.94
KXWA,48.2542,-103.747,360,14,16.11,KXWA 080051Z AUTO 36014KT 10SM CLR 19/02 A3018 RMK AO2 SLP224 T01890017,2024-08-08T00:51:00Z,18.9,1.7,10+,30.18
KVNY,34.2121,-118.491,170,12,13.81,KVNY 080051Z 17012KT 10SM CLR 29/14 A2992 RMK AO2 SLP123 T02890144,2024-08-08T00:51:00Z,28.9,14.4,10+,29.92
KVCT,28.8624,-96.9301,160,11,12.66,KVCT 080051Z 16011KT 10SM CLR 32/24 A2978 RMK AO2 SLP081 T03170244,2024-08-08T00:51:00Z,31.7,24.4,10+,29.78
KUGN,42.4255,-87.8634,40,3,3.45,KUGN 080051Z 04003KT 10SM CLR 20/14 A2995 RMK AO2 SLP131 LAST T02000144,2024-08-08T00:51:00Z,20,14.4,10+,29.95
KTPL,31.157,-97.4094,110,10,11.51,KTPL 080051Z AUTO 11010KT 10SM CLR 34/22 A2980 RMK AO2 SLP078 T03440217,2024-08-08T00:51:00Z,34.4,21.7,10+,29.80
KTEB,40.859,-74.0562,50,4,4.6,KTEB 080051Z 05004KT 10SM -DZ OVC013 19/17 A3003 RMK AO2 SLP169 P0000 T01940172,2024-08-08T00:51:00Z,19.4,17.2,10+,30.03
KSTL,38.7524,-90.3734,360,6,6.9,KSTL 080051Z 36006KT 10SM FEW023 OVC041 24/18 A2991 RMK AO2 SLP117 T02390183,2024-08-08T00:51:00Z,23.9,18.3,10+,29.91
KSNT,44.1708,-114.927,290,4,4.6,KSNT 080051Z AUTO 29004KT 25/02 A3021 RMK AO1 SLP146 T02500022,2024-08-08T00:51:00Z,25,2.2,,30.21
KSMX,34.894,-120.452,310,8,9.21,KSMX 080051Z 31008KT 7SM CLR 22/16 A2996 RMK AO2 SLP145 T02220156,2024-08-08T00:51:00Z,22.2,15.6,7,29.96
KSLK,44.3928,-74.2029,30,3,3.45,KSLK 080051Z AUTO 03003KT 10SM CLR 16/12 A3008 RMK AO2 SLP183 T01560117,2024-08-08T00:51:00Z,15.6,11.7,10+,30.08
KSJT,31.3517,-100.495,80,6,6.9,KSJT 080051Z AUTO 08006KT 10SM CLR 39/09 A2981,2024-08-08T00:51:00Z,39,9,10+,29.81
KSDB,34.7433,-118.725,180,9,10.36,KSDB 080051Z AUTO 18009G17KT 10SM CLR 28/09 A3014 RMK AO2 SLP145 T02780094,2024-08-08T00:51:00Z,27.8,9.4,10+,30.14
KSAT,29.5443,-98.4839,120,11,12.66,KSAT 080051Z 12011KT 10SM FEW080 36/20 A2977 RMK AO2 SLP061 T03610200 $,2024-08-08T00:51:00Z,36.1,20,10+,29.77
KSAN,32.7365,-117.197,VRB,5,5.75,KSAN 080051Z VRB05KT 10SM FEW012 BKN150 BKN200 22/18 A2996 RMK AO2 SLP144 T02220183,2024-08-08T00:51:00Z,22.2,18.3,10+,29.96
KSAD,32.8565,-109.636,320,19,21.86,KSAD 080051Z AUTO 32019G25KT 10SM CLR 29/17 A2997 RMK AO2 PK WND 30031/2354 LTG DSNT E-S SLP094 T02890167,2024-08-08T00:51:00Z,28.9,16.7,10+,29.97
KROW,33.3074,-104.508,150,9,10.36,KROW 080051Z 15009KT 10SM CLR 38/06 A2991 RMK AO2 SLP052 T03830056 $,2024-08-08T00:51:00Z,38.3,5.6,10+,29.91
KRDU,35.8923,-78.782,50,9,10.36,KRDU 080051Z 05009KT 10SM BKN015 BKN025 BKN050 OVC210 26/23 A2977 RMK AO2 SLP073 T02610233,2024-08-08T00:51:00Z,26.1,23.3,10+,29.77
KPWM,43.6424,-70.3044,200,4,4.6,KPWM 080051Z 20004KT 10SM CLR 18/15 A3007 RMK AO2 SLP181 T01780150,2024-08-08T00:51:00Z,17.8,15,10+,30.07
KPVD,41.7225,-71.4325,110,4,4.6,KPVD 080051Z 11004KT 10SM FEW025 SCT050 SCT110 17/16 A3007 RMK AO2 SLP182 T01720156,2024-08-08T00:51:00Z,17.2,15.6,10+,30.07
KPHX,33.4278,-112.004,190,9,10.36,KPHX 080051Z 19009KT 10SM FEW090 SCT180 SCT210 BKN250 39/17 A2981 RMK AO2 SLP074 CB DSNT N-NE AND S T03890167,2024-08-08T00:51:00Z,38.9,16.7,10+,29.81
KP59,47.467,-87.875,250,3,3.45,KP59 080051Z AUTO 25003KT 21/12 A2990 RMK AO1 SLP122 T02060122,2024-08-08T00:51:00Z,20.6,12.2,,29.90
KORD,41.9602,-87.9316,80,9,10.36,KORD 080051Z 08009KT 10SM FEW160 FEW250 22/14 A2993 RMK AO2 SLP133 T02220144,2024-08-08T00:51:00Z,22.2,14.4,10+,29.93
KOCF,29.1636,-82.221,220,6,6.9,KOCF 080051Z AUTO 22006KT 10SM CLR 28/25 A2969 RMK AO2 SLP053 T02830250,2024-08-08T00:51:00Z,28.3,25,10+,29.69
KNBT,35.022,-76.463,110,12,13.81,KNBT 080051Z AUTO 11012G21KT 10SM SCT021 BKN043 OVC090 31/27 A2975 RMK AO2 RAB29E43 SLP079 T03110272 PNO $,2024-08-08T00:51:00Z,31.1,27.2,10+,29.75
KMYL,44.8943,-116.1,310,8,9.21,KMYL 080051Z AUTO 31008KT 10SM CLR 27/01 A3014 RMK AO2 SLP163 T02670006,2024-08-08T00:51:00Z,26.7,0.6,10+,30.14
KMPV,44.205,-72.5655,0,0,0.0,KMPV 080051Z AUTO 00000KT 10SM CLR 16/13 A3011 RMK AO2 SLP197 T01610128,2024-08-08T00:51:00Z,16.1,12.8,10+,30.11
KLGA,40.7794,-73.8803,70,11,12.66,KLGA 080051Z 07011KT 10SM -RA BKN013 BKN022 BKN042 OVC130 19/16 A3004 RMK AO2 RAB21 SLP171 P0000 T01940161,2024-08-08T00:51:00Z,19.4,16.1,10+,30.04
KJFK,40.6392,-73.7639,60,10,11.51,KJFK 080051Z 06010KT 10SM OVC012 19/18 A3004 RMK AO2 SLP173 T01940178,2024-08-08T00:51:00Z,19.4,17.8,10+,30.04
KILG,39.6744,-75.6057,60,13,14.96,KILG 080051Z AUTO 06013KT 9SM -RA OVC008 21/20 A2997 RMK AO2 CIG 006V012 SLP148 P0001 T02060200,2024-08-08T00:51:00Z,20.6,20,9,29.97
KIGM,35.2575,-113.934,250,14,16.11,KIGM 080051Z AUTO 25014G22KT 10SM CLR 33/14 A3001 RMK AO2 SLP082 T03330144,2024-08-08T00:51:00Z,33.3,14.4,10+,30.01
KHTS,38.3653,-82.5548,20,4,4.6,KHTS 080051Z 02004KT 10SM FEW047 SCT070 30/21 A2978 RMK AO2 SLP074 T03000211,2024-08-08T00:51:00Z,30,21.1,10+,29.78
KHSE,35.2324,-75.6223,130,17,19.56,KHSE 080051Z AUTO 13017G24KT 6SM BR FEW025 BKN036 BKN045 27/26 A2981 RMK AO2 RAE23 SLP092 P0000 T02720256,2024-08-08T00:51:00Z,27.2,25.6,6,29.81
KHDO,29.3601,-99.1742,0,0,0.0,KHDO 080051Z AUTO 00000KT 10SM FEW110 38/17 A2977 RMK AO2 SLP061 T03780172,2024-08-08T00:51:00Z,37.8,17.2,10+,29.77
KEWR,40.6828,-74.1692,60,9,10.36,KEWR 080051Z 06009KT 10SM -RA FEW009 BKN015 OVC027 20/17 A3003 RMK AO2 RAB49 SLP168 P0000 T02000172,2024-08-08T00:51:00Z,20,17.2,10+,30.03
KERI,42.0803,-80.1824,60,8,9.21,KERI 080051Z 06008KT 10SM CLR 23/15 A2995 RMK AO2 SLP138 T02280150,2024-08-08T00:51:00Z,22.8,15,10+,29.95
KELP,31.8123,-106.377,210,11,12.66,KELP 080051Z 21011KT 10SM FEW100 FEW180 SCT220 SCT250 36/11 A2996 RMK AO2 SLP060 CB DSNT SW T03560111,2024-08-08T00:51:00Z,35.6,11.1,10+,29.96
KEKN,38.8899,-79.8554,0,0,0.0,KEKN 080051Z AUTO 00000KT 10SM CLR 24/21 A2989 RMK AO2 SLP108 T02440206,2024-08-08T00:51:00Z,24.4,20.6,10+,29.89
KDAW,43.2794,-70.9243,0,0,0.0,KDAW 080051Z AUTO 00000KT 10SM CLR 19/14 A3007 RMK AO2 SLP179 T01890144 $,2024-08-08T00:51:00Z,18.9,14.4,10+,30.07
KCSG,32.5163,-84.9422,330,5,5.75,KCSG 080051Z 33005KT 10SM CLR 33/21 A2969 RMK AO2 SLP046 T03280206,2024-08-08T00:51:00Z,32.8,20.6,10+,29.69
KCRP,27.7733,-97.513,150,8,9.21,KCRP 080051Z 15008KT 10SM FEW034 FEW250 31/26 A2978 RMK AO2 SLP082 T03060256,2024-08-08T00:51:00Z,30.6,25.6,10+,29.78
KCON,43.2049,-71.5026,0,0,0.0,KCON 080051Z AUTO 00000KT 10SM CLR 18/14 A3007 RMK AO2 SLP182 T01830144,2024-08-08T00:51:00Z,18.3,14.4,10+,30.07
KCMH,39.9907,-82.8771,50,8,9.21,KCMH 080051Z 05008KT 10SM FEW025 FEW060 FEW250 24/19 A2987 RMK AO2 SLP109 T02390194,2024-08-08T00:51:00Z,23.9,19.4,10+,29.87
KCLE,41.4057,-81.8519,60,10,11.51,KCLE 080051Z 06010KT 10SM BKN033 23/16 A2991 RMK AO2 SLP138 T02330161,2024-08-08T00:51:00Z,23.3,16.1,10+,29.91
KCDJ,39.8198,-93.577,120,3,3.45,KCDJ 080051Z AUTO 12003KT 26/18 A2992 RMK AO1 SLP122 T02560178,2024-08-08T00:51:00Z,25.6,17.8,,29.92
KCAK,40.9181,-81.4434,50,7,8.06,KCAK 080051Z 05007KT 10SM FEW023 OVC030 23/19 A2992 RMK AO2 SLP123 T02330189,2024-08-08T00:51:00Z,23.3,18.9,10+,29.92
KBKW,37.7836,-81.1228,110,5,5.75,KBKW 080051Z AUTO 11005KT 10SM CLR 26/18 A2989 RMK AO2 SLP080 T02560183,2024-08-08T00:51:00Z,25.6,18.3,10+,29.89
KBHK,46.3521,-104.261,10,10,11.51,KBHK 080051Z AUTO 01010KT 10SM BKN044 OVC055 16/08 A3022 RMK AO2 SLP222 T01610083,2024-08-08T00:51:00Z,16.1,8.3,10+,30.22
KBGD,35.695,-101.396,180,9,10.36,KBGD 080051Z AUTO 18009KT 10SM CLR 39/07 A2987 RMK AO2 SLP059 T03940072,2024-08-08T00:51:00Z,39.4,7.2,10+,29.87
KBED,42.4681,-71.2946,120,3,3.45,KBED 080051Z 12003KT 10SM SCT100 18/14 A3007 RMK AO2 SLP192 T01780144 $,2024-08-08T00:51:00Z,17.8,14.4,10+,30.07
KBDL,41.9374,-72.682,0,0,0.0,KBDL 080051Z 00000KT 10SM FEW050 FEW110 FEW250 19/17 A3006 RMK AO2 SLP179 T01940167,2024-08-08T00:51:00Z,19.4,16.7,10+,30.06
KBAZ,29.7089,-98.0459,140,10,11.51,KBAZ 080051Z AUTO 14010KT 10SM CLR 36/22 A2976 RMK AO2 SLP066 T03560217,2024-08-08T00:51:00Z,35.6,21.7,10+,29.76
KAVX,33.4042,-118.415,170,3,3.45,KAVX 080051Z AUTO 17003KT 10SM CLR 23/17 A2999 RMK AO2 SLP130 T02280167,2024-08-08T00:51:00Z,22.8,16.7,10+,29.99
KATT,30.3208,-97.7604,110,5,5.75,KATT 080051Z AUTO 11005KT 10SM CLR 36/20 A2978 RMK AO2 SLP068 T03560200,2024-08-08T00:51:00Z,35.6,20,10+,29.78
KALB,42.7473,-73.7991,180,4,4.6,KALB 080051Z 18004KT 10SM FEW039 FEW055 FEW070 21/16 A3005 RMK AO2 SLP175 T02060156,2024-08-08T00:51:00Z,20.6,15.6,10+,30.05
KAHN,33.9477,-83.3274,70,8,9.21,KAHN 080051Z AUTO 07008G19KT 10SM BKN060 OVC095 28/22 A2971 RMK AO2 SLP050 T02780217,2024-08-08T00:51:00Z,27.8,21.7,10+,29.71
KACT,31.618,-97.2283,90,7,8.06,KACT 080051Z 09007KT 10SM CLR 35/12 A2979 RMK AO2 SLP077 T03500122,2024-08-08T00:51:00Z,35,12.2,10+,29.79
K6R6,30.0482,-102.213,130,8,9.21,K6R6 080051Z AUTO 13008KT 37/11 A2987 RMK AO1 SLP072 T03670106,2024-08-08T00:51:00Z,36.7,10.6,,29.87
TJBQ,18.494,-67.128,0,0,0.0,TJBQ 080050Z 00000KT 10SM CLR 27/23 A2994,2024-08-08T00:50:00Z,27,23,10+,29.94
PTTP,6.96,158.21,40,4,4.6,PTTP 080050Z 04004KT 15SM FEW018 SCT300 33/27 A2988 RMK SLP119 T03280265,2024-08-08T00:50:00Z,32.8,26.5,15,29.88
PTRO,7.367,134.544,80,3,3.45,PTRO 080050Z 08003KT 13SM SCT015 BKN110 OVC290 29/27 A2990 ,2024-08-08T00:50:00Z,29,27,13,29.90
PTPN,6.986,158.21,60,8,9.21,PTPN 080050Z 06008KT 15SM SCT018 BKN300 31/27 A2985 ,2024-08-08T00:50:00Z,31,27,15,29.85
PGRO,14.172,145.24,360,6,6.9,PGRO 080050Z 36006KT 7SM BKN014 BKN100 30/24 A2985,2024-08-08T00:50:00Z,30,24,7,29.85
OOSH,24.388,56.624,VRB,4,4.6,OOSH 080050Z AUTO VRB04KT //// ////// 30/27 Q0999 RMK QFE0996 RH085? PR000.0,2024-08-08T00:50:00Z,30,27,,29.50
OOSA,17.044,54.102,130,7,8.06,OOSA 080050Z 13007KT 2500 +DZ BR BKN003 OVC008 24/24 Q1004 NOSIG,2024-08-08T00:50:00Z,24,24,1.55,29.65
OOMS,23.595,58.298,60,8,9.21,OOMS 080050Z AUTO 06008KT CAVOK ////// 28/25 Q0999 NOSIG,2024-08-08T00:50:00Z,28,25,6+,29.50
OOKB,26.168,56.239,160,8,9.21,OOKB 080050Z AUTO 16008KT CAVOK ////// 33/26 Q0998 NOSIG,2024-08-08T00:50:00Z,33,26,6+,29.47
OODQ,19.511,57.657,210,27,31.07,OODQ 080050Z AUTO 21027KT //// R22///// OVC004 23/23 Q0999 NOSIG RMK RH98? 0,2024-08-08T00:50:00Z,23,23,,29.50
OOAD,22.5,57.37,70,10,11.51,OOAD 080050Z AUTO 07010KT //// R31///// // ///////// 27/22 Q1002 NOSIG,2024-08-08T00:50:00Z,27,22,,29.59
NSTU,-14.337,-170.721,140,17,19.56,NSTU 080050Z 14017G21KT 12SM SCT019TCU BKN040 OVC100 27/21 A2991 RMK TCU ALQDS SLP130 T02700205,2024-08-08T00:50:00Z,27,20.5,12,29.91
MUVR,23.033,-81.435,160,4,4.6,MUVR 080050Z 16004KT 9000 FEW020 26/26 Q1011,2024-08-08T00:50:00Z,26,26,5.59,29.85
MUSC,22.494,-79.931,VRB,3,3.45,MUSC 080050Z VRB03KT 8000 BKN030 24/22 Q1012,2024-08-08T00:50:00Z,24,22,4.97,29.88
MUHG,20.786,-76.316,340,3,3.45,MUHG 080050Z 34003KT 9000 TS FEW036CB SCT040 BKN210 27/23 Q1013,2024-08-08T00:50:00Z,27,23,5.59,29.91
MUHA,22.991,-82.41,VRB,2,2.3,MUHA 080050Z VRB02KT 9000 FEW025 27/25 Q1011,2024-08-08T00:50:00Z,27,25,5.59,29.85
MUCU,19.971,-75.837,230,5,5.75,MUCU 080050Z 23005KT 9000 FEW020 SCT060 30/25 Q1012,2024-08-08T00:50:00Z,30,25,5.59,29.88
MUCM,21.42,-77.85,140,9,10.36,MUCM 080050Z 14009KT 8000 SCT020 BKN040 24/23 Q1013,2024-08-08T00:50:00Z,24,23,4.97,29.91
MUCL,21.621,-81.552,190,3,3.45,MUCL 080050Z AUTO 19003KT 30/25 Q1011,2024-08-08T00:50:00Z,30,25,,29.85
MUCC,22.456,-78.339,190,3,3.45,MUCC 080050Z 19003KT 9000 SCT018CB 26/24 Q1012,2024-08-08T00:50:00Z,26,24,5.59,29.88
MSSA,13.982,-89.549,0,0,0.0,MSSA 080050Z 00000KT 9999 FEW033 FEW037CB 21/21 Q1015 A2997,2024-08-08T00:50:00Z,21,21,6+,29.97
MMMZ,23.161,-106.271,320,13,14.96,MMMZ 080050Z 32013KT 14SM SCT025 SCT080 OVC240 31/25 A2985 RMK 8/857 DSNT CB 1ST QUAD,2024-08-08T00:50:00Z,31,25,14,29.85
LTFO,41.179,40.845,160,4,4.6,LTFO 080050Z 16004KT 9999 SCT016 BKN028 24/21 Q1012 RESHRA,2024-08-08T00:50:00Z,24,21,6+,29.88
LTFH,41.255,36.567,240,3,3.45,LTFH 080050Z 24003KT 9999 SCT028 23/20 Q1012 NOSIG,2024-08-08T00:50:00Z,23,20,6+,29.88
LTFG,36.299,32.3,80,4,4.6,LTFG 080050Z 08004KT CAVOK 25/23 Q1006,2024-08-08T00:50:00Z,25,23,6+,29.70
LTFD,39.559,27.025,70,16,18.41,LTFD 080050Z 07016KT CAVOK 24/13 Q1010,2024-08-08T00:50:00Z,24,13,6+,29.82
LTDA,36.361,36.283,220,16,18.41,LTDA 080050Z 22016KT CAVOK 27/23 Q1004 NOSIG,2024-08-08T00:50:00Z,27,23,6+,29.65
LTCW,37.55,44.238,0,0,0.0,LTCW 080050Z 00000KT 9999 FEW040 11/05 Q1016,2024-08-08T00:50:00Z,11,5,6+,30.00
LTCV,37.365,42.06,240,10,11.51,LTCV 080050Z 24010KT CAVOK 29/06 Q1004,2024-08-08T00:50:00Z,29,6,6+,29.65
LTCT,39.977,43.878,290,13,14.96,LTCT 080050Z 29013KT 9999 FEW040 24/10 Q1013,2024-08-08T00:50:00Z,24,10,6+,29.91
LTCR,37.232,40.638,VRB,4,4.6,LTCR 080050Z VRB04KT CAVOK 29/09 Q1003,2024-08-08T00:50:00Z,29,9,6+,29.62
LTCN,37.539,36.953,80,6,6.9,LTCN 080050Z 08006KT 040V100 CAVOK 25/21 Q1007,2024-08-08T00:50:00Z,25,21,6+,29.73
LTCI,38.469,43.337,310,3,3.45,LTCI 080050Z 31003KT 270V340 9999 FEW040 17/11 Q1015 NOSIG,2024-08-08T00:50:00Z,17,11,6+,29.97
LTCF,40.562,43.115,VRB,2,2.3,LTCF 080050Z VRB02KT CAVOK 11/09 Q1020 NOSIG,2024-08-08T00:50:00Z,11,9,6+,30.12
LTCD,39.71,39.527,VRB,2,2.3,LTCD 080050Z VRB02KT CAVOK 17/12 Q1015 NOSIG,2024-08-08T00:50:00Z,17,12,6+,29.97
LTCB,40.967,38.081,220,3,3.45,LTCB 080050Z 22003KT 9999 FEW022CB BKN028 24/22 Q1012 TEMPO -TSRA,2024-08-08T00:50:00Z,24,22,6+,29.88
LTCA,38.607,39.291,220,5,5.75,LTCA 080050Z 22005KT 180V280 CAVOK 23/08 Q1010 NOSIG,2024-08-08T00:50:00Z,23,8,6+,29.82
LTBY,39.81,30.519,230,5,5.75,LTBY 080050Z 23005KT CAVOK 15/12 Q1015,2024-08-08T00:50:00Z,15,12,6+,29.97
LTBQ,40.735,30.083,VRB,2,2.3,LTBQ 080050Z VRB02KT 9999 FEW025 15/14 Q1013 NOSIG,2024-08-08T00:50:00Z,15,14,6+,29.91
LTBH,40.14,26.425,40,5,5.75,LTBH 080050Z 04005KT CAVOK 20/15 Q1012,2024-08-08T00:50:00Z,20,15,6+,29.88
LTBF,39.619,27.926,0,0,0.0,LTBF 080050Z 00000KT CAVOK 17/15 Q1011 NOSIG,2024-08-08T00:50:00Z,17,15,6+,29.85
LTAY,37.785,29.701,240,4,4.6,LTAY 080050Z 24004KT 210V270 CAVOK 20/11 Q1013 NOSIG,2024-08-08T00:50:00Z,20,11,6+,29.91
LTAR,39.798,36.894,VRB,1,1.15,LTAR 080050Z VRB01KT CAVOK 11/09 Q1019,2024-08-08T00:50:00Z,11,9,6+,30.09
LTAN,37.979,32.562,340,12,13.81,LTAN 080050Z 34012KT CAVOK 22/11 Q1014 NOSIG,2024-08-08T00:50:00Z,22,11,6+,29.94
LTAE,40.079,32.566,20,3,3.45,LTAE 080050Z 02003KT 350V090 CAVOK 15/11 Q1015 NOSIG RMK RWY21 02007KT,2024-08-08T00:50:00Z,15,11,6+,29.97
LGRX,38.151,21.426,0,0,0.0,LGRX 080050Z 00000KT CAVOK 24/22 Q1011,2024-08-08T00:50:00Z,24,22,6+,29.85
LGMK,37.435,25.348,340,10,11.51,LGMK 080050Z 34010KT CAVOK 25/18 Q1009,2024-08-08T00:50:00Z,25,18,6+,29.79
LGLM,39.917,25.236,60,7,8.06,LGLM 080050Z 06007KT CAVOK 25/15 Q1011,2024-08-08T00:50:00Z,25,15,6+,29.85
LGBL,39.22,22.794,250,4,4.6,LGBL 080050Z 25004KT 9999 FEW080 22/18 Q1012,2024-08-08T00:50:00Z,22,18,6+,29.88
LCRA,34.59,32.988,250,4,4.6,LCRA 080050Z 25004KT CAVOK 25/23 Q1005,2024-08-08T00:50:00Z,25,23,6+,29.68
KVQQ,30.2035,-81.8725,270,8,9.21,KVQQ 080050Z 27008KT 10SM BKN065 30/24 A2963,2024-08-08T00:50:00Z,30,24,10+,29.63
KTOA,33.803,-118.336,200,4,4.6,KTOA 080050Z 20004KT 10SM FEW008 SCT150 22/17 A2994,2024-08-08T00:50:00Z,22,17,10+,29.94
KTIX,28.508,-80.798,230,5,5.75,KTIX 080050Z 23005KT 7SM SKC 31/23 A2970 RMK LAST,2024-08-08T00:50:00Z,31,23,7,29.70
KSUN,43.4969,-114.292,240,13,14.96,KSUN 080050Z AUTO 24013G20KT 10SM CLR 27/M02 A3010 RMK AO2,2024-08-08T00:50:00Z,27,-2,10+,30.10
KRYY,34.0146,-84.5964,340,10,11.51,KRYY 080050Z 34010KT 10SM CLR 31/21 A2975 RMK AO2 SLP049 T03100210 $,2024-08-08T00:50:00Z,31,21,10+,29.75
KRHV,37.3331,-121.82,300,9,10.36,KRHV 080050Z 30009KT 10SM SKC 31/12 A2989,2024-08-08T00:50:00Z,31,12,10+,29.89
KOLV,34.9808,-89.7851,360,10,11.51,KOLV 080050Z 36010KT 10SM SCT040 24/19 A2981,2024-08-08T00:50:00Z,24,19,10+,29.81
KNQA,35.3619,-89.8612,360,6,6.9,KNQA 080050Z 36006KT 10SM CLR 26/20 A2983,2024-08-08T00:50:00Z,26,20,10+,29.83
KJWN,36.1852,-86.8833,0,0,0.0,KJWN 080050Z 00000KT 5SM BKN038 25/23 A2979,2024-08-08T00:50:00Z,25,23,5,29.79
KJQF,35.3896,-80.7074,50,12,13.81,KJQF 080050Z 05012G24KT 10SM SCT025 SCT030 27/23 A2977,2024-08-08T00:50:00Z,27,23,10+,29.77
KHSA,30.3765,-89.4554,0,0,0.0,KHSA 080050Z 00000KT 7SM CLR 29/25 A2974,2024-08-08T00:50:00Z,29,25,7,29.74
KHQZ,32.7514,-96.5291,160,5,5.75,KHQZ 080050Z 16005KT 10SM CLR 36/18 A2979,2024-08-08T00:50:00Z,36,18,10+,29.79
KGPM,32.6928,-97.0485,160,6,6.9,KGPM 080050Z 16006KT 10SM SKC 35/17 A2980,2024-08-08T00:50:00Z,35,17,10+,29.80
KEVB,29.0568,-80.9491,250,8,9.21,KEVB 080050Z 25008G15KT 10SM SCT080 30/23 A2967,2024-08-08T00:50:00Z,30,23,10+,29.67
KDAG,34.8537,-116.787,260,11,12.66,KDAG 080050Z AUTO 26011G17KT 10SM FEW110 42/05 A2982 RMK AO2 SLP064 T04220050,2024-08-08T00:50:00Z,42.2,5,10+,29.82
KALN,38.8897,-90.0316,360,4,4.6,KALN 080050Z 36004KT 10SM SCT023 OVC040 23/19 A2990,2024-08-08T00:50:00Z,23,19,10+,29.90
KAEG,35.15,-106.793,140,11,12.66,KAEG 080050Z 14011G16KT 10SM CLR 32/02 A3008,2024-08-08T00:50:00Z,32,2,10+,30.08
KADM,34.3007,-97.0089,0,0,0.0,KADM 080050Z 00000KT 10SM CLR 35/19 A2979,2024-08-08T00:50:00Z,35,19,10+,29.79
FHAW,-7.97,-14.394,150,10,11.51,FHAW 080050Z 15010KT 9999 FEW028 23/17 Q1015 NOSIG RMK BLU BLU,2024-08-08T00:50:00Z,23,17,6+,29.97
ETNG,50.964,6.032,210,3,3.45,ETNG 080050Z 21003KT CAVOK 17/13 Q1015,2024-08-08T00:50:00Z,17,13,6+,29.97
ENOA,60.492,2.827,200,30,34.52,ENOA 080050Z 20030KT 9999 SCT012 BKN050 15/13 Q1001 W///S5,2024-08-08T00:50:00Z,15,13,6+,29.56
EKEB,55.528,8.563,190,3,3.45,EKEB 080050Z 19003KT CAVOK 13/12 Q1011,2024-08-08T00:50:00Z,13,12,6+,29.85
EGYP,-51.82,-58.448,270,16,18.41,EGYP 080050Z AUTO 27016KT 9999 OVC006/// 01/01 Q1017,2024-08-08T00:50:00Z,1,1,6+,30.03
EGXC,53.094,-0.173,200,5,5.75,EGXC 080050Z AUTO 20005KT 9999 OVC056/// 16/11 Q1012,2024-08-08T00:50:00Z,16,11,6+,29.88
EGQS,57.711,-3.324,230,12,13.81,EGQS 080050Z 23012KT 9999 BKN036 14/09 Q1002 RMK BLU,2024-08-08T00:50:00Z,14,9,6+,29.59
EGQL,56.377,-2.862,250,10,11.51,EGQL 080050Z 25010KT CAVOK 12/09 Q1006 RMK BLU,2024-08-08T00:50:00Z,12,9,6+,29.70
EGNS,54.085,-4.632,250,11,12.66,EGNS 080050Z 25011KT 9999 FEW018 BKN045 15/13 Q1010,2024-08-08T00:50:00Z,15,13,6+,29.82
EGJB,49.433,-2.598,230,8,9.21,EGJB 080050Z 23008KT CAVOK 16/15 Q1017,2024-08-08T00:50:00Z,16,15,6+,30.03
EEEI,59.26,24.209,80,2,2.3,EEEI 080050Z AUTO 08002KT CAVOK 11/11 Q1014,2024-08-08T00:50:00Z,11,11,6+,29.94
BGSF,67.013,-50.718,20,4,4.6,BGSF 080050Z AUTO 02004KT 340V060 9999NDV BKN150/// 09/04 Q0998,2024-08-08T00:50:00Z,9,4,,29.47
BGKK,65.575,-37.133,240,8,9.21,BGKK 080050Z AUTO 24008KT 9999NDV OVC110/// 04/03 Q1001,2024-08-08T00:50:00Z,4,3,,29.56
BGJN,69.24,-51.064,240,5,5.75,BGJN 080050Z AUTO 24005KT 0400NDV FG VV002/// 04/04 Q0999,2024-08-08T00:50:00Z,4,4,,29.50
BGGH,64.191,-51.677,VRB,4,4.6,BGGH 080050Z AUTO VRB04KT 9999 BKN003/// OVC091/// 05/04 Q0997,2024-08-08T00:50:00Z,5,4,6+,29.44
BGBW,61.164,-45.42,120,1,1.15,BGBW 080050Z AUTO 12001KT 9999NDV FEW065/// SCT085/// BKN100/// BKN120/// 10/07 Q0997,2024-08-08T00:50:00Z,10,7,,29.44
PAPT,62.087,-152.722,190,9,10.36,PAPT 080049Z 19009KT 20SM FEW025 OVC050 14/11 A2991 RMK NO SPECI.,2024-08-08T00:49:00Z,14,11,20,29.91
MMTO,19.343,-99.568,250,5,5.75,MMTO 080049Z 25005KT 3SM -TSRA BKN015CB OVC070 14/13 A3036 RMK 60595 8/96/ -RAB47 OCNL LTGICCG,2024-08-08T00:49:00Z,14,13,3,30.36
MMSM,19.763,-99.002,60,8,9.21,MMSM 080049Z 06008KT 8SM BKN020CB BKN080 18/14 A3027 RMK 8/960 HZY CI,2024-08-08T00:49:00Z,18,14,8,30.27
MMMM,19.844,-101.037,200,5,5.75,MMMM 080049Z 20005KT 8SM FEW025 BKN300 22/17 A3016 RMK 8/108 TCU N CB NE,2024-08-08T00:49:00Z,22,17,8,30.16
MMIO,25.544,-100.928,360,12,13.81,MMIO 080049Z 36012KT 10SM BKN200 29/14 A3017 RMK 8/008,2024-08-08T00:49:00Z,29,14,10+,30.17
KBKB,31.022,-92.911,0,0,0.0,KBKB 080049Z AUTO 00000KT 10SM 30/22 A2976 RMK AO2 SLP104 T03000217 $,2024-08-08T00:49:00Z,30,21.7,10+,29.76
ETNL,53.916,12.279,280,7,8.06,ETNL 080049Z 28007KT 9999 BKN016 18/18 Q1012 WHT,2024-08-08T00:49:00Z,18,18,6+,29.88
MMVR,19.144,-96.189,60,3,3.45,MMVR 080048Z 06003KT 7SM SCT250 29/25 A2983 RMK 8/008 HZY DSNT CB 3TH 4TH QUAD,2024-08-08T00:48:00Z,29,25,7,29.83
MMLO,20.997,-101.481,300,5,5.75,MMLO 080048Z E30005KT 10SM SCT030TCU SCT090 OVC220 24/13 A3010 RMK 8/237,2024-08-08T00:48:00Z,24,13,10+,30.10
MMCL,24.766,-107.476,270,9,10.36,MMCL 080048Z 27009KT 10SM FEW025TCU 33/25 A2985 RMK 8/200 DNST CB 1QUAD,2024-08-08T00:48:00Z,33,25,10+,29.85
KJDN,47.3259,-106.949,360,5,5.75,KJDN 080048Z AUTO 36005KT 18/11 A3024 RMK AO1 SLP237 T01780106,2024-08-08T00:48:00Z,17.8,10.6,,30.24
KASG,36.1802,-94.1176,70,5,5.75,KASG 080048Z 07005KT 10SM CLR 31/21 A2987,2024-08-08T00:48:00Z,31,21,10+,29.87
MMAA,16.758,-99.754,270,12,13.81,MMAA 080047Z 27012KT 7SM BKN300 30/24 A2974 RMK 8/008 HZY DSNT TCU NE,2024-08-08T00:47:00Z,30,24,7,29.74
KSEE,32.8273,-116.974,250,5,5.75,KSEE 080047Z 25005KT 10SM SKC 28/17 A2995,2024-08-08T00:47:00Z,28,17,10+,29.95
KPOC,34.0928,-117.779,220,10,11.51,KPOC 080047Z 22010KT 10SM CLR 29/15 A2996,2024-08-08T00:47:00Z,29,15,10+,29.96
KPKV,28.6499,-96.6799,170,5,5.75,KPKV 080047Z AUTO 17005KT 10SM CLR 32/26 A2979 RMK AO2,2024-08-08T00:47:00Z,32,26,10+,29.79
KPAO,37.458,-122.112,340,14,16.11,KPAO 080047Z 34014KT 10SM SKC 21/15 A2991,2024-08-08T00:47:00Z,21,15,10+,29.91
KLBE,40.2767,-79.4039,50,8,9.21,KLBE 080047Z 05008KT 10SM SCT030 23/20 A2991,2024-08-08T00:47:00Z,23,20,10+,29.91
KLAL,27.9866,-82.0193,230,4,4.6,KLAL 080047Z 23004KT 10SM SKC 29/27 A2974,2024-08-08T00:47:00Z,29,27,10+,29.74
KIWA,33.3008,-111.644,220,8,9.21,KIWA 080047Z 22008KT 10SM BKN100 36/17 A2988 RMK TCU DSNT N-S,2024-08-08T00:47:00Z,36,17,10+,29.88
KGYR,33.428,-112.368,240,10,11.51,KGYR 080047Z 24010KT 10SM FEW080 SCT150 SCT200 38/17 A2983,2024-08-08T00:47:00Z,38,17,10+,29.83
KCWA,44.7795,-89.671,170,4,4.6,KCWA 080047Z 17004KT 10SM SCT042 21/16 A2996,2024-08-08T00:47:00Z,21,16,10+,29.96
KCHD,33.2669,-111.809,170,10,11.51,KCHD 080047Z 17010G15KT 10SM CLR 36/16 A2985,2024-08-08T00:47:00Z,36,16,10+,29.85
KCFO,39.7948,-104.54,70,8,9.21,KCFO 080047Z 07008KT 10SM CLR 23/14 A3020,2024-08-08T00:47:00Z,23,14,10+,30.20
KAQV,31.396,-93.297,0,0,0.0,KAQV 080047Z AUTO 00000KT 6SM HZ CLR 29/24 A2979 RMK AO2 SLP085 T02890244,2024-08-08T00:47:00Z,28.9,24.4,6,29.79
KADS,32.9634,-96.8354,150,7,8.06,KADS 080047Z 15007KT 10SM SKC 37/17 A2980,2024-08-08T00:47:00Z,37,17,10+,29.80
MMSL,22.948,-109.936,250,12,13.81,MMSL 080046Z 25012KT 10SM SKC 30/22 A2990 RMK SC ISOL CI,2024-08-08T00:46:00Z,30,22,10+,29.90
MMML,32.631,-115.238,190,10,11.51,MMML 080046Z 19010KT 10SM FEW120 FEW200 38/17 A2978 RMK 8/088 TCU SW,2024-08-08T00:46:00Z,38,17,10+,29.78
MMLM,25.688,-109.085,270,12,13.81,MMLM 080046Z 27012KT 10SM FEW220 33/23 A2985 RMK 8/001,2024-08-08T00:46:00Z,33,23,10+,29.85
KTRK,39.3154,-120.137,220,12,13.81,KTRK 080046Z 22012KT 10SM FEW150 29/03 A3025,2024-08-08T00:46:00Z,29,3,10+,30.25
EQYS,37.4,14.92,,,,EQYS 080046Z AUTO 10SM CLR 27/17 A2989 RMK AO2 SLP120 T02720172 $ ,2024-08-08T00:46:00Z,27.2,17.2,10+,29.89
PAKU,70.331,-149.613,260,9,10.36,PAKU 080045Z 26009KT 10SM R24/P6000FT BKN095 BKN110 22/ A2971,2024-08-08T00:45:00Z,22,,10+,29.71
MMLP,24.077,-110.364,330,10,11.51,MMLP 080045Z 33010KT 10SM FEW030 31/21 A2991 RMK 8/400,2024-08-08T00:45:00Z,31,21,10+,29.91
KWDG,36.3781,-97.7888,130,10,11.51,KWDG 080045Z 13010KT 10SM SKC 36/19 A2979,2024-08-08T00:45:00Z,36,19,10+,29.79
KUES,43.0425,-88.2465,90,5,5.75,KUES 080045Z 09005KT 10SM CLR 19/09 A2998,2024-08-08T00:45:00Z,19,9,10+,29.98
KSWF,41.5045,-74.0999,110,5,5.75,KSWF 080045Z 11005KT 10SM SCT044 OVC070 19/17 A3005,2024-08-08T00:45:00Z,19,17,10+,30.05
KSUA,27.1815,-80.2252,180,10,11.51,KSUA 080045Z 18010KT 5SM HZ SCT025 29/25 A2974,2024-08-08T00:45:00Z,29,25,5,29.74
KSAW,46.341,-87.395,160,9,10.36,KSAW 080045Z 16009KT 10SM FEW120 20/13 A2996,2024-08-08T00:45:00Z,20,13,10+,29.96
KOUN,35.2436,-97.4713,100,8,9.21,KOUN 080045Z 10008KT 7SM HZ CLR 37/18 A2980,2024-08-08T00:45:00Z,37,18,7,29.80
KMWC,43.1095,-88.0343,0,0,0.0,KMWC 080045Z 00000KT 10SM CLR 21/12 A2998,2024-08-08T00:45:00Z,21,12,10+,29.98
KMMU,40.7989,-74.4164,70,4,4.6,KMMU 080045Z 07004KT 2 1/2SM DZ OVC008 19/19 A3004,2024-08-08T00:45:00Z,19,19,2.5,30.04
KJVL,42.6213,-89.0419,80,4,4.6,KJVL 080045Z 08004KT 10SM FEW250 22/14 A2995,2024-08-08T00:45:00Z,22,14,10+,29.95
KESN,38.804,-76.069,90,4,4.6,KESN 080045Z 09004KT 10SM BKN006 24/24 A2991,2024-08-08T00:45:00Z,24,24,10+,29.91
KEMT,34.0882,-118.034,200,10,11.51,KEMT 080045Z 20010KT 10SM CLR 27/14 A2994,2024-08-08T00:45:00Z,27,14,10+,29.94
KBBG,36.5259,-93.1969,0,0,0.0,KBBG 080045Z 00000KT 10SM CLR 25/19 A2991,2024-08-08T00:45:00Z,25,19,10+,29.91
KBAK,39.2664,-85.8926,20,7,8.06,KBAK 080045Z 02007KT 10SM SCT045 23/20 A2987,2024-08-08T00:45:00Z,23,20,10+,29.87
KANE,45.1426,-93.2127,VRB,5,5.75,KANE 080045Z VRB05KT 10SM -RA SCT055 OVC080 22/15 A2995,2024-08-08T00:45:00Z,22,15,10+,29.95
MMTC,25.564,-103.408,30,4,4.6,MMTC 080044Z 03004KT 10SM SCT030 BKN200 35/12 A2995 RMK 8/102 ISOL TCU,2024-08-08T00:44:00Z,35,12,10+,29.95
MMSP,22.256,-100.93,80,7,8.06,MMSP 080044Z 08007KT 9SM FEW030 SCT250 26/12 A3016 RMK 8/101,2024-08-08T00:44:00Z,26,12,9,30.16
PAPB,56.576,-169.663,320,10,11.51,PAPB 080043Z AUTO 32010KT 10SM BKN015 OVC085 09/06 A2982 RMK AO2 T00940061 TSNO $,2024-08-08T00:43:00Z,9.4,6.1,10+,29.82
MMZH,17.605,-101.464,270,11,12.66,MMZH 080043Z 27011KT 7SM BKN250 33/22 A2979 RMK 8/008 HZY,2024-08-08T00:43:00Z,33,22,7,29.79
MMVA,17.998,-92.817,10,5,5.75,MMVA 080043Z 01005KT 7SM SCT020TCU 31/26 A2979 RMK 8/200 CBS S,2024-08-08T00:43:00Z,31,26,7,29.79
MMPB,19.17,-98.371,340,4,4.6,MMPB 080043Z 34004KT 8SM SCT020CB BKN090 OVC230 17/14 A3029 RMK 8/963 HZY PCPN SE,2024-08-08T00:43:00Z,17,14,8,30.29
MMMD,20.936,-89.659,340,4,4.6,MMMD 080043Z 34004KT 7SM BKN300 28/25 A2984 RMK 8/008 HZY SC,2024-08-08T00:43:00Z,28,25,7,29.84
MMCZ,20.516,-86.932,0,0,0.0,MMCZ 080043Z 00000KT 7SM SCT015CB BKN100 24/24 A2984 RMK 8/370 SC CI,2024-08-08T00:43:00Z,24,24,7,29.84
MMCS,31.636,-106.427,160,7,8.06,MMCS 080043Z 16007KT 10SM SCT030 SCT200 34/10 A2998 RMK 8/102 CB VC ISOL AC,2024-08-08T00:43:00Z,34,10,10+,29.98
MMSD,23.157,-109.72,70,9,10.36,MMSD 080042Z 07009KT 10SM FEW040 31/19 A2991 RMK 8/500,2024-08-08T00:42:00Z,31,19,10+,29.91
MMGL,20.523,-103.312,260,5,5.75,MMGL 080042Z 26005KT 8SM SCT025TCU BKN300 26/18 A3009 RMK 8/208 DSNT CB N/NW,2024-08-08T00:42:00Z,26,18,8,30.09
MMCB,18.83,-99.265,0,0,0.0,MMCB 080042Z 00000KT 8SM SCT020CB BKN100 BKN250 25/20 A3005 RMK 8/923 TSRA NW HZY,2024-08-08T00:42:00Z,25,20,8,30.05
MMAS,21.702,-102.318,60,2,2.3,MMAS 080042Z 06002KT 9SM SCT045TCU SCT200 25/14 A3016 RMK 8/203 DSNT PCPN 3TH QUAD,2024-08-08T00:42:00Z,25,14,9,30.16
MMTG,16.571,-93.03,290,6,6.9,MMTG 080041Z 29006KT 7SM SCT300 29/22 A2985 RMK 8/002 DSTNT CB W,2024-08-08T00:41:00Z,29,22,7,29.85
MMDO,24.124,-104.532,90,3,3.45,MMDO 080041Z 09003KT 10SM SCT020 SCT080 BKN220 25/07 A3016 RMK 8/463,2024-08-08T00:41:00Z,25,7,10+,30.16
MMZO,19.147,-104.565,300,6,6.9,MMZO 080040Z 30006KT 10SM SCT020 BKN210 30/26 A2980 RMK 8/106 HZY,2024-08-08T00:40:00Z,30,26,10+,29.80
MMZC,22.904,-102.68,0,0,0.0,MMZC 080040Z E00000KT 8SM SCT050 26/13 A3020 RMK 8/300 HZY,2024-08-08T00:40:00Z,26,13,8,30.20
MMUN,21.038,-86.855,0,0,0.0,MMUN 080040Z 00000KT 7SM SCT250 26/26 A2984 RMK 8/003 SC,2024-08-08T00:40:00Z,26,26,7,29.84
MMTP,14.795,-92.371,0,0,0.0,MMTP 080040Z 00000KT 6SM FEW020 SCT080 30/27 A2978 RMK 8/490 HZY OCNL DROPS,2024-08-08T00:40:00Z,30,27,6,29.78
MMTM,22.29,-97.863,110,12,13.81,MMTM 080040Z 11012KT 6SM SCT200 30/25 A2981 RMK 8/001 CU HZ,2024-08-08T00:40:00Z,30,25,6,29.81
MMTL,20.1725,-87.6622,0,0,0.0,MMTL 080040Z 00000KT 7SM SCT020 SCT200 26/25 A2988 RMK 8/403,2024-08-08T00:40:00Z,26,25,7,29.88
MMTJ,32.544,-116.982,290,9,10.36,MMTJ 080040Z 29009KT 8SM BKN160 25/18 A2997 RMK 8/080 HZY,2024-08-08T00:40:00Z,25,18,8,29.97
MMPR,20.68,-105.25,310,4,4.6,MMPR 080040Z 31004KT 13SM BKN030CB OVC250 32/25 A2985 RMK 8/903 AC,2024-08-08T00:40:00Z,32,25,13,29.85
MMPN,19.396,-102.041,0,0,0.0,MMPN 080040Z 00000KT 5SM SCT025CB BKN070 OVC250 22/19 A3013 RMK 8/363 HZY SC,2024-08-08T00:40:00Z,22,19,5,30.13
MMPA,20.601,-97.459,90,8,9.21,MMPA 080040Z 09008KT 6SM SKC 30/22 A2982 RMK HZY,2024-08-08T00:40:00Z,30,22,6,29.82
MMOX,17.002,-96.724,120,3,3.45,MMOX 080040Z 12003KT 8SM BKN030 BKN210 22/18 A3013 RMK 8/402 HZY,2024-08-08T00:40:00Z,22,18,8,30.13
MMNL,27.448,-99.574,0,0,0.0,MMNL 080040Z 00000KT 10SM SCT040 40/16 A2974 RMK 8/500,2024-08-08T00:40:00Z,40,16,10+,29.74
MMMY,25.774,-100.104,120,6,6.9,MMMY 080040Z 12006KT 12SM SCT200 33/20 A2984 RMK 8/008 ISOL SC,2024-08-08T00:40:00Z,33,20,12,29.84
MMMV,26.956,-101.47,10,12,13.81,MMMV 080040Z 01012KT 10SM SCT200 37/13 A2983 RMK 8/002,2024-08-08T00:40:00Z,37,13,10+,29.83
MMMA,25.77,-97.523,130,13,14.96,MMMA 080040Z 13013KT 10SM SKC 31/25 A2979,2024-08-08T00:40:00Z,31,25,10+,29.79
MMLT,25.993,-111.35,0,0,0.0,MMLT 080040Z 00000KT 8SM SCT030CB BKN120 BKN240 31/24 A2984 RMK 8/363 HZY CB VC SE,2024-08-08T00:40:00Z,31,24,8,29.84
MMIA,19.276,-103.576,0,0,0.0,MMIA 080040Z 00000KT 6SM BKN030 BKN200 25/23 A2995 RMK 8/501,2024-08-08T00:40:00Z,25,23,6,29.95
MMHO,29.097,-111.051,240,7,8.06,MMHO 080040Z 24007KT 10SM SCT100 SCT200 37/18 A2987 RMK 8/061 ISOL CU HZY,2024-08-08T00:40:00Z,37,18,10+,29.87
MMGM,27.964,-110.928,240,10,11.51,MMGM 080040Z 24010KT 10SM BKN080 33/26 A2980 RMK 8/02/,2024-08-08T00:40:00Z,33,26,10+,29.80
MMCU,28.701,-105.965,340,4,4.6,MMCU 080040Z 34004KT 10SM FEW030 BKN070 OVC200 29/13 A3010 RMK 8/472 VC TCU,2024-08-08T00:40:00Z,29,13,10+,30.10
MMCP,19.817,-90.502,340,10,11.51,MMCP 080040Z 34010KT 7SM SCT020 SCT080 BKN250 30/26 A2984 RMK 8/468 DSNT CB S,2024-08-08T00:40:00Z,30,26,7,29.84
MMCN,27.395,-109.837,270,12,13.81,MMCN 080040Z 27012KT 10SM BKN100 BKN200 33/20 A2981 RMK 8/038 DSNT CB E AND S HZY,2024-08-08T00:40:00Z,33,20,10+,29.81
MMAN,25.865,-100.239,120,6,6.9,MMAN 080040Z 12006KT 12SM SKC 34/17 A2984 RMK ISOL SC CI,2024-08-08T00:40:00Z,34,17,12,29.84
HUEN,0.036,32.437,10,6,6.9,HUEN 080030Z 01006KT 9999 FEW023 21/20 Q1015,2024-08-08T00:30:00Z,21,20,6+,29.97
